{"type":"FeatureCollection","features":[{"type":"Feature","properties":{"lite":true,"src":"data/years/1456-04-01.geojson"},"geometry":{"type":"MultiPolygon","coordinates":[[[[37.489,54.419],[37.37,54.434],[37.427,54.397],[37.342,54.401],[37.178,54.274],[37.078,54.298],[37.05,54.272],[36.715,54.277],[36.688,54.306],[36.715,54.311],[36.738,54.384],[36.67,54.42],[36.293,54.445],[36.179,54.428],[36.22,54.383],[36.204,54.359],[36.075,54.488],[35.962,54.535],[35.865,54.548],[35.834,54.518],[35.751,54.564],[35.693,54.551],[35.673,54.603],[35.627,54.614],[35.669,54.629],[35.502,54.666],[35.583,54.769],[35.543,54.774],[35.534,54.818],[35.49,54.799],[35.42,54.848],[35.188,54.828],[35.13,54.893],[35.017,54.918],[35.007,54.943],[35.051,54.97],[35.124,54.975],[35.115,55.038],[35.254,55.091],[35.28,55.179],[35.345,55.206],[35.296,55.25],[35.351,55.269],[35.259,55.33],[35.33,55.429],[35.289,55.472],[35.345,55.528],[35.297,55.576],[35.395,55.594],[35.323,55.666],[35.337,55.703],[35.304,55.734],[35.345,55.744],[35.33,55.794],[35.283,55.8],[35.209,55.894],[35.227,55.909],[35.199,55.889],[35.204,55.919],[35.148,55.958],[35.231,56.043],[35.338,56.093],[35.283,56.112],[35.363,56.179],[35.316,56.228],[35.407,56.244],[35.453,56.2],[35.518,56.201],[35.499,56.185],[35.536,56.184],[35.537,56.153],[35.7,56.117],[35.735,56.174],[36.031,56.212],[36.022,56.246],[36.09,56.25],[36.089,56.305],[36.124,56.315],[36.201,56.287],[36.185,56.261],[36.213,56.244],[36.179,56.238],[36.212,56.206],[36.35,56.169],[36.335,56.065],[36.617,56.079],[36.651,56.086],[36.638,56.113],[36.692,56.107],[36.669,56.127],[36.724,56.1],[36.704,56.116],[36.756,56.139],[36.724,56.164],[36.746,56.207],[36.868,56.227],[36.917,56.308],[37.018,56.308],[36.972,56.333],[37.022,56.344],[37.0,56.365],[37.045,56.402],[36.978,56.462],[37.097,56.511],[37.1,56.533],[37.054,56.531],[37.148,56.587],[37.115,56.641],[37.159,56.652],[37.13,56.668],[37.154,56.69],[37.233,56.671],[37.404,56.519],[37.557,56.543],[37.641,56.504],[37.781,56.58],[37.742,56.625],[37.753,56.659],[37.976,56.703],[38.021,56.677],[38.067,56.761],[38.251,56.765],[38.23,56.824],[38.114,56.82],[38.152,56.846],[38.1,56.855],[38.194,56.903],[38.199,56.949],[38.13,56.964],[38.221,56.985],[38.258,57.042],[38.253,57.074],[38.205,57.073],[38.249,57.111],[38.162,57.171],[38.15,57.225],[38.313,57.26],[38.327,57.301],[38.275,57.368],[38.017,57.336],[37.805,57.44],[37.852,57.471],[37.801,57.501],[37.853,57.588],[37.811,57.625],[37.632,57.661],[37.649,57.703],[37.489,57.811],[37.38,57.82],[37.434,57.869],[37.33,57.885],[37.359,57.905],[37.475,57.898],[37.493,57.909],[37.362,57.949],[37.368,57.993],[37.224,57.973],[37.257,57.944],[37.192,57.875],[37.054,57.861],[36.97,57.902],[36.885,57.866],[36.903,57.777],[36.939,57.747],[36.874,57.714],[36.901,57.666],[37.017,57.6],[36.937,57.575],[36.961,57.566],[36.951,57.524],[36.879,57.491],[36.883,57.441],[36.827,57.402],[36.741,57.389],[36.636,57.431],[36.478,57.395],[36.367,57.449],[36.359,57.493],[36.248,57.479],[36.205,57.506],[36.221,57.528],[36.16,57.512],[36.118,57.536],[36.111,57.565],[36.21,57.628],[36.208,57.679],[36.268,57.695],[36.186,57.742],[36.194,57.786],[36.239,57.793],[36.19,57.843],[36.272,57.907],[36.276,57.953],[36.207,57.967],[36.255,57.99],[36.195,58.016],[36.241,58.051],[36.174,58.064],[36.217,58.068],[36.202,58.083],[36.243,58.12],[36.175,58.154],[36.18,58.193],[36.114,58.186],[36.092,58.263],[35.967,58.265],[35.909,58.34],[35.843,58.353],[35.762,58.429],[35.94,58.423],[35.918,58.44],[35.942,58.465],[36.02,58.459],[36.182,58.512],[36.229,58.6],[36.128,58.624],[36.154,58.633],[36.111,58.722],[35.995,58.704],[35.971,58.723],[35.996,58.735],[35.945,58.725],[35.916,58.739],[35.973,58.749],[35.783,58.754],[35.75,58.782],[35.745,58.822],[35.829,58.813],[35.74,58.844],[35.75,58.959],[35.685,59.025],[35.81,59.01],[35.865,59.039],[35.824,59.051],[35.852,59.071],[35.906,59.065],[35.846,59.127],[35.894,59.135],[35.907,59.208],[35.833,59.245],[35.537,59.27],[35.456,59.233],[35.377,59.253],[35.391,59.327],[35.3,59.341],[35.314,59.372],[35.447,59.412],[35.318,59.486],[35.316,59.52],[35.513,59.503],[35.409,59.53],[35.494,59.536],[35.495,59.652],[35.606,59.614],[35.615,59.712],[35.407,59.719],[35.375,59.858],[35.447,59.917],[35.446,59.978],[35.146,60.021],[35.14,60.043],[35.214,60.074],[35.156,60.152],[35.182,60.201],[35.163,60.256],[35.274,60.336],[35.278,60.479],[35.549,60.462],[35.566,60.408],[35.859,60.418],[35.961,60.458],[36.39,60.456],[36.443,60.526],[36.552,60.553],[36.77,60.495],[36.932,60.49],[36.987,60.56],[37.106,60.544],[37.247,60.615],[37.803,60.578],[37.879,60.632],[37.864,60.691],[37.914,60.711],[38.27,60.696],[38.281,60.82],[38.587,60.798],[38.62,60.716],[38.807,60.708],[38.888,60.773],[38.955,60.765],[39.184,60.64],[39.159,60.696],[39.199,60.723],[39.375,60.686],[39.645,60.75],[39.681,60.718],[39.761,60.741],[39.886,60.654],[40.01,60.647],[40.049,60.674],[40.186,60.671],[40.193,60.695],[40.282,60.68],[40.429,60.783],[40.591,60.719],[40.721,60.781],[40.771,60.775],[40.754,60.738],[40.793,60.734],[40.785,60.715],[40.904,60.704],[40.895,60.684],[41.141,60.636],[41.31,60.668],[41.362,60.642],[41.445,60.459],[41.438,60.378],[41.593,60.334],[41.591,60.299],[41.696,60.303],[41.695,60.346],[41.849,60.318],[41.932,60.366],[41.917,60.384],[41.995,60.367],[41.99,60.388],[42.087,60.401],[42.345,60.331],[42.445,60.344],[42.448,60.375],[42.743,60.352],[42.718,60.236],[43.024,60.221],[42.956,60.285],[42.997,60.299],[43.032,60.261],[43.051,60.357],[43.236,60.348],[43.246,60.323],[43.408,60.298],[43.37,60.256],[43.382,60.226],[43.484,60.156],[43.532,60.206],[43.495,60.238],[43.531,60.245],[43.569,60.183],[43.683,60.18],[43.684,60.17],[43.76,60.143],[43.712,60.161],[43.906,60.206],[44.05,60.3],[43.981,60.329],[44.042,60.405],[43.982,60.442],[43.989,60.481],[44.038,60.528],[44.05,60.595],[44.112,60.627],[44.151,60.781],[44.185,60.805],[44.413,60.794],[44.454,60.943],[45.251,60.894],[45.315,61.12],[45.35,61.118],[45.362,61.155],[45.326,61.159],[45.368,61.294],[45.277,61.302],[45.306,61.397],[45.149,61.409],[45.197,61.564],[45.24,61.565],[45.252,61.605],[45.094,61.62],[45.111,61.673],[44.855,61.653],[44.914,61.841],[45.115,61.823],[45.148,61.91],[45.129,61.937],[45.211,61.955],[45.252,61.951],[45.236,61.921],[45.276,61.899],[45.47,61.906],[45.46,61.885],[45.559,61.878],[46.3,61.889],[46.318,62.194],[47.223,62.185],[47.241,62.337],[47.403,62.334],[47.389,62.181],[47.643,62.176],[47.659,62.328],[48.323,62.307],[48.298,62.477],[48.254,62.507],[48.352,62.734],[48.681,62.702],[48.741,62.852],[49.818,62.754],[49.963,63.061],[50.049,63.056],[50.111,63.198],[50.612,63.158],[50.696,63.316],[50.593,63.321],[50.625,63.392],[50.467,63.401],[50.499,63.475],[50.399,63.481],[50.438,63.56],[49.969,63.62],[49.99,63.673],[49.751,63.706],[49.904,63.999],[50.653,63.937],[50.785,64.202],[50.916,64.196],[51.026,64.397],[51.276,64.377],[51.307,64.452],[51.383,64.446],[51.422,64.512],[51.981,64.455],[51.87,64.26],[52.133,64.234],[52.062,64.093],[52.386,64.062],[52.315,63.924],[52.625,63.895],[52.497,63.614],[52.563,63.606],[52.485,63.455],[52.585,63.445],[52.526,63.321],[52.826,63.291],[52.768,63.155],[53.012,63.129],[52.932,62.966],[53.258,62.933],[53.193,62.783],[55.489,62.545],[55.243,62.255],[55.535,62.071],[55.434,61.967],[55.54,61.873],[55.728,61.93],[56.318,61.681],[56.18,61.419],[56.326,61.291],[56.275,61.192],[55.813,61.247],[55.731,61.096],[55.276,61.149],[55.2,60.992],[55.05,61.009],[54.977,60.86],[53.876,60.983],[53.814,60.832],[53.664,60.847],[53.355,60.883],[53.414,61.033],[52.871,61.09],[52.806,60.938],[52.431,60.976],[52.361,60.83],[51.892,60.882],[51.772,60.58],[52.153,60.541],[52.124,60.465],[52.352,60.437],[52.33,60.374],[52.371,60.357],[52.317,60.227],[52.065,60.308],[51.974,60.279],[51.766,60.086],[51.467,59.916],[51.39,59.994],[51.179,60.049],[51.048,60.032],[50.831,59.863],[50.403,59.839],[50.29,59.806],[50.27,59.748],[49.991,59.779],[49.986,59.723],[50.085,59.68],[49.859,59.655],[49.798,59.485],[49.872,59.479],[49.831,59.364],[49.869,59.36],[49.817,59.211],[49.522,59.217],[49.505,59.248],[49.572,59.393],[49.344,59.409],[49.352,59.465],[49.151,59.507],[49.04,59.482],[49.102,59.662],[48.523,59.707],[48.472,60.132],[48.512,60.204],[48.301,60.242],[48.258,60.097],[47.99,60.111],[47.919,59.995],[47.822,60.019],[47.716,59.958],[46.992,59.986],[46.922,59.765],[47.153,59.752],[47.118,59.599],[46.409,59.619],[46.369,59.342],[46.166,59.354],[46.163,59.314],[46.02,59.324],[45.979,59.172],[45.692,59.199],[45.606,59.177],[45.34,59.216],[45.292,58.875],[45.357,58.853],[45.29,58.85],[45.361,58.781],[45.239,58.694],[45.253,58.636],[45.364,58.619],[45.284,58.546],[45.227,58.545],[45.191,58.401],[45.135,58.379],[45.16,58.36],[45.047,58.331],[45.06,58.273],[45.024,58.264],[44.991,58.186],[44.927,58.168],[44.917,58.081],[44.869,58.077],[44.813,58.014],[44.827,57.971],[44.801,57.96],[44.881,57.882],[44.836,57.8],[44.761,57.753],[44.767,57.712],[44.579,57.694],[44.501,57.656],[44.504,57.614],[44.451,57.572],[44.323,57.517],[44.563,57.399],[44.555,57.342],[44.588,57.321],[44.657,57.317],[44.638,57.238],[44.705,57.214],[44.707,57.161],[44.904,57.109],[44.936,57.043],[44.864,56.993],[44.9,56.93],[45.11,56.923],[45.047,56.854],[44.901,56.846],[44.917,56.802],[44.892,56.795],[45.052,56.772],[45.004,56.652],[45.268,56.494],[45.273,56.457],[44.87,56.376],[44.919,56.348],[44.834,56.295],[44.87,56.295],[44.86,56.218],[44.917,56.216],[44.955,56.122],[44.921,56.118],[44.928,56.073],[44.81,56.079],[44.74,56.046],[44.747,56.018],[44.706,56.019],[44.748,55.999],[44.726,55.968],[44.759,55.921],[44.595,55.935],[44.555,55.893],[44.579,55.875],[44.41,55.849],[44.267,55.971],[44.206,55.951],[44.182,55.984],[44.122,55.97],[44.099,56.013],[43.999,56.014],[43.966,56.038],[43.991,56.079],[43.954,56.089],[43.96,56.116],[43.918,56.103],[43.962,56.028],[43.862,55.973],[43.944,55.895],[43.837,55.896],[43.843,55.857],[43.663,55.81],[43.644,55.747],[43.602,55.744],[43.483,55.821],[43.439,55.801],[43.474,55.841],[43.437,55.94],[43.31,55.893],[43.249,55.924],[43.156,55.854],[42.956,55.849],[42.953,55.785],[42.88,55.809],[42.91,55.768],[42.881,55.7],[42.922,55.693],[42.898,55.66],[42.972,55.674],[43.007,55.624],[42.961,55.613],[42.946,55.558],[42.885,55.542],[42.882,55.45],[43.088,55.392],[43.067,55.363],[42.994,55.378],[42.866,55.347],[42.878,55.316],[42.841,55.319],[42.843,55.28],[42.727,55.27],[42.737,55.191],[42.799,55.194],[42.735,55.137],[42.773,55.112],[42.755,55.081],[42.227,54.959],[42.077,54.978],[41.895,54.919],[41.855,54.894],[41.913,54.823],[41.819,54.814],[41.872,54.773],[41.721,54.782],[41.636,54.736],[41.668,54.714],[41.638,54.703],[41.567,54.739],[41.507,54.674],[41.505,54.614],[41.471,54.612],[41.483,54.511],[41.384,54.502],[41.329,54.448],[41.338,54.397],[41.249,54.363],[41.285,54.301],[41.204,54.293],[41.164,54.242],[41.084,54.279],[41.04,54.236],[40.892,54.19],[40.752,54.196],[40.686,54.125],[40.479,54.099],[40.385,54.141],[40.435,54.074],[40.33,53.98],[40.393,53.975],[40.378,53.937],[40.317,53.93],[40.31,53.881],[40.277,53.9],[40.232,53.849],[40.114,53.833],[40.068,53.859],[39.981,53.807],[39.917,53.823],[39.887,53.767],[39.966,53.735],[39.868,53.705],[39.879,53.679],[39.779,53.626],[39.745,53.658],[39.655,53.642],[39.608,53.709],[39.551,53.701],[39.544,53.674],[39.403,53.7],[39.342,53.669],[39.308,53.706],[39.35,53.721],[39.352,53.763],[39.222,53.774],[39.128,53.77],[39.017,53.692],[38.921,53.682],[38.952,53.73],[38.925,53.772],[38.853,53.754],[38.816,53.781],[38.849,53.812],[38.79,53.827],[38.855,53.848],[38.794,53.881],[38.798,53.91],[38.845,53.9],[38.89,53.931],[38.779,53.969],[38.801,54.009],[38.774,54.034],[38.722,53.993],[38.751,54.048],[38.683,54.089],[38.773,54.127],[38.771,54.174],[38.687,54.186],[38.721,54.207],[38.712,54.244],[38.513,54.294],[38.527,54.395],[38.387,54.466],[38.376,54.526],[38.451,54.537],[38.446,54.573],[38.519,54.594],[38.457,54.654],[38.388,54.638],[38.028,54.718],[38.04,54.765],[37.954,54.781],[37.99,54.825],[37.937,54.85],[37.748,54.832],[37.779,54.816],[37.763,54.744],[37.688,54.715],[37.759,54.662],[37.741,54.618],[37.771,54.582],[37.604,54.563],[37.555,54.501],[37.474,54.492],[37.489,54.419]],[[37.366,58.342],[37.435,58.276],[37.371,58.268],[37.386,58.251],[37.335,58.225],[37.583,58.162],[37.612,58.119],[37.757,58.074],[37.784,58.098],[37.766,58.11],[37.95,58.098],[37.992,58.13],[37.979,58.156],[38.106,58.177],[38.127,58.149],[38.182,58.198],[38.217,58.172],[38.271,58.212],[38.298,58.173],[38.293,58.081],[38.413,58.027],[38.491,57.885],[38.646,57.814],[38.562,57.749],[38.736,57.667],[38.707,57.643],[38.734,57.591],[38.7,57.572],[38.83,57.551],[38.861,57.526],[38.971,57.548],[39.018,57.591],[39.222,57.59],[39.23,57.531],[39.276,57.533],[39.256,57.488],[39.359,57.47],[39.338,57.417],[39.522,57.402],[39.549,57.342],[39.66,57.346],[39.709,57.287],[39.669,57.273],[39.68,57.239],[39.846,57.171],[39.937,57.167],[40.032,57.209],[40.18,57.197],[40.176,57.226],[40.244,57.246],[40.176,57.26],[40.267,57.287],[40.404,57.266],[40.439,57.291],[40.447,57.379],[40.39,57.399],[40.444,57.417],[40.406,57.493],[40.507,57.51],[40.443,57.534],[40.448,57.559],[40.592,57.598],[40.632,57.569],[40.718,57.662],[40.656,57.697],[40.678,57.729],[40.647,57.728],[40.657,57.759],[40.613,57.781],[40.653,57.814],[40.598,57.897],[40.676,57.986],[40.81,58.007],[40.771,58.061],[40.897,58.108],[40.883,58.178],[40.907,58.199],[40.958,58.193],[41.037,58.284],[41.19,58.334],[41.148,58.375],[41.179,58.383],[41.048,58.442],[41.104,58.463],[41.042,58.485],[41.058,58.507],[41.019,58.542],[40.89,58.591],[40.626,58.588],[40.469,58.538],[40.204,58.549],[40.081,58.603],[40.13,58.643],[40.048,58.656],[40.02,58.741],[39.871,58.752],[39.793,58.837],[39.72,58.82],[39.604,58.905],[39.571,58.876],[39.431,58.906],[39.378,58.883],[39.334,58.926],[39.24,58.896],[39.124,58.951],[39.024,58.928],[38.99,58.956],[38.926,58.897],[39.036,58.856],[38.92,58.807],[38.923,58.733],[38.719,58.754],[38.687,58.728],[38.557,58.773],[38.565,58.752],[38.487,58.7],[38.413,58.727],[38.065,58.73],[37.983,58.707],[38.023,58.689],[37.955,58.677],[37.897,58.611],[37.712,58.626],[37.694,58.523],[37.615,58.492],[37.665,58.451],[37.541,58.416],[37.536,58.391],[37.418,58.391],[37.411,58.357],[37.382,58.362],[37.366,58.342]]],[[[33.122,56.189],[33.078,56.229],[33.159,56.326],[33.047,56.349],[33.04,56.438],[33.303,56.463],[33.404,56.523],[33.569,56.485],[33.596,56.524],[33.666,56.52],[33.658,56.546],[33.695,56.54],[33.708,56.58],[33.876,56.594],[33.879,56.646],[33.999,56.665],[33.999,56.635],[34.041,56.626],[34.111,56.663],[34.175,56.644],[34.228,56.574],[34.44,56.536],[34.441,56.499],[34.502,56.488],[34.53,56.514],[34.564,56.429],[34.69,56.372],[34.785,56.382],[34.75,56.358],[34.768,56.311],[34.835,56.309],[34.808,56.29],[34.835,56.283],[34.819,56.243],[34.744,56.244],[34.728,56.307],[34.626,56.308],[34.489,56.259],[34.441,56.18],[34.383,56.182],[34.308,56.121],[34.34,56.092],[34.328,56.047],[34.373,56.023],[34.322,55.995],[34.173,56.063],[34.086,56.027],[33.864,56.06],[33.864,56.014],[33.793,56.01],[33.822,55.962],[33.803,55.933],[33.639,55.96],[33.676,55.899],[33.627,55.893],[33.644,55.881],[33.484,55.908],[33.446,55.942],[33.323,55.906],[33.332,55.947],[33.285,55.961],[33.291,56.009],[33.112,56.018],[33.128,56.045],[33.085,56.072],[33.125,56.108],[33.097,56.105],[33.118,56.149],[33.047,56.155],[33.122,56.189]]]]}}]}