{"type":"FeatureCollection","features":[{"type":"Feature","properties":{"lite":true,"src":"data/years/1502-01-01.geojson"},"geometry":{"type":"MultiPolygon","coordinates":[[[[34.64,65.241],[34.606,65.227],[34.68,65.2],[34.627,65.172],[34.671,65.152],[34.663,65.127],[34.766,65.107],[34.754,65.055],[34.816,65.043],[34.702,64.98],[34.778,64.967],[34.942,64.858],[34.872,64.802],[34.757,64.774],[34.974,64.77],[35.009,64.743],[34.835,64.705],[34.976,64.615],[34.798,64.547],[35.009,64.494],[34.956,64.452],[35.161,64.38],[35.307,64.372],[35.349,64.296],[35.41,64.287],[35.618,64.34],[35.582,64.411],[35.858,64.323],[35.972,64.203],[36.062,64.217],[36.225,64.137],[36.222,64.075],[36.279,64.05],[36.265,64.024],[36.292,64.01],[36.516,63.97],[36.518,63.87],[36.985,63.842],[37.411,63.75],[37.591,63.807],[37.945,63.85],[38.054,63.986],[38.054,64.129],[37.88,64.308],[37.764,64.339],[37.747,64.39],[37.597,64.328],[37.261,64.314],[37.044,64.39],[36.893,64.493],[36.572,64.764],[36.881,65.065],[37.103,65.068],[37.604,64.853],[39.193,64.511],[39.622,64.476],[39.997,64.541],[40.322,64.463],[40.44,64.563],[40.462,64.75],[40.241,64.982],[39.979,65.155],[39.825,65.434],[39.949,65.578],[41.354,65.955],[41.623,66.065],[42.21,66.41],[43.242,66.251],[43.876,66.011],[44.03,66.011],[44.122,66.267],[44.223,66.4],[44.337,66.404],[44.577,66.303],[44.859,66.231],[45.74,66.063],[45.832,66.083],[46.347,66.023],[47.11,65.816],[47.408,65.831],[47.661,65.803],[47.764,65.84],[47.737,65.913],[47.757,65.937],[48.141,66.122],[49.007,66.114],[51.512,66.778],[51.554,66.797],[51.491,66.83],[51.525,66.922],[51.812,66.949],[51.849,66.997],[52.022,67.023],[52.159,67.081],[53.772,66.994],[59.879,66.997],[59.869,66.963],[59.919,66.949],[60.083,66.985],[61.626,67.007],[61.854,67.122],[62.823,67.383],[62.878,67.578],[63.107,67.67],[63.422,67.763],[63.691,67.757],[63.711,67.805],[63.873,67.831],[63.952,67.895],[63.919,67.964],[63.839,68.025],[64.326,68.129],[64.351,68.173],[64.418,68.196],[64.532,68.196],[64.501,68.314],[64.559,68.354],[64.761,68.401],[65.006,68.384],[65.445,68.424],[65.269,68.232],[65.324,68.09],[65.286,68.01],[65.436,67.915],[65.781,67.919],[65.91,67.955],[66.084,67.925],[66.015,67.796],[66.194,67.736],[66.2,67.695],[66.106,67.652],[66.0,67.683],[65.85,67.659],[65.819,67.631],[65.839,67.604],[65.791,67.568],[66.033,67.57],[66.1,67.506],[66.085,67.471],[65.937,67.398],[65.7,67.393],[65.673,67.368],[65.701,67.339],[65.662,67.316],[65.188,67.149],[65.207,67.078],[65.073,67.043],[65.102,66.997],[65.098,66.897],[64.575,66.803],[64.533,66.733],[64.411,66.728],[64.295,66.668],[63.98,66.656],[63.807,66.552],[63.541,66.476],[63.413,66.485],[63.237,66.33],[63.292,66.244],[63.104,66.255],[63.009,66.199],[62.957,66.118],[62.858,66.078],[62.817,66.011],[62.87,65.977],[62.798,65.932],[62.844,65.877],[62.522,65.844],[62.014,65.72],[62.273,65.619],[62.322,65.537],[62.402,65.511],[62.369,65.447],[62.479,65.345],[62.81,65.289],[62.797,65.054],[62.673,64.891],[62.806,64.833],[62.816,64.806],[62.781,64.785],[62.799,64.736],[62.59,64.645],[62.528,64.557],[62.687,64.489],[62.899,64.472],[63.234,64.519],[63.455,64.454],[63.497,64.377],[63.41,64.325],[63.611,64.263],[63.889,64.279],[64.017,64.352],[64.478,64.355],[64.604,64.432],[64.761,64.422],[64.995,64.461],[65.177,64.441],[65.38,64.561],[65.537,64.568],[66.039,63.6],[65.062,62.969],[65.979,62.388],[66.991,62.215],[67.842,61.678],[67.778,61.651],[68.227,61.532],[68.443,61.098],[69.384,60.914],[69.662,60.67],[68.62,59.808],[66.816,59.631],[66.123,59.605],[65.406,60.002],[61.307,58.836],[60.144,58.148],[58.582,57.58],[56.344,57.361],[54.596,57.069],[54.392,57.067],[54.286,57.101],[54.328,57.137],[54.323,57.29],[54.13,57.321],[54.16,57.387],[54.274,57.424],[54.268,57.467],[54.184,57.472],[54.204,57.531],[54.178,57.561],[54.118,57.563],[54.088,57.527],[54.009,57.575],[54.121,57.613],[54.083,57.666],[54.161,57.705],[54.141,57.831],[54.095,57.909],[54.096,57.993],[53.821,58.229],[53.891,58.32],[53.793,58.402],[53.788,58.443],[53.498,58.455],[53.33,58.393],[53.171,58.46],[53.12,58.548],[52.921,58.539],[52.862,58.416],[52.332,58.455],[52.167,58.495],[51.969,58.469],[51.793,58.365],[51.786,58.285],[51.669,58.165],[51.787,58.124],[51.815,58.084],[51.79,58.033],[51.879,57.982],[51.832,57.851],[51.915,57.82],[51.92,57.757],[51.867,57.727],[51.846,57.632],[51.74,57.549],[51.621,57.539],[51.588,57.451],[51.397,57.483],[51.214,57.466],[51.162,57.433],[51.116,57.264],[51.186,57.201],[51.186,57.152],[51.231,57.138],[51.223,57.065],[51.317,57.001],[51.307,56.971],[50.112,56.787],[50.018,56.868],[49.749,56.903],[49.734,56.936],[49.764,56.971],[49.71,57.077],[49.528,57.078],[49.405,57.031],[49.268,57.052],[49.231,57.129],[49.149,57.163],[49.218,57.29],[49.185,57.335],[49.009,57.281],[49.003,57.232],[49.034,57.21],[48.95,57.091],[48.864,57.091],[48.834,57.164],[48.759,57.177],[48.568,57.177],[48.435,57.132],[48.3,57.17],[48.192,57.124],[48.232,57.096],[48.164,57.078],[48.196,57.033],[48.131,57.005],[47.993,57.017],[47.969,56.985],[47.933,57.011],[47.908,56.989],[47.834,57.009],[47.784,57.062],[47.733,57.059],[47.742,57.017],[47.613,56.978],[47.494,56.861],[47.427,56.882],[47.164,56.82],[47.166,56.903],[47.086,56.936],[46.741,56.941],[46.688,56.973],[46.61,56.926],[46.336,56.957],[46.298,56.906],[45.957,56.877],[45.904,56.781],[45.891,56.689],[45.915,56.658],[45.656,56.599],[45.625,56.513],[45.66,56.457],[45.765,56.454],[45.779,56.422],[45.941,56.431],[45.917,56.38],[45.938,56.327],[45.87,56.308],[45.87,56.256],[46.063,56.174],[46.089,56.052],[46.195,56.034],[46.094,55.943],[46.125,55.896],[46.084,55.862],[46.09,55.813],[45.986,55.781],[45.998,55.748],[45.953,55.741],[45.916,55.69],[45.989,55.606],[45.718,55.349],[44.904,55.092],[44.883,55.017],[43.954,54.809],[43.726,54.825],[43.612,54.906],[43.388,54.955],[43.153,54.907],[43.076,54.791],[42.749,54.793],[42.695,54.824],[42.616,54.791],[42.467,54.876],[42.382,54.805],[42.418,54.732],[42.56,54.686],[42.623,54.707],[42.605,54.644],[42.692,54.589],[42.617,54.546],[42.64,54.502],[42.552,54.494],[42.54,54.436],[42.587,54.432],[42.627,54.382],[42.525,54.371],[42.474,54.311],[42.28,54.241],[42.179,54.263],[42.257,54.166],[42.438,54.255],[42.586,54.187],[42.525,54.145],[42.552,54.106],[42.532,54.088],[42.438,54.117],[42.325,54.103],[42.314,54.14],[42.259,54.096],[42.424,54.015],[42.455,53.967],[42.304,53.845],[42.435,53.799],[42.51,53.733],[42.545,53.74],[42.517,53.799],[42.554,53.818],[42.54,53.783],[42.571,53.755],[42.642,53.806],[42.708,53.806],[42.699,53.77],[42.738,53.751],[42.774,53.819],[42.919,53.792],[43.06,53.82],[43.074,53.859],[43.163,53.826],[43.164,53.901],[43.116,53.916],[43.166,53.991],[43.308,54.011],[43.454,53.985],[43.53,54.009],[43.653,53.837],[44.078,53.729],[44.158,53.751],[44.313,53.696],[44.433,53.711],[44.337,53.115],[43.992,52.62],[43.267,52.311],[41.3,52.305],[39.641,51.749],[37.699,52.736],[36.867,52.101],[36.824,52.39],[36.525,52.365],[36.336,51.962],[35.796,51.799],[35.35,51.924],[34.834,51.842],[34.868,51.46],[34.554,51.52],[34.192,51.505],[34.113,51.255],[33.694,51.343],[33.527,51.571],[33.049,51.375],[32.418,51.555],[31.995,51.38],[31.529,51.565],[30.855,51.541],[30.517,51.798],[31.303,52.154],[31.889,52.138],[31.561,52.4],[31.375,53.069],[31.639,53.285],[31.87,53.097],[32.15,53.038],[32.555,53.319],[32.501,53.66],[32.635,53.97],[32.266,54.317],[32.208,54.864],[31.356,54.825],[31.365,54.944],[31.047,55.319],[31.723,55.549],[31.804,56.03],[30.9,55.903],[30.784,56.073],[31.229,56.167],[31.107,56.41],[30.578,56.812],[30.646,56.951],[30.991,56.811],[31.17,57.112],[31.007,57.259],[30.484,57.377],[29.924,57.76],[29.873,58.114],[28.389,58.179],[28.379,58.212],[27.972,58.133],[27.586,58.23],[27.65,58.838],[28.268,59.087],[29.282,59.116],[29.886,59.11],[30.228,58.838],[30.662,59.253],[31.654,59.526],[31.606,60.134],[30.929,61.1],[30.179,61.374],[29.732,61.846],[31.06,62.307],[31.397,62.543],[32.267,62.662],[32.223,62.848],[31.286,62.96],[31.181,63.33],[30.438,63.416],[30.447,63.715],[30.869,64.162],[30.068,64.561],[30.397,65.159],[30.408,65.786],[30.997,65.762],[31.155,65.914],[30.789,66.233],[30.867,66.75],[31.116,67.067],[30.109,67.719],[28.91,68.362],[30.144,69.262],[31.043,69.453],[30.862,69.499],[30.664,69.475],[30.56,69.402],[30.455,69.375],[30.064,69.409],[30.225,69.541],[30.232,69.587],[30.326,69.607],[30.512,69.536],[30.853,69.527],[30.931,69.595],[30.928,69.672],[30.884,69.725],[31.118,69.776],[31.406,69.716],[31.297,69.613],[31.476,69.697],[31.81,69.688],[31.701,69.738],[31.728,69.77],[31.713,69.83],[31.846,69.853],[32.057,69.777],[32.101,69.795],[32.092,69.816],[31.915,69.936],[32.052,69.964],[32.267,69.876],[32.393,69.874],[32.501,69.778],[32.663,69.719],[33.117,69.668],[33.037,69.618],[32.872,69.583],[32.437,69.65],[32.183,69.654],[32.273,69.576],[32.413,69.581],[32.429,69.562],[32.392,69.537],[32.502,69.517],[32.406,69.494],[32.44,69.481],[32.541,69.508],[32.899,69.482],[32.77,69.414],[32.892,69.462],[33.085,69.476],[32.921,69.395],[32.977,69.39],[33.316,69.451],[33.524,69.428],[33.414,69.373],[33.496,69.38],[33.466,69.358],[33.287,69.293],[33.476,69.27],[33.297,69.229],[33.544,69.209],[33.31,69.117],[33.313,69.095],[33.564,69.185],[33.564,69.291],[33.592,69.318],[33.722,69.336],[33.722,69.304],[33.873,69.311],[33.852,69.339],[34.421,69.311],[34.662,69.249],[34.982,69.229],[34.956,69.195],[35.089,69.226],[35.169,69.181],[35.264,69.216],[35.147,69.27],[35.331,69.276],[36.25,69.111],[36.312,69.058],[36.727,68.98],[37.207,68.846],[37.243,68.809],[37.454,68.745],[37.678,68.714],[37.948,68.6],[38.066,68.51],[38.327,68.443],[38.389,68.399],[38.389,68.343],[38.447,68.357],[38.765,68.291],[38.511,68.369],[38.64,68.385],[38.927,68.311],[38.954,68.266],[39.521,68.076],[39.86,68.047],[39.72,68.167],[39.792,68.165],[39.912,68.122],[40.004,68.02],[40.409,67.876],[40.403,67.853],[40.322,67.851],[40.405,67.79],[40.525,67.753],[40.571,67.808],[40.653,67.815],[40.8,67.728],[40.925,67.734],[41.037,67.68],[41.052,67.619],[40.989,67.564],[41.013,67.533],[40.999,67.467],[41.148,67.424],[41.109,67.254],[41.243,67.213],[41.338,67.224],[41.361,67.202],[41.336,67.16],[41.389,67.126],[41.343,67.087],[41.357,67.01],[41.267,66.988],[41.303,66.947],[41.145,66.781],[40.92,66.621],[40.773,66.556],[40.764,66.526],[40.396,66.343],[40.1,66.241],[39.356,66.086],[38.561,66.005],[37.652,66.073],[37.263,66.181],[36.885,66.235],[36.402,66.245],[35.553,66.337],[35.363,66.371],[34.874,66.551],[34.805,66.563],[34.666,66.519],[34.478,66.538],[34.307,66.619],[33.792,66.666],[33.676,66.747],[33.652,66.705],[33.586,66.687],[33.438,66.702],[33.335,66.78],[33.099,66.859],[32.75,67.046],[32.496,67.084],[32.582,67.038],[32.506,67.029],[32.554,66.99],[32.53,66.955],[32.392,66.954],[32.496,66.933],[32.432,66.886],[32.545,66.883],[32.705,66.796],[32.889,66.782],[32.935,66.742],[32.77,66.742],[32.974,66.691],[33.184,66.692],[33.322,66.642],[33.121,66.65],[33.067,66.598],[32.912,66.601],[33.126,66.563],[33.037,66.548],[33.106,66.51],[33.229,66.533],[33.355,66.48],[33.508,66.464],[33.602,66.501],[33.63,66.475],[33.585,66.46],[33.735,66.426],[33.516,66.406],[33.675,66.357],[33.409,66.346],[33.465,66.315],[33.615,66.328],[33.871,66.267],[33.9,66.229],[34.105,66.247],[34.167,66.221],[34.161,66.185],[34.552,66.094],[34.72,65.989],[34.661,65.953],[34.716,65.933],[34.695,65.909],[34.854,65.898],[34.825,65.843],[34.898,65.825],[34.871,65.774],[34.969,65.728],[34.9,65.706],[34.726,65.79],[34.726,65.721],[34.754,65.709],[34.726,65.67],[34.773,65.599],[34.737,65.583],[34.737,65.542],[34.633,65.487],[34.68,65.454],[34.511,65.456],[34.511,65.412],[34.369,65.418],[34.393,65.398],[34.301,65.387],[34.463,65.363],[34.471,65.289],[34.64,65.241]],[[55.433,61.97],[55.539,61.874],[55.729,61.929],[56.312,61.684],[56.18,61.419],[56.317,61.31],[56.382,61.436],[56.568,61.414],[56.6,61.485],[56.642,61.484],[56.66,61.518],[57.081,61.47],[57.1,61.497],[58.846,61.491],[58.856,61.515],[59.05,61.532],[59.152,61.624],[59.352,61.659],[59.426,61.752],[59.323,61.802],[59.409,61.906],[59.494,61.945],[59.446,62.007],[59.405,62.151],[59.506,62.256],[59.522,62.318],[59.618,62.372],[59.596,62.425],[59.64,62.547],[59.462,62.57],[59.476,62.607],[59.391,62.731],[59.438,62.776],[59.467,62.9],[59.227,62.99],[59.213,63.027],[59.247,63.083],[59.141,63.118],[59.136,63.176],[59.077,63.22],[59.069,63.271],[58.833,63.292],[58.713,63.34],[58.372,63.308],[58.257,63.575],[58.138,63.618],[58.064,63.551],[57.957,63.607],[57.897,63.684],[57.474,63.146],[56.796,63.249],[56.721,63.226],[56.68,63.17],[56.327,63.226],[56.325,63.301],[56.077,63.329],[56.092,63.375],[55.71,63.427],[55.454,63.052],[55.376,63.046],[55.277,62.849],[55.374,62.819],[55.46,62.834],[55.504,62.784],[55.257,62.801],[55.155,62.596],[55.126,62.588],[55.48,62.544],[55.243,62.254],[55.536,62.069],[55.433,61.97]],[[41.001,54.796],[40.916,54.527],[40.206,54.587],[39.699,54.788],[39.598,55.026],[39.357,55.026],[39.126,55.171],[38.908,55.138],[38.215,55.148],[38.32,54.596],[38.176,53.973],[38.793,53.983],[39.576,53.891],[40.514,53.852],[40.983,54.116],[41.228,54.528],[41.363,54.935],[41.16,54.998],[41.001,54.796]],[[32.907,52.401],[32.689,52.206],[32.943,51.897],[33.395,51.78],[33.621,52.07],[33.655,52.363],[33.259,52.419],[32.907,52.401]]],[[[35.812,65.155],[35.84,65.138],[35.863,65.079],[35.84,65.06],[35.875,65.02],[35.874,65.018],[35.853,64.996],[35.879,64.991],[35.847,64.993],[35.736,64.957],[35.722,65.01],[35.687,65.022],[35.709,65.025],[35.584,65.042],[35.505,65.12],[35.686,65.171],[35.815,65.157],[35.812,65.155]]],[[[35.934,65.18],[35.982,65.193],[35.957,65.181],[35.972,65.16],[36.005,65.186],[36.067,65.156],[36.267,65.164],[36.077,65.125],[35.93,65.153],[35.934,65.18]]],[[[35.913,65.015],[35.882,65.041],[35.979,65.057],[36.024,65.039],[35.913,65.015]]]]}}]}