{"type":"FeatureCollection","features":[{"type":"Feature","properties":{"lite":true,"src":"data/years/1510-01-13.geojson"},"geometry":{"type":"MultiPolygon","coordinates":[[[[33.002,69.678],[33.096,69.653],[32.833,69.567],[32.178,69.634],[32.188,69.7],[32.116,69.743],[32.094,69.656],[31.953,69.628],[32.051,69.591],[32.001,69.549],[32.179,69.587],[32.496,69.499],[32.26,69.422],[32.622,69.466],[32.713,69.477],[32.845,69.456],[32.805,69.373],[33.062,69.448],[32.815,69.326],[32.884,69.276],[33.048,69.381],[33.495,69.4],[33.404,69.35],[33.486,69.337],[33.21,69.253],[33.246,69.242],[33.344,69.259],[33.356,69.274],[33.454,69.263],[33.267,69.222],[33.473,69.155],[33.048,69.066],[33.005,68.886],[33.074,69.049],[33.584,69.132],[33.64,69.176],[33.558,69.229],[33.599,69.302],[34.312,69.303],[34.366,69.265],[34.88,69.225],[34.937,69.166],[35.125,69.203],[35.118,69.165],[35.148,69.126],[35.181,69.118],[35.146,69.169],[35.289,69.203],[35.176,69.248],[35.864,69.183],[36.042,69.084],[36.046,69.139],[36.061,69.119],[36.098,69.109],[36.285,69.097],[36.247,69.078],[36.786,68.905],[37.665,68.691],[38.357,68.401],[38.287,68.352],[38.398,68.379],[38.44,68.288],[38.484,68.333],[38.785,68.245],[38.501,68.345],[38.6,68.328],[38.638,68.372],[39.084,68.167],[39.173,68.194],[39.579,68.03],[39.87,68.033],[39.753,68.154],[40.006,67.986],[40.366,67.887],[40.273,67.84],[40.419,67.757],[40.644,67.802],[41.02,67.656],[40.948,67.44],[41.081,67.447],[41.081,67.25],[41.317,67.217],[41.278,67.138],[41.386,67.111],[41.212,66.823],[40.505,66.427],[40.004,66.257],[38.656,66.064],[37.924,66.083],[37.145,66.242],[35.554,66.384],[34.898,66.594],[34.464,66.541],[34.373,66.621],[34.505,66.632],[34.352,66.699],[34.118,66.675],[34.184,66.746],[34.151,66.786],[34.13,66.703],[34.064,66.684],[34.054,66.76],[34.026,66.686],[33.926,66.686],[33.607,66.852],[33.601,66.792],[33.539,66.819],[33.583,66.738],[33.504,66.717],[32.79,67.03],[32.998,67.084],[32.323,67.167],[31.87,67.139],[32.046,67.097],[32.267,67.11],[32.383,67.059],[32.4,67.059],[32.389,67.056],[32.565,66.978],[32.417,66.947],[32.487,66.904],[32.387,66.869],[32.941,66.737],[32.905,66.727],[32.805,66.753],[32.684,66.749],[32.855,66.691],[33.291,66.638],[33.118,66.642],[33.054,66.58],[32.821,66.593],[33.102,66.545],[32.931,66.519],[33.651,66.418],[33.463,66.378],[33.625,66.338],[33.414,66.325],[33.077,66.276],[32.982,66.249],[33.572,66.315],[33.563,66.276],[33.879,66.2],[34.105,66.228],[34.141,66.167],[34.698,65.983],[34.634,65.92],[34.683,65.876],[34.826,65.884],[34.775,65.81],[34.887,65.814],[34.837,65.754],[34.95,65.68],[34.66,65.794],[34.683,65.694],[34.764,65.69],[34.686,65.668],[34.784,65.578],[34.737,65.583],[34.633,65.487],[34.676,65.438],[34.456,65.43],[34.271,65.371],[34.466,65.339],[34.457,65.269],[34.524,65.22],[34.662,65.181],[34.637,65.133],[34.686,65.079],[34.787,65.072],[34.786,64.983],[34.608,64.951],[34.77,64.95],[34.943,64.831],[34.78,64.732],[34.841,64.678],[34.968,64.611],[34.778,64.529],[34.759,64.534],[34.731,64.531],[34.7,64.524],[34.683,64.509],[34.889,64.48],[34.996,64.505],[34.964,64.418],[35.404,64.284],[35.697,64.362],[35.955,64.191],[36.233,64.132],[36.172,64.09],[36.249,64.005],[36.506,63.954],[36.515,63.893],[36.518,63.87],[36.62,63.864],[36.635,63.855],[36.644,63.853],[36.709,63.844],[36.725,63.844],[36.725,63.843],[36.769,63.838],[36.788,63.843],[36.796,63.847],[36.807,63.841],[36.874,63.83],[36.896,63.83],[36.941,63.839],[36.956,63.831],[37.0,63.828],[37.0,63.825],[37.018,63.823],[37.028,63.822],[37.067,63.824],[37.146,63.807],[37.146,63.806],[37.146,63.803],[37.162,63.783],[37.411,63.749],[37.685,63.801],[37.692,63.819],[37.768,63.828],[37.769,63.828],[37.782,63.827],[37.819,63.826],[37.931,63.847],[37.936,63.849],[37.945,63.85],[37.947,63.853],[38.075,64.009],[37.893,64.214],[38.01,64.288],[37.79,64.367],[37.791,64.438],[37.615,64.356],[37.151,64.385],[36.574,64.761],[36.626,64.813],[36.626,64.814],[36.658,64.846],[36.661,64.847],[36.884,65.067],[36.915,65.067],[37.103,65.068],[37.604,64.853],[37.947,64.774],[37.95,64.779],[38.002,64.761],[38.118,64.674],[37.994,64.614],[38.013,64.584],[38.206,64.714],[38.361,64.682],[39.193,64.511],[39.622,64.476],[39.701,64.49],[39.801,64.507],[39.997,64.541],[40.322,64.463],[40.44,64.564],[40.462,64.75],[40.461,64.751],[39.961,65.187],[39.887,65.322],[39.824,65.435],[39.95,65.58],[39.975,65.587],[40.227,65.654],[41.354,65.955],[41.623,66.065],[42.132,66.388],[42.21,66.41],[42.595,66.35],[42.717,66.332],[43.241,66.251],[43.876,66.011],[43.969,66.011],[43.974,66.025],[44.023,66.011],[44.194,65.812],[44.234,65.846],[44.222,65.861],[44.167,65.885],[44.166,65.929],[44.086,65.984],[44.182,66.041],[44.074,66.228],[44.22,66.402],[44.305,66.403],[44.335,66.404],[44.577,66.303],[44.859,66.231],[45.74,66.063],[45.833,66.083],[46.347,66.023],[47.11,65.816],[47.407,65.831],[47.661,65.803],[47.764,65.841],[47.737,65.912],[47.756,65.937],[48.141,66.122],[49.007,66.114],[51.511,66.778],[51.554,66.797],[51.493,66.831],[51.527,66.923],[51.812,66.949],[51.848,66.997],[52.022,67.023],[52.156,67.081],[53.772,66.994],[59.884,66.997],[59.867,66.969],[59.919,66.949],[60.084,66.985],[61.625,67.007],[61.854,67.122],[62.824,67.384],[62.877,67.578],[63.108,67.67],[63.422,67.763],[63.691,67.757],[63.712,67.805],[63.873,67.831],[63.952,67.895],[63.92,67.964],[63.839,68.025],[64.326,68.129],[64.351,68.173],[64.418,68.196],[64.532,68.195],[64.501,68.314],[64.557,68.354],[64.762,68.401],[65.006,68.384],[65.446,68.424],[65.272,68.237],[65.324,68.09],[65.286,68.01],[65.436,67.915],[65.781,67.919],[65.911,67.955],[66.082,67.928],[66.015,67.796],[66.194,67.737],[66.2,67.695],[66.106,67.652],[65.991,67.683],[65.84,67.655],[65.838,67.604],[65.793,67.577],[65.836,67.55],[66.034,67.569],[66.1,67.488],[65.973,67.407],[65.689,67.389],[65.673,67.368],[65.699,67.34],[65.66,67.315],[65.188,67.149],[65.207,67.077],[65.073,67.043],[65.101,66.899],[64.575,66.803],[64.532,66.733],[64.412,66.728],[64.294,66.668],[63.98,66.656],[63.805,66.552],[63.54,66.476],[63.412,66.485],[63.237,66.33],[63.293,66.245],[63.104,66.255],[63.009,66.199],[62.958,66.119],[62.859,66.078],[62.816,66.012],[62.868,65.977],[62.798,65.932],[62.846,65.878],[62.523,65.844],[62.015,65.72],[62.275,65.619],[62.322,65.537],[62.399,65.512],[62.369,65.447],[62.479,65.345],[62.81,65.289],[62.797,65.053],[62.673,64.891],[62.806,64.832],[62.781,64.785],[62.799,64.735],[62.59,64.645],[62.531,64.552],[62.687,64.489],[62.9,64.472],[63.237,64.518],[63.455,64.454],[63.496,64.378],[63.409,64.325],[63.611,64.263],[63.889,64.28],[64.018,64.352],[64.478,64.355],[64.603,64.432],[64.761,64.422],[64.995,64.461],[65.176,64.441],[65.4,64.566],[65.537,64.568],[66.04,63.599],[65.062,62.969],[65.979,62.388],[66.989,62.217],[67.843,61.678],[67.778,61.651],[68.227,61.533],[68.443,61.098],[69.384,60.914],[69.663,60.672],[68.621,59.808],[66.816,59.631],[66.125,59.604],[65.406,60.002],[61.307,58.836],[60.142,58.147],[58.581,57.58],[56.344,57.361],[54.596,57.069],[54.39,57.067],[54.288,57.105],[54.328,57.138],[54.323,57.289],[54.13,57.32],[54.16,57.388],[54.274,57.424],[54.268,57.465],[54.185,57.471],[54.204,57.53],[54.178,57.561],[54.119,57.563],[54.088,57.528],[54.003,57.576],[54.121,57.613],[54.083,57.664],[54.161,57.705],[54.141,57.831],[54.094,57.911],[54.096,57.993],[53.821,58.229],[53.891,58.32],[53.792,58.404],[53.787,58.444],[53.498,58.455],[53.324,58.395],[53.17,58.46],[53.117,58.549],[52.919,58.539],[52.862,58.416],[52.331,58.455],[52.179,58.495],[51.97,58.469],[51.793,58.365],[51.786,58.284],[51.668,58.173],[51.711,58.131],[51.788,58.123],[51.815,58.083],[51.79,58.033],[51.88,57.979],[51.832,57.851],[51.915,57.821],[51.92,57.76],[51.867,57.727],[51.847,57.633],[51.738,57.548],[51.63,57.545],[51.587,57.451],[51.398,57.483],[51.178,57.45],[51.131,57.379],[51.118,57.258],[51.186,57.201],[51.187,57.152],[51.23,57.138],[51.223,57.065],[51.317,57.001],[51.308,56.971],[50.11,56.787],[50.018,56.868],[49.748,56.904],[49.734,56.935],[49.764,56.972],[49.709,57.077],[49.528,57.078],[49.405,57.032],[49.268,57.052],[49.231,57.129],[49.149,57.163],[49.218,57.291],[49.185,57.335],[49.009,57.281],[49.003,57.232],[49.035,57.209],[48.95,57.091],[48.859,57.093],[48.834,57.164],[48.759,57.177],[48.569,57.177],[48.434,57.132],[48.3,57.17],[48.192,57.124],[48.232,57.095],[48.165,57.078],[48.196,57.032],[48.13,57.005],[47.993,57.017],[47.971,56.988],[47.933,57.011],[47.908,56.989],[47.784,57.062],[47.733,57.059],[47.74,57.016],[47.612,56.978],[47.493,56.862],[47.427,56.882],[47.171,56.819],[47.147,56.832],[47.165,56.904],[47.086,56.936],[46.741,56.941],[46.687,56.973],[46.61,56.926],[46.336,56.957],[46.301,56.906],[45.957,56.877],[45.904,56.781],[45.891,56.689],[45.917,56.657],[45.657,56.599],[45.624,56.521],[45.66,56.457],[45.764,56.454],[45.78,56.422],[45.939,56.433],[45.917,56.38],[45.938,56.327],[45.87,56.308],[45.87,56.256],[46.063,56.175],[46.089,56.052],[46.195,56.034],[46.094,55.943],[46.123,55.896],[46.083,55.862],[46.089,55.812],[45.985,55.781],[45.998,55.747],[45.953,55.741],[45.916,55.69],[45.99,55.607],[45.718,55.348],[44.904,55.092],[44.884,55.017],[43.955,54.808],[43.727,54.825],[43.612,54.906],[43.409,54.953],[43.153,54.907],[43.076,54.791],[42.749,54.793],[42.694,54.824],[42.616,54.791],[42.464,54.875],[42.381,54.804],[42.415,54.733],[42.56,54.686],[42.622,54.706],[42.604,54.644],[42.693,54.586],[42.617,54.546],[42.641,54.503],[42.552,54.494],[42.54,54.436],[42.588,54.432],[42.627,54.382],[42.525,54.371],[42.475,54.312],[42.279,54.241],[42.179,54.264],[42.257,54.166],[42.439,54.255],[42.586,54.186],[42.525,54.145],[42.551,54.107],[42.532,54.088],[42.437,54.117],[42.348,54.098],[42.322,54.139],[42.279,54.125],[42.27,54.078],[42.425,54.014],[42.456,53.966],[42.304,53.851],[42.338,53.825],[42.435,53.799],[42.525,53.727],[42.545,53.74],[42.518,53.8],[42.552,53.816],[42.54,53.783],[42.571,53.755],[42.642,53.806],[42.708,53.806],[42.699,53.77],[42.739,53.751],[42.774,53.819],[42.919,53.792],[43.06,53.82],[43.075,53.859],[43.164,53.826],[43.164,53.901],[43.116,53.917],[43.175,53.995],[43.309,54.012],[43.454,53.985],[43.529,54.01],[43.654,53.837],[44.078,53.728],[44.155,53.752],[44.313,53.696],[44.432,53.71],[44.337,53.113],[43.99,52.619],[43.267,52.311],[41.3,52.305],[39.64,51.749],[37.699,52.736],[36.867,52.1],[36.824,52.39],[36.525,52.365],[36.337,51.962],[35.796,51.798],[35.349,51.924],[34.834,51.842],[34.868,51.459],[34.554,51.52],[34.291,51.509],[34.247,51.441],[34.173,51.439],[34.117,51.256],[33.976,51.283],[33.918,51.23],[34.009,51.197],[34.104,51.24],[34.14,51.201],[34.066,51.096],[33.967,51.071],[33.965,51.033],[33.889,50.987],[33.735,50.984],[33.698,51.062],[33.562,51.142],[33.597,51.241],[33.684,51.33],[33.644,51.349],[33.664,51.382],[33.526,51.571],[33.121,51.404],[33.114,51.375],[33.009,51.387],[33.069,51.251],[32.963,51.178],[32.94,51.097],[33.058,51.077],[33.044,51.049],[33.084,51.032],[33.201,51.051],[33.156,50.997],[33.184,50.918],[33.123,50.813],[33.166,50.744],[33.024,50.493],[32.873,50.395],[32.726,50.358],[32.35,50.408],[32.232,50.345],[32.139,50.35],[31.977,50.473],[32.031,50.504],[32.028,50.545],[31.962,50.55],[31.847,50.624],[31.797,50.614],[31.748,50.553],[31.612,50.518],[31.282,50.519],[31.183,50.587],[31.213,50.659],[31.095,50.765],[30.836,50.738],[30.743,50.758],[30.78,50.844],[30.656,50.893],[30.649,50.986],[30.514,51.017],[30.518,51.222],[30.556,51.232],[30.646,51.367],[30.588,51.43],[30.618,51.467],[30.567,51.52],[30.584,51.542],[30.533,51.554],[30.543,51.583],[30.515,51.599],[30.557,51.624],[30.575,51.7],[30.626,51.709],[30.516,51.799],[30.799,51.909],[30.897,51.997],[30.941,51.994],[30.916,52.028],[30.935,52.07],[31.14,52.075],[31.305,52.154],[31.764,52.142],[31.683,52.202],[31.699,52.251],[31.572,52.308],[31.606,52.362],[31.562,52.399],[31.427,52.869],[31.252,53.013],[31.364,53.089],[31.379,53.182],[31.527,53.195],[31.639,53.285],[31.853,53.11],[32.117,53.081],[32.268,53.125],[32.47,53.26],[32.455,53.3],[32.555,53.319],[32.501,53.661],[32.635,53.97],[32.265,54.317],[32.208,54.864],[31.356,54.825],[31.365,54.944],[31.047,55.319],[31.723,55.549],[31.804,56.03],[30.904,55.9],[30.777,56.072],[30.686,55.9],[29.948,56.538],[29.061,56.538],[28.813,56.883],[28.093,56.792],[28.012,56.571],[27.825,56.725],[27.929,56.94],[27.638,57.096],[27.773,57.211],[27.795,57.466],[27.532,57.412],[27.511,57.612],[27.663,58.935],[27.771,58.891],[28.267,59.087],[29.884,59.11],[30.228,58.838],[30.661,59.253],[31.654,59.526],[31.606,60.134],[30.929,61.1],[30.179,61.373],[29.733,61.848],[31.06,62.307],[31.395,62.543],[32.267,62.662],[32.223,62.848],[31.286,62.959],[31.181,63.33],[30.436,63.417],[30.446,63.716],[30.869,64.162],[30.068,64.561],[30.397,65.159],[30.408,65.788],[30.997,65.762],[31.155,65.914],[30.789,66.232],[30.867,66.751],[31.116,67.067],[30.109,67.719],[28.907,68.358],[30.143,69.262],[31.043,69.453],[30.862,69.499],[30.664,69.475],[30.561,69.402],[30.458,69.375],[30.063,69.409],[30.225,69.541],[30.232,69.587],[30.326,69.607],[30.512,69.536],[30.853,69.527],[30.931,69.595],[30.928,69.672],[30.884,69.724],[30.892,69.726],[31.056,69.77],[31.441,69.687],[31.268,69.593],[31.54,69.68],[31.819,69.648],[31.69,69.709],[31.775,69.83],[32.098,69.762],[31.9,69.905],[31.942,69.954],[32.876,69.711],[32.852,69.711],[32.846,69.712],[32.716,69.728],[32.715,69.727],[32.711,69.724],[32.683,69.717],[33.0,69.688],[33.011,69.68],[33.002,69.678]],[[56.642,61.484],[56.659,61.518],[57.08,61.47],[57.099,61.497],[58.846,61.491],[58.855,61.516],[59.05,61.532],[59.15,61.624],[59.352,61.659],[59.426,61.752],[59.322,61.802],[59.409,61.908],[59.494,61.945],[59.446,62.006],[59.405,62.153],[59.505,62.255],[59.505,62.3],[59.618,62.372],[59.624,62.409],[59.596,62.424],[59.64,62.547],[59.463,62.572],[59.476,62.606],[59.391,62.73],[59.438,62.776],[59.467,62.9],[59.228,62.989],[59.211,63.026],[59.247,63.083],[59.14,63.117],[59.136,63.176],[59.077,63.221],[59.069,63.271],[58.834,63.292],[58.713,63.34],[58.371,63.309],[58.257,63.575],[58.138,63.618],[58.066,63.551],[57.956,63.607],[57.897,63.684],[57.475,63.146],[56.796,63.249],[56.721,63.226],[56.678,63.17],[56.326,63.227],[56.325,63.301],[56.075,63.33],[56.092,63.375],[55.71,63.427],[55.453,63.051],[55.376,63.046],[55.277,62.849],[55.374,62.818],[55.462,62.833],[55.505,62.784],[55.257,62.801],[55.154,62.594],[55.128,62.59],[55.483,62.54],[55.243,62.254],[55.535,62.07],[55.433,61.97],[55.539,61.874],[55.729,61.929],[56.313,61.683],[56.18,61.419],[56.317,61.31],[56.381,61.437],[56.568,61.414],[56.6,61.486],[56.642,61.484]],[[38.792,53.983],[39.576,53.891],[40.514,53.852],[40.983,54.116],[41.228,54.528],[41.363,54.935],[41.16,54.998],[41.001,54.796],[40.916,54.526],[40.206,54.587],[39.699,54.788],[39.598,55.026],[39.356,55.026],[39.126,55.171],[38.907,55.138],[38.215,55.148],[38.32,54.594],[38.176,53.973],[38.792,53.983]]],[[[35.502,65.105],[35.819,65.155],[35.84,65.049],[35.85,65.041],[35.864,65.039],[35.856,65.037],[36.024,65.034],[35.736,64.957],[35.704,65.028],[35.502,65.105]]]]}}]}