{"type":"FeatureCollection","features":[{"type":"Feature","properties":{"lite":true,"src":"data/years/1587-06-01.geojson"},"geometry":{"type":"MultiPolygon","coordinates":[[[[28.044,59.468],[28.095,59.586],[28.024,59.657],[28.151,59.607],[28.152,59.602],[28.163,59.591],[28.266,59.562],[28.351,59.602],[28.349,59.606],[28.348,59.606],[28.316,59.614],[28.544,59.849],[28.831,59.779],[29.076,59.908],[29.122,59.899],[29.121,59.902],[29.414,59.86],[29.765,59.736],[29.963,59.737],[30.117,59.802],[30.127,59.806],[30.072,59.863],[30.176,59.87],[30.169,59.888],[30.222,59.906],[30.235,59.928],[29.962,60.01],[29.921,60.147],[29.658,60.191],[29.627,60.253],[29.291,60.936],[29.335,60.974],[29.533,61.65],[29.518,61.769],[29.777,61.889],[29.757,61.949],[29.685,62.004],[29.615,61.983],[29.552,62.003],[29.47,62.08],[29.607,62.145],[29.911,62.115],[29.982,62.133],[29.96,62.164],[29.648,62.223],[29.599,62.27],[29.641,62.31],[29.768,62.313],[29.926,62.434],[29.776,62.577],[29.697,62.609],[29.633,62.597],[29.589,62.5],[29.65,62.427],[29.626,62.419],[29.413,62.524],[29.274,63.331],[29.714,65.625],[26.793,66.212],[27.098,66.834],[31.246,67.636],[32.278,67.201],[32.473,67.119],[32.323,67.167],[31.87,67.139],[31.929,67.108],[32.072,67.099],[32.125,67.101],[32.255,67.122],[32.354,67.07],[32.311,67.039],[32.467,67.024],[32.266,67.0],[32.219,66.994],[32.36,66.924],[32.361,66.92],[32.357,66.917],[32.609,66.777],[32.583,66.786],[32.576,66.789],[32.539,66.807],[32.628,66.741],[32.625,66.757],[32.627,66.762],[32.616,66.771],[32.616,66.773],[32.939,66.593],[32.821,66.591],[33.196,66.538],[32.931,66.519],[33.718,66.415],[33.463,66.378],[33.666,66.335],[33.414,66.325],[33.077,66.276],[32.982,66.249],[33.573,66.315],[33.632,66.306],[33.58,66.295],[33.563,66.276],[33.911,66.234],[33.879,66.2],[34.109,66.227],[34.141,66.167],[34.698,65.983],[34.634,65.92],[34.683,65.876],[34.857,65.866],[34.775,65.81],[34.853,65.813],[34.92,65.815],[34.837,65.754],[34.976,65.716],[34.931,65.675],[34.688,65.797],[34.66,65.794],[34.683,65.694],[34.773,65.686],[34.686,65.668],[34.797,65.581],[34.737,65.583],[34.754,65.529],[34.633,65.487],[34.689,65.436],[34.456,65.43],[34.501,65.388],[34.353,65.406],[34.443,65.367],[34.362,65.381],[34.307,65.38],[34.271,65.371],[34.5,65.328],[34.446,65.317],[34.457,65.269],[34.66,65.194],[34.599,65.196],[34.691,65.157],[34.637,65.141],[34.686,65.079],[34.787,65.075],[34.774,64.995],[34.831,65.022],[34.782,64.981],[34.608,64.951],[34.769,64.953],[34.921,64.834],[34.961,64.836],[34.78,64.732],[34.913,64.633],[34.99,64.611],[34.85,64.535],[34.812,64.541],[34.731,64.531],[34.7,64.524],[34.683,64.509],[34.889,64.48],[35.011,64.506],[34.964,64.418],[35.404,64.284],[35.698,64.362],[35.955,64.191],[36.241,64.128],[36.172,64.09],[36.249,64.005],[36.461,63.979],[36.506,63.894],[36.516,63.893],[36.518,63.87],[36.62,63.864],[36.635,63.855],[36.644,63.853],[36.709,63.844],[36.725,63.844],[36.725,63.843],[36.769,63.838],[36.788,63.843],[36.796,63.847],[36.807,63.841],[36.874,63.83],[36.896,63.83],[36.941,63.839],[36.956,63.831],[37.0,63.828],[37.0,63.825],[37.018,63.823],[37.028,63.822],[37.067,63.824],[37.146,63.807],[37.146,63.806],[37.146,63.803],[37.162,63.783],[37.411,63.749],[37.685,63.801],[37.692,63.819],[37.768,63.828],[37.769,63.828],[37.782,63.827],[37.819,63.826],[37.931,63.847],[37.936,63.849],[37.945,63.85],[37.947,63.853],[38.075,64.009],[37.891,64.212],[38.01,64.288],[37.788,64.368],[37.791,64.438],[37.615,64.355],[37.151,64.385],[36.569,64.765],[36.626,64.82],[36.652,64.845],[36.884,65.068],[36.915,65.068],[37.102,65.068],[37.604,64.853],[37.947,64.774],[37.95,64.78],[38.012,64.759],[38.125,64.673],[37.994,64.614],[38.013,64.584],[38.206,64.714],[38.361,64.682],[39.193,64.511],[39.622,64.476],[39.701,64.49],[39.801,64.507],[39.997,64.541],[40.322,64.463],[40.44,64.564],[40.462,64.75],[40.461,64.751],[39.962,65.185],[39.886,65.322],[39.823,65.436],[39.951,65.581],[39.959,65.583],[40.231,65.656],[41.354,65.955],[41.623,66.065],[42.133,66.388],[42.211,66.41],[42.595,66.351],[42.718,66.332],[43.241,66.251],[43.876,66.011],[43.969,66.011],[43.974,66.026],[44.025,66.011],[44.194,65.812],[44.214,65.832],[44.18,65.869],[44.234,65.846],[44.222,65.861],[44.191,65.87],[44.189,65.876],[44.185,65.88],[44.167,65.885],[44.166,65.929],[44.109,65.977],[44.108,65.977],[44.084,65.986],[44.182,66.041],[44.074,66.228],[44.22,66.403],[44.305,66.404],[44.336,66.404],[44.577,66.303],[44.859,66.231],[45.74,66.063],[45.832,66.083],[46.347,66.023],[47.11,65.816],[47.407,65.831],[47.661,65.803],[47.764,65.841],[47.735,65.913],[47.756,65.937],[48.141,66.122],[49.007,66.114],[51.511,66.778],[51.554,66.797],[51.49,66.83],[51.527,66.923],[51.812,66.949],[51.848,66.997],[52.022,67.023],[52.156,67.081],[53.772,66.994],[59.901,66.997],[59.867,66.969],[59.919,66.949],[60.083,66.985],[61.625,67.007],[61.853,67.122],[62.824,67.384],[62.876,67.577],[63.107,67.67],[63.422,67.763],[63.691,67.757],[63.711,67.805],[63.873,67.831],[63.952,67.895],[63.92,67.964],[63.838,68.025],[64.326,68.129],[64.348,68.172],[64.418,68.196],[64.532,68.195],[64.5,68.314],[64.557,68.354],[64.762,68.401],[65.006,68.384],[65.464,68.425],[65.272,68.237],[65.325,68.09],[65.286,68.01],[65.436,67.915],[65.781,67.919],[65.911,67.955],[66.081,67.929],[66.015,67.796],[66.195,67.736],[66.201,67.696],[66.105,67.652],[65.991,67.683],[65.84,67.655],[65.819,67.63],[65.847,67.606],[65.793,67.577],[65.836,67.55],[66.034,67.57],[66.104,67.491],[65.973,67.407],[65.689,67.389],[65.673,67.368],[65.704,67.341],[65.66,67.315],[65.188,67.149],[65.211,67.079],[65.073,67.043],[65.102,66.899],[64.575,66.803],[64.532,66.733],[64.412,66.728],[64.294,66.668],[63.98,66.656],[63.806,66.552],[63.54,66.476],[63.412,66.485],[63.237,66.33],[63.293,66.244],[63.104,66.255],[63.009,66.199],[62.959,66.119],[62.859,66.078],[62.816,66.012],[62.874,65.98],[62.798,65.932],[62.849,65.878],[62.523,65.844],[62.015,65.72],[62.275,65.619],[62.322,65.537],[62.403,65.512],[62.369,65.447],[62.479,65.345],[62.811,65.289],[62.797,65.053],[62.673,64.891],[62.806,64.832],[62.818,64.808],[62.781,64.785],[62.801,64.735],[62.59,64.645],[62.533,64.551],[62.687,64.489],[62.9,64.472],[63.236,64.518],[63.455,64.455],[63.498,64.377],[63.409,64.325],[63.611,64.263],[63.889,64.28],[64.017,64.352],[64.478,64.355],[64.602,64.432],[64.761,64.422],[64.995,64.461],[65.177,64.441],[65.401,64.566],[65.884,64.564],[66.019,64.59],[66.465,64.507],[66.681,64.552],[66.932,64.484],[66.883,64.382],[66.792,64.328],[66.816,64.221],[67.168,64.158],[67.163,64.121],[67.254,64.112],[67.279,64.076],[67.678,64.074],[67.799,64.027],[67.928,64.111],[68.18,64.171],[68.426,64.291],[68.884,64.218],[68.893,64.266],[68.995,64.33],[68.87,64.433],[69.016,64.467],[69.23,64.465],[69.378,64.385],[69.732,64.389],[69.824,64.336],[70.0,64.311],[70.305,64.339],[70.471,64.247],[70.671,64.232],[70.765,64.19],[70.772,64.118],[70.553,64.001],[70.635,63.899],[70.81,63.818],[70.921,63.683],[71.386,63.67],[71.547,63.587],[71.607,63.18],[71.806,63.214],[71.989,63.197],[72.161,63.294],[72.656,63.275],[72.909,63.389],[73.103,63.431],[73.28,63.311],[73.367,63.202],[74.24,63.167],[74.507,63.038],[74.915,63.027],[75.364,63.103],[75.861,63.106],[76.238,63.014],[76.297,62.945],[76.688,63.034],[76.823,62.987],[77.023,62.97],[77.156,62.787],[77.326,62.706],[77.887,62.553],[77.964,62.474],[78.026,62.456],[78.38,62.563],[78.793,62.61],[79.821,62.599],[79.907,62.699],[79.918,62.788],[80.555,62.996],[80.589,63.078],[81.111,63.11],[81.171,62.969],[81.317,62.881],[81.337,62.822],[81.598,62.768],[81.633,62.73],[81.783,62.684],[82.165,62.804],[82.316,62.765],[82.746,62.749],[82.756,62.666],[83.007,62.59],[83.032,62.525],[83.282,62.456],[83.788,62.558],[83.939,62.48],[84.017,62.392],[84.234,62.372],[84.285,62.273],[84.392,62.235],[84.487,62.097],[84.516,61.925],[84.684,61.801],[85.095,61.747],[85.277,61.669],[85.4,61.682],[85.491,61.613],[85.712,61.568],[85.842,61.589],[85.957,61.541],[85.97,61.49],[85.644,61.388],[85.702,61.306],[85.671,61.289],[84.623,61.0],[84.265,60.858],[83.99,60.832],[83.504,61.052],[83.143,61.033],[82.405,60.727],[82.377,60.616],[82.166,60.531],[81.831,60.65],[81.497,60.621],[81.141,60.642],[81.065,60.683],[81.03,60.759],[80.724,60.802],[80.427,60.77],[80.185,60.67],[79.853,60.697],[79.373,60.667],[79.291,60.723],[79.315,60.804],[79.186,60.843],[78.807,60.785],[78.688,60.834],[78.474,60.783],[78.12,60.807],[77.92,60.753],[77.703,60.83],[77.408,60.816],[77.102,60.857],[77.063,60.732],[76.993,60.741],[76.966,60.711],[76.966,60.647],[77.031,60.623],[77.042,60.562],[76.775,60.454],[76.745,60.345],[76.815,60.326],[76.842,60.267],[76.689,60.114],[76.752,60.065],[76.736,59.759],[76.652,59.695],[76.641,59.588],[76.44,59.55],[76.171,59.548],[75.994,59.427],[75.892,59.431],[75.816,59.299],[75.624,59.24],[75.681,59.041],[75.638,58.986],[75.371,58.79],[75.158,58.682],[75.153,58.621],[75.1,58.582],[75.298,58.484],[75.299,58.454],[75.065,58.346],[75.215,58.221],[75.076,58.116],[75.553,57.928],[75.588,57.648],[75.723,57.595],[75.856,57.395],[75.989,57.381],[76.104,57.248],[76.191,56.967],[76.244,56.911],[76.278,56.729],[76.145,56.637],[76.045,56.625],[76.011,56.556],[75.864,56.505],[75.842,56.46],[75.884,56.438],[75.938,56.473],[76.011,56.454],[76.05,56.475],[76.128,56.447],[76.075,56.41],[76.107,56.321],[76.276,56.245],[76.313,56.194],[76.169,56.159],[75.999,56.183],[75.939,56.134],[75.762,56.146],[75.697,56.075],[75.548,56.053],[75.308,55.894],[75.296,55.839],[75.369,55.805],[75.349,55.772],[75.216,55.747],[75.09,55.765],[75.131,55.696],[75.222,55.659],[75.133,55.594],[75.189,55.561],[75.295,55.563],[75.317,55.532],[75.092,55.382],[75.254,55.262],[75.25,55.134],[75.389,55.035],[75.333,54.916],[75.526,54.899],[75.496,54.833],[75.654,54.8],[75.705,54.686],[75.796,54.688],[75.825,54.614],[75.79,54.56],[75.68,54.532],[75.686,54.112],[75.464,54.101],[75.361,54.06],[75.434,53.987],[75.211,53.889],[74.921,54.149],[72.992,55.307],[70.976,55.056],[70.96,55.106],[70.782,55.248],[70.82,55.294],[70.721,55.313],[70.561,55.27],[70.441,55.283],[70.382,55.206],[70.214,55.132],[69.94,55.2],[69.802,55.292],[69.674,55.334],[69.335,55.385],[69.186,55.326],[69.123,55.398],[68.927,55.434],[68.902,55.412],[68.918,55.371],[68.977,55.347],[68.983,55.309],[68.946,55.27],[68.846,55.337],[68.701,55.36],[68.676,55.273],[68.614,55.243],[68.605,55.196],[68.177,55.171],[68.207,55.154],[68.191,55.125],[68.308,55.073],[68.235,55.039],[68.166,54.956],[68.01,54.943],[67.882,54.97],[67.698,54.868],[67.311,54.86],[67.213,54.797],[66.782,54.758],[66.7,54.719],[66.447,54.711],[65.977,54.612],[65.933,54.703],[65.827,54.673],[65.744,54.601],[65.477,54.633],[65.445,54.614],[65.449,54.557],[65.342,54.561],[65.198,54.516],[65.181,54.449],[65.208,54.337],[65.07,54.32],[64.911,54.403],[64.72,54.334],[64.579,54.386],[64.06,54.304],[64.004,54.32],[63.979,54.296],[64.025,54.255],[64.008,54.229],[63.897,54.194],[63.709,54.25],[63.368,54.163],[63.157,54.18],[63.11,54.158],[63.127,54.11],[63.085,54.086],[62.812,54.095],[62.581,54.054],[62.551,54.027],[62.587,53.97],[62.532,53.93],[62.525,53.872],[62.39,53.942],[62.444,53.992],[62.433,54.025],[62.003,54.017],[62.004,53.932],[61.856,53.943],[61.791,54.001],[61.62,53.993],[61.582,53.948],[61.553,53.993],[61.479,54.003],[61.418,54.056],[61.312,54.06],[61.194,54.018],[61.231,53.943],[61.211,53.908],[61.096,53.956],[61.017,53.949],[60.969,53.904],[61.085,53.875],[61.202,53.82],[61.199,53.797],[61.107,53.712],[61.052,53.703],[61.008,53.636],[60.905,53.657],[60.88,53.633],[61.281,53.542],[61.39,53.589],[61.517,53.586],[61.555,53.506],[61.412,53.436],[61.235,53.503],[61.137,53.373],[61.163,53.299],[61.514,53.209],[61.664,53.239],[61.764,53.169],[62.051,53.125],[62.116,53.065],[62.094,52.992],[61.959,52.935],[61.82,52.978],[61.606,52.948],[61.448,53.021],[61.349,52.985],[61.19,53.013],[60.975,52.971],[61.058,52.922],[60.829,52.772],[60.696,52.735],[60.673,52.672],[60.724,52.626],[60.803,52.628],[60.815,52.522],[60.936,52.489],[60.961,52.402],[61.04,52.335],[60.672,52.144],[60.507,52.152],[60.203,51.993],[60.035,51.993],[59.919,52.098],[59.967,52.171],[60.154,52.275],[60.146,52.431],[59.938,52.435],[59.81,52.502],[59.685,52.433],[59.676,52.462],[59.515,52.44],[59.41,52.498],[59.272,52.499],[59.244,52.489],[59.175,52.283],[58.982,52.376],[58.979,52.435],[58.803,52.443],[58.772,52.515],[58.843,52.542],[58.73,52.644],[58.789,52.724],[58.753,52.852],[58.841,52.999],[59.033,53.014],[58.999,53.057],[58.91,53.06],[58.896,53.191],[58.828,53.213],[58.834,53.287],[58.87,53.319],[58.873,53.5],[58.907,53.549],[58.832,53.562],[58.826,53.593],[58.912,53.653],[58.878,53.75],[58.952,53.899],[58.928,53.933],[58.958,53.969],[59.157,53.98],[59.323,54.177],[59.534,54.193],[59.673,54.129],[59.732,54.135],[59.733,54.192],[59.808,54.255],[59.78,54.305],[59.677,54.341],[59.751,54.447],[59.685,54.497],[59.722,54.543],[59.874,54.61],[59.979,54.794],[59.927,54.833],[59.948,54.861],[59.807,54.851],[59.631,54.916],[59.409,54.711],[59.227,54.616],[59.06,54.637],[58.807,54.573],[58.615,54.476],[58.353,54.551],[58.204,54.52],[57.961,54.398],[57.747,54.505],[57.745,54.587],[57.583,54.639],[57.584,54.678],[57.524,54.673],[57.511,54.702],[57.227,54.786],[57.158,54.848],[57.249,54.951],[57.148,55.055],[57.145,55.097],[57.244,55.155],[57.221,55.22],[57.249,55.213],[57.261,55.253],[57.318,55.254],[57.435,55.322],[57.916,55.288],[58.027,55.27],[58.133,55.211],[58.049,55.169],[57.959,55.169],[58.026,55.074],[58.017,55.005],[57.957,54.947],[58.0,54.912],[58.11,54.954],[58.095,55.017],[58.198,55.083],[58.147,55.11],[58.299,55.168],[58.369,55.151],[58.36,55.082],[58.428,55.054],[58.384,54.996],[58.521,55.017],[58.55,54.948],[58.621,54.945],[58.818,55.021],[58.758,55.116],[58.582,55.158],[58.666,55.185],[58.701,55.144],[58.747,55.151],[58.808,55.215],[58.731,55.254],[58.925,55.275],[58.855,55.302],[58.873,55.318],[58.967,55.307],[58.962,55.246],[58.999,55.24],[59.163,55.328],[59.204,55.445],[59.476,55.463],[59.646,55.563],[59.628,55.597],[59.5,55.585],[59.437,55.638],[59.245,55.588],[59.349,55.642],[59.285,55.696],[59.318,55.777],[59.16,55.801],[59.208,55.833],[59.194,55.867],[59.235,55.905],[59.181,56.003],[59.285,56.052],[59.299,56.135],[59.025,56.174],[58.951,56.075],[58.825,56.059],[58.734,56.073],[58.565,56.167],[58.453,56.152],[58.351,56.064],[58.301,56.119],[58.08,56.146],[57.909,56.121],[57.802,56.156],[57.538,56.105],[57.46,56.134],[57.482,56.18],[57.415,56.238],[57.408,56.334],[57.264,56.306],[57.251,56.251],[57.18,56.198],[57.214,56.189],[57.164,56.164],[56.897,56.106],[56.775,56.174],[56.74,56.227],[56.649,56.227],[56.627,56.265],[56.576,56.268],[56.509,56.322],[56.563,56.359],[56.529,56.388],[56.392,56.393],[56.266,56.306],[56.074,56.295],[55.963,56.378],[55.914,56.471],[55.862,56.438],[55.547,56.404],[55.411,56.34],[55.253,56.341],[55.224,56.369],[55.172,56.323],[55.103,56.349],[54.969,56.326],[54.933,56.391],[54.746,56.444],[54.558,56.543],[54.426,56.346],[54.317,56.348],[54.366,56.298],[54.343,56.257],[54.115,56.162],[54.004,56.034],[53.836,56.043],[53.783,55.979],[53.669,55.963],[53.627,55.909],[53.745,55.862],[53.868,55.881],[53.918,55.843],[53.99,55.843],[53.963,55.778],[54.037,55.797],[54.024,55.759],[54.094,55.767],[54.221,55.69],[54.177,55.632],[54.0,55.558],[53.904,55.397],[53.711,55.338],[53.594,55.258],[53.587,55.216],[53.418,55.227],[53.326,55.171],[53.142,55.149],[53.138,55.095],[53.256,55.048],[53.262,55.009],[53.411,54.985],[53.497,54.887],[53.632,54.894],[53.574,54.823],[53.601,54.716],[53.413,54.563],[53.421,54.5],[53.344,54.392],[53.357,54.33],[53.424,54.264],[53.463,54.048],[53.372,53.975],[53.26,54.076],[53.186,54.099],[53.075,54.078],[53.092,54.118],[52.945,54.213],[53.111,54.244],[53.111,54.289],[53.046,54.344],[53.0,54.316],[53.02,54.288],[52.936,54.273],[52.901,54.28],[52.937,54.309],[52.539,54.382],[52.504,54.328],[52.28,54.333],[52.204,54.307],[52.344,54.215],[52.337,54.179],[52.257,54.152],[52.268,54.115],[52.394,54.123],[52.479,54.059],[52.371,53.983],[52.407,53.929],[52.18,53.565],[52.099,53.552],[52.075,53.516],[52.09,53.462],[52.187,53.373],[52.138,53.299],[52.157,53.256],[52.121,53.223],[52.123,53.177],[52.054,53.138],[52.151,53.104],[52.06,53.079],[52.049,52.998],[51.865,52.934],[51.807,52.882],[51.725,52.873],[51.713,52.824],[51.766,52.794],[51.724,52.669],[51.536,52.68],[51.505,52.631],[51.541,52.578],[51.472,52.58],[51.466,52.527],[51.556,52.448],[51.468,52.419],[51.467,52.375],[51.408,52.352],[51.402,52.256],[51.447,52.219],[51.411,52.106],[50.895,51.856],[50.741,51.746],[50.789,51.625],[50.762,51.583],[50.672,51.573],[50.697,51.615],[50.579,51.639],[50.571,51.592],[50.521,51.567],[50.516,51.464],[50.356,51.417],[50.323,51.308],[49.985,51.235],[49.777,51.107],[49.434,51.117],[49.342,50.965],[49.418,50.882],[49.405,50.852],[49.142,50.786],[48.829,50.601],[48.581,50.653],[48.57,50.613],[48.668,50.577],[48.696,50.333],[48.784,50.172],[48.779,50.109],[48.869,50.068],[48.859,49.997],[48.782,49.938],[48.429,49.815],[48.242,49.87],[47.997,50.186],[47.601,50.457],[47.509,50.441],[47.432,50.383],[47.24,50.376],[47.208,50.513],[46.918,50.495],[46.92,50.527],[46.876,50.529],[46.874,50.581],[46.812,50.583],[46.861,50.645],[46.746,50.662],[46.719,50.716],[46.627,50.686],[46.581,50.717],[46.563,50.625],[46.538,50.649],[46.456,50.621],[46.453,50.554],[46.277,50.578],[46.273,50.533],[46.072,50.531],[46.096,50.669],[46.04,50.67],[45.894,50.755],[45.721,50.75],[45.674,50.667],[45.701,50.58],[45.737,50.589],[45.89,50.437],[45.876,50.344],[45.737,50.311],[45.416,50.033],[45.341,49.893],[45.338,49.799],[45.049,49.433],[44.917,49.079],[44.664,48.872],[44.653,48.82],[44.54,48.717],[44.512,48.621],[44.641,48.59],[44.602,48.565],[44.679,48.52],[44.675,48.465],[44.631,48.457],[44.574,48.495],[44.507,48.473],[44.412,48.517],[44.344,48.621],[44.295,48.605],[44.285,48.489],[44.176,48.524],[44.23,48.58],[44.161,48.578],[44.119,48.632],[43.939,48.683],[43.949,48.728],[43.877,48.765],[43.896,48.791],[43.778,48.901],[43.795,48.929],[43.718,48.948],[43.752,48.967],[43.744,48.995],[43.609,49.021],[43.631,49.089],[43.405,49.177],[43.394,49.305],[43.55,49.469],[43.616,49.475],[43.634,49.533],[43.778,49.524],[43.784,49.573],[43.894,49.572],[43.885,49.628],[43.965,49.598],[43.989,49.647],[44.102,49.648],[44.164,49.712],[44.149,49.774],[44.186,49.766],[44.275,49.825],[44.145,49.906],[44.262,50.009],[44.181,50.076],[44.21,50.081],[44.201,50.105],[43.997,50.129],[44.009,50.187],[43.938,50.228],[43.83,50.214],[43.849,50.184],[43.811,50.15],[43.692,50.159],[43.695,50.083],[43.589,50.048],[43.627,50.026],[43.54,49.974],[43.537,49.903],[43.44,49.909],[43.446,49.886],[43.368,49.831],[43.318,49.829],[43.176,49.891],[42.986,49.849],[42.905,49.91],[42.896,49.989],[42.836,49.995],[42.85,50.021],[42.785,50.04],[42.776,50.07],[42.655,50.107],[42.744,50.167],[42.706,50.189],[42.72,50.232],[42.763,50.222],[42.784,50.262],[42.865,50.249],[42.933,50.344],[43.025,50.283],[43.202,50.359],[43.298,50.302],[43.33,50.354],[43.453,50.378],[43.42,50.397],[43.416,50.449],[43.377,50.438],[43.328,50.498],[43.235,50.524],[43.019,50.502],[43.02,50.536],[42.96,50.555],[42.952,50.643],[42.821,50.695],[42.903,50.731],[42.906,50.764],[42.84,50.816],[42.888,50.844],[42.872,50.881],[42.975,50.955],[43.126,50.974],[43.168,51.106],[42.889,51.236],[42.905,51.249],[42.845,51.317],[42.861,51.381],[42.734,51.479],[42.53,51.575],[42.489,51.608],[42.512,51.624],[42.48,51.677],[42.651,51.813],[42.703,51.982],[42.806,52.012],[42.751,52.078],[42.758,52.182],[42.922,52.305],[42.92,52.37],[43.003,52.366],[43.08,52.403],[43.001,52.503],[43.096,52.515],[43.042,52.561],[43.238,52.656],[43.095,52.822],[42.92,52.963],[42.748,53.022],[42.631,53.114],[42.545,53.12],[42.512,53.166],[42.555,53.207],[42.354,53.368],[42.257,53.367],[42.252,53.407],[42.312,53.44],[42.267,53.475],[42.096,53.533],[42.121,53.689],[42.089,53.742],[42.146,53.778],[42.134,53.812],[42.308,53.847],[42.462,53.965],[42.428,54.018],[42.285,54.074],[42.282,54.122],[42.535,54.083],[42.562,54.106],[42.529,54.142],[42.6,54.188],[42.439,54.26],[42.258,54.171],[42.184,54.262],[42.278,54.236],[42.479,54.307],[42.527,54.367],[42.635,54.382],[42.543,54.45],[42.565,54.503],[42.648,54.501],[42.621,54.543],[42.692,54.573],[42.643,54.626],[41.178,54.443],[40.983,54.116],[40.514,53.852],[39.576,53.891],[38.792,53.983],[38.176,53.973],[38.271,54.384],[36.598,54.255],[35.126,54.389],[35.043,54.934],[34.992,54.882],[34.866,54.884],[34.85,54.818],[34.921,54.772],[34.817,54.709],[34.654,54.663],[34.408,54.68],[34.5,54.632],[34.436,54.512],[34.387,54.499],[34.416,54.451],[34.375,54.422],[34.108,54.55],[33.725,54.559],[33.637,54.477],[33.674,54.449],[33.617,54.374],[33.684,54.321],[33.633,54.261],[33.586,54.255],[33.618,54.237],[33.617,54.183],[33.525,54.113],[33.548,54.099],[33.477,54.092],[33.434,54.038],[33.493,54.031],[33.482,54.01],[33.656,54.032],[33.78,53.982],[33.874,53.874],[33.955,53.901],[34.049,53.861],[34.199,53.892],[34.217,53.83],[34.291,53.815],[34.537,53.598],[34.489,53.565],[34.536,53.468],[34.5,53.427],[34.673,53.39],[35.017,53.392],[35.01,53.29],[35.104,53.311],[35.109,53.145],[35.314,53.066],[35.205,53.0],[35.135,53.012],[35.151,52.96],[34.971,52.973],[34.953,52.929],[34.887,52.93],[34.856,52.882],[34.796,52.864],[34.873,52.781],[34.948,52.783],[35.092,52.698],[34.993,52.654],[34.99,52.511],[34.902,52.494],[34.833,52.424],[34.839,52.385],[34.917,52.322],[34.856,52.255],[34.884,52.234],[34.805,52.185],[34.764,52.192],[34.768,52.217],[34.679,52.203],[34.661,52.165],[34.711,52.115],[34.672,52.065],[34.568,52.034],[34.521,52.069],[34.385,51.996],[34.336,51.935],[34.436,51.903],[34.38,51.872],[34.435,51.731],[34.081,51.667],[34.167,51.646],[34.182,51.597],[34.296,51.533],[34.255,51.44],[34.186,51.425],[34.129,51.469],[34.071,51.46],[34.051,51.404],[33.93,51.391],[33.928,51.346],[33.889,51.34],[33.912,51.331],[33.813,51.324],[33.972,51.292],[33.914,51.218],[33.968,51.198],[34.056,51.237],[34.135,51.231],[34.117,51.149],[34.066,51.095],[33.967,51.071],[33.969,51.036],[33.904,50.983],[33.733,50.984],[33.698,51.062],[33.56,51.139],[33.598,51.244],[33.684,51.33],[33.64,51.351],[33.647,51.387],[33.756,51.424],[33.734,51.468],[33.785,51.514],[33.724,51.579],[33.738,51.609],[33.514,51.711],[33.399,51.717],[33.226,51.654],[33.153,51.682],[33.138,51.649],[33.182,51.58],[33.153,51.546],[33.187,51.516],[33.123,51.51],[33.115,51.375],[33.002,51.381],[33.055,51.336],[33.07,51.249],[32.963,51.178],[32.94,51.097],[33.059,51.078],[33.044,51.049],[33.084,51.032],[33.206,51.052],[33.156,50.997],[33.184,50.918],[33.123,50.813],[33.167,50.743],[33.024,50.492],[32.873,50.395],[32.727,50.358],[32.35,50.408],[32.232,50.345],[32.139,50.35],[31.974,50.475],[32.031,50.504],[32.028,50.545],[31.962,50.55],[31.847,50.624],[31.797,50.614],[31.748,50.553],[31.613,50.518],[31.281,50.519],[31.18,50.588],[31.219,50.623],[31.213,50.659],[31.095,50.765],[30.836,50.737],[30.741,50.757],[30.78,50.844],[30.655,50.892],[30.649,50.986],[30.514,51.013],[30.516,51.225],[30.556,51.232],[30.646,51.367],[30.588,51.427],[30.618,51.467],[30.563,51.522],[30.584,51.542],[30.534,51.553],[30.515,51.604],[30.557,51.624],[30.57,51.7],[30.625,51.706],[30.646,51.755],[30.618,51.761],[30.742,51.898],[30.788,51.901],[30.897,51.998],[30.941,51.994],[30.919,52.059],[31.135,52.077],[31.229,52.038],[31.383,52.117],[31.764,52.101],[31.763,52.15],[31.682,52.202],[31.699,52.251],[31.567,52.311],[31.608,52.372],[31.588,52.483],[31.551,52.512],[31.576,52.525],[31.559,52.541],[31.629,52.548],[31.481,52.683],[31.57,52.725],[31.561,52.787],[31.247,53.014],[31.364,53.089],[31.379,53.182],[31.594,53.211],[31.739,53.193],[31.796,53.112],[32.117,53.081],[32.424,53.204],[32.479,53.275],[32.455,53.3],[32.717,53.335],[32.701,53.462],[32.577,53.486],[32.411,53.582],[32.399,53.635],[32.488,53.67],[32.462,53.707],[32.084,53.81],[31.873,53.777],[31.745,53.795],[31.838,53.962],[31.823,54.053],[31.771,54.049],[31.737,54.094],[31.506,54.144],[31.325,54.229],[31.209,54.448],[31.065,54.492],[31.168,54.622],[30.771,54.786],[30.768,54.83],[30.826,54.877],[30.815,54.928],[30.917,54.954],[30.936,54.973],[30.913,55.025],[31.006,55.023],[30.96,55.163],[30.794,55.286],[30.918,55.388],[30.881,55.451],[30.919,55.492],[30.907,55.578],[30.953,55.66],[31.033,55.702],[31.047,55.769],[31.206,55.718],[31.586,55.747],[31.755,55.714],[31.91,55.771],[32.091,55.704],[32.041,55.687],[32.054,55.661],[32.284,55.678],[32.337,55.712],[32.446,55.684],[32.496,55.705],[32.553,55.66],[32.708,55.69],[32.939,55.632],[32.978,55.655],[33.165,55.646],[33.225,55.698],[33.387,55.705],[33.516,55.761],[33.67,55.865],[33.66,55.946],[33.827,55.93],[33.83,55.99],[33.898,56.071],[34.22,56.074],[34.307,56.001],[34.374,56.014],[34.631,55.918],[34.76,55.968],[34.884,55.961],[34.859,56.129],[32.718,57.199],[30.472,57.771],[29.995,58.205],[29.691,58.122],[29.873,58.114],[29.92,57.763],[30.486,57.376],[31.007,57.259],[31.17,57.112],[30.991,56.811],[30.643,56.954],[30.576,56.808],[31.107,56.41],[31.229,56.166],[30.777,56.072],[30.689,55.896],[29.948,56.538],[29.06,56.538],[28.813,56.883],[28.145,56.799],[28.078,56.747],[28.017,56.567],[27.823,56.725],[27.606,56.707],[27.511,57.611],[27.59,58.312],[27.821,58.485],[27.754,58.884],[27.65,58.843],[27.661,58.938],[27.751,58.9],[27.666,58.983],[27.702,59.298],[27.868,59.34],[27.809,59.335],[27.796,59.336],[27.782,59.338],[28.044,59.468]],[[59.591,62.421],[59.64,62.547],[59.454,62.57],[59.476,62.606],[59.432,62.635],[59.447,62.662],[59.41,62.675],[59.38,62.749],[59.438,62.776],[59.452,62.922],[59.228,62.988],[59.21,63.026],[59.247,63.083],[59.139,63.117],[59.136,63.176],[59.076,63.221],[59.069,63.271],[58.834,63.292],[58.713,63.34],[58.369,63.308],[58.257,63.575],[58.138,63.618],[58.068,63.55],[57.954,63.607],[57.897,63.684],[57.477,63.145],[56.796,63.249],[56.771,63.22],[56.721,63.226],[56.682,63.169],[56.317,63.228],[56.325,63.301],[56.066,63.331],[56.092,63.375],[55.71,63.427],[55.452,63.049],[55.376,63.046],[55.277,62.849],[55.374,62.818],[55.462,62.834],[55.514,62.782],[55.257,62.801],[55.153,62.591],[55.128,62.59],[55.489,62.545],[55.243,62.254],[55.535,62.071],[55.433,61.97],[55.539,61.874],[55.728,61.93],[56.318,61.681],[56.18,61.419],[56.317,61.31],[56.381,61.438],[56.568,61.414],[56.601,61.488],[56.642,61.484],[56.656,61.519],[57.08,61.47],[57.096,61.497],[58.846,61.491],[58.851,61.515],[59.05,61.532],[59.15,61.625],[59.352,61.659],[59.426,61.752],[59.329,61.789],[59.336,61.845],[59.494,61.945],[59.444,62.004],[59.405,62.154],[59.505,62.255],[59.5,62.297],[59.618,62.372],[59.624,62.409],[59.591,62.421]]],[[[47.607,45.809],[47.542,45.819],[47.595,45.87],[47.617,45.951],[47.532,45.98],[47.534,46.02],[47.345,46.012],[47.241,46.09],[47.616,46.175],[47.575,46.211],[47.689,46.205],[47.714,46.245],[47.881,46.249],[47.969,46.315],[47.972,46.364],[48.025,46.384],[47.968,46.406],[47.962,46.466],[48.07,46.387],[48.047,46.471],[48.0,46.475],[48.045,46.508],[48.1,46.464],[48.223,46.467],[48.278,46.408],[48.263,46.44],[48.291,46.477],[48.334,46.434],[48.406,46.488],[48.516,46.441],[48.538,46.493],[48.619,46.445],[48.736,46.481],[48.896,46.477],[49.145,46.36],[49.14,46.334],[49.141,46.323],[49.336,46.2],[49.326,46.137],[49.243,46.162],[49.318,46.068],[49.252,46.102],[49.233,46.0],[49.033,46.12],[49.0,45.951],[48.929,45.979],[48.857,45.841],[48.77,45.902],[48.715,45.832],[48.678,45.868],[48.673,45.88],[48.677,45.893],[48.63,45.91],[48.573,45.971],[48.357,45.869],[48.399,45.835],[48.289,45.837],[48.277,45.786],[48.221,45.765],[48.228,45.748],[48.245,45.755],[48.259,45.754],[48.243,45.71],[47.856,45.699],[47.909,45.477],[47.731,45.631],[47.769,45.518],[47.778,45.448],[47.769,45.409],[47.691,45.661],[47.649,45.706],[47.64,45.707],[47.607,45.809]]],[[[36.024,65.04],[35.751,64.955],[35.502,65.105],[35.84,65.138],[35.825,65.096],[35.84,65.049],[35.85,65.041],[35.864,65.039],[35.856,65.037],[35.814,65.052],[35.812,65.088],[35.792,65.096],[35.743,65.039],[35.88,65.019],[36.024,65.04]]]]}}]}