{"type":"FeatureCollection","features":[{"type":"Feature","properties":{"lite":true,"src":"data/years/1600.geojson"},"geometry":{"type":"MultiPolygon","coordinates":[[[[30.176,59.87],[30.169,59.888],[30.222,59.906],[30.235,59.928],[29.962,60.01],[29.921,60.147],[29.444,60.192],[29.751,60.242],[29.749,60.243],[29.754,60.243],[29.761,60.241],[29.952,60.177],[29.943,60.201],[29.928,60.244],[30.055,60.281],[30.0,60.353],[30.057,60.35],[30.105,60.396],[30.093,60.449],[30.044,60.48],[29.857,60.419],[29.696,60.446],[29.691,60.47],[29.755,60.495],[29.73,60.548],[29.639,60.52],[29.531,60.591],[29.526,60.633],[29.648,60.667],[29.496,60.755],[29.51,60.834],[29.694,60.845],[29.568,60.973],[29.615,61.021],[29.553,61.06],[29.573,61.144],[29.551,61.241],[29.425,61.256],[29.306,61.329],[29.178,61.241],[28.819,61.122],[28.714,61.045],[28.657,60.951],[28.524,60.957],[27.967,60.667],[27.883,60.712],[27.849,60.766],[27.506,60.799],[27.373,60.879],[27.213,60.904],[27.15,60.952],[27.248,60.968],[27.15,61.007],[27.147,61.05],[27.228,61.09],[27.186,61.111],[27.214,61.162],[27.36,61.177],[27.388,61.202],[27.368,61.242],[27.439,61.271],[27.577,61.263],[27.601,61.343],[27.755,61.329],[27.794,61.362],[28.266,61.376],[28.427,61.457],[28.441,61.509],[28.649,61.465],[28.791,61.478],[28.818,61.535],[29.262,61.558],[29.403,61.653],[29.539,61.684],[29.563,61.723],[30.144,61.852],[30.603,62.142],[30.654,62.207],[30.781,62.245],[30.929,62.117],[30.91,62.077],[30.998,62.068],[30.914,62.044],[31.058,62.009],[31.061,61.922],[31.179,61.882],[31.123,62.804],[30.561,63.108],[30.586,64.355],[27.601,68.842],[30.73,68.531],[31.158,69.347],[31.029,69.477],[30.9,69.498],[31.01,69.709],[31.041,69.771],[31.446,69.689],[31.268,69.593],[31.511,69.686],[31.819,69.648],[31.686,69.707],[31.729,69.809],[32.098,69.762],[31.892,69.905],[32.055,69.945],[32.663,69.719],[32.68,69.716],[32.683,69.717],[32.999,69.689],[33.0,69.689],[33.0,69.688],[33.011,69.68],[33.002,69.678],[33.0,69.677],[32.99,69.673],[32.984,69.669],[33.099,69.652],[32.833,69.567],[32.178,69.634],[32.188,69.7],[32.116,69.743],[32.094,69.656],[31.953,69.628],[32.054,69.59],[32.001,69.549],[32.178,69.587],[32.502,69.502],[32.26,69.422],[32.901,69.464],[32.843,69.446],[32.804,69.415],[32.805,69.373],[32.91,69.444],[33.074,69.452],[32.815,69.326],[32.884,69.276],[33.049,69.381],[33.501,69.4],[33.358,69.298],[33.399,69.286],[33.255,69.286],[33.305,69.274],[33.21,69.253],[33.246,69.242],[33.344,69.259],[33.353,69.274],[33.454,69.264],[33.267,69.222],[33.42,69.221],[33.365,69.189],[33.383,69.182],[33.5,69.202],[33.479,69.155],[33.048,69.066],[33.005,68.886],[33.073,69.049],[33.584,69.132],[33.573,69.194],[33.64,69.176],[33.556,69.231],[33.599,69.302],[34.312,69.303],[34.366,69.265],[34.978,69.216],[34.937,69.166],[35.127,69.203],[35.118,69.165],[35.166,69.114],[35.129,69.169],[35.289,69.203],[35.151,69.25],[35.251,69.255],[35.864,69.184],[36.042,69.084],[36.046,69.139],[36.075,69.133],[36.061,69.12],[36.098,69.109],[36.288,69.097],[36.247,69.078],[37.805,68.645],[37.743,68.626],[38.334,68.416],[38.313,68.414],[38.365,68.362],[38.287,68.352],[38.37,68.359],[38.377,68.382],[38.387,68.386],[38.44,68.288],[38.434,68.341],[38.456,68.352],[38.444,68.339],[38.785,68.245],[38.494,68.348],[38.6,68.328],[38.648,68.375],[39.084,68.167],[39.706,68.0],[39.635,68.035],[39.87,68.033],[39.741,68.158],[40.006,67.986],[40.376,67.887],[40.273,67.84],[40.419,67.757],[40.643,67.802],[40.911,67.727],[41.037,67.634],[40.948,67.44],[41.119,67.41],[41.081,67.25],[41.315,67.218],[41.278,67.138],[41.393,67.113],[41.211,66.822],[40.47,66.41],[40.003,66.256],[38.653,66.064],[37.926,66.083],[37.145,66.242],[35.554,66.384],[34.898,66.594],[34.462,66.541],[34.367,66.619],[34.505,66.632],[34.352,66.699],[34.093,66.674],[34.141,66.695],[34.184,66.746],[34.172,66.777],[34.151,66.786],[34.13,66.703],[34.064,66.681],[34.054,66.76],[34.025,66.685],[33.925,66.686],[33.607,66.852],[33.625,66.787],[33.542,66.798],[33.643,66.734],[33.519,66.766],[33.543,66.745],[33.631,66.714],[33.632,66.705],[33.503,66.717],[32.789,67.03],[32.998,67.084],[32.323,67.167],[31.87,67.139],[32.046,67.097],[32.255,67.122],[32.354,67.07],[32.311,67.039],[32.516,67.016],[32.572,66.957],[32.564,66.956],[32.417,66.947],[32.504,66.897],[32.387,66.869],[32.956,66.729],[32.859,66.712],[32.805,66.753],[32.684,66.749],[32.855,66.691],[33.319,66.638],[33.118,66.642],[33.099,66.582],[32.821,66.593],[33.196,66.538],[32.931,66.519],[33.718,66.415],[33.463,66.378],[33.666,66.335],[33.414,66.325],[33.215,66.28],[33.077,66.276],[32.982,66.249],[33.573,66.315],[33.632,66.306],[33.58,66.295],[33.563,66.276],[33.911,66.234],[33.871,66.221],[33.879,66.2],[34.109,66.227],[34.141,66.167],[34.698,65.983],[34.634,65.92],[34.683,65.876],[34.857,65.866],[34.775,65.81],[34.842,65.813],[34.92,65.815],[34.837,65.754],[34.976,65.716],[34.931,65.675],[34.688,65.797],[34.66,65.794],[34.683,65.694],[34.773,65.686],[34.686,65.668],[34.797,65.581],[34.737,65.583],[34.754,65.529],[34.633,65.487],[34.689,65.436],[34.456,65.43],[34.531,65.406],[34.474,65.407],[34.509,65.39],[34.501,65.388],[34.353,65.406],[34.443,65.367],[34.362,65.381],[34.307,65.38],[34.271,65.371],[34.5,65.328],[34.446,65.317],[34.457,65.269],[34.66,65.194],[34.599,65.196],[34.691,65.157],[34.637,65.141],[34.686,65.079],[34.783,65.079],[34.774,64.995],[34.831,65.022],[34.782,64.981],[34.608,64.951],[34.769,64.953],[34.921,64.834],[34.961,64.836],[34.78,64.732],[34.913,64.633],[34.99,64.611],[34.859,64.538],[34.781,64.526],[34.759,64.534],[34.731,64.531],[34.7,64.524],[34.683,64.509],[34.772,64.525],[34.787,64.51],[34.83,64.514],[34.809,64.502],[34.868,64.503],[34.889,64.48],[35.011,64.506],[34.964,64.418],[35.404,64.284],[35.698,64.362],[35.955,64.191],[36.241,64.128],[36.176,64.074],[36.3,63.971],[36.514,63.954],[36.517,63.893],[36.518,63.87],[36.62,63.864],[36.635,63.855],[36.643,63.853],[36.711,63.844],[36.725,63.844],[36.725,63.843],[36.769,63.838],[36.788,63.843],[36.796,63.847],[36.807,63.841],[36.874,63.83],[36.896,63.83],[36.941,63.839],[36.956,63.831],[37.0,63.828],[37.0,63.825],[37.018,63.823],[37.028,63.822],[37.07,63.824],[37.146,63.807],[37.146,63.806],[37.146,63.803],[37.161,63.784],[37.411,63.75],[37.685,63.801],[37.692,63.819],[37.768,63.828],[37.769,63.828],[37.782,63.827],[37.818,63.826],[37.931,63.847],[37.936,63.849],[37.945,63.85],[37.947,63.853],[38.067,63.992],[38.072,64.0],[38.075,64.009],[37.891,64.212],[38.01,64.288],[37.788,64.368],[37.791,64.438],[37.615,64.355],[37.151,64.385],[36.574,64.76],[36.626,64.812],[36.626,64.814],[36.659,64.847],[36.661,64.847],[36.662,64.848],[36.881,65.065],[36.914,65.066],[37.104,65.068],[37.604,64.853],[37.947,64.774],[37.95,64.78],[38.012,64.759],[38.125,64.673],[37.994,64.614],[38.013,64.584],[38.206,64.714],[38.361,64.682],[39.193,64.511],[39.622,64.476],[39.701,64.49],[39.801,64.507],[39.997,64.541],[40.322,64.463],[40.44,64.563],[40.462,64.75],[40.461,64.751],[39.962,65.185],[39.887,65.322],[39.825,65.434],[39.949,65.578],[39.992,65.59],[40.224,65.652],[41.354,65.955],[41.623,66.065],[42.21,66.41],[42.595,66.351],[42.717,66.332],[43.242,66.251],[43.876,66.011],[43.969,66.011],[43.974,66.026],[44.025,66.011],[44.194,65.812],[44.203,65.822],[44.195,65.835],[44.204,65.823],[44.214,65.832],[44.18,65.869],[44.234,65.846],[44.222,65.861],[44.191,65.87],[44.189,65.876],[44.188,65.876],[44.185,65.88],[44.167,65.885],[44.166,65.929],[44.109,65.977],[44.108,65.977],[44.105,65.979],[44.101,65.979],[44.089,65.979],[44.084,65.986],[44.182,66.041],[44.091,66.165],[44.224,66.401],[44.305,66.403],[44.336,66.404],[44.577,66.303],[44.859,66.231],[45.74,66.063],[45.832,66.083],[46.347,66.023],[47.11,65.816],[47.408,65.831],[47.661,65.803],[47.764,65.84],[47.737,65.913],[47.757,65.937],[48.141,66.122],[49.007,66.114],[51.512,66.778],[51.554,66.797],[51.491,66.83],[51.525,66.922],[51.812,66.949],[51.849,66.997],[52.022,67.023],[52.159,67.081],[53.772,66.994],[59.879,66.997],[59.869,66.963],[59.919,66.949],[60.083,66.985],[61.626,67.007],[61.854,67.122],[62.823,67.383],[62.878,67.578],[63.107,67.67],[63.422,67.763],[63.691,67.757],[63.711,67.805],[63.873,67.831],[63.952,67.895],[63.919,67.964],[63.839,68.025],[64.326,68.129],[64.351,68.173],[64.418,68.196],[64.532,68.196],[64.501,68.314],[64.559,68.354],[64.761,68.401],[65.006,68.384],[65.445,68.424],[65.269,68.232],[65.324,68.09],[65.286,68.01],[65.436,67.915],[65.781,67.919],[65.91,67.955],[66.084,67.925],[66.015,67.796],[66.194,67.736],[66.2,67.695],[66.106,67.652],[66.0,67.683],[65.85,67.659],[65.819,67.631],[65.839,67.604],[65.791,67.568],[66.033,67.57],[66.1,67.506],[66.085,67.471],[65.937,67.398],[65.7,67.393],[65.673,67.368],[65.701,67.339],[65.662,67.316],[65.188,67.149],[65.207,67.078],[65.073,67.043],[65.102,66.997],[65.098,66.897],[64.575,66.803],[64.533,66.733],[64.411,66.728],[64.295,66.668],[63.98,66.656],[63.807,66.552],[63.541,66.476],[63.413,66.485],[63.237,66.33],[63.292,66.244],[63.104,66.255],[63.009,66.199],[62.957,66.118],[62.858,66.078],[62.817,66.011],[62.87,65.977],[62.798,65.932],[62.844,65.877],[62.522,65.844],[62.014,65.72],[62.273,65.619],[62.322,65.537],[62.402,65.511],[62.369,65.447],[62.479,65.345],[62.81,65.289],[62.797,65.054],[62.673,64.891],[62.806,64.833],[62.816,64.806],[62.781,64.785],[62.799,64.736],[62.59,64.645],[62.533,64.551],[62.687,64.489],[62.899,64.472],[63.234,64.519],[63.455,64.454],[63.497,64.377],[63.41,64.325],[63.611,64.263],[63.889,64.279],[64.017,64.352],[64.478,64.355],[64.604,64.432],[64.761,64.422],[64.995,64.461],[65.177,64.441],[65.4,64.566],[65.884,64.564],[66.02,64.59],[66.465,64.507],[66.682,64.552],[66.932,64.482],[66.884,64.383],[66.792,64.328],[66.816,64.221],[67.161,64.159],[67.163,64.121],[67.253,64.112],[67.279,64.076],[67.677,64.074],[67.798,64.027],[67.929,64.111],[68.18,64.171],[68.427,64.291],[68.884,64.218],[68.894,64.266],[68.995,64.33],[68.874,64.433],[69.015,64.467],[69.229,64.465],[69.389,64.384],[69.732,64.389],[69.824,64.336],[69.999,64.311],[70.304,64.339],[70.471,64.247],[70.67,64.232],[70.765,64.189],[70.77,64.117],[70.554,63.999],[70.641,63.893],[70.818,63.811],[70.911,63.688],[71.386,63.67],[71.546,63.587],[71.607,63.18],[71.805,63.214],[71.989,63.197],[72.16,63.294],[72.656,63.275],[72.911,63.389],[73.101,63.431],[73.279,63.313],[73.366,63.202],[74.24,63.167],[74.507,63.038],[74.915,63.027],[75.363,63.103],[75.7,63.086],[75.804,63.109],[76.235,63.015],[76.297,62.945],[76.689,63.034],[76.823,62.987],[77.022,62.971],[77.155,62.787],[77.326,62.706],[77.885,62.553],[78.014,62.457],[78.379,62.563],[78.793,62.61],[79.821,62.599],[79.907,62.699],[79.92,62.789],[80.555,62.996],[80.592,63.079],[81.074,63.112],[81.115,63.107],[81.171,62.969],[81.316,62.881],[81.337,62.821],[81.596,62.769],[81.633,62.73],[81.783,62.684],[82.165,62.804],[82.316,62.765],[82.746,62.749],[82.755,62.666],[83.006,62.591],[83.032,62.525],[83.282,62.456],[83.787,62.558],[83.939,62.48],[84.017,62.392],[84.24,62.368],[84.286,62.272],[84.39,62.236],[84.444,62.17],[84.487,62.096],[84.516,61.925],[84.684,61.801],[85.096,61.747],[85.277,61.669],[85.403,61.682],[85.491,61.613],[85.712,61.568],[85.843,61.588],[85.956,61.541],[85.962,61.455],[86.129,61.374],[86.211,61.374],[86.327,61.452],[86.507,61.406],[86.523,61.349],[86.603,61.311],[86.775,61.317],[86.976,61.36],[86.989,61.411],[86.95,61.447],[87.003,61.46],[87.254,61.376],[87.245,61.354],[87.467,61.339],[87.474,61.266],[87.564,61.209],[87.692,61.267],[87.713,61.296],[87.676,61.329],[87.778,61.362],[87.963,61.315],[88.181,61.346],[88.952,60.746],[89.966,60.795],[89.97,60.523],[91.079,59.097],[92.662,58.142],[92.601,57.886],[92.565,57.918],[92.592,57.932],[92.585,57.983],[92.379,58.03],[92.166,57.947],[92.132,57.973],[92.031,57.94],[91.927,57.868],[91.601,57.855],[91.528,57.813],[91.309,57.891],[91.23,57.883],[91.244,57.849],[91.2,57.826],[91.176,57.73],[91.2,57.656],[91.254,57.622],[91.092,57.566],[91.012,57.598],[91.023,57.641],[90.876,57.68],[90.635,57.686],[90.63,57.63],[90.546,57.648],[90.522,57.748],[90.486,57.774],[90.524,57.831],[90.51,57.879],[90.568,57.916],[90.48,57.983],[89.374,57.76],[89.36,57.798],[89.396,57.878],[89.34,57.953],[88.852,57.966],[88.689,58.041],[88.141,58.115],[88.024,58.246],[87.926,58.507],[88.393,58.909],[88.83,59.021],[88.611,59.219],[88.624,59.297],[87.91,59.274],[87.525,59.672],[87.191,59.697],[87.085,59.888],[86.626,59.955],[85.968,59.961],[85.496,59.897],[84.694,59.91],[84.541,59.983],[84.611,60.044],[84.638,60.203],[84.789,60.361],[84.712,60.463],[84.262,60.86],[83.988,60.832],[83.504,61.052],[83.142,61.033],[82.405,60.727],[82.375,60.616],[82.167,60.532],[81.831,60.65],[81.497,60.621],[81.14,60.642],[81.067,60.681],[81.029,60.76],[80.724,60.802],[80.427,60.77],[80.185,60.67],[79.853,60.697],[79.373,60.667],[79.291,60.725],[79.315,60.804],[79.186,60.843],[78.808,60.785],[78.688,60.834],[78.474,60.783],[78.12,60.807],[77.92,60.753],[77.703,60.83],[77.407,60.816],[77.103,60.857],[77.063,60.735],[76.993,60.741],[76.966,60.711],[76.966,60.646],[77.043,60.599],[77.031,60.547],[76.775,60.454],[76.745,60.345],[76.814,60.325],[76.842,60.269],[76.689,60.114],[76.752,60.063],[76.736,59.758],[76.652,59.695],[76.639,59.589],[76.44,59.55],[76.171,59.548],[75.996,59.428],[75.892,59.431],[75.816,59.299],[75.624,59.24],[75.68,59.042],[75.639,58.987],[75.372,58.791],[75.157,58.681],[75.152,58.622],[75.101,58.578],[75.295,58.485],[75.299,58.458],[75.065,58.346],[75.212,58.22],[75.076,58.116],[75.552,57.927],[75.59,57.646],[75.722,57.596],[75.855,57.395],[75.989,57.38],[76.102,57.249],[76.191,56.967],[76.244,56.911],[76.278,56.738],[76.144,56.636],[76.045,56.624],[76.009,56.556],[75.864,56.505],[75.841,56.462],[75.884,56.438],[75.938,56.472],[76.052,56.474],[76.13,56.445],[76.076,56.415],[76.107,56.321],[76.279,56.243],[76.308,56.191],[76.172,56.16],[75.999,56.183],[75.94,56.135],[75.761,56.146],[75.695,56.075],[75.548,56.053],[75.308,55.894],[75.292,55.847],[75.366,55.808],[75.349,55.772],[75.082,55.755],[75.132,55.695],[75.218,55.66],[75.133,55.594],[75.316,55.539],[75.307,55.505],[75.176,55.46],[75.093,55.382],[75.256,55.26],[75.25,55.134],[75.387,55.037],[75.333,54.916],[75.518,54.9],[75.496,54.833],[75.65,54.803],[75.699,54.69],[75.788,54.696],[75.825,54.614],[75.791,54.561],[75.68,54.532],[75.689,54.109],[76.186,54.247],[76.176,54.291],[76.219,54.338],[76.477,54.318],[76.626,54.352],[76.673,54.431],[76.896,54.458],[76.886,54.429],[76.749,54.38],[76.829,54.342],[76.833,54.3],[76.666,54.141],[76.413,54.171],[76.37,54.145],[76.523,53.957],[77.609,53.439],[77.785,53.323],[77.849,53.38],[77.94,53.385],[77.94,53.441],[78.062,53.462],[78.051,53.5],[77.932,53.506],[77.931,53.558],[77.966,53.572],[78.202,53.607],[78.242,53.496],[78.377,53.483],[78.625,53.521],[78.609,53.616],[78.664,53.65],[79.246,53.675],[79.378,53.715],[79.425,53.686],[79.573,53.728],[79.676,53.825],[79.865,53.853],[79.873,53.929],[80.046,53.997],[80.126,54.068],[80.206,54.038],[80.422,54.122],[80.489,54.105],[80.584,54.197],[80.649,54.196],[80.763,54.262],[80.841,54.253],[80.812,54.332],[80.922,54.388],[80.99,54.261],[81.099,54.208],[81.113,54.138],[81.471,54.066],[81.57,54.014],[81.552,53.931],[81.713,53.993],[81.847,53.964],[81.841,53.903],[81.721,53.841],[81.832,53.709],[81.966,53.714],[82.112,53.656],[82.203,53.688],[82.171,53.598],[82.249,53.588],[82.486,53.464],[82.605,53.504],[82.553,53.558],[82.668,53.692],[82.767,53.755],[82.746,53.789],[83.188,54.059],[83.248,54.044],[83.294,54.076],[83.407,53.936],[83.505,53.99],[83.495,54.079],[83.571,54.122],[83.899,54.133],[83.906,54.09],[84.265,54.21],[84.287,54.167],[84.388,54.183],[84.459,54.137],[84.567,54.187],[84.591,54.249],[84.696,54.333],[85.15,54.482],[85.446,54.2],[85.605,54.228],[85.942,54.035],[86.136,53.984],[86.217,53.89],[86.291,53.87],[86.381,53.782],[86.39,53.693],[86.451,53.611],[86.511,53.596],[86.566,53.534],[86.799,53.469],[87.007,53.499],[86.919,53.449],[86.976,53.409],[86.868,53.303],[86.662,53.249],[86.696,53.196],[86.925,53.08],[87.069,53.072],[87.018,53.003],[87.018,52.919],[86.939,52.854],[87.078,52.704],[87.162,52.715],[87.181,52.628],[87.117,52.673],[86.952,52.64],[86.849,52.656],[86.79,52.614],[86.786,52.557],[86.707,52.516],[86.611,52.378],[86.803,52.285],[86.775,52.232],[86.819,52.172],[86.787,52.127],[86.497,52.123],[86.448,52.034],[86.369,52.015],[86.221,52.026],[86.15,52.075],[85.919,52.077],[85.832,51.985],[85.864,51.92],[85.736,51.863],[85.773,51.841],[85.734,51.741],[85.669,51.759],[85.534,51.704],[85.466,51.572],[85.292,51.57],[85.295,51.513],[85.231,51.474],[85.154,51.501],[85.006,51.494],[84.923,51.429],[84.714,51.404],[84.395,51.272],[84.278,51.288],[84.144,51.126],[84.069,51.147],[84.0,51.128],[84.016,51.059],[84.501,50.956],[84.528,50.874],[84.602,50.841],[84.538,50.696],[84.456,50.708],[84.084,50.637],[84.189,50.512],[84.172,50.438],[84.234,50.344],[84.246,50.257],[84.331,50.208],[84.443,50.238],[84.534,50.186],[84.788,50.127],[84.837,50.076],[84.975,50.069],[85.023,50.015],[84.951,49.993],[84.95,49.905],[85.055,49.867],[85.078,49.797],[85.179,49.704],[85.221,49.591],[85.384,49.61],[85.476,49.578],[85.608,49.613],[85.672,49.556],[85.745,49.568],[85.809,49.532],[85.931,49.555],[85.945,49.477],[86.072,49.521],[86.178,49.458],[86.275,49.578],[86.478,49.667],[86.484,49.707],[86.611,49.788],[86.744,49.778],[86.754,49.696],[86.663,49.67],[86.587,49.585],[86.641,49.543],[86.73,49.546],[86.815,49.508],[86.81,49.447],[86.921,49.389],[86.909,49.336],[86.987,49.289],[85.843,48.414],[85.747,48.39],[85.603,48.232],[85.384,48.148],[83.13,48.282],[84.267,49.205],[81.479,50.291],[78.65,50.807],[74.921,54.149],[72.992,55.307],[64.687,54.272],[64.456,53.58],[63.04,51.179],[62.258,51.065],[62.154,51.115],[62.033,51.072],[61.963,51.133],[61.929,51.242],[61.875,51.301],[61.811,51.274],[61.597,51.282],[61.475,51.431],[61.033,51.487],[60.95,51.545],[60.938,51.616],[60.512,51.624],[60.486,51.656],[60.361,51.68],[60.48,51.773],[60.454,51.81],[60.139,51.894],[60.093,51.86],[60.045,51.874],[59.992,51.954],[60.03,52.003],[59.919,52.098],[59.967,52.171],[60.154,52.275],[60.139,52.434],[59.936,52.435],[59.81,52.502],[59.685,52.433],[59.676,52.462],[59.515,52.441],[59.41,52.498],[59.272,52.499],[59.244,52.489],[59.174,52.284],[58.984,52.375],[58.979,52.435],[58.794,52.454],[58.775,52.514],[58.843,52.541],[58.809,52.597],[58.731,52.638],[58.789,52.724],[58.756,52.862],[58.848,53.003],[59.033,53.014],[58.999,53.057],[58.911,53.062],[58.896,53.191],[58.828,53.215],[58.834,53.286],[58.87,53.319],[58.873,53.498],[58.907,53.549],[58.834,53.564],[58.826,53.591],[58.912,53.653],[58.878,53.75],[58.952,53.898],[58.929,53.933],[58.959,53.969],[59.157,53.98],[59.325,54.177],[59.535,54.192],[59.673,54.129],[59.733,54.135],[59.734,54.193],[59.808,54.255],[59.78,54.305],[59.681,54.341],[59.751,54.447],[59.686,54.498],[59.874,54.61],[59.979,54.794],[59.93,54.832],[59.947,54.862],[59.809,54.851],[59.631,54.916],[59.409,54.712],[59.23,54.617],[59.06,54.637],[58.806,54.572],[58.617,54.476],[58.353,54.551],[58.204,54.52],[57.962,54.398],[57.749,54.505],[57.751,54.583],[57.586,54.638],[57.584,54.678],[57.527,54.673],[57.162,54.834],[57.249,54.951],[57.15,55.051],[57.146,55.096],[57.244,55.154],[57.228,55.212],[57.261,55.252],[57.434,55.322],[57.916,55.288],[58.131,55.212],[58.05,55.169],[57.959,55.169],[58.025,55.074],[58.016,55.005],[57.957,54.947],[58.0,54.912],[58.11,54.954],[58.096,55.018],[58.198,55.083],[58.148,55.111],[58.299,55.168],[58.369,55.15],[58.36,55.082],[58.422,55.055],[58.384,54.996],[58.52,55.017],[58.549,54.948],[58.621,54.945],[58.818,55.021],[58.764,55.113],[58.583,55.157],[58.663,55.184],[58.701,55.144],[58.747,55.151],[58.808,55.215],[58.73,55.252],[58.925,55.275],[58.874,55.318],[58.967,55.307],[58.962,55.246],[58.999,55.24],[59.163,55.328],[59.203,55.444],[59.476,55.463],[59.646,55.563],[59.629,55.596],[59.502,55.585],[59.437,55.638],[59.246,55.589],[59.349,55.645],[59.287,55.696],[59.316,55.779],[59.161,55.805],[59.208,55.833],[59.194,55.868],[59.235,55.905],[59.182,56.004],[59.285,56.051],[59.299,56.135],[59.025,56.174],[58.952,56.076],[58.826,56.059],[58.736,56.072],[58.565,56.167],[58.453,56.152],[58.353,56.064],[58.301,56.119],[58.08,56.146],[57.91,56.121],[57.802,56.156],[57.54,56.105],[57.46,56.135],[57.483,56.18],[57.416,56.239],[57.408,56.334],[57.264,56.306],[57.252,56.252],[57.166,56.166],[56.896,56.106],[56.776,56.173],[56.74,56.228],[56.65,56.227],[56.627,56.265],[56.575,56.269],[56.512,56.32],[56.563,56.359],[56.529,56.388],[56.392,56.393],[56.265,56.306],[56.073,56.295],[55.961,56.381],[55.913,56.471],[55.862,56.438],[55.547,56.404],[55.413,56.34],[55.255,56.341],[55.224,56.369],[55.172,56.323],[55.104,56.349],[54.968,56.326],[54.933,56.391],[54.747,56.444],[54.56,56.543],[54.425,56.346],[54.317,56.348],[54.363,56.297],[54.342,56.258],[54.115,56.163],[54.004,56.035],[53.836,56.043],[53.783,55.98],[53.668,55.963],[53.627,55.909],[53.745,55.862],[53.868,55.88],[53.981,55.843],[53.963,55.778],[54.033,55.798],[54.024,55.759],[54.096,55.766],[54.216,55.691],[54.176,55.632],[54.0,55.558],[53.906,55.399],[53.711,55.338],[53.594,55.258],[53.585,55.216],[53.418,55.227],[53.325,55.171],[53.142,55.148],[53.138,55.095],[53.254,55.049],[53.262,55.009],[53.41,54.985],[53.497,54.887],[53.623,54.889],[53.574,54.823],[53.599,54.715],[53.413,54.563],[53.42,54.501],[53.344,54.392],[53.357,54.33],[53.424,54.265],[53.459,54.046],[53.372,53.978],[53.26,54.076],[53.186,54.099],[53.082,54.077],[53.091,54.118],[52.95,54.21],[53.111,54.244],[53.111,54.289],[53.047,54.343],[53.0,54.316],[52.999,54.276],[52.928,54.275],[52.937,54.309],[52.772,54.352],[52.63,54.348],[52.539,54.382],[52.505,54.328],[52.28,54.333],[52.204,54.307],[52.344,54.214],[52.338,54.18],[52.257,54.152],[52.268,54.115],[52.394,54.123],[52.477,54.062],[52.371,53.983],[52.406,53.929],[52.249,53.658],[52.178,53.564],[52.099,53.552],[52.075,53.516],[52.09,53.462],[52.186,53.371],[52.138,53.299],[52.157,53.259],[52.123,53.179],[52.054,53.138],[52.15,53.106],[52.06,53.079],[52.048,52.997],[51.866,52.934],[51.805,52.881],[51.725,52.873],[51.713,52.824],[51.766,52.792],[51.725,52.671],[51.536,52.68],[51.505,52.631],[51.537,52.58],[51.473,52.581],[51.466,52.527],[51.554,52.447],[51.468,52.419],[51.463,52.374],[51.408,52.352],[51.402,52.255],[51.447,52.221],[51.412,52.108],[50.895,51.856],[50.741,51.746],[50.789,51.624],[50.763,51.584],[50.676,51.572],[50.697,51.615],[50.579,51.639],[50.57,51.592],[50.521,51.567],[50.521,51.471],[50.356,51.417],[50.323,51.308],[49.985,51.235],[49.776,51.107],[49.434,51.117],[49.342,50.965],[49.416,50.885],[49.403,50.851],[49.142,50.786],[48.831,50.601],[48.581,50.653],[48.57,50.613],[48.668,50.575],[48.696,50.333],[48.783,50.175],[48.779,50.109],[48.87,50.067],[48.858,49.996],[48.78,49.937],[48.417,49.817],[48.242,49.871],[47.997,50.186],[47.601,50.457],[47.51,50.442],[47.431,50.383],[47.245,50.376],[47.208,50.513],[46.922,50.496],[46.92,50.527],[46.877,50.532],[46.874,50.581],[46.816,50.586],[46.861,50.645],[46.774,50.649],[46.719,50.716],[46.628,50.686],[46.581,50.716],[46.561,50.629],[46.538,50.649],[46.459,50.625],[46.444,50.553],[46.277,50.578],[46.269,50.533],[46.078,50.531],[46.096,50.669],[45.894,50.755],[45.743,50.762],[45.674,50.666],[45.702,50.579],[45.741,50.586],[45.888,50.438],[45.876,50.345],[45.737,50.311],[45.416,50.033],[45.341,49.893],[45.336,49.797],[45.029,49.395],[44.917,49.079],[44.664,48.872],[44.65,48.817],[44.54,48.717],[44.511,48.622],[44.638,48.592],[44.602,48.566],[44.674,48.521],[44.673,48.464],[44.411,48.518],[44.344,48.621],[44.295,48.606],[44.277,48.488],[44.175,48.531],[44.228,48.581],[44.162,48.579],[44.119,48.632],[43.942,48.684],[43.949,48.728],[43.882,48.764],[43.896,48.791],[43.786,48.893],[43.795,48.929],[43.719,48.951],[43.752,48.967],[43.744,48.995],[43.618,49.022],[43.631,49.089],[43.407,49.178],[43.395,49.302],[43.55,49.466],[43.617,49.475],[43.637,49.531],[43.779,49.524],[43.789,49.574],[43.894,49.572],[43.886,49.628],[43.965,49.598],[43.996,49.647],[44.104,49.65],[44.164,49.712],[44.153,49.77],[44.276,49.828],[44.15,49.909],[44.262,50.009],[44.196,50.07],[44.201,50.105],[44.002,50.13],[44.008,50.188],[43.938,50.228],[43.831,50.214],[43.846,50.182],[43.806,50.149],[43.692,50.159],[43.694,50.084],[43.589,50.048],[43.533,49.903],[43.44,49.909],[43.371,49.834],[43.318,49.83],[43.177,49.891],[42.988,49.854],[42.906,49.911],[42.896,49.989],[42.668,50.106],[42.743,50.167],[42.71,50.186],[42.718,50.231],[42.763,50.222],[42.787,50.261],[42.865,50.249],[42.934,50.343],[43.025,50.283],[43.203,50.358],[43.298,50.302],[43.336,50.352],[43.453,50.377],[43.417,50.449],[43.376,50.441],[43.328,50.498],[43.235,50.524],[43.024,50.505],[43.02,50.536],[42.961,50.558],[42.952,50.643],[42.828,50.691],[42.903,50.731],[42.905,50.764],[42.843,50.813],[42.888,50.844],[42.875,50.883],[42.981,50.955],[43.126,50.974],[43.169,51.104],[42.856,51.25],[42.686,51.246],[42.553,51.15],[42.174,51.141],[41.927,51.199],[41.816,51.122],[41.758,51.017],[41.47,50.956],[41.424,50.918],[41.413,50.843],[41.163,50.775],[41.342,50.708],[41.445,50.602],[41.527,50.584],[41.416,50.499],[41.514,50.361],[41.383,50.212],[41.349,50.219],[41.284,50.165],[41.369,50.124],[41.377,50.085],[41.08,49.949],[41.037,49.807],[40.919,49.706],[40.635,49.678],[40.537,49.583],[40.16,49.648],[40.131,49.589],[39.998,49.613],[39.829,49.547],[39.627,49.618],[39.559,49.729],[39.265,49.748],[39.157,49.878],[39.046,49.815],[38.939,49.809],[38.855,49.87],[38.692,49.917],[38.666,49.97],[38.5,49.953],[38.361,49.985],[38.301,50.065],[38.172,50.065],[38.16,49.944],[38.051,49.926],[37.928,50.039],[37.756,50.086],[37.622,50.218],[37.638,50.316],[37.485,50.345],[37.416,50.437],[37.053,50.34],[36.848,50.329],[36.595,50.21],[36.541,50.224],[36.539,50.272],[36.411,50.309],[36.274,50.285],[36.107,50.426],[35.837,50.428],[35.737,50.386],[35.704,50.416],[35.593,50.404],[35.573,50.469],[35.478,50.494],[35.406,50.58],[35.431,50.603],[35.405,50.647],[35.487,50.651],[35.501,50.679],[35.468,50.694],[35.493,50.78],[35.419,50.804],[35.404,50.917],[35.339,50.947],[35.346,51.0],[35.413,51.046],[35.313,51.083],[35.194,51.059],[35.137,51.163],[35.155,51.225],[35.12,51.236],[35.048,51.215],[34.979,51.24],[34.821,51.174],[34.693,51.185],[34.667,51.25],[34.636,51.256],[34.384,51.279],[34.329,51.245],[34.231,51.27],[34.147,51.244],[34.113,51.151],[34.009,51.066],[34.073,50.998],[34.043,50.946],[34.091,50.928],[34.127,50.867],[34.181,50.858],[34.138,50.811],[34.15,50.731],[34.076,50.706],[34.218,50.601],[34.248,50.437],[34.371,50.369],[34.448,50.28],[33.886,50.214],[33.879,50.986],[33.735,50.985],[33.698,51.062],[33.561,51.143],[33.605,51.243],[33.169,51.429],[33.123,51.413],[33.109,51.372],[33.003,51.383],[33.053,51.333],[33.069,51.252],[32.963,51.178],[32.94,51.097],[33.057,51.077],[33.044,51.049],[33.084,51.032],[33.201,51.052],[33.156,50.997],[33.184,50.92],[33.123,50.814],[33.165,50.743],[33.025,50.493],[32.873,50.396],[32.728,50.358],[32.35,50.408],[32.229,50.345],[32.14,50.35],[31.978,50.474],[32.031,50.504],[32.028,50.545],[31.963,50.551],[31.848,50.624],[31.797,50.614],[31.751,50.555],[31.613,50.518],[31.278,50.52],[31.182,50.587],[31.213,50.659],[31.09,50.767],[30.838,50.738],[30.744,50.759],[30.78,50.844],[30.656,50.893],[30.649,50.986],[30.514,51.016],[30.518,51.222],[30.556,51.232],[30.646,51.367],[30.588,51.43],[30.618,51.467],[30.568,51.52],[30.584,51.542],[30.529,51.557],[30.543,51.583],[30.517,51.601],[30.557,51.624],[30.575,51.699],[30.625,51.706],[30.664,51.821],[30.896,51.997],[30.941,51.994],[30.916,52.027],[30.933,52.069],[31.132,52.077],[31.229,52.038],[31.373,52.115],[31.305,52.986],[31.253,53.016],[31.332,53.08],[31.383,53.256],[32.222,53.125],[32.442,53.222],[32.343,53.731],[32.084,53.81],[31.874,53.777],[31.75,53.796],[31.838,53.962],[31.823,54.053],[31.772,54.049],[31.737,54.094],[31.505,54.144],[31.324,54.23],[31.209,54.448],[31.068,54.493],[31.168,54.622],[31.105,54.668],[31.003,54.672],[30.763,54.803],[30.826,54.877],[30.821,54.931],[30.936,54.973],[30.912,55.022],[31.006,55.023],[30.96,55.163],[30.795,55.287],[30.918,55.388],[30.882,55.454],[30.919,55.492],[30.908,55.58],[30.947,55.651],[31.033,55.702],[31.05,55.767],[31.212,55.718],[31.861,55.993],[32.078,56.774],[31.557,57.034],[31.167,56.732],[31.011,56.843],[30.987,56.813],[30.643,56.954],[30.576,56.808],[31.105,56.412],[31.226,56.172],[30.777,56.072],[30.687,55.9],[29.948,56.538],[29.061,56.538],[28.813,56.883],[28.093,56.792],[28.015,56.572],[27.828,56.721],[27.929,56.94],[27.639,57.097],[27.773,57.211],[27.795,57.466],[27.532,57.412],[27.511,57.612],[27.582,58.227],[27.973,58.133],[28.373,58.21],[28.383,58.179],[29.432,58.134],[28.182,58.981],[28.644,59.151],[28.562,59.154],[28.551,59.235],[28.484,59.3],[28.167,59.318],[28.209,59.384],[28.099,59.443],[28.044,59.472],[28.095,59.586],[28.026,59.75],[28.17,59.787],[28.223,59.686],[28.401,59.67],[28.473,59.828],[28.845,59.782],[29.037,59.845],[28.988,59.914],[29.126,59.986],[30.026,59.861],[30.176,59.87]],[[57.081,61.47],[57.1,61.497],[58.846,61.491],[58.856,61.515],[59.05,61.532],[59.152,61.624],[59.352,61.659],[59.426,61.752],[59.323,61.802],[59.409,61.906],[59.494,61.945],[59.446,62.007],[59.405,62.151],[59.506,62.256],[59.522,62.318],[59.618,62.372],[59.596,62.425],[59.64,62.547],[59.462,62.57],[59.476,62.607],[59.391,62.731],[59.438,62.776],[59.467,62.9],[59.227,62.99],[59.213,63.027],[59.247,63.083],[59.141,63.118],[59.136,63.176],[59.077,63.22],[59.069,63.271],[58.833,63.292],[58.713,63.34],[58.372,63.308],[58.257,63.575],[58.138,63.618],[58.064,63.551],[57.957,63.607],[57.897,63.684],[57.474,63.146],[56.796,63.249],[56.721,63.226],[56.68,63.17],[56.327,63.226],[56.325,63.301],[56.077,63.329],[56.092,63.375],[55.71,63.427],[55.454,63.052],[55.376,63.046],[55.277,62.849],[55.374,62.819],[55.46,62.834],[55.504,62.784],[55.257,62.801],[55.155,62.596],[55.126,62.588],[55.482,62.541],[55.243,62.254],[55.536,62.069],[55.433,61.97],[55.539,61.874],[55.729,61.929],[56.313,61.683],[56.18,61.419],[56.317,61.31],[56.382,61.436],[56.568,61.414],[56.6,61.485],[56.642,61.484],[56.66,61.518],[57.081,61.47]]],[[[45.275,44.499],[45.255,44.535],[45.225,44.493],[44.752,44.44],[43.881,44.815],[43.453,45.993],[43.875,45.941],[44.075,45.793],[44.132,45.666],[44.205,45.606],[44.419,45.522],[44.736,45.492],[45.58,45.156],[45.706,45.013],[45.705,44.971],[46.001,44.981],[46.434,44.931],[46.751,44.814],[46.791,44.76],[46.881,44.78],[46.888,44.747],[46.928,44.754],[46.933,44.766],[46.933,44.773],[47.007,44.815],[47.005,44.84],[47.001,44.915],[47.029,44.851],[47.049,44.807],[46.872,44.68],[46.806,44.673],[45.275,44.499]]],[[[47.816,45.612],[47.719,45.688],[47.728,45.688],[47.738,45.694],[47.619,45.745],[47.606,45.81],[47.553,45.819],[47.618,45.942],[47.535,45.981],[47.535,46.019],[47.338,46.014],[47.24,46.088],[47.579,46.157],[47.616,46.175],[47.578,46.209],[47.689,46.205],[47.717,46.246],[47.881,46.249],[47.969,46.315],[47.979,46.365],[48.07,46.387],[48.056,46.458],[48.014,46.48],[48.049,46.508],[48.1,46.464],[48.222,46.465],[48.278,46.408],[48.279,46.47],[48.333,46.434],[48.404,46.488],[48.524,46.442],[48.542,46.492],[48.621,46.445],[48.736,46.481],[48.896,46.477],[49.145,46.359],[49.14,46.334],[49.141,46.323],[49.336,46.2],[49.326,46.137],[49.267,46.17],[49.24,46.157],[49.318,46.068],[49.252,46.102],[49.233,46.0],[49.028,46.118],[49.0,45.951],[48.929,45.979],[48.857,45.841],[48.754,45.899],[48.716,45.814],[48.705,45.827],[48.695,45.839],[48.694,45.84],[48.686,45.85],[48.673,45.88],[48.68,45.901],[48.598,45.953],[48.305,45.77],[48.223,45.753],[48.226,45.747],[48.245,45.755],[48.27,45.753],[48.279,45.749],[48.313,45.758],[48.243,45.71],[47.816,45.612]]],[[[35.799,65.093],[35.767,65.087],[35.769,65.065],[35.751,65.062],[35.743,65.039],[35.88,65.019],[35.926,65.052],[36.024,65.04],[35.751,64.955],[35.707,65.005],[35.528,65.072],[35.514,65.088],[35.505,65.097],[35.505,65.122],[35.658,65.13],[35.762,65.172],[35.84,65.138],[35.825,65.096],[35.84,65.049],[35.85,65.041],[35.864,65.039],[35.856,65.037],[35.814,65.052],[35.812,65.088],[35.799,65.093]]],[[[49.181,46.398],[49.192,46.398],[49.174,46.407],[49.295,46.4],[49.243,46.465],[49.356,46.389],[49.342,46.373],[49.269,46.289],[49.181,46.398]]]]}}]}