{"type":"FeatureCollection","features":[{"type":"Feature","properties":{"lite":true,"src":"data/years/1609-02-28.geojson"},"geometry":{"type":"MultiPolygon","coordinates":[[[[49.159,46.239],[49.161,46.209],[49.06,46.138],[48.833,46.083],[48.832,46.01],[48.779,46.016],[48.806,45.909],[48.772,45.887],[48.635,45.975],[48.301,45.768],[47.872,45.679],[47.673,45.75],[47.628,45.732],[47.601,45.66],[47.653,45.543],[47.548,45.453],[47.437,45.293],[47.395,45.175],[47.332,45.141],[47.158,44.855],[46.873,44.681],[45.275,44.499],[45.255,44.535],[45.225,44.493],[44.753,44.44],[43.882,44.814],[43.381,46.188],[42.257,46.813],[40.633,46.691],[40.508,47.438],[39.787,48.014],[39.847,48.033],[39.849,48.119],[39.998,48.275],[39.835,48.307],[39.929,48.375],[39.851,48.487],[39.874,48.509],[39.858,48.56],[39.644,48.599],[39.705,48.741],[39.78,48.801],[39.976,48.785],[40.057,48.848],[40.035,48.891],[39.95,48.859],[39.765,48.899],[39.68,48.976],[39.698,49.023],[39.921,49.043],[39.956,49.121],[40.146,49.243],[40.164,49.336],[40.041,49.484],[40.13,49.556],[40.118,49.595],[39.997,49.613],[39.804,49.547],[39.626,49.618],[39.559,49.729],[39.265,49.748],[39.157,49.878],[39.046,49.815],[38.939,49.809],[38.855,49.87],[38.692,49.917],[38.666,49.97],[38.5,49.953],[38.361,49.985],[38.301,50.065],[38.172,50.065],[38.16,49.944],[38.052,49.926],[37.928,50.039],[37.756,50.086],[37.622,50.218],[37.638,50.316],[37.485,50.345],[37.416,50.437],[37.053,50.34],[36.848,50.329],[36.595,50.21],[36.541,50.224],[36.539,50.272],[36.411,50.309],[36.274,50.285],[36.107,50.426],[35.837,50.428],[35.737,50.386],[35.704,50.416],[35.593,50.404],[35.573,50.469],[35.478,50.494],[35.406,50.58],[35.431,50.603],[35.405,50.647],[35.487,50.651],[35.501,50.679],[35.468,50.694],[35.493,50.78],[35.419,50.804],[35.404,50.917],[35.339,50.947],[35.346,51.0],[35.413,51.046],[35.313,51.083],[35.194,51.059],[35.137,51.163],[35.155,51.225],[35.12,51.236],[35.048,51.215],[34.979,51.24],[34.821,51.174],[34.693,51.185],[34.667,51.25],[34.636,51.256],[34.384,51.279],[34.329,51.245],[34.231,51.27],[34.147,51.244],[34.113,51.151],[34.009,51.066],[34.073,50.998],[34.043,50.946],[34.091,50.928],[34.127,50.867],[34.181,50.858],[34.138,50.811],[34.15,50.731],[34.076,50.706],[34.218,50.601],[34.248,50.437],[34.371,50.369],[34.448,50.28],[33.886,50.214],[33.879,50.986],[33.735,50.985],[33.698,51.062],[33.561,51.143],[33.605,51.243],[33.169,51.429],[33.123,51.413],[33.109,51.372],[33.003,51.383],[33.053,51.333],[33.069,51.252],[32.963,51.178],[32.94,51.097],[33.057,51.077],[33.044,51.049],[33.084,51.032],[33.201,51.052],[33.156,50.997],[33.184,50.92],[33.123,50.814],[33.164,50.738],[33.026,50.494],[32.872,50.395],[32.694,50.358],[32.376,50.409],[32.226,50.344],[32.14,50.35],[31.978,50.474],[32.031,50.504],[32.028,50.545],[31.963,50.551],[31.848,50.624],[31.797,50.614],[31.751,50.555],[31.619,50.519],[31.327,50.509],[31.183,50.586],[31.213,50.659],[31.095,50.765],[30.838,50.738],[30.742,50.76],[30.78,50.844],[30.656,50.893],[30.649,50.986],[30.513,51.019],[30.518,51.222],[30.556,51.232],[30.646,51.367],[30.588,51.43],[30.618,51.467],[30.568,51.52],[30.584,51.542],[30.529,51.558],[30.543,51.583],[30.517,51.602],[30.557,51.624],[30.575,51.699],[30.625,51.706],[30.63,51.767],[30.743,51.896],[30.788,51.901],[30.891,51.995],[30.941,51.994],[30.916,52.027],[30.932,52.068],[31.132,52.077],[31.229,52.038],[31.373,52.115],[31.305,52.986],[31.253,53.016],[31.332,53.08],[31.383,53.256],[32.222,53.125],[32.442,53.222],[32.343,53.731],[32.084,53.81],[31.874,53.777],[31.75,53.796],[31.838,53.962],[31.823,54.053],[31.772,54.049],[31.737,54.094],[31.505,54.144],[31.324,54.23],[31.209,54.448],[31.068,54.493],[31.168,54.622],[31.105,54.668],[31.003,54.672],[30.763,54.803],[30.826,54.877],[30.821,54.931],[30.936,54.973],[30.912,55.022],[31.006,55.023],[30.96,55.163],[30.795,55.287],[30.918,55.388],[30.882,55.454],[30.919,55.492],[30.908,55.58],[30.947,55.651],[31.033,55.702],[31.05,55.767],[31.212,55.718],[31.861,55.993],[32.078,56.774],[31.557,57.034],[31.167,56.732],[31.011,56.843],[30.987,56.813],[30.643,56.954],[30.576,56.808],[31.105,56.412],[31.226,56.172],[30.777,56.072],[30.687,55.9],[29.948,56.538],[29.061,56.538],[28.813,56.883],[28.093,56.792],[28.011,56.572],[27.825,56.726],[27.929,56.94],[27.639,57.096],[27.773,57.211],[27.795,57.466],[27.532,57.412],[27.511,57.612],[27.58,58.223],[27.973,58.133],[28.373,58.21],[28.383,58.179],[29.432,58.134],[28.182,58.981],[28.644,59.151],[28.561,59.154],[28.522,59.283],[28.169,59.316],[28.206,59.364],[28.191,59.401],[27.954,59.489],[28.019,59.576],[27.944,59.695],[27.981,59.801],[28.07,59.847],[28.138,59.84],[28.219,59.796],[28.253,59.736],[28.363,59.717],[28.385,59.84],[28.483,59.908],[28.724,59.838],[28.827,59.838],[28.953,59.876],[28.941,59.961],[29.089,60.035],[29.61,60.008],[29.62,60.059],[29.665,60.078],[29.811,60.041],[29.876,59.966],[30.154,59.919],[30.158,59.954],[29.922,59.987],[29.832,60.119],[29.695,60.151],[29.488,60.136],[29.443,60.197],[29.514,60.23],[29.754,60.243],[29.952,60.177],[29.928,60.244],[30.055,60.281],[30.0,60.353],[30.057,60.35],[30.105,60.396],[30.059,60.489],[30.452,60.419],[30.677,60.48],[31.389,60.942],[31.832,60.855],[32.252,61.218],[32.262,61.269],[32.33,61.301],[32.261,61.358],[32.222,61.493],[32.26,61.519],[32.219,61.564],[32.116,61.571],[32.105,61.613],[31.567,61.627],[31.571,61.692],[31.605,61.702],[31.561,61.813],[31.318,61.796],[31.235,61.884],[31.18,61.89],[31.123,62.804],[30.559,63.111],[30.586,64.355],[27.602,68.843],[30.73,68.531],[31.331,69.661],[32.066,69.881],[32.076,69.815],[32.19,69.642],[32.352,69.514],[32.596,69.424],[33.278,69.341],[33.316,69.071],[33.629,69.214],[35.437,69.15],[37.243,68.794],[37.687,68.63],[38.406,68.243],[38.668,68.146],[39.918,67.94],[40.825,67.66],[40.971,67.536],[40.951,67.335],[41.017,67.202],[41.208,67.07],[41.254,66.935],[41.149,66.784],[40.92,66.621],[40.396,66.344],[40.1,66.241],[39.356,66.086],[38.561,66.005],[37.652,66.073],[37.263,66.181],[36.885,66.235],[36.402,66.245],[35.553,66.337],[35.363,66.371],[34.805,66.563],[34.665,66.519],[34.323,66.593],[34.307,66.619],[33.792,66.666],[33.676,66.747],[33.652,66.705],[33.586,66.687],[33.438,66.702],[33.158,66.915],[32.627,67.083],[32.496,67.084],[32.582,67.038],[32.22,66.994],[32.426,66.89],[32.753,66.649],[32.97,66.584],[33.47,66.313],[33.844,66.182],[34.259,66.11],[34.546,65.999],[34.725,65.799],[34.725,65.617],[34.598,65.483],[34.294,65.396],[34.426,65.106],[34.773,64.682],[34.815,64.46],[34.885,64.367],[35.082,64.288],[36.014,64.197],[36.24,63.919],[36.42,63.876],[36.985,63.842],[37.41,63.75],[37.591,63.807],[37.945,63.85],[38.054,63.986],[38.054,64.129],[37.88,64.308],[37.764,64.339],[37.747,64.39],[37.597,64.328],[37.261,64.314],[37.044,64.39],[36.893,64.493],[36.572,64.764],[36.881,65.065],[37.103,65.068],[37.604,64.853],[39.193,64.511],[39.622,64.476],[39.997,64.541],[40.322,64.463],[40.44,64.563],[40.462,64.75],[40.241,64.982],[39.979,65.155],[39.825,65.434],[39.949,65.578],[41.354,65.955],[41.623,66.065],[42.21,66.41],[43.242,66.251],[43.876,66.011],[44.03,66.011],[44.122,66.267],[44.223,66.4],[44.337,66.404],[44.577,66.303],[44.859,66.231],[45.74,66.063],[45.832,66.083],[46.347,66.023],[47.11,65.816],[47.408,65.831],[47.661,65.803],[47.764,65.84],[47.737,65.913],[47.757,65.937],[48.141,66.122],[49.007,66.114],[51.512,66.778],[51.554,66.797],[51.491,66.83],[51.525,66.922],[51.812,66.949],[51.849,66.997],[52.022,67.023],[52.159,67.081],[53.772,66.994],[59.879,66.997],[59.869,66.963],[59.919,66.949],[60.083,66.985],[61.626,67.007],[61.854,67.122],[62.823,67.383],[62.878,67.578],[63.107,67.67],[63.422,67.763],[63.691,67.757],[63.711,67.805],[63.873,67.831],[63.952,67.895],[63.919,67.964],[63.839,68.025],[64.326,68.129],[64.351,68.173],[64.418,68.196],[64.532,68.196],[64.501,68.314],[64.559,68.354],[64.761,68.401],[65.006,68.384],[65.445,68.424],[65.269,68.232],[65.324,68.09],[65.286,68.01],[65.436,67.915],[65.781,67.919],[65.91,67.955],[66.084,67.925],[66.015,67.796],[66.194,67.736],[66.2,67.695],[66.106,67.652],[66.0,67.683],[65.85,67.659],[65.819,67.631],[65.839,67.604],[65.791,67.568],[66.033,67.57],[66.1,67.506],[66.085,67.471],[65.937,67.398],[65.7,67.393],[65.673,67.368],[65.701,67.339],[65.662,67.316],[65.188,67.149],[65.207,67.078],[65.073,67.043],[65.102,66.997],[65.098,66.897],[64.575,66.803],[64.533,66.733],[64.411,66.728],[64.295,66.668],[63.98,66.656],[63.807,66.552],[63.541,66.476],[63.413,66.485],[63.237,66.33],[63.292,66.244],[63.104,66.255],[63.009,66.199],[62.957,66.118],[62.858,66.078],[62.817,66.011],[62.87,65.977],[62.798,65.932],[62.844,65.877],[62.522,65.844],[62.014,65.72],[62.273,65.619],[62.322,65.537],[62.402,65.511],[62.369,65.447],[62.479,65.345],[62.81,65.289],[62.797,65.054],[62.673,64.891],[62.806,64.833],[62.816,64.806],[62.781,64.785],[62.799,64.736],[62.59,64.645],[62.533,64.551],[62.687,64.489],[62.899,64.472],[63.234,64.519],[63.455,64.454],[63.497,64.377],[63.41,64.325],[63.611,64.263],[63.889,64.279],[64.017,64.352],[64.478,64.355],[64.604,64.432],[64.761,64.422],[64.995,64.461],[65.177,64.441],[65.4,64.566],[65.884,64.564],[66.02,64.59],[66.465,64.507],[66.682,64.552],[66.932,64.482],[66.884,64.383],[66.792,64.328],[66.816,64.221],[67.161,64.159],[67.163,64.121],[67.253,64.112],[67.279,64.076],[67.677,64.074],[67.798,64.027],[67.929,64.111],[68.18,64.171],[68.427,64.291],[68.884,64.218],[68.894,64.266],[68.995,64.33],[68.874,64.433],[69.015,64.467],[69.229,64.465],[69.389,64.384],[69.732,64.389],[69.824,64.336],[69.999,64.311],[70.304,64.339],[70.471,64.247],[70.67,64.232],[70.765,64.189],[70.77,64.117],[70.554,63.999],[70.641,63.893],[70.818,63.811],[70.911,63.688],[71.386,63.67],[71.546,63.587],[71.607,63.18],[71.805,63.214],[71.989,63.197],[72.16,63.294],[72.656,63.275],[72.911,63.389],[73.101,63.431],[73.279,63.313],[73.366,63.202],[74.24,63.167],[74.507,63.038],[74.915,63.027],[75.363,63.103],[75.7,63.086],[75.804,63.109],[76.235,63.015],[76.297,62.945],[76.689,63.034],[76.823,62.987],[77.022,62.971],[77.155,62.787],[77.326,62.706],[77.885,62.553],[78.014,62.457],[78.379,62.563],[78.793,62.61],[79.821,62.599],[79.907,62.699],[79.92,62.789],[80.555,62.996],[80.592,63.079],[81.074,63.112],[81.115,63.107],[81.171,62.969],[81.316,62.881],[81.337,62.821],[81.596,62.769],[81.633,62.73],[81.783,62.684],[82.165,62.804],[82.316,62.765],[82.746,62.749],[82.755,62.666],[83.006,62.591],[83.032,62.525],[83.282,62.456],[83.787,62.558],[83.939,62.48],[84.017,62.392],[84.24,62.368],[84.286,62.272],[84.39,62.236],[84.444,62.17],[84.487,62.096],[84.516,61.925],[84.684,61.801],[85.096,61.747],[85.277,61.669],[85.403,61.682],[85.491,61.613],[85.712,61.568],[85.843,61.588],[85.956,61.541],[85.962,61.455],[86.129,61.374],[86.211,61.374],[86.327,61.452],[86.507,61.406],[86.523,61.349],[86.603,61.311],[86.775,61.317],[86.976,61.36],[86.989,61.411],[86.95,61.447],[87.003,61.46],[87.254,61.376],[87.245,61.354],[87.467,61.339],[87.474,61.266],[87.564,61.209],[87.692,61.267],[87.713,61.296],[87.676,61.329],[87.778,61.362],[87.963,61.315],[88.181,61.346],[88.952,60.746],[89.966,60.795],[89.97,60.523],[91.079,59.097],[92.662,58.145],[92.601,57.886],[92.565,57.918],[92.592,57.932],[92.585,57.983],[92.379,58.03],[92.166,57.947],[92.132,57.973],[92.031,57.94],[91.927,57.868],[91.601,57.855],[91.528,57.813],[91.309,57.891],[91.23,57.883],[91.244,57.849],[91.2,57.826],[91.176,57.73],[91.2,57.656],[91.254,57.622],[91.092,57.566],[91.012,57.598],[91.023,57.641],[90.876,57.68],[90.635,57.686],[90.63,57.63],[90.546,57.648],[90.522,57.748],[90.486,57.774],[90.524,57.831],[90.51,57.879],[90.568,57.916],[90.48,57.983],[89.374,57.76],[89.36,57.798],[89.396,57.878],[89.34,57.953],[88.852,57.966],[88.689,58.041],[88.141,58.115],[88.024,58.246],[87.926,58.507],[88.393,58.909],[88.83,59.021],[88.611,59.219],[88.624,59.297],[87.91,59.274],[87.525,59.672],[87.191,59.697],[87.085,59.888],[86.626,59.955],[85.968,59.961],[85.496,59.897],[84.694,59.91],[84.541,59.983],[84.611,60.044],[84.638,60.203],[84.789,60.361],[84.712,60.463],[84.262,60.86],[83.988,60.832],[83.504,61.052],[83.142,61.033],[82.405,60.727],[82.375,60.616],[82.167,60.532],[81.831,60.65],[81.497,60.621],[81.14,60.642],[81.067,60.681],[81.029,60.76],[80.724,60.802],[80.427,60.77],[80.185,60.67],[79.853,60.697],[79.373,60.667],[79.291,60.725],[79.315,60.804],[79.186,60.843],[78.808,60.785],[78.688,60.834],[78.474,60.783],[78.12,60.807],[77.92,60.753],[77.703,60.83],[77.407,60.816],[77.103,60.857],[77.063,60.735],[76.993,60.741],[76.966,60.711],[76.966,60.646],[77.043,60.599],[77.031,60.547],[76.775,60.454],[76.745,60.345],[76.814,60.325],[76.842,60.269],[76.689,60.114],[76.752,60.063],[76.736,59.758],[76.652,59.695],[76.639,59.589],[76.44,59.55],[76.171,59.548],[75.996,59.428],[75.892,59.431],[75.816,59.299],[75.624,59.24],[75.68,59.042],[75.639,58.987],[75.372,58.791],[75.157,58.681],[75.152,58.622],[75.101,58.578],[75.295,58.485],[75.299,58.458],[75.065,58.346],[75.212,58.22],[75.076,58.116],[75.552,57.927],[75.59,57.646],[75.722,57.596],[75.855,57.395],[75.989,57.38],[76.102,57.249],[76.191,56.967],[76.244,56.911],[76.278,56.738],[76.144,56.636],[76.045,56.624],[76.009,56.556],[75.864,56.505],[75.841,56.462],[75.884,56.438],[75.938,56.472],[76.052,56.474],[76.13,56.445],[76.076,56.415],[76.107,56.321],[76.279,56.243],[76.308,56.191],[76.172,56.16],[75.999,56.183],[75.94,56.135],[75.761,56.146],[75.695,56.075],[75.548,56.053],[75.308,55.894],[75.292,55.847],[75.366,55.808],[75.349,55.772],[75.082,55.755],[75.132,55.695],[75.218,55.66],[75.133,55.594],[75.316,55.539],[75.307,55.505],[75.176,55.46],[75.093,55.382],[75.256,55.26],[75.25,55.134],[75.387,55.037],[75.333,54.916],[75.518,54.9],[75.496,54.833],[75.65,54.803],[75.699,54.69],[75.788,54.696],[75.825,54.614],[75.791,54.561],[75.68,54.532],[75.689,54.109],[76.186,54.247],[76.176,54.291],[76.219,54.338],[76.477,54.318],[76.626,54.352],[76.673,54.431],[76.896,54.458],[76.886,54.429],[76.749,54.38],[76.829,54.342],[76.833,54.3],[76.666,54.141],[76.413,54.171],[76.37,54.145],[76.523,53.957],[77.609,53.439],[77.785,53.323],[77.849,53.38],[77.94,53.385],[77.94,53.441],[78.062,53.462],[78.051,53.5],[77.932,53.506],[77.931,53.558],[77.966,53.572],[78.202,53.607],[78.242,53.496],[78.377,53.483],[78.625,53.521],[78.609,53.616],[78.664,53.65],[79.246,53.675],[79.378,53.715],[79.425,53.686],[79.573,53.728],[79.676,53.825],[79.865,53.853],[79.873,53.929],[80.046,53.997],[80.126,54.068],[80.206,54.038],[80.422,54.122],[80.489,54.105],[80.584,54.197],[80.649,54.196],[80.763,54.262],[80.841,54.253],[80.812,54.332],[80.922,54.388],[80.99,54.261],[81.099,54.208],[81.113,54.138],[81.471,54.066],[81.57,54.014],[81.552,53.931],[81.713,53.993],[81.847,53.964],[81.841,53.903],[81.721,53.841],[81.832,53.709],[81.966,53.714],[82.112,53.656],[82.203,53.688],[82.171,53.598],[82.249,53.588],[82.486,53.464],[82.605,53.504],[82.553,53.558],[82.668,53.692],[82.767,53.755],[82.746,53.789],[83.188,54.059],[83.248,54.044],[83.294,54.076],[83.407,53.936],[83.505,53.99],[83.495,54.079],[83.571,54.122],[83.899,54.133],[83.906,54.09],[84.265,54.21],[84.287,54.167],[84.388,54.183],[84.459,54.137],[84.567,54.187],[84.591,54.249],[84.696,54.333],[85.15,54.482],[85.446,54.2],[85.605,54.228],[85.942,54.035],[86.136,53.984],[86.217,53.89],[86.291,53.87],[86.381,53.782],[86.39,53.693],[86.451,53.611],[86.511,53.596],[86.566,53.534],[86.799,53.469],[87.007,53.499],[86.919,53.449],[86.976,53.409],[86.868,53.303],[86.662,53.249],[86.696,53.196],[86.925,53.08],[87.069,53.072],[87.018,53.003],[87.018,52.919],[86.939,52.854],[87.078,52.704],[87.162,52.715],[87.181,52.628],[87.117,52.673],[86.952,52.64],[86.849,52.656],[86.79,52.614],[86.786,52.557],[86.707,52.516],[86.611,52.378],[86.803,52.285],[86.775,52.232],[86.819,52.172],[86.787,52.127],[86.497,52.123],[86.448,52.034],[86.369,52.015],[86.221,52.026],[86.15,52.075],[85.919,52.077],[85.832,51.985],[85.864,51.92],[85.736,51.863],[85.773,51.841],[85.734,51.741],[85.669,51.759],[85.534,51.704],[85.466,51.572],[85.292,51.57],[85.295,51.513],[85.231,51.474],[85.154,51.501],[85.006,51.494],[84.923,51.429],[84.714,51.404],[84.395,51.272],[84.278,51.288],[84.144,51.126],[84.069,51.147],[84.0,51.128],[84.016,51.059],[84.501,50.956],[84.528,50.874],[84.602,50.841],[84.538,50.696],[84.456,50.708],[84.084,50.637],[84.189,50.512],[84.172,50.438],[84.234,50.344],[84.246,50.257],[84.331,50.208],[84.443,50.238],[84.534,50.186],[84.788,50.127],[84.837,50.076],[84.975,50.069],[85.023,50.015],[84.951,49.993],[84.95,49.905],[85.055,49.867],[85.078,49.797],[85.179,49.704],[85.221,49.591],[85.384,49.61],[85.476,49.578],[85.608,49.613],[85.672,49.556],[85.745,49.568],[85.809,49.532],[85.931,49.555],[85.945,49.477],[86.072,49.521],[86.178,49.458],[86.275,49.578],[86.478,49.667],[86.484,49.707],[86.611,49.788],[86.744,49.778],[86.754,49.696],[86.663,49.67],[86.587,49.585],[86.641,49.543],[86.73,49.546],[86.815,49.508],[86.81,49.447],[86.921,49.389],[86.909,49.336],[86.987,49.289],[85.843,48.414],[85.747,48.39],[85.603,48.232],[85.383,48.148],[83.13,48.282],[84.267,49.205],[81.479,50.291],[78.65,50.807],[74.921,54.149],[72.992,55.307],[64.687,54.272],[64.456,53.58],[63.04,51.179],[62.258,51.065],[62.154,51.115],[62.033,51.072],[61.963,51.133],[61.929,51.242],[61.875,51.301],[61.811,51.274],[61.597,51.282],[61.475,51.431],[61.033,51.487],[60.95,51.545],[60.938,51.616],[60.512,51.624],[60.486,51.656],[60.361,51.68],[60.48,51.773],[60.454,51.81],[60.139,51.894],[60.093,51.86],[60.045,51.874],[59.992,51.954],[60.03,52.003],[59.919,52.098],[59.967,52.171],[60.154,52.275],[60.139,52.434],[59.936,52.435],[59.81,52.502],[59.685,52.433],[59.676,52.462],[59.515,52.441],[59.41,52.498],[59.272,52.499],[59.244,52.489],[59.174,52.284],[58.984,52.375],[58.979,52.435],[58.794,52.454],[58.775,52.514],[58.843,52.541],[58.809,52.597],[58.731,52.638],[58.789,52.724],[58.756,52.862],[58.848,53.003],[59.033,53.014],[58.999,53.057],[58.911,53.062],[58.896,53.191],[58.828,53.215],[58.834,53.286],[58.87,53.319],[58.873,53.498],[58.907,53.549],[58.834,53.564],[58.826,53.591],[58.912,53.653],[58.878,53.75],[58.952,53.898],[58.929,53.933],[58.959,53.969],[59.157,53.98],[59.325,54.177],[59.535,54.192],[59.673,54.129],[59.733,54.135],[59.734,54.193],[59.808,54.255],[59.78,54.305],[59.681,54.341],[59.751,54.447],[59.686,54.498],[59.874,54.61],[59.979,54.794],[59.93,54.832],[59.947,54.862],[59.809,54.851],[59.631,54.916],[59.409,54.712],[59.23,54.617],[59.06,54.637],[58.806,54.572],[58.617,54.476],[58.353,54.551],[58.204,54.52],[57.962,54.398],[57.749,54.505],[57.751,54.583],[57.586,54.638],[57.584,54.678],[57.527,54.673],[57.162,54.834],[57.249,54.951],[57.15,55.051],[57.146,55.096],[57.244,55.154],[57.228,55.212],[57.261,55.252],[57.434,55.322],[57.916,55.288],[58.131,55.212],[58.05,55.169],[57.959,55.169],[58.025,55.074],[58.016,55.005],[57.957,54.947],[58.0,54.912],[58.11,54.954],[58.096,55.018],[58.198,55.083],[58.148,55.111],[58.299,55.168],[58.369,55.15],[58.36,55.082],[58.422,55.055],[58.384,54.996],[58.52,55.017],[58.549,54.948],[58.621,54.945],[58.818,55.021],[58.764,55.113],[58.583,55.157],[58.663,55.184],[58.701,55.144],[58.747,55.151],[58.808,55.215],[58.73,55.252],[58.925,55.275],[58.874,55.318],[58.967,55.307],[58.962,55.246],[58.999,55.24],[59.163,55.328],[59.203,55.444],[59.476,55.463],[59.646,55.563],[59.629,55.596],[59.502,55.585],[59.437,55.638],[59.246,55.589],[59.349,55.645],[59.287,55.696],[59.316,55.779],[59.161,55.805],[59.208,55.833],[59.194,55.868],[59.235,55.905],[59.182,56.004],[59.285,56.051],[59.299,56.135],[59.025,56.174],[58.952,56.076],[58.826,56.059],[58.736,56.072],[58.565,56.167],[58.453,56.152],[58.353,56.064],[58.301,56.119],[58.08,56.146],[57.91,56.121],[57.802,56.156],[57.54,56.105],[57.46,56.135],[57.483,56.18],[57.416,56.239],[57.408,56.334],[57.264,56.306],[57.252,56.252],[57.166,56.166],[56.896,56.106],[56.776,56.173],[56.74,56.228],[56.65,56.227],[56.627,56.265],[56.575,56.269],[56.512,56.32],[56.563,56.359],[56.529,56.388],[56.392,56.393],[56.265,56.306],[56.073,56.295],[55.961,56.381],[55.913,56.471],[55.862,56.438],[55.547,56.404],[55.413,56.34],[55.255,56.341],[55.224,56.369],[55.172,56.323],[55.104,56.349],[54.968,56.326],[54.933,56.391],[54.747,56.444],[54.557,56.543],[54.425,56.346],[54.317,56.348],[54.363,56.297],[54.342,56.258],[54.115,56.163],[54.004,56.035],[53.836,56.043],[53.783,55.98],[53.668,55.963],[53.627,55.909],[53.745,55.862],[53.868,55.88],[53.981,55.843],[53.963,55.778],[54.033,55.798],[54.024,55.759],[54.096,55.766],[54.216,55.691],[54.176,55.632],[54.0,55.558],[53.906,55.399],[53.711,55.338],[53.594,55.258],[53.585,55.216],[53.418,55.227],[53.325,55.171],[53.142,55.148],[53.138,55.095],[53.254,55.049],[53.262,55.009],[53.41,54.985],[53.497,54.887],[53.623,54.889],[53.574,54.823],[53.599,54.715],[53.413,54.563],[53.42,54.501],[53.344,54.392],[53.357,54.33],[53.424,54.265],[53.459,54.046],[53.372,53.978],[53.26,54.076],[53.186,54.099],[53.082,54.077],[53.091,54.118],[52.95,54.21],[53.111,54.244],[53.111,54.289],[53.047,54.343],[53.0,54.316],[52.999,54.276],[52.928,54.275],[52.937,54.309],[52.772,54.352],[52.63,54.348],[52.539,54.382],[52.505,54.328],[52.279,54.333],[52.2,54.302],[52.344,54.214],[52.338,54.18],[52.257,54.152],[52.268,54.115],[52.394,54.123],[52.477,54.062],[52.371,53.983],[52.406,53.929],[52.249,53.658],[52.178,53.564],[52.099,53.552],[52.075,53.516],[52.09,53.462],[52.186,53.371],[52.138,53.299],[52.157,53.259],[52.123,53.179],[52.054,53.138],[52.15,53.106],[52.06,53.079],[52.048,52.997],[51.866,52.934],[51.805,52.881],[51.725,52.873],[51.713,52.824],[51.766,52.792],[51.725,52.671],[51.536,52.68],[51.505,52.631],[51.537,52.58],[51.473,52.581],[51.466,52.527],[51.554,52.447],[51.468,52.419],[51.463,52.374],[51.408,52.352],[51.402,52.255],[51.447,52.221],[51.409,52.105],[50.895,51.856],[50.741,51.746],[50.789,51.624],[50.763,51.584],[50.676,51.572],[50.697,51.615],[50.579,51.639],[50.57,51.592],[50.521,51.567],[50.521,51.471],[50.356,51.417],[50.323,51.308],[49.985,51.235],[49.776,51.107],[49.434,51.117],[49.342,50.965],[49.416,50.885],[49.403,50.851],[49.142,50.786],[48.831,50.601],[48.581,50.653],[48.57,50.613],[48.669,50.575],[48.696,50.334],[48.783,50.175],[48.778,50.109],[48.851,50.091],[48.88,50.033],[48.78,49.937],[48.429,49.816],[48.243,49.87],[47.997,50.186],[47.627,50.445],[47.557,50.458],[47.467,50.416],[47.39,50.329],[47.301,50.297],[47.314,50.237],[47.26,50.186],[47.323,50.105],[47.307,50.05],[47.174,49.951],[46.957,49.889],[46.895,49.822],[46.77,49.332],[46.978,49.239],[47.034,49.149],[46.929,49.01],[46.75,48.917],[46.474,48.408],[47.095,48.261],[47.07,48.205],[47.111,48.156],[47.099,48.099],[47.182,48.069],[47.039,47.987],[47.15,47.873],[47.119,47.806],[47.357,47.679],[47.388,47.704],[47.413,47.83],[47.649,47.761],[48.043,47.765],[48.172,47.708],[48.408,47.442],[48.523,47.404],[48.693,47.098],[48.995,46.771],[48.914,46.707],[48.766,46.688],[48.679,46.763],[48.555,46.767],[48.451,46.658],[48.527,46.633],[48.538,46.563],[48.705,46.545],[49.226,46.323],[49.22,46.383],[49.174,46.407],[49.295,46.393],[49.243,46.465],[49.263,46.46],[49.356,46.389],[49.237,46.262],[49.159,46.239]],[[55.536,62.069],[55.433,61.97],[55.539,61.874],[55.729,61.929],[56.312,61.684],[56.18,61.419],[56.317,61.31],[56.382,61.436],[56.568,61.414],[56.6,61.485],[56.642,61.484],[56.66,61.518],[57.081,61.47],[57.1,61.497],[58.846,61.491],[58.856,61.515],[59.05,61.532],[59.152,61.624],[59.352,61.659],[59.426,61.752],[59.323,61.802],[59.409,61.906],[59.494,61.945],[59.446,62.007],[59.405,62.151],[59.506,62.256],[59.522,62.318],[59.618,62.372],[59.596,62.425],[59.64,62.547],[59.462,62.57],[59.476,62.607],[59.391,62.731],[59.438,62.776],[59.467,62.9],[59.227,62.99],[59.213,63.027],[59.247,63.083],[59.141,63.118],[59.136,63.176],[59.077,63.22],[59.069,63.271],[58.833,63.292],[58.713,63.34],[58.372,63.308],[58.257,63.575],[58.138,63.618],[58.064,63.551],[57.957,63.607],[57.897,63.684],[57.474,63.146],[56.796,63.249],[56.721,63.226],[56.68,63.17],[56.327,63.226],[56.325,63.301],[56.077,63.329],[56.092,63.375],[55.71,63.427],[55.454,63.052],[55.376,63.046],[55.277,62.849],[55.374,62.819],[55.46,62.834],[55.504,62.784],[55.257,62.801],[55.155,62.596],[55.126,62.588],[55.475,62.546],[55.243,62.254],[55.536,62.069]]],[[[27.022,60.019],[26.979,60.024],[26.946,60.091],[26.976,60.089],[27.022,60.019]]]]}}]}