{"type":"FeatureCollection","features":[{"type":"Feature","properties":{"lite":true,"src":"data/years/1650.geojson"},"geometry":{"type":"MultiPolygon","coordinates":[[[[31.557,57.034],[31.169,56.732],[31.011,56.843],[30.987,56.812],[30.643,56.954],[30.576,56.808],[31.106,56.411],[31.226,56.173],[30.777,56.072],[30.684,55.9],[29.948,56.538],[29.06,56.538],[28.813,56.883],[28.093,56.792],[28.011,56.572],[27.824,56.726],[27.929,56.94],[27.638,57.095],[27.773,57.211],[27.795,57.466],[27.534,57.408],[27.511,57.612],[27.585,58.23],[27.973,58.133],[28.373,58.21],[28.383,58.179],[29.432,58.134],[28.183,58.99],[29.04,59.29],[29.518,59.247],[29.996,59.464],[31.318,59.594],[31.299,59.934],[31.455,59.907],[31.547,59.94],[31.548,60.072],[31.606,60.134],[31.592,60.158],[31.698,60.235],[32.057,60.227],[32.26,60.154],[32.5,60.176],[32.584,60.209],[32.612,60.245],[32.595,60.354],[32.677,60.392],[32.601,60.533],[32.816,60.482],[32.944,60.642],[32.842,60.714],[32.766,60.886],[32.591,60.999],[32.527,61.118],[31.898,61.324],[31.637,61.463],[31.602,61.423],[31.486,61.551],[31.365,61.627],[31.305,61.607],[31.194,61.639],[31.123,62.804],[30.559,63.11],[30.603,65.148],[30.993,65.754],[30.603,66.664],[30.661,67.517],[29.103,68.801],[30.735,69.752],[31.054,69.64],[31.331,69.663],[32.064,69.881],[32.076,69.815],[32.19,69.642],[32.352,69.514],[32.596,69.424],[33.279,69.342],[33.316,69.071],[33.629,69.215],[35.437,69.15],[37.245,68.794],[37.688,68.63],[38.406,68.243],[38.668,68.146],[39.918,67.94],[40.827,67.66],[40.972,67.536],[40.951,67.335],[41.017,67.202],[41.209,67.069],[41.255,66.937],[41.147,66.782],[40.918,66.619],[40.395,66.343],[40.1,66.241],[39.356,66.086],[38.561,66.005],[37.652,66.073],[37.263,66.181],[36.885,66.235],[36.402,66.245],[35.553,66.337],[35.363,66.371],[34.874,66.551],[34.805,66.563],[34.666,66.519],[34.322,66.593],[34.307,66.619],[33.79,66.666],[33.676,66.747],[33.652,66.705],[33.587,66.687],[33.437,66.702],[33.158,66.915],[32.627,67.083],[32.496,67.084],[32.582,67.038],[32.22,66.994],[32.425,66.891],[32.753,66.649],[32.97,66.584],[33.47,66.313],[33.844,66.182],[34.259,66.11],[34.544,66.001],[34.726,65.797],[34.725,65.614],[34.6,65.483],[34.294,65.396],[34.426,65.106],[34.773,64.682],[34.815,64.46],[34.885,64.367],[35.082,64.288],[36.015,64.197],[36.24,63.919],[36.42,63.876],[36.987,63.842],[37.411,63.75],[37.591,63.807],[37.945,63.85],[38.054,63.986],[38.054,64.129],[37.88,64.308],[37.765,64.338],[37.747,64.39],[37.597,64.328],[37.261,64.314],[37.044,64.39],[36.572,64.762],[36.885,65.068],[37.103,65.068],[37.604,64.853],[39.193,64.511],[39.622,64.476],[39.998,64.541],[40.322,64.463],[40.44,64.563],[40.462,64.75],[40.241,64.982],[39.979,65.153],[39.824,65.434],[39.95,65.58],[41.354,65.955],[41.623,66.065],[42.133,66.388],[42.21,66.41],[43.242,66.251],[43.876,66.011],[44.03,66.011],[44.122,66.268],[44.223,66.401],[44.337,66.404],[44.577,66.303],[44.859,66.231],[45.74,66.063],[45.832,66.083],[46.347,66.023],[47.11,65.816],[47.408,65.831],[47.661,65.803],[47.764,65.84],[47.736,65.911],[47.756,65.937],[48.14,66.122],[49.007,66.114],[51.512,66.778],[51.554,66.797],[51.49,66.831],[51.526,66.923],[51.812,66.949],[51.848,66.997],[52.022,67.023],[52.156,67.081],[53.772,66.994],[59.882,66.997],[59.869,66.963],[59.919,66.949],[60.082,66.985],[61.626,67.007],[61.853,67.122],[62.823,67.383],[62.876,67.577],[63.107,67.67],[63.422,67.763],[63.691,67.757],[63.711,67.805],[63.873,67.831],[63.952,67.895],[63.919,67.964],[63.838,68.025],[64.326,68.129],[64.35,68.173],[64.418,68.196],[64.532,68.196],[64.5,68.315],[64.557,68.354],[64.761,68.401],[65.006,68.384],[65.448,68.424],[65.269,68.232],[65.324,68.093],[65.286,68.01],[65.436,67.915],[65.781,67.919],[65.909,67.955],[66.083,67.927],[66.015,67.796],[66.196,67.735],[66.201,67.696],[66.106,67.652],[66.0,67.683],[65.85,67.659],[65.819,67.631],[65.84,67.604],[65.791,67.568],[66.034,67.57],[66.101,67.507],[66.085,67.471],[65.937,67.398],[65.7,67.393],[65.673,67.368],[65.701,67.338],[65.66,67.315],[65.188,67.149],[65.206,67.077],[65.073,67.043],[65.102,66.998],[65.1,66.898],[64.575,66.803],[64.533,66.733],[64.411,66.728],[64.295,66.668],[63.98,66.656],[63.807,66.552],[63.541,66.476],[63.413,66.485],[63.237,66.33],[63.293,66.244],[63.104,66.255],[63.009,66.199],[62.958,66.118],[62.858,66.078],[62.817,66.011],[62.871,65.977],[62.798,65.932],[62.845,65.877],[62.522,65.844],[62.014,65.72],[62.275,65.619],[62.322,65.537],[62.403,65.511],[62.369,65.447],[62.479,65.345],[62.81,65.29],[62.797,65.053],[62.673,64.891],[62.807,64.832],[62.816,64.805],[62.781,64.785],[62.8,64.736],[62.59,64.645],[62.533,64.551],[62.687,64.489],[62.899,64.472],[63.236,64.519],[63.455,64.455],[63.497,64.376],[63.41,64.325],[63.611,64.263],[63.889,64.279],[64.016,64.352],[64.478,64.355],[64.601,64.432],[64.761,64.422],[64.995,64.461],[65.177,64.441],[65.399,64.566],[65.884,64.564],[66.02,64.59],[66.465,64.507],[66.682,64.552],[66.932,64.483],[66.884,64.382],[66.792,64.328],[66.816,64.221],[67.162,64.159],[67.163,64.121],[67.253,64.112],[67.279,64.076],[67.68,64.074],[67.798,64.027],[67.928,64.111],[68.18,64.171],[68.425,64.291],[68.884,64.218],[68.892,64.264],[68.995,64.33],[68.874,64.434],[69.015,64.467],[69.23,64.465],[69.389,64.384],[69.733,64.389],[69.824,64.336],[69.999,64.311],[70.305,64.339],[70.471,64.247],[70.672,64.232],[70.766,64.189],[70.771,64.117],[70.554,63.999],[70.641,63.893],[70.816,63.813],[70.911,63.688],[71.387,63.67],[71.547,63.587],[71.607,63.18],[71.805,63.214],[71.989,63.197],[72.16,63.294],[72.656,63.275],[72.909,63.389],[73.103,63.431],[73.28,63.312],[73.366,63.202],[74.241,63.167],[74.507,63.038],[74.915,63.027],[75.363,63.103],[75.7,63.086],[75.804,63.109],[76.236,63.015],[76.297,62.945],[76.689,63.034],[76.823,62.987],[77.022,62.971],[77.155,62.787],[77.326,62.706],[77.887,62.553],[78.015,62.456],[78.379,62.563],[78.793,62.61],[79.821,62.599],[79.907,62.699],[79.92,62.789],[80.555,62.996],[80.591,63.079],[81.111,63.11],[81.171,62.969],[81.316,62.882],[81.337,62.821],[81.597,62.769],[81.633,62.73],[81.783,62.684],[82.165,62.804],[82.316,62.765],[82.747,62.749],[82.755,62.666],[83.008,62.59],[83.032,62.525],[83.282,62.456],[83.798,62.555],[83.939,62.48],[84.017,62.392],[84.241,62.368],[84.286,62.272],[84.391,62.236],[84.443,62.172],[84.487,62.097],[84.516,61.925],[84.684,61.801],[85.096,61.747],[85.277,61.669],[85.405,61.682],[85.491,61.613],[85.712,61.568],[85.842,61.589],[85.957,61.541],[85.962,61.455],[86.129,61.374],[86.211,61.374],[86.327,61.453],[86.51,61.405],[86.523,61.349],[86.603,61.311],[86.775,61.317],[86.976,61.36],[86.989,61.411],[86.95,61.448],[87.001,61.461],[87.255,61.377],[87.245,61.354],[87.467,61.34],[87.474,61.266],[87.564,61.209],[87.692,61.267],[87.713,61.296],[87.676,61.33],[87.776,61.362],[87.963,61.315],[88.182,61.347],[88.953,60.746],[89.866,60.807],[90.946,60.746],[91.965,60.751],[92.138,60.829],[92.134,60.889],[92.234,60.951],[92.226,60.981],[92.409,60.968],[92.474,60.997],[92.401,61.109],[92.466,61.195],[92.559,61.191],[92.756,61.087],[92.902,61.068],[92.89,61.096],[92.939,61.13],[92.891,61.146],[92.876,61.195],[92.637,61.303],[92.829,61.36],[92.93,61.332],[93.012,61.363],[93.152,61.321],[93.156,61.244],[93.343,61.1],[93.472,61.082],[93.568,61.104],[93.732,61.038],[93.92,61.058],[94.029,60.96],[94.251,61.12],[94.382,61.118],[94.545,61.175],[94.724,61.158],[94.919,61.103],[95.102,61.096],[95.359,60.923],[95.403,60.816],[95.326,60.744],[95.481,60.694],[95.234,60.563],[95.227,60.499],[95.29,60.451],[95.265,60.421],[95.113,60.416],[95.022,60.37],[94.929,60.236],[95.012,60.195],[94.977,60.113],[95.082,60.048],[95.006,60.003],[95.062,59.89],[95.174,59.803],[95.136,59.756],[95.213,59.656],[95.499,59.637],[95.593,59.575],[95.712,59.553],[95.661,59.426],[95.389,59.259],[95.394,59.22],[95.315,59.195],[95.246,59.227],[95.239,59.192],[95.158,59.157],[95.289,59.007],[95.438,58.982],[95.389,58.88],[95.413,58.849],[95.363,58.811],[95.423,58.801],[95.416,58.775],[95.459,58.754],[95.505,58.784],[95.57,58.768],[95.415,58.607],[95.419,58.536],[95.518,58.455],[95.486,58.135],[95.42,58.06],[95.434,58.019],[95.309,57.97],[95.285,57.879],[95.307,57.82],[95.226,57.754],[95.09,57.77],[94.833,57.736],[94.743,57.789],[94.433,57.782],[93.893,57.949],[93.267,57.959],[93.205,57.999],[93.165,57.948],[93.229,57.871],[93.157,57.839],[92.754,57.876],[92.643,57.84],[92.564,57.918],[92.592,57.932],[92.585,57.983],[92.379,58.03],[92.167,57.947],[92.132,57.973],[92.031,57.94],[91.928,57.868],[91.601,57.855],[91.528,57.813],[91.309,57.891],[91.23,57.883],[91.244,57.849],[91.2,57.826],[91.176,57.729],[91.2,57.656],[91.256,57.624],[91.095,57.566],[91.01,57.599],[91.023,57.641],[90.876,57.68],[90.635,57.686],[90.629,57.629],[90.546,57.647],[90.522,57.748],[90.485,57.775],[90.524,57.831],[90.51,57.88],[90.568,57.916],[90.48,57.983],[89.372,57.76],[89.396,57.878],[89.34,57.953],[88.851,57.966],[88.689,58.041],[88.124,58.125],[88.023,58.245],[87.924,58.502],[88.394,58.91],[88.831,59.022],[88.612,59.217],[88.624,59.297],[87.912,59.273],[87.525,59.672],[87.192,59.695],[87.085,59.888],[86.626,59.955],[85.968,59.961],[85.496,59.897],[84.692,59.91],[84.541,59.985],[84.611,60.044],[84.636,60.202],[84.789,60.361],[84.712,60.463],[84.262,60.86],[83.989,60.832],[83.504,61.052],[83.142,61.033],[82.405,60.727],[82.376,60.615],[82.168,60.532],[81.831,60.65],[81.498,60.621],[81.14,60.642],[81.064,60.684],[81.029,60.76],[80.724,60.802],[80.427,60.77],[80.186,60.67],[79.853,60.697],[79.373,60.667],[79.291,60.722],[79.315,60.804],[79.186,60.843],[78.808,60.785],[78.688,60.834],[78.475,60.783],[78.12,60.807],[77.919,60.753],[77.703,60.83],[77.406,60.816],[77.103,60.857],[77.063,60.734],[76.993,60.741],[76.966,60.711],[76.966,60.646],[77.044,60.596],[77.03,60.545],[76.775,60.454],[76.745,60.345],[76.814,60.326],[76.842,60.266],[76.689,60.114],[76.752,60.065],[76.736,59.757],[76.652,59.695],[76.639,59.588],[76.44,59.55],[76.171,59.548],[75.995,59.427],[75.892,59.431],[75.815,59.298],[75.624,59.24],[75.68,59.038],[75.371,58.79],[75.157,58.681],[75.152,58.62],[75.101,58.579],[75.296,58.485],[75.299,58.456],[75.065,58.346],[75.213,58.222],[75.076,58.116],[75.551,57.929],[75.59,57.646],[75.723,57.596],[75.855,57.395],[75.989,57.381],[76.103,57.249],[76.191,56.967],[76.244,56.911],[76.278,56.734],[76.144,56.636],[76.045,56.624],[76.009,56.555],[75.864,56.505],[75.841,56.462],[75.884,56.438],[75.936,56.472],[76.053,56.474],[76.131,56.445],[76.076,56.415],[76.107,56.321],[76.296,56.233],[76.31,56.196],[76.173,56.16],[75.999,56.183],[75.94,56.135],[75.761,56.146],[75.697,56.075],[75.548,56.053],[75.308,55.894],[75.292,55.847],[75.367,55.808],[75.349,55.772],[75.082,55.755],[75.132,55.695],[75.219,55.66],[75.133,55.594],[75.316,55.54],[75.307,55.504],[75.176,55.46],[75.093,55.382],[75.255,55.261],[75.25,55.134],[75.388,55.038],[75.333,54.916],[75.519,54.9],[75.496,54.833],[75.65,54.803],[75.699,54.69],[75.789,54.696],[75.825,54.614],[75.792,54.561],[75.68,54.532],[75.689,54.109],[76.186,54.247],[76.176,54.292],[76.218,54.338],[76.477,54.318],[76.626,54.352],[76.675,54.432],[76.894,54.459],[76.898,54.435],[76.749,54.38],[76.83,54.342],[76.833,54.299],[76.665,54.14],[76.413,54.171],[76.37,54.145],[76.523,53.957],[77.61,53.439],[77.785,53.323],[77.849,53.381],[77.94,53.385],[77.938,53.44],[78.062,53.462],[78.051,53.5],[77.931,53.506],[77.931,53.56],[77.964,53.572],[78.204,53.607],[78.242,53.496],[78.377,53.483],[78.625,53.521],[78.609,53.617],[78.664,53.65],[78.884,53.677],[79.018,53.655],[79.07,53.688],[79.246,53.675],[79.379,53.715],[79.425,53.686],[79.573,53.728],[79.676,53.825],[79.865,53.853],[79.873,53.93],[80.046,53.997],[80.127,54.069],[80.206,54.038],[80.422,54.122],[80.489,54.105],[80.587,54.198],[80.649,54.196],[80.763,54.262],[80.841,54.253],[80.81,54.331],[80.924,54.389],[80.99,54.261],[81.099,54.209],[81.113,54.138],[81.471,54.067],[81.571,54.014],[81.552,53.931],[81.712,53.993],[81.848,53.964],[81.842,53.903],[81.721,53.841],[81.832,53.709],[81.968,53.714],[82.112,53.656],[82.204,53.688],[82.171,53.598],[82.247,53.59],[82.486,53.464],[82.605,53.504],[82.552,53.557],[82.667,53.691],[82.767,53.755],[82.745,53.789],[83.19,54.06],[83.248,54.044],[83.293,54.077],[83.407,53.936],[83.505,53.99],[83.494,54.079],[83.57,54.122],[83.901,54.133],[83.906,54.09],[84.264,54.21],[84.287,54.167],[84.389,54.183],[84.459,54.137],[84.567,54.187],[84.588,54.246],[84.695,54.333],[85.152,54.482],[85.446,54.2],[85.602,54.229],[85.942,54.035],[86.136,53.984],[86.217,53.89],[86.289,53.872],[86.382,53.781],[86.39,53.693],[86.451,53.611],[86.511,53.597],[86.566,53.534],[86.799,53.469],[87.007,53.5],[86.919,53.449],[86.976,53.409],[86.867,53.302],[86.662,53.249],[86.696,53.196],[86.925,53.08],[87.07,53.072],[87.018,53.003],[87.018,52.918],[86.939,52.854],[87.078,52.704],[87.163,52.715],[87.182,52.628],[87.117,52.673],[86.952,52.64],[86.849,52.656],[86.79,52.614],[86.787,52.557],[86.707,52.516],[86.611,52.378],[86.804,52.285],[86.775,52.232],[86.819,52.171],[86.786,52.126],[86.497,52.123],[86.448,52.034],[86.369,52.015],[86.221,52.026],[86.15,52.075],[85.919,52.077],[85.832,51.985],[85.865,51.92],[85.736,51.863],[85.773,51.839],[85.735,51.741],[85.669,51.759],[85.534,51.704],[85.467,51.572],[85.292,51.57],[85.296,51.512],[85.232,51.474],[85.154,51.501],[85.006,51.494],[84.923,51.429],[84.714,51.404],[84.395,51.271],[84.278,51.288],[84.142,51.124],[84.069,51.147],[84.0,51.128],[84.016,51.059],[84.503,50.956],[84.528,50.874],[84.602,50.842],[84.54,50.696],[84.456,50.708],[84.084,50.637],[84.191,50.51],[84.172,50.438],[84.235,50.342],[84.246,50.257],[84.331,50.208],[84.443,50.238],[84.534,50.186],[84.788,50.128],[84.837,50.076],[84.973,50.071],[85.023,50.016],[84.951,49.993],[84.95,49.905],[85.054,49.868],[85.078,49.797],[85.18,49.704],[85.221,49.591],[85.385,49.61],[85.476,49.578],[85.611,49.613],[85.672,49.556],[85.747,49.568],[85.809,49.532],[85.932,49.555],[85.945,49.477],[86.072,49.521],[86.178,49.458],[86.276,49.58],[86.478,49.667],[86.484,49.708],[86.568,49.738],[86.612,49.79],[86.746,49.778],[86.755,49.695],[86.663,49.67],[86.587,49.585],[86.641,49.543],[86.731,49.546],[86.816,49.508],[86.81,49.447],[86.92,49.391],[86.909,49.336],[86.988,49.289],[85.602,48.231],[85.384,48.148],[83.13,48.282],[84.267,49.205],[81.479,50.291],[78.649,50.806],[74.921,54.149],[72.992,55.307],[64.687,54.272],[64.457,53.581],[63.04,51.179],[62.258,51.065],[62.154,51.115],[62.03,51.072],[61.963,51.132],[61.929,51.242],[61.875,51.301],[61.813,51.274],[61.595,51.282],[61.475,51.431],[61.031,51.487],[60.949,51.546],[60.938,51.616],[60.511,51.624],[60.486,51.656],[60.36,51.679],[60.48,51.773],[60.454,51.81],[60.139,51.894],[60.093,51.86],[60.045,51.874],[59.992,51.951],[60.03,52.003],[59.996,52.048],[59.922,52.068],[59.919,52.099],[59.967,52.172],[60.154,52.275],[60.139,52.434],[59.936,52.435],[59.81,52.502],[59.686,52.433],[59.676,52.462],[59.513,52.44],[59.41,52.498],[59.272,52.499],[59.244,52.489],[59.206,52.319],[59.172,52.284],[58.982,52.376],[58.979,52.435],[58.794,52.453],[58.774,52.515],[58.843,52.541],[58.809,52.597],[58.731,52.636],[58.789,52.724],[58.756,52.862],[58.847,53.003],[59.033,53.014],[58.999,53.057],[58.912,53.06],[58.896,53.191],[58.828,53.212],[58.834,53.287],[58.87,53.319],[58.873,53.499],[58.907,53.549],[58.833,53.563],[58.826,53.592],[58.912,53.653],[58.878,53.752],[58.952,53.898],[58.928,53.934],[58.957,53.969],[59.157,53.98],[59.323,54.177],[59.536,54.192],[59.673,54.129],[59.733,54.135],[59.734,54.194],[59.808,54.255],[59.78,54.305],[59.68,54.341],[59.751,54.447],[59.686,54.499],[59.874,54.61],[59.979,54.794],[59.929,54.833],[59.947,54.862],[59.807,54.851],[59.631,54.916],[59.409,54.711],[59.227,54.616],[59.06,54.637],[58.806,54.572],[58.617,54.476],[58.353,54.551],[58.204,54.52],[57.963,54.398],[57.749,54.504],[57.751,54.583],[57.586,54.638],[57.584,54.678],[57.526,54.673],[57.511,54.702],[57.389,54.724],[57.162,54.832],[57.165,54.872],[57.249,54.951],[57.149,55.053],[57.145,55.097],[57.244,55.154],[57.227,55.212],[57.262,55.254],[57.318,55.254],[57.434,55.322],[57.916,55.288],[58.028,55.27],[58.132,55.212],[58.05,55.169],[57.959,55.169],[58.025,55.076],[58.017,55.005],[57.957,54.947],[58.0,54.912],[58.11,54.954],[58.096,55.019],[58.198,55.083],[58.149,55.112],[58.298,55.168],[58.37,55.15],[58.36,55.082],[58.423,55.055],[58.384,54.996],[58.521,55.017],[58.549,54.948],[58.621,54.945],[58.818,55.021],[58.764,55.113],[58.582,55.158],[58.665,55.184],[58.701,55.144],[58.747,55.151],[58.808,55.215],[58.73,55.253],[58.925,55.275],[58.872,55.318],[58.969,55.306],[58.962,55.246],[58.999,55.24],[59.163,55.328],[59.203,55.445],[59.476,55.463],[59.646,55.563],[59.629,55.596],[59.501,55.585],[59.437,55.638],[59.245,55.588],[59.349,55.645],[59.286,55.695],[59.316,55.779],[59.16,55.803],[59.208,55.833],[59.194,55.869],[59.235,55.905],[59.181,56.003],[59.285,56.051],[59.299,56.135],[59.025,56.174],[58.95,56.074],[58.826,56.059],[58.736,56.072],[58.565,56.167],[58.453,56.152],[58.353,56.064],[58.301,56.119],[58.08,56.146],[57.907,56.121],[57.802,56.156],[57.538,56.105],[57.46,56.134],[57.483,56.18],[57.414,56.241],[57.408,56.334],[57.264,56.306],[57.252,56.251],[57.164,56.164],[56.896,56.106],[56.775,56.173],[56.74,56.228],[56.649,56.227],[56.627,56.265],[56.576,56.268],[56.511,56.32],[56.563,56.359],[56.529,56.388],[56.392,56.393],[56.266,56.306],[56.072,56.295],[55.962,56.379],[55.913,56.471],[55.863,56.438],[55.547,56.404],[55.412,56.34],[55.253,56.341],[55.224,56.369],[55.174,56.323],[55.104,56.349],[54.967,56.326],[54.933,56.391],[54.746,56.444],[54.557,56.543],[54.425,56.345],[54.39,56.366],[54.317,56.348],[54.364,56.298],[54.341,56.256],[54.115,56.163],[54.005,56.034],[53.836,56.043],[53.782,55.978],[53.668,55.963],[53.627,55.909],[53.745,55.862],[53.868,55.881],[53.918,55.843],[53.982,55.843],[53.963,55.778],[54.034,55.798],[54.024,55.759],[54.097,55.766],[54.217,55.692],[54.177,55.632],[54.0,55.558],[53.903,55.396],[53.711,55.338],[53.594,55.258],[53.586,55.216],[53.418,55.227],[53.326,55.171],[53.142,55.148],[53.138,55.095],[53.255,55.049],[53.262,55.009],[53.412,54.984],[53.497,54.887],[53.624,54.89],[53.574,54.823],[53.6,54.714],[53.413,54.563],[53.42,54.499],[53.344,54.392],[53.357,54.33],[53.424,54.266],[53.46,54.046],[53.369,53.978],[53.26,54.076],[53.186,54.099],[53.08,54.077],[53.091,54.118],[52.949,54.209],[53.111,54.244],[53.111,54.289],[53.047,54.343],[53.0,54.316],[53.001,54.276],[52.926,54.275],[52.937,54.309],[52.772,54.352],[52.629,54.348],[52.539,54.382],[52.506,54.328],[52.279,54.333],[52.2,54.302],[52.344,54.216],[52.336,54.178],[52.257,54.152],[52.268,54.115],[52.396,54.123],[52.478,54.06],[52.371,53.983],[52.407,53.928],[52.25,53.658],[52.179,53.564],[52.099,53.552],[52.075,53.516],[52.09,53.462],[52.186,53.37],[52.138,53.299],[52.157,53.256],[52.121,53.224],[52.123,53.177],[52.054,53.138],[52.151,53.106],[52.06,53.079],[52.05,52.998],[51.866,52.934],[51.808,52.882],[51.725,52.873],[51.713,52.824],[51.766,52.79],[51.724,52.669],[51.536,52.68],[51.505,52.631],[51.537,52.58],[51.473,52.581],[51.466,52.527],[51.555,52.447],[51.468,52.419],[51.464,52.374],[51.408,52.352],[51.402,52.255],[51.447,52.222],[51.41,52.105],[50.895,51.856],[50.741,51.746],[50.789,51.626],[50.762,51.583],[50.676,51.572],[50.697,51.615],[50.579,51.639],[50.571,51.592],[50.521,51.567],[50.517,51.465],[50.356,51.417],[50.324,51.308],[49.985,51.235],[49.778,51.107],[49.434,51.117],[49.342,50.965],[49.417,50.884],[49.404,50.851],[49.142,50.786],[48.83,50.601],[48.581,50.653],[48.57,50.613],[48.669,50.576],[48.696,50.334],[48.784,50.173],[48.778,50.109],[48.849,50.093],[48.88,50.032],[48.783,49.938],[48.431,49.816],[48.242,49.87],[47.997,50.186],[47.627,50.445],[47.557,50.458],[47.467,50.416],[47.39,50.328],[47.301,50.297],[47.315,50.237],[47.26,50.186],[47.323,50.106],[47.305,50.048],[47.174,49.951],[46.957,49.889],[46.895,49.822],[46.77,49.332],[46.977,49.24],[47.035,49.15],[46.927,49.008],[46.75,48.917],[46.474,48.408],[47.096,48.261],[47.07,48.205],[47.111,48.155],[47.099,48.099],[47.183,48.07],[47.039,47.987],[47.151,47.874],[47.119,47.806],[47.357,47.679],[47.388,47.704],[47.411,47.83],[47.649,47.761],[48.044,47.765],[48.171,47.709],[48.408,47.442],[48.522,47.406],[48.693,47.098],[48.996,46.772],[48.915,46.707],[48.766,46.688],[48.679,46.763],[48.555,46.767],[48.451,46.658],[48.528,46.632],[48.538,46.563],[48.703,46.546],[48.818,46.475],[48.897,46.477],[49.226,46.323],[49.22,46.383],[49.174,46.407],[49.295,46.393],[49.243,46.465],[49.356,46.389],[49.059,46.137],[48.833,46.083],[48.832,46.009],[48.779,46.016],[48.807,45.909],[48.772,45.886],[48.635,45.975],[48.303,45.768],[47.873,45.679],[47.673,45.75],[47.628,45.732],[47.601,45.66],[47.654,45.543],[47.548,45.453],[47.437,45.293],[47.395,45.175],[47.365,45.136],[47.332,45.141],[47.158,44.854],[46.873,44.68],[45.275,44.499],[45.255,44.535],[45.227,44.493],[44.756,44.44],[43.882,44.813],[43.381,46.188],[42.257,46.813],[40.633,46.69],[40.508,47.438],[39.785,48.016],[39.847,48.033],[39.847,48.117],[39.998,48.275],[39.834,48.308],[39.929,48.375],[39.849,48.487],[39.874,48.509],[39.858,48.56],[39.81,48.589],[39.643,48.597],[39.706,48.742],[39.78,48.802],[39.976,48.785],[40.057,48.848],[40.035,48.891],[39.948,48.859],[39.763,48.899],[39.68,48.976],[39.698,49.023],[39.921,49.043],[39.955,49.121],[40.146,49.243],[40.164,49.336],[40.04,49.485],[40.13,49.556],[40.118,49.595],[39.997,49.613],[39.802,49.547],[39.627,49.617],[39.559,49.729],[39.263,49.749],[39.157,49.878],[39.047,49.815],[38.938,49.809],[38.855,49.87],[38.691,49.917],[38.666,49.97],[38.497,49.953],[38.359,49.985],[38.301,50.065],[38.172,50.065],[38.161,49.944],[38.051,49.926],[37.928,50.039],[37.757,50.085],[37.622,50.217],[37.638,50.316],[37.484,50.344],[37.416,50.437],[37.284,50.42],[37.196,50.367],[36.848,50.329],[36.596,50.21],[36.541,50.223],[36.539,50.272],[36.411,50.309],[36.274,50.285],[36.107,50.426],[35.837,50.428],[35.737,50.386],[35.704,50.416],[35.592,50.404],[35.573,50.469],[35.48,50.492],[35.405,50.58],[35.431,50.603],[35.403,50.647],[35.487,50.651],[35.501,50.679],[35.468,50.691],[35.493,50.78],[35.418,50.804],[35.404,50.917],[35.338,50.947],[35.345,51.0],[35.416,51.042],[35.303,51.084],[35.195,51.057],[35.137,51.162],[35.152,51.228],[34.979,51.24],[34.827,51.177],[34.714,51.178],[34.674,51.2],[34.664,51.252],[34.384,51.279],[34.33,51.245],[34.23,51.27],[34.14,51.235],[34.04,51.239],[33.998,51.199],[33.914,51.223],[33.899,51.273],[33.774,51.274],[33.676,51.341],[33.594,51.247],[33.311,51.37],[33.402,51.403],[33.675,51.379],[33.76,51.42],[33.744,51.462],[33.773,51.505],[33.833,51.507],[33.886,51.438],[33.999,51.471],[34.016,51.522],[34.301,51.49],[34.312,51.522],[34.266,51.539],[34.252,51.581],[34.106,51.673],[34.425,51.718],[34.445,51.744],[34.42,51.828],[34.266,51.89],[34.193,51.973],[34.146,51.974],[34.082,52.075],[34.113,52.118],[34.23,52.125],[34.217,52.149],[34.275,52.207],[34.245,52.262],[34.401,52.27],[34.454,52.324],[34.378,52.342],[34.409,52.36],[34.407,52.416],[34.267,52.437],[34.27,52.479],[34.317,52.495],[34.287,52.536],[34.442,52.644],[34.329,52.643],[34.337,52.683],[34.275,52.712],[34.163,52.658],[34.066,52.689],[34.083,52.723],[34.018,52.755],[34.012,52.813],[34.125,52.866],[34.016,52.843],[33.855,52.869],[33.83,52.938],[33.855,52.966],[33.806,53.008],[33.74,52.997],[33.723,53.019],[33.769,53.059],[33.713,53.081],[33.625,53.074],[33.498,53.129],[33.438,53.116],[33.405,53.164],[33.391,53.101],[33.341,53.097],[33.303,53.157],[33.39,53.197],[33.131,53.149],[32.981,53.255],[32.893,53.242],[32.867,53.261],[32.884,53.297],[32.807,53.333],[32.686,53.347],[32.611,53.344],[32.58,53.298],[32.486,53.308],[32.502,53.284],[32.444,53.218],[32.347,53.715],[32.482,53.682],[32.394,53.637],[32.45,53.542],[32.575,53.481],[32.637,53.486],[32.644,53.454],[32.697,53.457],[32.765,53.41],[32.849,53.427],[32.913,53.491],[32.897,53.556],[32.926,53.587],[33.201,53.728],[33.215,53.793],[33.293,53.819],[33.254,53.882],[33.261,53.95],[33.481,53.971],[33.462,53.997],[33.498,54.033],[33.44,54.056],[33.551,54.095],[33.568,54.156],[33.621,54.18],[33.609,54.251],[33.689,54.321],[33.624,54.376],[33.679,54.448],[33.652,54.481],[33.728,54.555],[34.109,54.545],[34.375,54.417],[34.421,54.45],[34.396,54.496],[34.44,54.509],[34.504,54.631],[34.478,54.676],[34.655,54.658],[34.924,54.767],[34.856,54.82],[34.869,54.878],[34.994,54.877],[35.067,54.952],[35.144,54.961],[35.135,55.01],[35.244,55.061],[35.309,55.186],[35.374,55.237],[35.296,55.321],[35.325,55.5],[35.292,55.558],[35.383,55.56],[35.403,55.612],[35.322,55.714],[35.357,55.787],[35.253,55.878],[35.249,55.92],[35.049,55.99],[34.759,55.973],[34.63,55.923],[34.375,56.019],[34.311,56.004],[34.236,56.076],[33.904,56.078],[33.825,55.992],[33.825,55.935],[33.658,55.951],[33.665,55.867],[33.512,55.765],[33.385,55.71],[33.224,55.703],[33.166,55.651],[32.937,55.638],[32.709,55.695],[32.553,55.665],[32.498,55.709],[32.444,55.69],[32.337,55.717],[32.282,55.683],[32.053,55.666],[32.094,55.708],[31.911,55.776],[31.756,55.72],[31.586,55.752],[31.236,55.731],[31.861,55.993],[32.078,56.774],[31.557,57.034]]],[[[145.906,59.17],[145.782,59.215],[145.801,59.318],[145.661,59.373],[145.008,59.32],[143.899,59.369],[143.55,59.28],[143.404,59.274],[143.198,59.322],[143.023,59.276],[142.846,59.273],[142.358,59.141],[141.924,58.941],[141.591,58.728],[141.35,58.501],[140.587,58.239],[140.043,57.66],[139.363,57.366],[133.204,59.201],[133.559,59.289],[133.625,59.227],[134.047,59.251],[134.522,59.142],[134.558,59.177],[134.726,59.206],[134.769,59.189],[134.749,59.148],[134.853,59.122],[134.945,59.147],[135.188,59.111],[135.282,59.186],[135.268,59.224],[135.424,59.383],[135.621,59.491],[135.758,59.524],[136.003,59.48],[136.075,59.422],[136.312,59.428],[136.363,59.389],[136.76,59.35],[136.964,59.423],[137.21,59.448],[137.351,59.544],[137.468,59.551],[137.452,59.633],[137.617,59.735],[137.95,59.748],[138.0,59.791],[138.038,59.746],[138.033,59.681],[138.174,59.675],[138.255,59.708],[138.275,59.735],[138.204,59.758],[138.18,59.832],[138.202,59.894],[138.278,59.955],[138.238,60.02],[138.261,60.08],[138.21,60.119],[138.242,60.186],[138.207,60.237],[138.319,60.315],[138.334,60.391],[138.256,60.493],[138.332,60.526],[138.319,60.582],[138.407,60.607],[138.442,60.68],[138.288,60.76],[138.19,60.886],[138.219,60.959],[138.35,60.998],[138.308,61.104],[138.396,61.095],[138.705,61.189],[138.653,61.223],[138.649,61.268],[138.735,61.338],[138.755,61.306],[138.84,61.332],[138.921,61.313],[139.063,61.389],[139.056,61.423],[139.099,61.443],[139.26,61.428],[139.41,61.486],[139.551,61.477],[139.65,61.566],[139.678,61.649],[139.957,61.829],[139.985,61.87],[139.958,61.916],[139.998,61.974],[140.129,61.968],[140.181,62.019],[140.284,62.05],[140.264,62.093],[140.309,62.123],[140.319,62.179],[140.3,62.275],[140.351,62.384],[140.482,62.427],[140.63,62.416],[140.689,62.487],[140.658,62.535],[140.718,62.569],[140.828,62.541],[140.88,62.494],[141.044,62.48],[141.087,62.404],[141.293,62.43],[141.407,62.292],[141.515,62.258],[141.542,62.174],[141.739,62.075],[141.87,62.084],[141.832,62.048],[141.86,62.022],[142.009,62.022],[142.097,62.085],[142.172,62.081],[142.178,62.05],[142.264,62.007],[142.261,61.97],[142.389,61.944],[142.381,61.89],[142.425,61.864],[142.666,61.96],[142.983,61.901],[143.125,62.093],[143.215,62.11],[143.249,62.053],[143.361,62.019],[143.606,62.021],[143.607,61.969],[143.557,61.934],[143.646,61.865],[143.756,61.903],[143.766,61.947],[143.926,61.983],[143.946,61.876],[143.905,61.815],[143.931,61.753],[144.001,61.722],[144.224,61.728],[144.382,61.818],[144.542,61.851],[144.594,61.978],[144.708,62.037],[144.869,62.064],[144.966,62.052],[145.155,61.963],[145.294,61.987],[145.468,61.951],[145.731,62.055],[145.79,62.006],[145.957,62.001],[146.018,61.949],[146.132,61.935],[146.346,61.827],[146.361,61.767],[146.576,61.635],[146.573,61.533],[146.62,61.484],[146.611,61.43],[146.756,61.4],[146.677,61.305],[146.744,61.216],[146.741,61.113],[146.661,61.065],[146.721,61.012],[146.701,60.968],[146.482,60.936],[146.497,60.843],[146.443,60.764],[146.47,60.727],[146.403,60.671],[146.31,60.666],[146.16,60.738],[146.058,60.742],[146.029,60.704],[145.893,60.663],[145.873,60.619],[145.742,60.611],[145.618,60.562],[145.605,60.524],[145.51,60.481],[145.52,60.419],[145.625,60.388],[145.564,60.348],[145.574,60.322],[145.791,60.193],[146.373,60.266],[146.456,60.184],[146.452,60.127],[146.67,60.1],[146.674,60.029],[146.641,59.987],[146.727,59.958],[146.774,59.902],[147.026,59.934],[147.134,59.849],[147.098,59.806],[147.141,59.748],[147.082,59.691],[147.151,59.645],[147.124,59.507],[147.091,59.422],[146.923,59.401],[146.882,59.362],[147.056,59.358],[147.198,59.308],[147.272,59.327],[147.445,59.249],[147.385,59.232],[147.262,59.283],[147.192,59.263],[147.045,59.313],[146.712,59.332],[146.647,59.385],[146.503,59.413],[146.369,59.376],[146.381,59.275],[146.054,59.251],[145.992,59.095],[145.954,59.098],[145.906,59.17]]],[[[31.437,52.877],[31.53,52.854],[31.515,52.829],[31.585,52.786],[31.587,52.753],[31.682,52.752],[31.721,52.702],[31.794,52.726],[31.8,52.676],[31.903,52.682],[31.925,52.645],[32.134,52.64],[32.198,52.612],[32.254,52.535],[32.18,52.507],[32.123,52.527],[32.081,52.447],[32.012,52.424],[31.847,52.453],[31.833,52.49],[31.728,52.485],[31.687,52.533],[31.608,52.554],[31.554,52.518],[31.564,52.489],[31.528,52.487],[31.625,52.395],[31.618,52.338],[31.576,52.326],[31.691,52.269],[31.684,52.192],[31.775,52.181],[31.786,52.121],[31.374,52.121],[31.299,52.993],[31.353,52.979],[31.371,52.924],[31.437,52.877]]],[[[34.092,50.929],[34.127,50.867],[34.182,50.856],[34.138,50.811],[34.165,50.767],[34.15,50.73],[34.077,50.705],[34.218,50.602],[34.248,50.437],[34.371,50.369],[34.446,50.276],[33.879,50.217],[33.879,50.977],[33.973,51.033],[33.972,51.06],[34.072,51.001],[34.043,50.946],[34.092,50.929]]]]}}]}