{"type":"FeatureCollection","features":[{"type":"Feature","properties":{"lite":true,"src":"data/years/1654-09-23.geojson"},"geometry":{"type":"MultiPolygon","coordinates":[[[[34.663,65.127],[34.766,65.107],[34.754,65.055],[34.816,65.043],[34.702,64.98],[34.778,64.967],[34.942,64.858],[34.872,64.802],[34.757,64.774],[34.974,64.77],[35.009,64.743],[34.835,64.705],[34.976,64.615],[34.797,64.557],[35.009,64.494],[34.956,64.452],[35.161,64.38],[35.307,64.372],[35.349,64.296],[35.41,64.287],[35.618,64.34],[35.582,64.411],[35.858,64.323],[35.972,64.203],[36.062,64.217],[36.225,64.137],[36.222,64.075],[36.279,64.05],[36.265,64.024],[36.292,64.01],[36.516,63.97],[36.518,63.87],[36.985,63.842],[37.411,63.75],[37.591,63.807],[37.945,63.85],[38.054,63.986],[38.054,64.129],[37.88,64.308],[37.764,64.339],[37.747,64.39],[37.597,64.328],[37.261,64.314],[37.044,64.39],[36.893,64.493],[36.572,64.764],[36.881,65.065],[37.103,65.068],[37.604,64.853],[39.193,64.511],[39.622,64.476],[39.997,64.541],[40.322,64.463],[40.44,64.563],[40.462,64.75],[40.241,64.982],[39.979,65.155],[39.825,65.434],[39.949,65.578],[41.354,65.955],[41.623,66.065],[42.21,66.41],[43.242,66.251],[43.876,66.011],[44.03,66.011],[44.122,66.267],[44.223,66.4],[44.337,66.404],[44.577,66.303],[44.859,66.231],[45.74,66.063],[45.832,66.083],[46.347,66.023],[47.11,65.816],[47.408,65.831],[47.661,65.803],[47.764,65.84],[47.737,65.913],[47.757,65.937],[48.141,66.122],[49.007,66.114],[51.512,66.778],[51.554,66.797],[51.491,66.83],[51.525,66.922],[51.812,66.949],[51.849,66.997],[52.022,67.023],[52.159,67.081],[53.772,66.994],[59.879,66.997],[59.869,66.963],[59.919,66.949],[60.083,66.985],[61.626,67.007],[61.854,67.122],[62.823,67.383],[62.878,67.578],[63.107,67.67],[63.422,67.763],[63.691,67.757],[63.711,67.805],[63.873,67.831],[63.952,67.895],[63.919,67.964],[63.839,68.025],[64.326,68.129],[64.351,68.173],[64.418,68.196],[64.532,68.196],[64.501,68.314],[64.559,68.354],[64.761,68.401],[65.006,68.384],[65.445,68.424],[65.269,68.232],[65.324,68.09],[65.286,68.01],[65.436,67.915],[65.781,67.919],[65.91,67.955],[66.084,67.925],[66.015,67.796],[66.194,67.736],[66.2,67.695],[66.106,67.652],[66.0,67.683],[65.85,67.659],[65.819,67.631],[65.839,67.604],[65.791,67.568],[66.033,67.57],[66.1,67.506],[66.085,67.471],[65.937,67.398],[65.7,67.393],[65.673,67.368],[65.701,67.339],[65.662,67.316],[65.188,67.149],[65.207,67.078],[65.073,67.043],[65.102,66.997],[65.098,66.897],[64.575,66.803],[64.533,66.733],[64.411,66.728],[64.295,66.668],[63.98,66.656],[63.807,66.552],[63.541,66.476],[63.413,66.485],[63.237,66.33],[63.292,66.244],[63.104,66.255],[63.009,66.199],[62.957,66.118],[62.858,66.078],[62.817,66.011],[62.87,65.977],[62.798,65.932],[62.844,65.877],[62.522,65.844],[62.014,65.72],[62.273,65.619],[62.322,65.537],[62.402,65.511],[62.369,65.447],[62.479,65.345],[62.81,65.289],[62.797,65.054],[62.673,64.891],[62.806,64.833],[62.816,64.806],[62.781,64.785],[62.799,64.736],[62.59,64.645],[62.533,64.551],[62.687,64.489],[62.899,64.472],[63.234,64.519],[63.455,64.454],[63.497,64.377],[63.41,64.325],[63.611,64.263],[63.889,64.279],[64.017,64.352],[64.478,64.355],[64.604,64.432],[64.761,64.422],[64.995,64.461],[65.177,64.441],[65.4,64.566],[65.884,64.564],[66.02,64.59],[66.465,64.507],[66.682,64.552],[66.932,64.482],[66.884,64.383],[66.792,64.328],[66.816,64.221],[67.161,64.159],[67.163,64.121],[67.253,64.112],[67.279,64.076],[67.677,64.074],[67.798,64.027],[67.929,64.111],[68.18,64.171],[68.427,64.291],[68.884,64.218],[68.894,64.266],[68.995,64.33],[68.874,64.433],[69.015,64.467],[69.229,64.465],[69.389,64.384],[69.732,64.389],[69.824,64.336],[69.999,64.311],[70.304,64.339],[70.471,64.247],[70.67,64.232],[70.765,64.189],[70.77,64.117],[70.554,63.999],[70.641,63.893],[70.818,63.811],[70.911,63.688],[71.386,63.67],[71.546,63.587],[71.607,63.18],[71.805,63.214],[71.989,63.197],[72.16,63.294],[72.656,63.275],[72.911,63.389],[73.101,63.431],[73.279,63.313],[73.366,63.202],[74.24,63.167],[74.507,63.038],[74.915,63.027],[75.363,63.103],[75.7,63.086],[75.804,63.109],[76.235,63.015],[76.297,62.945],[76.689,63.034],[76.823,62.987],[77.022,62.971],[77.155,62.787],[77.326,62.706],[77.885,62.553],[78.015,62.456],[78.379,62.563],[78.793,62.61],[79.821,62.599],[79.907,62.699],[79.92,62.789],[80.555,62.996],[80.592,63.079],[81.109,63.11],[81.171,62.969],[81.316,62.881],[81.337,62.821],[81.596,62.769],[81.633,62.73],[81.783,62.684],[82.165,62.804],[82.316,62.765],[82.746,62.749],[82.755,62.666],[83.006,62.591],[83.032,62.525],[83.282,62.456],[83.798,62.555],[83.938,62.48],[84.017,62.392],[84.24,62.368],[84.286,62.272],[84.39,62.236],[84.444,62.17],[84.487,62.096],[84.516,61.925],[84.684,61.801],[85.096,61.747],[85.277,61.669],[85.403,61.682],[85.491,61.613],[85.712,61.568],[85.843,61.588],[85.956,61.541],[85.962,61.455],[86.129,61.374],[86.211,61.374],[86.327,61.452],[86.507,61.406],[86.523,61.349],[86.603,61.311],[86.775,61.317],[86.976,61.36],[86.989,61.411],[86.95,61.447],[87.003,61.46],[87.254,61.376],[87.245,61.354],[87.467,61.339],[87.474,61.266],[87.564,61.209],[87.692,61.267],[87.713,61.296],[87.676,61.329],[87.778,61.362],[87.963,61.315],[88.182,61.346],[88.953,60.746],[89.867,60.807],[90.946,60.746],[91.965,60.751],[92.138,60.829],[92.136,60.89],[92.234,60.951],[92.227,60.98],[92.409,60.968],[92.474,60.997],[92.401,61.111],[92.467,61.195],[92.56,61.191],[92.757,61.087],[92.902,61.068],[92.891,61.095],[92.939,61.13],[92.818,61.216],[92.829,61.236],[92.632,61.304],[92.83,61.359],[92.93,61.332],[93.012,61.363],[93.151,61.321],[93.156,61.244],[93.343,61.1],[93.472,61.082],[93.568,61.104],[93.732,61.038],[93.918,61.058],[94.029,60.96],[94.252,61.12],[94.382,61.118],[94.546,61.174],[94.721,61.158],[94.919,61.103],[95.102,61.096],[95.359,60.921],[95.402,60.816],[95.325,60.745],[95.481,60.695],[95.234,60.563],[95.227,60.499],[95.289,60.451],[95.267,60.423],[95.113,60.416],[95.022,60.37],[94.929,60.234],[95.011,60.196],[94.977,60.113],[95.081,60.049],[95.006,60.003],[95.062,59.89],[95.173,59.802],[95.136,59.756],[95.213,59.656],[95.498,59.637],[95.593,59.575],[95.711,59.55],[95.66,59.425],[95.389,59.259],[95.373,59.205],[95.273,59.201],[95.246,59.227],[95.239,59.193],[95.158,59.157],[95.289,59.007],[95.437,58.982],[95.389,58.88],[95.412,58.85],[95.363,58.811],[95.421,58.801],[95.416,58.775],[95.459,58.754],[95.505,58.784],[95.57,58.765],[95.415,58.607],[95.419,58.536],[95.518,58.454],[95.486,58.135],[95.42,58.06],[95.434,58.02],[95.309,57.97],[95.285,57.879],[95.307,57.82],[95.226,57.755],[95.089,57.77],[94.836,57.736],[94.743,57.789],[94.433,57.782],[93.893,57.949],[93.267,57.959],[93.205,57.999],[93.165,57.948],[93.229,57.872],[93.156,57.839],[92.754,57.876],[92.644,57.841],[92.566,57.917],[92.592,57.932],[92.585,57.983],[92.379,58.03],[92.166,57.947],[92.132,57.973],[92.031,57.94],[91.927,57.868],[91.601,57.855],[91.528,57.813],[91.309,57.891],[91.23,57.883],[91.244,57.85],[91.2,57.826],[91.176,57.73],[91.2,57.656],[91.254,57.622],[91.092,57.566],[91.012,57.598],[91.023,57.641],[90.876,57.68],[90.635,57.686],[90.63,57.63],[90.546,57.648],[90.522,57.748],[90.486,57.774],[90.524,57.831],[90.51,57.879],[90.568,57.916],[90.48,57.983],[89.374,57.76],[89.36,57.798],[89.396,57.878],[89.34,57.953],[88.852,57.966],[88.689,58.041],[88.134,58.118],[88.022,58.248],[87.926,58.507],[88.393,58.909],[88.83,59.021],[88.611,59.219],[88.624,59.297],[87.91,59.274],[87.525,59.672],[87.191,59.697],[87.085,59.888],[86.626,59.955],[85.968,59.961],[85.496,59.897],[84.694,59.91],[84.541,59.983],[84.611,60.044],[84.638,60.203],[84.789,60.361],[84.712,60.463],[84.262,60.86],[83.988,60.832],[83.504,61.052],[83.142,61.033],[82.405,60.727],[82.375,60.616],[82.167,60.532],[81.831,60.65],[81.497,60.621],[81.14,60.642],[81.067,60.681],[81.029,60.76],[80.724,60.802],[80.427,60.77],[80.185,60.67],[79.853,60.697],[79.373,60.667],[79.291,60.725],[79.315,60.804],[79.186,60.843],[78.808,60.785],[78.688,60.834],[78.474,60.783],[78.12,60.807],[77.92,60.753],[77.703,60.83],[77.407,60.816],[77.104,60.857],[77.063,60.735],[76.993,60.741],[76.966,60.711],[76.966,60.646],[77.043,60.599],[77.031,60.547],[76.775,60.454],[76.745,60.345],[76.814,60.325],[76.842,60.268],[76.689,60.114],[76.752,60.063],[76.736,59.758],[76.652,59.695],[76.639,59.589],[76.44,59.55],[76.17,59.548],[75.996,59.428],[75.892,59.43],[75.815,59.298],[75.625,59.241],[75.668,59.019],[75.372,58.791],[75.158,58.682],[75.151,58.621],[75.101,58.583],[75.295,58.485],[75.299,58.458],[75.065,58.346],[75.212,58.22],[75.076,58.118],[75.551,57.928],[75.588,57.648],[75.722,57.596],[75.855,57.395],[75.989,57.38],[76.102,57.25],[76.191,56.967],[76.244,56.91],[76.278,56.73],[76.144,56.636],[76.045,56.624],[76.009,56.556],[75.864,56.505],[75.841,56.461],[75.884,56.438],[75.938,56.472],[76.052,56.474],[76.127,56.448],[76.075,56.41],[76.107,56.321],[76.279,56.243],[76.311,56.198],[76.172,56.16],[75.999,56.183],[75.94,56.135],[75.761,56.146],[75.695,56.075],[75.548,56.053],[75.308,55.894],[75.292,55.847],[75.366,55.808],[75.349,55.772],[75.082,55.755],[75.132,55.695],[75.218,55.66],[75.133,55.594],[75.316,55.539],[75.307,55.505],[75.176,55.46],[75.093,55.382],[75.256,55.26],[75.25,55.134],[75.387,55.037],[75.333,54.916],[75.518,54.9],[75.496,54.833],[75.65,54.803],[75.699,54.69],[75.788,54.696],[75.825,54.614],[75.791,54.561],[75.68,54.532],[75.689,54.109],[76.186,54.247],[76.176,54.291],[76.219,54.338],[76.477,54.318],[76.626,54.352],[76.673,54.431],[76.896,54.458],[76.886,54.429],[76.749,54.38],[76.829,54.342],[76.833,54.3],[76.666,54.141],[76.413,54.171],[76.37,54.145],[76.523,53.957],[77.609,53.439],[77.785,53.323],[77.849,53.381],[77.94,53.385],[77.94,53.441],[78.062,53.462],[78.051,53.5],[77.932,53.506],[77.931,53.558],[77.966,53.572],[78.202,53.607],[78.242,53.496],[78.377,53.483],[78.625,53.521],[78.609,53.616],[78.664,53.65],[79.246,53.675],[79.378,53.715],[79.425,53.686],[79.573,53.728],[79.676,53.825],[79.865,53.853],[79.873,53.929],[80.046,53.997],[80.126,54.068],[80.206,54.038],[80.422,54.122],[80.489,54.105],[80.584,54.197],[80.649,54.196],[80.763,54.262],[80.841,54.253],[80.812,54.332],[80.922,54.388],[80.99,54.261],[81.099,54.208],[81.113,54.138],[81.471,54.066],[81.57,54.014],[81.552,53.931],[81.713,53.993],[81.847,53.964],[81.841,53.903],[81.721,53.841],[81.832,53.709],[81.966,53.714],[82.112,53.656],[82.203,53.688],[82.171,53.598],[82.249,53.588],[82.486,53.464],[82.605,53.504],[82.553,53.558],[82.668,53.692],[82.767,53.755],[82.746,53.789],[83.188,54.059],[83.248,54.044],[83.294,54.076],[83.407,53.936],[83.505,53.99],[83.495,54.079],[83.571,54.122],[83.899,54.133],[83.906,54.09],[84.265,54.21],[84.287,54.167],[84.388,54.183],[84.459,54.137],[84.567,54.187],[84.591,54.249],[84.696,54.333],[85.15,54.482],[85.446,54.2],[85.605,54.228],[85.942,54.035],[86.136,53.984],[86.217,53.89],[86.291,53.87],[86.381,53.782],[86.39,53.693],[86.451,53.611],[86.511,53.596],[86.566,53.534],[86.799,53.469],[87.007,53.499],[86.919,53.449],[86.976,53.409],[86.868,53.303],[86.662,53.249],[86.696,53.196],[86.925,53.08],[87.069,53.072],[87.018,53.003],[87.018,52.919],[86.939,52.854],[87.078,52.704],[87.162,52.715],[87.181,52.628],[87.117,52.673],[86.952,52.64],[86.849,52.656],[86.79,52.614],[86.786,52.557],[86.707,52.516],[86.611,52.378],[86.803,52.285],[86.775,52.232],[86.819,52.172],[86.787,52.127],[86.497,52.123],[86.448,52.034],[86.369,52.015],[86.221,52.026],[86.15,52.075],[85.919,52.077],[85.832,51.985],[85.864,51.92],[85.736,51.863],[85.773,51.841],[85.734,51.741],[85.669,51.759],[85.534,51.704],[85.466,51.572],[85.292,51.57],[85.295,51.513],[85.231,51.474],[85.154,51.501],[85.006,51.494],[84.923,51.429],[84.714,51.404],[84.395,51.272],[84.278,51.288],[84.144,51.126],[84.069,51.147],[84.0,51.128],[84.016,51.059],[84.501,50.956],[84.528,50.874],[84.602,50.841],[84.538,50.696],[84.456,50.708],[84.084,50.637],[84.189,50.512],[84.172,50.438],[84.234,50.344],[84.246,50.257],[84.331,50.208],[84.443,50.238],[84.534,50.186],[84.788,50.127],[84.837,50.076],[84.975,50.069],[85.023,50.015],[84.951,49.993],[84.95,49.905],[85.055,49.867],[85.078,49.797],[85.179,49.704],[85.221,49.591],[85.384,49.61],[85.476,49.578],[85.608,49.613],[85.672,49.556],[85.745,49.568],[85.809,49.532],[85.931,49.555],[85.945,49.477],[86.072,49.521],[86.178,49.458],[86.275,49.578],[86.478,49.667],[86.484,49.707],[86.611,49.788],[86.744,49.778],[86.754,49.696],[86.663,49.67],[86.587,49.585],[86.641,49.543],[86.73,49.546],[86.815,49.508],[86.81,49.447],[86.921,49.389],[86.909,49.336],[86.987,49.289],[85.843,48.414],[85.747,48.39],[85.603,48.232],[85.384,48.148],[83.13,48.282],[84.267,49.205],[81.479,50.291],[78.65,50.807],[74.921,54.149],[72.992,55.307],[64.687,54.272],[64.456,53.58],[63.04,51.179],[62.258,51.065],[62.154,51.115],[62.033,51.072],[61.963,51.133],[61.929,51.242],[61.875,51.301],[61.811,51.274],[61.597,51.282],[61.475,51.431],[61.033,51.487],[60.95,51.545],[60.938,51.616],[60.512,51.624],[60.486,51.656],[60.361,51.68],[60.48,51.773],[60.454,51.81],[60.139,51.894],[60.093,51.86],[60.045,51.874],[59.992,51.954],[60.03,52.003],[59.919,52.098],[59.967,52.171],[60.154,52.275],[60.139,52.434],[59.936,52.435],[59.81,52.502],[59.685,52.433],[59.676,52.462],[59.515,52.441],[59.41,52.498],[59.272,52.499],[59.244,52.489],[59.174,52.284],[58.984,52.375],[58.979,52.435],[58.794,52.454],[58.775,52.514],[58.843,52.541],[58.809,52.597],[58.731,52.638],[58.789,52.724],[58.756,52.862],[58.848,53.003],[59.033,53.014],[58.999,53.057],[58.911,53.062],[58.896,53.191],[58.828,53.215],[58.834,53.286],[58.87,53.319],[58.873,53.498],[58.907,53.549],[58.834,53.564],[58.826,53.591],[58.912,53.653],[58.878,53.75],[58.952,53.898],[58.929,53.933],[58.959,53.969],[59.157,53.98],[59.325,54.177],[59.535,54.192],[59.673,54.129],[59.733,54.135],[59.734,54.193],[59.808,54.255],[59.78,54.305],[59.681,54.341],[59.751,54.447],[59.686,54.498],[59.874,54.61],[59.979,54.794],[59.93,54.832],[59.947,54.862],[59.809,54.851],[59.631,54.916],[59.409,54.712],[59.23,54.617],[59.06,54.637],[58.806,54.572],[58.617,54.476],[58.353,54.551],[58.204,54.52],[57.962,54.398],[57.749,54.505],[57.751,54.583],[57.586,54.638],[57.584,54.678],[57.527,54.673],[57.162,54.834],[57.249,54.951],[57.15,55.051],[57.146,55.096],[57.244,55.154],[57.228,55.212],[57.261,55.252],[57.434,55.322],[57.916,55.288],[58.131,55.212],[58.05,55.169],[57.959,55.169],[58.025,55.075],[58.016,55.005],[57.957,54.947],[58.0,54.912],[58.11,54.954],[58.096,55.018],[58.198,55.083],[58.148,55.111],[58.299,55.168],[58.369,55.15],[58.36,55.082],[58.422,55.055],[58.384,54.996],[58.519,55.017],[58.549,54.948],[58.621,54.945],[58.818,55.021],[58.764,55.113],[58.583,55.157],[58.663,55.184],[58.701,55.144],[58.747,55.151],[58.808,55.215],[58.73,55.252],[58.925,55.275],[58.874,55.318],[58.967,55.307],[58.962,55.246],[58.999,55.24],[59.163,55.328],[59.203,55.444],[59.476,55.463],[59.646,55.563],[59.629,55.596],[59.502,55.585],[59.437,55.638],[59.246,55.589],[59.349,55.645],[59.287,55.696],[59.316,55.779],[59.161,55.805],[59.208,55.833],[59.194,55.868],[59.235,55.905],[59.182,56.004],[59.285,56.051],[59.299,56.135],[59.025,56.174],[58.952,56.076],[58.826,56.059],[58.736,56.072],[58.565,56.167],[58.453,56.152],[58.353,56.064],[58.301,56.119],[58.08,56.146],[57.91,56.121],[57.802,56.156],[57.54,56.105],[57.46,56.135],[57.483,56.18],[57.416,56.239],[57.408,56.334],[57.264,56.306],[57.252,56.252],[57.166,56.166],[56.896,56.106],[56.776,56.173],[56.74,56.228],[56.65,56.227],[56.627,56.265],[56.575,56.269],[56.512,56.32],[56.563,56.359],[56.529,56.388],[56.392,56.393],[56.265,56.306],[56.073,56.295],[55.961,56.381],[55.913,56.471],[55.862,56.438],[55.547,56.404],[55.413,56.34],[55.255,56.341],[55.224,56.369],[55.172,56.323],[55.104,56.349],[54.968,56.326],[54.933,56.391],[54.747,56.444],[54.559,56.543],[54.425,56.346],[54.317,56.348],[54.363,56.297],[54.342,56.258],[54.115,56.163],[54.004,56.035],[53.836,56.043],[53.783,55.98],[53.668,55.963],[53.627,55.909],[53.745,55.862],[53.868,55.88],[53.981,55.843],[53.963,55.778],[54.033,55.798],[54.024,55.759],[54.096,55.766],[54.216,55.691],[54.176,55.632],[54.0,55.558],[53.906,55.399],[53.711,55.338],[53.594,55.258],[53.585,55.216],[53.418,55.227],[53.325,55.171],[53.142,55.148],[53.138,55.095],[53.254,55.049],[53.262,55.009],[53.41,54.985],[53.497,54.887],[53.623,54.889],[53.574,54.823],[53.599,54.715],[53.413,54.563],[53.42,54.501],[53.344,54.392],[53.357,54.33],[53.424,54.265],[53.459,54.046],[53.372,53.978],[53.26,54.076],[53.186,54.099],[53.082,54.077],[53.091,54.118],[52.95,54.21],[53.111,54.244],[53.111,54.289],[53.047,54.343],[53.0,54.316],[52.999,54.276],[52.928,54.275],[52.937,54.309],[52.772,54.352],[52.63,54.348],[52.539,54.382],[52.505,54.328],[52.28,54.333],[52.204,54.307],[52.344,54.214],[52.338,54.18],[52.257,54.152],[52.268,54.115],[52.394,54.123],[52.477,54.062],[52.371,53.983],[52.406,53.929],[52.249,53.658],[52.178,53.564],[52.099,53.552],[52.075,53.516],[52.09,53.462],[52.186,53.371],[52.138,53.299],[52.157,53.259],[52.123,53.179],[52.054,53.138],[52.15,53.106],[52.06,53.079],[52.048,52.997],[51.866,52.934],[51.805,52.881],[51.725,52.873],[51.713,52.824],[51.766,52.792],[51.725,52.671],[51.536,52.68],[51.505,52.631],[51.537,52.58],[51.473,52.581],[51.466,52.527],[51.554,52.447],[51.468,52.419],[51.463,52.374],[51.408,52.352],[51.402,52.255],[51.447,52.221],[51.412,52.108],[50.895,51.856],[50.741,51.746],[50.789,51.624],[50.763,51.584],[50.677,51.572],[50.697,51.615],[50.579,51.639],[50.57,51.592],[50.521,51.567],[50.521,51.471],[50.356,51.417],[50.323,51.308],[49.985,51.235],[49.776,51.107],[49.434,51.117],[49.342,50.965],[49.416,50.885],[49.403,50.851],[49.142,50.786],[48.831,50.601],[48.581,50.653],[48.57,50.613],[48.669,50.575],[48.696,50.333],[48.783,50.175],[48.779,50.109],[48.87,50.065],[48.878,50.018],[48.78,49.937],[48.437,49.819],[48.243,49.87],[47.997,50.186],[47.628,50.445],[47.556,50.457],[47.431,50.383],[47.245,50.376],[47.208,50.513],[46.922,50.496],[46.92,50.527],[46.877,50.532],[46.874,50.581],[46.816,50.586],[46.861,50.645],[46.774,50.649],[46.719,50.716],[46.628,50.686],[46.581,50.716],[46.561,50.629],[46.538,50.649],[46.459,50.625],[46.444,50.553],[46.277,50.578],[46.269,50.533],[46.079,50.531],[46.096,50.669],[45.894,50.755],[45.743,50.762],[45.674,50.666],[45.702,50.579],[45.741,50.586],[45.888,50.438],[45.876,50.345],[45.737,50.311],[45.416,50.033],[45.341,49.893],[45.336,49.797],[45.029,49.395],[44.917,49.079],[44.664,48.872],[44.65,48.817],[44.54,48.717],[44.511,48.622],[44.638,48.592],[44.602,48.566],[44.674,48.521],[44.673,48.464],[44.411,48.518],[44.344,48.621],[44.295,48.606],[44.278,48.488],[44.175,48.531],[44.228,48.581],[44.162,48.579],[44.119,48.632],[43.942,48.684],[43.949,48.728],[43.882,48.764],[43.896,48.791],[43.786,48.893],[43.795,48.929],[43.719,48.951],[43.752,48.967],[43.744,48.995],[43.62,49.021],[43.631,49.089],[43.407,49.178],[43.395,49.302],[43.55,49.466],[43.617,49.475],[43.637,49.531],[43.779,49.524],[43.789,49.574],[43.894,49.572],[43.886,49.628],[43.965,49.598],[43.996,49.647],[44.104,49.65],[44.164,49.712],[44.153,49.77],[44.276,49.828],[44.15,49.909],[44.262,50.009],[44.196,50.07],[44.201,50.105],[44.002,50.13],[44.008,50.188],[43.938,50.228],[43.831,50.214],[43.846,50.182],[43.806,50.149],[43.692,50.159],[43.694,50.084],[43.589,50.048],[43.533,49.903],[43.44,49.909],[43.371,49.834],[43.318,49.83],[43.177,49.891],[42.988,49.854],[42.906,49.911],[42.896,49.989],[42.668,50.106],[42.743,50.167],[42.71,50.186],[42.718,50.231],[42.763,50.222],[42.787,50.261],[42.865,50.249],[42.934,50.343],[43.025,50.283],[43.203,50.358],[43.298,50.302],[43.336,50.352],[43.453,50.377],[43.417,50.449],[43.376,50.441],[43.328,50.498],[43.235,50.524],[43.024,50.505],[43.02,50.536],[42.961,50.558],[42.952,50.643],[42.828,50.691],[42.903,50.731],[42.905,50.764],[42.843,50.813],[42.888,50.844],[42.875,50.883],[42.981,50.955],[43.126,50.974],[43.169,51.104],[42.856,51.25],[42.686,51.246],[42.553,51.15],[42.174,51.141],[41.927,51.199],[41.816,51.122],[41.758,51.017],[41.47,50.956],[41.424,50.918],[41.413,50.843],[41.163,50.775],[41.342,50.708],[41.445,50.602],[41.527,50.584],[41.416,50.499],[41.514,50.361],[41.383,50.212],[41.349,50.219],[41.284,50.165],[41.369,50.124],[41.377,50.085],[41.08,49.949],[41.037,49.807],[40.919,49.706],[40.635,49.678],[40.537,49.583],[40.16,49.648],[40.131,49.589],[39.998,49.613],[39.827,49.547],[39.627,49.618],[39.559,49.729],[39.265,49.748],[39.157,49.878],[39.046,49.815],[38.939,49.809],[38.855,49.87],[38.692,49.917],[38.666,49.97],[38.5,49.953],[38.361,49.985],[38.301,50.065],[38.172,50.065],[38.16,49.944],[38.051,49.926],[37.928,50.039],[37.756,50.086],[37.622,50.218],[37.638,50.316],[37.485,50.345],[37.416,50.437],[37.053,50.34],[36.848,50.329],[36.595,50.21],[36.541,50.224],[36.539,50.272],[36.411,50.309],[36.274,50.285],[36.107,50.426],[35.837,50.428],[35.737,50.386],[35.704,50.416],[35.594,50.404],[35.573,50.469],[35.478,50.494],[35.406,50.58],[35.431,50.603],[35.405,50.647],[35.487,50.651],[35.501,50.679],[35.468,50.694],[35.493,50.78],[35.419,50.804],[35.404,50.917],[35.339,50.947],[35.347,51.001],[35.416,51.042],[35.303,51.084],[35.194,51.059],[35.138,51.162],[35.153,51.228],[34.979,51.24],[34.825,51.177],[34.715,51.178],[34.674,51.201],[34.664,51.252],[34.384,51.279],[34.309,51.243],[34.224,51.269],[34.147,51.243],[34.112,51.151],[34.011,51.079],[34.073,50.998],[34.043,50.946],[34.091,50.928],[34.127,50.867],[34.181,50.858],[34.138,50.811],[34.15,50.731],[34.076,50.707],[34.218,50.601],[34.248,50.437],[34.371,50.369],[34.501,50.204],[34.499,50.172],[34.459,50.16],[34.474,50.108],[34.692,50.105],[34.713,50.146],[34.903,50.145],[34.908,50.06],[34.837,50.001],[34.865,49.933],[34.947,49.887],[35.166,49.845],[35.236,49.701],[35.355,49.663],[35.418,49.679],[35.409,49.648],[35.463,49.569],[35.386,49.553],[35.448,49.499],[35.319,49.487],[35.353,49.393],[35.261,49.317],[35.187,49.297],[35.046,49.325],[34.97,49.284],[34.949,49.254],[34.976,49.168],[34.926,49.183],[34.87,49.145],[34.831,49.181],[34.448,49.08],[34.399,49.098],[34.404,49.058],[34.328,49.012],[34.276,48.919],[34.315,48.841],[34.248,48.753],[34.135,48.787],[34.125,48.825],[34.023,48.87],[33.82,48.942],[33.702,48.95],[33.666,48.983],[33.561,48.917],[33.477,48.957],[33.376,48.948],[33.313,48.994],[33.352,49.036],[33.291,49.086],[33.308,49.122],[33.236,49.17],[33.243,49.093],[33.203,49.083],[33.015,49.281],[32.755,49.484],[32.712,49.559],[32.665,49.537],[32.651,49.436],[32.677,49.402],[32.631,49.382],[32.115,49.541],[31.913,49.561],[31.68,49.704],[31.728,49.847],[31.619,49.857],[31.613,49.906],[31.581,49.907],[31.504,49.846],[31.435,49.892],[31.445,49.974],[31.422,49.99],[31.296,49.981],[31.251,49.937],[31.007,50.021],[30.894,50.132],[30.772,50.161],[30.721,50.245],[30.665,50.263],[30.588,50.361],[30.588,50.423],[30.532,50.464],[30.539,50.542],[30.699,50.658],[30.686,50.714],[30.78,50.844],[30.656,50.893],[30.649,50.986],[30.512,51.018],[30.519,51.222],[30.556,51.232],[30.646,51.367],[30.588,51.43],[30.618,51.467],[30.568,51.52],[30.584,51.542],[30.529,51.558],[30.543,51.583],[30.517,51.602],[30.557,51.624],[30.575,51.699],[30.625,51.706],[30.63,51.767],[30.743,51.896],[30.788,51.901],[30.897,51.997],[30.941,51.994],[30.916,52.027],[30.932,52.068],[31.132,52.077],[31.229,52.038],[31.373,52.115],[31.305,52.986],[31.253,53.016],[31.332,53.08],[31.383,53.256],[32.222,53.125],[32.442,53.222],[32.343,53.731],[32.084,53.81],[31.874,53.777],[31.75,53.796],[31.838,53.962],[31.823,54.053],[31.773,54.049],[31.737,54.094],[31.505,54.144],[31.324,54.23],[31.209,54.448],[31.068,54.493],[31.168,54.622],[31.105,54.668],[31.003,54.672],[30.763,54.803],[30.826,54.877],[30.821,54.931],[30.936,54.973],[30.912,55.022],[31.006,55.023],[30.96,55.163],[30.795,55.287],[30.918,55.388],[30.882,55.454],[30.919,55.492],[30.908,55.58],[30.947,55.651],[31.033,55.702],[31.05,55.767],[31.212,55.718],[31.861,55.993],[32.078,56.774],[31.557,57.034],[31.167,56.732],[31.011,56.843],[30.987,56.813],[30.643,56.954],[30.576,56.808],[31.105,56.412],[31.226,56.172],[30.777,56.072],[30.686,55.9],[29.948,56.538],[29.062,56.538],[28.813,56.883],[28.093,56.792],[28.011,56.572],[27.825,56.726],[27.929,56.94],[27.639,57.096],[27.773,57.211],[27.795,57.466],[27.532,57.412],[27.511,57.612],[27.585,58.229],[27.973,58.133],[28.373,58.21],[28.383,58.179],[29.432,58.134],[28.184,58.99],[29.041,59.29],[29.518,59.247],[29.999,59.464],[31.318,59.594],[31.299,59.933],[31.455,59.907],[31.547,59.94],[31.567,59.967],[31.541,60.038],[31.606,60.134],[31.593,60.159],[31.697,60.234],[32.054,60.227],[32.26,60.154],[32.5,60.176],[32.584,60.209],[32.612,60.245],[32.594,60.351],[32.677,60.392],[32.601,60.532],[32.816,60.482],[32.944,60.642],[32.841,60.715],[32.766,60.886],[32.59,61.001],[32.527,61.118],[31.9,61.324],[31.637,61.463],[31.603,61.423],[31.486,61.551],[31.365,61.627],[31.307,61.607],[31.195,61.639],[31.123,62.804],[30.559,63.112],[30.603,65.147],[30.993,65.754],[30.603,66.664],[30.661,67.517],[29.104,68.805],[30.114,69.393],[30.061,69.416],[30.137,69.453],[30.155,69.505],[30.232,69.558],[30.22,69.6],[30.14,69.637],[30.296,69.62],[30.512,69.536],[30.853,69.527],[30.931,69.595],[30.928,69.672],[30.845,69.766],[30.846,69.805],[31.285,69.76],[31.406,69.716],[31.387,69.677],[31.717,69.761],[31.711,69.827],[31.752,69.854],[31.918,69.827],[32.006,69.859],[31.916,69.937],[31.962,69.97],[32.053,69.964],[32.267,69.876],[32.396,69.874],[32.501,69.778],[32.663,69.719],[33.117,69.668],[33.037,69.618],[32.872,69.583],[32.437,69.65],[32.183,69.654],[32.273,69.576],[32.413,69.581],[32.429,69.562],[32.392,69.537],[32.502,69.517],[32.406,69.494],[32.44,69.481],[32.541,69.508],[32.899,69.482],[32.77,69.414],[32.892,69.462],[33.085,69.476],[32.921,69.395],[32.977,69.39],[33.316,69.451],[33.524,69.428],[33.414,69.373],[33.496,69.38],[33.466,69.358],[33.287,69.293],[33.476,69.27],[33.297,69.229],[33.544,69.209],[33.31,69.117],[33.313,69.095],[33.564,69.185],[33.564,69.291],[33.592,69.318],[33.722,69.336],[33.722,69.304],[33.873,69.311],[33.852,69.339],[34.421,69.311],[34.662,69.249],[34.982,69.229],[34.956,69.195],[35.089,69.226],[35.169,69.181],[35.264,69.216],[35.147,69.27],[35.331,69.276],[36.25,69.111],[36.312,69.058],[36.727,68.98],[37.207,68.846],[37.243,68.809],[37.454,68.745],[37.678,68.714],[37.948,68.6],[38.066,68.51],[38.327,68.443],[38.389,68.399],[38.389,68.343],[38.447,68.357],[38.765,68.291],[38.511,68.369],[38.64,68.385],[38.927,68.311],[38.954,68.266],[39.521,68.076],[39.86,68.047],[39.72,68.167],[39.792,68.165],[39.912,68.122],[40.004,68.02],[40.409,67.876],[40.403,67.853],[40.322,67.851],[40.405,67.79],[40.525,67.753],[40.571,67.808],[40.653,67.815],[40.8,67.728],[40.925,67.734],[41.037,67.68],[41.052,67.619],[40.989,67.564],[41.013,67.533],[40.999,67.467],[41.148,67.424],[41.109,67.254],[41.243,67.213],[41.338,67.224],[41.361,67.202],[41.336,67.16],[41.389,67.126],[41.343,67.087],[41.357,67.01],[41.267,66.988],[41.303,66.947],[41.145,66.781],[40.92,66.621],[40.773,66.556],[40.764,66.526],[40.396,66.343],[40.1,66.241],[39.356,66.086],[38.561,66.005],[37.652,66.073],[37.263,66.181],[36.885,66.235],[36.402,66.245],[35.553,66.337],[35.363,66.371],[34.874,66.551],[34.805,66.563],[34.666,66.519],[34.478,66.538],[34.307,66.619],[33.792,66.666],[33.676,66.747],[33.652,66.705],[33.586,66.687],[33.438,66.702],[33.335,66.78],[33.099,66.859],[32.75,67.046],[32.496,67.084],[32.582,67.038],[32.506,67.029],[32.554,66.99],[32.53,66.955],[32.392,66.954],[32.496,66.933],[32.432,66.886],[32.545,66.883],[32.705,66.796],[32.889,66.782],[32.935,66.742],[32.77,66.742],[32.974,66.691],[33.184,66.692],[33.322,66.642],[33.121,66.65],[33.067,66.598],[32.912,66.601],[33.126,66.563],[33.037,66.548],[33.106,66.51],[33.229,66.533],[33.355,66.48],[33.508,66.464],[33.602,66.501],[33.63,66.475],[33.585,66.46],[33.735,66.426],[33.516,66.406],[33.675,66.357],[33.409,66.346],[33.465,66.315],[33.615,66.328],[33.871,66.267],[33.9,66.229],[34.105,66.247],[34.167,66.221],[34.161,66.185],[34.552,66.094],[34.72,65.989],[34.661,65.953],[34.716,65.933],[34.695,65.909],[34.853,65.899],[34.825,65.843],[34.898,65.825],[34.871,65.774],[34.969,65.728],[34.9,65.706],[34.726,65.79],[34.726,65.721],[34.754,65.709],[34.726,65.67],[34.773,65.599],[34.737,65.583],[34.737,65.542],[34.633,65.487],[34.68,65.454],[34.511,65.456],[34.511,65.412],[34.369,65.418],[34.393,65.398],[34.301,65.387],[34.461,65.365],[34.471,65.289],[34.682,65.197],[34.627,65.172],[34.671,65.152],[34.663,65.127]]],[[[145.783,59.214],[145.801,59.318],[145.661,59.373],[145.008,59.32],[143.899,59.369],[143.55,59.28],[143.404,59.274],[143.198,59.322],[143.023,59.276],[142.846,59.273],[142.358,59.141],[141.924,58.941],[141.591,58.728],[141.348,58.5],[140.587,58.239],[140.042,57.659],[139.364,57.366],[133.205,59.199],[133.558,59.289],[133.625,59.227],[134.047,59.251],[134.522,59.142],[134.56,59.177],[134.726,59.206],[134.768,59.19],[134.749,59.148],[134.853,59.122],[134.945,59.147],[135.188,59.111],[135.282,59.186],[135.268,59.223],[135.425,59.383],[135.622,59.491],[135.757,59.524],[136.002,59.48],[136.075,59.422],[136.31,59.428],[136.363,59.389],[136.76,59.35],[136.963,59.423],[137.21,59.448],[137.351,59.544],[137.468,59.551],[137.453,59.634],[137.618,59.735],[137.95,59.748],[137.999,59.791],[138.038,59.745],[138.033,59.681],[138.174,59.675],[138.255,59.708],[138.275,59.735],[138.204,59.759],[138.18,59.835],[138.278,59.955],[138.239,60.02],[138.261,60.08],[138.21,60.12],[138.242,60.186],[138.208,60.236],[138.319,60.315],[138.334,60.391],[138.257,60.492],[138.332,60.526],[138.32,60.582],[138.407,60.607],[138.442,60.68],[138.289,60.76],[138.191,60.887],[138.217,60.957],[138.35,60.998],[138.308,61.102],[138.396,61.095],[138.705,61.189],[138.654,61.223],[138.649,61.267],[138.736,61.338],[138.755,61.306],[138.841,61.332],[138.921,61.313],[139.063,61.389],[139.057,61.424],[139.097,61.442],[139.26,61.428],[139.412,61.486],[139.551,61.477],[139.65,61.566],[139.678,61.648],[139.957,61.829],[139.985,61.87],[139.958,61.915],[139.998,61.973],[140.129,61.968],[140.183,62.019],[140.284,62.05],[140.265,62.094],[140.309,62.123],[140.319,62.179],[140.3,62.275],[140.35,62.382],[140.482,62.427],[140.63,62.416],[140.689,62.487],[140.658,62.534],[140.717,62.568],[140.828,62.541],[140.88,62.494],[141.043,62.479],[141.087,62.404],[141.294,62.429],[141.407,62.292],[141.514,62.258],[141.542,62.174],[141.739,62.075],[141.87,62.083],[141.832,62.048],[141.86,62.022],[142.009,62.022],[142.098,62.085],[142.172,62.081],[142.263,62.007],[142.261,61.97],[142.39,61.942],[142.381,61.89],[142.425,61.864],[142.669,61.96],[142.983,61.901],[143.125,62.092],[143.213,62.11],[143.249,62.053],[143.361,62.019],[143.605,62.021],[143.607,61.97],[143.557,61.934],[143.646,61.865],[143.756,61.903],[143.769,61.947],[143.927,61.982],[143.946,61.878],[143.905,61.815],[143.931,61.753],[144.001,61.722],[144.224,61.728],[144.384,61.818],[144.542,61.851],[144.595,61.977],[144.71,62.037],[144.869,62.064],[144.966,62.052],[145.155,61.963],[145.294,61.987],[145.468,61.951],[145.73,62.055],[145.79,62.006],[145.956,62.001],[146.018,61.949],[146.13,61.935],[146.345,61.827],[146.361,61.767],[146.575,61.635],[146.611,61.43],[146.755,61.4],[146.677,61.305],[146.744,61.213],[146.74,61.112],[146.661,61.065],[146.72,61.013],[146.701,60.969],[146.482,60.936],[146.496,60.842],[146.443,60.764],[146.47,60.729],[146.402,60.672],[146.31,60.666],[146.16,60.738],[146.058,60.742],[146.028,60.704],[145.893,60.663],[145.871,60.619],[145.742,60.611],[145.618,60.562],[145.605,60.525],[145.51,60.481],[145.52,60.419],[145.626,60.386],[145.564,60.348],[145.611,60.287],[145.791,60.193],[146.372,60.266],[146.457,60.181],[146.452,60.127],[146.67,60.099],[146.674,60.031],[146.641,59.987],[146.725,59.958],[146.774,59.902],[147.024,59.934],[147.133,59.849],[147.098,59.806],[147.141,59.748],[147.082,59.691],[147.15,59.644],[147.124,59.509],[147.091,59.423],[146.923,59.401],[146.882,59.362],[147.056,59.358],[147.198,59.308],[147.272,59.327],[147.445,59.249],[147.387,59.232],[147.262,59.283],[147.192,59.263],[147.045,59.313],[146.712,59.332],[146.647,59.385],[146.503,59.413],[146.369,59.376],[146.381,59.275],[146.054,59.251],[145.992,59.097],[145.953,59.099],[145.906,59.17],[145.783,59.214]]],[[[45.255,44.535],[45.225,44.493],[44.752,44.44],[43.881,44.815],[43.453,45.993],[43.875,45.941],[44.075,45.793],[44.145,45.648],[44.205,45.606],[44.42,45.522],[44.736,45.492],[45.58,45.156],[45.706,45.013],[45.704,44.971],[46.001,44.981],[46.434,44.931],[46.751,44.814],[46.791,44.76],[46.881,44.78],[46.888,44.747],[46.964,44.761],[47.007,44.815],[46.991,44.898],[47.049,44.8],[46.872,44.68],[45.275,44.499],[45.255,44.535]]],[[[29.735,49.944],[29.675,50.028],[29.697,50.069],[29.655,50.103],[29.692,50.152],[29.648,50.181],[29.703,50.23],[29.672,50.261],[29.684,50.311],[29.764,50.348],[29.828,50.297],[29.91,50.299],[29.92,50.338],[29.984,50.352],[29.975,50.409],[30.058,50.375],[30.09,50.324],[30.16,50.346],[30.235,50.321],[30.271,50.356],[30.426,50.374],[30.472,50.342],[30.378,50.287],[30.409,50.198],[30.368,50.172],[30.332,50.236],[30.285,50.193],[30.238,50.219],[30.204,50.182],[30.246,50.151],[30.198,50.15],[30.197,50.117],[30.334,49.992],[30.441,49.992],[30.581,49.894],[30.542,49.826],[30.716,49.825],[30.706,49.74],[30.742,49.695],[30.697,49.642],[30.732,49.617],[30.617,49.613],[30.716,49.502],[30.694,49.473],[30.73,49.489],[30.795,49.438],[30.895,49.445],[30.93,49.418],[30.994,49.422],[31.021,49.465],[31.088,49.486],[31.134,49.425],[31.219,49.416],[31.204,49.392],[31.337,49.424],[31.405,49.408],[31.421,49.352],[31.382,49.329],[31.312,49.359],[31.281,49.327],[31.283,49.262],[31.618,49.102],[31.624,48.972],[31.676,48.942],[31.542,48.929],[31.519,48.834],[31.375,48.741],[31.216,48.773],[31.112,48.738],[30.944,48.777],[30.697,48.772],[30.571,48.723],[30.595,48.671],[30.525,48.63],[30.558,48.573],[30.401,48.579],[30.378,48.534],[30.222,48.486],[30.161,48.508],[30.109,48.46],[30.05,48.488],[29.969,48.474],[30.021,48.519],[30.006,48.573],[29.949,48.594],[29.993,48.632],[29.86,48.712],[29.884,48.737],[29.866,48.763],[29.769,48.786],[29.717,48.895],[29.735,48.908],[29.656,48.936],[29.696,49.001],[29.619,49.044],[29.651,49.094],[29.734,49.123],[29.708,49.217],[29.736,49.228],[29.701,49.261],[29.637,49.249],[29.619,49.306],[29.524,49.336],[29.505,49.392],[29.595,49.443],[29.546,49.483],[29.585,49.507],[29.544,49.519],[29.5,49.596],[29.535,49.637],[29.49,49.671],[29.498,49.714],[29.442,49.731],[29.449,49.803],[29.655,49.867],[29.631,49.888],[29.735,49.944]]],[[[47.619,45.745],[47.606,45.81],[47.553,45.82],[47.612,45.958],[47.536,45.98],[47.535,46.019],[47.337,46.014],[47.239,46.085],[47.321,46.09],[47.343,46.128],[47.579,46.157],[47.616,46.175],[47.578,46.209],[47.689,46.205],[47.717,46.246],[47.881,46.249],[47.969,46.315],[47.979,46.365],[48.07,46.387],[48.056,46.458],[48.014,46.48],[48.049,46.508],[48.1,46.464],[48.222,46.465],[48.278,46.408],[48.289,46.475],[48.333,46.434],[48.405,46.488],[48.524,46.442],[48.543,46.492],[48.621,46.445],[48.736,46.481],[48.896,46.477],[49.227,46.323],[49.22,46.383],[49.174,46.407],[49.295,46.393],[49.243,46.465],[49.356,46.389],[49.264,46.294],[49.299,46.253],[49.243,46.269],[49.159,46.239],[49.112,46.156],[48.833,46.083],[48.832,46.01],[48.778,46.011],[48.806,45.908],[48.757,45.894],[48.791,45.841],[48.721,45.838],[48.716,45.814],[48.687,45.848],[48.71,45.882],[48.598,45.953],[48.305,45.77],[48.223,45.753],[48.243,45.71],[48.137,45.729],[47.845,45.686],[47.816,45.611],[47.765,45.682],[47.619,45.745]]],[[[35.513,65.085],[35.505,65.122],[35.686,65.171],[35.815,65.157],[35.812,65.155],[35.84,65.138],[35.863,65.079],[35.84,65.06],[35.875,65.02],[35.874,65.018],[35.853,64.996],[35.879,64.991],[35.735,64.964],[35.687,65.022],[35.709,65.025],[35.584,65.042],[35.513,65.085]]],[[[35.989,65.193],[35.957,65.181],[35.957,65.17],[36.271,65.16],[36.077,65.125],[35.93,65.153],[35.934,65.18],[35.989,65.193]]],[[[35.882,65.041],[35.979,65.057],[36.024,65.039],[35.913,65.015],[35.882,65.041]]]]}}]}