{"type":"FeatureCollection","features":[{"type":"Feature","properties":{"lite":true,"src":"data/years/1667-01-01.geojson"},"geometry":{"type":"MultiPolygon","coordinates":[[[[49.356,46.389],[49.237,46.262],[49.159,46.239],[49.161,46.209],[49.059,46.137],[48.833,46.083],[48.832,46.01],[48.779,46.016],[48.806,45.909],[48.773,45.887],[48.635,45.975],[48.301,45.768],[47.872,45.679],[47.673,45.75],[47.628,45.732],[47.601,45.66],[47.653,45.543],[47.548,45.453],[47.437,45.293],[47.395,45.175],[47.332,45.141],[47.158,44.855],[46.873,44.681],[45.275,44.499],[45.255,44.535],[45.225,44.493],[44.753,44.44],[43.882,44.814],[43.381,46.188],[42.257,46.813],[40.633,46.691],[40.508,47.438],[39.787,48.014],[39.847,48.033],[39.849,48.119],[39.998,48.275],[39.835,48.307],[39.929,48.375],[39.851,48.487],[39.874,48.509],[39.858,48.56],[39.644,48.599],[39.705,48.741],[39.78,48.801],[39.976,48.785],[40.057,48.848],[40.035,48.891],[39.95,48.859],[39.765,48.899],[39.68,48.976],[39.698,49.023],[39.921,49.043],[39.956,49.121],[40.146,49.243],[40.164,49.336],[40.041,49.484],[40.13,49.556],[40.118,49.595],[39.997,49.613],[39.804,49.547],[39.626,49.618],[39.559,49.729],[39.265,49.748],[39.157,49.878],[39.046,49.815],[38.939,49.809],[38.855,49.87],[38.692,49.917],[38.666,49.97],[38.5,49.953],[38.361,49.985],[38.301,50.065],[38.172,50.065],[38.16,49.944],[38.052,49.926],[37.928,50.039],[37.756,50.086],[37.622,50.218],[37.64,50.314],[37.535,50.338],[37.417,50.293],[37.368,50.192],[37.316,50.185],[37.264,50.117],[37.196,50.131],[37.147,50.104],[37.171,50.077],[37.161,49.976],[37.13,49.946],[37.172,49.934],[37.182,49.846],[37.062,49.779],[37.023,49.809],[36.961,49.776],[37.006,49.703],[36.914,49.604],[36.8,49.641],[36.692,49.577],[36.622,49.594],[36.499,49.531],[36.434,49.54],[36.436,49.506],[36.515,49.493],[36.435,49.465],[36.276,49.547],[36.234,49.51],[36.134,49.544],[35.982,49.508],[35.98,49.405],[36.066,49.282],[36.057,49.254],[36.131,49.241],[36.163,49.106],[36.258,49.111],[36.105,49.055],[36.045,49.001],[35.944,49.008],[35.785,48.935],[35.458,48.977],[35.17,49.147],[34.926,49.183],[34.87,49.145],[34.869,49.171],[34.778,49.174],[34.448,49.08],[34.401,49.098],[34.404,49.058],[34.328,49.012],[34.276,48.919],[34.315,48.841],[34.276,48.81],[34.292,48.778],[34.247,48.753],[34.135,48.788],[34.125,48.825],[34.023,48.87],[33.82,48.942],[33.702,48.95],[33.666,48.983],[33.56,48.917],[33.477,48.957],[33.377,48.947],[33.315,48.992],[33.352,49.036],[33.291,49.086],[33.308,49.122],[33.236,49.17],[33.243,49.093],[33.203,49.083],[33.015,49.281],[32.753,49.486],[32.73,49.53],[32.759,49.576],[32.693,49.672],[32.578,49.703],[32.562,49.767],[32.432,49.806],[32.374,49.862],[32.416,49.968],[32.33,50.052],[32.254,50.065],[32.233,50.116],[32.27,50.157],[32.21,50.15],[32.078,50.241],[32.139,50.35],[31.978,50.474],[32.031,50.504],[32.028,50.545],[31.963,50.551],[31.847,50.624],[31.797,50.614],[31.751,50.555],[31.619,50.519],[31.326,50.509],[31.183,50.586],[31.213,50.659],[31.095,50.765],[30.838,50.738],[30.742,50.76],[30.78,50.844],[30.656,50.893],[30.649,50.986],[30.513,51.019],[30.518,51.221],[30.556,51.232],[30.646,51.367],[30.588,51.43],[30.618,51.467],[30.568,51.52],[30.584,51.542],[30.529,51.558],[30.543,51.583],[30.517,51.602],[30.557,51.624],[30.575,51.699],[30.625,51.706],[30.63,51.767],[30.743,51.896],[30.788,51.901],[30.891,51.995],[30.941,51.994],[30.916,52.027],[30.932,52.068],[31.132,52.077],[31.229,52.038],[31.373,52.115],[31.305,52.986],[31.253,53.016],[31.332,53.08],[31.383,53.256],[32.222,53.125],[32.442,53.222],[32.343,53.731],[32.084,53.81],[31.874,53.777],[31.75,53.796],[31.838,53.962],[31.823,54.053],[31.773,54.049],[31.737,54.094],[31.505,54.144],[31.324,54.23],[31.209,54.448],[31.068,54.493],[31.168,54.622],[31.105,54.668],[31.003,54.672],[30.763,54.803],[30.826,54.877],[30.821,54.931],[30.936,54.973],[30.912,55.022],[31.006,55.023],[30.96,55.163],[30.795,55.287],[30.918,55.388],[30.882,55.454],[30.919,55.492],[30.908,55.58],[30.947,55.651],[31.033,55.702],[31.05,55.767],[31.212,55.718],[31.861,55.993],[32.078,56.774],[31.557,57.034],[31.167,56.732],[31.011,56.843],[30.987,56.813],[30.643,56.954],[30.576,56.808],[31.105,56.412],[31.226,56.172],[30.777,56.072],[30.687,55.9],[29.948,56.538],[29.062,56.538],[28.813,56.883],[28.093,56.792],[28.011,56.572],[27.825,56.726],[27.929,56.94],[27.639,57.096],[27.773,57.211],[27.795,57.466],[27.532,57.412],[27.511,57.612],[27.58,58.224],[27.973,58.133],[28.373,58.21],[28.383,58.179],[29.432,58.134],[28.182,58.988],[29.041,59.29],[29.518,59.247],[29.999,59.464],[31.318,59.594],[31.299,59.933],[31.455,59.907],[31.547,59.94],[31.567,59.967],[31.541,60.038],[31.606,60.134],[31.593,60.159],[31.697,60.234],[32.054,60.227],[32.26,60.154],[32.5,60.176],[32.584,60.209],[32.612,60.245],[32.594,60.351],[32.677,60.392],[32.601,60.532],[32.816,60.482],[32.944,60.643],[32.841,60.715],[32.766,60.886],[32.59,61.001],[32.527,61.118],[31.9,61.324],[31.637,61.463],[31.603,61.423],[31.486,61.551],[31.365,61.627],[31.307,61.607],[31.195,61.639],[31.123,62.804],[30.559,63.112],[30.603,65.147],[30.993,65.754],[30.603,66.664],[30.661,67.517],[29.106,68.808],[30.418,69.568],[30.512,69.536],[30.853,69.527],[30.927,69.578],[30.93,69.682],[31.054,69.64],[31.331,69.663],[32.066,69.881],[32.076,69.815],[32.19,69.642],[32.352,69.514],[32.596,69.424],[33.278,69.341],[33.316,69.071],[33.629,69.214],[35.437,69.15],[37.243,68.794],[37.687,68.63],[38.406,68.243],[38.668,68.146],[39.918,67.94],[40.825,67.66],[40.971,67.536],[40.951,67.335],[41.017,67.202],[41.208,67.07],[41.254,66.935],[41.149,66.784],[40.92,66.621],[40.396,66.344],[40.1,66.241],[39.356,66.086],[38.561,66.005],[37.652,66.073],[37.263,66.181],[36.885,66.235],[36.402,66.245],[35.553,66.337],[35.363,66.371],[34.805,66.563],[34.665,66.519],[34.323,66.593],[34.307,66.619],[33.792,66.666],[33.676,66.747],[33.652,66.705],[33.586,66.687],[33.438,66.702],[33.158,66.915],[32.627,67.083],[32.496,67.084],[32.582,67.038],[32.22,66.994],[32.426,66.89],[32.753,66.649],[32.97,66.584],[33.47,66.313],[33.844,66.182],[34.259,66.11],[34.546,65.999],[34.725,65.799],[34.726,65.617],[34.598,65.483],[34.294,65.396],[34.426,65.106],[34.773,64.682],[34.815,64.46],[34.885,64.367],[35.082,64.288],[36.014,64.197],[36.24,63.919],[36.42,63.876],[36.985,63.842],[37.41,63.75],[37.591,63.807],[37.945,63.85],[38.054,63.986],[38.054,64.129],[37.88,64.308],[37.764,64.339],[37.747,64.39],[37.597,64.328],[37.261,64.314],[37.044,64.39],[36.893,64.493],[36.572,64.764],[36.881,65.065],[37.103,65.068],[37.604,64.853],[39.193,64.511],[39.622,64.476],[39.997,64.541],[40.322,64.463],[40.44,64.563],[40.462,64.75],[40.241,64.982],[39.979,65.155],[39.825,65.434],[39.949,65.578],[41.354,65.955],[41.623,66.065],[42.21,66.41],[43.242,66.251],[43.876,66.011],[44.03,66.011],[44.122,66.267],[44.223,66.4],[44.337,66.404],[44.577,66.303],[44.859,66.231],[45.74,66.063],[45.832,66.083],[46.347,66.023],[47.11,65.816],[47.408,65.831],[47.661,65.803],[47.764,65.84],[47.737,65.913],[47.757,65.937],[48.141,66.122],[49.007,66.114],[51.512,66.778],[51.554,66.797],[51.491,66.83],[51.525,66.922],[51.812,66.949],[51.849,66.997],[52.022,67.023],[52.159,67.081],[53.772,66.994],[59.879,66.997],[59.869,66.963],[59.919,66.949],[60.083,66.985],[61.626,67.007],[61.854,67.122],[62.823,67.383],[62.878,67.578],[63.107,67.67],[63.422,67.763],[63.691,67.757],[63.711,67.805],[63.873,67.831],[63.952,67.895],[63.919,67.964],[63.839,68.025],[64.326,68.129],[64.351,68.173],[64.418,68.196],[64.532,68.196],[64.501,68.314],[64.559,68.354],[64.761,68.401],[65.006,68.384],[65.445,68.424],[65.269,68.232],[65.324,68.09],[65.286,68.01],[65.436,67.915],[65.781,67.919],[65.91,67.955],[66.084,67.925],[66.015,67.796],[66.194,67.736],[66.2,67.695],[66.106,67.652],[66.0,67.683],[65.85,67.659],[65.819,67.631],[65.839,67.604],[65.791,67.568],[66.033,67.57],[66.1,67.506],[66.085,67.471],[65.937,67.398],[65.7,67.393],[65.673,67.368],[65.701,67.339],[65.662,67.316],[65.188,67.149],[65.207,67.078],[65.073,67.043],[65.102,66.997],[65.098,66.897],[64.575,66.803],[64.533,66.733],[64.411,66.728],[64.295,66.668],[63.98,66.656],[63.807,66.552],[63.541,66.476],[63.413,66.485],[63.237,66.33],[63.292,66.244],[63.104,66.255],[63.009,66.199],[62.957,66.118],[62.858,66.078],[62.817,66.011],[62.87,65.977],[62.798,65.932],[62.844,65.877],[62.522,65.844],[62.014,65.72],[62.273,65.619],[62.322,65.537],[62.402,65.511],[62.369,65.447],[62.479,65.345],[62.81,65.289],[62.797,65.054],[62.673,64.891],[62.806,64.833],[62.816,64.806],[62.781,64.785],[62.799,64.736],[62.59,64.645],[62.533,64.551],[62.687,64.489],[62.899,64.472],[63.234,64.519],[63.455,64.454],[63.497,64.377],[63.41,64.325],[63.611,64.263],[63.889,64.279],[64.017,64.352],[64.478,64.355],[64.604,64.432],[64.761,64.422],[64.995,64.461],[65.177,64.441],[65.4,64.566],[65.884,64.564],[66.02,64.59],[66.465,64.507],[66.682,64.552],[66.932,64.482],[66.884,64.383],[66.792,64.328],[66.816,64.221],[67.161,64.159],[67.163,64.121],[67.253,64.112],[67.279,64.076],[67.677,64.074],[67.798,64.027],[67.929,64.111],[68.18,64.171],[68.427,64.291],[68.884,64.218],[68.894,64.266],[68.995,64.33],[68.874,64.433],[69.015,64.467],[69.229,64.465],[69.389,64.384],[69.732,64.389],[69.824,64.336],[69.999,64.311],[70.304,64.339],[70.471,64.247],[70.67,64.232],[70.765,64.189],[70.77,64.117],[70.554,63.999],[70.641,63.893],[70.818,63.811],[70.911,63.688],[71.386,63.67],[71.546,63.587],[71.607,63.18],[71.805,63.214],[71.989,63.197],[72.16,63.294],[72.656,63.275],[72.911,63.389],[73.101,63.431],[73.279,63.313],[73.366,63.202],[74.24,63.167],[74.507,63.038],[74.915,63.027],[75.363,63.103],[75.7,63.086],[75.804,63.109],[76.235,63.015],[76.297,62.945],[76.689,63.034],[76.823,62.987],[77.022,62.971],[77.155,62.787],[77.326,62.706],[77.885,62.553],[78.015,62.456],[78.379,62.563],[78.793,62.61],[79.821,62.599],[79.907,62.699],[79.92,62.789],[80.555,62.996],[80.592,63.079],[81.109,63.11],[81.171,62.969],[81.316,62.881],[81.337,62.821],[81.596,62.769],[81.633,62.73],[81.783,62.684],[82.165,62.804],[82.316,62.765],[82.746,62.749],[82.755,62.666],[83.006,62.591],[83.032,62.525],[83.282,62.456],[83.798,62.555],[83.938,62.48],[84.017,62.392],[84.24,62.368],[84.286,62.272],[84.39,62.236],[84.444,62.17],[84.487,62.096],[84.516,61.925],[84.684,61.801],[85.096,61.747],[85.277,61.669],[85.403,61.682],[85.491,61.613],[85.712,61.568],[85.843,61.588],[85.956,61.541],[85.962,61.455],[86.129,61.374],[86.211,61.374],[86.327,61.452],[86.507,61.406],[86.523,61.349],[86.603,61.311],[86.775,61.317],[86.976,61.36],[86.989,61.411],[86.95,61.447],[87.003,61.46],[87.254,61.376],[87.245,61.354],[87.467,61.339],[87.474,61.266],[87.564,61.209],[87.692,61.267],[87.713,61.296],[87.676,61.329],[87.778,61.362],[87.963,61.315],[88.182,61.346],[88.953,60.746],[89.867,60.807],[90.946,60.746],[91.965,60.751],[92.138,60.829],[92.136,60.89],[92.234,60.951],[92.227,60.98],[92.409,60.968],[92.474,60.997],[92.401,61.111],[92.467,61.195],[92.56,61.191],[92.757,61.087],[92.902,61.068],[92.891,61.095],[92.939,61.13],[92.892,61.146],[92.876,61.195],[92.632,61.309],[92.829,61.359],[92.93,61.332],[93.011,61.363],[93.151,61.32],[93.156,61.244],[93.343,61.1],[93.472,61.082],[93.568,61.104],[93.732,61.038],[93.918,61.058],[94.029,60.96],[94.251,61.12],[94.382,61.118],[94.545,61.174],[95.101,61.096],[95.359,60.922],[95.402,60.816],[95.325,60.745],[95.48,60.706],[95.234,60.563],[95.227,60.499],[95.289,60.451],[95.267,60.423],[95.113,60.416],[95.022,60.37],[94.929,60.234],[95.011,60.196],[94.977,60.113],[95.081,60.049],[95.006,60.003],[95.062,59.89],[95.173,59.802],[95.136,59.756],[95.213,59.656],[95.498,59.637],[95.593,59.575],[95.711,59.551],[95.66,59.425],[95.389,59.259],[95.373,59.205],[95.273,59.201],[95.246,59.227],[95.239,59.193],[95.158,59.157],[95.289,59.007],[95.437,58.982],[95.389,58.88],[95.412,58.85],[95.363,58.811],[95.421,58.801],[95.416,58.775],[95.459,58.754],[95.505,58.784],[95.57,58.765],[95.415,58.607],[95.419,58.536],[95.518,58.454],[95.486,58.135],[95.42,58.06],[95.434,58.02],[95.309,57.97],[95.285,57.879],[95.307,57.82],[95.224,57.755],[95.089,57.77],[94.836,57.736],[94.743,57.789],[94.433,57.782],[93.893,57.949],[93.267,57.959],[93.205,57.999],[93.165,57.948],[93.229,57.872],[93.156,57.839],[92.754,57.876],[92.644,57.841],[92.566,57.917],[92.592,57.932],[92.585,57.983],[92.379,58.03],[92.166,57.947],[92.132,57.973],[92.031,57.94],[91.927,57.868],[91.601,57.855],[91.528,57.813],[91.309,57.891],[91.23,57.883],[91.244,57.85],[91.2,57.826],[91.176,57.73],[91.2,57.656],[91.254,57.622],[91.093,57.566],[91.012,57.598],[91.023,57.641],[90.876,57.68],[90.635,57.686],[90.63,57.63],[90.546,57.648],[90.522,57.748],[90.486,57.774],[90.524,57.831],[90.51,57.879],[90.568,57.916],[90.48,57.983],[89.373,57.76],[89.396,57.878],[89.34,57.953],[88.852,57.966],[88.689,58.041],[88.135,58.118],[88.022,58.248],[87.928,58.509],[88.393,58.909],[88.83,59.021],[88.611,59.219],[88.624,59.297],[87.91,59.274],[87.525,59.672],[87.191,59.697],[87.085,59.888],[86.626,59.955],[85.968,59.961],[85.496,59.897],[84.694,59.91],[84.541,59.983],[84.611,60.044],[84.638,60.203],[84.789,60.361],[84.712,60.463],[84.262,60.86],[83.988,60.832],[83.504,61.052],[83.142,61.033],[82.405,60.727],[82.375,60.616],[82.167,60.532],[81.831,60.65],[81.497,60.621],[81.14,60.642],[81.067,60.681],[81.029,60.76],[80.724,60.802],[80.427,60.77],[80.185,60.67],[79.853,60.697],[79.373,60.667],[79.291,60.725],[79.315,60.804],[79.186,60.843],[78.808,60.785],[78.688,60.834],[78.474,60.783],[78.12,60.807],[77.92,60.753],[77.703,60.83],[77.407,60.816],[77.104,60.857],[77.063,60.735],[76.993,60.741],[76.966,60.711],[76.966,60.646],[77.043,60.599],[77.031,60.547],[76.775,60.454],[76.745,60.345],[76.814,60.325],[76.842,60.268],[76.689,60.114],[76.752,60.063],[76.736,59.758],[76.652,59.695],[76.639,59.589],[76.44,59.55],[76.17,59.548],[75.996,59.428],[75.892,59.43],[75.816,59.299],[75.625,59.241],[75.681,59.043],[75.639,58.987],[75.372,58.791],[75.158,58.682],[75.151,58.621],[75.101,58.583],[75.295,58.485],[75.299,58.458],[75.065,58.346],[75.212,58.22],[75.076,58.118],[75.552,57.927],[75.588,57.648],[75.722,57.596],[75.855,57.395],[75.989,57.38],[76.102,57.249],[76.191,56.967],[76.244,56.91],[76.278,56.733],[76.144,56.636],[76.045,56.624],[76.009,56.556],[75.864,56.505],[75.841,56.461],[75.884,56.438],[75.938,56.472],[76.052,56.474],[76.127,56.448],[76.075,56.41],[76.107,56.321],[76.279,56.243],[76.309,56.193],[76.172,56.16],[75.999,56.183],[75.94,56.135],[75.761,56.146],[75.695,56.075],[75.548,56.053],[75.308,55.894],[75.292,55.847],[75.366,55.808],[75.349,55.772],[75.082,55.755],[75.132,55.695],[75.218,55.66],[75.133,55.594],[75.316,55.539],[75.307,55.505],[75.176,55.46],[75.093,55.382],[75.256,55.26],[75.25,55.134],[75.387,55.037],[75.333,54.916],[75.518,54.9],[75.496,54.833],[75.65,54.803],[75.699,54.69],[75.788,54.696],[75.825,54.614],[75.791,54.561],[75.68,54.532],[75.689,54.109],[76.186,54.247],[76.176,54.291],[76.219,54.338],[76.477,54.318],[76.626,54.352],[76.673,54.431],[76.896,54.458],[76.886,54.429],[76.749,54.38],[76.829,54.342],[76.833,54.3],[76.666,54.141],[76.413,54.171],[76.37,54.145],[76.523,53.957],[77.609,53.439],[77.785,53.323],[77.849,53.381],[77.94,53.385],[77.94,53.441],[78.062,53.462],[78.051,53.5],[77.932,53.506],[77.931,53.558],[77.966,53.572],[78.202,53.607],[78.242,53.496],[78.377,53.483],[78.625,53.521],[78.609,53.616],[78.664,53.65],[79.246,53.675],[79.378,53.715],[79.425,53.686],[79.573,53.728],[79.676,53.825],[79.865,53.853],[79.873,53.929],[80.046,53.997],[80.126,54.068],[80.206,54.038],[80.422,54.122],[80.489,54.105],[80.584,54.197],[80.649,54.196],[80.763,54.262],[80.841,54.253],[80.812,54.332],[80.922,54.388],[80.99,54.261],[81.099,54.208],[81.113,54.138],[81.471,54.066],[81.57,54.014],[81.552,53.931],[81.713,53.993],[81.847,53.964],[81.841,53.903],[81.721,53.841],[81.832,53.709],[81.966,53.714],[82.112,53.656],[82.203,53.688],[82.171,53.598],[82.249,53.588],[82.486,53.464],[82.605,53.504],[82.553,53.558],[82.668,53.692],[82.767,53.755],[82.746,53.789],[83.188,54.059],[83.248,54.044],[83.294,54.076],[83.407,53.936],[83.505,53.99],[83.495,54.079],[83.571,54.122],[83.899,54.133],[83.906,54.09],[84.265,54.21],[84.287,54.167],[84.388,54.183],[84.459,54.137],[84.567,54.187],[84.591,54.249],[84.696,54.333],[85.15,54.482],[85.446,54.2],[85.605,54.228],[85.942,54.035],[86.136,53.984],[86.217,53.89],[86.291,53.87],[86.381,53.782],[86.39,53.693],[86.451,53.611],[86.511,53.596],[86.566,53.534],[86.799,53.469],[87.007,53.499],[86.919,53.449],[86.976,53.409],[86.868,53.303],[86.662,53.249],[86.696,53.196],[86.925,53.08],[87.069,53.072],[87.018,53.003],[87.018,52.919],[86.939,52.854],[87.078,52.704],[87.162,52.715],[87.181,52.628],[87.117,52.673],[86.952,52.64],[86.849,52.656],[86.79,52.614],[86.786,52.557],[86.707,52.516],[86.611,52.378],[86.803,52.285],[86.775,52.232],[86.819,52.172],[86.787,52.127],[86.497,52.123],[86.448,52.034],[86.369,52.015],[86.221,52.026],[86.15,52.075],[85.919,52.077],[85.832,51.985],[85.864,51.92],[85.736,51.863],[85.773,51.841],[85.734,51.741],[85.669,51.759],[85.534,51.704],[85.466,51.572],[85.292,51.57],[85.295,51.513],[85.231,51.474],[85.154,51.501],[85.006,51.494],[84.923,51.429],[84.714,51.404],[84.395,51.272],[84.278,51.288],[84.144,51.126],[84.069,51.147],[84.0,51.128],[84.016,51.059],[84.501,50.956],[84.528,50.874],[84.602,50.841],[84.538,50.696],[84.456,50.708],[84.084,50.637],[84.189,50.512],[84.172,50.438],[84.234,50.344],[84.246,50.257],[84.331,50.208],[84.443,50.238],[84.534,50.186],[84.788,50.127],[84.837,50.076],[84.975,50.069],[85.023,50.015],[84.951,49.993],[84.95,49.905],[85.055,49.867],[85.078,49.797],[85.179,49.704],[85.221,49.591],[85.384,49.61],[85.476,49.578],[85.608,49.613],[85.672,49.556],[85.745,49.568],[85.809,49.532],[85.931,49.555],[85.945,49.477],[86.072,49.521],[86.178,49.458],[86.275,49.578],[86.478,49.667],[86.484,49.707],[86.611,49.788],[86.744,49.778],[86.754,49.696],[86.663,49.67],[86.587,49.585],[86.641,49.543],[86.73,49.546],[86.815,49.508],[86.81,49.447],[86.921,49.389],[86.909,49.336],[86.987,49.289],[85.843,48.414],[85.747,48.39],[85.603,48.232],[85.385,48.148],[83.13,48.282],[84.267,49.205],[81.479,50.291],[78.65,50.807],[74.921,54.149],[72.992,55.307],[64.687,54.272],[64.456,53.58],[63.04,51.179],[62.258,51.065],[62.154,51.115],[62.033,51.072],[61.963,51.133],[61.929,51.242],[61.875,51.301],[61.811,51.274],[61.597,51.282],[61.475,51.431],[61.033,51.487],[60.95,51.545],[60.938,51.616],[60.512,51.624],[60.486,51.656],[60.361,51.68],[60.48,51.773],[60.454,51.81],[60.139,51.894],[60.093,51.86],[60.045,51.874],[59.992,51.954],[60.03,52.003],[59.919,52.098],[59.967,52.171],[60.154,52.275],[60.139,52.434],[59.936,52.435],[59.81,52.502],[59.685,52.433],[59.676,52.462],[59.515,52.441],[59.41,52.498],[59.272,52.499],[59.244,52.489],[59.174,52.284],[58.984,52.375],[58.979,52.435],[58.794,52.454],[58.775,52.514],[58.843,52.541],[58.809,52.597],[58.731,52.638],[58.789,52.724],[58.756,52.862],[58.848,53.003],[59.033,53.014],[58.999,53.057],[58.911,53.062],[58.896,53.191],[58.828,53.215],[58.834,53.286],[58.87,53.319],[58.873,53.498],[58.907,53.549],[58.834,53.564],[58.826,53.591],[58.912,53.653],[58.878,53.75],[58.952,53.898],[58.929,53.933],[58.959,53.969],[59.157,53.98],[59.325,54.177],[59.535,54.192],[59.673,54.129],[59.733,54.135],[59.734,54.193],[59.808,54.255],[59.78,54.305],[59.681,54.341],[59.751,54.447],[59.686,54.498],[59.874,54.61],[59.979,54.794],[59.93,54.832],[59.947,54.862],[59.809,54.851],[59.631,54.916],[59.409,54.712],[59.23,54.617],[59.06,54.637],[58.806,54.572],[58.617,54.476],[58.353,54.551],[58.204,54.52],[57.962,54.398],[57.749,54.505],[57.751,54.583],[57.586,54.638],[57.584,54.678],[57.527,54.673],[57.162,54.834],[57.249,54.951],[57.15,55.051],[57.146,55.096],[57.244,55.154],[57.228,55.212],[57.261,55.252],[57.434,55.322],[57.916,55.288],[58.131,55.212],[58.05,55.169],[57.959,55.169],[58.025,55.075],[58.016,55.005],[57.957,54.947],[58.0,54.912],[58.11,54.954],[58.096,55.018],[58.198,55.083],[58.148,55.111],[58.299,55.168],[58.369,55.15],[58.36,55.082],[58.422,55.055],[58.384,54.996],[58.519,55.017],[58.549,54.948],[58.621,54.945],[58.818,55.021],[58.764,55.113],[58.583,55.157],[58.663,55.184],[58.701,55.144],[58.747,55.151],[58.808,55.215],[58.73,55.252],[58.925,55.275],[58.874,55.318],[58.967,55.307],[58.962,55.246],[58.999,55.24],[59.163,55.328],[59.203,55.444],[59.476,55.463],[59.646,55.563],[59.629,55.596],[59.502,55.585],[59.437,55.638],[59.246,55.589],[59.349,55.645],[59.287,55.696],[59.316,55.779],[59.161,55.805],[59.208,55.833],[59.194,55.868],[59.235,55.905],[59.182,56.004],[59.285,56.051],[59.299,56.135],[59.025,56.174],[58.952,56.076],[58.826,56.059],[58.736,56.072],[58.565,56.167],[58.453,56.152],[58.353,56.064],[58.301,56.119],[58.08,56.146],[57.91,56.121],[57.802,56.156],[57.54,56.105],[57.46,56.135],[57.483,56.18],[57.416,56.239],[57.408,56.334],[57.264,56.306],[57.252,56.252],[57.166,56.166],[56.896,56.106],[56.776,56.173],[56.74,56.228],[56.65,56.227],[56.627,56.265],[56.575,56.269],[56.512,56.32],[56.563,56.359],[56.529,56.388],[56.392,56.393],[56.265,56.306],[56.073,56.295],[55.961,56.381],[55.913,56.471],[55.862,56.438],[55.547,56.404],[55.413,56.34],[55.255,56.341],[55.224,56.369],[55.172,56.323],[55.104,56.349],[54.968,56.326],[54.933,56.391],[54.747,56.444],[54.559,56.543],[54.425,56.346],[54.317,56.348],[54.363,56.297],[54.342,56.258],[54.115,56.163],[54.004,56.035],[53.836,56.043],[53.783,55.98],[53.668,55.963],[53.627,55.909],[53.745,55.862],[53.868,55.88],[53.981,55.843],[53.963,55.778],[54.033,55.798],[54.024,55.759],[54.096,55.766],[54.216,55.691],[54.176,55.632],[54.0,55.558],[53.906,55.399],[53.711,55.338],[53.594,55.258],[53.585,55.216],[53.418,55.227],[53.325,55.171],[53.142,55.148],[53.138,55.095],[53.254,55.049],[53.262,55.009],[53.41,54.985],[53.497,54.887],[53.623,54.889],[53.574,54.823],[53.599,54.715],[53.413,54.563],[53.42,54.501],[53.344,54.392],[53.357,54.33],[53.424,54.265],[53.459,54.046],[53.372,53.978],[53.26,54.076],[53.186,54.099],[53.082,54.077],[53.091,54.118],[52.95,54.21],[53.111,54.244],[53.111,54.289],[53.047,54.343],[53.0,54.316],[52.999,54.276],[52.928,54.275],[52.937,54.309],[52.772,54.352],[52.63,54.348],[52.539,54.382],[52.505,54.328],[52.279,54.333],[52.2,54.302],[52.344,54.214],[52.338,54.18],[52.257,54.152],[52.268,54.115],[52.394,54.123],[52.477,54.062],[52.371,53.983],[52.406,53.929],[52.249,53.658],[52.178,53.564],[52.099,53.552],[52.075,53.516],[52.09,53.462],[52.186,53.371],[52.138,53.299],[52.157,53.259],[52.123,53.179],[52.054,53.138],[52.15,53.106],[52.06,53.079],[52.048,52.997],[51.866,52.934],[51.805,52.881],[51.725,52.873],[51.713,52.824],[51.766,52.792],[51.725,52.671],[51.536,52.68],[51.505,52.631],[51.537,52.58],[51.473,52.581],[51.466,52.527],[51.554,52.447],[51.468,52.419],[51.463,52.374],[51.408,52.352],[51.402,52.255],[51.447,52.221],[51.409,52.105],[50.895,51.856],[50.741,51.746],[50.789,51.624],[50.763,51.584],[50.677,51.572],[50.697,51.615],[50.579,51.639],[50.57,51.592],[50.521,51.567],[50.521,51.471],[50.356,51.417],[50.323,51.308],[49.985,51.235],[49.776,51.107],[49.434,51.117],[49.342,50.965],[49.416,50.885],[49.403,50.851],[49.142,50.786],[48.831,50.601],[48.581,50.653],[48.57,50.613],[48.669,50.575],[48.696,50.334],[48.783,50.175],[48.778,50.109],[48.851,50.091],[48.88,50.033],[48.78,49.937],[48.429,49.816],[48.243,49.87],[47.997,50.186],[47.627,50.445],[47.557,50.458],[47.467,50.416],[47.39,50.329],[47.301,50.297],[47.314,50.237],[47.26,50.186],[47.323,50.105],[47.307,50.05],[47.174,49.951],[46.957,49.889],[46.895,49.822],[46.77,49.332],[46.978,49.239],[47.034,49.149],[46.929,49.01],[46.75,48.917],[46.474,48.408],[47.095,48.261],[47.07,48.205],[47.111,48.156],[47.099,48.099],[47.182,48.069],[47.039,47.987],[47.15,47.875],[47.119,47.806],[47.357,47.679],[47.388,47.704],[47.413,47.83],[47.649,47.761],[48.043,47.765],[48.172,47.708],[48.408,47.442],[48.523,47.404],[48.693,47.098],[48.995,46.771],[48.914,46.707],[48.766,46.688],[48.679,46.763],[48.555,46.767],[48.451,46.658],[48.527,46.633],[48.538,46.563],[48.705,46.545],[49.226,46.323],[49.22,46.383],[49.174,46.407],[49.295,46.4],[49.243,46.465],[49.356,46.389]]],[[[95.92,54.391],[96.068,54.57],[96.181,54.53],[96.293,54.552],[96.486,54.511],[96.542,54.526],[96.542,54.58],[96.586,54.626],[96.575,54.699],[96.666,54.788],[96.722,54.901],[96.605,55.028],[96.69,55.081],[96.671,55.242],[96.95,55.318],[96.852,55.436],[96.845,55.533],[96.814,55.56],[96.866,55.575],[96.859,55.601],[96.761,55.654],[96.83,55.687],[96.768,55.729],[96.789,55.783],[96.918,55.855],[96.992,55.847],[96.997,55.996],[97.067,56.0],[97.134,56.106],[97.361,56.027],[97.443,56.103],[97.429,56.171],[97.577,56.183],[97.565,56.37],[97.884,56.373],[97.884,56.537],[97.753,56.554],[97.785,56.59],[97.748,56.639],[97.793,56.661],[97.765,56.703],[97.807,56.771],[97.79,56.801],[97.546,56.79],[97.477,56.831],[97.492,56.882],[97.677,56.976],[97.532,56.976],[97.508,57.009],[97.362,57.046],[97.956,57.824],[98.636,57.767],[98.749,57.791],[98.847,57.723],[98.982,57.713],[99.089,57.773],[99.205,57.756],[99.44,57.786],[99.498,57.897],[99.642,57.989],[99.644,58.055],[99.681,58.077],[99.802,58.052],[100.004,58.076],[100.09,58.042],[100.059,57.976],[100.124,57.914],[100.135,57.85],[100.283,57.804],[100.282,57.765],[100.363,57.735],[100.318,57.684],[100.416,57.586],[100.401,57.548],[100.671,57.456],[100.762,57.395],[100.854,57.458],[100.924,57.44],[100.975,57.482],[100.948,57.582],[100.833,57.63],[100.914,57.771],[100.862,57.802],[100.843,57.866],[100.975,57.859],[101.142,57.964],[101.175,58.036],[101.118,58.098],[101.365,58.228],[101.533,58.237],[101.673,58.339],[101.709,58.41],[101.796,58.448],[102.204,58.517],[102.286,58.558],[102.342,58.644],[102.572,58.735],[102.566,58.907],[102.453,58.948],[102.498,59.009],[102.416,59.081],[102.5,59.181],[102.628,59.206],[102.82,59.187],[102.899,59.27],[103.014,59.312],[103.136,59.254],[103.212,59.251],[103.235,59.285],[103.333,59.268],[103.342,59.243],[103.212,59.238],[103.219,59.203],[103.391,59.025],[103.555,58.993],[103.622,58.919],[103.896,58.917],[103.976,58.868],[103.944,58.835],[103.951,58.774],[103.884,58.754],[103.89,58.732],[103.97,58.723],[104.04,58.783],[104.19,58.771],[104.252,58.711],[104.376,58.722],[104.343,58.67],[104.466,58.604],[104.814,58.672],[104.899,58.748],[104.766,58.812],[104.792,58.861],[105.135,59.055],[105.278,59.063],[105.373,59.118],[105.314,59.161],[105.343,59.197],[105.307,59.249],[105.19,59.301],[105.241,59.445],[105.149,59.49],[104.976,59.473],[104.859,59.558],[104.886,59.608],[104.811,59.63],[104.813,59.673],[104.78,59.689],[104.888,59.76],[105.026,59.773],[105.018,59.83],[105.07,59.869],[105.372,59.834],[105.429,59.853],[105.466,59.826],[105.52,59.844],[105.437,59.902],[105.429,59.947],[105.51,60.0],[105.433,60.149],[105.511,60.231],[105.344,60.304],[105.231,60.28],[104.903,60.305],[104.79,60.381],[104.669,60.411],[104.649,60.522],[104.585,60.544],[104.575,60.591],[104.514,60.627],[104.614,60.725],[104.582,60.773],[104.492,60.807],[104.485,60.842],[104.638,60.903],[104.586,60.946],[104.648,61.036],[104.626,61.07],[104.856,61.186],[105.049,61.176],[104.953,61.32],[104.826,61.354],[105.01,61.407],[105.283,61.419],[105.284,61.466],[105.378,61.54],[105.587,61.586],[105.669,61.65],[105.814,61.625],[105.896,61.681],[105.982,61.686],[105.903,61.841],[106.276,62.018],[106.399,62.039],[106.417,62.099],[106.393,62.14],[106.454,62.196],[106.47,62.261],[106.381,62.284],[106.487,62.337],[106.445,62.393],[106.548,62.392],[106.634,62.46],[106.759,62.493],[106.689,62.564],[106.8,62.627],[106.478,62.703],[106.516,62.728],[106.516,62.794],[106.453,62.818],[106.438,62.868],[106.205,62.928],[106.193,62.973],[106.153,62.982],[106.175,63.008],[106.127,63.077],[106.4,63.122],[106.398,63.182],[106.443,63.218],[106.356,63.256],[106.422,63.353],[106.622,63.312],[106.741,63.395],[106.503,63.537],[106.524,63.563],[106.602,63.558],[106.593,63.598],[106.66,63.622],[106.694,63.661],[106.612,63.722],[106.795,63.869],[106.73,63.912],[106.733,63.939],[106.626,63.977],[106.673,64.037],[106.97,63.966],[107.043,63.922],[107.197,63.977],[107.286,63.975],[107.371,63.932],[107.339,63.904],[107.585,63.897],[107.632,63.93],[107.632,63.975],[107.761,64.015],[107.899,63.993],[108.331,64.013],[108.393,64.059],[108.264,64.241],[108.317,64.249],[108.351,64.293],[108.456,64.281],[108.525,64.233],[108.48,64.202],[108.531,64.175],[108.491,64.113],[108.725,63.982],[108.683,63.913],[108.759,63.862],[108.649,63.792],[108.295,63.815],[108.262,63.678],[108.114,63.626],[108.121,63.577],[108.16,63.558],[108.571,63.593],[108.856,63.532],[109.041,63.547],[109.216,63.434],[109.276,63.344],[109.362,63.349],[109.377,63.255],[109.442,63.225],[109.403,63.181],[109.443,63.147],[109.467,62.929],[109.603,62.874],[109.64,62.825],[109.469,62.75],[109.454,62.675],[109.379,62.65],[109.369,62.583],[109.246,62.574],[109.263,62.521],[109.313,62.472],[109.486,62.406],[109.9,62.409],[109.891,62.351],[109.988,62.285],[109.931,62.239],[109.993,62.166],[109.593,61.871],[109.616,61.715],[109.865,61.531],[109.823,61.479],[109.842,61.429],[109.788,61.323],[110.078,61.266],[110.189,61.15],[110.321,61.144],[110.396,61.175],[110.478,61.155],[110.51,61.089],[110.46,61.043],[110.452,60.989],[110.231,60.827],[110.23,60.794],[110.273,60.769],[110.26,60.699],[110.046,60.675],[110.111,60.591],[109.919,60.467],[109.942,60.406],[109.86,60.375],[109.863,60.338],[109.806,60.313],[109.803,60.261],[109.728,60.228],[109.689,60.114],[109.753,60.024],[109.621,59.911],[109.638,59.862],[109.496,59.762],[109.479,59.701],[109.52,59.641],[109.264,59.463],[109.338,59.413],[109.248,59.371],[109.258,59.318],[109.5,59.286],[109.524,59.187],[109.623,59.147],[109.64,59.057],[109.739,59.062],[109.821,58.976],[109.919,59.003],[110.278,58.979],[110.341,59.025],[110.534,59.055],[110.594,59.13],[110.582,59.183],[110.697,59.252],[111.001,59.204],[111.087,59.232],[111.175,59.183],[111.301,59.249],[111.47,59.262],[111.638,59.203],[111.767,59.269],[111.944,59.269],[111.997,59.34],[112.26,59.496],[112.323,59.417],[112.271,59.367],[112.291,59.296],[112.436,59.321],[112.628,59.301],[112.628,59.274],[112.461,59.171],[112.447,59.126],[112.443,58.927],[112.504,58.866],[112.621,58.96],[112.562,59.028],[112.571,59.06],[112.645,59.029],[112.918,59.146],[113.266,59.152],[113.464,59.257],[113.479,59.333],[113.429,59.381],[113.609,59.496],[113.6,59.563],[113.781,59.604],[113.857,59.679],[114.039,59.678],[114.05,59.733],[114.177,59.749],[114.313,59.875],[114.573,59.997],[114.53,60.048],[114.547,60.104],[114.699,60.214],[114.827,60.182],[115.01,60.264],[115.093,60.377],[115.238,60.442],[115.687,60.521],[115.841,60.463],[116.005,60.45],[116.075,60.402],[116.599,60.35],[116.727,60.258],[116.827,60.239],[116.973,60.151],[117.052,60.031],[117.293,60.014],[117.225,59.96],[117.104,59.965],[117.059,59.914],[117.224,59.806],[117.19,59.654],[117.083,59.589],[117.192,59.565],[117.232,59.526],[117.598,59.467],[117.756,59.534],[117.816,59.451],[117.884,59.437],[117.942,59.451],[117.986,59.528],[118.06,59.578],[118.283,59.604],[118.334,59.59],[118.396,59.511],[118.744,59.41],[118.754,59.33],[118.825,59.292],[118.684,59.194],[118.702,59.063],[118.737,59.024],[118.844,59.004],[118.842,58.953],[118.792,58.939],[118.781,58.899],[118.888,58.806],[118.87,58.692],[118.772,58.602],[119.127,58.463],[119.064,58.358],[119.118,58.287],[119.103,58.23],[118.784,58.218],[118.662,58.18],[118.407,58.266],[118.319,58.357],[118.158,58.391],[118.071,58.346],[117.995,58.4],[117.683,58.403],[117.472,58.313],[117.468,58.28],[117.581,58.178],[117.563,58.145],[117.437,58.157],[117.404,58.129],[117.361,57.995],[117.365,57.926],[117.394,57.906],[117.311,57.852],[117.116,57.844],[117.081,57.805],[117.166,57.737],[117.138,57.638],[117.283,57.607],[117.25,57.512],[117.324,57.447],[117.362,57.325],[117.438,57.326],[117.429,57.251],[117.543,57.256],[117.599,57.315],[117.786,57.287],[117.741,57.201],[117.596,57.152],[117.67,57.063],[117.669,56.982],[117.572,56.938],[117.567,56.86],[117.497,56.874],[117.447,56.825],[117.355,56.873],[117.337,56.949],[117.187,56.88],[117.131,56.81],[117.029,56.817],[117.01,56.781],[116.807,56.73],[116.737,56.765],[116.571,56.762],[116.363,56.852],[116.126,56.817],[115.729,56.972],[115.808,57.027],[116.243,57.152],[116.133,57.243],[115.863,57.248],[115.678,57.136],[115.371,57.097],[115.084,57.123],[115.02,57.039],[115.042,56.989],[114.842,56.835],[114.833,56.759],[114.778,56.705],[114.499,56.706],[114.496,56.676],[114.442,56.66],[114.29,56.697],[114.144,56.686],[114.08,56.617],[113.994,56.589],[114.002,56.547],[113.899,56.531],[113.805,56.607],[113.515,56.684],[113.368,56.632],[112.899,56.696],[112.877,56.731],[112.751,56.766],[112.705,56.862],[112.75,56.936],[112.663,56.965],[112.549,56.934],[112.457,56.869],[112.235,56.883],[112.11,56.949],[111.915,56.95],[111.818,56.913],[111.716,56.995],[111.637,57.016],[111.622,57.102],[111.587,57.112],[111.46,57.107],[111.332,56.957],[111.368,56.905],[111.242,56.876],[111.162,56.82],[110.99,56.864],[110.884,56.839],[110.753,56.879],[110.6,56.835],[110.538,56.851],[110.53,56.888],[110.341,56.942],[110.233,56.93],[110.084,56.98],[109.995,56.975],[109.882,56.893],[109.855,56.831],[109.876,56.792],[109.764,56.709],[109.409,56.74],[109.305,56.673],[109.142,56.681],[109.054,56.624],[108.975,56.641],[108.926,56.593],[108.697,56.587],[108.668,56.562],[108.721,56.512],[108.553,56.348],[108.573,56.282],[108.8,56.251],[108.919,56.152],[108.907,56.097],[108.989,56.035],[109.25,55.974],[109.178,55.918],[108.957,55.946],[108.838,55.854],[108.768,55.628],[108.676,55.593],[108.687,55.526],[108.617,55.45],[108.662,55.402],[108.648,55.298],[108.773,55.224],[108.746,55.108],[108.685,55.063],[108.699,54.975],[108.749,54.931],[108.69,54.891],[108.712,54.86],[108.692,54.679],[108.553,54.542],[109.032,54.477],[108.419,53.786],[108.058,53.21],[107.887,53.136],[101.822,54.78],[98.873,53.131],[98.687,53.16],[98.606,53.11],[98.346,53.098],[98.293,53.126],[98.292,53.228],[98.032,53.258],[97.978,53.295],[97.959,53.363],[97.607,53.378],[97.589,53.442],[97.452,53.467],[97.33,53.601],[97.129,53.618],[96.876,53.734],[96.725,53.71],[96.689,53.648],[96.526,53.679],[96.343,53.842],[96.076,53.993],[96.104,54.061],[96.077,54.085],[95.948,54.105],[95.853,54.213],[95.688,54.242],[95.659,54.293],[95.713,54.407],[95.84,54.418],[95.92,54.391]]],[[[145.906,59.17],[145.786,59.21],[145.801,59.318],[145.661,59.373],[145.008,59.32],[143.899,59.369],[143.55,59.28],[143.404,59.274],[143.198,59.322],[143.023,59.276],[142.846,59.273],[142.358,59.141],[141.924,58.941],[141.591,58.728],[141.348,58.5],[140.587,58.239],[140.042,57.659],[139.364,57.366],[133.205,59.199],[133.558,59.289],[133.625,59.227],[134.047,59.251],[134.522,59.142],[134.56,59.177],[134.726,59.206],[134.768,59.19],[134.749,59.148],[134.853,59.122],[134.945,59.147],[135.188,59.111],[135.282,59.186],[135.268,59.223],[135.425,59.383],[135.622,59.491],[135.757,59.524],[136.002,59.48],[136.075,59.422],[136.31,59.428],[136.363,59.389],[136.76,59.35],[136.963,59.423],[137.21,59.448],[137.351,59.544],[137.468,59.551],[137.453,59.634],[137.618,59.735],[137.95,59.748],[137.999,59.791],[138.038,59.745],[138.033,59.681],[138.174,59.675],[138.255,59.708],[138.275,59.735],[138.204,59.759],[138.18,59.835],[138.278,59.955],[138.239,60.02],[138.261,60.08],[138.21,60.12],[138.242,60.186],[138.208,60.236],[138.319,60.315],[138.334,60.391],[138.257,60.492],[138.332,60.526],[138.32,60.582],[138.407,60.607],[138.442,60.68],[138.289,60.76],[138.191,60.887],[138.217,60.957],[138.35,60.998],[138.308,61.102],[138.396,61.095],[138.705,61.189],[138.654,61.223],[138.649,61.267],[138.736,61.338],[138.755,61.306],[138.841,61.332],[138.921,61.313],[139.063,61.389],[139.057,61.424],[139.097,61.442],[139.26,61.428],[139.412,61.486],[139.551,61.477],[139.65,61.566],[139.678,61.648],[139.957,61.829],[139.985,61.87],[139.958,61.915],[139.998,61.973],[140.129,61.968],[140.183,62.019],[140.284,62.05],[140.265,62.094],[140.309,62.123],[140.319,62.179],[140.3,62.275],[140.35,62.382],[140.482,62.427],[140.63,62.416],[140.689,62.487],[140.658,62.534],[140.717,62.568],[140.828,62.541],[140.88,62.494],[141.043,62.479],[141.087,62.404],[141.294,62.429],[141.407,62.292],[141.514,62.258],[141.542,62.174],[141.739,62.075],[141.87,62.083],[141.832,62.048],[141.86,62.022],[142.009,62.022],[142.098,62.085],[142.172,62.081],[142.263,62.007],[142.261,61.97],[142.39,61.942],[142.381,61.89],[142.425,61.864],[142.669,61.96],[142.983,61.901],[143.125,62.092],[143.213,62.11],[143.249,62.053],[143.361,62.019],[143.605,62.021],[143.607,61.97],[143.557,61.934],[143.646,61.865],[143.756,61.903],[143.769,61.947],[143.927,61.982],[143.946,61.878],[143.905,61.815],[143.931,61.753],[144.001,61.722],[144.224,61.728],[144.384,61.818],[144.542,61.851],[144.595,61.977],[144.71,62.037],[144.869,62.064],[144.966,62.052],[145.155,61.963],[145.294,61.987],[145.468,61.951],[145.73,62.055],[145.79,62.006],[145.956,62.001],[146.018,61.949],[146.13,61.935],[146.344,61.827],[146.361,61.767],[146.575,61.635],[146.611,61.43],[146.755,61.4],[146.677,61.305],[146.744,61.213],[146.74,61.112],[146.661,61.065],[146.72,61.013],[146.701,60.969],[146.482,60.936],[146.496,60.842],[146.443,60.764],[146.47,60.729],[146.402,60.672],[146.31,60.666],[146.16,60.738],[146.058,60.742],[146.028,60.704],[145.893,60.663],[145.871,60.619],[145.742,60.611],[145.618,60.562],[145.605,60.525],[145.51,60.481],[145.52,60.419],[145.626,60.386],[145.564,60.348],[145.611,60.287],[145.791,60.193],[146.372,60.266],[146.457,60.181],[146.452,60.127],[146.67,60.099],[146.674,60.031],[146.641,59.987],[146.725,59.958],[146.774,59.902],[147.024,59.934],[147.133,59.849],[147.098,59.806],[147.141,59.748],[147.082,59.691],[147.15,59.644],[147.124,59.509],[147.091,59.423],[146.923,59.401],[146.882,59.362],[147.056,59.358],[147.198,59.308],[147.272,59.327],[147.445,59.249],[147.387,59.232],[147.262,59.283],[147.192,59.263],[147.045,59.313],[146.712,59.332],[146.647,59.385],[146.504,59.413],[146.369,59.376],[146.37,59.276],[146.054,59.251],[145.974,59.093],[145.906,59.17]]],[[[29.631,49.888],[29.735,49.944],[29.675,50.028],[29.697,50.069],[29.655,50.103],[29.692,50.152],[29.648,50.181],[29.703,50.23],[29.672,50.261],[29.684,50.311],[29.764,50.348],[29.828,50.297],[29.91,50.299],[29.92,50.338],[29.984,50.352],[29.975,50.409],[30.058,50.375],[30.09,50.324],[30.16,50.346],[30.235,50.321],[30.271,50.356],[30.426,50.374],[30.472,50.342],[30.378,50.287],[30.409,50.198],[30.368,50.172],[30.332,50.236],[30.285,50.193],[30.238,50.219],[30.204,50.182],[30.246,50.151],[30.198,50.15],[30.197,50.117],[30.334,49.992],[30.441,49.992],[30.581,49.894],[30.542,49.826],[30.716,49.825],[30.706,49.74],[30.742,49.695],[30.697,49.642],[30.732,49.617],[30.617,49.613],[30.716,49.502],[30.694,49.473],[30.73,49.489],[30.795,49.438],[30.895,49.445],[30.93,49.418],[30.994,49.422],[31.021,49.465],[31.088,49.486],[31.134,49.425],[31.219,49.416],[31.204,49.392],[31.337,49.424],[31.405,49.408],[31.421,49.352],[31.382,49.329],[31.312,49.359],[31.281,49.327],[31.283,49.262],[31.618,49.102],[31.624,48.972],[31.676,48.942],[31.542,48.929],[31.519,48.834],[31.375,48.741],[31.216,48.773],[31.112,48.738],[30.944,48.777],[30.697,48.772],[30.571,48.723],[30.595,48.671],[30.525,48.63],[30.558,48.573],[30.401,48.579],[30.378,48.534],[30.222,48.486],[30.161,48.508],[30.109,48.46],[30.05,48.488],[29.969,48.474],[30.021,48.519],[30.006,48.573],[29.949,48.594],[29.993,48.632],[29.86,48.712],[29.884,48.737],[29.866,48.763],[29.769,48.786],[29.717,48.895],[29.735,48.908],[29.656,48.936],[29.696,49.001],[29.618,49.046],[29.651,49.094],[29.734,49.123],[29.708,49.217],[29.736,49.228],[29.701,49.261],[29.637,49.249],[29.619,49.306],[29.524,49.336],[29.505,49.392],[29.595,49.443],[29.546,49.483],[29.585,49.507],[29.544,49.519],[29.5,49.596],[29.535,49.637],[29.49,49.671],[29.498,49.714],[29.439,49.727],[29.449,49.803],[29.655,49.867],[29.631,49.888]]]]}}]}