{"type":"FeatureCollection","features":[{"type":"Feature","properties":{"lite":true,"src":"data/years/1713-10-06.geojson"},"geometry":{"type":"MultiPolygon","coordinates":[[[[27.664,58.934],[27.751,58.9],[27.744,58.928],[28.203,58.966],[28.183,58.989],[29.041,59.29],[29.518,59.247],[29.999,59.464],[31.318,59.594],[31.299,59.933],[31.455,59.907],[31.547,59.94],[31.567,59.967],[31.541,60.038],[31.606,60.134],[31.593,60.159],[31.697,60.234],[32.054,60.227],[32.26,60.154],[32.5,60.176],[32.584,60.209],[32.612,60.245],[32.594,60.351],[32.677,60.392],[32.601,60.532],[32.816,60.482],[32.944,60.642],[32.841,60.715],[32.766,60.886],[32.59,61.001],[32.527,61.118],[31.888,61.334],[31.747,62.853],[31.453,63.253],[30.568,63.533],[30.603,65.147],[30.993,65.754],[30.603,66.665],[30.733,68.575],[31.332,69.662],[32.065,69.881],[32.076,69.815],[32.19,69.642],[32.352,69.514],[32.596,69.424],[33.278,69.341],[33.316,69.071],[33.629,69.214],[35.437,69.15],[37.243,68.794],[37.687,68.63],[38.406,68.243],[38.668,68.146],[39.918,67.94],[40.825,67.66],[40.972,67.535],[40.951,67.335],[41.017,67.202],[41.208,67.07],[41.254,66.935],[41.149,66.784],[40.92,66.621],[40.396,66.344],[40.1,66.241],[39.356,66.086],[38.561,66.005],[37.652,66.073],[37.263,66.181],[36.885,66.235],[36.402,66.245],[35.553,66.337],[35.363,66.371],[34.805,66.563],[34.665,66.519],[34.323,66.593],[34.307,66.619],[33.792,66.666],[33.676,66.747],[33.652,66.705],[33.586,66.687],[33.438,66.702],[33.158,66.915],[32.627,67.083],[32.496,67.084],[32.567,67.037],[32.22,66.994],[32.426,66.89],[32.753,66.649],[32.97,66.584],[33.47,66.313],[33.844,66.182],[34.259,66.11],[34.546,65.999],[34.725,65.799],[34.726,65.617],[34.598,65.483],[34.294,65.396],[34.426,65.106],[34.773,64.682],[34.815,64.46],[34.885,64.367],[35.082,64.288],[36.014,64.197],[36.24,63.919],[36.42,63.876],[36.518,63.87],[36.51,63.953],[36.559,63.973],[36.703,63.925],[36.935,63.932],[37.011,63.897],[37.192,63.891],[37.279,63.822],[37.438,63.792],[37.608,63.816],[37.618,63.882],[37.829,63.902],[37.985,63.946],[38.054,64.0],[38.054,64.129],[37.913,64.222],[37.928,64.259],[37.88,64.308],[37.764,64.339],[37.747,64.39],[37.597,64.328],[37.261,64.314],[37.044,64.39],[36.624,64.719],[36.559,64.72],[36.51,64.828],[36.572,64.83],[36.474,64.865],[36.443,64.918],[36.631,64.904],[36.762,64.95],[36.867,65.076],[36.825,65.147],[37.009,65.173],[37.219,65.14],[37.671,65.036],[37.707,65.015],[37.718,64.959],[37.794,64.921],[38.046,64.854],[38.382,64.844],[38.383,64.78],[38.294,64.804],[38.036,64.762],[38.18,64.72],[38.375,64.761],[38.473,64.743],[38.492,64.768],[38.417,64.804],[38.446,64.818],[39.328,64.64],[39.566,64.545],[39.923,64.603],[39.903,64.624],[39.791,64.601],[39.811,64.66],[39.849,64.676],[40.182,64.559],[40.421,64.548],[40.44,64.565],[40.196,64.574],[40.055,64.653],[39.844,64.685],[39.983,64.719],[40.189,64.708],[40.302,64.635],[40.444,64.603],[40.453,64.675],[40.411,64.735],[40.447,64.767],[40.321,64.912],[39.982,65.151],[39.944,65.217],[39.722,65.379],[39.711,65.471],[39.751,65.554],[39.828,65.607],[40.28,65.73],[40.472,65.813],[40.709,65.972],[41.343,66.063],[41.643,66.173],[41.858,66.296],[42.16,66.527],[42.66,66.443],[42.549,66.385],[43.301,66.426],[43.367,66.347],[43.554,66.324],[43.684,66.262],[43.663,66.217],[43.463,66.167],[43.535,66.14],[43.713,66.186],[43.854,66.181],[44.048,66.079],[44.03,66.012],[44.088,66.154],[44.096,66.261],[44.151,66.356],[44.211,66.404],[44.303,66.408],[44.859,66.231],[45.741,66.063],[45.833,66.083],[46.347,66.023],[47.11,65.816],[47.408,65.831],[47.662,65.803],[47.764,65.84],[47.737,65.913],[47.757,65.937],[48.141,66.122],[49.007,66.114],[51.512,66.778],[51.554,66.797],[51.491,66.83],[51.525,66.922],[51.812,66.949],[51.849,66.997],[52.022,67.023],[52.159,67.081],[53.772,66.994],[59.879,66.997],[59.869,66.963],[59.919,66.949],[60.083,66.985],[61.661,67.011],[61.854,67.122],[62.823,67.383],[62.878,67.578],[63.107,67.67],[63.422,67.763],[63.691,67.757],[63.711,67.805],[63.873,67.831],[63.952,67.895],[63.919,67.964],[63.839,68.025],[64.326,68.129],[64.351,68.173],[64.418,68.196],[64.532,68.196],[64.501,68.314],[64.559,68.354],[64.761,68.401],[65.006,68.384],[65.445,68.424],[65.269,68.232],[65.324,68.09],[65.286,68.01],[65.436,67.915],[65.781,67.919],[65.91,67.955],[66.084,67.925],[66.015,67.796],[66.194,67.736],[66.2,67.695],[66.106,67.652],[66.0,67.683],[65.85,67.659],[65.819,67.631],[65.839,67.604],[65.791,67.568],[66.033,67.57],[66.1,67.506],[66.085,67.471],[65.937,67.398],[65.7,67.393],[65.673,67.368],[65.701,67.339],[65.662,67.316],[65.188,67.149],[65.207,67.078],[65.073,67.043],[65.102,66.997],[65.098,66.897],[64.575,66.803],[64.533,66.733],[64.411,66.728],[64.295,66.668],[63.98,66.656],[63.807,66.552],[63.541,66.476],[63.413,66.485],[63.237,66.33],[63.292,66.244],[63.104,66.255],[63.009,66.199],[62.957,66.118],[62.858,66.078],[62.817,66.011],[62.87,65.977],[62.798,65.932],[62.844,65.877],[62.522,65.844],[62.014,65.72],[62.273,65.619],[62.322,65.537],[62.402,65.511],[62.369,65.447],[62.479,65.345],[62.81,65.289],[62.797,65.054],[62.673,64.891],[62.806,64.833],[62.816,64.806],[62.781,64.785],[62.799,64.736],[62.59,64.645],[62.533,64.551],[62.687,64.489],[62.899,64.472],[63.234,64.519],[63.455,64.454],[63.497,64.377],[63.41,64.325],[63.611,64.263],[63.889,64.279],[64.017,64.352],[64.478,64.355],[64.604,64.432],[64.761,64.422],[64.995,64.461],[65.177,64.441],[65.4,64.566],[65.884,64.564],[66.02,64.59],[66.465,64.507],[66.682,64.552],[66.932,64.482],[66.884,64.383],[66.792,64.328],[66.816,64.221],[67.161,64.159],[67.163,64.121],[67.253,64.112],[67.279,64.076],[67.677,64.074],[67.798,64.027],[67.929,64.111],[68.18,64.171],[68.427,64.291],[68.884,64.218],[68.894,64.266],[68.995,64.33],[68.874,64.433],[69.015,64.467],[69.229,64.465],[69.389,64.384],[69.732,64.389],[69.824,64.336],[69.999,64.311],[70.304,64.339],[70.471,64.247],[70.67,64.232],[70.765,64.189],[70.77,64.117],[70.554,63.999],[70.641,63.893],[70.818,63.811],[70.911,63.688],[71.386,63.67],[71.546,63.587],[71.607,63.18],[71.805,63.214],[71.989,63.197],[72.16,63.294],[72.656,63.275],[72.911,63.389],[73.101,63.431],[73.279,63.313],[73.366,63.202],[74.24,63.167],[74.507,63.038],[74.915,63.027],[75.363,63.103],[75.7,63.086],[75.804,63.109],[76.235,63.015],[76.297,62.945],[76.689,63.034],[76.823,62.987],[77.022,62.971],[77.155,62.787],[77.326,62.706],[77.885,62.553],[78.015,62.456],[78.379,62.563],[78.793,62.61],[79.821,62.599],[79.907,62.699],[79.92,62.789],[80.555,62.996],[80.592,63.079],[81.109,63.11],[81.171,62.969],[81.316,62.881],[81.337,62.821],[81.596,62.769],[81.633,62.73],[81.783,62.684],[82.165,62.804],[82.316,62.765],[82.746,62.749],[82.755,62.666],[83.006,62.591],[83.032,62.525],[83.282,62.456],[83.798,62.555],[83.938,62.48],[84.017,62.392],[84.24,62.368],[84.286,62.272],[84.39,62.236],[84.444,62.17],[84.487,62.096],[84.516,61.925],[84.684,61.801],[85.096,61.747],[85.277,61.669],[85.403,61.682],[85.491,61.613],[85.712,61.568],[85.843,61.588],[85.956,61.541],[85.962,61.455],[86.129,61.374],[86.211,61.374],[86.327,61.452],[86.507,61.406],[86.523,61.349],[86.603,61.311],[86.775,61.317],[86.976,61.36],[86.989,61.411],[86.95,61.447],[87.003,61.46],[87.254,61.376],[87.245,61.354],[87.467,61.339],[87.474,61.266],[87.564,61.209],[87.692,61.267],[87.713,61.296],[87.676,61.329],[87.778,61.362],[87.963,61.315],[88.182,61.346],[88.953,60.746],[89.867,60.807],[90.946,60.746],[91.965,60.751],[92.138,60.829],[92.136,60.89],[92.234,60.951],[92.227,60.98],[92.409,60.968],[92.474,60.997],[92.401,61.111],[92.467,61.195],[92.56,61.191],[92.757,61.087],[92.902,61.068],[92.891,61.095],[92.939,61.13],[92.818,61.216],[92.829,61.236],[92.632,61.304],[92.83,61.359],[92.93,61.332],[93.012,61.363],[93.151,61.321],[93.156,61.244],[93.343,61.1],[93.472,61.082],[93.568,61.104],[93.732,61.038],[93.918,61.058],[94.029,60.96],[94.252,61.12],[94.382,61.118],[94.546,61.174],[94.721,61.158],[95.113,61.089],[95.359,60.921],[95.402,60.816],[95.326,60.744],[95.48,60.707],[95.234,60.563],[95.227,60.499],[95.289,60.451],[95.267,60.423],[95.113,60.416],[95.022,60.37],[94.929,60.237],[95.011,60.196],[94.977,60.113],[95.081,60.049],[95.007,60.007],[95.02,59.966],[95.062,59.89],[95.173,59.803],[95.136,59.755],[95.241,59.637],[95.498,59.637],[95.593,59.575],[95.726,59.554],[95.783,59.606],[95.881,59.627],[95.954,59.628],[96.052,59.556],[96.239,59.626],[96.326,59.549],[96.29,59.505],[96.352,59.471],[96.452,59.473],[96.554,59.539],[96.784,59.549],[97.121,59.5],[97.224,59.535],[97.237,59.577],[97.204,59.615],[97.361,59.66],[97.457,59.73],[97.696,59.679],[98.052,59.723],[98.129,59.768],[98.337,59.723],[98.445,59.784],[98.606,59.762],[98.878,59.826],[98.935,59.767],[99.001,59.772],[99.102,59.841],[99.116,59.906],[99.409,60.029],[99.412,60.078],[99.649,60.116],[100.066,59.994],[100.097,59.959],[100.072,59.895],[100.315,59.841],[100.429,59.859],[100.553,59.788],[100.866,59.783],[101.025,59.714],[101.448,59.683],[101.472,59.725],[101.729,59.74],[101.79,59.712],[101.785,59.684],[102.016,59.637],[102.107,59.589],[102.443,59.647],[102.485,59.627],[102.456,59.614],[102.454,59.524],[102.525,59.498],[102.527,59.471],[102.639,59.449],[102.483,59.392],[102.517,59.26],[102.436,59.214],[102.484,59.181],[102.616,59.206],[102.82,59.187],[102.899,59.27],[103.014,59.312],[103.136,59.254],[103.212,59.251],[103.235,59.285],[103.333,59.268],[103.342,59.243],[103.21,59.232],[103.235,59.17],[103.309,59.131],[103.391,59.025],[103.555,58.993],[103.623,58.918],[103.896,58.917],[103.976,58.867],[103.944,58.835],[103.951,58.774],[103.884,58.754],[103.889,58.732],[103.97,58.723],[104.04,58.783],[104.19,58.771],[104.252,58.711],[104.376,58.722],[104.342,58.672],[104.466,58.604],[104.813,58.672],[104.898,58.751],[104.766,58.812],[104.792,58.861],[104.894,58.905],[104.924,58.954],[105.098,59.01],[105.135,59.055],[105.277,59.063],[105.372,59.116],[105.314,59.161],[105.343,59.197],[105.307,59.249],[105.19,59.301],[105.241,59.445],[105.149,59.49],[104.976,59.473],[104.859,59.558],[104.886,59.608],[104.811,59.63],[104.813,59.673],[104.782,59.692],[104.889,59.76],[105.026,59.773],[105.018,59.83],[105.07,59.869],[105.518,59.84],[105.437,59.903],[105.429,59.947],[105.51,60.0],[105.433,60.149],[105.513,60.227],[105.344,60.304],[105.231,60.28],[104.903,60.305],[104.854,60.352],[104.669,60.411],[104.649,60.522],[104.585,60.544],[104.575,60.591],[104.514,60.627],[104.614,60.726],[104.582,60.773],[104.492,60.807],[104.486,60.843],[104.638,60.903],[104.586,60.946],[104.648,61.036],[104.631,61.074],[104.697,61.083],[104.856,61.186],[105.049,61.175],[104.953,61.32],[104.826,61.354],[105.01,61.407],[105.283,61.419],[105.284,61.466],[105.378,61.54],[105.587,61.586],[105.669,61.65],[105.814,61.625],[105.896,61.681],[105.982,61.686],[105.903,61.841],[106.276,62.018],[106.399,62.039],[106.417,62.099],[106.393,62.14],[106.454,62.196],[106.47,62.261],[106.381,62.284],[106.487,62.337],[106.445,62.393],[106.548,62.392],[106.634,62.46],[106.759,62.493],[106.689,62.564],[106.8,62.627],[106.478,62.703],[106.516,62.728],[106.516,62.794],[106.453,62.818],[106.438,62.868],[106.205,62.928],[106.193,62.973],[106.153,62.982],[106.175,63.008],[106.127,63.077],[106.4,63.122],[106.398,63.182],[106.443,63.218],[106.356,63.256],[106.422,63.353],[106.622,63.312],[106.741,63.395],[106.503,63.537],[106.524,63.563],[106.602,63.558],[106.593,63.598],[106.66,63.622],[106.694,63.661],[106.612,63.722],[106.795,63.87],[106.73,63.912],[106.733,63.939],[106.629,63.974],[106.631,64.005],[106.675,64.037],[106.97,63.966],[107.043,63.922],[107.197,63.977],[107.303,63.973],[107.371,63.931],[107.339,63.904],[107.416,63.889],[107.454,63.917],[107.585,63.897],[107.632,63.93],[107.632,63.975],[107.761,64.015],[108.206,63.999],[108.315,64.006],[108.394,64.048],[108.248,64.255],[108.086,64.252],[108.049,64.192],[107.978,64.187],[107.642,64.316],[107.353,64.269],[107.274,64.303],[107.258,64.35],[107.105,64.359],[106.917,64.443],[106.738,64.429],[106.656,64.533],[106.58,64.548],[106.547,64.526],[106.576,64.481],[106.553,64.465],[106.256,64.452],[106.181,64.421],[106.094,64.432],[106.138,64.488],[106.025,64.546],[105.906,64.495],[105.763,64.497],[105.79,64.552],[105.717,64.591],[105.756,64.642],[105.7,64.679],[105.873,64.672],[105.829,64.781],[105.872,64.832],[105.992,64.828],[105.935,64.902],[106.033,64.913],[106.027,64.88],[106.058,64.865],[106.212,64.871],[105.959,65.037],[106.111,65.065],[106.194,65.128],[106.312,65.14],[106.411,65.222],[106.528,65.215],[106.436,65.251],[106.449,65.314],[106.615,65.39],[106.819,65.373],[106.973,65.505],[106.71,65.545],[106.705,65.607],[106.435,65.675],[106.464,65.733],[106.439,65.771],[106.495,65.797],[106.47,65.824],[106.498,65.883],[106.469,65.922],[106.522,66.004],[106.34,66.158],[106.202,66.154],[106.117,66.199],[106.141,66.249],[106.12,66.37],[106.335,66.47],[106.317,66.542],[106.391,66.489],[106.52,66.498],[106.762,66.424],[106.895,66.432],[106.921,66.48],[107.07,66.536],[107.24,66.456],[107.5,66.447],[107.603,66.491],[107.839,66.483],[107.885,66.451],[107.966,66.463],[107.982,66.416],[108.043,66.413],[108.106,66.44],[108.11,66.529],[108.387,66.642],[108.389,66.672],[108.27,66.714],[108.776,66.757],[108.803,66.806],[108.876,66.822],[108.982,66.753],[108.909,66.719],[108.863,66.64],[109.021,66.585],[109.203,66.606],[109.253,66.51],[109.232,66.465],[109.357,66.434],[109.385,66.388],[109.383,66.344],[109.277,66.316],[109.279,66.256],[109.352,66.232],[109.347,66.149],[109.452,66.146],[109.519,66.19],[109.672,66.194],[109.815,66.261],[109.958,66.262],[110.143,66.339],[110.375,66.367],[110.33,66.448],[110.52,66.461],[110.768,66.548],[111.103,66.559],[111.235,66.598],[111.36,66.567],[111.578,66.64],[111.737,66.657],[112.117,66.661],[112.207,66.609],[112.323,66.595],[112.503,66.627],[112.696,66.615],[112.759,66.569],[112.884,66.558],[112.942,66.488],[113.12,66.436],[113.185,66.383],[113.266,66.224],[113.314,66.21],[113.274,66.104],[113.452,66.032],[113.486,65.928],[113.403,65.894],[113.3,65.924],[113.054,65.925],[112.931,65.871],[112.869,65.784],[112.767,65.762],[112.67,65.677],[112.61,65.663],[112.621,65.607],[112.536,65.62],[112.478,65.569],[112.309,65.542],[112.33,65.49],[112.793,65.46],[112.749,65.366],[112.808,65.353],[112.78,65.273],[112.63,65.305],[112.532,65.268],[112.53,65.228],[112.576,65.188],[112.556,65.099],[112.66,65.044],[112.896,65.102],[113.039,65.081],[113.033,65.04],[113.11,64.979],[113.368,64.956],[113.409,64.83],[113.964,64.822],[114.063,64.745],[114.049,64.654],[114.124,64.633],[114.09,64.586],[114.13,64.561],[114.366,64.597],[114.443,64.67],[114.583,64.7],[114.605,64.628],[114.674,64.656],[114.683,64.706],[114.803,64.676],[114.816,64.697],[114.764,64.712],[114.747,64.754],[114.805,64.731],[114.849,64.76],[114.726,64.785],[114.748,64.823],[114.845,64.831],[114.826,64.874],[114.956,64.926],[115.416,64.95],[115.412,64.985],[115.264,65.018],[115.351,65.034],[115.348,65.065],[115.576,65.043],[115.564,65.097],[115.858,65.084],[115.902,65.156],[116.054,65.1],[116.097,65.111],[116.136,65.07],[116.338,65.099],[116.556,65.086],[116.542,65.057],[116.409,65.031],[116.497,65.0],[116.669,65.071],[116.708,65.061],[116.697,65.093],[116.729,65.114],[116.792,65.086],[116.798,65.116],[116.859,65.128],[116.859,65.171],[117.003,65.174],[116.991,65.205],[117.095,65.266],[117.256,65.281],[117.253,65.307],[117.314,65.326],[117.307,65.364],[117.368,65.374],[117.386,65.425],[117.421,65.428],[117.408,65.488],[117.368,65.513],[117.675,65.649],[117.687,65.705],[117.806,65.741],[117.835,65.795],[118.069,65.786],[118.018,65.836],[118.063,65.901],[118.042,65.976],[118.391,66.106],[118.376,66.176],[118.199,66.238],[118.1,66.32],[118.14,66.378],[118.298,66.414],[118.329,66.455],[118.393,66.434],[118.602,66.494],[118.715,66.487],[118.849,66.432],[118.832,66.463],[118.877,66.495],[119.076,66.537],[119.271,66.634],[119.152,66.707],[119.159,66.743],[119.059,66.839],[119.044,66.95],[119.116,66.911],[119.659,66.84],[119.98,66.703],[119.998,66.665],[120.054,66.665],[120.057,66.599],[120.195,66.55],[120.174,66.516],[120.222,66.485],[120.339,66.471],[120.33,66.425],[120.374,66.404],[120.343,66.352],[120.498,66.327],[120.503,66.244],[120.555,66.219],[120.478,66.14],[120.508,66.018],[120.589,65.949],[120.448,65.813],[120.49,65.762],[120.473,65.682],[120.575,65.646],[120.699,65.649],[120.698,65.617],[120.79,65.58],[120.905,65.587],[120.93,65.551],[121.033,65.536],[121.063,65.472],[121.105,65.455],[121.085,65.429],[121.128,65.403],[121.137,65.352],[121.232,65.335],[121.218,65.262],[121.516,65.226],[121.83,65.092],[122.31,64.975],[122.595,64.975],[122.744,64.866],[122.873,64.823],[123.005,64.879],[123.064,64.873],[123.382,64.744],[123.629,64.765],[123.922,64.721],[124.173,64.762],[124.22,64.856],[124.273,64.888],[124.479,64.931],[124.544,64.915],[124.609,64.961],[124.776,64.966],[124.851,65.028],[125.0,65.028],[124.946,65.089],[125.001,65.101],[125.042,65.223],[125.138,65.299],[125.276,65.328],[125.293,65.361],[125.786,65.327],[125.802,65.38],[125.985,65.443],[126.159,65.471],[126.303,65.475],[126.354,65.445],[126.518,65.46],[126.529,65.514],[126.631,65.585],[126.821,65.56],[127.02,65.613],[127.069,65.736],[127.043,65.771],[127.11,65.793],[127.111,65.822],[127.307,65.774],[127.39,65.858],[127.387,65.953],[127.584,65.954],[127.61,65.998],[127.593,66.043],[127.469,66.046],[127.373,66.111],[127.256,66.056],[127.152,66.082],[127.137,66.148],[126.988,66.148],[127.007,66.164],[126.976,66.313],[127.017,66.402],[127.183,66.485],[127.188,66.535],[127.351,66.592],[127.312,66.625],[127.325,66.652],[127.415,66.663],[127.5,66.618],[127.676,66.622],[127.812,66.555],[128.021,66.534],[128.07,66.475],[128.254,66.469],[128.391,66.5],[128.396,66.535],[128.454,66.559],[128.399,66.603],[128.521,66.657],[128.61,66.636],[128.617,66.604],[128.724,66.553],[129.164,66.546],[129.382,66.497],[129.462,66.523],[129.412,66.593],[129.753,66.489],[129.899,66.493],[130.02,66.541],[130.12,66.472],[130.054,66.421],[130.051,66.383],[130.102,66.321],[130.109,66.215],[130.435,66.203],[130.544,66.08],[130.848,65.971],[131.138,65.939],[131.134,65.881],[131.264,65.789],[131.353,65.795],[131.411,65.692],[131.71,65.697],[131.644,65.608],[131.652,65.567],[131.48,65.454],[131.527,65.44],[131.537,65.399],[131.606,65.39],[131.683,65.301],[131.843,65.296],[132.069,65.146],[132.168,64.964],[132.264,64.927],[132.27,64.855],[132.355,64.801],[132.354,64.731],[132.278,64.663],[132.46,64.607],[132.626,64.643],[132.618,64.612],[132.741,64.588],[132.878,64.626],[132.873,64.686],[132.995,64.729],[132.962,64.801],[133.012,64.844],[132.918,64.929],[132.959,64.991],[132.947,65.031],[132.992,65.065],[132.973,65.124],[133.021,65.174],[133.193,65.232],[133.224,65.275],[133.482,65.279],[133.632,65.212],[133.883,65.199],[133.946,65.227],[133.999,65.304],[134.147,65.323],[134.322,65.411],[134.469,65.37],[134.494,65.403],[134.47,65.433],[134.52,65.502],[134.671,65.554],[134.715,65.595],[134.698,65.644],[134.741,65.645],[134.763,65.689],[134.832,65.692],[134.865,65.764],[135.079,65.759],[135.374,65.802],[135.438,65.85],[135.437,65.892],[135.487,65.904],[135.74,65.889],[135.752,65.958],[135.843,65.972],[135.862,66.003],[136.015,66.006],[136.109,66.088],[136.369,66.181],[136.854,66.193],[136.878,66.157],[136.95,66.153],[137.008,66.11],[137.276,66.097],[137.316,66.049],[137.523,66.054],[137.709,65.967],[138.017,65.962],[138.11,65.997],[138.224,65.936],[138.683,65.941],[139.018,66.01],[139.261,66.018],[139.526,65.967],[139.827,65.845],[139.987,65.832],[140.177,65.875],[140.329,65.825],[140.391,65.796],[140.385,65.775],[140.217,65.684],[140.19,65.628],[140.367,65.549],[140.508,65.559],[140.669,65.523],[140.724,65.557],[140.98,65.538],[141.053,65.566],[141.148,65.509],[141.329,65.485],[141.345,65.458],[141.418,65.471],[141.453,65.443],[141.842,65.462],[141.879,65.399],[142.085,65.391],[142.101,65.36],[142.905,65.312],[142.976,65.252],[142.988,65.167],[143.353,65.152],[143.533,65.112],[143.534,65.066],[143.661,65.07],[143.79,65.029],[143.898,65.051],[144.039,65.019],[144.248,65.024],[144.351,64.886],[144.529,64.862],[144.69,64.77],[144.658,64.72],[144.53,64.654],[144.705,64.607],[144.782,64.554],[144.921,64.569],[144.991,64.531],[145.139,64.538],[145.291,64.439],[145.491,64.451],[145.667,64.409],[145.739,64.435],[145.863,64.397],[145.878,64.344],[146.046,64.285],[146.152,64.195],[146.358,64.183],[146.32,64.087],[146.212,64.044],[146.172,63.978],[146.107,63.946],[145.552,63.831],[145.616,63.778],[145.635,63.672],[145.448,63.531],[145.42,63.436],[145.357,63.331],[145.273,63.268],[145.247,63.191],[145.293,63.105],[145.266,63.021],[145.36,62.909],[145.321,62.753],[145.418,62.654],[145.385,62.609],[145.469,62.552],[145.374,62.513],[145.272,62.537],[145.122,62.494],[145.17,62.439],[145.145,62.381],[145.17,62.338],[145.121,62.308],[145.157,62.28],[145.061,62.239],[144.978,62.249],[144.991,62.177],[144.76,62.124],[144.714,62.08],[144.745,62.042],[144.946,62.058],[145.167,61.96],[145.294,61.987],[145.485,61.951],[145.721,62.055],[145.799,62.004],[145.891,62.02],[146.344,61.827],[146.361,61.767],[146.502,61.657],[146.576,61.636],[146.573,61.533],[146.621,61.481],[146.611,61.431],[146.756,61.398],[146.678,61.313],[146.744,61.213],[146.737,61.103],[146.661,61.067],[146.72,61.014],[146.697,60.964],[146.483,60.937],[146.496,60.842],[146.443,60.764],[146.47,60.729],[146.402,60.672],[146.31,60.666],[146.16,60.738],[146.058,60.742],[146.028,60.704],[145.893,60.663],[145.871,60.619],[145.742,60.611],[145.618,60.562],[145.605,60.525],[145.51,60.481],[145.52,60.419],[145.626,60.386],[145.564,60.348],[145.611,60.287],[145.791,60.193],[146.372,60.266],[146.457,60.181],[146.452,60.127],[146.67,60.099],[146.674,60.031],[146.641,59.987],[146.725,59.958],[146.774,59.902],[147.024,59.934],[147.133,59.849],[147.098,59.806],[147.141,59.748],[147.082,59.691],[147.15,59.644],[147.124,59.509],[147.091,59.423],[146.923,59.401],[146.882,59.362],[147.056,59.358],[147.198,59.308],[147.272,59.327],[147.428,59.256],[147.386,59.233],[147.262,59.283],[147.192,59.263],[147.045,59.313],[146.712,59.332],[146.609,59.397],[146.45,59.411],[146.369,59.376],[146.373,59.276],[146.054,59.251],[145.974,59.093],[145.906,59.17],[145.786,59.21],[145.801,59.318],[145.661,59.373],[145.008,59.32],[143.899,59.369],[143.55,59.28],[143.404,59.274],[143.198,59.322],[143.023,59.276],[142.846,59.273],[142.358,59.141],[141.924,58.941],[141.591,58.728],[141.348,58.5],[140.587,58.239],[140.042,57.659],[139.298,57.339],[127.669,60.796],[124.127,59.982],[119.598,57.269],[119.549,57.344],[119.451,57.372],[119.412,57.428],[119.417,57.498],[119.476,57.534],[119.49,57.596],[119.32,57.615],[119.198,57.51],[119.15,57.534],[119.16,57.697],[119.051,57.74],[119.165,58.041],[119.156,58.162],[119.111,58.227],[118.784,58.218],[118.633,58.18],[118.399,58.271],[118.319,58.357],[118.142,58.391],[118.07,58.346],[117.996,58.399],[117.835,58.413],[117.667,58.4],[117.478,58.318],[117.468,58.28],[117.581,58.178],[117.563,58.145],[117.437,58.157],[117.404,58.129],[117.361,57.995],[117.365,57.926],[117.394,57.906],[117.311,57.852],[117.127,57.846],[117.081,57.812],[117.166,57.737],[117.138,57.638],[117.283,57.607],[117.25,57.512],[117.324,57.447],[117.362,57.325],[117.438,57.326],[117.429,57.251],[117.543,57.256],[117.599,57.315],[117.786,57.287],[117.741,57.201],[117.596,57.152],[117.67,57.063],[117.669,56.982],[117.572,56.938],[117.567,56.86],[117.497,56.874],[117.448,56.825],[117.355,56.873],[117.337,56.949],[117.187,56.88],[117.131,56.81],[117.029,56.817],[117.01,56.781],[116.807,56.73],[116.737,56.765],[116.571,56.762],[116.363,56.852],[116.126,56.817],[115.729,56.972],[115.808,57.027],[116.243,57.152],[116.133,57.243],[115.863,57.248],[115.678,57.136],[115.371,57.097],[115.084,57.123],[115.02,57.039],[115.042,56.989],[114.842,56.835],[114.833,56.759],[114.778,56.705],[114.499,56.706],[114.496,56.676],[114.442,56.66],[114.29,56.697],[114.144,56.686],[114.08,56.617],[113.994,56.589],[114.002,56.547],[113.899,56.531],[113.805,56.607],[113.515,56.684],[113.368,56.632],[112.899,56.696],[112.877,56.731],[112.751,56.766],[112.705,56.862],[112.75,56.936],[112.663,56.965],[112.549,56.934],[112.457,56.869],[112.235,56.883],[112.11,56.949],[111.915,56.95],[111.818,56.913],[111.716,56.995],[111.637,57.016],[111.622,57.102],[111.587,57.112],[111.46,57.107],[111.332,56.957],[111.368,56.905],[111.242,56.876],[111.162,56.82],[110.99,56.864],[110.884,56.839],[110.753,56.879],[110.6,56.835],[110.538,56.851],[110.53,56.888],[110.341,56.942],[110.233,56.93],[110.084,56.98],[109.995,56.975],[109.882,56.893],[109.855,56.831],[109.876,56.792],[109.764,56.709],[109.409,56.74],[109.305,56.673],[109.142,56.681],[109.054,56.624],[108.975,56.641],[108.926,56.593],[108.697,56.588],[108.668,56.562],[108.721,56.512],[108.553,56.348],[108.573,56.282],[108.8,56.251],[108.919,56.152],[108.907,56.097],[108.989,56.035],[109.25,55.974],[109.178,55.918],[108.957,55.946],[108.838,55.854],[108.768,55.628],[108.676,55.593],[108.687,55.526],[108.617,55.45],[108.662,55.402],[108.648,55.298],[108.773,55.224],[108.746,55.108],[108.685,55.063],[108.699,54.975],[108.749,54.931],[108.69,54.891],[108.712,54.86],[108.692,54.679],[108.553,54.542],[109.032,54.478],[108.419,53.786],[108.058,53.21],[106.196,52.445],[105.987,52.223],[105.75,52.036],[105.459,51.868],[105.122,51.736],[104.647,51.627],[104.624,51.443],[104.665,51.397],[104.664,51.341],[104.61,51.276],[104.489,51.315],[104.211,51.286],[103.826,51.14],[103.82,51.405],[103.577,51.484],[103.328,51.444],[103.189,51.612],[103.212,51.813],[102.774,51.993],[102.683,52.099],[102.579,52.152],[102.544,52.232],[102.413,52.267],[102.322,52.236],[102.176,52.282],[102.102,52.268],[102.044,52.217],[101.965,52.227],[101.903,52.284],[101.914,52.321],[101.685,52.413],[101.691,52.464],[101.488,52.565],[101.462,52.625],[101.312,52.649],[101.033,52.774],[100.87,52.804],[100.83,52.861],[100.625,52.938],[100.397,53.106],[100.367,53.163],[100.417,53.198],[100.406,53.236],[100.296,53.317],[100.262,53.38],[100.197,53.379],[100.08,53.306],[99.867,53.302],[99.837,53.259],[99.868,53.208],[99.689,53.137],[99.368,53.114],[99.351,53.037],[99.241,52.962],[98.994,53.038],[99.069,53.1],[98.939,53.154],[98.862,53.13],[98.687,53.16],[98.606,53.11],[98.347,53.098],[98.293,53.126],[98.292,53.228],[98.032,53.258],[97.978,53.295],[97.959,53.363],[97.607,53.378],[97.589,53.442],[97.452,53.467],[97.33,53.601],[97.129,53.618],[96.876,53.734],[96.725,53.71],[96.689,53.648],[96.5,53.69],[96.489,53.734],[96.406,53.765],[96.343,53.842],[96.076,53.993],[96.099,54.069],[95.947,54.105],[95.809,54.233],[95.75,54.221],[95.659,54.271],[95.58,54.244],[95.533,54.286],[95.474,54.263],[95.286,54.342],[95.051,54.3],[94.952,54.322],[94.882,54.398],[94.74,54.451],[94.723,54.51],[94.617,54.51],[94.519,54.555],[94.373,54.477],[94.312,54.544],[94.001,54.641],[93.955,54.61],[93.848,54.642],[93.713,54.6],[93.648,54.633],[93.66,54.683],[93.535,54.733],[93.472,54.818],[93.338,54.843],[93.292,54.885],[93.224,54.851],[93.063,54.921],[92.92,54.886],[92.867,54.93],[92.772,54.945],[92.36,54.935],[92.326,54.882],[92.232,54.87],[92.261,54.829],[92.224,54.77],[92.07,54.833],[91.989,54.836],[91.939,54.797],[91.762,54.877],[91.599,54.9],[91.568,54.85],[91.672,54.787],[91.543,54.771],[91.55,54.745],[91.433,54.667],[91.137,54.663],[91.062,54.69],[90.965,54.64],[91.255,54.503],[91.242,54.424],[91.304,54.331],[91.412,54.277],[91.572,54.085],[91.544,53.998],[91.439,53.897],[91.468,54.059],[91.255,54.279],[91.163,54.491],[90.864,54.63],[90.918,54.795],[90.842,54.844],[90.727,54.838],[90.686,54.91],[90.464,54.878],[90.488,54.929],[90.439,55.02],[90.239,55.067],[90.242,55.108],[90.197,55.156],[90.123,55.109],[89.903,55.091],[89.662,55.01],[89.567,55.063],[89.445,55.043],[89.395,54.98],[89.348,55.005],[89.206,54.996],[89.15,55.081],[89.052,55.09],[89.072,55.134],[88.973,55.188],[88.953,55.293],[88.763,55.35],[88.608,55.45],[88.388,55.261],[88.482,55.183],[88.546,55.078],[88.545,55.013],[88.669,54.958],[88.664,54.874],[88.738,54.888],[88.751,54.819],[88.715,54.77],[88.626,54.749],[88.576,54.579],[88.598,54.528],[88.528,54.428],[88.372,54.392],[88.535,54.336],[88.571,54.282],[88.846,54.41],[88.954,54.362],[88.948,54.318],[89.003,54.285],[89.071,54.331],[89.159,54.338],[89.185,54.316],[89.173,54.274],[89.213,54.251],[89.174,54.197],[89.184,54.153],[89.016,54.112],[88.977,54.065],[89.062,53.951],[89.204,53.938],[89.178,53.869],[89.26,53.845],[89.179,53.786],[89.029,53.757],[88.999,53.672],[88.834,53.592],[88.87,53.546],[88.858,53.481],[88.756,53.365],[88.808,53.343],[88.897,53.38],[89.044,53.248],[89.001,53.192],[89.041,53.131],[88.905,53.036],[88.89,52.987],[89.065,52.948],[89.116,52.913],[89.108,52.863],[89.175,52.862],[89.226,52.812],[89.142,52.736],[89.038,52.709],[89.109,52.602],[88.666,52.352],[88.661,52.329],[88.713,52.308],[88.678,52.256],[88.377,52.174],[88.37,52.306],[88.43,52.356],[88.422,52.459],[88.207,52.42],[87.924,52.553],[87.638,52.455],[87.58,52.492],[87.383,52.513],[87.351,52.6],[87.179,52.591],[87.118,52.673],[86.952,52.64],[86.848,52.656],[86.612,52.386],[86.803,52.285],[86.775,52.232],[86.817,52.161],[86.772,52.119],[86.497,52.123],[86.448,52.034],[86.369,52.015],[86.221,52.026],[86.15,52.075],[85.919,52.077],[85.832,51.985],[85.864,51.92],[85.736,51.863],[85.773,51.841],[85.734,51.741],[85.669,51.759],[85.534,51.704],[85.466,51.572],[85.292,51.57],[85.295,51.513],[85.231,51.474],[85.154,51.501],[85.006,51.494],[84.923,51.429],[84.714,51.404],[84.395,51.272],[84.278,51.288],[84.144,51.126],[84.0,51.129],[84.016,51.059],[84.501,50.956],[84.528,50.874],[84.602,50.841],[84.538,50.696],[84.456,50.708],[84.084,50.637],[84.189,50.512],[84.172,50.438],[84.234,50.344],[84.246,50.257],[84.331,50.208],[84.443,50.238],[84.534,50.186],[84.788,50.127],[84.837,50.076],[84.975,50.069],[85.023,50.015],[84.951,49.993],[84.95,49.905],[85.055,49.867],[85.078,49.797],[85.179,49.704],[85.221,49.591],[85.384,49.61],[85.476,49.578],[85.608,49.613],[85.672,49.556],[85.745,49.568],[85.809,49.532],[85.931,49.555],[85.945,49.477],[86.072,49.521],[86.178,49.458],[86.275,49.578],[86.478,49.667],[86.484,49.707],[86.611,49.788],[86.744,49.778],[86.754,49.696],[86.663,49.67],[86.587,49.585],[86.641,49.543],[86.73,49.546],[86.815,49.508],[86.81,49.447],[86.921,49.389],[86.909,49.336],[86.987,49.289],[85.843,48.414],[85.747,48.39],[85.603,48.232],[85.383,48.148],[83.13,48.282],[84.267,49.205],[81.479,50.291],[78.65,50.807],[74.921,54.149],[72.992,55.307],[64.687,54.272],[64.456,53.58],[63.04,51.179],[62.258,51.065],[62.154,51.115],[62.033,51.072],[61.963,51.133],[61.929,51.242],[61.875,51.301],[61.811,51.274],[61.597,51.282],[61.475,51.431],[61.033,51.487],[60.95,51.545],[60.938,51.616],[60.512,51.624],[60.486,51.656],[60.361,51.68],[60.48,51.773],[60.454,51.81],[60.139,51.894],[60.093,51.86],[60.045,51.874],[59.992,51.954],[60.03,52.003],[59.919,52.098],[59.967,52.171],[60.154,52.275],[60.139,52.434],[59.936,52.435],[59.81,52.502],[59.685,52.433],[59.676,52.462],[59.515,52.441],[59.41,52.498],[59.272,52.499],[59.244,52.489],[59.174,52.284],[58.984,52.375],[58.979,52.435],[58.794,52.454],[58.775,52.514],[58.843,52.541],[58.809,52.597],[58.731,52.638],[58.789,52.724],[58.756,52.862],[58.848,53.003],[59.033,53.014],[58.999,53.057],[58.911,53.062],[58.896,53.191],[58.828,53.215],[58.834,53.286],[58.87,53.319],[58.873,53.498],[58.907,53.549],[58.834,53.564],[58.826,53.591],[58.912,53.653],[58.878,53.75],[58.952,53.898],[58.929,53.933],[58.959,53.969],[59.157,53.98],[59.325,54.177],[59.535,54.192],[59.673,54.129],[59.733,54.135],[59.734,54.193],[59.808,54.255],[59.78,54.305],[59.681,54.341],[59.751,54.447],[59.686,54.498],[59.874,54.61],[59.979,54.794],[59.93,54.832],[59.947,54.862],[59.809,54.851],[59.631,54.916],[59.409,54.712],[59.23,54.617],[59.06,54.637],[58.806,54.572],[58.617,54.476],[58.353,54.551],[58.204,54.52],[57.962,54.398],[57.749,54.505],[57.751,54.583],[57.586,54.638],[57.584,54.678],[57.527,54.673],[57.162,54.834],[57.249,54.951],[57.15,55.051],[57.146,55.096],[57.244,55.154],[57.228,55.212],[57.261,55.252],[57.434,55.322],[57.916,55.288],[58.131,55.212],[58.05,55.169],[57.959,55.169],[58.025,55.075],[58.016,55.005],[57.957,54.947],[58.0,54.912],[58.11,54.954],[58.096,55.018],[58.198,55.083],[58.148,55.111],[58.299,55.168],[58.369,55.15],[58.36,55.082],[58.422,55.055],[58.384,54.996],[58.519,55.017],[58.549,54.948],[58.621,54.945],[58.818,55.021],[58.764,55.113],[58.583,55.157],[58.663,55.184],[58.701,55.144],[58.747,55.151],[58.808,55.215],[58.73,55.252],[58.925,55.275],[58.874,55.318],[58.967,55.307],[58.962,55.246],[58.999,55.24],[59.163,55.328],[59.203,55.444],[59.476,55.463],[59.646,55.563],[59.629,55.596],[59.502,55.585],[59.437,55.638],[59.246,55.589],[59.349,55.645],[59.287,55.696],[59.316,55.779],[59.161,55.805],[59.208,55.833],[59.194,55.868],[59.235,55.905],[59.182,56.004],[59.285,56.051],[59.299,56.135],[59.025,56.174],[58.952,56.076],[58.826,56.059],[58.736,56.072],[58.565,56.167],[58.453,56.152],[58.353,56.064],[58.301,56.119],[58.08,56.146],[57.91,56.121],[57.802,56.156],[57.54,56.105],[57.46,56.135],[57.483,56.18],[57.416,56.239],[57.408,56.334],[57.264,56.306],[57.252,56.252],[57.166,56.166],[56.896,56.106],[56.776,56.173],[56.74,56.228],[56.65,56.227],[56.627,56.265],[56.575,56.269],[56.512,56.32],[56.563,56.359],[56.529,56.388],[56.392,56.393],[56.265,56.306],[56.073,56.295],[55.961,56.381],[55.913,56.471],[55.862,56.438],[55.547,56.404],[55.413,56.34],[55.255,56.341],[55.224,56.369],[55.172,56.323],[55.104,56.349],[54.968,56.326],[54.933,56.391],[54.747,56.444],[54.559,56.543],[54.425,56.346],[54.317,56.348],[54.363,56.297],[54.342,56.258],[54.115,56.163],[54.004,56.035],[53.836,56.043],[53.783,55.98],[53.668,55.963],[53.627,55.909],[53.745,55.862],[53.868,55.88],[53.981,55.843],[53.963,55.778],[54.033,55.798],[54.024,55.759],[54.096,55.766],[54.216,55.691],[54.176,55.632],[54.0,55.558],[53.906,55.399],[53.711,55.338],[53.594,55.258],[53.585,55.216],[53.418,55.227],[53.325,55.171],[53.142,55.148],[53.138,55.095],[53.254,55.049],[53.262,55.009],[53.41,54.985],[53.497,54.887],[53.623,54.889],[53.574,54.823],[53.599,54.715],[53.413,54.563],[53.42,54.501],[53.344,54.392],[53.357,54.33],[53.424,54.265],[53.459,54.046],[53.372,53.978],[53.26,54.076],[53.186,54.099],[53.082,54.077],[53.091,54.118],[52.95,54.21],[53.111,54.244],[53.111,54.289],[53.047,54.343],[53.0,54.316],[52.999,54.276],[52.928,54.275],[52.937,54.309],[52.772,54.352],[52.63,54.348],[52.539,54.382],[52.505,54.328],[52.28,54.333],[52.204,54.307],[52.344,54.214],[52.338,54.18],[52.257,54.152],[52.268,54.115],[52.394,54.123],[52.477,54.062],[52.371,53.983],[52.406,53.929],[52.249,53.658],[52.178,53.564],[52.099,53.552],[52.075,53.516],[52.09,53.462],[52.186,53.371],[52.138,53.299],[52.157,53.259],[52.123,53.179],[52.054,53.138],[52.15,53.106],[52.06,53.079],[52.048,52.997],[51.866,52.934],[51.805,52.881],[51.725,52.873],[51.713,52.824],[51.766,52.792],[51.725,52.671],[51.536,52.68],[51.505,52.631],[51.537,52.58],[51.473,52.581],[51.466,52.527],[51.554,52.447],[51.468,52.419],[51.463,52.374],[51.408,52.352],[51.402,52.255],[51.447,52.221],[51.412,52.108],[50.895,51.856],[50.741,51.746],[50.789,51.624],[50.763,51.584],[50.677,51.572],[50.697,51.615],[50.579,51.639],[50.57,51.592],[50.521,51.567],[50.521,51.471],[50.356,51.417],[50.323,51.308],[49.985,51.235],[49.776,51.107],[49.434,51.117],[49.342,50.965],[49.416,50.885],[49.403,50.851],[49.142,50.786],[48.831,50.601],[48.581,50.653],[48.57,50.613],[48.669,50.575],[48.696,50.334],[48.783,50.175],[48.778,50.109],[48.851,50.091],[48.88,50.033],[48.78,49.937],[48.437,49.819],[48.243,49.87],[47.997,50.186],[47.628,50.445],[47.556,50.457],[47.431,50.383],[47.245,50.376],[47.208,50.513],[46.922,50.496],[46.92,50.527],[46.877,50.532],[46.874,50.581],[46.816,50.586],[46.861,50.645],[46.774,50.649],[46.719,50.716],[46.628,50.686],[46.581,50.716],[46.561,50.629],[46.538,50.649],[46.459,50.625],[46.444,50.553],[46.277,50.578],[46.269,50.533],[46.079,50.531],[46.096,50.669],[45.894,50.755],[45.743,50.762],[45.674,50.666],[45.702,50.579],[45.741,50.586],[45.888,50.438],[45.876,50.345],[45.737,50.311],[45.416,50.033],[45.341,49.893],[45.336,49.797],[45.029,49.395],[44.917,49.079],[44.664,48.872],[44.65,48.817],[44.54,48.717],[44.512,48.622],[44.638,48.592],[44.602,48.566],[44.674,48.521],[44.673,48.465],[44.411,48.518],[44.343,48.621],[44.295,48.606],[44.282,48.49],[44.216,48.497],[44.173,48.537],[44.23,48.58],[44.162,48.579],[44.119,48.632],[43.942,48.684],[43.949,48.728],[43.882,48.764],[43.896,48.791],[43.786,48.893],[43.795,48.929],[43.719,48.951],[43.752,48.967],[43.744,48.994],[43.62,49.021],[43.631,49.089],[43.407,49.178],[43.392,49.293],[43.55,49.466],[43.617,49.475],[43.637,49.531],[43.779,49.524],[43.789,49.574],[43.894,49.572],[43.886,49.628],[43.965,49.598],[43.997,49.646],[44.103,49.649],[44.164,49.712],[44.153,49.77],[44.276,49.827],[44.15,49.909],[44.262,50.009],[44.197,50.07],[44.206,50.101],[44.002,50.13],[44.008,50.188],[43.938,50.228],[43.833,50.215],[43.846,50.183],[43.806,50.149],[43.692,50.159],[43.694,50.084],[43.589,50.048],[43.533,49.903],[43.44,49.908],[43.369,49.832],[43.275,49.832],[43.177,49.891],[42.986,49.854],[42.906,49.911],[42.896,49.989],[42.668,50.105],[42.743,50.167],[42.71,50.186],[42.717,50.23],[42.763,50.222],[42.787,50.261],[42.865,50.249],[42.935,50.343],[43.025,50.283],[43.203,50.358],[43.298,50.302],[43.336,50.352],[43.453,50.377],[43.421,50.396],[43.417,50.449],[43.376,50.441],[43.328,50.498],[43.235,50.524],[43.024,50.505],[43.02,50.536],[42.961,50.558],[42.952,50.643],[42.827,50.693],[42.903,50.731],[42.905,50.764],[42.843,50.813],[42.888,50.844],[42.875,50.883],[42.981,50.955],[43.126,50.974],[43.167,51.108],[42.856,51.25],[42.686,51.246],[42.553,51.15],[42.174,51.141],[41.943,51.202],[41.854,51.162],[41.758,51.017],[41.471,50.956],[41.424,50.918],[41.413,50.843],[41.165,50.779],[41.343,50.708],[41.446,50.602],[41.516,50.601],[41.525,50.578],[41.416,50.499],[41.515,50.363],[41.383,50.212],[41.349,50.219],[41.284,50.165],[41.369,50.124],[41.377,50.086],[41.08,49.949],[41.037,49.807],[40.919,49.706],[40.635,49.678],[40.537,49.583],[40.16,49.648],[40.13,49.589],[39.998,49.613],[39.804,49.547],[39.626,49.618],[39.559,49.729],[39.265,49.748],[39.157,49.878],[39.046,49.815],[38.939,49.809],[38.855,49.87],[38.692,49.917],[38.666,49.97],[38.499,49.953],[38.36,49.986],[38.301,50.065],[38.173,50.065],[38.16,49.945],[38.019,49.913],[38.064,49.845],[37.997,49.826],[38.031,49.784],[37.935,49.728],[37.993,49.712],[37.996,49.663],[37.94,49.598],[37.956,49.522],[37.856,49.424],[37.881,49.311],[37.922,49.293],[37.842,49.232],[37.888,49.187],[35.982,48.981],[35.937,49.004],[35.807,48.945],[35.801,48.881],[35.633,48.886],[35.67,48.788],[35.517,48.681],[35.459,48.542],[35.328,48.512],[35.361,48.458],[35.318,48.433],[35.302,48.496],[35.169,48.586],[35.187,48.644],[35.221,48.655],[35.17,48.667],[35.165,48.736],[35.068,48.76],[35.004,48.701],[34.947,48.75],[34.96,48.797],[34.927,48.792],[34.892,48.839],[34.839,48.827],[34.797,48.765],[34.741,48.866],[34.793,48.915],[34.676,49.101],[34.626,49.128],[34.556,49.061],[34.398,49.097],[34.406,49.059],[34.321,49.0],[34.341,48.98],[34.295,48.895],[34.333,48.856],[34.293,48.823],[34.3,48.743],[34.135,48.786],[34.125,48.825],[34.023,48.87],[33.82,48.942],[33.702,48.95],[33.666,48.983],[33.561,48.917],[33.477,48.957],[33.378,48.947],[33.313,48.994],[33.352,49.036],[33.291,49.086],[33.308,49.122],[33.236,49.17],[33.243,49.093],[33.203,49.083],[33.015,49.281],[32.755,49.484],[32.712,49.559],[32.665,49.537],[32.68,49.402],[32.631,49.382],[32.115,49.541],[31.914,49.561],[31.476,49.825],[31.432,49.916],[31.439,49.997],[31.342,50.0],[31.263,49.946],[31.195,49.956],[30.404,50.232],[30.399,50.283],[30.478,50.334],[30.47,50.365],[30.334,50.38],[30.219,50.338],[30.394,50.714],[30.459,50.759],[30.556,51.258],[30.619,51.282],[30.614,51.321],[30.661,51.343],[30.626,51.432],[30.589,51.44],[30.628,51.467],[30.578,51.516],[30.589,51.549],[30.546,51.553],[30.559,51.58],[30.534,51.595],[30.584,51.643],[30.576,51.699],[30.629,51.71],[30.708,51.86],[30.941,51.994],[30.952,52.071],[31.132,52.077],[31.253,52.039],[31.406,52.137],[31.77,52.106],[31.767,52.153],[31.688,52.206],[31.703,52.255],[31.581,52.308],[31.614,52.355],[31.593,52.484],[31.562,52.508],[31.579,52.543],[31.396,52.889],[31.263,53.014],[31.368,53.086],[31.383,53.177],[31.594,53.205],[31.735,53.188],[31.795,53.108],[32.118,53.076],[32.408,53.188],[32.484,53.273],[32.463,53.295],[32.72,53.331],[32.724,53.441],[32.431,53.567],[32.405,53.629],[32.492,53.666],[32.463,53.712],[32.083,53.815],[31.874,53.782],[31.757,53.8],[31.843,53.961],[31.826,54.057],[31.329,54.233],[31.213,54.452],[31.076,54.497],[31.172,54.625],[30.773,54.792],[30.831,54.876],[30.825,54.927],[30.94,54.97],[30.916,55.017],[31.01,55.022],[30.964,55.166],[30.802,55.288],[30.923,55.386],[30.888,55.455],[30.924,55.491],[30.911,55.584],[30.965,55.669],[30.6,55.695],[30.583,55.729],[30.479,55.764],[30.471,55.798],[30.219,55.86],[30.107,55.827],[29.881,55.84],[29.147,56.017],[28.987,56.02],[28.619,56.095],[28.069,56.722],[28.016,56.593],[27.985,56.69],[27.875,56.741],[27.918,56.822],[27.821,56.872],[27.733,57.034],[27.747,57.072],[27.692,57.099],[27.774,57.137],[27.726,57.195],[27.721,57.449],[27.532,57.412],[27.511,57.612],[27.582,58.305],[27.82,58.485],[27.754,58.884],[27.655,58.848],[27.664,58.934]],[[75.176,55.46],[75.093,55.382],[75.256,55.26],[75.25,55.134],[75.387,55.037],[75.333,54.916],[75.518,54.9],[75.496,54.833],[75.65,54.803],[75.699,54.69],[75.788,54.696],[75.825,54.614],[75.791,54.561],[75.68,54.532],[75.688,54.109],[76.186,54.247],[76.176,54.291],[76.219,54.338],[76.477,54.318],[76.626,54.352],[76.673,54.431],[76.896,54.458],[76.886,54.429],[76.749,54.38],[76.829,54.342],[76.833,54.3],[76.666,54.141],[76.413,54.171],[76.37,54.145],[76.523,53.957],[77.609,53.439],[77.784,53.323],[77.849,53.381],[77.94,53.385],[77.94,53.441],[78.062,53.462],[78.051,53.5],[77.932,53.506],[77.931,53.558],[77.966,53.572],[78.202,53.607],[78.242,53.496],[78.377,53.483],[78.625,53.521],[78.609,53.616],[78.664,53.65],[79.246,53.675],[79.378,53.715],[79.425,53.686],[79.573,53.728],[79.676,53.825],[79.865,53.853],[79.873,53.929],[80.046,53.997],[80.126,54.068],[80.206,54.038],[80.422,54.122],[80.489,54.105],[80.584,54.197],[80.649,54.196],[80.763,54.262],[80.841,54.253],[80.812,54.332],[80.922,54.388],[80.99,54.261],[81.099,54.208],[81.113,54.138],[81.471,54.066],[81.57,54.014],[81.552,53.931],[81.713,53.993],[81.847,53.964],[81.841,53.903],[81.721,53.841],[81.832,53.709],[81.966,53.714],[82.112,53.656],[82.203,53.688],[82.171,53.598],[82.249,53.588],[82.487,53.464],[82.605,53.504],[82.553,53.558],[82.668,53.692],[82.767,53.755],[82.746,53.789],[83.188,54.059],[83.248,54.044],[83.294,54.076],[83.407,53.936],[83.505,53.99],[83.495,54.079],[83.571,54.122],[83.899,54.133],[83.906,54.09],[84.265,54.21],[84.287,54.167],[84.388,54.183],[84.459,54.137],[84.567,54.187],[84.591,54.249],[84.696,54.333],[85.084,54.469],[84.961,54.6],[85.048,54.665],[84.961,54.736],[85.014,54.759],[85.081,54.87],[84.89,54.986],[84.921,55.166],[84.83,55.243],[84.871,55.293],[84.879,55.392],[84.662,55.409],[84.765,55.451],[84.735,55.497],[84.776,55.541],[84.705,55.673],[84.558,55.724],[84.636,55.774],[84.602,55.802],[84.609,55.845],[84.512,55.875],[84.517,55.951],[84.577,55.962],[84.53,56.047],[84.409,56.049],[84.348,55.99],[84.218,56.06],[83.968,56.019],[83.905,55.918],[83.765,55.877],[83.643,55.707],[83.486,55.714],[83.422,55.688],[83.434,55.728],[83.403,55.74],[83.3,55.693],[83.233,55.746],[83.278,55.779],[83.294,55.842],[83.362,55.84],[83.412,55.902],[83.357,55.973],[83.237,56.044],[83.289,56.108],[83.13,56.138],[83.149,56.19],[83.222,56.212],[83.17,56.242],[83.083,56.231],[83.206,56.337],[83.161,56.377],[83.261,56.439],[83.087,56.557],[82.995,56.513],[82.812,56.528],[82.826,56.448],[82.762,56.417],[82.689,56.433],[82.45,56.406],[82.342,56.361],[81.944,56.344],[81.54,56.265],[81.428,56.378],[81.217,56.512],[81.123,56.538],[80.312,56.444],[80.252,56.459],[79.592,56.933],[78.459,57.124],[78.445,57.166],[76.919,57.193],[76.107,57.255],[76.191,56.967],[76.244,56.91],[76.278,56.73],[76.144,56.636],[76.045,56.624],[76.009,56.556],[75.864,56.505],[75.841,56.461],[75.884,56.438],[75.938,56.472],[76.052,56.474],[76.127,56.448],[76.075,56.41],[76.107,56.321],[76.279,56.243],[76.31,56.195],[76.172,56.16],[75.999,56.183],[75.94,56.135],[75.775,56.149],[75.693,56.074],[75.548,56.053],[75.315,55.9],[75.289,55.86],[75.365,55.807],[75.349,55.773],[75.217,55.747],[75.085,55.763],[75.219,55.658],[75.128,55.601],[75.316,55.539],[75.307,55.505],[75.176,55.46]]],[[[52.188,72.129],[52.2,72.083],[52.409,72.086],[52.373,72.165],[52.49,72.164],[52.41,72.222],[52.484,72.21],[52.491,72.244],[52.416,72.287],[52.587,72.264],[52.576,72.282],[52.684,72.322],[52.672,72.355],[52.868,72.347],[52.698,72.367],[52.682,72.445],[52.82,72.45],[52.684,72.483],[52.869,72.519],[52.925,72.575],[53.102,72.601],[52.737,72.559],[52.812,72.614],[52.755,72.637],[52.91,72.666],[52.574,72.671],[52.38,72.735],[52.616,72.863],[53.093,72.914],[53.16,72.954],[53.144,73.011],[53.298,73.034],[53.13,73.099],[53.188,73.172],[53.322,73.221],[53.561,73.235],[53.754,73.299],[54.191,73.272],[54.535,73.377],[54.934,73.425],[55.304,73.339],[55.759,73.328],[56.436,73.23],[56.58,73.133],[56.488,73.117],[56.357,72.954],[56.304,72.949],[56.271,72.857],[56.137,72.782],[55.821,72.753],[55.931,72.672],[55.701,72.691],[55.668,72.674],[55.72,72.638],[55.623,72.621],[55.677,72.57],[55.556,72.542],[55.495,72.315],[55.519,72.239],[55.573,72.197],[55.486,72.096],[55.493,72.029],[55.424,71.985],[55.547,71.929],[55.576,71.803],[55.708,71.647],[56.151,71.271],[56.323,71.166],[57.141,70.855],[57.311,70.81],[57.464,70.818],[57.544,70.765],[57.544,70.736],[57.433,70.744],[57.537,70.699],[57.393,70.613],[56.741,70.703],[56.853,70.648],[57.153,70.638],[57.312,70.567],[56.597,70.675],[56.672,70.639],[56.65,70.63],[56.526,70.665],[56.509,70.716],[56.23,70.725],[56.286,70.712],[56.199,70.709],[56.283,70.683],[56.22,70.668],[56.238,70.653],[56.362,70.647],[56.384,70.661],[56.364,70.68],[56.434,70.676],[56.509,70.648],[56.453,70.626],[56.654,70.584],[56.505,70.549],[56.489,70.573],[56.562,70.579],[56.353,70.598],[56.09,70.669],[56.041,70.648],[56.175,70.612],[56.131,70.596],[55.808,70.695],[55.851,70.651],[56.04,70.586],[55.885,70.586],[55.713,70.613],[55.718,70.644],[55.8,70.644],[55.721,70.71],[55.673,70.705],[55.71,70.675],[55.638,70.693],[55.429,70.619],[55.338,70.633],[55.338,70.586],[55.078,70.533],[54.901,70.593],[54.694,70.744],[54.522,70.759],[54.479,70.736],[54.743,70.653],[54.57,70.675],[54.376,70.747],[54.031,70.72],[53.735,70.764],[53.726,70.799],[53.568,70.853],[53.536,70.844],[53.54,70.807],[53.422,70.844],[53.425,70.871],[53.574,70.889],[53.691,70.834],[53.674,70.892],[53.738,70.948],[53.673,71.005],[53.498,71.07],[53.502,71.092],[53.697,71.098],[53.904,71.055],[53.937,71.06],[53.818,71.132],[53.934,71.138],[53.936,71.101],[54.244,71.123],[54.011,71.154],[54.095,71.189],[54.08,71.209],[54.164,71.21],[54.065,71.237],[53.94,71.176],[53.801,71.21],[53.832,71.173],[53.798,71.155],[53.513,71.223],[53.461,71.266],[53.595,71.302],[53.675,71.388],[53.576,71.391],[53.538,71.316],[53.413,71.312],[53.259,71.45],[53.331,71.486],[53.234,71.514],[53.116,71.423],[53.057,71.498],[53.013,71.494],[53.039,71.445],[52.972,71.442],[52.966,71.407],[52.901,71.393],[52.821,71.47],[52.798,71.465],[52.809,71.43],[52.742,71.441],[52.718,71.49],[52.617,71.467],[52.644,71.546],[52.551,71.59],[52.375,71.514],[52.395,71.482],[52.309,71.502],[51.84,71.456],[51.537,71.565],[51.55,71.614],[51.406,71.783],[51.401,71.868],[51.439,71.941],[51.608,72.09],[51.842,72.158],[52.048,72.108],[52.067,72.074],[52.188,72.129]]],[[[23.167,62.318],[23.315,62.419],[23.505,62.373],[23.512,62.409],[23.897,62.48],[23.922,62.407],[24.019,62.364],[24.054,62.296],[24.245,62.255],[24.376,62.159],[24.563,62.181],[24.667,62.11],[24.685,62.049],[24.886,62.041],[24.946,61.919],[24.938,61.801],[24.995,61.733],[24.923,61.71],[24.964,61.667],[24.955,61.638],[24.83,61.653],[24.79,61.615],[24.829,61.568],[24.906,61.579],[24.897,61.55],[24.967,61.451],[25.427,61.49],[25.518,61.677],[25.764,61.693],[25.866,61.795],[25.875,61.76],[25.929,61.782],[26.009,61.721],[26.055,61.725],[26.079,61.703],[26.058,61.666],[26.146,61.626],[26.305,61.648],[26.32,61.581],[26.282,61.577],[26.257,61.439],[26.314,61.398],[26.294,61.371],[26.515,61.274],[26.632,61.283],[26.663,61.25],[26.649,61.212],[26.87,61.283],[26.928,61.185],[27.001,61.152],[27.33,61.168],[27.39,61.204],[27.334,61.22],[27.331,61.253],[27.236,61.311],[27.256,61.324],[26.979,61.344],[26.984,61.369],[27.25,61.404],[27.54,61.36],[28.182,61.373],[28.342,61.419],[28.469,61.509],[28.653,61.47],[28.809,61.498],[28.825,61.538],[29.246,61.56],[29.567,61.725],[30.056,61.849],[30.132,61.844],[29.779,61.594],[29.517,61.475],[29.205,61.247],[28.797,61.097],[28.617,60.964],[28.481,60.934],[27.811,60.555],[27.74,60.574],[27.749,60.52],[27.72,60.489],[27.647,60.492],[27.692,60.519],[27.632,60.522],[27.615,60.474],[27.508,60.514],[27.456,60.464],[27.236,60.512],[27.308,60.526],[27.219,60.558],[27.214,60.585],[27.178,60.567],[27.195,60.521],[27.054,60.547],[26.998,60.489],[26.932,60.485],[26.959,60.451],[26.915,60.475],[26.805,60.459],[26.797,60.486],[26.688,60.419],[26.636,60.451],[26.594,60.452],[26.552,60.433],[26.484,60.467],[26.623,60.609],[26.753,60.574],[26.659,60.652],[26.592,60.629],[26.466,60.508],[26.479,60.439],[26.341,60.378],[26.246,60.451],[26.257,60.405],[26.141,60.397],[25.981,60.476],[25.917,60.485],[26.028,60.433],[26.012,60.389],[26.107,60.333],[26.044,60.301],[26.006,60.368],[25.955,60.357],[25.842,60.402],[25.914,60.362],[25.883,60.307],[25.921,60.248],[25.754,60.321],[25.745,60.296],[25.829,60.265],[25.737,60.247],[25.651,60.3],[25.664,60.34],[25.704,60.341],[25.669,60.365],[25.526,60.327],[25.545,60.29],[25.503,60.246],[25.367,60.245],[25.314,60.273],[25.315,60.251],[25.156,60.232],[25.182,60.189],[25.101,60.191],[25.032,60.149],[24.999,60.213],[24.948,60.143],[24.846,60.144],[24.869,60.18],[24.807,60.191],[24.821,60.161],[24.68,60.13],[24.665,60.101],[24.554,60.156],[24.593,60.123],[24.54,60.088],[24.587,60.095],[24.59,60.06],[24.447,59.992],[24.424,60.0],[24.464,60.047],[24.32,60.004],[24.368,60.074],[24.32,60.076],[24.254,60.04],[24.158,60.043],[24.161,60.021],[24.014,60.01],[24.001,60.038],[23.8,59.958],[23.443,59.961],[23.541,60.029],[23.546,60.074],[23.327,59.924],[23.237,59.898],[23.239,59.84],[22.916,59.816],[22.947,59.848],[23.247,59.922],[23.333,60.03],[23.225,59.931],[23.111,59.927],[23.113,59.974],[23.257,60.04],[23.038,60.044],[22.996,60.065],[23.012,60.101],[23.114,60.095],[23.309,60.186],[23.393,60.16],[23.642,60.198],[23.61,60.258],[23.725,60.319],[23.794,60.418],[23.779,60.45],[23.708,60.462],[23.851,60.502],[23.862,60.555],[23.914,60.598],[23.881,60.623],[23.897,60.649],[23.705,60.661],[23.477,60.747],[23.307,60.723],[23.179,60.763],[23.167,60.784],[23.216,60.82],[23.144,60.845],[23.141,60.873],[23.267,60.893],[23.296,60.947],[23.123,61.032],[22.974,61.043],[23.001,61.079],[22.927,61.083],[22.969,61.114],[22.922,61.153],[22.949,61.177],[22.924,61.211],[22.663,61.245],[22.575,61.322],[22.571,61.394],[22.64,61.391],[22.729,61.437],[22.725,61.471],[22.601,61.549],[22.722,61.648],[22.656,61.672],[22.693,61.73],[22.806,61.781],[22.823,61.823],[22.749,61.853],[22.784,61.876],[22.723,61.916],[22.55,62.0],[22.773,62.068],[22.77,62.15],[22.855,62.173],[22.844,62.271],[23.167,62.318]]],[[[44.204,45.606],[44.42,45.522],[44.736,45.492],[45.58,45.156],[45.706,45.013],[45.704,44.971],[46.001,44.981],[46.434,44.931],[46.751,44.814],[46.791,44.76],[46.881,44.78],[46.888,44.747],[46.964,44.761],[47.018,44.841],[47.05,44.802],[46.872,44.68],[45.275,44.499],[45.255,44.535],[45.225,44.493],[44.752,44.44],[43.881,44.815],[43.458,45.997],[43.875,45.941],[44.092,45.772],[44.139,45.655],[44.204,45.606]]],[[[47.689,46.205],[47.717,46.246],[47.881,46.249],[47.969,46.315],[47.979,46.365],[48.07,46.387],[48.056,46.458],[48.014,46.48],[48.049,46.508],[48.1,46.464],[48.222,46.465],[48.278,46.408],[48.289,46.475],[48.333,46.434],[48.405,46.488],[48.524,46.442],[48.543,46.492],[48.621,46.445],[48.736,46.481],[48.896,46.477],[49.227,46.323],[49.208,46.396],[49.295,46.393],[49.251,46.461],[49.351,46.389],[49.264,46.294],[49.299,46.253],[49.243,46.269],[49.159,46.239],[49.112,46.156],[48.833,46.083],[48.832,46.01],[48.779,46.016],[48.806,45.909],[48.757,45.894],[48.778,45.849],[48.706,45.821],[48.687,45.85],[48.71,45.882],[48.598,45.953],[48.305,45.77],[48.223,45.753],[48.238,45.713],[48.161,45.742],[47.845,45.686],[47.819,45.611],[47.765,45.682],[47.619,45.745],[47.606,45.81],[47.553,45.82],[47.612,45.958],[47.536,45.98],[47.535,46.019],[47.337,46.014],[47.239,46.086],[47.579,46.157],[47.616,46.175],[47.578,46.209],[47.689,46.205]]],[[[91.564,53.593],[91.621,53.568],[91.648,53.511],[91.856,53.451],[91.898,53.42],[91.915,53.35],[91.853,53.312],[91.851,53.355],[91.747,53.451],[91.477,53.517],[91.459,53.608],[91.34,53.757],[91.333,53.815],[91.431,53.889],[91.484,53.733],[91.566,53.701],[91.534,53.64],[91.564,53.593]]],[[[35.674,65.169],[35.815,65.157],[35.812,65.156],[35.812,65.155],[35.813,65.154],[35.814,65.154],[35.816,65.153],[35.814,65.152],[35.841,65.132],[35.826,65.124],[35.852,65.103],[35.825,65.096],[35.84,65.049],[35.864,65.039],[35.813,65.052],[35.812,65.088],[35.787,65.099],[35.739,65.043],[35.842,65.037],[35.875,65.02],[35.845,65.003],[35.864,64.989],[35.879,64.991],[35.866,64.986],[35.825,64.989],[35.736,64.957],[35.704,65.028],[35.521,65.077],[35.537,65.145],[35.601,65.154],[35.565,65.127],[35.66,65.131],[35.674,65.169]]],[[[139.715,72.024],[139.717,72.083],[139.874,72.178],[139.941,72.168],[139.885,72.097],[139.781,72.075],[139.715,72.024]]],[[[35.957,65.181],[35.957,65.17],[36.273,65.158],[36.077,65.125],[35.93,65.153],[35.934,65.18],[35.989,65.193],[35.957,65.181]]],[[[26.595,60.445],[26.645,60.425],[26.545,60.378],[26.51,60.407],[26.595,60.445]]],[[[25.57,60.26],[25.583,60.295],[25.673,60.251],[25.675,60.243],[25.611,60.213],[25.622,60.238],[25.57,60.26]]],[[[35.979,65.057],[36.024,65.039],[35.913,65.015],[35.88,65.042],[35.979,65.057]]],[[[131.855,71.21],[131.948,71.221],[131.868,71.174],[131.834,71.187],[131.855,71.21]]],[[[123.38,73.157],[123.447,73.165],[123.428,73.139],[123.454,73.117],[123.404,73.116],[123.38,73.157]]]]}}]}