{"type":"FeatureCollection","features":[{"type":"Feature","properties":{"lite":true,"src":"data/years/1713-10-17.geojson"},"geometry":{"type":"MultiPolygon","coordinates":[[[[33.964,66.163],[33.962,66.162],[34.092,66.139],[34.102,66.125],[34.16,66.108],[34.161,66.108],[34.163,66.108],[34.211,66.101],[34.224,66.092],[34.243,66.088],[34.258,66.094],[34.268,66.093],[34.28,66.086],[34.305,66.085],[34.353,66.066],[34.371,66.053],[34.475,66.027],[34.484,66.024],[34.489,66.016],[34.544,66.001],[34.581,65.959],[34.586,65.954],[34.725,65.797],[34.66,65.794],[34.683,65.694],[34.764,65.687],[34.601,65.484],[34.271,65.371],[34.321,65.302],[34.349,65.302],[34.426,65.107],[34.552,64.953],[34.557,64.978],[34.624,64.886],[34.603,64.89],[34.723,64.743],[34.722,64.749],[34.723,64.75],[34.773,64.682],[34.776,64.664],[34.788,64.598],[34.798,64.539],[34.759,64.533],[34.709,64.527],[34.683,64.509],[34.803,64.51],[34.846,64.435],[34.885,64.367],[35.082,64.288],[35.272,64.276],[35.275,64.268],[35.492,64.245],[35.495,64.247],[35.499,64.251],[35.504,64.252],[35.527,64.26],[35.623,64.254],[35.841,64.219],[35.844,64.208],[36.021,64.19],[36.057,64.145],[36.116,64.072],[36.162,64.016],[36.24,63.919],[36.421,63.876],[36.518,63.87],[36.516,63.893],[36.487,63.895],[36.476,63.898],[36.471,63.899],[36.596,63.956],[37.439,63.784],[38.072,64.0],[37.893,64.211],[38.01,64.288],[37.79,64.367],[37.791,64.438],[37.615,64.356],[37.225,64.365],[36.738,64.689],[36.544,64.719],[36.571,64.812],[36.447,64.925],[36.811,64.957],[36.849,65.153],[37.175,65.15],[37.677,65.029],[37.872,64.896],[38.36,64.841],[38.369,64.764],[38.007,64.757],[38.118,64.674],[37.994,64.614],[38.013,64.584],[38.15,64.656],[38.159,64.711],[38.495,64.735],[38.431,64.808],[39.527,64.55],[39.756,64.539],[39.849,64.676],[39.893,64.66],[40.182,64.559],[40.421,64.548],[40.44,64.565],[40.194,64.574],[40.055,64.653],[39.917,64.674],[39.909,64.669],[39.844,64.685],[39.947,64.692],[39.962,64.701],[39.98,64.695],[40.0,64.699],[40.0,64.697],[40.025,64.7],[40.054,64.715],[40.188,64.708],[40.302,64.635],[40.444,64.603],[40.453,64.676],[40.422,64.721],[40.447,64.735],[40.449,64.737],[40.447,64.767],[40.302,64.907],[40.292,64.917],[40.151,65.053],[39.724,65.337],[39.765,65.566],[40.486,65.812],[40.743,65.984],[41.523,66.121],[42.206,66.51],[42.632,66.393],[43.259,66.411],[43.349,66.32],[43.599,66.294],[44.072,66.066],[44.019,65.983],[44.194,65.812],[44.234,65.846],[44.222,65.861],[44.167,65.886],[44.166,65.929],[44.088,65.987],[44.182,66.041],[44.074,66.228],[44.22,66.402],[44.305,66.403],[44.335,66.404],[44.577,66.303],[44.859,66.231],[45.74,66.063],[45.833,66.083],[46.347,66.023],[47.11,65.816],[47.407,65.831],[47.661,65.803],[47.764,65.841],[47.737,65.912],[47.756,65.937],[48.141,66.122],[49.007,66.114],[51.511,66.778],[51.554,66.797],[51.493,66.831],[51.527,66.923],[51.812,66.949],[51.848,66.997],[52.022,67.023],[52.156,67.081],[53.772,66.994],[59.884,66.997],[59.867,66.969],[59.919,66.949],[60.084,66.985],[61.625,67.007],[61.854,67.122],[62.824,67.384],[62.877,67.578],[63.108,67.67],[63.422,67.763],[63.691,67.757],[63.712,67.805],[63.873,67.831],[63.952,67.895],[63.92,67.964],[63.839,68.025],[64.326,68.129],[64.351,68.173],[64.418,68.196],[64.532,68.195],[64.501,68.314],[64.557,68.354],[64.762,68.401],[65.006,68.384],[65.445,68.424],[65.272,68.237],[65.324,68.09],[65.286,68.01],[65.436,67.915],[65.781,67.919],[65.911,67.955],[66.082,67.928],[66.015,67.796],[66.194,67.737],[66.2,67.695],[66.106,67.652],[65.991,67.683],[65.84,67.655],[65.838,67.604],[65.793,67.577],[65.836,67.55],[66.034,67.569],[66.1,67.488],[65.973,67.407],[65.689,67.389],[65.673,67.368],[65.699,67.34],[65.66,67.315],[65.188,67.149],[65.207,67.077],[65.073,67.043],[65.101,66.899],[64.575,66.803],[64.532,66.733],[64.412,66.728],[64.294,66.668],[63.98,66.656],[63.805,66.552],[63.54,66.476],[63.412,66.485],[63.237,66.33],[63.293,66.245],[63.104,66.255],[63.009,66.199],[62.958,66.119],[62.859,66.078],[62.816,66.012],[62.868,65.977],[62.798,65.932],[62.846,65.878],[62.523,65.844],[62.015,65.72],[62.275,65.619],[62.322,65.537],[62.399,65.512],[62.369,65.447],[62.479,65.345],[62.81,65.289],[62.797,65.053],[62.673,64.891],[62.806,64.832],[62.781,64.785],[62.799,64.735],[62.59,64.645],[62.533,64.551],[62.687,64.489],[62.9,64.472],[63.237,64.518],[63.455,64.454],[63.496,64.378],[63.409,64.325],[63.611,64.263],[63.889,64.28],[64.018,64.352],[64.478,64.355],[64.603,64.432],[64.761,64.422],[64.995,64.461],[65.177,64.441],[65.401,64.566],[65.884,64.564],[66.02,64.59],[66.465,64.507],[66.681,64.552],[66.932,64.483],[66.883,64.382],[66.792,64.328],[66.816,64.221],[67.16,64.159],[67.163,64.121],[67.252,64.112],[67.279,64.076],[67.678,64.074],[67.799,64.027],[67.928,64.111],[68.18,64.171],[68.426,64.291],[68.884,64.218],[68.894,64.266],[68.995,64.33],[68.878,64.433],[69.016,64.467],[69.23,64.465],[69.378,64.385],[69.731,64.389],[69.824,64.336],[70.0,64.311],[70.304,64.339],[70.471,64.247],[70.67,64.232],[70.765,64.19],[70.771,64.118],[70.553,64.001],[70.635,63.899],[70.81,63.818],[70.921,63.683],[71.385,63.67],[71.546,63.587],[71.607,63.18],[71.806,63.214],[71.989,63.197],[72.161,63.294],[72.656,63.275],[72.91,63.389],[73.102,63.431],[73.28,63.311],[73.367,63.202],[74.239,63.167],[74.507,63.038],[74.915,63.027],[75.363,63.103],[75.861,63.106],[76.237,63.014],[76.297,62.945],[76.687,63.034],[76.823,62.987],[77.022,62.97],[77.156,62.787],[77.326,62.706],[77.886,62.553],[77.964,62.474],[78.026,62.456],[78.379,62.563],[78.793,62.61],[79.821,62.599],[79.907,62.699],[79.919,62.788],[80.555,62.996],[80.592,63.078],[81.107,63.11],[81.171,62.969],[81.316,62.881],[81.337,62.822],[81.597,62.768],[81.783,62.684],[82.165,62.804],[82.316,62.765],[82.744,62.749],[82.756,62.666],[83.007,62.59],[83.032,62.525],[83.282,62.456],[83.788,62.558],[83.938,62.48],[84.017,62.392],[84.235,62.371],[84.286,62.273],[84.391,62.235],[84.442,62.173],[84.487,62.097],[84.516,61.925],[84.684,61.801],[85.094,61.747],[85.277,61.669],[85.404,61.682],[85.491,61.613],[85.712,61.568],[85.843,61.589],[85.956,61.541],[85.962,61.455],[86.129,61.374],[86.211,61.374],[86.327,61.453],[86.509,61.405],[86.523,61.349],[86.603,61.311],[86.775,61.317],[86.976,61.36],[86.989,61.411],[86.95,61.448],[87.001,61.461],[87.255,61.377],[87.245,61.354],[87.467,61.34],[87.474,61.266],[87.565,61.208],[87.692,61.267],[87.713,61.296],[87.677,61.33],[87.777,61.362],[87.963,61.314],[88.182,61.346],[88.953,60.746],[89.868,60.807],[90.946,60.746],[91.965,60.751],[92.138,60.829],[92.135,60.889],[92.234,60.951],[92.226,60.981],[92.409,60.968],[92.474,60.997],[92.401,61.111],[92.466,61.195],[92.558,61.191],[92.757,61.087],[92.902,61.068],[92.891,61.096],[92.939,61.13],[92.817,61.215],[92.829,61.236],[92.631,61.303],[92.83,61.36],[92.93,61.331],[93.012,61.362],[93.152,61.321],[93.156,61.245],[93.343,61.1],[93.472,61.082],[93.567,61.104],[93.732,61.038],[93.92,61.058],[94.029,60.96],[94.251,61.12],[94.382,61.118],[94.546,61.175],[94.723,61.158],[95.115,61.088],[95.36,60.922],[95.402,60.815],[95.326,60.744],[95.48,60.707],[95.234,60.563],[95.227,60.499],[95.29,60.452],[95.265,60.422],[95.114,60.416],[95.022,60.37],[94.929,60.236],[95.012,60.196],[94.977,60.113],[95.082,60.049],[95.006,60.007],[95.02,59.966],[95.062,59.89],[95.174,59.802],[95.136,59.755],[95.241,59.637],[95.499,59.637],[95.593,59.575],[95.726,59.554],[95.784,59.607],[95.879,59.627],[95.952,59.628],[96.052,59.556],[96.238,59.626],[96.326,59.549],[96.29,59.505],[96.352,59.471],[96.452,59.473],[96.556,59.539],[96.785,59.55],[97.121,59.5],[97.224,59.535],[97.237,59.576],[97.204,59.616],[97.361,59.66],[97.458,59.73],[97.696,59.679],[98.052,59.723],[98.127,59.768],[98.337,59.723],[98.445,59.784],[98.606,59.762],[98.879,59.826],[98.935,59.767],[99.001,59.772],[99.102,59.841],[99.117,59.907],[99.409,60.029],[99.411,60.077],[99.647,60.116],[100.065,59.995],[100.097,59.959],[100.072,59.895],[100.315,59.841],[100.431,59.858],[100.554,59.788],[100.865,59.783],[101.025,59.714],[101.448,59.683],[101.472,59.725],[101.729,59.74],[101.791,59.712],[101.785,59.684],[102.017,59.637],[102.107,59.589],[102.444,59.647],[102.488,59.628],[102.456,59.614],[102.454,59.524],[102.528,59.471],[102.639,59.448],[102.483,59.392],[102.517,59.261],[102.436,59.214],[102.484,59.181],[102.616,59.207],[102.82,59.187],[102.9,59.271],[103.014,59.313],[103.136,59.254],[103.212,59.251],[103.234,59.286],[103.332,59.268],[103.344,59.243],[103.21,59.233],[103.235,59.17],[103.31,59.13],[103.391,59.025],[103.556,58.994],[103.623,58.918],[103.894,58.918],[103.975,58.868],[103.944,58.835],[103.951,58.774],[103.884,58.754],[103.889,58.732],[103.97,58.723],[104.04,58.782],[104.19,58.771],[104.252,58.711],[104.377,58.722],[104.343,58.67],[104.467,58.604],[104.814,58.672],[104.899,58.748],[104.765,58.813],[104.834,58.895],[105.098,59.011],[105.136,59.055],[105.277,59.063],[105.373,59.117],[105.314,59.161],[105.343,59.197],[105.307,59.249],[105.191,59.299],[105.241,59.445],[105.149,59.49],[104.976,59.473],[104.858,59.558],[104.886,59.607],[104.81,59.63],[104.813,59.673],[104.782,59.692],[104.889,59.76],[105.026,59.773],[105.018,59.83],[105.07,59.87],[105.372,59.834],[105.431,59.853],[105.466,59.826],[105.52,59.844],[105.437,59.902],[105.428,59.947],[105.51,60.0],[105.433,60.149],[105.512,60.231],[105.344,60.304],[105.231,60.28],[104.903,60.305],[104.79,60.381],[104.667,60.411],[104.649,60.522],[104.587,60.543],[104.575,60.591],[104.513,60.626],[104.614,60.726],[104.582,60.773],[104.491,60.809],[104.485,60.844],[104.638,60.903],[104.585,60.946],[104.648,61.036],[104.629,61.074],[104.697,61.083],[104.856,61.187],[105.049,61.175],[104.953,61.32],[104.823,61.354],[105.011,61.408],[105.283,61.419],[105.283,61.466],[105.377,61.54],[105.586,61.586],[105.67,61.65],[105.814,61.625],[105.897,61.682],[105.982,61.686],[105.904,61.842],[106.278,62.019],[106.398,62.039],[106.417,62.099],[106.393,62.14],[106.454,62.196],[106.47,62.261],[106.381,62.284],[106.487,62.337],[106.445,62.394],[106.548,62.392],[106.632,62.459],[106.759,62.493],[106.688,62.564],[106.8,62.627],[106.477,62.703],[106.516,62.728],[106.516,62.794],[106.453,62.817],[106.438,62.868],[106.204,62.928],[106.193,62.973],[106.153,62.982],[106.175,63.008],[106.128,63.077],[106.4,63.122],[106.398,63.182],[106.443,63.218],[106.356,63.254],[106.421,63.353],[106.622,63.312],[106.741,63.395],[106.503,63.537],[106.522,63.563],[106.602,63.558],[106.592,63.598],[106.66,63.622],[106.694,63.661],[106.611,63.722],[106.795,63.87],[106.729,63.912],[106.733,63.939],[106.627,63.975],[106.63,64.005],[106.673,64.037],[106.97,63.966],[107.043,63.922],[107.198,63.977],[107.305,63.973],[107.371,63.931],[107.339,63.904],[107.415,63.889],[107.453,63.917],[107.585,63.897],[107.632,63.93],[107.632,63.976],[107.761,64.016],[108.205,63.999],[108.315,64.006],[108.394,64.048],[108.248,64.255],[108.086,64.252],[108.049,64.192],[107.977,64.187],[107.642,64.316],[107.353,64.269],[107.273,64.304],[107.258,64.35],[107.107,64.359],[106.916,64.443],[106.739,64.429],[106.656,64.533],[106.58,64.548],[106.547,64.526],[106.576,64.481],[106.553,64.465],[106.256,64.452],[106.182,64.421],[106.094,64.432],[106.138,64.488],[106.025,64.546],[105.905,64.494],[105.761,64.499],[105.79,64.552],[105.717,64.59],[105.756,64.642],[105.699,64.679],[105.873,64.672],[105.829,64.781],[105.87,64.832],[105.992,64.828],[105.935,64.903],[106.032,64.914],[106.027,64.88],[106.058,64.865],[106.212,64.871],[106.113,64.915],[106.074,64.985],[105.976,65.005],[105.959,65.036],[106.111,65.065],[106.195,65.128],[106.312,65.14],[106.41,65.222],[106.528,65.215],[106.435,65.251],[106.447,65.314],[106.615,65.39],[106.819,65.373],[106.973,65.505],[106.708,65.546],[106.705,65.607],[106.434,65.675],[106.464,65.733],[106.439,65.77],[106.495,65.797],[106.47,65.824],[106.498,65.883],[106.469,65.923],[106.522,66.004],[106.34,66.158],[106.203,66.154],[106.117,66.199],[106.142,66.249],[106.119,66.37],[106.335,66.47],[106.317,66.542],[106.391,66.489],[106.521,66.498],[106.762,66.424],[106.895,66.432],[106.92,66.48],[107.069,66.537],[107.24,66.456],[107.5,66.447],[107.604,66.491],[107.84,66.483],[107.885,66.451],[107.965,66.463],[107.982,66.416],[108.043,66.413],[108.106,66.441],[108.109,66.529],[108.387,66.642],[108.389,66.672],[108.269,66.714],[108.776,66.757],[108.8,66.804],[108.877,66.822],[108.982,66.752],[108.909,66.719],[108.863,66.64],[109.021,66.585],[109.203,66.607],[109.254,66.509],[109.232,66.465],[109.357,66.434],[109.386,66.388],[109.384,66.344],[109.277,66.316],[109.279,66.256],[109.352,66.233],[109.347,66.149],[109.452,66.146],[109.518,66.189],[109.672,66.194],[109.815,66.261],[109.958,66.262],[110.143,66.339],[110.375,66.367],[110.33,66.449],[110.519,66.461],[110.768,66.548],[111.103,66.559],[111.236,66.599],[111.36,66.567],[111.577,66.64],[111.738,66.657],[112.116,66.661],[112.207,66.609],[112.323,66.595],[112.504,66.628],[112.696,66.615],[112.759,66.569],[112.884,66.559],[112.942,66.488],[113.12,66.438],[113.185,66.383],[113.266,66.224],[113.314,66.21],[113.274,66.104],[113.453,66.032],[113.487,65.927],[113.402,65.894],[113.3,65.924],[113.054,65.925],[112.931,65.871],[112.869,65.784],[112.767,65.762],[112.671,65.677],[112.609,65.663],[112.621,65.607],[112.536,65.62],[112.478,65.569],[112.309,65.542],[112.33,65.49],[112.794,65.459],[112.749,65.366],[112.809,65.354],[112.781,65.273],[112.63,65.305],[112.532,65.268],[112.53,65.228],[112.577,65.188],[112.556,65.099],[112.66,65.044],[112.897,65.102],[113.04,65.081],[113.032,65.04],[113.089,65.021],[113.11,64.979],[113.37,64.955],[113.409,64.83],[113.965,64.822],[114.062,64.747],[114.049,64.654],[114.125,64.633],[114.09,64.586],[114.13,64.561],[114.366,64.597],[114.444,64.671],[114.582,64.7],[114.605,64.628],[114.674,64.657],[114.681,64.706],[114.803,64.676],[114.816,64.697],[114.765,64.71],[114.746,64.754],[114.805,64.731],[114.849,64.76],[114.725,64.785],[114.747,64.822],[114.845,64.831],[114.825,64.875],[114.955,64.926],[115.416,64.95],[115.412,64.985],[115.263,65.019],[115.351,65.034],[115.347,65.065],[115.576,65.043],[115.564,65.097],[115.858,65.084],[115.901,65.156],[116.054,65.1],[116.098,65.112],[116.136,65.07],[116.338,65.1],[116.556,65.087],[116.544,65.058],[116.409,65.031],[116.497,65.0],[116.669,65.071],[116.708,65.061],[116.696,65.093],[116.729,65.114],[116.792,65.086],[116.795,65.115],[116.859,65.128],[116.859,65.171],[117.003,65.174],[116.99,65.205],[117.094,65.266],[117.256,65.281],[117.251,65.307],[117.313,65.326],[117.307,65.364],[117.368,65.374],[117.385,65.426],[117.421,65.428],[117.409,65.488],[117.367,65.513],[117.675,65.649],[117.687,65.705],[117.806,65.741],[117.834,65.794],[118.069,65.786],[118.018,65.836],[118.063,65.901],[118.041,65.976],[118.391,66.106],[118.376,66.176],[118.198,66.238],[118.099,66.32],[118.139,66.378],[118.298,66.414],[118.327,66.454],[118.393,66.434],[118.6,66.494],[118.717,66.486],[118.849,66.432],[118.831,66.464],[118.879,66.495],[119.076,66.537],[119.271,66.634],[119.151,66.708],[119.159,66.743],[119.059,66.84],[119.043,66.95],[119.116,66.911],[119.658,66.84],[119.927,66.704],[119.981,66.703],[119.998,66.665],[120.053,66.666],[120.057,66.599],[120.194,66.551],[120.174,66.516],[120.222,66.485],[120.339,66.471],[120.33,66.425],[120.374,66.404],[120.343,66.352],[120.498,66.328],[120.503,66.244],[120.555,66.219],[120.478,66.141],[120.508,66.018],[120.59,65.95],[120.448,65.813],[120.491,65.761],[120.473,65.682],[120.575,65.646],[120.698,65.649],[120.698,65.617],[120.79,65.58],[120.907,65.587],[120.93,65.551],[121.033,65.536],[121.063,65.472],[121.107,65.454],[121.085,65.429],[121.122,65.412],[121.137,65.351],[121.233,65.334],[121.218,65.262],[121.518,65.226],[121.83,65.092],[122.31,64.975],[122.596,64.975],[122.745,64.866],[122.873,64.823],[123.002,64.879],[123.064,64.873],[123.382,64.744],[123.63,64.765],[123.922,64.721],[124.173,64.762],[124.22,64.856],[124.271,64.887],[124.479,64.931],[124.543,64.915],[124.608,64.961],[124.776,64.966],[124.85,65.028],[125.0,65.028],[124.945,65.089],[125.001,65.101],[125.043,65.223],[125.139,65.3],[125.276,65.328],[125.292,65.361],[125.786,65.327],[125.8,65.38],[125.987,65.443],[126.16,65.471],[126.518,65.46],[126.53,65.515],[126.63,65.585],[126.821,65.56],[127.02,65.613],[127.069,65.736],[127.042,65.771],[127.11,65.793],[127.109,65.821],[127.307,65.774],[127.39,65.858],[127.386,65.953],[127.584,65.954],[127.61,65.998],[127.593,66.043],[127.47,66.046],[127.373,66.111],[127.257,66.056],[127.151,66.081],[127.136,66.148],[126.988,66.148],[127.007,66.164],[126.975,66.312],[127.016,66.402],[127.183,66.485],[127.189,66.537],[127.351,66.592],[127.311,66.624],[127.324,66.652],[127.417,66.663],[127.5,66.618],[127.675,66.622],[127.813,66.555],[128.022,66.533],[128.07,66.475],[128.254,66.469],[128.391,66.5],[128.395,66.534],[128.454,66.559],[128.398,66.603],[128.522,66.657],[128.61,66.635],[128.617,66.604],[128.725,66.553],[129.164,66.546],[129.382,66.497],[129.463,66.523],[129.41,66.593],[129.753,66.489],[129.899,66.493],[130.022,66.54],[130.12,66.472],[130.054,66.421],[130.051,66.383],[130.102,66.321],[130.109,66.215],[130.435,66.203],[130.544,66.08],[130.848,65.971],[131.14,65.938],[131.134,65.881],[131.264,65.789],[131.352,65.797],[131.411,65.693],[131.71,65.697],[131.644,65.608],[131.653,65.567],[131.48,65.454],[131.528,65.439],[131.537,65.399],[131.606,65.39],[131.683,65.301],[131.843,65.296],[132.07,65.145],[132.168,64.964],[132.265,64.927],[132.27,64.855],[132.355,64.8],[132.355,64.731],[132.278,64.663],[132.46,64.607],[132.626,64.643],[132.618,64.612],[132.741,64.588],[132.878,64.627],[132.855,64.666],[132.874,64.687],[132.995,64.729],[132.961,64.802],[133.012,64.844],[132.918,64.93],[132.959,64.991],[132.956,65.05],[132.992,65.065],[132.973,65.124],[133.023,65.175],[133.193,65.232],[133.223,65.275],[133.484,65.279],[133.632,65.212],[133.882,65.199],[133.946,65.227],[134.0,65.305],[134.147,65.323],[134.323,65.411],[134.469,65.37],[134.494,65.404],[134.469,65.433],[134.528,65.48],[134.519,65.501],[134.671,65.554],[134.715,65.595],[134.697,65.644],[134.741,65.645],[134.761,65.689],[134.832,65.692],[134.865,65.763],[135.079,65.759],[135.374,65.802],[135.438,65.85],[135.436,65.892],[135.487,65.905],[135.741,65.889],[135.75,65.957],[135.844,65.972],[135.863,66.004],[136.014,66.006],[136.108,66.087],[136.436,66.196],[136.854,66.194],[136.878,66.157],[136.951,66.153],[137.008,66.11],[137.277,66.097],[137.335,66.047],[137.523,66.054],[137.709,65.967],[138.017,65.962],[138.11,65.997],[138.224,65.936],[138.379,65.93],[139.26,66.018],[139.524,65.967],[139.826,65.845],[139.987,65.832],[140.177,65.875],[140.385,65.802],[140.292,65.704],[140.217,65.684],[140.19,65.627],[140.368,65.549],[140.51,65.559],[140.669,65.523],[140.726,65.558],[140.98,65.538],[141.053,65.566],[141.148,65.509],[141.453,65.443],[141.842,65.462],[141.879,65.399],[142.086,65.391],[142.101,65.36],[142.906,65.312],[142.977,65.252],[142.987,65.167],[143.354,65.152],[143.535,65.111],[143.535,65.066],[143.663,65.069],[143.791,65.029],[143.896,65.051],[144.039,65.019],[144.246,65.024],[144.351,64.886],[144.531,64.861],[144.69,64.771],[144.66,64.721],[144.533,64.652],[144.707,64.607],[144.782,64.554],[144.922,64.569],[144.992,64.531],[145.139,64.538],[145.291,64.439],[145.493,64.451],[145.668,64.409],[145.741,64.434],[145.863,64.397],[145.878,64.344],[146.048,64.284],[146.152,64.195],[146.359,64.183],[146.314,64.079],[146.212,64.044],[146.172,63.977],[146.108,63.946],[145.549,63.827],[145.616,63.777],[145.634,63.672],[145.448,63.531],[145.359,63.335],[145.273,63.268],[145.247,63.19],[145.293,63.105],[145.266,63.021],[145.312,62.996],[145.359,62.908],[145.321,62.753],[145.416,62.654],[145.385,62.609],[145.467,62.553],[145.386,62.515],[145.272,62.537],[145.122,62.494],[145.169,62.439],[145.145,62.381],[145.17,62.337],[145.121,62.307],[145.156,62.279],[145.061,62.239],[144.978,62.249],[144.988,62.176],[144.761,62.124],[144.714,62.081],[144.745,62.042],[144.945,62.058],[145.167,61.96],[145.293,61.987],[145.485,61.951],[145.722,62.055],[145.791,62.006],[145.876,62.022],[146.21,61.901],[146.349,61.824],[146.361,61.768],[146.502,61.658],[146.573,61.636],[146.611,61.431],[146.755,61.397],[146.677,61.305],[146.743,61.214],[146.738,61.104],[146.661,61.067],[146.719,61.012],[146.699,60.967],[146.483,60.937],[146.496,60.843],[146.443,60.764],[146.468,60.73],[146.402,60.671],[146.321,60.664],[146.16,60.738],[146.059,60.742],[146.027,60.704],[145.893,60.663],[145.871,60.619],[145.742,60.611],[145.618,60.562],[145.605,60.525],[145.505,60.471],[145.527,60.411],[145.63,60.381],[145.569,60.353],[145.574,60.322],[145.805,60.191],[146.373,60.265],[146.455,60.184],[146.452,60.127],[146.671,60.098],[146.674,60.031],[146.641,59.987],[146.728,59.957],[146.774,59.902],[146.997,59.943],[147.108,59.88],[147.133,59.847],[147.098,59.805],[147.142,59.754],[147.082,59.69],[147.15,59.641],[147.075,59.416],[147.074,59.416],[147.073,59.416],[146.851,59.36],[146.443,59.462],[146.312,59.402],[146.309,59.287],[146.246,59.278],[146.054,59.251],[146.037,59.216],[146.001,59.142],[145.83,59.247],[145.971,59.404],[145.802,59.366],[145.698,59.427],[143.219,59.357],[142.436,59.193],[141.924,58.941],[141.676,58.757],[141.79,58.855],[141.591,58.728],[141.511,58.655],[141.536,58.666],[141.622,58.716],[141.383,58.539],[140.657,58.265],[140.665,58.274],[140.587,58.239],[140.177,57.806],[140.117,57.744],[139.798,57.586],[139.775,57.551],[139.772,57.548],[139.73,57.552],[139.729,57.552],[139.506,57.441],[139.494,57.421],[139.3,57.339],[139.299,57.339],[139.297,57.338],[139.29,57.34],[127.67,60.796],[124.127,59.982],[119.598,57.269],[119.549,57.343],[119.452,57.371],[119.412,57.43],[119.42,57.503],[119.476,57.534],[119.498,57.59],[119.321,57.615],[119.199,57.511],[119.151,57.534],[119.16,57.697],[119.051,57.741],[119.165,58.041],[119.156,58.162],[119.111,58.227],[118.784,58.218],[118.632,58.18],[118.401,58.269],[118.319,58.357],[118.142,58.391],[118.07,58.345],[117.996,58.399],[117.835,58.413],[117.667,58.4],[117.486,58.323],[117.473,58.276],[117.581,58.178],[117.564,58.146],[117.437,58.157],[117.404,58.13],[117.361,57.995],[117.393,57.906],[117.313,57.852],[117.127,57.846],[117.081,57.812],[117.166,57.736],[117.138,57.638],[117.283,57.607],[117.25,57.512],[117.324,57.447],[117.362,57.324],[117.439,57.323],[117.429,57.251],[117.543,57.256],[117.6,57.315],[117.786,57.289],[117.74,57.2],[117.596,57.152],[117.67,57.062],[117.668,56.981],[117.572,56.938],[117.566,56.861],[117.498,56.874],[117.447,56.826],[117.357,56.873],[117.337,56.949],[117.187,56.88],[117.131,56.811],[117.029,56.817],[117.012,56.782],[116.806,56.73],[116.737,56.765],[116.572,56.762],[116.362,56.852],[116.124,56.818],[115.728,56.971],[115.806,57.027],[116.243,57.152],[116.132,57.243],[115.863,57.248],[115.677,57.136],[115.37,57.097],[115.084,57.123],[115.02,57.039],[115.041,56.988],[114.842,56.835],[114.833,56.759],[114.778,56.706],[114.499,56.706],[114.495,56.676],[114.442,56.66],[114.29,56.697],[114.144,56.686],[114.08,56.617],[113.994,56.588],[114.001,56.546],[113.899,56.531],[113.805,56.607],[113.515,56.684],[113.368,56.631],[112.899,56.697],[112.877,56.731],[112.749,56.766],[112.705,56.864],[112.751,56.936],[112.663,56.965],[112.456,56.869],[112.236,56.883],[112.11,56.949],[111.916,56.95],[111.817,56.913],[111.716,56.995],[111.637,57.016],[111.625,57.097],[111.587,57.112],[111.46,57.107],[111.331,56.957],[111.368,56.906],[111.242,56.876],[111.164,56.82],[110.99,56.864],[110.882,56.839],[110.752,56.879],[110.601,56.835],[110.537,56.851],[110.53,56.888],[110.34,56.942],[110.233,56.93],[110.084,56.98],[109.996,56.975],[109.883,56.894],[109.855,56.831],[109.877,56.792],[109.764,56.709],[109.41,56.74],[109.305,56.673],[109.142,56.681],[109.055,56.625],[108.975,56.641],[108.927,56.593],[108.691,56.584],[108.668,56.562],[108.721,56.513],[108.553,56.348],[108.573,56.281],[108.799,56.251],[108.917,56.153],[108.907,56.097],[108.989,56.035],[109.249,55.974],[109.179,55.918],[108.968,55.95],[108.85,55.869],[108.767,55.626],[108.684,55.607],[108.686,55.526],[108.617,55.456],[108.663,55.401],[108.648,55.298],[108.771,55.226],[108.775,55.166],[108.685,55.063],[108.699,54.975],[108.747,54.932],[108.69,54.891],[108.712,54.862],[108.694,54.683],[108.553,54.542],[109.031,54.471],[108.42,53.786],[108.057,53.21],[106.196,52.445],[105.988,52.225],[105.749,52.035],[105.459,51.868],[105.122,51.736],[104.648,51.627],[104.624,51.443],[104.665,51.396],[104.664,51.34],[104.609,51.275],[104.489,51.315],[104.212,51.286],[103.826,51.139],[103.821,51.404],[103.577,51.484],[103.33,51.443],[103.19,51.613],[103.212,51.813],[102.772,51.994],[102.683,52.099],[102.579,52.152],[102.544,52.232],[102.413,52.267],[102.32,52.236],[102.176,52.282],[102.09,52.262],[102.046,52.217],[101.965,52.227],[101.902,52.284],[101.914,52.321],[101.685,52.414],[101.691,52.464],[101.488,52.566],[101.462,52.625],[101.312,52.649],[101.033,52.774],[100.87,52.805],[100.83,52.861],[100.624,52.938],[100.372,53.134],[100.369,53.165],[100.417,53.199],[100.405,53.237],[100.249,53.381],[100.079,53.305],[99.867,53.302],[99.837,53.26],[99.867,53.207],[99.689,53.137],[99.368,53.114],[99.337,53.02],[99.241,52.963],[98.993,53.039],[99.069,53.099],[98.939,53.154],[98.863,53.13],[98.687,53.16],[98.598,53.109],[98.356,53.096],[98.292,53.129],[98.291,53.228],[98.033,53.258],[97.978,53.296],[97.958,53.363],[97.608,53.378],[97.589,53.442],[97.451,53.466],[97.336,53.599],[97.127,53.619],[96.876,53.734],[96.716,53.703],[96.689,53.65],[96.498,53.692],[96.473,53.748],[96.405,53.764],[96.343,53.841],[96.081,53.993],[96.099,54.069],[95.948,54.104],[95.814,54.231],[95.749,54.222],[95.659,54.271],[95.58,54.243],[95.533,54.286],[95.474,54.262],[95.285,54.342],[95.05,54.3],[94.953,54.322],[94.882,54.397],[94.74,54.45],[94.723,54.51],[94.616,54.511],[94.519,54.555],[94.374,54.477],[94.312,54.544],[94.001,54.641],[93.956,54.611],[93.848,54.642],[93.713,54.601],[93.648,54.633],[93.66,54.683],[93.6,54.688],[93.486,54.767],[93.471,54.818],[93.34,54.842],[93.296,54.885],[93.224,54.851],[93.063,54.921],[92.919,54.886],[92.866,54.93],[92.772,54.945],[92.36,54.935],[92.327,54.881],[92.232,54.87],[92.261,54.829],[92.226,54.77],[92.07,54.833],[91.989,54.836],[91.938,54.796],[91.762,54.877],[91.599,54.9],[91.568,54.85],[91.672,54.787],[91.543,54.771],[91.551,54.746],[91.435,54.668],[91.134,54.663],[91.062,54.691],[90.965,54.64],[91.255,54.503],[91.242,54.424],[91.304,54.331],[91.413,54.276],[91.573,54.084],[91.545,53.999],[91.44,53.899],[91.468,54.059],[91.256,54.279],[91.163,54.491],[90.864,54.629],[90.918,54.795],[90.842,54.844],[90.726,54.838],[90.686,54.91],[90.462,54.877],[90.488,54.929],[90.439,55.02],[90.239,55.067],[90.242,55.108],[90.196,55.156],[90.123,55.109],[89.903,55.091],[89.661,55.01],[89.567,55.063],[89.445,55.043],[89.394,54.98],[89.347,55.005],[89.205,54.996],[89.15,55.081],[89.051,55.09],[89.072,55.134],[88.973,55.188],[88.953,55.293],[88.762,55.35],[88.608,55.45],[88.388,55.267],[88.478,55.188],[88.545,55.08],[88.545,55.013],[88.671,54.957],[88.664,54.873],[88.742,54.886],[88.748,54.808],[88.715,54.77],[88.626,54.749],[88.575,54.579],[88.597,54.528],[88.529,54.429],[88.373,54.388],[88.535,54.337],[88.561,54.283],[88.844,54.411],[88.952,54.363],[88.948,54.318],[89.003,54.285],[89.128,54.345],[89.183,54.32],[89.173,54.274],[89.212,54.248],[89.174,54.196],[89.183,54.154],[89.016,54.112],[88.977,54.065],[89.062,53.951],[89.202,53.939],[89.178,53.87],[89.26,53.847],[89.179,53.786],[89.029,53.758],[88.999,53.672],[88.834,53.592],[88.869,53.546],[88.858,53.483],[88.756,53.365],[88.808,53.343],[88.89,53.381],[89.044,53.246],[89.001,53.192],[89.041,53.134],[88.905,53.036],[88.89,52.987],[89.065,52.948],[89.115,52.913],[89.108,52.863],[89.175,52.862],[89.224,52.813],[89.142,52.735],[89.038,52.709],[89.108,52.601],[88.661,52.348],[88.711,52.308],[88.679,52.256],[88.377,52.173],[88.37,52.305],[88.43,52.356],[88.422,52.459],[88.208,52.42],[87.924,52.553],[87.638,52.455],[87.58,52.492],[87.383,52.513],[87.351,52.6],[87.177,52.592],[87.118,52.673],[86.952,52.64],[86.849,52.656],[86.612,52.386],[86.802,52.285],[86.775,52.233],[86.817,52.162],[86.772,52.119],[86.497,52.123],[86.449,52.035],[86.368,52.015],[86.222,52.026],[86.15,52.075],[85.919,52.077],[85.832,51.985],[85.864,51.919],[85.736,51.863],[85.771,51.842],[85.733,51.742],[85.669,51.759],[85.534,51.704],[85.469,51.573],[85.292,51.57],[85.295,51.513],[85.23,51.475],[85.006,51.494],[84.923,51.429],[84.714,51.404],[84.396,51.272],[84.278,51.288],[84.142,51.124],[84.069,51.147],[84.0,51.129],[84.016,51.059],[84.502,50.956],[84.527,50.874],[84.602,50.841],[84.539,50.696],[84.456,50.708],[84.084,50.637],[84.191,50.511],[84.172,50.438],[84.234,50.343],[84.246,50.257],[84.331,50.208],[84.442,50.238],[84.534,50.186],[84.787,50.128],[84.837,50.076],[84.973,50.07],[85.022,50.016],[84.951,49.993],[84.95,49.904],[85.053,49.868],[85.078,49.797],[85.179,49.704],[85.221,49.591],[85.384,49.61],[85.476,49.578],[85.61,49.612],[85.672,49.556],[85.746,49.568],[85.809,49.532],[85.93,49.555],[85.945,49.477],[86.072,49.521],[86.178,49.458],[86.277,49.58],[86.478,49.667],[86.483,49.708],[86.611,49.789],[86.746,49.778],[86.756,49.696],[86.644,49.658],[86.587,49.585],[86.641,49.543],[86.732,49.546],[86.816,49.507],[86.81,49.447],[86.92,49.39],[86.909,49.336],[86.987,49.289],[85.842,48.414],[85.747,48.39],[85.602,48.232],[85.382,48.148],[83.13,48.282],[84.267,49.205],[81.479,50.291],[78.65,50.806],[74.921,54.149],[72.992,55.307],[64.687,54.272],[64.457,53.58],[63.039,51.178],[62.258,51.064],[62.154,51.115],[62.032,51.072],[61.964,51.132],[61.929,51.242],[61.875,51.301],[61.812,51.274],[61.596,51.282],[61.476,51.43],[61.031,51.488],[60.949,51.547],[60.938,51.616],[60.511,51.624],[60.486,51.656],[60.361,51.678],[60.484,51.781],[60.454,51.81],[60.139,51.894],[60.093,51.86],[60.045,51.875],[59.992,51.954],[60.034,51.995],[59.919,52.097],[59.967,52.17],[60.154,52.275],[60.146,52.431],[59.938,52.435],[59.81,52.502],[59.685,52.433],[59.676,52.462],[59.514,52.441],[59.41,52.498],[59.272,52.499],[59.244,52.489],[59.175,52.284],[58.983,52.376],[58.979,52.435],[58.795,52.453],[58.775,52.514],[58.843,52.541],[58.732,52.642],[58.789,52.724],[58.754,52.853],[58.848,53.003],[59.033,53.015],[58.999,53.057],[58.911,53.062],[58.896,53.191],[58.828,53.215],[58.834,53.286],[58.87,53.319],[58.873,53.499],[58.907,53.549],[58.834,53.563],[58.827,53.591],[58.912,53.653],[58.879,53.749],[58.952,53.899],[58.928,53.933],[58.959,53.968],[59.157,53.98],[59.322,54.177],[59.534,54.193],[59.673,54.129],[59.732,54.135],[59.735,54.193],[59.808,54.255],[59.78,54.305],[59.684,54.34],[59.751,54.447],[59.686,54.497],[59.722,54.543],[59.874,54.61],[59.979,54.794],[59.93,54.832],[59.947,54.862],[59.807,54.851],[59.631,54.916],[59.409,54.711],[59.228,54.616],[59.06,54.637],[58.807,54.573],[58.616,54.476],[58.353,54.551],[58.204,54.52],[57.961,54.398],[57.749,54.505],[57.745,54.587],[57.586,54.638],[57.584,54.678],[57.526,54.674],[57.511,54.702],[57.388,54.724],[57.169,54.823],[57.167,54.873],[57.249,54.951],[57.149,55.054],[57.146,55.098],[57.244,55.155],[57.228,55.212],[57.262,55.252],[57.436,55.322],[57.916,55.288],[58.131,55.212],[58.05,55.169],[57.959,55.169],[58.025,55.074],[58.016,55.004],[57.957,54.947],[58.0,54.912],[58.11,54.954],[58.096,55.017],[58.198,55.083],[58.15,55.111],[58.298,55.168],[58.368,55.15],[58.36,55.082],[58.422,55.055],[58.384,54.996],[58.52,55.017],[58.55,54.948],[58.621,54.945],[58.818,55.021],[58.758,55.116],[58.582,55.156],[58.664,55.184],[58.701,55.144],[58.747,55.151],[58.808,55.215],[58.731,55.253],[58.925,55.275],[58.858,55.303],[58.873,55.318],[58.966,55.307],[58.962,55.246],[58.999,55.24],[59.163,55.328],[59.204,55.445],[59.476,55.463],[59.646,55.563],[59.628,55.597],[59.501,55.586],[59.437,55.638],[59.247,55.589],[59.349,55.642],[59.287,55.696],[59.318,55.777],[59.161,55.803],[59.208,55.833],[59.195,55.867],[59.235,55.905],[59.184,56.002],[59.285,56.052],[59.299,56.135],[59.025,56.174],[58.951,56.075],[58.826,56.059],[58.735,56.073],[58.565,56.167],[58.453,56.152],[58.351,56.064],[58.301,56.119],[58.08,56.146],[57.911,56.121],[57.802,56.156],[57.539,56.105],[57.46,56.135],[57.482,56.18],[57.415,56.239],[57.408,56.334],[57.264,56.306],[57.251,56.251],[57.165,56.165],[56.897,56.106],[56.775,56.174],[56.74,56.227],[56.651,56.227],[56.627,56.265],[56.575,56.269],[56.514,56.319],[56.563,56.359],[56.529,56.388],[56.392,56.393],[56.266,56.307],[56.074,56.295],[55.963,56.379],[55.914,56.471],[55.861,56.438],[55.547,56.404],[55.411,56.34],[55.253,56.341],[55.224,56.369],[55.173,56.323],[55.103,56.349],[54.969,56.326],[54.933,56.391],[54.747,56.444],[54.559,56.543],[54.425,56.346],[54.317,56.348],[54.363,56.297],[54.342,56.257],[54.115,56.162],[54.004,56.034],[53.836,56.043],[53.783,55.98],[53.669,55.963],[53.627,55.909],[53.745,55.862],[53.867,55.88],[53.977,55.842],[53.963,55.778],[54.034,55.797],[54.024,55.759],[54.095,55.766],[54.213,55.692],[54.176,55.632],[54.0,55.558],[53.904,55.397],[53.711,55.338],[53.594,55.258],[53.584,55.216],[53.418,55.227],[53.325,55.171],[53.142,55.149],[53.138,55.095],[53.253,55.05],[53.262,55.009],[53.41,54.985],[53.497,54.887],[53.625,54.889],[53.574,54.823],[53.601,54.716],[53.413,54.563],[53.42,54.5],[53.344,54.392],[53.357,54.33],[53.423,54.264],[53.459,54.046],[53.371,53.978],[53.26,54.076],[53.186,54.099],[53.08,54.079],[53.092,54.118],[52.95,54.211],[53.111,54.244],[53.111,54.289],[53.046,54.344],[53.0,54.316],[53.014,54.285],[52.937,54.273],[52.937,54.309],[52.539,54.382],[52.504,54.328],[52.28,54.333],[52.204,54.307],[52.344,54.215],[52.337,54.179],[52.257,54.152],[52.268,54.115],[52.393,54.123],[52.477,54.061],[52.371,53.983],[52.406,53.929],[52.249,53.658],[52.18,53.565],[52.099,53.552],[52.075,53.516],[52.09,53.462],[52.186,53.37],[52.138,53.299],[52.156,53.257],[52.122,53.178],[52.054,53.138],[52.149,53.104],[52.06,53.079],[52.049,52.998],[51.865,52.934],[51.807,52.882],[51.725,52.873],[51.713,52.824],[51.765,52.791],[51.724,52.67],[51.536,52.68],[51.505,52.631],[51.537,52.578],[51.472,52.58],[51.466,52.527],[51.554,52.448],[51.468,52.419],[51.464,52.375],[51.408,52.352],[51.402,52.256],[51.447,52.219],[51.411,52.106],[50.895,51.856],[50.741,51.746],[50.789,51.624],[50.762,51.583],[50.675,51.573],[50.697,51.615],[50.579,51.639],[50.57,51.592],[50.521,51.567],[50.517,51.466],[50.356,51.417],[50.323,51.308],[49.985,51.235],[49.776,51.107],[49.434,51.117],[49.342,50.965],[49.417,50.885],[49.404,50.852],[49.142,50.786],[48.829,50.601],[48.581,50.653],[48.57,50.613],[48.668,50.576],[48.696,50.334],[48.784,50.173],[48.778,50.109],[48.869,50.067],[48.878,50.02],[48.781,49.938],[48.429,49.816],[48.243,49.87],[47.997,50.186],[47.627,50.445],[47.555,50.457],[47.431,50.383],[47.244,50.376],[47.208,50.513],[46.922,50.495],[46.92,50.527],[46.877,50.532],[46.874,50.581],[46.814,50.586],[46.861,50.645],[46.748,50.661],[46.72,50.716],[46.628,50.686],[46.581,50.717],[46.562,50.626],[46.538,50.649],[46.456,50.621],[46.444,50.555],[46.277,50.578],[46.269,50.533],[46.078,50.531],[46.096,50.669],[45.894,50.755],[45.721,50.751],[45.674,50.667],[45.701,50.58],[45.739,50.587],[45.889,50.438],[45.876,50.346],[45.737,50.311],[45.416,50.033],[45.341,49.893],[45.337,49.798],[45.049,49.433],[44.917,49.079],[44.664,48.872],[44.65,48.818],[44.54,48.717],[44.512,48.622],[44.638,48.592],[44.602,48.566],[44.674,48.523],[44.674,48.465],[44.573,48.495],[44.505,48.474],[44.412,48.517],[44.344,48.621],[44.295,48.605],[44.283,48.491],[44.21,48.498],[44.172,48.537],[44.23,48.58],[44.162,48.578],[44.119,48.632],[43.94,48.684],[43.949,48.728],[43.881,48.764],[43.896,48.791],[43.785,48.895],[43.795,48.929],[43.718,48.95],[43.752,48.967],[43.744,48.995],[43.613,49.021],[43.631,49.089],[43.406,49.177],[43.392,49.294],[43.55,49.466],[43.616,49.475],[43.636,49.532],[43.778,49.524],[43.787,49.574],[43.894,49.572],[43.886,49.628],[43.965,49.598],[43.995,49.647],[44.103,49.649],[44.164,49.712],[44.153,49.771],[44.276,49.827],[44.149,49.908],[44.262,50.009],[44.193,50.07],[44.202,50.104],[44.001,50.129],[44.009,50.187],[43.938,50.228],[43.831,50.214],[43.845,50.181],[43.811,50.15],[43.692,50.159],[43.694,50.082],[43.589,50.048],[43.532,49.902],[43.44,49.909],[43.367,49.832],[43.275,49.831],[43.176,49.891],[42.988,49.851],[42.906,49.911],[42.896,49.989],[42.665,50.105],[42.744,50.167],[42.71,50.188],[42.719,50.231],[42.763,50.222],[42.787,50.261],[42.865,50.249],[42.934,50.343],[43.025,50.283],[43.204,50.358],[43.298,50.302],[43.335,50.353],[43.453,50.377],[43.416,50.449],[43.376,50.44],[43.328,50.498],[43.235,50.524],[43.018,50.503],[43.02,50.536],[42.96,50.558],[42.953,50.643],[42.826,50.695],[42.903,50.731],[42.906,50.764],[42.842,50.812],[42.888,50.844],[42.874,50.883],[42.98,50.954],[43.126,50.974],[43.167,51.108],[42.856,51.25],[42.708,51.253],[42.553,51.15],[42.175,51.141],[41.927,51.199],[41.816,51.122],[41.759,51.017],[41.471,50.956],[41.424,50.918],[41.414,50.842],[41.165,50.779],[41.344,50.708],[41.446,50.602],[41.516,50.602],[41.526,50.578],[41.415,50.499],[41.515,50.363],[41.383,50.212],[41.349,50.219],[41.285,50.166],[41.37,50.124],[41.378,50.086],[41.081,49.949],[41.037,49.806],[40.919,49.706],[40.635,49.678],[40.537,49.583],[40.16,49.648],[40.13,49.588],[39.998,49.613],[39.803,49.547],[39.626,49.618],[39.559,49.729],[39.263,49.749],[39.157,49.878],[39.046,49.815],[38.939,49.809],[38.854,49.87],[38.691,49.917],[38.666,49.97],[38.497,49.953],[38.36,49.985],[38.302,50.065],[38.173,50.065],[38.161,49.945],[38.02,49.913],[38.06,49.845],[37.997,49.826],[38.028,49.782],[37.935,49.728],[37.992,49.712],[37.996,49.664],[37.94,49.598],[37.955,49.522],[37.856,49.423],[37.881,49.311],[37.921,49.292],[37.842,49.232],[37.904,49.19],[35.982,48.98],[35.939,49.004],[35.807,48.945],[35.801,48.881],[35.633,48.886],[35.671,48.789],[35.517,48.681],[35.459,48.542],[35.328,48.512],[35.362,48.459],[35.317,48.433],[35.302,48.497],[35.164,48.584],[35.221,48.655],[35.167,48.668],[35.165,48.737],[35.068,48.76],[35.003,48.702],[34.947,48.75],[34.961,48.796],[34.929,48.79],[34.891,48.839],[34.839,48.826],[34.795,48.762],[34.741,48.866],[34.793,48.916],[34.672,49.049],[34.675,49.101],[34.626,49.128],[34.556,49.06],[34.401,49.099],[34.407,49.059],[34.321,48.996],[34.341,48.98],[34.295,48.895],[34.333,48.854],[34.293,48.823],[34.3,48.74],[34.135,48.786],[34.123,48.827],[34.023,48.87],[33.713,48.946],[33.666,48.983],[33.56,48.917],[33.477,48.957],[33.378,48.947],[33.314,48.996],[33.351,49.039],[33.288,49.085],[33.308,49.122],[33.238,49.171],[33.243,49.092],[33.203,49.083],[33.015,49.281],[32.755,49.485],[32.712,49.559],[32.665,49.537],[32.68,49.402],[32.631,49.382],[32.114,49.541],[31.913,49.561],[31.475,49.827],[31.425,50.002],[31.342,50.0],[31.253,49.944],[31.195,49.956],[30.405,50.229],[30.398,50.283],[30.478,50.334],[30.47,50.365],[30.334,50.38],[30.219,50.338],[30.394,50.714],[30.459,50.759],[30.557,51.259],[30.61,51.276],[30.612,51.319],[30.661,51.343],[30.626,51.432],[30.59,51.439],[30.628,51.467],[30.578,51.514],[30.589,51.548],[30.543,51.553],[30.56,51.579],[30.532,51.597],[30.586,51.647],[30.575,51.699],[30.629,51.71],[30.708,51.862],[30.941,51.994],[30.954,52.069],[31.299,52.046],[31.328,52.101],[31.406,52.138],[31.769,52.106],[31.766,52.153],[31.687,52.206],[31.703,52.255],[31.581,52.308],[31.614,52.355],[31.593,52.484],[31.562,52.507],[31.579,52.543],[31.396,52.888],[31.261,53.015],[31.368,53.086],[31.382,53.177],[31.615,53.205],[31.753,53.182],[31.795,53.108],[32.118,53.076],[32.408,53.188],[32.484,53.273],[32.462,53.295],[32.72,53.331],[32.724,53.441],[32.433,53.565],[32.407,53.631],[32.495,53.679],[32.443,53.719],[32.084,53.815],[31.873,53.782],[31.757,53.8],[31.843,53.961],[31.826,54.057],[31.329,54.233],[31.289,54.35],[31.212,54.452],[31.076,54.497],[31.172,54.625],[30.773,54.792],[30.831,54.876],[30.826,54.925],[30.94,54.971],[30.916,55.018],[31.01,55.022],[30.964,55.166],[30.801,55.287],[30.923,55.386],[30.887,55.453],[30.924,55.492],[30.911,55.584],[30.971,55.669],[30.598,55.695],[30.59,55.723],[30.481,55.763],[30.471,55.798],[30.201,55.863],[30.106,55.827],[29.881,55.84],[29.146,56.017],[28.993,56.019],[28.618,56.095],[28.069,56.723],[28.026,56.595],[28.004,56.605],[27.985,56.69],[27.875,56.741],[27.918,56.822],[27.823,56.87],[27.731,57.036],[27.748,57.072],[27.692,57.1],[27.774,57.136],[27.726,57.195],[27.721,57.449],[27.531,57.413],[27.511,57.611],[27.577,58.199],[27.562,58.258],[27.584,58.307],[27.798,58.447],[27.814,58.571],[27.754,58.884],[27.654,58.847],[27.664,58.935],[27.751,58.9],[27.743,58.928],[28.203,58.966],[28.182,58.989],[29.041,59.29],[29.518,59.247],[29.995,59.463],[31.318,59.594],[31.299,59.933],[31.455,59.907],[31.547,59.94],[31.548,60.072],[31.606,60.134],[31.599,60.17],[31.698,60.235],[32.057,60.227],[32.26,60.154],[32.5,60.177],[32.584,60.209],[32.612,60.245],[32.595,60.353],[32.677,60.392],[32.601,60.532],[32.816,60.482],[32.944,60.643],[32.843,60.713],[32.765,60.886],[32.593,60.999],[32.527,61.118],[31.887,61.334],[31.747,62.853],[31.452,63.253],[30.568,63.532],[30.603,65.146],[30.993,65.754],[30.603,66.665],[30.733,68.574],[31.261,69.534],[31.291,69.589],[31.383,69.61],[31.482,69.674],[31.819,69.648],[31.691,69.707],[31.714,69.759],[31.874,69.811],[32.098,69.762],[31.983,69.845],[32.054,69.876],[32.066,69.881],[32.073,69.863],[32.074,69.862],[32.075,69.861],[32.146,69.699],[31.953,69.628],[32.051,69.591],[32.001,69.549],[32.242,69.578],[32.425,69.484],[32.26,69.422],[32.431,69.429],[32.455,69.472],[32.929,69.394],[32.815,69.326],[32.884,69.276],[33.049,69.381],[33.233,69.349],[33.253,69.345],[33.28,69.341],[33.291,69.272],[33.21,69.253],[33.246,69.242],[33.291,69.254],[33.31,69.098],[33.048,69.066],[33.009,68.885],[33.074,69.049],[33.469,69.083],[33.629,69.215],[33.725,69.211],[33.726,69.211],[33.827,69.206],[33.823,69.208],[33.895,69.205],[33.891,69.204],[34.75,69.167],[34.74,69.174],[34.735,69.175],[35.317,69.154],[35.312,69.149],[35.438,69.15],[36.014,69.036],[36.047,69.03],[36.465,68.947],[36.531,68.934],[36.675,68.906],[37.246,68.793],[37.59,68.637],[37.598,68.64],[37.604,68.633],[37.641,68.632],[37.646,68.628],[37.676,68.615],[37.685,68.614],[37.703,68.585],[37.734,68.571],[37.751,68.567],[37.757,68.567],[37.761,68.559],[37.82,68.532],[37.848,68.542],[37.85,68.543],[38.052,68.434],[38.057,68.429],[38.064,68.428],[38.233,68.336],[38.23,68.345],[38.35,68.291],[38.469,68.237],[38.464,68.233],[38.437,68.231],[38.668,68.146],[39.43,68.02],[39.765,67.965],[39.918,67.94],[40.217,67.833],[40.217,67.845],[40.212,67.849],[40.617,67.725],[40.617,67.724],[40.668,67.709],[40.717,67.694],[40.721,67.692],[40.825,67.66],[40.827,67.659],[40.907,67.591],[40.971,67.535],[40.956,67.384],[40.951,67.335],[41.017,67.202],[41.209,67.069],[41.224,67.025],[41.201,67.009],[41.254,66.939],[41.116,66.761],[40.505,66.427],[40.004,66.257],[38.656,66.064],[37.924,66.083],[37.145,66.242],[35.554,66.384],[34.898,66.594],[34.464,66.541],[34.373,66.621],[34.505,66.632],[34.352,66.699],[34.118,66.675],[34.184,66.746],[34.151,66.786],[34.13,66.703],[34.064,66.684],[34.054,66.76],[34.026,66.686],[33.926,66.686],[33.607,66.852],[33.601,66.792],[33.539,66.819],[33.583,66.738],[33.504,66.717],[32.79,67.029],[32.998,67.084],[32.323,67.167],[31.87,67.139],[32.046,67.097],[32.266,67.11],[32.441,67.032],[32.265,67.002],[32.219,66.994],[32.36,66.924],[32.361,66.92],[32.354,66.915],[32.544,66.804],[32.628,66.741],[32.625,66.757],[32.797,66.657],[32.748,66.675],[32.746,66.675],[32.725,66.676],[32.712,66.68],[32.754,66.649],[32.784,66.639],[32.811,66.649],[32.883,66.607],[32.821,66.591],[33.134,66.545],[32.931,66.519],[33.122,66.501],[33.201,66.458],[33.24,66.437],[33.256,66.428],[33.358,66.372],[33.433,66.331],[33.198,66.276],[33.077,66.276],[32.982,66.249],[33.599,66.313],[33.563,66.276],[33.964,66.163]],[[75.824,54.615],[75.79,54.561],[75.68,54.531],[75.688,54.109],[76.186,54.247],[76.176,54.29],[76.22,54.338],[76.477,54.318],[76.626,54.352],[76.674,54.432],[76.899,54.453],[76.749,54.38],[76.83,54.341],[76.833,54.3],[76.664,54.14],[76.412,54.171],[76.369,54.147],[76.523,53.957],[77.61,53.438],[77.785,53.322],[77.849,53.38],[77.94,53.385],[77.94,53.44],[78.062,53.462],[78.051,53.5],[77.932,53.507],[77.931,53.559],[77.965,53.572],[78.202,53.607],[78.243,53.496],[78.377,53.483],[78.625,53.521],[78.609,53.616],[78.666,53.651],[79.246,53.675],[79.377,53.715],[79.424,53.686],[79.573,53.728],[79.676,53.825],[79.865,53.853],[79.873,53.929],[80.046,53.997],[80.127,54.069],[80.206,54.038],[80.422,54.122],[80.489,54.105],[80.586,54.198],[80.649,54.196],[80.765,54.262],[80.841,54.253],[80.811,54.332],[80.922,54.389],[80.99,54.261],[81.099,54.208],[81.113,54.138],[81.471,54.067],[81.569,54.013],[81.552,53.93],[81.713,53.992],[81.846,53.963],[81.841,53.903],[81.721,53.841],[81.832,53.709],[81.967,53.714],[82.113,53.656],[82.205,53.689],[82.171,53.598],[82.247,53.59],[82.486,53.464],[82.605,53.504],[82.552,53.556],[82.667,53.69],[82.767,53.755],[82.746,53.789],[83.188,54.059],[83.248,54.044],[83.293,54.076],[83.407,53.936],[83.505,53.99],[83.495,54.079],[83.569,54.121],[83.9,54.132],[83.906,54.09],[84.266,54.21],[84.287,54.168],[84.389,54.183],[84.445,54.135],[84.535,54.165],[84.696,54.333],[85.083,54.466],[84.961,54.601],[85.048,54.665],[84.962,54.735],[85.014,54.759],[85.081,54.869],[84.889,54.987],[84.921,55.166],[84.829,55.244],[84.871,55.294],[84.879,55.392],[84.669,55.409],[84.765,55.451],[84.735,55.496],[84.776,55.541],[84.704,55.673],[84.557,55.725],[84.636,55.769],[84.609,55.845],[84.513,55.875],[84.517,55.95],[84.577,55.962],[84.537,56.043],[84.409,56.049],[84.347,55.989],[84.218,56.06],[83.968,56.019],[83.903,55.917],[83.765,55.876],[83.643,55.706],[83.486,55.714],[83.423,55.689],[83.434,55.728],[83.403,55.74],[83.3,55.692],[83.233,55.745],[83.278,55.779],[83.294,55.841],[83.362,55.84],[83.412,55.902],[83.357,55.973],[83.237,56.044],[83.289,56.108],[83.132,56.138],[83.149,56.19],[83.223,56.211],[83.17,56.242],[83.086,56.232],[83.206,56.336],[83.162,56.378],[83.261,56.44],[83.086,56.558],[82.997,56.513],[82.813,56.528],[82.796,56.505],[82.826,56.449],[82.762,56.416],[82.689,56.433],[82.45,56.406],[82.34,56.361],[81.944,56.344],[81.556,56.263],[81.217,56.512],[81.123,56.538],[80.252,56.459],[79.592,56.933],[78.456,57.125],[78.445,57.166],[76.92,57.193],[76.108,57.255],[76.191,56.968],[76.244,56.91],[76.277,56.73],[76.144,56.637],[76.045,56.625],[76.011,56.556],[75.864,56.505],[75.841,56.461],[75.884,56.438],[75.938,56.472],[76.051,56.474],[76.127,56.447],[76.075,56.41],[76.107,56.321],[76.276,56.245],[76.311,56.196],[76.171,56.16],[75.999,56.183],[75.939,56.134],[75.762,56.146],[75.695,56.075],[75.548,56.053],[75.29,55.871],[75.296,55.839],[75.365,55.805],[75.348,55.772],[75.216,55.747],[75.092,55.767],[75.131,55.696],[75.213,55.662],[75.133,55.594],[75.189,55.561],[75.296,55.562],[75.309,55.507],[75.175,55.46],[75.093,55.381],[75.255,55.261],[75.25,55.134],[75.387,55.037],[75.334,54.915],[75.517,54.9],[75.496,54.833],[75.653,54.801],[75.706,54.685],[75.792,54.69],[75.824,54.615]]],[[[52.456,72.275],[52.628,72.24],[52.599,72.29],[52.725,72.314],[52.575,72.364],[52.761,72.325],[52.705,72.427],[52.849,72.431],[52.71,72.443],[52.719,72.474],[52.901,72.496],[52.98,72.573],[52.727,72.54],[52.846,72.611],[52.748,72.629],[52.976,72.662],[52.403,72.717],[52.614,72.852],[52.954,72.908],[53.298,72.865],[53.524,72.854],[53.628,72.889],[53.085,72.949],[53.415,72.996],[53.154,73.09],[53.277,73.171],[53.768,73.28],[54.248,73.258],[54.916,73.424],[55.435,73.313],[55.803,73.319],[56.566,73.138],[55.819,73.057],[56.434,73.033],[56.315,72.986],[55.546,72.942],[56.275,72.947],[56.12,72.779],[55.342,72.762],[55.843,72.738],[55.922,72.65],[55.668,72.655],[55.695,72.595],[55.598,72.523],[55.494,72.559],[55.298,72.569],[55.563,72.508],[55.302,72.441],[55.479,72.435],[55.483,72.351],[55.362,72.287],[55.576,72.173],[55.408,72.098],[55.46,72.056],[55.363,71.98],[55.433,71.934],[55.275,71.943],[55.524,71.882],[55.655,71.626],[56.214,71.185],[57.613,70.708],[57.468,70.659],[57.476,70.592],[57.358,70.607],[57.433,70.587],[57.037,70.655],[56.763,70.672],[57.321,70.542],[56.547,70.655],[56.683,70.618],[56.608,70.618],[56.505,70.66],[56.623,70.718],[56.516,70.741],[56.22,70.738],[56.325,70.691],[56.193,70.699],[56.321,70.652],[56.159,70.651],[56.226,70.633],[55.794,70.665],[56.032,70.557],[55.884,70.567],[55.83,70.606],[55.745,70.593],[55.706,70.6],[55.665,70.625],[55.611,70.633],[55.631,70.638],[55.746,70.6],[55.568,70.677],[55.763,70.611],[55.861,70.613],[55.611,70.724],[55.81,70.616],[55.436,70.733],[55.354,70.685],[55.099,70.765],[54.906,70.762],[55.358,70.679],[55.401,70.687],[55.452,70.659],[55.481,70.633],[55.27,70.681],[55.206,70.657],[55.293,70.562],[55.168,70.545],[54.54,70.782],[54.431,70.735],[54.791,70.636],[54.306,70.763],[54.047,70.724],[53.906,70.815],[53.846,70.797],[53.925,70.778],[53.899,70.76],[53.872,70.761],[53.421,70.843],[53.575,70.881],[53.752,70.811],[53.683,70.878],[53.778,70.93],[53.51,71.087],[53.963,71.015],[53.906,71.073],[54.175,71.07],[54.266,71.095],[54.011,71.137],[54.225,71.147],[54.103,71.212],[53.805,71.19],[53.838,71.134],[53.741,71.183],[53.551,71.196],[53.464,71.257],[53.547,71.254],[53.552,71.277],[53.334,71.335],[53.287,71.438],[53.496,71.528],[53.472,71.573],[53.238,71.499],[53.147,71.409],[53.096,71.484],[52.999,71.511],[53.055,71.465],[52.935,71.472],[53.029,71.4],[52.953,71.371],[52.882,71.46],[52.78,71.464],[52.856,71.41],[52.621,71.461],[52.717,71.524],[52.583,71.598],[52.635,71.591],[52.554,71.652],[52.573,71.731],[52.531,71.764],[52.504,71.68],[52.536,71.565],[52.399,71.539],[52.458,71.462],[52.297,71.571],[52.261,71.568],[52.193,71.529],[52.301,71.461],[51.686,71.527],[51.442,71.778],[51.564,72.061],[51.859,72.154],[52.046,72.049],[52.224,72.13],[52.175,72.069],[52.527,72.026],[52.398,72.098],[52.442,72.123],[52.441,72.168],[52.467,72.118],[52.562,72.131],[52.526,72.175],[52.431,72.212],[52.551,72.186],[52.456,72.275]]],[[[23.272,59.949],[23.264,59.954],[23.296,59.976],[23.329,60.047],[23.238,59.944],[23.096,59.948],[23.232,60.036],[23.03,59.985],[23.027,59.91],[22.978,59.953],[22.888,59.916],[22.815,59.979],[22.81,60.017],[22.984,59.972],[23.024,60.049],[23.113,60.008],[23.265,60.063],[23.198,60.075],[23.06,60.044],[23.07,60.055],[22.984,60.085],[23.227,60.127],[23.224,60.127],[23.196,60.133],[23.311,60.186],[23.393,60.16],[23.642,60.198],[23.592,60.259],[23.725,60.319],[23.794,60.419],[23.779,60.45],[23.7,60.452],[23.865,60.512],[23.861,60.556],[23.914,60.597],[23.881,60.633],[23.948,60.653],[23.766,60.652],[23.477,60.747],[23.267,60.728],[23.176,60.764],[23.162,60.78],[23.216,60.82],[23.138,60.871],[23.267,60.893],[23.256,60.915],[23.296,60.947],[23.122,61.032],[22.995,61.032],[22.967,61.057],[23.001,61.079],[22.923,61.089],[22.969,61.114],[22.922,61.153],[22.95,61.177],[22.924,61.211],[22.661,61.245],[22.573,61.324],[22.572,61.395],[22.64,61.391],[22.729,61.437],[22.725,61.471],[22.641,61.5],[22.602,61.553],[22.722,61.648],[22.654,61.675],[22.694,61.731],[22.805,61.781],[22.823,61.823],[22.743,61.854],[22.784,61.876],[22.549,62.003],[22.773,62.068],[22.769,62.151],[22.855,62.173],[22.838,62.271],[23.167,62.318],[23.316,62.419],[23.505,62.373],[23.506,62.409],[23.899,62.48],[23.922,62.407],[24.02,62.364],[24.035,62.309],[24.078,62.286],[24.246,62.255],[24.376,62.159],[24.565,62.181],[24.669,62.109],[24.685,62.049],[24.869,62.056],[24.947,61.918],[24.938,61.801],[24.981,61.787],[24.996,61.732],[24.923,61.709],[24.958,61.638],[24.798,61.637],[24.829,61.568],[24.907,61.58],[24.897,61.55],[24.958,61.456],[24.87,61.474],[24.967,61.451],[25.426,61.49],[25.516,61.678],[25.764,61.693],[25.862,61.798],[25.875,61.76],[25.925,61.784],[26.009,61.721],[26.052,61.727],[26.082,61.705],[26.058,61.666],[26.146,61.626],[26.304,61.65],[26.32,61.576],[26.282,61.577],[26.257,61.439],[26.319,61.397],[26.294,61.371],[26.479,61.312],[26.507,61.272],[26.635,61.283],[26.664,61.21],[26.872,61.283],[26.929,61.185],[27.002,61.152],[27.33,61.168],[27.39,61.204],[27.226,61.316],[27.256,61.324],[26.976,61.344],[27.018,61.375],[27.25,61.404],[27.54,61.36],[28.181,61.373],[28.342,61.419],[28.469,61.509],[28.653,61.47],[28.809,61.498],[28.821,61.538],[29.246,61.56],[29.564,61.724],[30.146,61.85],[29.779,61.593],[29.517,61.475],[29.203,61.246],[28.798,61.097],[28.615,60.962],[28.481,60.933],[27.893,60.601],[27.897,60.6],[27.899,60.598],[27.808,60.553],[27.766,60.582],[27.727,60.579],[27.697,60.517],[27.741,60.485],[27.619,60.526],[27.567,60.505],[27.619,60.467],[27.552,60.495],[27.468,60.513],[27.491,60.46],[27.451,60.474],[27.426,60.465],[27.365,60.514],[27.229,60.532],[27.197,60.515],[27.228,60.55],[27.179,60.585],[27.162,60.572],[27.175,60.52],[27.008,60.555],[26.94,60.471],[26.78,60.493],[26.734,60.48],[26.746,60.45],[26.678,60.425],[26.455,60.486],[26.336,60.371],[26.237,60.458],[26.265,60.389],[26.255,60.398],[26.182,60.411],[26.168,60.425],[26.2,60.362],[26.166,60.399],[26.054,60.423],[25.979,60.479],[25.919,60.49],[25.97,60.476],[25.968,60.47],[25.958,60.445],[26.042,60.413],[25.993,60.402],[26.12,60.325],[25.844,60.412],[25.913,60.367],[25.863,60.333],[25.924,60.252],[25.743,60.324],[25.785,60.282],[25.848,60.267],[25.67,60.276],[25.628,60.328],[25.719,60.334],[25.689,60.379],[25.514,60.328],[25.553,60.308],[25.514,60.286],[25.528,60.282],[25.51,60.279],[25.511,60.266],[25.498,60.258],[25.496,60.253],[25.494,60.249],[25.328,60.285],[25.346,60.258],[25.241,60.261],[25.204,60.255],[25.191,60.248],[25.209,60.233],[25.155,60.234],[25.154,60.183],[24.981,60.216],[24.925,60.145],[24.893,60.202],[24.845,60.21],[24.838,60.167],[24.685,60.14],[24.678,60.116],[24.636,60.152],[24.575,60.178],[24.628,60.136],[24.566,60.101],[24.619,60.121],[24.647,60.109],[24.584,60.095],[24.621,60.086],[24.508,60.02],[24.507,59.997],[24.494,60.0],[24.456,60.009],[24.395,59.966],[24.42,59.998],[24.457,60.045],[24.416,60.034],[24.406,60.018],[24.371,60.037],[24.335,60.003],[24.387,60.085],[23.837,60.018],[23.901,60.012],[23.831,59.998],[23.805,59.968],[23.809,59.984],[23.731,59.987],[23.623,59.961],[23.569,59.992],[23.479,59.982],[23.424,59.963],[23.553,60.097],[23.514,60.085],[23.492,60.05],[23.463,60.05],[23.38,59.941],[23.223,59.891],[23.245,59.856],[23.214,59.847],[23.214,59.843],[23.216,59.84],[22.916,59.808],[23.207,59.911],[23.272,59.949]]],[[[43.88,44.814],[43.449,46.0],[43.875,45.941],[44.077,45.792],[44.138,45.656],[44.205,45.606],[44.42,45.522],[44.736,45.492],[45.583,45.154],[45.708,45.011],[45.704,44.971],[46.0,44.981],[46.433,44.932],[46.757,44.812],[46.791,44.76],[46.881,44.78],[46.888,44.747],[46.928,44.754],[46.933,44.766],[46.933,44.773],[47.007,44.815],[47.005,44.84],[47.0,44.915],[47.031,44.851],[47.055,44.803],[46.873,44.68],[46.805,44.672],[44.755,44.439],[43.88,44.814]]],[[[47.534,46.02],[47.345,46.012],[47.241,46.09],[47.616,46.175],[47.575,46.211],[47.689,46.205],[47.714,46.245],[47.881,46.249],[47.969,46.315],[47.972,46.364],[48.025,46.384],[47.968,46.406],[47.962,46.466],[48.07,46.387],[48.047,46.471],[48.0,46.475],[48.045,46.508],[48.1,46.464],[48.223,46.467],[48.278,46.408],[48.263,46.44],[48.291,46.477],[48.334,46.434],[48.406,46.488],[48.516,46.441],[48.538,46.493],[48.619,46.445],[48.736,46.481],[48.896,46.477],[49.145,46.36],[49.14,46.334],[49.141,46.323],[49.336,46.2],[49.326,46.137],[49.243,46.162],[49.318,46.068],[49.252,46.102],[49.233,46.0],[49.033,46.12],[49.0,45.951],[48.929,45.979],[48.857,45.841],[48.843,45.841],[48.836,45.828],[48.833,45.837],[48.838,45.837],[48.827,45.843],[48.812,45.891],[48.754,45.899],[48.716,45.814],[48.705,45.827],[48.705,45.828],[48.695,45.839],[48.686,45.85],[48.673,45.88],[48.68,45.901],[48.598,45.953],[48.303,45.768],[48.223,45.753],[48.226,45.747],[48.245,45.755],[48.27,45.753],[48.279,45.749],[48.313,45.758],[48.243,45.71],[48.007,45.632],[47.856,45.699],[47.882,45.465],[47.731,45.631],[47.769,45.518],[47.778,45.448],[47.769,45.409],[47.691,45.661],[47.649,45.706],[47.64,45.707],[47.607,45.81],[47.542,45.819],[47.595,45.87],[47.617,45.951],[47.532,45.98],[47.534,46.02]]],[[[32.831,47.962],[32.898,47.982],[32.89,48.024],[32.974,48.039],[33.0,47.91],[33.074,47.915],[33.08,47.889],[33.045,47.782],[33.066,47.743],[32.968,47.726],[32.991,47.618],[32.955,47.591],[33.089,47.592],[33.091,47.525],[33.141,47.518],[32.054,47.572],[32.038,47.798],[32.139,47.743],[32.234,47.756],[32.242,47.811],[32.289,47.817],[32.466,47.776],[32.646,47.796],[32.687,47.844],[32.683,47.902],[32.75,47.931],[32.698,47.965],[32.777,47.984],[32.831,47.962]]],[[[91.431,53.89],[91.485,53.733],[91.562,53.703],[91.57,53.668],[91.534,53.64],[91.622,53.571],[91.622,53.53],[91.857,53.452],[91.898,53.419],[91.914,53.349],[91.852,53.312],[91.851,53.355],[91.747,53.451],[91.477,53.516],[91.459,53.608],[91.339,53.76],[91.333,53.816],[91.431,53.89]]],[[[50.907,47.014],[51.212,47.116],[51.323,47.085],[51.117,47.063],[50.982,46.996],[51.0,46.989],[51.0,46.988],[51.001,46.988],[51.011,46.98],[51.025,46.98],[50.698,46.865],[50.679,46.917],[50.574,46.798],[50.461,46.862],[50.368,46.77],[50.432,46.891],[50.571,46.824],[50.62,46.93],[50.732,46.963],[50.737,46.964],[50.751,46.968],[50.743,46.902],[50.824,47.0],[50.85,47.032],[50.907,47.014]]],[[[35.814,65.052],[35.812,65.088],[35.787,65.099],[35.739,65.045],[35.88,65.019],[36.024,65.04],[35.751,64.955],[35.502,65.105],[35.762,65.172],[35.84,65.138],[35.825,65.096],[35.84,65.049],[35.85,65.041],[35.864,65.039],[35.856,65.037],[35.814,65.052]]],[[[56.649,70.564],[56.356,70.572],[56.408,70.572],[56.162,70.631],[56.382,70.623],[56.445,70.633],[56.339,70.659],[56.432,70.666],[56.649,70.564]]],[[[125.664,73.552],[125.826,73.65],[125.883,73.651],[125.91,73.644],[125.754,73.53],[125.862,73.499],[125.798,73.487],[125.664,73.552]]],[[[36.073,65.125],[35.931,65.154],[35.934,65.18],[35.99,65.193],[36.274,65.157],[36.073,65.125]]]]}}]}