{"type":"FeatureCollection","features":[{"type":"Feature","properties":{"lite":true,"src":"data/years/1722-08-23.geojson"},"geometry":{"type":"MultiPolygon","coordinates":[[[[23.746,58.341],[23.685,58.526],[23.503,58.564],[23.54,58.593],[23.489,58.689],[23.802,58.751],[23.727,58.788],[23.441,58.766],[23.536,58.814],[23.425,58.943],[23.53,58.939],[23.664,58.972],[23.404,59.026],[23.45,59.029],[23.435,59.078],[23.542,59.09],[23.508,59.229],[24.084,59.269],[24.035,59.387],[24.241,59.344],[24.179,59.397],[24.359,59.474],[24.79,59.443],[24.796,59.572],[24.969,59.489],[25.149,59.476],[25.146,59.541],[25.441,59.491],[25.555,59.541],[25.497,59.648],[25.67,59.564],[25.713,59.601],[25.671,59.654],[25.697,59.675],[25.814,59.564],[25.98,59.635],[26.949,59.437],[27.914,59.402],[28.074,59.513],[28.093,59.598],[27.997,59.692],[28.096,59.79],[28.369,59.664],[28.473,59.828],[28.845,59.782],[29.208,59.993],[30.176,59.87],[30.169,59.888],[30.222,59.906],[30.235,59.928],[30.212,59.976],[29.962,60.01],[29.921,60.147],[29.038,60.177],[28.805,60.357],[28.617,60.352],[28.437,60.547],[28.672,60.429],[28.714,60.439],[28.642,60.656],[28.746,60.664],[28.722,60.686],[28.728,60.714],[28.766,60.721],[28.708,60.776],[28.617,60.705],[28.658,60.686],[28.622,60.667],[28.637,60.682],[28.626,60.681],[28.618,60.687],[28.607,60.69],[28.598,60.692],[28.586,60.69],[28.6,60.661],[28.545,60.682],[28.542,60.66],[28.521,60.67],[28.521,60.678],[28.508,60.682],[28.399,60.662],[28.392,60.632],[28.386,60.604],[28.298,60.623],[28.345,60.596],[28.232,60.511],[27.786,60.53],[27.906,60.592],[27.906,60.593],[27.899,60.598],[28.338,60.861],[28.615,60.962],[28.798,61.097],[29.13,61.213],[29.278,61.304],[29.488,61.24],[29.576,61.171],[29.871,61.176],[32.703,60.646],[32.885,60.699],[32.814,60.754],[32.766,60.886],[32.59,61.0],[32.527,61.118],[31.9,61.324],[31.637,61.463],[31.603,61.424],[31.486,61.551],[31.365,61.627],[31.307,61.607],[31.195,61.638],[31.123,62.804],[30.559,63.112],[30.603,65.147],[30.993,65.754],[30.603,66.665],[30.733,68.575],[31.261,69.534],[31.292,69.591],[31.536,69.657],[31.511,69.676],[31.511,69.686],[31.819,69.648],[31.686,69.707],[31.711,69.759],[31.874,69.811],[32.098,69.762],[31.971,69.847],[32.053,69.877],[32.065,69.881],[32.073,69.863],[32.146,69.7],[31.953,69.628],[32.054,69.59],[32.001,69.549],[32.251,69.577],[32.441,69.481],[32.41,69.457],[32.359,69.458],[32.26,69.422],[32.431,69.429],[32.455,69.472],[32.95,69.392],[32.815,69.326],[32.884,69.276],[33.049,69.381],[33.231,69.349],[33.252,69.345],[33.28,69.34],[33.305,69.274],[33.21,69.253],[33.246,69.242],[33.291,69.259],[33.267,69.222],[33.313,69.096],[33.048,69.066],[33.005,68.886],[33.073,69.049],[33.469,69.083],[33.628,69.214],[33.725,69.211],[33.723,69.21],[33.83,69.205],[33.825,69.207],[33.894,69.205],[33.89,69.203],[34.751,69.166],[34.74,69.174],[34.738,69.175],[35.317,69.154],[35.312,69.15],[35.438,69.15],[36.014,69.036],[36.048,69.03],[36.464,68.948],[36.532,68.934],[36.674,68.906],[37.244,68.794],[37.59,68.637],[37.598,68.64],[37.604,68.633],[37.641,68.632],[37.646,68.628],[37.676,68.615],[37.685,68.614],[37.703,68.585],[37.735,68.571],[37.751,68.567],[37.757,68.567],[37.761,68.559],[37.82,68.532],[37.848,68.542],[37.849,68.543],[38.053,68.433],[38.057,68.429],[38.063,68.428],[38.233,68.336],[38.23,68.345],[38.35,68.291],[38.469,68.237],[38.464,68.233],[38.437,68.231],[38.668,68.146],[39.43,68.02],[39.765,67.965],[39.918,67.94],[40.217,67.833],[40.217,67.845],[40.212,67.849],[40.617,67.724],[40.67,67.708],[40.715,67.694],[40.721,67.692],[40.825,67.66],[40.826,67.659],[40.907,67.591],[40.972,67.535],[40.956,67.384],[40.951,67.335],[41.017,67.202],[41.208,67.07],[41.224,67.025],[41.201,67.009],[41.254,66.94],[41.116,66.761],[40.47,66.41],[40.003,66.256],[38.653,66.064],[37.926,66.083],[37.145,66.242],[35.554,66.384],[34.898,66.594],[34.462,66.541],[34.367,66.619],[34.505,66.632],[34.352,66.699],[34.093,66.674],[34.141,66.695],[34.184,66.746],[34.172,66.777],[34.151,66.786],[34.13,66.703],[34.064,66.681],[34.054,66.76],[34.025,66.685],[33.925,66.686],[33.607,66.852],[33.625,66.787],[33.542,66.798],[33.643,66.734],[33.519,66.766],[33.543,66.745],[33.631,66.714],[33.632,66.705],[33.503,66.717],[32.789,67.03],[32.998,67.084],[32.323,67.167],[31.87,67.139],[32.046,67.097],[32.255,67.122],[32.354,67.07],[32.311,67.039],[32.466,67.025],[32.266,67.0],[32.22,66.994],[32.36,66.924],[32.361,66.92],[32.357,66.917],[32.601,66.78],[32.583,66.786],[32.576,66.789],[32.538,66.808],[32.628,66.741],[32.625,66.757],[32.627,66.762],[32.617,66.77],[32.934,66.592],[32.821,66.591],[33.196,66.538],[32.931,66.519],[33.718,66.415],[33.463,66.378],[33.666,66.335],[33.414,66.325],[33.215,66.28],[33.077,66.276],[32.982,66.249],[33.573,66.315],[33.632,66.306],[33.58,66.295],[33.563,66.276],[33.911,66.234],[33.871,66.221],[33.879,66.2],[34.109,66.227],[34.141,66.167],[34.698,65.983],[34.634,65.92],[34.683,65.876],[34.857,65.866],[34.775,65.81],[34.842,65.813],[34.92,65.815],[34.837,65.754],[34.976,65.716],[34.931,65.675],[34.688,65.797],[34.66,65.794],[34.683,65.694],[34.773,65.686],[34.686,65.668],[34.797,65.581],[34.737,65.583],[34.754,65.529],[34.633,65.487],[34.689,65.436],[34.456,65.43],[34.531,65.406],[34.474,65.407],[34.509,65.39],[34.501,65.388],[34.353,65.406],[34.443,65.367],[34.362,65.381],[34.307,65.38],[34.271,65.371],[34.5,65.328],[34.446,65.317],[34.457,65.269],[34.66,65.194],[34.599,65.196],[34.691,65.157],[34.637,65.141],[34.686,65.079],[34.783,65.079],[34.774,64.995],[34.831,65.022],[34.782,64.981],[34.608,64.951],[34.769,64.953],[34.921,64.834],[34.961,64.836],[34.78,64.732],[34.913,64.633],[34.99,64.611],[34.859,64.538],[34.781,64.526],[34.759,64.534],[34.731,64.531],[34.7,64.524],[34.683,64.509],[34.772,64.525],[34.787,64.51],[34.83,64.514],[34.809,64.502],[34.868,64.503],[34.889,64.48],[35.011,64.506],[34.964,64.418],[35.404,64.284],[35.698,64.362],[35.955,64.191],[36.241,64.128],[36.176,64.074],[36.3,63.971],[37.205,63.877],[37.311,63.798],[38.01,63.936],[38.06,64.071],[37.891,64.212],[38.01,64.288],[37.788,64.368],[37.791,64.438],[37.615,64.355],[37.11,64.401],[36.738,64.689],[36.534,64.717],[36.5,64.822],[36.571,64.812],[36.438,64.922],[36.811,64.957],[36.827,65.138],[37.046,65.168],[37.677,65.029],[37.872,64.896],[38.37,64.843],[38.368,64.763],[38.007,64.757],[38.125,64.673],[37.994,64.614],[38.013,64.584],[38.15,64.656],[38.158,64.711],[38.495,64.735],[38.431,64.808],[39.527,64.55],[39.756,64.539],[39.85,64.676],[39.894,64.661],[40.182,64.559],[40.421,64.548],[40.44,64.565],[40.196,64.574],[40.055,64.653],[39.917,64.674],[39.909,64.669],[39.844,64.685],[39.947,64.692],[39.962,64.701],[39.98,64.695],[40.0,64.699],[40.0,64.697],[40.025,64.7],[40.055,64.715],[40.189,64.708],[40.302,64.635],[40.444,64.603],[40.453,64.675],[40.421,64.721],[40.426,64.723],[40.331,64.894],[40.34,64.89],[40.321,64.912],[40.274,64.945],[39.724,65.336],[39.765,65.566],[40.486,65.812],[40.743,65.984],[41.523,66.121],[42.206,66.51],[42.632,66.393],[43.259,66.411],[43.349,66.32],[43.6,66.294],[44.072,66.066],[44.019,65.983],[44.194,65.812],[44.203,65.822],[44.195,65.835],[44.204,65.823],[44.214,65.832],[44.18,65.869],[44.234,65.846],[44.222,65.861],[44.191,65.87],[44.189,65.876],[44.188,65.876],[44.185,65.88],[44.167,65.885],[44.166,65.929],[44.113,65.973],[44.109,65.977],[44.108,65.977],[44.105,65.979],[44.101,65.979],[44.089,65.979],[44.084,65.986],[44.182,66.041],[44.074,66.228],[44.303,66.408],[44.309,66.406],[44.859,66.231],[45.741,66.063],[45.833,66.083],[46.347,66.023],[47.11,65.816],[47.408,65.831],[47.662,65.803],[47.764,65.84],[47.737,65.913],[47.757,65.937],[48.141,66.122],[49.007,66.114],[51.512,66.778],[51.554,66.797],[51.491,66.83],[51.525,66.922],[51.812,66.949],[51.849,66.997],[52.022,67.023],[52.159,67.081],[53.772,66.994],[59.879,66.997],[59.869,66.963],[59.919,66.949],[60.083,66.985],[61.661,67.011],[61.854,67.122],[62.823,67.383],[62.878,67.578],[63.107,67.67],[63.422,67.763],[63.691,67.757],[63.711,67.805],[63.873,67.831],[63.952,67.895],[63.919,67.964],[63.839,68.025],[64.326,68.129],[64.351,68.173],[64.418,68.196],[64.532,68.196],[64.501,68.314],[64.559,68.354],[64.761,68.401],[65.006,68.384],[65.445,68.424],[65.269,68.232],[65.324,68.09],[65.286,68.01],[65.436,67.915],[65.781,67.919],[65.91,67.955],[66.084,67.925],[66.015,67.796],[66.194,67.736],[66.2,67.695],[66.106,67.652],[66.0,67.683],[65.85,67.659],[65.819,67.631],[65.839,67.604],[65.791,67.568],[66.033,67.57],[66.1,67.506],[66.085,67.471],[65.937,67.398],[65.7,67.393],[65.673,67.368],[65.701,67.339],[65.662,67.316],[65.188,67.149],[65.207,67.078],[65.073,67.043],[65.102,66.997],[65.098,66.897],[64.575,66.803],[64.533,66.733],[64.411,66.728],[64.295,66.668],[63.98,66.656],[63.807,66.552],[63.541,66.476],[63.413,66.485],[63.237,66.33],[63.292,66.244],[63.104,66.255],[63.009,66.199],[62.957,66.118],[62.858,66.078],[62.817,66.011],[62.87,65.977],[62.798,65.932],[62.844,65.877],[62.522,65.844],[62.014,65.72],[62.273,65.619],[62.322,65.537],[62.402,65.511],[62.369,65.447],[62.479,65.345],[62.81,65.289],[62.797,65.054],[62.673,64.891],[62.806,64.833],[62.816,64.806],[62.781,64.785],[62.799,64.736],[62.59,64.645],[62.533,64.551],[62.687,64.489],[62.899,64.472],[63.234,64.519],[63.455,64.454],[63.497,64.377],[63.41,64.325],[63.611,64.263],[63.889,64.279],[64.017,64.352],[64.478,64.355],[64.604,64.432],[64.761,64.422],[64.995,64.461],[65.177,64.441],[65.4,64.566],[65.884,64.564],[66.02,64.59],[66.465,64.507],[66.682,64.552],[66.932,64.482],[66.884,64.383],[66.792,64.328],[66.816,64.221],[67.161,64.159],[67.163,64.121],[67.253,64.112],[67.279,64.076],[67.677,64.074],[67.798,64.027],[67.929,64.111],[68.18,64.171],[68.427,64.291],[68.884,64.218],[68.894,64.266],[68.995,64.33],[68.874,64.433],[69.015,64.467],[69.229,64.465],[69.389,64.384],[69.732,64.389],[69.824,64.336],[69.999,64.311],[70.304,64.339],[70.471,64.247],[70.67,64.232],[70.765,64.189],[70.77,64.117],[70.554,63.999],[70.641,63.893],[70.818,63.811],[70.911,63.688],[71.386,63.67],[71.546,63.587],[71.607,63.18],[71.805,63.214],[71.989,63.197],[72.16,63.294],[72.656,63.275],[72.911,63.389],[73.101,63.431],[73.279,63.313],[73.366,63.202],[74.24,63.167],[74.507,63.038],[74.915,63.027],[75.363,63.103],[75.7,63.086],[75.804,63.109],[76.235,63.015],[76.297,62.945],[76.689,63.034],[76.823,62.987],[77.022,62.971],[77.155,62.787],[77.326,62.706],[77.885,62.553],[78.015,62.456],[78.379,62.563],[78.793,62.61],[79.821,62.599],[79.907,62.699],[79.92,62.789],[80.555,62.996],[80.592,63.079],[81.109,63.11],[81.171,62.969],[81.316,62.881],[81.337,62.821],[81.596,62.769],[81.633,62.73],[81.783,62.684],[82.165,62.804],[82.316,62.765],[82.746,62.749],[82.755,62.666],[83.006,62.591],[83.032,62.525],[83.282,62.456],[83.798,62.555],[83.938,62.48],[84.017,62.392],[84.24,62.368],[84.286,62.272],[84.39,62.236],[84.444,62.17],[84.487,62.096],[84.516,61.925],[84.684,61.801],[85.096,61.747],[85.277,61.669],[85.403,61.682],[85.491,61.613],[85.712,61.568],[85.843,61.588],[85.956,61.541],[85.962,61.455],[86.129,61.374],[86.211,61.374],[86.327,61.452],[86.507,61.406],[86.523,61.349],[86.603,61.311],[86.775,61.317],[86.976,61.36],[86.989,61.411],[86.95,61.447],[87.003,61.46],[87.254,61.376],[87.245,61.354],[87.467,61.339],[87.474,61.266],[87.564,61.209],[87.692,61.267],[87.713,61.296],[87.676,61.329],[87.778,61.362],[87.963,61.315],[88.182,61.346],[88.953,60.746],[89.867,60.807],[90.946,60.746],[91.965,60.751],[92.138,60.829],[92.136,60.89],[92.234,60.951],[92.227,60.98],[92.409,60.968],[92.474,60.997],[92.401,61.111],[92.467,61.195],[92.56,61.191],[92.757,61.087],[92.902,61.068],[92.891,61.095],[92.939,61.13],[92.818,61.216],[92.829,61.236],[92.632,61.304],[92.83,61.359],[92.93,61.332],[93.012,61.363],[93.151,61.321],[93.156,61.244],[93.343,61.1],[93.472,61.082],[93.568,61.104],[93.732,61.038],[93.918,61.058],[94.029,60.96],[94.252,61.12],[94.382,61.118],[94.546,61.174],[94.721,61.158],[95.113,61.089],[95.359,60.921],[95.402,60.816],[95.326,60.744],[95.48,60.706],[95.234,60.563],[95.227,60.499],[95.289,60.451],[95.267,60.423],[95.113,60.416],[95.022,60.37],[94.929,60.237],[95.011,60.196],[94.977,60.113],[95.081,60.049],[95.007,60.007],[95.02,59.966],[95.062,59.89],[95.173,59.803],[95.136,59.755],[95.241,59.637],[95.498,59.637],[95.593,59.575],[95.726,59.554],[95.783,59.606],[95.881,59.627],[95.954,59.628],[96.052,59.556],[96.239,59.626],[96.326,59.549],[96.29,59.505],[96.352,59.471],[96.452,59.473],[96.554,59.539],[96.784,59.549],[97.121,59.5],[97.224,59.535],[97.237,59.577],[97.204,59.615],[97.361,59.66],[97.457,59.73],[97.696,59.679],[98.052,59.723],[98.129,59.768],[98.337,59.723],[98.445,59.784],[98.606,59.762],[98.878,59.826],[98.935,59.767],[99.001,59.772],[99.102,59.841],[99.116,59.906],[99.409,60.029],[99.412,60.078],[99.649,60.116],[100.066,59.994],[100.097,59.959],[100.072,59.895],[100.315,59.841],[100.429,59.859],[100.553,59.788],[100.866,59.783],[101.025,59.714],[101.448,59.683],[101.472,59.725],[101.729,59.74],[101.79,59.712],[101.785,59.684],[102.016,59.637],[102.107,59.589],[102.443,59.647],[102.485,59.627],[102.456,59.614],[102.454,59.524],[102.525,59.498],[102.527,59.471],[102.639,59.449],[102.483,59.392],[102.517,59.26],[102.436,59.214],[102.484,59.181],[102.616,59.206],[102.82,59.187],[102.899,59.27],[103.014,59.312],[103.136,59.254],[103.212,59.251],[103.235,59.285],[103.333,59.268],[103.342,59.243],[103.21,59.232],[103.235,59.17],[103.309,59.131],[103.391,59.025],[103.555,58.993],[103.623,58.918],[103.896,58.917],[103.976,58.867],[103.944,58.835],[103.951,58.774],[103.884,58.754],[103.889,58.732],[103.97,58.723],[104.04,58.783],[104.19,58.771],[104.252,58.711],[104.376,58.722],[104.343,58.67],[104.467,58.604],[104.814,58.672],[104.899,58.748],[104.766,58.812],[104.792,58.861],[105.135,59.055],[105.277,59.063],[105.373,59.116],[105.314,59.161],[105.343,59.197],[105.307,59.249],[105.19,59.301],[105.241,59.445],[105.149,59.49],[104.976,59.473],[104.859,59.558],[104.886,59.608],[104.811,59.63],[104.813,59.673],[104.782,59.692],[104.889,59.76],[105.026,59.773],[105.018,59.83],[105.07,59.869],[105.372,59.834],[105.429,59.853],[105.466,59.826],[105.52,59.844],[105.437,59.902],[105.429,59.947],[105.51,60.0],[105.433,60.149],[105.512,60.23],[105.344,60.304],[105.231,60.28],[104.903,60.305],[104.854,60.352],[104.669,60.411],[104.649,60.522],[104.585,60.544],[104.575,60.591],[104.514,60.627],[104.614,60.726],[104.582,60.773],[104.492,60.807],[104.486,60.843],[104.638,60.903],[104.586,60.946],[104.648,61.036],[104.631,61.074],[104.697,61.083],[104.856,61.186],[105.049,61.175],[104.953,61.32],[104.826,61.354],[105.01,61.407],[105.283,61.419],[105.284,61.466],[105.378,61.54],[105.587,61.586],[105.669,61.65],[105.814,61.625],[105.896,61.681],[105.982,61.686],[105.903,61.841],[106.276,62.018],[106.399,62.039],[106.417,62.099],[106.393,62.14],[106.454,62.196],[106.47,62.261],[106.381,62.284],[106.487,62.337],[106.445,62.393],[106.548,62.392],[106.634,62.46],[106.759,62.493],[106.689,62.564],[106.8,62.627],[106.478,62.703],[106.516,62.728],[106.516,62.794],[106.453,62.818],[106.438,62.868],[106.205,62.928],[106.193,62.973],[106.153,62.982],[106.175,63.008],[106.127,63.077],[106.4,63.122],[106.398,63.182],[106.443,63.218],[106.356,63.256],[106.422,63.353],[106.622,63.312],[106.741,63.395],[106.503,63.537],[106.524,63.563],[106.602,63.558],[106.593,63.598],[106.66,63.622],[106.694,63.661],[106.612,63.722],[106.795,63.87],[106.73,63.912],[106.733,63.939],[106.629,63.974],[106.631,64.005],[106.675,64.037],[106.97,63.966],[107.043,63.922],[107.197,63.977],[107.303,63.973],[107.371,63.931],[107.339,63.904],[107.416,63.889],[107.454,63.917],[107.585,63.897],[107.632,63.93],[107.632,63.975],[107.761,64.015],[108.206,63.999],[108.315,64.006],[108.394,64.048],[108.248,64.255],[108.086,64.252],[108.049,64.192],[107.978,64.187],[107.642,64.316],[107.353,64.269],[107.274,64.303],[107.258,64.35],[107.105,64.359],[106.917,64.443],[106.738,64.429],[106.656,64.533],[106.58,64.548],[106.547,64.526],[106.576,64.481],[106.553,64.465],[106.256,64.452],[106.181,64.421],[106.094,64.432],[106.138,64.488],[106.025,64.546],[105.906,64.495],[105.763,64.497],[105.79,64.552],[105.717,64.591],[105.756,64.642],[105.7,64.679],[105.873,64.672],[105.829,64.781],[105.872,64.832],[105.992,64.828],[105.935,64.902],[106.033,64.913],[106.027,64.88],[106.058,64.865],[106.212,64.871],[105.959,65.037],[106.111,65.065],[106.194,65.128],[106.312,65.14],[106.411,65.222],[106.528,65.215],[106.436,65.251],[106.449,65.314],[106.615,65.39],[106.819,65.373],[106.973,65.505],[106.71,65.545],[106.705,65.607],[106.435,65.675],[106.464,65.733],[106.439,65.771],[106.495,65.797],[106.47,65.824],[106.498,65.883],[106.469,65.922],[106.522,66.004],[106.34,66.158],[106.202,66.154],[106.117,66.199],[106.141,66.249],[106.12,66.37],[106.335,66.47],[106.317,66.542],[106.391,66.489],[106.52,66.498],[106.762,66.424],[106.895,66.432],[106.921,66.48],[107.07,66.536],[107.24,66.456],[107.5,66.447],[107.603,66.491],[107.839,66.483],[107.885,66.451],[107.966,66.463],[107.982,66.416],[108.043,66.413],[108.106,66.44],[108.11,66.529],[108.387,66.642],[108.389,66.672],[108.27,66.714],[108.776,66.757],[108.803,66.806],[108.876,66.822],[108.982,66.753],[108.909,66.719],[108.863,66.64],[109.021,66.585],[109.203,66.606],[109.253,66.51],[109.232,66.465],[109.357,66.434],[109.385,66.388],[109.383,66.344],[109.277,66.316],[109.279,66.256],[109.352,66.232],[109.347,66.149],[109.452,66.146],[109.519,66.19],[109.672,66.194],[109.815,66.261],[109.958,66.262],[110.143,66.339],[110.375,66.367],[110.33,66.448],[110.52,66.461],[110.768,66.548],[111.103,66.559],[111.235,66.598],[111.36,66.567],[111.578,66.64],[111.737,66.657],[112.117,66.661],[112.207,66.609],[112.323,66.595],[112.503,66.627],[112.696,66.615],[112.759,66.569],[112.884,66.558],[112.942,66.488],[113.12,66.436],[113.185,66.383],[113.266,66.224],[113.314,66.21],[113.274,66.104],[113.452,66.032],[113.486,65.928],[113.403,65.894],[113.3,65.924],[113.054,65.925],[112.931,65.871],[112.869,65.784],[112.767,65.762],[112.67,65.677],[112.61,65.663],[112.621,65.607],[112.536,65.62],[112.478,65.569],[112.309,65.542],[112.33,65.49],[112.793,65.46],[112.749,65.366],[112.808,65.353],[112.78,65.273],[112.63,65.305],[112.532,65.268],[112.53,65.228],[112.576,65.188],[112.556,65.099],[112.66,65.044],[112.896,65.102],[113.039,65.081],[113.033,65.04],[113.11,64.979],[113.368,64.956],[113.409,64.83],[113.964,64.822],[114.063,64.745],[114.049,64.654],[114.124,64.633],[114.09,64.586],[114.13,64.561],[114.366,64.597],[114.443,64.67],[114.583,64.7],[114.605,64.628],[114.674,64.656],[114.683,64.706],[114.803,64.676],[114.816,64.697],[114.764,64.712],[114.747,64.754],[114.805,64.731],[114.849,64.76],[114.726,64.785],[114.748,64.823],[114.845,64.831],[114.826,64.874],[114.956,64.926],[115.416,64.95],[115.412,64.985],[115.264,65.018],[115.351,65.034],[115.348,65.065],[115.576,65.043],[115.564,65.097],[115.858,65.084],[115.902,65.156],[116.054,65.1],[116.097,65.111],[116.136,65.07],[116.338,65.099],[116.556,65.086],[116.542,65.057],[116.409,65.031],[116.497,65.0],[116.669,65.071],[116.708,65.061],[116.697,65.093],[116.729,65.114],[116.792,65.086],[116.798,65.116],[116.859,65.128],[116.859,65.171],[117.003,65.174],[116.991,65.205],[117.095,65.266],[117.256,65.281],[117.253,65.307],[117.314,65.326],[117.307,65.364],[117.368,65.374],[117.386,65.425],[117.421,65.428],[117.408,65.488],[117.368,65.513],[117.675,65.649],[117.687,65.705],[117.806,65.741],[117.835,65.795],[118.069,65.786],[118.018,65.836],[118.063,65.901],[118.042,65.976],[118.391,66.106],[118.376,66.176],[118.199,66.238],[118.1,66.32],[118.14,66.378],[118.298,66.414],[118.329,66.455],[118.393,66.434],[118.602,66.494],[118.715,66.487],[118.849,66.432],[118.832,66.463],[118.877,66.495],[119.076,66.537],[119.271,66.634],[119.152,66.707],[119.159,66.743],[119.059,66.839],[119.044,66.95],[119.116,66.911],[119.659,66.84],[119.98,66.703],[119.998,66.665],[120.054,66.665],[120.057,66.599],[120.195,66.55],[120.174,66.516],[120.222,66.485],[120.339,66.471],[120.33,66.425],[120.374,66.404],[120.343,66.352],[120.498,66.327],[120.503,66.244],[120.555,66.219],[120.478,66.14],[120.508,66.018],[120.589,65.949],[120.448,65.813],[120.49,65.762],[120.473,65.682],[120.575,65.646],[120.699,65.649],[120.698,65.617],[120.79,65.58],[120.905,65.587],[120.93,65.551],[121.033,65.536],[121.063,65.472],[121.105,65.455],[121.085,65.429],[121.128,65.403],[121.137,65.352],[121.232,65.335],[121.218,65.262],[121.516,65.226],[121.83,65.092],[122.31,64.975],[122.595,64.975],[122.744,64.866],[122.873,64.823],[123.005,64.879],[123.064,64.873],[123.382,64.744],[123.629,64.765],[123.922,64.721],[124.173,64.762],[124.22,64.856],[124.273,64.888],[124.479,64.931],[124.544,64.915],[124.609,64.961],[124.776,64.966],[124.851,65.028],[125.0,65.028],[124.946,65.089],[125.001,65.101],[125.042,65.223],[125.138,65.299],[125.276,65.328],[125.293,65.361],[125.786,65.327],[125.802,65.38],[125.985,65.443],[126.159,65.471],[126.303,65.475],[126.354,65.445],[126.518,65.46],[126.529,65.514],[126.631,65.585],[126.821,65.56],[127.02,65.613],[127.069,65.736],[127.043,65.771],[127.11,65.793],[127.111,65.822],[127.307,65.774],[127.39,65.858],[127.387,65.953],[127.584,65.954],[127.61,65.998],[127.593,66.043],[127.469,66.046],[127.373,66.111],[127.256,66.056],[127.152,66.082],[127.137,66.148],[126.988,66.148],[127.007,66.164],[126.976,66.313],[127.017,66.402],[127.183,66.485],[127.188,66.535],[127.351,66.592],[127.312,66.625],[127.325,66.652],[127.415,66.663],[127.5,66.618],[127.676,66.622],[127.812,66.555],[128.021,66.534],[128.07,66.475],[128.254,66.469],[128.391,66.5],[128.396,66.535],[128.454,66.559],[128.399,66.603],[128.521,66.657],[128.61,66.636],[128.617,66.604],[128.724,66.553],[129.164,66.546],[129.382,66.497],[129.462,66.523],[129.412,66.593],[129.753,66.489],[129.899,66.493],[130.02,66.541],[130.12,66.472],[130.054,66.421],[130.051,66.383],[130.102,66.321],[130.109,66.215],[130.435,66.203],[130.544,66.08],[130.848,65.971],[131.138,65.939],[131.134,65.881],[131.264,65.789],[131.353,65.795],[131.411,65.692],[131.71,65.697],[131.644,65.608],[131.652,65.567],[131.48,65.454],[131.527,65.44],[131.537,65.399],[131.606,65.39],[131.683,65.301],[131.843,65.296],[132.069,65.146],[132.168,64.964],[132.264,64.927],[132.27,64.855],[132.355,64.801],[132.354,64.731],[132.278,64.663],[132.46,64.607],[132.626,64.643],[132.618,64.612],[132.741,64.588],[132.878,64.626],[132.873,64.686],[132.995,64.729],[132.962,64.801],[133.012,64.844],[132.918,64.929],[132.959,64.991],[132.947,65.031],[132.992,65.065],[132.973,65.124],[133.021,65.174],[133.193,65.232],[133.224,65.275],[133.482,65.279],[133.632,65.212],[133.883,65.199],[133.946,65.227],[133.999,65.304],[134.147,65.323],[134.322,65.411],[134.469,65.37],[134.494,65.403],[134.47,65.433],[134.52,65.502],[134.671,65.554],[134.715,65.595],[134.698,65.644],[134.741,65.645],[134.763,65.689],[134.832,65.692],[134.865,65.764],[135.079,65.759],[135.374,65.802],[135.438,65.85],[135.437,65.892],[135.487,65.904],[135.74,65.889],[135.752,65.958],[135.843,65.972],[135.862,66.003],[136.015,66.006],[136.109,66.088],[136.369,66.181],[136.854,66.193],[136.878,66.157],[136.95,66.153],[137.008,66.11],[137.276,66.097],[137.316,66.049],[137.523,66.054],[137.709,65.967],[138.017,65.962],[138.11,65.997],[138.224,65.936],[138.683,65.941],[139.018,66.01],[139.261,66.018],[139.526,65.967],[139.827,65.845],[139.987,65.832],[140.177,65.875],[140.329,65.825],[140.391,65.796],[140.385,65.775],[140.217,65.684],[140.19,65.628],[140.367,65.549],[140.508,65.559],[140.669,65.523],[140.724,65.557],[140.98,65.538],[141.053,65.566],[141.148,65.509],[141.329,65.485],[141.345,65.458],[141.418,65.471],[141.453,65.443],[141.842,65.462],[141.879,65.399],[142.085,65.391],[142.101,65.36],[142.905,65.312],[142.976,65.252],[142.988,65.167],[143.353,65.152],[143.533,65.112],[143.534,65.066],[143.661,65.07],[143.79,65.029],[143.898,65.051],[144.039,65.019],[144.248,65.024],[144.351,64.886],[144.529,64.862],[144.69,64.77],[144.658,64.72],[144.53,64.654],[144.705,64.607],[144.782,64.554],[144.921,64.569],[144.991,64.531],[145.139,64.538],[145.291,64.439],[145.491,64.451],[145.667,64.409],[145.739,64.435],[145.863,64.397],[145.878,64.344],[146.046,64.285],[146.152,64.195],[146.358,64.183],[146.32,64.087],[146.212,64.044],[146.172,63.978],[146.107,63.946],[145.552,63.831],[145.616,63.778],[145.635,63.672],[145.448,63.531],[145.42,63.436],[145.357,63.331],[145.273,63.268],[145.247,63.191],[145.293,63.105],[145.266,63.021],[145.36,62.909],[145.321,62.753],[145.418,62.654],[145.385,62.609],[145.469,62.552],[145.374,62.513],[145.272,62.537],[145.122,62.494],[145.17,62.439],[145.145,62.381],[145.17,62.338],[145.121,62.308],[145.157,62.28],[145.061,62.239],[144.978,62.249],[144.991,62.177],[144.76,62.124],[144.714,62.08],[144.745,62.042],[144.946,62.058],[145.167,61.96],[145.294,61.987],[145.485,61.951],[145.721,62.055],[145.799,62.004],[145.891,62.02],[146.344,61.827],[146.361,61.767],[146.502,61.657],[146.575,61.637],[146.573,61.533],[146.621,61.481],[146.611,61.431],[146.756,61.398],[146.678,61.313],[146.744,61.213],[146.737,61.103],[146.661,61.067],[146.72,61.014],[146.697,60.964],[146.483,60.937],[146.496,60.842],[146.443,60.764],[146.47,60.729],[146.402,60.671],[146.31,60.666],[146.16,60.738],[146.058,60.742],[146.028,60.704],[145.893,60.663],[145.871,60.619],[145.742,60.611],[145.618,60.562],[145.505,60.463],[145.52,60.419],[145.626,60.386],[145.564,60.348],[145.611,60.287],[145.791,60.193],[146.373,60.265],[146.457,60.181],[146.452,60.127],[146.67,60.099],[146.674,60.031],[146.641,59.987],[146.725,59.958],[146.774,59.902],[146.991,59.943],[147.109,59.88],[147.133,59.847],[147.098,59.806],[147.141,59.749],[147.082,59.691],[147.15,59.643],[147.091,59.422],[147.066,59.419],[147.071,59.417],[146.85,59.36],[146.443,59.462],[146.312,59.402],[146.308,59.286],[146.246,59.277],[146.054,59.251],[146.038,59.215],[146.005,59.141],[145.827,59.246],[145.971,59.404],[145.803,59.366],[145.698,59.427],[143.255,59.361],[142.283,59.132],[141.384,58.539],[140.657,58.265],[140.665,58.274],[140.587,58.239],[140.177,57.806],[140.117,57.743],[139.797,57.585],[139.775,57.551],[139.772,57.548],[139.731,57.552],[139.505,57.44],[139.49,57.414],[139.474,57.399],[139.443,57.385],[139.435,57.382],[139.431,57.38],[139.399,57.365],[139.392,57.367],[139.357,57.363],[139.301,57.339],[138.867,57.125],[138.853,57.116],[138.812,57.091],[138.814,57.091],[138.817,57.09],[138.053,56.557],[138.053,56.579],[138.06,56.594],[137.281,56.022],[137.287,56.023],[137.229,55.983],[137.218,55.978],[137.218,55.977],[137.202,55.969],[137.198,55.967],[137.038,55.887],[137.026,55.875],[136.99,55.856],[136.971,55.853],[136.775,55.754],[136.756,55.736],[136.751,55.728],[136.741,55.723],[136.739,55.724],[136.711,55.722],[136.258,55.495],[136.257,55.492],[135.511,55.142],[135.619,55.173],[135.242,54.984],[135.248,54.994],[135.254,55.0],[135.255,55.0],[135.279,55.013],[135.316,55.04],[135.331,55.048],[135.407,55.074],[135.407,55.076],[135.443,55.11],[135.269,55.029],[134.985,54.854],[134.894,54.72],[134.902,54.559],[134.965,54.505],[131.221,54.505],[131.199,54.604],[131.389,54.711],[131.534,54.718],[131.618,54.776],[131.766,54.792],[131.816,54.846],[131.979,54.888],[131.999,54.922],[131.969,54.989],[132.063,55.04],[132.387,55.059],[132.408,55.087],[132.353,55.152],[132.365,55.189],[132.629,55.208],[132.693,55.274],[132.662,55.33],[132.682,55.36],[132.762,55.341],[132.948,55.381],[132.757,55.427],[132.628,55.508],[132.667,55.563],[132.542,55.679],[132.401,55.708],[132.224,55.708],[132.123,55.65],[131.952,55.662],[131.804,55.62],[131.618,55.658],[131.568,55.618],[131.437,55.651],[131.34,55.622],[131.19,55.646],[131.106,55.621],[130.743,55.724],[130.6,55.728],[130.391,56.054],[129.207,56.867],[128.837,56.646],[128.171,56.72],[126.915,56.498],[126.543,56.498],[124.916,56.202],[124.546,56.276],[124.101,56.276],[123.827,56.403],[123.293,56.428],[123.047,56.497],[122.922,56.555],[122.896,56.599],[122.804,56.585],[122.774,56.502],[122.594,56.494],[122.469,56.606],[122.285,56.655],[122.161,56.743],[121.607,56.747],[121.607,56.815],[121.531,56.859],[121.51,56.932],[121.436,56.973],[121.079,56.986],[121.002,57.04],[120.302,57.009],[120.031,56.904],[119.882,56.897],[119.783,56.984],[119.624,57.027],[119.625,57.095],[119.691,57.171],[119.604,57.235],[119.549,57.344],[119.451,57.372],[119.412,57.429],[119.418,57.502],[119.476,57.534],[119.498,57.59],[119.32,57.615],[119.198,57.51],[119.15,57.534],[119.16,57.697],[119.051,57.74],[119.165,58.041],[119.156,58.162],[119.111,58.227],[118.784,58.218],[118.633,58.18],[118.399,58.271],[118.319,58.357],[118.142,58.391],[118.071,58.346],[117.995,58.4],[117.668,58.4],[117.487,58.324],[117.468,58.28],[117.581,58.178],[117.563,58.145],[117.437,58.157],[117.404,58.129],[117.361,57.995],[117.365,57.926],[117.394,57.906],[117.311,57.852],[117.127,57.846],[117.081,57.811],[117.166,57.737],[117.138,57.638],[117.283,57.607],[117.25,57.512],[117.324,57.447],[117.362,57.325],[117.438,57.326],[117.429,57.251],[117.543,57.256],[117.599,57.315],[117.786,57.287],[117.741,57.201],[117.596,57.152],[117.67,57.063],[117.669,56.982],[117.572,56.938],[117.567,56.86],[117.497,56.874],[117.447,56.825],[117.355,56.873],[117.337,56.949],[117.187,56.88],[117.131,56.81],[117.029,56.817],[117.01,56.781],[116.804,56.73],[116.737,56.765],[116.571,56.762],[116.363,56.852],[116.127,56.817],[115.73,56.966],[115.808,57.027],[116.24,57.145],[116.133,57.243],[115.863,57.248],[115.679,57.136],[115.371,57.097],[115.084,57.123],[115.02,57.039],[115.042,56.989],[114.842,56.835],[114.833,56.759],[114.778,56.705],[114.499,56.706],[114.496,56.676],[114.442,56.66],[114.29,56.697],[114.144,56.686],[114.08,56.617],[113.994,56.589],[114.002,56.547],[113.899,56.531],[113.805,56.607],[113.515,56.684],[113.368,56.632],[112.899,56.696],[112.877,56.731],[112.751,56.766],[112.705,56.862],[112.75,56.936],[112.663,56.965],[112.549,56.934],[112.457,56.869],[112.235,56.883],[112.11,56.949],[111.915,56.95],[111.818,56.913],[111.716,56.995],[111.637,57.016],[111.622,57.102],[111.587,57.112],[111.46,57.107],[111.332,56.957],[111.368,56.905],[111.242,56.876],[111.161,56.82],[110.99,56.864],[110.884,56.839],[110.753,56.879],[110.6,56.835],[110.538,56.851],[110.53,56.888],[110.341,56.942],[110.233,56.93],[110.084,56.98],[109.995,56.975],[109.882,56.893],[109.855,56.831],[109.876,56.792],[109.764,56.709],[109.409,56.74],[109.305,56.673],[109.142,56.681],[109.054,56.624],[108.975,56.641],[108.926,56.593],[108.69,56.584],[108.668,56.562],[108.717,56.506],[108.553,56.348],[108.573,56.282],[108.797,56.252],[108.864,56.206],[108.92,56.151],[108.907,56.097],[108.989,56.035],[109.25,55.977],[109.178,55.918],[108.957,55.946],[108.852,55.871],[108.768,55.629],[108.676,55.593],[108.687,55.526],[108.617,55.45],[108.662,55.402],[108.648,55.298],[108.772,55.227],[108.776,55.169],[108.685,55.063],[108.699,54.975],[108.749,54.932],[108.69,54.891],[108.712,54.86],[108.692,54.679],[108.553,54.542],[109.032,54.478],[108.419,53.786],[108.057,53.209],[106.196,52.445],[105.987,52.223],[105.75,52.036],[105.459,51.868],[105.122,51.736],[104.647,51.627],[104.624,51.443],[104.665,51.397],[104.664,51.341],[104.61,51.276],[104.489,51.315],[104.211,51.286],[103.826,51.14],[103.82,51.405],[103.577,51.484],[103.328,51.444],[103.189,51.612],[103.212,51.813],[102.774,51.993],[102.683,52.099],[102.579,52.152],[102.544,52.232],[102.413,52.267],[102.322,52.236],[102.176,52.282],[102.102,52.268],[102.044,52.217],[101.965,52.227],[101.903,52.284],[101.914,52.321],[101.685,52.413],[101.691,52.464],[101.488,52.565],[101.462,52.625],[101.312,52.649],[101.033,52.774],[100.87,52.804],[100.83,52.861],[100.625,52.938],[100.397,53.106],[100.367,53.163],[100.417,53.198],[100.406,53.236],[100.296,53.317],[100.262,53.38],[100.197,53.379],[100.08,53.306],[99.867,53.302],[99.837,53.259],[99.868,53.208],[99.689,53.137],[99.368,53.114],[99.351,53.037],[99.241,52.962],[98.994,53.038],[99.069,53.1],[98.939,53.154],[98.862,53.13],[98.687,53.16],[98.606,53.11],[98.347,53.098],[98.293,53.126],[98.292,53.228],[98.032,53.258],[97.978,53.295],[97.959,53.363],[97.607,53.378],[97.589,53.442],[97.452,53.467],[97.33,53.601],[97.129,53.618],[96.876,53.734],[96.725,53.71],[96.689,53.648],[96.5,53.69],[96.489,53.734],[96.406,53.765],[96.343,53.842],[96.076,53.993],[96.099,54.069],[95.947,54.105],[95.809,54.233],[95.75,54.221],[95.659,54.271],[95.58,54.244],[95.533,54.286],[95.474,54.263],[95.286,54.342],[95.051,54.3],[94.952,54.322],[94.882,54.398],[94.74,54.451],[94.723,54.51],[94.617,54.51],[94.519,54.555],[94.373,54.477],[94.312,54.544],[94.001,54.641],[93.955,54.61],[93.848,54.642],[93.713,54.6],[93.648,54.633],[93.66,54.683],[93.535,54.733],[93.472,54.818],[93.338,54.843],[93.292,54.885],[93.224,54.851],[93.063,54.921],[92.92,54.886],[92.867,54.93],[92.772,54.945],[92.36,54.935],[92.326,54.882],[92.232,54.87],[92.261,54.829],[92.224,54.77],[92.07,54.833],[91.989,54.836],[91.939,54.797],[91.762,54.877],[91.599,54.9],[91.568,54.85],[91.672,54.787],[91.543,54.771],[91.55,54.745],[91.433,54.667],[91.137,54.663],[91.062,54.69],[90.965,54.64],[91.255,54.503],[91.242,54.424],[91.304,54.331],[91.412,54.277],[91.572,54.085],[91.544,53.998],[91.443,53.905],[91.468,54.059],[91.255,54.279],[91.163,54.491],[90.864,54.63],[90.918,54.795],[90.842,54.844],[90.727,54.838],[90.686,54.91],[90.464,54.878],[90.488,54.929],[90.439,55.02],[90.239,55.067],[90.242,55.108],[90.197,55.156],[90.123,55.109],[89.903,55.091],[89.662,55.01],[89.567,55.063],[89.445,55.043],[89.395,54.98],[89.348,55.005],[89.206,54.996],[89.15,55.081],[89.052,55.09],[89.072,55.134],[88.973,55.188],[88.953,55.293],[88.763,55.35],[88.608,55.45],[88.388,55.261],[88.482,55.183],[88.546,55.078],[88.545,55.013],[88.669,54.958],[88.664,54.874],[88.738,54.888],[88.751,54.819],[88.715,54.77],[88.626,54.749],[88.576,54.579],[88.598,54.528],[88.528,54.428],[88.372,54.392],[88.535,54.336],[88.571,54.282],[88.846,54.41],[88.954,54.362],[88.948,54.318],[89.003,54.285],[89.071,54.331],[89.159,54.338],[89.185,54.316],[89.173,54.274],[89.213,54.251],[89.174,54.197],[89.184,54.153],[89.016,54.112],[88.977,54.065],[89.062,53.951],[89.204,53.938],[89.178,53.869],[89.26,53.845],[89.179,53.786],[89.029,53.757],[88.999,53.672],[88.834,53.592],[88.87,53.546],[88.858,53.481],[88.756,53.365],[88.808,53.343],[88.897,53.38],[89.044,53.248],[89.001,53.192],[89.041,53.131],[88.905,53.036],[88.89,52.987],[89.065,52.948],[89.116,52.913],[89.108,52.863],[89.175,52.862],[89.226,52.812],[89.142,52.736],[89.038,52.709],[89.109,52.602],[88.666,52.352],[88.661,52.329],[88.713,52.308],[88.678,52.256],[88.377,52.174],[88.37,52.306],[88.43,52.356],[88.422,52.459],[88.207,52.42],[87.924,52.553],[87.638,52.455],[87.58,52.492],[87.383,52.513],[87.351,52.6],[87.179,52.591],[87.118,52.673],[86.952,52.64],[86.848,52.656],[86.612,52.386],[86.803,52.285],[86.775,52.232],[86.817,52.161],[86.772,52.119],[86.497,52.123],[86.448,52.034],[86.369,52.015],[86.221,52.026],[86.15,52.075],[85.919,52.077],[85.832,51.985],[85.864,51.92],[85.736,51.863],[85.773,51.841],[85.734,51.741],[85.669,51.759],[85.534,51.704],[85.466,51.572],[85.292,51.57],[85.295,51.513],[85.231,51.474],[85.154,51.501],[85.006,51.494],[84.923,51.429],[84.714,51.404],[84.395,51.272],[84.278,51.288],[84.144,51.126],[84.0,51.129],[84.016,51.059],[84.501,50.956],[84.528,50.874],[84.602,50.841],[84.538,50.696],[84.456,50.708],[84.084,50.637],[84.189,50.512],[84.172,50.438],[84.234,50.344],[84.246,50.257],[84.331,50.208],[84.443,50.238],[84.534,50.186],[84.788,50.127],[84.837,50.076],[84.975,50.069],[85.023,50.015],[84.951,49.993],[84.95,49.905],[85.055,49.867],[85.078,49.797],[85.179,49.704],[85.221,49.591],[85.384,49.61],[85.476,49.578],[85.608,49.613],[85.672,49.556],[85.745,49.568],[85.809,49.532],[85.931,49.555],[85.945,49.477],[86.072,49.521],[86.178,49.458],[86.275,49.578],[86.478,49.667],[86.484,49.707],[86.611,49.788],[86.744,49.778],[86.754,49.696],[86.663,49.67],[86.587,49.585],[86.641,49.543],[86.73,49.546],[86.815,49.508],[86.81,49.447],[86.921,49.389],[86.909,49.336],[86.987,49.289],[85.843,48.414],[85.747,48.39],[85.603,48.232],[85.383,48.148],[83.13,48.282],[84.267,49.205],[81.479,50.291],[78.65,50.807],[74.921,54.149],[72.992,55.307],[64.687,54.272],[64.456,53.58],[63.04,51.179],[62.258,51.065],[62.154,51.115],[62.033,51.072],[61.963,51.133],[61.929,51.242],[61.875,51.301],[61.811,51.274],[61.597,51.282],[61.475,51.431],[61.033,51.487],[60.95,51.545],[60.938,51.616],[60.512,51.624],[60.486,51.656],[60.361,51.68],[60.48,51.773],[60.454,51.81],[60.139,51.894],[60.093,51.86],[60.045,51.874],[59.992,51.954],[60.03,52.003],[59.919,52.098],[59.967,52.171],[60.154,52.275],[60.139,52.434],[59.936,52.435],[59.81,52.502],[59.685,52.433],[59.676,52.462],[59.515,52.441],[59.41,52.498],[59.272,52.499],[59.244,52.489],[59.174,52.284],[58.984,52.375],[58.979,52.435],[58.794,52.454],[58.775,52.514],[58.843,52.541],[58.809,52.597],[58.731,52.638],[58.789,52.724],[58.756,52.862],[58.848,53.003],[59.033,53.014],[58.999,53.057],[58.911,53.062],[58.896,53.191],[58.828,53.215],[58.834,53.286],[58.87,53.319],[58.873,53.498],[58.907,53.549],[58.834,53.564],[58.826,53.591],[58.912,53.653],[58.878,53.75],[58.952,53.898],[58.929,53.933],[58.959,53.969],[59.157,53.98],[59.325,54.177],[59.535,54.192],[59.673,54.129],[59.733,54.135],[59.734,54.193],[59.808,54.255],[59.78,54.305],[59.681,54.341],[59.751,54.447],[59.686,54.498],[59.874,54.61],[59.979,54.794],[59.93,54.832],[59.947,54.862],[59.809,54.851],[59.631,54.916],[59.409,54.712],[59.23,54.617],[59.06,54.637],[58.806,54.572],[58.617,54.476],[58.353,54.551],[58.204,54.52],[57.962,54.398],[57.749,54.505],[57.751,54.583],[57.586,54.638],[57.584,54.678],[57.527,54.673],[57.162,54.834],[57.249,54.951],[57.15,55.051],[57.146,55.096],[57.244,55.154],[57.228,55.212],[57.261,55.252],[57.434,55.322],[57.916,55.288],[58.131,55.212],[58.05,55.169],[57.959,55.169],[58.025,55.075],[58.016,55.005],[57.957,54.947],[58.0,54.912],[58.11,54.954],[58.096,55.018],[58.198,55.083],[58.148,55.111],[58.299,55.168],[58.369,55.15],[58.36,55.082],[58.422,55.055],[58.384,54.996],[58.519,55.017],[58.549,54.948],[58.621,54.945],[58.818,55.021],[58.764,55.113],[58.583,55.157],[58.663,55.184],[58.701,55.144],[58.747,55.151],[58.808,55.215],[58.73,55.252],[58.925,55.275],[58.874,55.318],[58.967,55.307],[58.962,55.246],[58.999,55.24],[59.163,55.328],[59.203,55.444],[59.476,55.463],[59.646,55.563],[59.629,55.596],[59.502,55.585],[59.437,55.638],[59.246,55.589],[59.349,55.645],[59.287,55.696],[59.316,55.779],[59.161,55.805],[59.208,55.833],[59.194,55.868],[59.235,55.905],[59.182,56.004],[59.285,56.051],[59.299,56.135],[59.025,56.174],[58.952,56.076],[58.826,56.059],[58.736,56.072],[58.565,56.167],[58.453,56.152],[58.353,56.064],[58.301,56.119],[58.08,56.146],[57.91,56.121],[57.802,56.156],[57.54,56.105],[57.46,56.135],[57.483,56.18],[57.416,56.239],[57.408,56.334],[57.264,56.306],[57.252,56.252],[57.166,56.166],[56.896,56.106],[56.776,56.173],[56.74,56.228],[56.65,56.227],[56.627,56.265],[56.575,56.269],[56.512,56.32],[56.563,56.359],[56.529,56.388],[56.392,56.393],[56.265,56.306],[56.073,56.295],[55.961,56.381],[55.913,56.471],[55.862,56.438],[55.547,56.404],[55.413,56.34],[55.255,56.341],[55.224,56.369],[55.172,56.323],[55.104,56.349],[54.968,56.326],[54.933,56.391],[54.747,56.444],[54.559,56.543],[54.425,56.346],[54.317,56.348],[54.363,56.297],[54.342,56.258],[54.115,56.163],[54.004,56.035],[53.836,56.043],[53.783,55.98],[53.668,55.963],[53.627,55.909],[53.745,55.862],[53.868,55.88],[53.981,55.843],[53.963,55.778],[54.033,55.798],[54.024,55.759],[54.096,55.766],[54.216,55.691],[54.176,55.632],[54.0,55.558],[53.906,55.399],[53.711,55.338],[53.594,55.258],[53.585,55.216],[53.418,55.227],[53.325,55.171],[53.142,55.148],[53.138,55.095],[53.254,55.049],[53.262,55.009],[53.41,54.985],[53.497,54.887],[53.623,54.889],[53.574,54.823],[53.599,54.715],[53.413,54.563],[53.42,54.501],[53.344,54.392],[53.357,54.33],[53.424,54.265],[53.459,54.046],[53.372,53.978],[53.26,54.076],[53.186,54.099],[53.082,54.077],[53.091,54.118],[52.95,54.21],[53.111,54.244],[53.111,54.289],[53.047,54.343],[53.0,54.316],[52.999,54.276],[52.928,54.275],[52.937,54.309],[52.772,54.352],[52.63,54.348],[52.539,54.382],[52.505,54.328],[52.28,54.333],[52.204,54.307],[52.344,54.214],[52.338,54.18],[52.257,54.152],[52.268,54.115],[52.394,54.123],[52.477,54.062],[52.371,53.983],[52.406,53.929],[52.249,53.658],[52.178,53.564],[52.099,53.552],[52.075,53.516],[52.09,53.462],[52.186,53.371],[52.138,53.299],[52.157,53.259],[52.123,53.179],[52.054,53.138],[52.15,53.106],[52.06,53.079],[52.048,52.997],[51.866,52.934],[51.805,52.881],[51.725,52.873],[51.713,52.824],[51.766,52.792],[51.725,52.671],[51.536,52.68],[51.505,52.631],[51.537,52.58],[51.473,52.581],[51.466,52.527],[51.554,52.447],[51.468,52.419],[51.463,52.374],[51.408,52.352],[51.402,52.255],[51.447,52.221],[51.412,52.108],[50.895,51.856],[50.741,51.746],[50.789,51.624],[50.763,51.584],[50.677,51.572],[50.697,51.615],[50.579,51.639],[50.57,51.592],[50.521,51.567],[50.521,51.471],[50.356,51.417],[50.323,51.308],[49.985,51.235],[49.776,51.107],[49.434,51.117],[49.342,50.965],[49.416,50.885],[49.403,50.851],[49.142,50.786],[48.831,50.601],[48.581,50.653],[48.57,50.613],[48.669,50.575],[48.696,50.334],[48.783,50.175],[48.778,50.109],[48.851,50.091],[48.88,50.033],[48.78,49.937],[48.437,49.819],[48.243,49.87],[47.997,50.186],[47.628,50.445],[47.556,50.457],[47.431,50.383],[47.245,50.376],[47.208,50.513],[46.922,50.496],[46.92,50.527],[46.877,50.532],[46.874,50.581],[46.816,50.586],[46.861,50.645],[46.774,50.649],[46.719,50.716],[46.628,50.686],[46.581,50.716],[46.561,50.629],[46.538,50.649],[46.459,50.625],[46.444,50.553],[46.277,50.578],[46.269,50.533],[46.079,50.531],[46.096,50.669],[45.894,50.755],[45.743,50.762],[45.674,50.666],[45.702,50.579],[45.741,50.586],[45.888,50.438],[45.876,50.345],[45.737,50.311],[45.416,50.033],[45.341,49.893],[45.336,49.797],[45.029,49.395],[44.917,49.079],[44.664,48.872],[44.65,48.817],[44.54,48.717],[44.512,48.622],[44.638,48.592],[44.602,48.566],[44.674,48.521],[44.673,48.465],[44.411,48.518],[44.343,48.621],[44.295,48.606],[44.282,48.49],[44.216,48.497],[44.173,48.537],[44.23,48.58],[44.162,48.579],[44.119,48.632],[43.942,48.684],[43.949,48.728],[43.882,48.764],[43.896,48.791],[43.786,48.893],[43.795,48.929],[43.719,48.951],[43.752,48.967],[43.744,48.994],[43.62,49.021],[43.631,49.089],[43.407,49.178],[43.392,49.293],[43.55,49.466],[43.617,49.475],[43.637,49.531],[43.779,49.524],[43.789,49.574],[43.894,49.572],[43.886,49.628],[43.965,49.598],[43.997,49.646],[44.103,49.649],[44.164,49.712],[44.153,49.77],[44.276,49.827],[44.15,49.909],[44.262,50.009],[44.197,50.07],[44.206,50.101],[44.002,50.13],[44.008,50.188],[43.938,50.228],[43.833,50.215],[43.846,50.183],[43.806,50.149],[43.692,50.159],[43.694,50.084],[43.589,50.048],[43.533,49.903],[43.44,49.908],[43.369,49.832],[43.275,49.832],[43.177,49.891],[42.986,49.854],[42.906,49.911],[42.896,49.989],[42.668,50.105],[42.743,50.167],[42.71,50.186],[42.717,50.23],[42.763,50.222],[42.787,50.261],[42.865,50.249],[42.935,50.343],[43.025,50.283],[43.203,50.358],[43.298,50.302],[43.336,50.352],[43.453,50.377],[43.421,50.396],[43.417,50.449],[43.376,50.441],[43.328,50.498],[43.235,50.524],[43.024,50.505],[43.02,50.536],[42.961,50.558],[42.952,50.643],[42.827,50.693],[42.903,50.731],[42.905,50.764],[42.843,50.813],[42.888,50.844],[42.875,50.883],[42.981,50.955],[43.126,50.974],[43.167,51.108],[42.856,51.25],[42.686,51.246],[42.553,51.15],[42.174,51.141],[41.943,51.202],[41.854,51.162],[41.758,51.017],[41.471,50.956],[41.424,50.918],[41.413,50.843],[41.165,50.779],[41.343,50.708],[41.446,50.602],[41.516,50.601],[41.525,50.578],[41.416,50.499],[41.515,50.363],[41.383,50.212],[41.349,50.219],[41.284,50.165],[41.369,50.124],[41.377,50.086],[41.08,49.949],[41.037,49.807],[40.919,49.706],[40.635,49.678],[40.537,49.583],[40.16,49.648],[40.13,49.589],[39.998,49.613],[39.804,49.547],[39.626,49.618],[39.559,49.729],[39.265,49.748],[39.157,49.878],[39.046,49.815],[38.939,49.809],[38.855,49.87],[38.692,49.917],[38.666,49.97],[38.499,49.953],[38.36,49.986],[38.301,50.065],[38.173,50.065],[38.16,49.945],[38.019,49.913],[38.064,49.845],[37.997,49.826],[38.031,49.784],[37.935,49.728],[37.993,49.712],[37.996,49.663],[37.94,49.598],[37.956,49.522],[37.856,49.424],[37.881,49.311],[37.922,49.292],[37.842,49.232],[37.896,49.194],[37.387,48.813],[36.792,48.59],[36.74,48.631],[36.596,48.608],[36.482,48.668],[36.416,48.638],[36.362,48.545],[36.294,48.539],[36.324,48.588],[36.266,48.62],[36.285,48.664],[36.156,48.724],[36.163,48.787],[36.035,48.854],[36.048,48.918],[35.937,49.004],[35.807,48.945],[35.801,48.881],[35.633,48.886],[35.672,48.741],[35.521,48.602],[35.543,48.543],[35.329,48.513],[35.36,48.458],[35.318,48.433],[35.302,48.496],[35.169,48.586],[35.187,48.644],[35.221,48.655],[35.17,48.667],[35.165,48.736],[35.068,48.76],[35.004,48.701],[34.947,48.75],[34.96,48.797],[34.927,48.792],[34.892,48.839],[34.839,48.827],[34.797,48.765],[34.741,48.866],[34.793,48.915],[34.676,49.101],[34.626,49.128],[34.556,49.061],[34.398,49.097],[34.406,49.059],[34.321,49.0],[34.341,48.98],[34.295,48.895],[34.333,48.856],[34.293,48.823],[34.3,48.743],[34.135,48.786],[34.125,48.825],[34.023,48.87],[33.82,48.942],[33.702,48.95],[33.666,48.983],[33.561,48.917],[33.477,48.957],[33.378,48.947],[33.314,48.995],[33.351,49.042],[33.288,49.087],[33.309,49.121],[33.242,49.171],[33.242,49.092],[33.206,49.082],[33.124,49.179],[32.994,49.215],[32.985,49.245],[32.576,49.272],[32.027,49.495],[31.936,49.56],[31.809,49.583],[31.78,49.635],[31.633,49.654],[31.515,49.743],[31.514,49.846],[31.432,49.915],[31.439,49.997],[31.342,50.0],[31.252,49.945],[31.12,49.984],[30.489,50.051],[30.461,50.21],[30.39,50.262],[30.478,50.335],[30.472,50.364],[30.334,50.38],[30.219,50.339],[30.394,50.714],[30.459,50.759],[30.547,51.257],[30.619,51.282],[30.614,51.321],[30.661,51.343],[30.626,51.432],[30.589,51.44],[30.628,51.467],[30.577,51.511],[30.589,51.549],[30.548,51.549],[30.534,51.595],[30.586,51.647],[30.573,51.7],[30.63,51.71],[30.708,51.86],[30.941,51.994],[30.952,52.071],[31.132,52.077],[31.253,52.039],[31.406,52.137],[31.77,52.106],[31.767,52.153],[31.688,52.206],[31.703,52.255],[31.581,52.308],[31.614,52.355],[31.593,52.484],[31.562,52.508],[31.579,52.543],[31.396,52.889],[31.263,53.014],[31.368,53.086],[31.383,53.177],[31.594,53.205],[31.735,53.188],[31.795,53.108],[32.118,53.076],[32.408,53.188],[32.484,53.273],[32.463,53.295],[32.722,53.334],[32.705,53.466],[32.58,53.491],[32.417,53.585],[32.408,53.633],[32.492,53.668],[32.464,53.711],[32.107,53.812],[31.874,53.782],[31.757,53.8],[31.843,53.961],[31.826,54.057],[31.329,54.233],[31.213,54.452],[31.076,54.497],[31.172,54.625],[30.773,54.792],[30.775,54.829],[30.831,54.876],[30.825,54.927],[30.94,54.97],[30.916,55.017],[31.011,55.022],[30.964,55.166],[30.802,55.288],[30.923,55.386],[30.888,55.452],[30.925,55.534],[30.89,55.604],[30.746,55.599],[30.696,55.657],[30.598,55.671],[30.591,55.722],[30.481,55.76],[30.471,55.798],[30.201,55.863],[30.106,55.827],[29.907,55.848],[29.8,55.774],[29.682,55.775],[29.482,55.686],[29.355,55.769],[29.389,55.877],[29.449,55.906],[29.379,55.959],[29.031,56.029],[28.858,55.981],[28.822,55.943],[28.737,55.951],[28.624,56.087],[28.538,56.103],[28.389,56.094],[28.292,56.051],[28.16,56.142],[28.222,56.27],[28.169,56.44],[28.101,56.496],[28.129,56.552],[28.014,56.592],[27.985,56.69],[27.876,56.74],[27.918,56.823],[27.818,56.871],[27.642,56.849],[27.748,57.036],[27.747,57.072],[27.693,57.104],[27.774,57.137],[27.742,57.183],[27.773,57.211],[27.782,57.323],[27.695,57.356],[27.553,57.259],[27.354,57.32],[27.205,57.323],[27.209,57.236],[26.861,57.018],[26.86,56.983],[26.962,56.911],[26.972,56.86],[26.802,56.726],[26.535,56.773],[26.294,56.591],[26.131,56.654],[26.038,56.627],[25.983,56.666],[25.932,56.641],[25.936,56.682],[25.833,56.716],[25.843,56.789],[25.766,56.828],[25.694,56.771],[25.505,56.813],[25.268,56.745],[25.294,56.718],[25.276,56.697],[25.029,56.727],[25.05,56.702],[25.017,56.682],[25.014,56.61],[24.912,56.642],[24.863,56.705],[24.448,56.847],[24.328,56.845],[24.134,56.774],[23.772,56.81],[23.64,56.895],[23.55,56.896],[23.509,56.935],[23.533,56.923],[23.549,56.918],[23.607,56.907],[23.619,56.906],[23.404,57.04],[23.904,57.0],[24.393,57.238],[24.333,57.829],[24.479,58.068],[24.469,58.246],[24.587,58.313],[24.314,58.382],[24.291,58.364],[24.292,58.329],[24.265,58.285],[24.271,58.278],[24.268,58.272],[24.119,58.228],[24.011,58.32],[23.839,58.359],[23.746,58.341]],[[75.788,54.696],[75.825,54.614],[75.791,54.561],[75.68,54.532],[75.688,54.109],[76.186,54.247],[76.176,54.291],[76.219,54.338],[76.477,54.318],[76.626,54.352],[76.673,54.431],[76.896,54.458],[76.886,54.429],[76.749,54.38],[76.829,54.342],[76.833,54.3],[76.666,54.141],[76.413,54.171],[76.37,54.145],[76.523,53.957],[77.609,53.439],[77.784,53.323],[77.849,53.381],[77.94,53.385],[77.94,53.441],[78.062,53.462],[78.051,53.5],[77.932,53.506],[77.931,53.558],[77.966,53.572],[78.202,53.607],[78.242,53.496],[78.377,53.483],[78.625,53.521],[78.609,53.616],[78.664,53.65],[79.246,53.675],[79.378,53.715],[79.425,53.686],[79.573,53.728],[79.676,53.825],[79.865,53.853],[79.873,53.929],[80.046,53.997],[80.126,54.068],[80.206,54.038],[80.422,54.122],[80.489,54.105],[80.584,54.197],[80.649,54.196],[80.763,54.262],[80.841,54.253],[80.812,54.332],[80.922,54.388],[80.99,54.261],[81.099,54.208],[81.113,54.138],[81.471,54.066],[81.57,54.014],[81.552,53.931],[81.713,53.993],[81.847,53.964],[81.841,53.903],[81.721,53.841],[81.832,53.709],[81.966,53.714],[82.112,53.656],[82.203,53.688],[82.171,53.598],[82.249,53.588],[82.487,53.464],[82.605,53.504],[82.553,53.558],[82.668,53.692],[82.767,53.755],[82.746,53.789],[83.188,54.059],[83.248,54.044],[83.294,54.076],[83.407,53.936],[83.505,53.99],[83.495,54.079],[83.571,54.122],[83.899,54.133],[83.906,54.09],[84.265,54.21],[84.287,54.167],[84.388,54.183],[84.459,54.137],[84.567,54.187],[84.591,54.249],[84.696,54.333],[85.084,54.469],[84.961,54.6],[85.048,54.665],[84.961,54.736],[85.014,54.759],[85.081,54.87],[84.89,54.986],[84.921,55.166],[84.83,55.243],[84.871,55.293],[84.879,55.392],[84.662,55.409],[84.765,55.451],[84.735,55.497],[84.776,55.541],[84.705,55.673],[84.558,55.724],[84.636,55.774],[84.602,55.802],[84.609,55.845],[84.512,55.875],[84.517,55.951],[84.577,55.962],[84.53,56.047],[84.409,56.049],[84.348,55.99],[84.218,56.06],[83.968,56.019],[83.905,55.918],[83.765,55.877],[83.643,55.707],[83.486,55.714],[83.422,55.688],[83.434,55.728],[83.403,55.74],[83.3,55.693],[83.233,55.746],[83.278,55.779],[83.294,55.842],[83.362,55.84],[83.412,55.902],[83.357,55.973],[83.237,56.044],[83.289,56.108],[83.13,56.138],[83.149,56.19],[83.222,56.212],[83.17,56.242],[83.083,56.231],[83.206,56.337],[83.161,56.377],[83.261,56.439],[83.087,56.557],[82.995,56.513],[82.812,56.528],[82.826,56.448],[82.762,56.417],[82.689,56.433],[82.45,56.406],[82.342,56.361],[81.944,56.344],[81.54,56.265],[81.428,56.378],[81.217,56.512],[81.123,56.538],[80.312,56.444],[80.252,56.459],[79.592,56.933],[78.459,57.124],[78.445,57.166],[76.919,57.193],[76.107,57.255],[76.191,56.967],[76.244,56.91],[76.278,56.73],[76.144,56.636],[76.045,56.624],[76.009,56.556],[75.864,56.505],[75.841,56.461],[75.884,56.438],[75.938,56.472],[76.052,56.474],[76.127,56.448],[76.075,56.41],[76.107,56.321],[76.279,56.243],[76.31,56.195],[76.172,56.16],[75.999,56.183],[75.94,56.135],[75.775,56.149],[75.693,56.073],[75.548,56.053],[75.294,55.88],[75.302,55.832],[75.366,55.806],[75.349,55.773],[75.217,55.747],[75.085,55.763],[75.131,55.695],[75.214,55.664],[75.128,55.601],[75.177,55.564],[75.305,55.557],[75.309,55.507],[75.176,55.46],[75.093,55.382],[75.256,55.26],[75.25,55.134],[75.387,55.037],[75.333,54.916],[75.518,54.9],[75.496,54.833],[75.65,54.803],[75.699,54.69],[75.788,54.696]]],[[[57.996,75.296],[57.719,75.349],[57.73,75.423],[57.554,75.475],[58.491,75.595],[57.98,75.626],[58.834,75.722],[58.734,75.8],[58.876,75.846],[60.412,75.957],[60.039,76.034],[60.496,76.114],[60.782,76.1],[60.479,75.996],[61.081,76.017],[61.082,76.085],[61.225,76.125],[60.906,76.148],[61.152,76.273],[62.403,76.253],[62.347,76.176],[62.544,76.155],[62.77,76.261],[63.052,76.186],[63.72,76.329],[63.978,76.333],[64.119,76.254],[64.535,76.38],[64.843,76.339],[64.699,76.39],[64.969,76.476],[65.261,76.434],[65.486,76.551],[66.091,76.476],[66.006,76.603],[65.822,76.651],[66.04,76.738],[66.379,76.706],[66.227,76.763],[67.571,76.991],[68.58,76.955],[68.501,76.93],[68.833,76.868],[68.759,76.841],[69.09,76.703],[68.795,76.575],[68.957,76.537],[68.195,76.294],[68.306,76.249],[65.991,75.984],[63.792,75.612],[63.811,75.652],[63.705,75.704],[63.587,75.715],[63.686,75.69],[62.311,75.419],[61.904,75.466],[61.854,75.432],[61.949,75.387],[61.817,75.32],[61.734,75.36],[61.463,75.207],[61.382,75.211],[61.412,75.313],[61.29,75.309],[61.349,75.281],[61.091,75.172],[60.79,75.141],[60.741,75.014],[60.588,75.035],[60.594,75.089],[60.639,75.097],[60.628,75.102],[60.317,75.089],[60.485,75.048],[59.908,74.983],[60.629,74.909],[60.527,74.843],[60.161,74.847],[60.307,74.777],[60.207,74.726],[59.656,74.719],[59.626,74.749],[59.492,74.788],[59.45,74.785],[59.575,74.719],[59.837,74.663],[59.862,74.607],[59.762,74.572],[59.14,74.735],[59.09,74.699],[59.269,74.618],[59.138,74.614],[59.122,74.526],[58.785,74.584],[59.113,74.52],[59.061,74.468],[59.123,74.45],[59.134,74.424],[58.211,74.554],[58.591,74.448],[58.531,74.412],[58.413,74.439],[58.354,74.439],[58.315,74.427],[58.611,74.381],[58.721,74.249],[58.634,74.235],[58.731,74.214],[58.531,74.221],[58.638,74.201],[58.471,74.199],[58.584,74.161],[58.506,74.144],[58.277,74.184],[58.279,74.15],[58.537,74.119],[58.141,74.117],[58.192,74.077],[58.115,74.034],[58.231,73.995],[57.71,74.044],[57.395,74.207],[57.338,74.204],[57.542,74.08],[57.251,74.067],[57.521,74.066],[57.784,73.954],[57.864,73.9],[57.762,73.879],[57.881,73.767],[57.648,73.713],[57.43,73.829],[56.705,73.878],[56.625,73.864],[57.293,73.811],[57.619,73.629],[57.234,73.552],[56.951,73.591],[56.792,73.679],[56.684,73.688],[56.888,73.599],[56.75,73.579],[57.24,73.454],[56.904,73.301],[56.765,73.341],[56.734,73.236],[56.12,73.259],[56.025,73.308],[56.046,73.374],[55.933,73.426],[55.963,73.295],[55.737,73.339],[55.397,73.33],[54.955,73.44],[54.287,73.316],[54.067,73.357],[54.487,73.462],[54.233,73.482],[54.389,73.557],[55.399,73.709],[54.562,73.691],[54.236,73.596],[53.673,73.75],[54.009,73.778],[54.322,73.914],[54.846,73.953],[54.577,73.997],[55.034,74.158],[56.078,74.035],[55.61,74.176],[55.109,74.249],[55.754,74.276],[55.677,74.341],[55.297,74.35],[55.378,74.41],[55.505,74.403],[56.259,74.46],[55.567,74.544],[55.824,74.671],[55.95,74.63],[56.409,74.702],[56.568,74.643],[56.722,74.655],[56.946,74.672],[55.826,74.784],[56.446,74.887],[56.256,74.926],[56.466,75.013],[56.421,75.037],[56.039,75.0],[56.083,75.049],[56.103,75.071],[56.157,75.132],[56.292,75.158],[56.385,75.037],[56.587,75.058],[56.75,75.194],[57.076,75.216],[56.704,75.298],[57.035,75.38],[57.996,75.296]]],[[[52.309,71.53],[52.309,71.533],[52.313,71.533],[52.315,71.529],[52.318,71.529],[52.314,71.563],[52.297,71.571],[52.261,71.568],[52.193,71.529],[52.301,71.461],[51.632,71.53],[51.433,71.836],[51.564,72.061],[51.822,72.151],[52.046,72.049],[52.224,72.13],[52.175,72.069],[52.527,72.026],[52.504,72.035],[52.464,72.04],[52.463,72.046],[52.453,72.046],[52.467,72.07],[52.398,72.098],[52.442,72.123],[52.441,72.168],[52.467,72.118],[52.562,72.131],[52.526,72.175],[52.431,72.212],[52.551,72.186],[52.456,72.275],[52.628,72.24],[52.599,72.29],[52.725,72.314],[52.575,72.364],[52.761,72.325],[52.705,72.427],[52.849,72.431],[52.71,72.443],[52.719,72.474],[52.901,72.496],[52.98,72.573],[53.32,72.549],[53.117,72.591],[52.98,72.588],[52.727,72.54],[52.846,72.611],[52.748,72.629],[52.976,72.662],[52.403,72.717],[52.614,72.852],[52.954,72.908],[53.298,72.865],[53.524,72.854],[53.628,72.889],[53.085,72.949],[53.415,72.996],[53.154,73.09],[53.423,73.23],[54.248,73.258],[54.916,73.424],[55.435,73.313],[55.803,73.319],[56.566,73.138],[55.819,73.057],[56.434,73.033],[56.315,72.986],[55.546,72.942],[56.275,72.947],[56.12,72.779],[55.342,72.762],[55.843,72.738],[55.922,72.65],[55.668,72.655],[55.695,72.595],[55.598,72.523],[55.494,72.559],[55.298,72.569],[55.563,72.508],[55.302,72.441],[55.479,72.435],[55.469,72.334],[55.362,72.287],[55.576,72.173],[55.408,72.098],[55.46,72.056],[55.363,71.98],[55.433,71.934],[55.275,71.943],[55.524,71.882],[55.655,71.626],[56.214,71.185],[57.613,70.708],[57.468,70.659],[57.476,70.592],[57.358,70.607],[57.433,70.587],[57.037,70.655],[56.763,70.672],[57.321,70.542],[56.547,70.655],[56.691,70.612],[56.608,70.618],[56.505,70.66],[56.623,70.718],[56.516,70.741],[56.22,70.738],[56.325,70.691],[56.193,70.699],[56.321,70.652],[56.159,70.651],[56.226,70.633],[55.794,70.665],[56.012,70.582],[55.611,70.724],[55.81,70.616],[55.436,70.733],[55.354,70.685],[55.099,70.765],[54.906,70.762],[55.358,70.679],[55.401,70.687],[55.481,70.633],[55.27,70.681],[55.206,70.657],[55.293,70.562],[55.168,70.545],[54.54,70.782],[54.431,70.735],[54.791,70.636],[54.306,70.763],[54.047,70.724],[53.906,70.815],[53.881,70.803],[53.851,70.802],[53.846,70.797],[53.899,70.76],[53.457,70.824],[53.575,70.881],[53.752,70.811],[53.683,70.878],[53.778,70.93],[53.51,71.087],[53.963,71.015],[53.906,71.073],[54.175,71.07],[54.266,71.095],[54.011,71.137],[54.225,71.147],[54.103,71.212],[53.805,71.19],[53.838,71.134],[53.516,71.217],[53.464,71.257],[53.547,71.254],[53.552,71.277],[53.341,71.325],[53.287,71.438],[53.496,71.528],[53.46,71.537],[53.493,71.554],[53.472,71.573],[53.238,71.499],[53.16,71.408],[53.096,71.484],[53.0,71.511],[53.055,71.465],[52.931,71.447],[53.029,71.4],[52.83,71.469],[52.777,71.459],[52.865,71.41],[52.621,71.461],[52.717,71.524],[52.583,71.598],[52.635,71.591],[52.554,71.652],[52.571,71.74],[52.531,71.764],[52.504,71.68],[52.536,71.565],[52.399,71.539],[52.458,71.462],[52.331,71.514],[52.309,71.53]]],[[[44.204,45.606],[44.42,45.522],[44.736,45.492],[45.58,45.156],[45.706,45.013],[45.704,44.971],[46.001,44.981],[46.434,44.931],[46.751,44.814],[46.791,44.76],[46.881,44.78],[46.888,44.747],[46.928,44.754],[46.931,44.762],[47.05,44.802],[46.872,44.68],[46.806,44.673],[45.275,44.499],[45.255,44.535],[45.225,44.493],[44.752,44.44],[43.881,44.816],[43.453,45.992],[43.809,45.963],[43.968,45.88],[44.091,45.773],[44.139,45.655],[44.204,45.606]]],[[[47.553,45.82],[47.618,45.942],[47.535,45.981],[47.535,46.019],[47.338,46.014],[47.24,46.088],[47.579,46.157],[47.616,46.175],[47.578,46.209],[47.689,46.205],[47.717,46.246],[47.881,46.249],[47.969,46.315],[47.979,46.365],[48.07,46.387],[48.056,46.458],[48.014,46.48],[48.049,46.508],[48.1,46.464],[48.222,46.465],[48.278,46.408],[48.279,46.47],[48.333,46.434],[48.404,46.488],[48.524,46.442],[48.542,46.492],[48.621,46.445],[48.736,46.481],[48.896,46.477],[49.145,46.359],[49.14,46.334],[49.141,46.323],[49.336,46.2],[49.326,46.137],[49.267,46.17],[49.24,46.157],[49.318,46.068],[49.252,46.102],[49.233,46.0],[49.028,46.118],[49.0,45.951],[48.929,45.979],[48.857,45.841],[48.77,45.902],[48.707,45.821],[48.705,45.823],[48.694,45.84],[48.689,45.842],[48.673,45.88],[48.68,45.901],[48.598,45.953],[48.305,45.77],[48.223,45.753],[48.225,45.747],[48.245,45.755],[48.27,45.753],[48.279,45.749],[48.301,45.755],[48.238,45.713],[47.837,45.649],[47.772,45.688],[47.739,45.695],[47.738,45.694],[47.619,45.745],[47.606,45.81],[47.553,45.82]]],[[[32.138,47.743],[32.234,47.756],[32.245,47.809],[32.286,47.817],[32.466,47.776],[32.641,47.795],[32.687,47.844],[32.686,47.9],[32.75,47.931],[32.702,47.966],[32.776,47.984],[32.825,47.961],[32.895,47.981],[32.894,48.025],[32.975,48.036],[33.0,47.91],[33.079,47.894],[33.05,47.833],[33.064,47.746],[32.968,47.726],[32.989,47.624],[32.955,47.592],[33.084,47.591],[33.091,47.524],[33.138,47.533],[33.129,47.426],[33.078,47.421],[33.069,47.48],[33.024,47.423],[33.037,47.375],[33.114,47.381],[33.126,47.338],[31.99,47.403],[31.427,47.62],[31.196,47.736],[31.181,47.815],[31.13,47.833],[31.081,47.915],[31.08,48.181],[31.109,48.212],[31.173,48.204],[31.236,48.112],[31.484,48.112],[31.465,48.063],[31.492,48.045],[31.615,48.113],[31.753,48.09],[31.764,48.051],[31.703,48.018],[31.75,47.94],[31.816,47.94],[31.858,47.891],[31.823,47.818],[31.839,47.777],[32.019,47.805],[32.138,47.743]]],[[[22.539,58.642],[23.138,58.55],[23.067,58.62],[23.191,58.684],[23.397,58.574],[23.363,58.507],[23.165,58.569],[23.136,58.522],[23.29,58.487],[23.31,58.426],[23.238,58.459],[23.216,58.431],[23.158,58.478],[23.065,58.421],[23.089,58.379],[22.954,58.384],[22.926,58.302],[22.704,58.275],[22.723,58.211],[22.543,58.253],[22.271,58.19],[22.197,57.978],[22.021,57.918],[21.978,57.977],[22.225,58.139],[21.999,58.25],[21.831,58.28],[21.909,58.307],[21.861,58.353],[21.946,58.307],[22.023,58.366],[21.834,58.482],[21.838,58.502],[22.009,58.506],[22.109,58.418],[22.203,58.546],[22.293,58.487],[22.287,58.57],[22.539,58.642]]],[[[48.059,42.126],[47.981,42.234],[47.782,42.231],[47.769,42.271],[47.797,42.306],[47.696,42.367],[47.745,42.425],[47.854,42.471],[47.839,42.509],[47.702,42.477],[47.675,42.513],[47.58,42.513],[47.483,42.469],[47.413,42.544],[47.357,42.539],[47.382,42.625],[47.263,42.655],[47.309,42.719],[47.323,42.827],[47.521,42.813],[47.549,42.855],[47.517,42.896],[47.335,42.972],[47.307,43.03],[47.337,43.051],[47.292,43.114],[47.389,43.123],[47.403,43.038],[47.405,43.023],[47.695,42.871],[47.734,42.669],[47.888,42.582],[48.362,41.956],[48.477,41.912],[48.458,41.853],[48.454,41.842],[48.381,41.831],[48.305,41.882],[48.234,41.857],[48.154,41.901],[48.234,41.912],[48.141,42.004],[48.093,42.007],[48.095,42.124],[48.059,42.126]]],[[[155.648,50.377],[155.929,50.71],[156.156,50.741],[156.17,50.507],[156.042,50.466],[155.795,50.191],[155.616,50.185],[155.394,50.0],[155.393,50.0],[155.221,50.051],[155.209,50.291],[155.648,50.377]]],[[[22.755,58.813],[22.751,58.8],[22.766,58.803],[22.784,58.79],[22.826,58.822],[22.889,58.82],[22.521,58.691],[22.516,58.696],[22.487,58.702],[22.466,58.716],[22.398,58.889],[22.042,58.941],[22.396,58.937],[22.653,59.087],[22.707,59.009],[22.942,58.982],[22.941,58.942],[23.069,58.839],[22.961,58.849],[22.769,58.819],[22.755,58.813]]],[[[91.338,53.761],[91.333,53.816],[91.427,53.89],[91.484,53.733],[91.566,53.701],[91.534,53.64],[91.564,53.593],[91.621,53.568],[91.648,53.511],[91.856,53.451],[91.898,53.42],[91.914,53.349],[91.853,53.312],[91.851,53.355],[91.747,53.451],[91.476,53.518],[91.459,53.608],[91.338,53.761]]],[[[156.185,50.681],[156.199,50.768],[156.484,50.87],[156.514,50.765],[156.359,50.633],[156.185,50.681]]],[[[35.85,65.041],[35.864,65.039],[35.856,65.037],[35.814,65.052],[35.812,65.088],[35.799,65.093],[35.767,65.087],[35.769,65.065],[35.751,65.062],[35.743,65.039],[35.88,65.019],[35.88,65.043],[35.979,65.057],[36.024,65.034],[36.006,65.02],[35.946,65.026],[35.913,65.015],[35.859,65.018],[35.751,64.955],[35.704,65.028],[35.521,65.077],[35.523,65.084],[35.512,65.085],[35.515,65.094],[35.505,65.097],[35.505,65.122],[35.538,65.145],[35.605,65.154],[35.565,65.127],[35.658,65.13],[35.762,65.172],[35.84,65.138],[35.825,65.096],[35.84,65.049],[35.85,65.041]]],[[[56.411,70.565],[56.356,70.572],[56.408,70.572],[56.162,70.631],[56.382,70.623],[56.445,70.633],[56.339,70.659],[56.432,70.666],[56.649,70.564],[56.529,70.586],[56.494,70.572],[56.405,70.569],[56.411,70.565]]],[[[125.883,73.651],[125.91,73.644],[125.754,73.53],[125.89,73.51],[125.745,73.516],[125.667,73.561],[125.826,73.65],[125.883,73.651]]],[[[155.521,50.813],[155.479,50.916],[155.68,50.848],[155.659,50.807],[155.521,50.813]]],[[[49.269,46.289],[49.207,46.392],[49.233,46.392],[49.295,46.393],[49.254,46.462],[49.352,46.388],[49.339,46.373],[49.269,46.289]]]]}}]}