{"type":"FeatureCollection","features":[{"type":"Feature","properties":{"lite":true,"src":"data/years/1762-07-26.geojson"},"geometry":{"type":"MultiPolygon","coordinates":[[[[23.605,59.014],[23.548,58.97],[23.408,59.026],[23.487,59.086],[23.518,59.073],[23.476,59.214],[23.642,59.257],[23.73,59.23],[23.728,59.27],[23.759,59.284],[24.037,59.293],[24.081,59.271],[24.092,59.313],[24.024,59.379],[24.081,59.395],[24.222,59.355],[24.163,59.402],[24.306,59.419],[24.337,59.471],[24.643,59.436],[24.622,59.471],[24.678,59.495],[24.773,59.45],[24.816,59.489],[24.774,59.555],[24.801,59.57],[24.934,59.508],[25.098,59.498],[25.145,59.539],[25.409,59.491],[25.416,59.527],[25.544,59.535],[25.496,59.574],[25.486,59.666],[25.677,59.566],[25.719,59.588],[25.671,59.656],[25.698,59.671],[25.781,59.636],[25.826,59.575],[25.883,59.628],[25.945,59.595],[25.991,59.634],[26.082,59.587],[26.281,59.587],[26.498,59.54],[26.666,59.552],[26.938,59.45],[27.41,59.452],[27.873,59.408],[27.983,59.447],[28.055,59.528],[28.073,59.578],[27.994,59.705],[28.009,59.759],[28.087,59.799],[28.184,59.759],[28.224,59.691],[28.375,59.666],[28.418,59.708],[28.427,59.811],[28.477,59.852],[28.534,59.86],[28.718,59.787],[28.833,59.787],[28.976,59.831],[29.034,59.887],[28.98,59.93],[29.164,60.003],[30.193,59.881],[30.235,59.991],[29.95,60.029],[29.892,60.1],[29.9,60.134],[29.849,60.167],[29.701,60.201],[29.418,60.169],[29.054,60.184],[28.859,60.297],[28.8,60.369],[28.746,60.342],[28.617,60.382],[28.439,60.56],[28.506,60.56],[28.544,60.51],[28.703,60.461],[28.661,60.538],[28.685,60.615],[28.647,60.669],[28.734,60.693],[28.691,60.738],[28.575,60.683],[28.401,60.665],[28.382,60.626],[28.322,60.621],[28.343,60.594],[28.295,60.601],[28.137,60.534],[27.903,60.528],[27.863,60.567],[27.814,60.529],[27.762,60.58],[27.733,60.544],[27.753,60.506],[27.721,60.489],[27.636,60.492],[27.692,60.519],[27.632,60.522],[27.608,60.5],[27.63,60.471],[27.508,60.514],[27.473,60.506],[27.478,60.461],[27.236,60.512],[27.308,60.526],[27.212,60.56],[27.214,60.585],[27.178,60.567],[27.195,60.521],[27.045,60.546],[26.998,60.489],[26.932,60.485],[26.956,60.449],[26.75,60.633],[26.754,60.675],[26.842,60.651],[26.768,60.794],[26.604,60.86],[26.619,60.902],[26.688,60.908],[26.604,60.934],[26.528,61.017],[26.756,61.111],[27.18,61.143],[27.342,61.186],[27.409,61.251],[27.651,61.264],[27.747,61.339],[27.938,61.367],[28.031,61.445],[28.211,61.522],[28.29,61.598],[28.542,61.628],[28.516,61.735],[28.597,61.766],[28.594,61.805],[28.422,61.876],[28.392,61.921],[28.566,61.95],[28.674,61.928],[28.739,61.971],[28.66,61.977],[28.681,62.013],[28.647,62.018],[28.593,62.102],[28.419,62.12],[28.391,62.19],[28.502,62.202],[28.616,62.141],[28.749,62.127],[28.83,62.065],[28.726,62.054],[28.789,62.02],[29.083,62.007],[29.126,62.098],[29.084,62.101],[29.096,62.126],[29.017,62.157],[29.02,62.183],[28.904,62.221],[28.944,62.29],[28.973,62.289],[28.958,62.308],[29.169,62.332],[29.175,62.407],[29.294,62.388],[29.307,62.334],[29.426,62.237],[29.407,62.202],[29.459,62.081],[29.655,61.977],[29.615,61.913],[29.687,61.869],[29.674,61.79],[29.571,61.736],[29.546,61.689],[29.404,61.654],[29.261,61.558],[29.194,61.556],[29.395,61.399],[29.279,61.304],[29.488,61.24],[29.552,61.177],[29.871,61.176],[32.703,60.646],[32.885,60.699],[32.814,60.754],[32.766,60.886],[32.59,61.0],[32.527,61.118],[31.9,61.324],[31.637,61.463],[31.603,61.424],[31.486,61.551],[31.365,61.627],[31.307,61.607],[31.195,61.638],[31.123,62.804],[30.559,63.112],[30.603,65.147],[30.993,65.754],[30.603,66.665],[30.733,68.575],[31.332,69.662],[32.065,69.881],[32.076,69.815],[32.19,69.642],[32.352,69.514],[32.596,69.424],[33.278,69.341],[33.316,69.071],[33.629,69.214],[35.437,69.15],[37.243,68.794],[37.687,68.63],[38.406,68.243],[38.668,68.146],[39.918,67.94],[40.825,67.66],[40.971,67.536],[40.951,67.335],[41.017,67.202],[41.208,67.07],[41.254,66.935],[41.149,66.784],[40.92,66.621],[40.396,66.344],[40.1,66.241],[39.356,66.086],[38.561,66.005],[37.652,66.073],[37.263,66.181],[36.885,66.235],[36.402,66.245],[35.553,66.337],[35.363,66.371],[34.805,66.563],[34.665,66.519],[34.323,66.593],[34.307,66.619],[33.792,66.666],[33.676,66.747],[33.652,66.705],[33.586,66.687],[33.438,66.702],[33.158,66.915],[32.627,67.083],[32.496,67.084],[32.582,67.038],[32.22,66.994],[32.426,66.89],[32.753,66.649],[33.126,66.563],[33.037,66.548],[33.106,66.51],[33.229,66.533],[33.355,66.48],[33.508,66.464],[33.602,66.501],[33.63,66.475],[33.585,66.46],[33.735,66.426],[33.516,66.406],[33.675,66.357],[33.409,66.346],[33.465,66.315],[33.615,66.328],[33.871,66.267],[33.9,66.229],[34.105,66.247],[34.167,66.221],[34.161,66.185],[34.552,66.094],[34.72,65.989],[34.661,65.953],[34.716,65.933],[34.695,65.909],[34.853,65.899],[34.825,65.843],[34.898,65.825],[34.871,65.774],[34.969,65.728],[34.9,65.706],[34.726,65.79],[34.726,65.721],[34.754,65.709],[34.726,65.67],[34.773,65.599],[34.737,65.583],[34.737,65.542],[34.633,65.487],[34.68,65.454],[34.511,65.456],[34.511,65.412],[34.369,65.418],[34.393,65.398],[34.301,65.387],[34.461,65.365],[34.471,65.289],[34.64,65.241],[34.606,65.227],[34.68,65.2],[34.627,65.172],[34.671,65.152],[34.663,65.127],[34.766,65.107],[34.754,65.055],[34.816,65.043],[34.702,64.98],[34.778,64.967],[34.942,64.858],[34.872,64.802],[34.757,64.774],[34.977,64.769],[35.009,64.743],[34.832,64.698],[34.975,64.614],[34.798,64.547],[35.009,64.494],[34.956,64.452],[35.014,64.423],[35.309,64.371],[35.349,64.296],[35.589,64.322],[35.618,64.341],[35.58,64.411],[35.812,64.342],[35.972,64.203],[36.062,64.217],[36.226,64.137],[36.222,64.075],[36.28,64.049],[36.265,64.024],[36.292,64.01],[36.703,63.925],[36.935,63.932],[37.011,63.897],[37.192,63.891],[37.279,63.822],[37.438,63.792],[37.608,63.816],[37.615,63.879],[37.659,63.899],[37.829,63.902],[37.985,63.946],[38.054,64.0],[38.054,64.129],[37.913,64.222],[37.928,64.259],[37.88,64.308],[37.764,64.339],[37.747,64.39],[37.675,64.343],[37.383,64.306],[37.261,64.314],[37.044,64.39],[36.624,64.719],[36.559,64.72],[36.504,64.836],[36.572,64.83],[36.474,64.865],[36.445,64.92],[36.631,64.904],[36.762,64.95],[36.863,65.065],[36.864,65.113],[36.822,65.145],[37.009,65.173],[37.671,65.036],[37.707,65.015],[37.718,64.959],[37.794,64.921],[38.046,64.854],[38.385,64.845],[38.383,64.78],[38.294,64.804],[38.036,64.762],[38.18,64.72],[38.375,64.761],[38.473,64.743],[38.492,64.768],[38.417,64.804],[38.446,64.818],[39.328,64.64],[39.566,64.545],[39.923,64.603],[39.903,64.624],[39.786,64.597],[39.849,64.676],[40.182,64.559],[40.421,64.548],[40.44,64.565],[40.196,64.574],[40.055,64.653],[39.824,64.68],[39.983,64.719],[40.189,64.708],[40.302,64.635],[40.444,64.603],[40.453,64.675],[40.411,64.735],[40.447,64.767],[40.321,64.912],[39.982,65.151],[39.944,65.217],[39.722,65.379],[39.711,65.471],[39.751,65.554],[39.828,65.607],[40.28,65.73],[40.472,65.813],[40.709,65.972],[41.343,66.063],[41.643,66.173],[41.858,66.296],[42.16,66.527],[42.66,66.443],[42.549,66.385],[43.301,66.426],[43.367,66.347],[43.554,66.324],[43.684,66.262],[43.663,66.217],[43.463,66.167],[43.535,66.14],[43.713,66.186],[43.854,66.181],[44.048,66.079],[44.03,66.012],[44.088,66.154],[44.096,66.261],[44.151,66.356],[44.211,66.404],[44.303,66.408],[44.859,66.231],[45.741,66.063],[45.833,66.083],[46.347,66.023],[47.11,65.816],[47.408,65.831],[47.661,65.803],[47.764,65.84],[47.737,65.913],[47.757,65.937],[48.141,66.122],[49.007,66.114],[51.512,66.778],[51.554,66.797],[51.491,66.83],[51.525,66.922],[51.812,66.949],[51.849,66.997],[52.022,67.023],[52.159,67.081],[53.772,66.994],[59.879,66.997],[59.869,66.963],[59.919,66.949],[60.083,66.985],[61.661,67.011],[61.854,67.122],[62.823,67.383],[62.878,67.578],[63.107,67.67],[63.422,67.763],[63.691,67.757],[63.711,67.805],[63.873,67.831],[63.952,67.895],[63.919,67.964],[63.839,68.025],[64.326,68.129],[64.351,68.173],[64.418,68.196],[64.532,68.196],[64.501,68.314],[64.559,68.354],[64.761,68.401],[65.006,68.384],[65.445,68.424],[65.269,68.232],[65.324,68.09],[65.286,68.01],[65.436,67.915],[65.781,67.919],[65.91,67.955],[66.084,67.925],[66.015,67.796],[66.194,67.736],[66.2,67.695],[66.106,67.652],[66.0,67.683],[65.85,67.659],[65.819,67.631],[65.839,67.604],[65.791,67.568],[66.033,67.57],[66.1,67.506],[66.085,67.471],[65.937,67.398],[65.7,67.393],[65.673,67.368],[65.701,67.339],[65.662,67.316],[65.188,67.149],[65.207,67.078],[65.073,67.043],[65.102,66.997],[65.098,66.897],[64.575,66.803],[64.533,66.733],[64.411,66.728],[64.295,66.668],[63.98,66.656],[63.807,66.552],[63.541,66.476],[63.413,66.485],[63.237,66.33],[63.292,66.244],[63.104,66.255],[63.009,66.199],[62.957,66.118],[62.858,66.078],[62.817,66.011],[62.87,65.977],[62.798,65.932],[62.844,65.877],[62.522,65.844],[62.014,65.72],[62.273,65.619],[62.322,65.537],[62.402,65.511],[62.369,65.447],[62.479,65.345],[62.81,65.289],[62.797,65.054],[62.673,64.891],[62.806,64.833],[62.816,64.806],[62.781,64.785],[62.799,64.736],[62.59,64.645],[62.533,64.551],[62.687,64.489],[62.899,64.472],[63.234,64.519],[63.455,64.454],[63.497,64.377],[63.41,64.325],[63.611,64.263],[63.889,64.279],[64.017,64.352],[64.478,64.355],[64.604,64.432],[64.761,64.422],[64.995,64.461],[65.177,64.441],[65.4,64.566],[65.884,64.564],[66.02,64.59],[66.465,64.507],[66.682,64.552],[66.932,64.482],[66.884,64.383],[66.792,64.328],[66.816,64.221],[67.161,64.159],[67.163,64.121],[67.253,64.112],[67.279,64.076],[67.677,64.074],[67.798,64.027],[67.929,64.111],[68.18,64.171],[68.427,64.291],[68.884,64.218],[68.894,64.266],[68.995,64.33],[68.874,64.433],[69.015,64.467],[69.229,64.465],[69.389,64.384],[69.732,64.389],[69.824,64.336],[69.999,64.311],[70.304,64.339],[70.471,64.247],[70.67,64.232],[70.765,64.189],[70.77,64.117],[70.554,63.999],[70.641,63.893],[70.818,63.811],[70.911,63.688],[71.386,63.67],[71.546,63.587],[71.607,63.18],[71.805,63.214],[71.989,63.197],[72.16,63.294],[72.656,63.275],[72.911,63.389],[73.101,63.431],[73.279,63.313],[73.366,63.202],[74.24,63.167],[74.507,63.038],[74.915,63.027],[75.363,63.103],[75.7,63.086],[75.804,63.109],[76.235,63.015],[76.297,62.945],[76.689,63.034],[76.823,62.987],[77.022,62.971],[77.155,62.787],[77.326,62.706],[77.885,62.553],[78.015,62.456],[78.379,62.563],[78.793,62.61],[79.821,62.599],[79.907,62.699],[79.92,62.789],[80.555,62.996],[80.592,63.079],[81.109,63.11],[81.171,62.969],[81.316,62.881],[81.337,62.821],[81.596,62.769],[81.633,62.73],[81.783,62.684],[82.165,62.804],[82.316,62.765],[82.746,62.749],[82.755,62.666],[83.006,62.591],[83.032,62.525],[83.282,62.456],[83.798,62.555],[83.938,62.48],[84.017,62.392],[84.24,62.368],[84.286,62.272],[84.39,62.236],[84.444,62.17],[84.487,62.096],[84.516,61.925],[84.684,61.801],[85.096,61.747],[85.277,61.669],[85.403,61.682],[85.491,61.613],[85.712,61.568],[85.843,61.588],[85.956,61.541],[85.962,61.455],[86.129,61.374],[86.211,61.374],[86.327,61.452],[86.507,61.406],[86.523,61.349],[86.603,61.311],[86.775,61.317],[86.976,61.36],[86.989,61.411],[86.95,61.447],[87.003,61.46],[87.254,61.376],[87.245,61.354],[87.467,61.339],[87.474,61.266],[87.564,61.209],[87.692,61.267],[87.713,61.296],[87.676,61.329],[87.778,61.362],[87.963,61.315],[88.182,61.346],[88.953,60.746],[89.867,60.807],[90.946,60.746],[91.965,60.751],[92.138,60.829],[92.136,60.89],[92.234,60.951],[92.227,60.98],[92.409,60.968],[92.474,60.997],[92.401,61.111],[92.467,61.195],[92.56,61.191],[92.757,61.087],[92.902,61.068],[92.891,61.095],[92.939,61.13],[92.818,61.216],[92.829,61.236],[92.632,61.304],[92.83,61.359],[92.93,61.332],[93.012,61.363],[93.151,61.321],[93.156,61.244],[93.343,61.1],[93.472,61.082],[93.568,61.104],[93.732,61.038],[93.918,61.058],[94.029,60.96],[94.252,61.12],[94.382,61.118],[94.546,61.174],[94.721,61.158],[95.113,61.089],[95.359,60.921],[95.402,60.816],[95.326,60.744],[95.48,60.706],[95.234,60.563],[95.227,60.499],[95.289,60.451],[95.267,60.423],[95.113,60.416],[95.022,60.37],[94.929,60.237],[95.011,60.196],[94.977,60.113],[95.081,60.049],[95.007,60.007],[95.02,59.966],[95.062,59.89],[95.173,59.803],[95.136,59.755],[95.241,59.637],[95.498,59.637],[95.593,59.575],[95.726,59.554],[95.783,59.606],[95.881,59.627],[95.954,59.628],[96.052,59.556],[96.239,59.626],[96.326,59.549],[96.29,59.505],[96.352,59.471],[96.452,59.473],[96.554,59.539],[96.784,59.549],[97.121,59.5],[97.224,59.535],[97.237,59.577],[97.204,59.615],[97.361,59.66],[97.457,59.73],[97.696,59.679],[98.052,59.723],[98.129,59.768],[98.337,59.723],[98.445,59.784],[98.606,59.762],[98.878,59.826],[98.935,59.767],[99.001,59.772],[99.102,59.841],[99.116,59.906],[99.409,60.029],[99.412,60.078],[99.649,60.116],[100.066,59.994],[100.097,59.959],[100.072,59.895],[100.315,59.841],[100.429,59.859],[100.553,59.788],[100.866,59.783],[101.025,59.714],[101.448,59.683],[101.472,59.725],[101.729,59.74],[101.79,59.712],[101.785,59.684],[102.016,59.637],[102.107,59.589],[102.443,59.647],[102.485,59.627],[102.456,59.614],[102.454,59.524],[102.525,59.498],[102.527,59.471],[102.639,59.449],[102.483,59.392],[102.517,59.26],[102.436,59.214],[102.484,59.181],[102.616,59.206],[102.82,59.187],[102.899,59.27],[103.014,59.312],[103.136,59.254],[103.212,59.251],[103.235,59.285],[103.333,59.268],[103.342,59.243],[103.21,59.232],[103.235,59.17],[103.309,59.131],[103.391,59.025],[103.555,58.993],[103.623,58.918],[103.896,58.917],[103.976,58.867],[103.944,58.835],[103.951,58.774],[103.884,58.754],[103.889,58.732],[103.97,58.723],[104.04,58.783],[104.19,58.771],[104.252,58.711],[104.376,58.722],[104.343,58.67],[104.466,58.604],[104.814,58.672],[104.899,58.748],[104.766,58.812],[104.792,58.861],[105.135,59.055],[105.277,59.063],[105.373,59.116],[105.314,59.161],[105.343,59.197],[105.307,59.249],[105.19,59.301],[105.241,59.445],[105.149,59.49],[104.976,59.473],[104.859,59.558],[104.886,59.608],[104.811,59.63],[104.813,59.673],[104.782,59.692],[104.889,59.76],[105.026,59.773],[105.018,59.83],[105.07,59.869],[105.372,59.834],[105.429,59.853],[105.466,59.826],[105.52,59.844],[105.437,59.902],[105.429,59.947],[105.51,60.0],[105.433,60.149],[105.512,60.23],[105.344,60.304],[105.231,60.28],[104.903,60.305],[104.854,60.352],[104.669,60.411],[104.649,60.522],[104.585,60.544],[104.575,60.591],[104.514,60.627],[104.614,60.726],[104.582,60.773],[104.492,60.807],[104.486,60.843],[104.638,60.903],[104.586,60.946],[104.648,61.036],[104.631,61.074],[104.697,61.083],[104.856,61.186],[105.049,61.175],[104.953,61.32],[104.826,61.354],[105.01,61.407],[105.283,61.419],[105.284,61.466],[105.378,61.54],[105.587,61.586],[105.669,61.65],[105.814,61.625],[105.896,61.681],[105.982,61.686],[105.903,61.841],[106.276,62.018],[106.399,62.039],[106.417,62.099],[106.393,62.14],[106.454,62.196],[106.47,62.261],[106.381,62.284],[106.487,62.337],[106.445,62.393],[106.548,62.392],[106.634,62.46],[106.759,62.493],[106.689,62.564],[106.8,62.627],[106.478,62.703],[106.516,62.728],[106.516,62.794],[106.453,62.818],[106.438,62.868],[106.205,62.928],[106.193,62.973],[106.153,62.982],[106.175,63.008],[106.127,63.077],[106.4,63.122],[106.398,63.182],[106.443,63.218],[106.356,63.256],[106.422,63.353],[106.622,63.312],[106.741,63.395],[106.503,63.537],[106.524,63.563],[106.602,63.558],[106.593,63.598],[106.66,63.622],[106.694,63.661],[106.612,63.722],[106.795,63.87],[106.73,63.912],[106.733,63.939],[106.629,63.974],[106.631,64.005],[106.675,64.037],[106.97,63.966],[107.043,63.922],[107.197,63.977],[107.303,63.973],[107.371,63.931],[107.339,63.904],[107.416,63.889],[107.454,63.917],[107.585,63.897],[107.632,63.93],[107.632,63.975],[107.761,64.015],[108.206,63.999],[108.315,64.006],[108.394,64.048],[108.248,64.255],[108.086,64.252],[108.049,64.192],[107.978,64.187],[107.642,64.316],[107.353,64.269],[107.274,64.303],[107.258,64.35],[107.105,64.359],[106.917,64.443],[106.738,64.429],[106.656,64.533],[106.58,64.548],[106.547,64.526],[106.576,64.481],[106.553,64.465],[106.256,64.452],[106.181,64.421],[106.094,64.432],[106.138,64.488],[106.025,64.546],[105.906,64.495],[105.763,64.497],[105.79,64.553],[105.717,64.591],[105.756,64.642],[105.7,64.679],[105.873,64.672],[105.829,64.781],[105.872,64.832],[105.992,64.828],[105.935,64.902],[106.033,64.913],[106.027,64.88],[106.058,64.865],[106.212,64.871],[105.959,65.037],[106.111,65.065],[106.194,65.128],[106.312,65.14],[106.411,65.222],[106.528,65.215],[106.436,65.251],[106.449,65.314],[106.615,65.39],[106.819,65.373],[106.973,65.506],[106.71,65.545],[106.705,65.607],[106.435,65.674],[106.464,65.733],[106.439,65.771],[106.495,65.797],[106.47,65.824],[106.498,65.883],[106.469,65.922],[106.522,66.003],[106.34,66.158],[106.202,66.154],[106.12,66.194],[106.141,66.249],[106.119,66.37],[106.335,66.47],[106.318,66.542],[106.391,66.489],[106.52,66.498],[106.762,66.424],[106.895,66.432],[106.921,66.48],[107.07,66.536],[107.24,66.456],[107.5,66.447],[107.603,66.491],[107.839,66.483],[107.885,66.451],[107.966,66.463],[107.982,66.416],[108.043,66.413],[108.106,66.44],[108.11,66.529],[108.387,66.642],[108.389,66.672],[108.27,66.714],[108.776,66.757],[108.803,66.806],[108.876,66.822],[108.982,66.753],[108.865,66.677],[108.864,66.639],[109.021,66.585],[109.201,66.607],[109.253,66.51],[109.232,66.465],[109.369,66.426],[109.386,66.347],[109.276,66.313],[109.28,66.255],[109.353,66.234],[109.349,66.148],[109.453,66.146],[109.519,66.19],[109.672,66.194],[109.815,66.261],[109.958,66.262],[110.143,66.339],[110.375,66.367],[110.33,66.448],[110.52,66.461],[110.768,66.548],[111.103,66.559],[111.235,66.598],[111.36,66.567],[111.579,66.64],[112.115,66.661],[112.208,66.609],[112.695,66.615],[112.759,66.569],[112.883,66.559],[112.942,66.488],[113.12,66.436],[113.185,66.382],[113.266,66.224],[113.314,66.21],[113.274,66.104],[113.452,66.032],[113.486,65.927],[113.403,65.894],[113.3,65.924],[113.054,65.925],[112.931,65.871],[112.869,65.784],[112.767,65.762],[112.67,65.677],[112.61,65.663],[112.621,65.607],[112.536,65.62],[112.478,65.569],[112.309,65.542],[112.33,65.49],[112.793,65.46],[112.749,65.366],[112.808,65.353],[112.78,65.273],[112.63,65.305],[112.532,65.268],[112.53,65.228],[112.576,65.188],[112.555,65.1],[112.66,65.044],[112.896,65.102],[113.039,65.081],[113.033,65.04],[113.11,64.979],[113.368,64.956],[113.409,64.83],[113.964,64.822],[114.063,64.745],[114.049,64.655],[114.124,64.633],[114.088,64.59],[114.131,64.561],[114.365,64.597],[114.443,64.67],[114.583,64.7],[114.605,64.628],[114.674,64.656],[114.683,64.706],[114.803,64.676],[114.816,64.697],[114.764,64.712],[114.747,64.754],[114.805,64.731],[114.849,64.76],[114.726,64.785],[114.748,64.823],[114.845,64.831],[114.826,64.874],[114.956,64.926],[115.416,64.95],[115.412,64.985],[115.264,65.018],[115.351,65.034],[115.348,65.065],[115.576,65.043],[115.564,65.097],[115.858,65.084],[115.902,65.156],[116.054,65.1],[116.097,65.111],[116.136,65.07],[116.338,65.099],[116.556,65.086],[116.542,65.057],[116.409,65.031],[116.497,65.0],[116.669,65.071],[116.708,65.061],[116.697,65.093],[116.729,65.114],[116.792,65.086],[116.798,65.116],[116.859,65.128],[116.859,65.171],[117.003,65.174],[116.991,65.205],[117.095,65.266],[117.256,65.281],[117.253,65.307],[117.314,65.326],[117.307,65.364],[117.368,65.374],[117.386,65.425],[117.421,65.428],[117.408,65.488],[117.368,65.513],[117.675,65.649],[117.687,65.705],[117.806,65.741],[117.835,65.795],[118.069,65.786],[118.018,65.836],[118.063,65.901],[118.042,65.976],[118.391,66.106],[118.376,66.176],[118.199,66.238],[118.1,66.32],[118.14,66.378],[118.298,66.414],[118.329,66.455],[118.393,66.434],[118.602,66.494],[118.715,66.487],[118.849,66.432],[118.832,66.463],[118.877,66.495],[119.076,66.537],[119.271,66.634],[119.152,66.707],[119.159,66.743],[119.059,66.839],[119.044,66.95],[119.116,66.911],[119.659,66.84],[119.98,66.703],[119.998,66.665],[120.054,66.665],[120.057,66.599],[120.195,66.55],[120.174,66.516],[120.222,66.485],[120.339,66.471],[120.33,66.425],[120.374,66.404],[120.343,66.352],[120.498,66.327],[120.503,66.244],[120.555,66.219],[120.478,66.14],[120.508,66.018],[120.589,65.949],[120.448,65.813],[120.49,65.762],[120.473,65.682],[120.575,65.646],[120.699,65.649],[120.698,65.617],[120.79,65.58],[120.905,65.587],[120.93,65.551],[121.033,65.536],[121.063,65.472],[121.105,65.455],[121.085,65.429],[121.128,65.403],[121.137,65.352],[121.232,65.335],[121.217,65.263],[121.516,65.226],[121.83,65.092],[122.31,64.975],[122.595,64.975],[122.744,64.866],[122.873,64.823],[123.005,64.879],[123.064,64.873],[123.382,64.744],[123.629,64.765],[123.922,64.721],[124.172,64.762],[124.22,64.856],[124.273,64.888],[124.479,64.931],[124.544,64.915],[124.609,64.961],[124.776,64.966],[124.851,65.028],[125.0,65.028],[124.946,65.089],[125.001,65.101],[125.042,65.223],[125.138,65.299],[125.276,65.328],[125.293,65.361],[125.786,65.328],[125.802,65.38],[125.985,65.443],[126.159,65.471],[126.303,65.475],[126.355,65.445],[126.519,65.46],[126.529,65.514],[126.631,65.585],[126.821,65.56],[127.019,65.613],[127.069,65.736],[127.052,65.78],[127.154,65.829],[127.307,65.774],[127.39,65.857],[127.387,65.953],[127.584,65.954],[127.61,65.998],[127.594,66.042],[127.469,66.046],[127.374,66.111],[127.256,66.056],[127.152,66.082],[127.137,66.148],[126.988,66.147],[127.007,66.164],[126.976,66.312],[127.017,66.401],[127.183,66.485],[127.188,66.535],[127.351,66.592],[127.312,66.625],[127.325,66.652],[127.419,66.663],[127.537,66.612],[127.677,66.622],[127.812,66.555],[128.022,66.534],[128.045,66.48],[128.254,66.469],[128.391,66.5],[128.396,66.535],[128.454,66.559],[128.399,66.603],[128.521,66.657],[128.61,66.636],[128.617,66.604],[128.724,66.553],[129.164,66.546],[129.382,66.497],[129.462,66.523],[129.412,66.593],[129.753,66.489],[129.899,66.493],[130.02,66.541],[130.12,66.472],[130.054,66.421],[130.051,66.383],[130.102,66.321],[130.109,66.215],[130.435,66.203],[130.544,66.08],[130.848,65.971],[131.138,65.939],[131.134,65.881],[131.264,65.789],[131.353,65.795],[131.411,65.692],[131.707,65.699],[131.644,65.608],[131.652,65.567],[131.48,65.454],[131.527,65.44],[131.537,65.399],[131.606,65.39],[131.683,65.301],[131.843,65.296],[131.994,65.216],[132.128,65.061],[132.168,64.964],[132.264,64.927],[132.27,64.855],[132.354,64.801],[132.354,64.731],[132.278,64.663],[132.409,64.61],[132.612,64.645],[132.618,64.612],[132.741,64.588],[132.878,64.626],[132.873,64.686],[132.971,64.707],[133.004,64.744],[132.961,64.8],[133.012,64.844],[132.918,64.929],[132.959,64.991],[132.947,65.031],[132.992,65.065],[132.974,65.125],[133.021,65.174],[133.193,65.232],[133.224,65.275],[133.482,65.279],[133.632,65.212],[133.883,65.199],[133.946,65.227],[133.999,65.304],[134.147,65.323],[134.322,65.411],[134.469,65.37],[134.494,65.403],[134.47,65.433],[134.52,65.502],[134.671,65.554],[134.715,65.595],[134.698,65.644],[134.741,65.645],[134.763,65.689],[134.832,65.692],[134.865,65.764],[135.079,65.759],[135.374,65.802],[135.438,65.85],[135.437,65.892],[135.487,65.904],[135.741,65.889],[135.752,65.958],[135.843,65.972],[135.862,66.003],[136.015,66.006],[136.109,66.087],[136.233,66.117],[136.273,66.156],[136.437,66.195],[136.708,66.203],[136.855,66.193],[136.878,66.157],[136.95,66.153],[137.008,66.11],[137.276,66.097],[137.315,66.05],[137.523,66.054],[137.709,65.967],[138.017,65.962],[138.11,65.997],[138.224,65.936],[138.379,65.93],[139.26,66.018],[139.526,65.967],[139.827,65.845],[139.987,65.832],[140.178,65.875],[140.392,65.795],[140.292,65.704],[140.217,65.684],[140.19,65.628],[140.367,65.549],[140.508,65.559],[140.669,65.523],[140.724,65.557],[140.98,65.538],[141.053,65.566],[141.148,65.509],[141.329,65.485],[141.345,65.458],[141.418,65.471],[141.453,65.443],[141.842,65.462],[141.879,65.399],[142.085,65.391],[142.101,65.36],[142.905,65.312],[142.976,65.252],[142.988,65.167],[143.353,65.152],[143.533,65.112],[143.534,65.066],[143.661,65.07],[143.79,65.029],[143.898,65.051],[144.039,65.019],[144.248,65.024],[144.351,64.886],[144.529,64.862],[144.688,64.772],[144.658,64.72],[144.53,64.654],[144.705,64.607],[144.782,64.554],[144.921,64.569],[144.991,64.531],[145.139,64.538],[145.291,64.439],[145.491,64.451],[145.667,64.409],[145.739,64.435],[145.863,64.397],[145.878,64.344],[146.046,64.285],[146.153,64.195],[146.473,64.191],[147.006,64.129],[147.219,64.037],[147.361,64.056],[147.391,64.091],[147.372,64.118],[147.637,64.171],[147.724,64.115],[147.648,64.069],[147.668,64.007],[147.772,64.005],[147.773,63.962],[147.819,63.942],[147.892,63.965],[148.018,63.931],[148.089,64.001],[148.181,64.02],[148.173,64.097],[148.267,64.149],[148.269,64.197],[148.319,64.22],[148.223,64.275],[148.262,64.298],[148.237,64.327],[148.089,64.381],[148.07,64.413],[148.227,64.438],[148.331,64.524],[148.509,64.502],[148.551,64.447],[148.704,64.398],[149.164,64.421],[149.194,64.377],[149.34,64.372],[149.372,64.378],[149.363,64.415],[149.504,64.401],[149.589,64.47],[149.777,64.544],[149.935,64.549],[149.993,64.492],[150.135,64.464],[150.012,64.352],[150.09,64.278],[150.197,64.26],[150.192,64.224],[150.236,64.207],[150.376,64.21],[150.552,64.161],[150.666,64.174],[150.679,64.271],[150.603,64.304],[150.641,64.332],[151.252,64.339],[151.324,64.367],[151.406,64.325],[151.495,64.421],[151.968,64.484],[152.065,64.447],[152.14,64.347],[152.449,64.39],[152.44,64.47],[152.377,64.526],[152.728,64.62],[152.852,64.7],[152.751,64.779],[152.589,64.817],[152.53,64.914],[152.528,64.985],[152.634,65.057],[152.668,65.167],[152.719,65.179],[152.729,65.218],[152.799,65.202],[152.933,65.25],[153.154,65.239],[153.202,65.296],[153.441,65.353],[153.503,65.342],[153.595,65.407],[153.451,65.481],[153.545,65.634],[153.52,65.661],[153.585,65.697],[153.552,65.741],[153.497,65.75],[153.538,65.806],[153.753,65.865],[153.957,65.868],[154.087,65.843],[154.106,65.772],[154.268,65.801],[154.415,65.919],[154.396,65.974],[154.435,65.995],[154.247,66.056],[154.302,66.098],[154.368,66.1],[154.398,66.178],[154.521,66.215],[154.838,66.164],[154.894,66.104],[155.077,66.123],[155.075,66.158],[155.173,66.178],[155.261,66.177],[155.398,66.12],[155.53,66.139],[155.649,66.116],[155.75,66.156],[156.06,66.041],[156.145,66.065],[156.433,66.029],[156.675,66.183],[157.013,66.007],[156.958,65.953],[157.083,65.91],[157.336,65.887],[157.451,65.907],[157.463,65.94],[157.417,65.967],[157.436,65.99],[157.657,66.029],[157.742,66.094],[158.189,66.137],[158.283,66.096],[158.509,66.091],[158.434,66.21],[158.443,66.258],[158.552,66.352],[158.605,66.353],[158.774,66.279],[159.194,66.207],[159.19,66.154],[159.049,66.052],[158.987,65.94],[158.924,65.898],[158.932,65.817],[158.885,65.785],[158.92,65.738],[159.377,65.653],[159.833,65.524],[160.027,65.51],[160.169,65.445],[160.165,65.38],[160.206,65.344],[160.414,65.248],[160.518,65.161],[161.01,65.165],[161.347,65.118],[161.415,65.064],[161.687,64.989],[161.781,64.835],[161.866,64.808],[162.292,64.737],[162.554,64.742],[162.734,64.656],[162.997,64.644],[163.121,64.69],[163.142,64.77],[163.121,64.797],[163.347,64.814],[163.508,64.924],[163.873,64.86],[164.023,64.87],[164.188,64.929],[164.794,64.767],[164.881,64.681],[165.022,64.691],[165.033,64.838],[165.263,64.846],[165.358,64.756],[165.684,64.748],[165.738,64.718],[165.741,64.674],[165.867,64.618],[165.814,64.585],[165.87,64.55],[166.058,64.557],[166.199,64.604],[166.807,64.528],[167.009,64.546],[167.235,64.618],[167.37,64.49],[167.504,64.472],[167.713,64.336],[167.813,64.346],[168.025,64.281],[168.153,64.286],[168.224,64.341],[168.496,64.313],[168.623,64.21],[168.769,64.183],[168.764,64.146],[168.858,64.022],[169.111,63.948],[169.342,63.942],[169.368,63.87],[169.54,63.814],[169.548,63.698],[169.587,63.659],[169.51,63.633],[169.49,63.574],[169.203,63.52],[168.785,63.304],[168.777,63.248],[168.684,63.245],[168.704,63.196],[168.595,63.19],[168.46,63.075],[168.925,62.939],[169.124,62.968],[169.514,62.809],[169.655,62.704],[169.841,62.651],[170.053,62.663],[169.982,62.543],[170.084,62.485],[170.037,62.443],[170.27,62.277],[170.421,62.309],[170.859,62.244],[170.906,62.275],[171.08,62.285],[171.049,62.337],[171.218,62.363],[171.258,62.321],[171.359,62.351],[171.377,62.319],[171.486,62.307],[171.858,62.377],[171.871,62.408],[172.054,62.461],[172.205,62.446],[172.294,62.398],[172.486,62.435],[172.701,62.398],[172.853,62.327],[172.905,62.388],[173.172,62.39],[173.218,62.432],[173.505,62.529],[173.687,62.529],[173.796,62.511],[173.871,62.436],[174.075,62.441],[174.088,62.345],[174.005,62.278],[174.105,62.186],[174.103,62.076],[174.227,62.061],[174.327,62.088],[174.344,62.041],[174.458,61.983],[174.446,61.911],[174.504,61.877],[174.447,61.862],[174.442,61.816],[174.147,61.751],[173.841,61.613],[173.774,61.611],[173.755,61.654],[173.577,61.706],[173.544,61.603],[173.493,61.601],[173.483,61.557],[173.342,61.552],[173.288,61.467],[173.125,61.369],[173.069,61.345],[172.977,61.372],[173.003,61.317],[172.918,61.279],[172.768,61.273],[172.644,61.191],[172.43,61.218],[172.377,61.179],[172.434,61.143],[172.281,61.109],[172.49,61.081],[172.473,61.055],[172.371,61.013],[172.19,61.043],[172.165,61.024],[172.194,60.956],[172.115,60.941],[172.045,60.86],[171.375,60.689],[171.358,60.629],[171.164,60.557],[171.122,60.51],[170.847,60.464],[170.809,60.404],[170.64,60.364],[170.651,60.32],[170.502,60.273],[170.474,60.232],[170.4,59.966],[170.264,59.92],[170.177,59.954],[170.104,59.92],[170.051,59.993],[169.924,60.021],[169.795,60.202],[169.708,60.251],[169.657,60.378],[169.208,60.537],[168.645,60.503],[168.482,60.549],[168.287,60.546],[167.809,60.463],[167.599,60.396],[167.508,60.404],[167.236,60.31],[167.102,60.33],[166.958,60.216],[166.158,59.777],[166.071,59.796],[166.053,59.916],[166.133,60.147],[166.233,60.218],[166.224,60.329],[166.183,60.397],[166.074,60.378],[165.956,60.311],[165.846,60.338],[165.601,60.237],[165.424,60.125],[165.146,60.04],[165.212,59.991],[165.015,59.849],[164.901,59.82],[164.885,59.755],[164.851,59.739],[164.76,59.763],[164.659,59.952],[164.452,60.065],[164.358,59.945],[164.29,59.981],[164.118,59.941],[164.109,59.902],[164.145,59.863],[164.055,59.879],[164.046,59.91],[164.205,59.997],[164.112,59.991],[164.037,60.033],[163.966,59.988],[163.842,59.977],[163.741,59.881],[163.389,59.814],[163.362,59.742],[163.388,59.631],[163.32,59.587],[163.184,59.566],[163.21,59.56],[163.169,59.511],[163.32,59.411],[163.307,59.273],[163.243,59.241],[163.288,59.287],[163.245,59.294],[163.079,59.192],[163.218,59.15],[163.258,59.076],[163.161,59.034],[163.165,59.097],[163.02,59.159],[162.909,59.097],[163.048,59.028],[163.079,58.982],[162.878,58.906],[162.907,58.891],[162.291,58.53],[162.17,58.406],[161.993,58.088],[162.026,57.929],[162.082,57.882],[162.214,57.822],[162.456,57.782],[162.354,57.689],[162.522,57.754],[162.491,57.884],[162.53,57.936],[162.689,57.969],[163.004,57.838],[163.215,57.814],[163.33,57.709],[163.242,57.67],[163.241,57.596],[163.164,57.562],[163.077,57.463],[163.013,57.448],[162.781,57.283],[162.786,57.145],[162.858,57.051],[162.79,56.922],[162.784,56.763],[162.835,56.722],[162.967,56.704],[163.068,56.741],[163.234,56.737],[163.281,56.688],[163.239,56.624],[163.275,56.563],[163.247,56.531],[163.281,56.468],[163.25,56.451],[163.352,56.324],[163.366,56.181],[163.166,56.128],[163.02,55.958],[162.808,56.008],[162.598,56.174],[162.633,56.221],[162.557,56.229],[162.651,56.246],[162.722,56.342],[162.697,56.343],[162.714,56.378],[162.807,56.406],[162.691,56.433],[162.645,56.392],[162.508,56.381],[162.572,56.347],[162.492,56.333],[162.593,56.268],[162.202,56.144],[162.018,55.976],[162.018,55.931],[161.777,55.608],[161.75,55.465],[161.793,55.236],[161.875,55.079],[162.152,54.861],[162.107,54.825],[162.11,54.744],[162.009,54.702],[161.877,54.565],[161.658,54.464],[161.306,54.44],[161.213,54.474],[161.14,54.547],[160.901,54.522],[160.407,54.368],[160.239,54.25],[160.024,54.151],[159.902,53.982],[159.844,53.797],[159.864,53.695],[159.818,53.66],[159.914,53.591],[159.873,53.666],[159.929,53.647],[159.968,53.574],[159.96,53.495],[159.918,53.476],[159.825,53.536],[159.791,53.516],[159.931,53.39],[159.928,53.338],[159.972,53.329],[159.921,53.253],[159.969,53.215],[159.979,53.264],[160.016,53.266],[160.059,53.097],[159.78,53.2],[159.599,53.205],[158.606,52.878],[158.623,52.847],[158.545,52.837],[158.561,52.797],[158.495,52.759],[158.567,52.741],[158.597,52.695],[158.542,52.631],[158.449,52.643],[158.46,52.575],[158.522,52.567],[158.503,52.501],[158.53,52.488],[158.462,52.461],[158.429,52.41],[158.546,52.419],[158.571,52.392],[158.503,52.358],[158.558,52.313],[158.427,52.268],[158.435,52.244],[158.394,52.227],[158.422,52.181],[158.317,52.101],[158.285,51.967],[158.117,51.815],[158.015,51.766],[157.915,51.633],[157.854,51.622],[157.76,51.546],[157.715,51.55],[157.481,51.401],[157.474,51.361],[157.401,51.351],[156.674,50.866],[156.662,50.885],[156.758,50.98],[156.694,50.963],[156.716,51.008],[156.661,51.072],[156.668,51.167],[156.574,51.215],[156.524,51.31],[156.443,51.691],[156.391,52.203],[156.063,52.922],[155.906,53.775],[155.681,54.41],[155.562,54.881],[155.501,55.286],[155.604,55.932],[155.821,56.455],[155.895,56.509],[156.05,56.767],[156.153,56.835],[156.064,56.716],[156.208,56.826],[156.21,56.856],[156.461,56.948],[156.53,57.021],[156.553,57.109],[156.659,57.071],[156.946,57.434],[156.897,57.601],[156.944,57.618],[156.931,57.659],[156.82,57.736],[156.749,57.73],[156.983,57.857],[157.051,57.805],[157.242,57.771],[157.47,57.804],[157.557,57.876],[157.571,57.93],[157.653,58.004],[157.64,58.025],[157.947,57.983],[158.293,58.014],[158.229,58.039],[158.657,58.271],[159.024,58.415],[159.154,58.507],[159.215,58.496],[159.182,58.518],[159.195,58.543],[159.399,58.676],[159.472,58.689],[159.586,58.803],[159.62,58.884],[159.692,58.918],[159.69,58.974],[159.805,59.097],[160.212,59.331],[160.336,59.361],[160.447,59.455],[160.497,59.551],[160.847,59.618],[160.978,59.716],[161.284,59.87],[161.339,59.946],[161.469,60.034],[161.734,60.128],[161.778,60.2],[161.876,60.251],[161.849,60.279],[161.931,60.307],[161.893,60.303],[161.94,60.417],[162.208,60.538],[162.403,60.561],[162.504,60.621],[162.626,60.611],[162.754,60.646],[162.916,60.76],[163.02,60.779],[163.099,60.755],[163.195,60.805],[163.324,60.805],[163.346,60.799],[163.295,60.728],[163.334,60.725],[163.441,60.882],[163.594,60.917],[163.522,60.943],[163.572,60.978],[163.487,61.002],[163.618,61.059],[163.627,61.122],[163.82,61.203],[163.831,61.233],[163.793,61.248],[163.897,61.277],[163.912,61.333],[163.963,61.362],[163.853,61.403],[163.76,61.365],[163.702,61.45],[163.922,61.715],[164.003,61.717],[163.994,61.855],[164.042,61.91],[164.031,62.103],[164.126,62.194],[164.129,62.262],[164.245,62.328],[164.418,62.353],[164.54,62.451],[164.74,62.46],[165.125,62.396],[165.067,62.436],[164.512,62.494],[164.745,62.51],[165.035,62.453],[164.753,62.509],[164.579,62.624],[164.442,62.64],[164.063,62.605],[163.918,62.535],[163.77,62.552],[163.316,62.483],[163.298,62.425],[163.34,62.411],[163.23,62.385],[163.367,62.33],[163.231,62.311],[163.241,62.285],[163.087,62.215],[163.15,62.113],[163.105,62.08],[163.193,62.067],[163.026,61.921],[163.059,61.901],[162.978,61.81],[163.075,61.76],[163.032,61.518],[162.907,61.582],[162.909,61.609],[162.86,61.603],[162.943,61.65],[162.839,61.708],[162.749,61.701],[162.76,61.595],[162.576,61.581],[162.426,61.623],[162.353,61.547],[161.536,61.187],[160.859,60.831],[160.788,60.72],[160.712,60.753],[160.12,60.564],[160.087,60.59],[160.1,60.68],[160.193,60.754],[160.128,60.805],[160.212,60.915],[160.318,60.981],[159.966,60.966],[159.885,60.941],[159.894,60.915],[159.798,60.931],[159.836,60.979],[159.799,61.017],[159.931,61.116],[159.869,61.205],[159.807,61.185],[159.819,61.234],[159.776,61.242],[160.08,61.537],[160.202,61.568],[160.215,61.714],[160.327,61.773],[160.305,61.888],[159.565,61.605],[159.482,61.641],[159.463,61.716],[159.323,61.779],[159.306,61.849],[159.03,61.866],[158.901,61.841],[158.865,61.778],[158.574,61.781],[158.456,61.751],[158.273,61.776],[158.204,61.729],[157.924,61.705],[157.479,61.734],[157.405,61.66],[157.098,61.633],[156.848,61.527],[156.736,61.527],[156.671,61.498],[156.632,61.424],[156.648,61.327],[156.62,61.275],[156.655,61.198],[156.547,61.209],[156.402,61.159],[156.412,61.119],[155.944,60.922],[155.973,60.905],[155.917,60.859],[155.914,60.704],[155.83,60.729],[155.703,60.656],[155.719,60.605],[155.591,60.578],[155.508,60.493],[155.324,60.466],[154.693,60.199],[154.51,60.025],[154.488,59.946],[154.499,60.029],[154.564,60.094],[154.407,60.036],[154.466,59.968],[154.472,59.88],[154.418,59.861],[154.433,59.896],[154.396,59.902],[154.221,59.87],[154.229,59.73],[154.342,59.601],[154.22,59.664],[154.193,59.581],[154.075,59.509],[154.138,59.457],[154.298,59.443],[154.357,59.525],[154.399,59.534],[154.38,59.47],[154.427,59.421],[154.516,59.41],[154.533,59.436],[154.451,59.469],[154.418,59.546],[154.554,59.513],[154.644,59.543],[154.783,59.471],[154.878,59.461],[154.961,59.495],[155.128,59.323],[155.175,59.231],[155.15,59.221],[155.194,59.176],[154.845,59.19],[154.887,59.139],[154.854,59.139],[154.834,59.094],[154.668,59.096],[154.45,59.166],[154.401,59.146],[154.405,59.092],[154.373,59.063],[154.045,59.003],[153.88,59.044],[153.782,59.126],[153.415,59.185],[153.361,59.046],[153.037,59.017],[152.94,58.986],[152.902,58.906],[152.782,58.922],[152.688,58.873],[152.54,58.902],[152.376,58.982],[151.894,58.823],[151.721,58.799],[151.463,58.814],[151.346,58.783],[151.192,58.942],[151.245,58.955],[151.236,58.998],[151.098,59.111],[151.217,59.092],[151.439,59.17],[151.767,59.134],[151.685,59.205],[152.05,59.198],[152.162,59.235],[151.973,59.215],[151.894,59.252],[151.715,59.261],[151.632,59.422],[151.497,59.463],[151.387,59.538],[151.329,59.506],[150.988,59.515],[150.982,59.437],[150.531,59.429],[150.465,59.457],[150.47,59.526],[150.419,59.57],[149.599,59.708],[149.415,59.691],[149.103,59.591],[149.081,59.56],[149.198,59.526],[149.209,59.471],[149.114,59.493],[148.971,59.453],[148.868,59.475],[148.844,59.517],[148.767,59.49],[148.731,59.455],[148.74,59.368],[148.814,59.364],[148.865,59.403],[148.861,59.354],[148.92,59.396],[148.989,59.374],[148.934,59.317],[148.955,59.251],[148.931,59.235],[148.841,59.277],[148.743,59.237],[148.708,59.262],[148.598,59.192],[148.417,59.217],[148.356,59.334],[148.22,59.359],[147.883,59.333],[147.876,59.259],[147.385,59.234],[147.262,59.283],[147.192,59.263],[147.045,59.313],[146.712,59.332],[146.647,59.385],[146.504,59.413],[146.369,59.376],[146.381,59.275],[146.054,59.251],[145.987,59.093],[145.945,59.104],[145.906,59.17],[145.786,59.21],[145.801,59.318],[145.661,59.373],[145.008,59.32],[143.899,59.369],[143.55,59.28],[143.404,59.274],[143.198,59.322],[143.023,59.276],[142.846,59.273],[142.358,59.141],[141.924,58.941],[141.591,58.728],[141.348,58.5],[140.587,58.239],[140.041,57.659],[138.867,57.125],[138.346,56.804],[137.229,55.983],[136.523,55.591],[135.269,55.029],[134.985,54.854],[134.894,54.72],[134.902,54.559],[134.965,54.505],[131.221,54.505],[131.199,54.604],[131.389,54.711],[131.534,54.718],[131.618,54.776],[131.766,54.792],[131.816,54.846],[131.979,54.888],[131.999,54.922],[131.969,54.989],[132.063,55.04],[132.387,55.059],[132.408,55.087],[132.353,55.152],[132.365,55.189],[132.629,55.208],[132.693,55.274],[132.662,55.33],[132.682,55.36],[132.762,55.341],[132.948,55.381],[132.757,55.427],[132.628,55.508],[132.667,55.563],[132.542,55.679],[132.401,55.708],[132.224,55.708],[132.123,55.65],[131.952,55.662],[131.804,55.62],[131.618,55.658],[131.568,55.618],[131.437,55.651],[131.34,55.622],[131.19,55.646],[131.106,55.621],[130.743,55.724],[130.6,55.728],[130.391,56.054],[129.207,56.867],[128.837,56.646],[128.171,56.72],[126.915,56.498],[126.543,56.498],[124.916,56.202],[124.546,56.276],[124.101,56.276],[123.828,56.403],[123.293,56.428],[123.047,56.497],[122.888,56.6],[122.8,56.581],[122.774,56.502],[122.594,56.494],[122.469,56.606],[122.285,56.655],[122.161,56.743],[121.604,56.75],[121.62,56.79],[121.532,56.858],[121.515,56.926],[121.408,56.98],[121.079,56.986],[121.021,57.036],[120.889,57.046],[120.285,57.005],[120.031,56.904],[119.897,56.894],[119.665,56.771],[119.785,56.695],[119.859,56.684],[119.805,56.595],[119.958,56.489],[120.267,56.452],[120.258,56.391],[120.401,56.35],[120.402,56.304],[120.535,56.274],[120.52,56.237],[120.235,56.204],[120.058,56.142],[120.051,56.075],[120.158,55.981],[120.136,55.9],[120.181,55.869],[120.281,55.913],[120.402,55.86],[120.888,56.005],[121.206,56.01],[121.272,55.941],[121.274,55.859],[121.345,55.806],[121.297,55.732],[121.36,55.503],[121.439,55.476],[121.549,55.499],[121.636,55.53],[121.69,55.593],[121.77,55.61],[121.885,55.597],[121.976,55.475],[121.934,55.214],[122.007,55.179],[121.928,55.123],[121.941,54.998],[121.667,54.83],[121.647,54.74],[121.695,54.719],[121.889,54.793],[121.919,54.712],[121.88,54.66],[121.93,54.619],[121.92,54.572],[122.123,54.464],[122.131,54.432],[121.904,54.375],[121.816,54.441],[121.71,54.419],[121.65,54.355],[121.745,54.275],[121.724,54.223],[121.746,54.152],[121.651,54.133],[121.629,54.082],[121.64,54.008],[121.799,53.96],[121.919,53.823],[121.921,53.721],[121.964,53.693],[121.942,53.604],[122.012,53.517],[122.019,53.436],[121.641,53.385],[121.513,53.33],[121.341,53.324],[121.204,53.277],[120.846,53.273],[120.278,52.865],[120.033,52.761],[120.052,52.694],[120.03,52.639],[120.079,52.59],[120.454,52.638],[120.718,52.543],[120.626,52.347],[120.756,52.239],[120.782,52.16],[120.775,52.116],[120.697,52.049],[120.71,51.991],[120.648,51.912],[120.493,51.876],[120.167,51.67],[120.1,51.66],[120.052,51.552],[119.977,51.487],[119.954,51.4],[119.895,51.384],[119.912,51.331],[119.82,51.275],[119.81,51.217],[119.762,51.215],[119.781,51.173],[119.742,51.074],[119.518,50.905],[119.495,50.736],[119.294,50.599],[119.244,50.446],[119.138,50.393],[119.175,50.356],[119.354,50.343],[119.344,50.142],[119.304,50.082],[119.189,50.007],[119.093,49.987],[118.644,49.955],[117.871,49.513],[117.758,49.513],[117.473,49.614],[117.254,49.622],[117.057,49.673],[116.721,49.803],[116.577,49.926],[116.219,50.019],[116.052,50.003],[115.717,49.883],[115.389,49.896],[115.211,49.977],[115.0,50.149],[114.756,50.241],[114.472,50.239],[114.286,50.282],[113.971,50.165],[113.849,50.086],[113.751,50.083],[113.456,49.962],[113.179,49.806],[113.083,49.69],[113.055,49.6],[112.777,49.506],[112.473,49.539],[112.03,49.417],[111.66,49.401],[111.476,49.348],[111.337,49.37],[110.841,49.167],[110.687,49.14],[110.372,49.247],[110.181,49.167],[109.729,49.271],[109.516,49.261],[109.453,49.311],[109.287,49.344],[108.541,49.332],[108.34,49.439],[108.239,49.537],[108.106,49.559],[108.019,49.607],[108.019,49.66],[107.937,49.675],[107.961,49.745],[107.949,49.938],[107.193,50.011],[107.062,50.077],[106.976,50.201],[106.657,50.332],[106.226,50.297],[106.06,50.339],[105.986,50.405],[105.328,50.481],[105.106,50.395],[104.901,50.395],[104.608,50.319],[104.404,50.305],[104.121,50.153],[103.785,50.191],[103.606,50.138],[103.439,50.198],[103.305,50.196],[103.204,50.302],[102.927,50.308],[102.62,50.404],[102.473,50.53],[102.308,50.567],[102.28,50.644],[102.334,50.721],[102.22,50.805],[102.235,50.98],[102.151,51.102],[102.141,51.238],[102.198,51.309],[102.077,51.379],[101.527,51.481],[101.353,51.455],[101.243,51.52],[101.118,51.533],[100.512,51.732],[99.921,51.754],[99.711,51.885],[99.325,51.939],[99.235,51.999],[98.999,52.062],[98.935,52.196],[98.82,52.197],[98.801,52.279],[98.714,52.298],[98.652,52.266],[98.682,52.37],[98.642,52.421],[98.718,52.454],[98.733,52.501],[98.809,52.51],[98.831,52.542],[98.805,52.602],[98.942,52.671],[98.942,52.8],[98.87,52.799],[98.861,52.844],[98.951,52.923],[99.224,52.859],[99.253,52.958],[98.993,53.043],[99.058,53.108],[98.938,53.154],[98.862,53.13],[98.687,53.16],[98.605,53.11],[98.317,53.105],[98.291,53.228],[98.032,53.258],[97.978,53.295],[97.959,53.363],[97.611,53.377],[97.589,53.442],[97.452,53.467],[97.336,53.599],[97.129,53.618],[96.874,53.734],[96.715,53.703],[96.652,53.559],[96.563,53.539],[96.443,53.519],[96.367,53.563],[96.375,53.604],[96.295,53.589],[96.301,53.616],[96.251,53.621],[96.184,53.521],[96.111,53.494],[96.093,53.456],[95.756,53.525],[95.395,53.377],[95.306,53.4],[95.293,53.449],[95.246,53.462],[95.051,53.382],[94.976,53.41],[94.739,53.388],[94.592,53.32],[94.588,53.288],[94.672,53.276],[94.693,53.239],[94.6,53.179],[94.597,53.047],[94.507,52.914],[94.304,52.909],[94.146,52.846],[94.133,52.763],[94.067,52.671],[93.98,52.637],[93.978,52.582],[93.761,52.443],[93.76,52.368],[93.683,52.298],[93.668,52.224],[93.358,52.134],[93.227,52.041],[93.131,52.017],[93.07,51.949],[92.899,51.9],[92.853,51.839],[92.672,51.845],[92.506,51.787],[92.209,51.811],[92.104,51.788],[91.948,51.809],[91.885,51.861],[91.628,51.872],[91.558,51.905],[91.238,51.888],[91.101,51.948],[90.851,51.914],[90.738,52.074],[90.563,52.125],[90.493,52.187],[90.35,52.197],[90.127,52.139],[90.114,52.047],[90.023,51.987],[90.097,51.756],[89.963,51.766],[89.684,51.573],[89.58,51.558],[89.42,51.61],[89.258,51.554],[89.221,51.573],[89.238,51.646],[89.206,51.663],[89.032,51.605],[88.734,51.564],[88.653,51.53],[88.693,51.397],[88.444,51.29],[88.317,51.349],[88.163,51.356],[88.144,51.433],[87.939,51.48],[87.873,51.553],[87.677,51.536],[87.733,51.389],[87.551,51.369],[87.521,51.247],[87.124,51.226],[87.205,51.043],[87.311,50.919],[87.358,50.917],[87.368,50.846],[87.421,50.806],[87.423,50.737],[87.493,50.646],[87.433,50.509],[87.338,50.443],[87.4,50.377],[87.106,50.334],[87.069,50.288],[87.105,50.241],[86.975,50.295],[86.779,50.203],[86.719,50.243],[86.664,50.199],[86.708,50.09],[86.616,50.022],[86.658,49.889],[86.618,49.886],[86.585,49.806],[86.767,49.786],[86.748,49.742],[86.769,49.703],[86.697,49.689],[86.593,49.607],[86.628,49.561],[86.815,49.544],[86.844,49.504],[86.829,49.449],[86.931,49.41],[86.922,49.347],[86.99,49.285],[85.844,48.414],[85.747,48.39],[85.603,48.232],[85.383,48.148],[83.13,48.282],[84.267,49.205],[81.479,50.291],[78.65,50.807],[74.921,54.149],[72.991,55.307],[64.687,54.272],[64.456,53.58],[63.039,51.178],[62.258,51.065],[62.154,51.115],[62.033,51.072],[61.963,51.133],[61.929,51.242],[61.876,51.3],[61.645,51.268],[61.53,51.209],[61.4,50.806],[60.819,50.668],[60.301,50.69],[60.179,50.747],[60.139,50.849],[60.02,50.859],[59.958,50.833],[59.91,50.748],[59.908,50.674],[59.811,50.566],[59.521,50.481],[59.457,50.533],[59.562,50.549],[59.568,50.582],[59.44,50.636],[59.276,50.621],[59.199,50.668],[58.926,50.683],[58.813,50.731],[58.75,50.8],[58.663,50.797],[58.645,50.867],[58.555,50.896],[58.607,50.98],[58.599,51.027],[58.522,51.067],[58.385,51.074],[58.308,51.155],[58.221,51.127],[58.164,51.06],[58.078,51.103],[57.961,51.083],[57.767,51.124],[57.73,51.075],[57.718,50.913],[57.555,50.924],[57.467,50.864],[57.337,50.902],[57.292,50.985],[57.202,51.022],[57.156,51.105],[56.866,51.057],[56.715,51.077],[56.676,51.051],[56.686,50.974],[56.601,50.988],[56.477,51.078],[56.417,51.036],[56.424,50.976],[56.347,50.952],[56.314,50.89],[56.155,50.909],[56.073,50.727],[55.662,50.536],[55.47,50.662],[55.308,50.669],[55.089,50.799],[55.05,50.889],[54.896,50.917],[54.814,50.977],[54.637,51.033],[54.531,51.007],[54.537,50.954],[54.498,50.928],[54.635,50.88],[54.634,50.706],[54.671,50.606],[54.591,50.547],[54.499,50.529],[54.386,50.618],[54.426,50.765],[54.49,50.823],[54.482,50.857],[54.278,50.91],[54.154,50.992],[54.115,51.1],[54.022,51.123],[53.938,51.19],[53.674,51.226],[53.598,51.295],[53.614,51.392],[53.409,51.489],[53.165,51.52],[53.14,51.492],[53.036,51.495],[52.943,51.459],[52.78,51.513],[52.673,51.464],[52.545,51.465],[52.482,51.509],[52.308,51.779],[52.257,51.729],[52.146,51.721],[52.088,51.663],[51.867,51.678],[51.76,51.596],[51.776,51.497],[51.694,51.459],[51.649,51.458],[51.585,51.54],[51.461,51.48],[51.31,51.476],[51.249,51.534],[51.376,51.567],[51.375,51.634],[51.234,51.69],[50.926,51.685],[50.842,51.75],[50.766,51.764],[50.742,51.708],[50.784,51.599],[50.677,51.572],[50.697,51.615],[50.579,51.639],[50.57,51.592],[50.521,51.567],[50.521,51.471],[50.356,51.417],[50.323,51.308],[49.985,51.235],[49.776,51.107],[49.435,51.117],[49.343,50.965],[49.417,50.883],[49.367,50.831],[49.142,50.786],[48.83,50.601],[48.565,50.64],[48.57,50.613],[48.668,50.577],[48.696,50.334],[48.783,50.175],[48.778,50.11],[48.852,50.091],[48.88,50.023],[48.78,49.937],[48.43,49.816],[48.242,49.871],[47.997,50.186],[47.601,50.457],[47.51,50.442],[47.431,50.383],[47.245,50.376],[47.208,50.513],[46.922,50.496],[46.92,50.527],[46.877,50.532],[46.874,50.581],[46.816,50.586],[46.861,50.645],[46.774,50.649],[46.719,50.716],[46.628,50.686],[46.581,50.716],[46.561,50.629],[46.538,50.649],[46.459,50.625],[46.444,50.553],[46.277,50.578],[46.269,50.533],[46.078,50.531],[46.096,50.669],[45.894,50.755],[45.72,50.75],[45.674,50.668],[45.701,50.58],[45.741,50.586],[45.888,50.439],[45.876,50.345],[45.737,50.311],[45.416,50.033],[45.341,49.893],[45.336,49.797],[45.029,49.395],[44.917,49.079],[44.664,48.872],[44.65,48.817],[44.54,48.717],[44.512,48.621],[44.616,48.61],[44.641,48.584],[44.605,48.56],[44.675,48.52],[44.673,48.465],[44.632,48.46],[44.411,48.518],[44.344,48.621],[44.295,48.606],[44.283,48.49],[44.207,48.5],[44.173,48.537],[44.228,48.581],[44.162,48.579],[44.119,48.632],[43.942,48.684],[43.949,48.728],[43.882,48.764],[43.896,48.791],[43.786,48.893],[43.795,48.929],[43.719,48.951],[43.752,48.967],[43.744,48.995],[43.62,49.021],[43.631,49.089],[43.405,49.181],[43.396,49.306],[43.55,49.466],[43.617,49.475],[43.636,49.53],[43.779,49.524],[43.789,49.574],[43.894,49.572],[43.886,49.628],[43.965,49.598],[44.006,49.651],[44.096,49.645],[44.164,49.712],[44.153,49.77],[44.269,49.817],[44.15,49.909],[44.262,50.009],[44.197,50.07],[44.206,50.101],[44.002,50.13],[44.008,50.188],[43.938,50.228],[43.833,50.215],[43.846,50.183],[43.806,50.149],[43.692,50.159],[43.694,50.084],[43.589,50.048],[43.533,49.903],[43.44,49.908],[43.369,49.832],[43.275,49.832],[43.177,49.891],[42.986,49.854],[42.906,49.911],[42.896,49.989],[42.668,50.105],[42.743,50.167],[42.71,50.186],[42.717,50.23],[42.763,50.222],[42.787,50.261],[42.865,50.249],[42.935,50.343],[43.025,50.283],[43.203,50.358],[43.298,50.302],[43.336,50.352],[43.453,50.377],[43.421,50.396],[43.417,50.449],[43.376,50.441],[43.328,50.498],[43.235,50.524],[43.024,50.505],[43.02,50.536],[42.961,50.558],[42.952,50.643],[42.827,50.693],[42.903,50.731],[42.905,50.764],[42.843,50.813],[42.888,50.844],[42.875,50.883],[42.981,50.955],[43.126,50.974],[43.167,51.108],[42.856,51.25],[42.686,51.246],[42.553,51.15],[42.174,51.141],[41.943,51.202],[41.854,51.162],[41.758,51.017],[41.471,50.956],[41.424,50.918],[41.413,50.843],[41.165,50.779],[41.343,50.708],[41.445,50.602],[41.527,50.584],[41.416,50.499],[41.514,50.361],[41.383,50.212],[41.349,50.219],[41.284,50.165],[41.369,50.124],[41.377,50.085],[41.08,49.949],[41.037,49.807],[40.919,49.706],[40.635,49.678],[40.537,49.583],[40.158,49.647],[40.13,49.617],[40.153,49.57],[40.036,49.525],[40.025,49.453],[40.189,49.343],[40.182,49.28],[40.209,49.253],[40.028,49.184],[39.929,49.063],[39.668,49.043],[39.661,48.997],[39.746,48.977],[39.825,48.882],[39.994,48.863],[40.042,48.909],[40.069,48.874],[39.974,48.8],[39.797,48.847],[39.656,48.611],[39.686,48.582],[39.845,48.565],[39.841,48.473],[39.931,48.36],[39.844,48.337],[39.836,48.307],[39.916,48.265],[39.986,48.309],[40.012,48.26],[39.998,48.229],[39.94,48.233],[39.863,48.084],[39.829,48.069],[39.84,48.045],[39.761,48.035],[39.259,48.437],[37.885,49.186],[37.383,48.811],[36.792,48.59],[36.74,48.631],[36.596,48.608],[36.481,48.668],[36.416,48.638],[36.359,48.544],[36.287,48.542],[36.324,48.587],[36.266,48.62],[36.285,48.664],[36.156,48.724],[36.163,48.787],[36.035,48.854],[36.048,48.918],[35.937,49.004],[35.807,48.945],[35.801,48.881],[35.633,48.886],[35.672,48.741],[35.521,48.602],[35.543,48.543],[35.329,48.513],[35.36,48.458],[35.319,48.433],[35.302,48.496],[35.169,48.586],[35.187,48.644],[35.221,48.655],[35.17,48.667],[35.165,48.736],[35.068,48.76],[35.004,48.701],[34.947,48.75],[34.96,48.797],[34.927,48.792],[34.892,48.839],[34.839,48.827],[34.797,48.765],[34.741,48.866],[34.793,48.915],[34.676,49.101],[34.624,49.128],[34.556,49.061],[34.398,49.097],[34.406,49.059],[34.321,49.0],[34.341,48.98],[34.295,48.895],[34.333,48.856],[34.293,48.823],[34.3,48.743],[34.141,48.783],[34.122,48.827],[33.895,48.907],[33.841,48.777],[33.716,48.819],[33.58,48.801],[33.616,48.723],[33.798,48.671],[33.667,48.593],[33.607,48.604],[33.61,48.569],[33.478,48.561],[33.482,48.402],[33.455,48.356],[33.51,48.322],[33.538,48.239],[33.421,48.174],[33.289,48.154],[33.29,48.108],[33.275,48.157],[33.212,48.175],[33.225,48.132],[33.177,48.118],[33.181,48.093],[33.013,48.011],[32.989,48.053],[32.868,48.036],[32.871,47.995],[32.687,47.987],[32.682,47.932],[32.647,47.923],[32.668,47.852],[32.64,47.823],[32.435,47.795],[32.234,47.825],[32.14,47.758],[32.056,47.822],[31.866,47.801],[31.861,47.856],[31.896,47.866],[31.881,47.922],[31.846,47.968],[31.748,47.981],[31.739,48.026],[31.788,48.041],[31.769,48.107],[31.702,48.099],[31.616,48.138],[31.538,48.112],[31.519,48.074],[31.488,48.134],[31.252,48.126],[31.139,48.234],[30.98,48.227],[30.974,48.191],[30.883,48.172],[30.863,48.298],[30.902,48.349],[30.851,48.384],[30.845,48.442],[30.751,48.494],[30.841,48.74],[31.025,48.755],[31.114,48.723],[31.245,48.755],[31.382,48.723],[31.531,48.8],[31.604,48.889],[31.807,48.938],[31.921,48.881],[32.494,49.001],[32.522,48.939],[32.648,48.954],[32.688,48.987],[32.792,48.971],[32.848,49.004],[32.813,49.061],[32.879,49.087],[33.077,49.096],[33.229,49.064],[33.037,49.206],[32.576,49.272],[32.027,49.495],[31.936,49.56],[31.809,49.583],[31.78,49.635],[31.633,49.654],[31.515,49.743],[31.514,49.846],[31.432,49.915],[31.439,49.997],[31.342,50.0],[31.252,49.945],[31.12,49.984],[30.488,50.051],[30.461,50.21],[30.39,50.262],[30.478,50.335],[30.472,50.364],[30.334,50.38],[30.218,50.343],[30.394,50.714],[30.459,50.759],[30.547,51.257],[30.619,51.282],[30.614,51.321],[30.661,51.343],[30.626,51.432],[30.589,51.44],[30.628,51.467],[30.577,51.511],[30.589,51.549],[30.548,51.549],[30.534,51.595],[30.586,51.647],[30.573,51.7],[30.63,51.71],[30.708,51.86],[30.941,51.994],[30.952,52.071],[31.132,52.077],[31.253,52.039],[31.406,52.137],[31.77,52.106],[31.767,52.153],[31.688,52.206],[31.703,52.255],[31.581,52.308],[31.614,52.355],[31.593,52.484],[31.562,52.508],[31.579,52.543],[31.396,52.889],[31.263,53.014],[31.368,53.086],[31.383,53.177],[31.614,53.205],[31.751,53.183],[31.806,53.105],[32.118,53.076],[32.427,53.2],[32.484,53.273],[32.463,53.295],[32.72,53.331],[32.723,53.443],[32.431,53.567],[32.405,53.629],[32.492,53.666],[32.463,53.712],[32.083,53.815],[31.874,53.782],[31.757,53.8],[31.843,53.961],[31.826,54.057],[31.329,54.233],[31.213,54.452],[31.076,54.497],[31.172,54.625],[30.773,54.792],[30.775,54.829],[30.831,54.876],[30.825,54.927],[30.94,54.97],[30.916,55.017],[31.011,55.022],[30.964,55.166],[30.802,55.288],[30.923,55.386],[30.888,55.454],[30.925,55.534],[30.889,55.605],[30.746,55.599],[30.696,55.657],[30.598,55.671],[30.591,55.722],[30.481,55.76],[30.471,55.798],[30.201,55.863],[30.106,55.827],[29.907,55.848],[29.8,55.774],[29.682,55.775],[29.482,55.686],[29.355,55.769],[29.389,55.877],[29.449,55.906],[29.379,55.959],[29.031,56.029],[28.808,55.94],[28.712,55.963],[28.613,56.093],[28.389,56.094],[28.31,56.049],[28.174,56.128],[28.222,56.272],[28.169,56.441],[28.1,56.503],[28.129,56.551],[28.014,56.592],[27.985,56.69],[27.876,56.739],[27.916,56.825],[27.818,56.871],[27.642,56.85],[27.748,57.036],[27.747,57.072],[27.693,57.104],[27.774,57.137],[27.742,57.183],[27.773,57.211],[27.782,57.323],[27.695,57.356],[27.553,57.259],[27.354,57.32],[27.205,57.323],[27.209,57.236],[26.861,57.018],[26.86,56.983],[26.962,56.911],[26.972,56.86],[26.802,56.726],[26.535,56.773],[26.294,56.591],[26.131,56.654],[26.038,56.627],[25.983,56.666],[25.932,56.641],[25.936,56.682],[25.833,56.716],[25.843,56.789],[25.766,56.828],[25.694,56.771],[25.505,56.813],[25.268,56.745],[25.294,56.718],[25.276,56.697],[25.029,56.727],[25.05,56.702],[25.017,56.682],[25.015,56.61],[24.912,56.642],[24.863,56.705],[24.448,56.847],[24.328,56.845],[24.135,56.774],[23.913,56.783],[23.771,56.81],[23.64,56.895],[23.55,56.896],[23.405,57.043],[23.632,56.971],[23.866,56.99],[24.211,57.124],[24.401,57.258],[24.359,57.552],[24.375,57.614],[24.299,57.746],[24.286,57.832],[24.398,58.022],[24.464,58.072],[24.472,58.25],[24.56,58.312],[24.529,58.351],[24.362,58.397],[24.316,58.38],[24.243,58.281],[24.156,58.277],[24.11,58.242],[23.98,58.318],[23.834,58.354],[23.745,58.342],[23.678,58.433],[23.679,58.524],[23.583,58.546],[23.561,58.583],[23.502,58.563],[23.497,58.693],[23.547,58.71],[23.537,58.746],[23.803,58.731],[23.787,58.777],[23.874,58.772],[23.784,58.801],[23.429,58.765],[23.526,58.82],[23.425,58.931],[23.585,58.954],[23.628,58.991],[23.606,59.033],[23.56,59.053],[23.605,59.014]]],[[[53.721,73.73],[53.723,73.783],[53.869,73.779],[54.252,73.916],[54.576,73.95],[54.723,74.003],[54.589,74.019],[54.676,74.067],[55.018,74.173],[55.183,74.187],[55.394,74.141],[55.864,74.106],[55.857,74.129],[55.637,74.162],[55.623,74.19],[55.099,74.264],[55.227,74.307],[55.286,74.274],[55.655,74.304],[55.683,74.273],[55.735,74.28],[55.732,74.305],[55.637,74.334],[55.233,74.376],[55.387,74.445],[55.673,74.459],[55.775,74.538],[55.657,74.52],[55.706,74.55],[55.5,74.567],[55.561,74.614],[55.532,74.655],[55.755,74.692],[55.896,74.661],[56.387,74.721],[56.556,74.684],[56.652,74.693],[56.44,74.754],[56.488,74.788],[56.464,74.799],[55.937,74.781],[55.818,74.808],[55.884,74.846],[56.358,74.903],[56.449,74.956],[56.366,74.94],[56.384,74.965],[56.295,74.965],[56.466,75.013],[56.421,75.037],[56.039,75.0],[56.083,75.074],[56.186,75.15],[56.37,75.188],[56.454,75.117],[56.446,75.067],[56.531,75.078],[56.907,75.24],[56.892,75.28],[56.733,75.297],[56.756,75.317],[57.045,75.398],[57.741,75.328],[57.641,75.439],[57.547,75.451],[57.501,75.499],[58.142,75.574],[58.196,75.603],[58.147,75.629],[57.926,75.629],[58.018,75.681],[58.604,75.733],[58.536,75.76],[58.929,75.868],[59.334,75.892],[59.398,75.937],[59.749,75.931],[60.048,75.993],[60.348,76.006],[60.043,76.054],[60.268,76.11],[60.81,76.121],[60.469,76.013],[60.735,76.005],[60.819,76.06],[61.086,76.085],[61.146,76.116],[61.119,76.151],[60.9,76.157],[61.076,76.28],[61.56,76.284],[61.676,76.315],[62.094,76.253],[62.384,76.271],[62.406,76.255],[62.373,76.222],[62.388,76.198],[62.504,76.179],[62.554,76.219],[62.651,76.21],[62.652,76.233],[62.781,76.271],[62.956,76.207],[63.694,76.347],[64.105,76.344],[64.656,76.406],[64.806,76.451],[64.786,76.472],[64.825,76.484],[65.032,76.501],[65.136,76.469],[65.484,76.575],[65.966,76.537],[66.003,76.564],[65.753,76.683],[65.891,76.74],[66.108,76.753],[66.656,76.901],[67.478,77.004],[68.462,76.967],[68.513,76.952],[68.488,76.926],[68.809,76.869],[68.759,76.827],[68.931,76.787],[68.894,76.748],[68.931,76.719],[69.034,76.712],[68.904,76.682],[68.935,76.608],[68.892,76.58],[68.919,76.563],[68.57,76.394],[68.272,76.305],[68.308,76.296],[68.287,76.281],[67.72,76.174],[66.548,75.98],[63.642,75.642],[62.661,75.499],[61.684,75.339],[61.643,75.28],[61.48,75.223],[61.403,75.238],[61.383,75.305],[61.295,75.295],[61.108,75.198],[60.813,75.146],[60.75,75.108],[60.799,75.082],[60.726,75.028],[60.59,75.035],[60.57,75.061],[60.612,75.101],[60.507,75.114],[60.441,75.067],[60.468,75.032],[60.403,75.009],[60.621,74.968],[60.688,74.924],[60.35,74.806],[60.372,74.794],[60.328,74.766],[59.874,74.666],[59.871,74.628],[59.71,74.582],[59.361,74.672],[59.234,74.677],[59.266,74.644],[59.103,74.658],[59.084,74.649],[59.221,74.615],[59.091,74.495],[59.146,74.444],[58.863,74.457],[58.611,74.519],[58.829,74.413],[58.673,74.46],[58.675,74.39],[58.772,74.322],[58.719,74.282],[58.741,74.273],[58.68,74.252],[58.728,74.239],[58.604,74.239],[58.659,74.217],[58.547,74.217],[58.521,74.208],[58.591,74.184],[58.367,74.151],[58.522,74.149],[58.483,74.132],[58.385,74.14],[58.323,74.088],[58.282,74.119],[58.098,74.06],[58.198,74.045],[58.207,74.007],[58.107,73.986],[57.753,74.047],[57.594,74.149],[57.522,74.112],[57.536,74.094],[57.441,74.07],[57.547,74.061],[57.879,73.934],[57.912,73.916],[57.81,73.895],[57.902,73.875],[57.946,73.807],[57.73,73.725],[57.594,73.643],[57.602,73.623],[57.367,73.507],[57.301,73.508],[57.299,73.474],[56.91,73.315],[56.749,73.362],[56.746,73.334],[56.795,73.321],[56.723,73.282],[56.745,73.248],[56.12,73.29],[56.048,73.328],[56.016,73.412],[55.918,73.448],[55.871,73.436],[55.985,73.384],[55.976,73.33],[55.926,73.312],[55.772,73.348],[55.434,73.332],[55.021,73.444],[54.568,73.409],[54.251,73.328],[54.033,73.375],[54.293,73.418],[54.417,73.478],[54.185,73.491],[54.386,73.562],[54.269,73.617],[53.95,73.631],[53.721,73.73]]],[[[51.608,72.09],[51.842,72.158],[52.053,72.108],[52.067,72.074],[52.188,72.129],[52.211,72.128],[52.2,72.083],[52.409,72.086],[52.373,72.165],[52.49,72.164],[52.402,72.223],[52.484,72.21],[52.465,72.231],[52.491,72.244],[52.416,72.287],[52.587,72.264],[52.567,72.278],[52.684,72.322],[52.581,72.374],[52.723,72.345],[52.868,72.347],[52.69,72.367],[52.683,72.445],[52.82,72.45],[52.68,72.479],[52.731,72.511],[52.869,72.519],[52.93,72.559],[52.91,72.573],[53.102,72.601],[52.724,72.559],[52.812,72.614],[52.738,72.621],[52.754,72.638],[52.91,72.666],[52.574,72.671],[52.375,72.73],[52.616,72.863],[53.093,72.914],[53.16,72.954],[53.144,73.011],[53.298,73.034],[53.122,73.101],[53.161,73.112],[53.172,73.163],[53.322,73.221],[53.533,73.23],[53.753,73.299],[54.191,73.272],[54.535,73.377],[54.869,73.424],[55.304,73.339],[55.49,73.321],[55.759,73.328],[56.434,73.23],[56.581,73.134],[56.488,73.117],[56.466,73.052],[56.356,72.954],[56.304,72.949],[56.272,72.858],[56.138,72.783],[55.822,72.754],[55.946,72.669],[55.668,72.674],[55.723,72.638],[55.623,72.62],[55.685,72.573],[55.556,72.542],[55.518,72.47],[55.495,72.315],[55.519,72.239],[55.573,72.197],[55.52,72.166],[55.519,72.116],[55.486,72.096],[55.5,72.041],[55.424,71.985],[55.435,71.965],[55.547,71.929],[55.576,71.803],[55.708,71.647],[56.151,71.271],[56.323,71.166],[57.141,70.855],[57.311,70.81],[57.464,70.818],[57.544,70.765],[57.544,70.736],[57.433,70.744],[57.539,70.705],[57.398,70.626],[57.452,70.606],[56.741,70.703],[56.853,70.648],[57.153,70.638],[57.312,70.567],[56.597,70.675],[56.699,70.634],[56.65,70.63],[56.526,70.665],[56.509,70.716],[56.23,70.725],[56.322,70.703],[56.199,70.709],[56.302,70.681],[56.22,70.668],[56.238,70.653],[56.362,70.647],[56.384,70.661],[56.329,70.681],[56.434,70.676],[56.528,70.641],[56.453,70.626],[56.654,70.584],[56.505,70.549],[56.466,70.579],[56.562,70.579],[56.353,70.598],[56.09,70.669],[56.041,70.648],[56.175,70.612],[56.131,70.596],[55.809,70.695],[55.851,70.651],[56.048,70.585],[55.885,70.586],[55.85,70.606],[55.75,70.609],[55.625,70.634],[55.603,70.648],[55.699,70.621],[55.726,70.626],[55.699,70.647],[55.8,70.644],[55.738,70.708],[55.679,70.707],[55.712,70.677],[55.638,70.693],[55.429,70.619],[55.338,70.633],[55.338,70.586],[55.077,70.533],[54.901,70.593],[54.694,70.744],[54.522,70.759],[54.479,70.736],[54.767,70.648],[54.57,70.675],[54.376,70.747],[54.031,70.72],[53.734,70.764],[53.726,70.799],[53.568,70.853],[53.536,70.844],[53.54,70.807],[53.425,70.842],[53.425,70.871],[53.574,70.889],[53.691,70.834],[53.674,70.892],[53.738,70.948],[53.673,71.005],[53.497,71.07],[53.504,71.093],[53.697,71.098],[53.904,71.055],[53.937,71.06],[53.807,71.134],[54.009,71.14],[54.068,71.12],[53.939,71.13],[53.936,71.101],[54.244,71.123],[53.992,71.161],[54.095,71.189],[54.057,71.209],[54.164,71.21],[54.065,71.237],[53.94,71.176],[53.801,71.21],[53.832,71.173],[53.798,71.155],[53.513,71.223],[53.451,71.264],[53.595,71.302],[53.675,71.388],[53.576,71.391],[53.538,71.316],[53.413,71.312],[53.252,71.456],[53.331,71.486],[53.234,71.514],[53.116,71.423],[53.057,71.498],[53.013,71.494],[53.039,71.445],[52.972,71.442],[52.966,71.407],[52.901,71.393],[52.821,71.47],[52.798,71.465],[52.82,71.429],[52.742,71.441],[52.718,71.49],[52.617,71.467],[52.644,71.546],[52.551,71.59],[52.375,71.514],[52.395,71.482],[52.309,71.502],[52.248,71.49],[52.279,71.477],[51.842,71.456],[51.536,71.566],[51.55,71.614],[51.406,71.783],[51.401,71.868],[51.441,71.944],[51.608,72.09]]],[[[46.648,43.794],[46.68,43.818],[46.591,43.877],[46.463,43.886],[46.469,43.958],[46.441,44.008],[46.319,44.015],[46.328,43.973],[46.243,43.946],[46.215,43.866],[46.094,43.865],[46.058,43.826],[46.024,43.874],[46.063,43.882],[46.074,43.935],[45.832,43.983],[45.724,43.958],[45.492,44.018],[45.503,44.176],[45.11,44.193],[45.144,44.25],[45.375,44.286],[45.433,44.424],[45.388,44.455],[45.225,44.493],[44.753,44.44],[43.883,44.813],[43.454,45.994],[43.875,45.941],[44.075,45.793],[44.138,45.656],[44.205,45.606],[44.42,45.522],[44.736,45.492],[45.58,45.156],[45.706,45.013],[45.704,44.971],[46.001,44.981],[46.434,44.931],[46.751,44.814],[46.791,44.76],[46.881,44.78],[46.888,44.747],[46.964,44.761],[47.007,44.815],[47.001,44.915],[47.049,44.8],[46.949,44.734],[46.991,44.725],[46.937,44.722],[46.763,44.607],[46.748,44.467],[46.934,44.431],[46.944,44.398],[47.032,44.362],[47.112,44.217],[47.155,44.206],[47.208,44.242],[47.238,44.221],[47.431,43.873],[47.484,43.86],[47.466,43.829],[47.528,43.819],[47.44,43.718],[47.462,43.691],[47.413,43.63],[47.271,43.816],[46.918,43.82],[46.871,43.769],[46.777,43.78],[46.572,43.736],[46.648,43.794]]],[[[47.553,45.82],[47.618,45.942],[47.535,45.981],[47.535,46.019],[47.338,46.014],[47.24,46.088],[47.579,46.157],[47.616,46.175],[47.578,46.209],[47.689,46.205],[47.717,46.246],[47.881,46.249],[47.969,46.315],[47.979,46.365],[48.07,46.387],[48.056,46.458],[48.014,46.48],[48.049,46.508],[48.1,46.464],[48.222,46.465],[48.278,46.408],[48.289,46.475],[48.333,46.434],[48.405,46.488],[48.524,46.442],[48.543,46.492],[48.621,46.445],[48.736,46.481],[48.896,46.477],[49.227,46.323],[49.22,46.383],[49.174,46.407],[49.295,46.393],[49.243,46.465],[49.356,46.389],[49.264,46.294],[49.299,46.253],[49.243,46.269],[49.159,46.239],[49.112,46.156],[48.936,46.089],[48.833,46.083],[48.832,46.01],[48.778,46.011],[48.806,45.908],[48.757,45.894],[48.791,45.841],[48.721,45.838],[48.716,45.814],[48.687,45.849],[48.71,45.882],[48.598,45.953],[48.305,45.77],[48.223,45.753],[48.243,45.71],[48.161,45.742],[47.845,45.686],[47.816,45.612],[47.765,45.682],[47.619,45.745],[47.606,45.81],[47.553,45.82]]],[[[22.2,57.992],[22.017,57.915],[21.965,57.981],[22.085,58.081],[22.148,58.08],[22.203,58.148],[22.07,58.177],[21.994,58.245],[21.868,58.265],[21.849,58.304],[21.908,58.299],[21.883,58.344],[21.945,58.319],[21.966,58.353],[22.011,58.354],[21.832,58.511],[21.995,58.513],[22.09,58.422],[22.104,58.487],[22.194,58.544],[22.273,58.502],[22.322,58.584],[22.581,58.634],[22.648,58.587],[22.812,58.622],[22.99,58.602],[23.331,58.458],[23.261,58.466],[23.238,58.456],[23.278,58.437],[23.235,58.44],[23.157,58.478],[23.041,58.371],[22.955,58.381],[22.969,58.36],[22.905,58.313],[22.721,58.27],[22.757,58.242],[22.671,58.222],[22.535,58.254],[22.503,58.224],[22.477,58.245],[22.323,58.207],[22.272,58.174],[22.2,57.992]]],[[[46.106,43.854],[46.201,43.843],[46.253,43.877],[46.258,43.939],[46.363,43.94],[46.352,43.99],[46.416,43.995],[46.455,43.934],[46.445,43.873],[46.583,43.866],[46.648,43.794],[46.548,43.759],[46.448,43.657],[46.41,43.596],[46.428,43.54],[46.377,43.479],[46.233,43.426],[46.104,43.46],[45.982,43.427],[45.807,43.516],[45.767,43.608],[45.816,43.69],[45.835,43.838],[45.778,43.844],[45.738,43.947],[45.856,43.966],[46.039,43.929],[45.999,43.88],[46.041,43.816],[46.081,43.812],[46.106,43.854]]],[[[155.767,50.484],[155.885,50.7],[156.04,50.783],[156.113,50.772],[156.134,50.643],[156.169,50.601],[156.16,50.516],[155.894,50.248],[155.776,50.177],[155.507,50.129],[155.398,49.987],[155.355,49.996],[155.371,50.038],[155.223,50.048],[155.221,50.226],[155.178,50.259],[155.196,50.301],[155.439,50.38],[155.685,50.412],[155.767,50.484]]],[[[22.463,58.971],[22.588,59.086],[22.668,59.085],[22.708,59.07],[22.692,59.041],[22.737,59.005],[22.934,58.983],[23.039,58.856],[23.031,58.83],[22.879,58.833],[22.885,58.792],[22.847,58.777],[22.784,58.788],[22.819,58.83],[22.777,58.824],[22.608,58.69],[22.463,58.716],[22.497,58.738],[22.44,58.841],[22.382,58.882],[22.194,58.888],[22.049,58.943],[22.463,58.971]]],[[[156.206,50.672],[156.166,50.715],[156.181,50.761],[156.434,50.876],[156.483,50.857],[156.51,50.767],[156.399,50.63],[156.274,50.634],[156.206,50.672]]],[[[35.798,64.977],[35.751,64.955],[35.687,65.022],[35.709,65.025],[35.584,65.042],[35.502,65.105],[35.527,65.145],[35.65,65.154],[35.686,65.171],[35.823,65.149],[35.875,65.02],[35.853,64.996],[35.879,64.991],[35.847,64.993],[35.843,64.986],[35.798,64.977]]],[[[23.222,58.536],[23.064,58.623],[23.121,58.628],[23.176,58.681],[23.285,58.667],[23.342,58.645],[23.395,58.556],[23.222,58.536]]],[[[155.477,50.922],[155.627,50.913],[155.673,50.869],[155.665,50.811],[155.525,50.813],[155.449,50.884],[155.477,50.922]]],[[[139.875,72.178],[139.941,72.167],[139.885,72.097],[139.711,72.026],[139.718,72.084],[139.875,72.178]]],[[[23.392,58.997],[23.162,58.969],[23.117,59.019],[23.344,59.039],[23.392,58.997]]],[[[35.957,65.181],[35.957,65.17],[36.272,65.156],[36.077,65.125],[35.93,65.153],[35.934,65.18],[35.989,65.193],[35.957,65.181]]],[[[28.541,60.347],[28.606,60.339],[28.711,60.286],[28.692,60.262],[28.624,60.27],[28.552,60.303],[28.541,60.347]]],[[[36.024,65.039],[35.913,65.015],[35.88,65.042],[35.979,65.057],[36.024,65.039]]],[[[28.616,60.64],[28.631,60.599],[28.574,60.582],[28.577,60.643],[28.616,60.64]]],[[[131.827,71.182],[131.854,71.21],[131.942,71.226],[131.87,71.175],[131.827,71.182]]],[[[24.001,58.108],[23.944,58.115],[23.956,58.151],[24.011,58.153],[24.001,58.108]]],[[[27.007,60.058],[27.023,60.024],[26.983,60.021],[26.95,60.098],[27.007,60.058]]],[[[123.45,73.162],[123.428,73.139],[123.452,73.115],[123.404,73.115],[123.38,73.15],[123.45,73.162]]],[[[28.435,60.361],[28.484,60.362],[28.523,60.332],[28.504,60.311],[28.435,60.361]]],[[[27.887,59.998],[27.809,59.988],[27.82,60.028],[27.883,60.007],[27.887,59.998]]]]}}]}