{"type":"FeatureCollection","features":[{"type":"Feature","properties":{"lite":true,"src":"data/years/1762-08-06.geojson"},"geometry":{"type":"MultiPolygon","coordinates":[[[[27.229,60.532],[27.197,60.515],[27.228,60.55],[27.192,60.586],[27.162,60.518],[27.008,60.555],[26.919,60.466],[26.849,60.535],[26.75,60.633],[26.752,60.675],[26.842,60.651],[26.768,60.794],[26.603,60.86],[26.617,60.901],[26.688,60.908],[26.605,60.932],[26.527,61.019],[26.827,61.125],[27.179,61.143],[27.342,61.186],[27.45,61.261],[27.651,61.264],[27.747,61.339],[27.938,61.367],[28.291,61.598],[28.542,61.628],[28.516,61.737],[28.597,61.767],[28.594,61.805],[28.42,61.877],[28.395,61.92],[28.565,61.95],[28.674,61.927],[28.674,61.951],[28.739,61.971],[28.658,61.978],[28.681,62.013],[28.646,62.018],[28.593,62.102],[28.419,62.119],[28.391,62.191],[28.504,62.202],[28.616,62.141],[28.75,62.127],[28.83,62.066],[28.726,62.054],[28.789,62.02],[29.082,62.007],[29.093,62.056],[29.132,62.064],[29.126,62.098],[29.083,62.101],[29.096,62.126],[29.016,62.156],[29.02,62.183],[28.904,62.222],[28.944,62.29],[28.973,62.289],[28.956,62.307],[29.169,62.332],[29.165,62.4],[29.232,62.418],[29.295,62.388],[29.308,62.334],[29.426,62.237],[29.407,62.202],[29.482,62.057],[29.655,61.979],[29.615,61.913],[29.686,61.87],[29.665,61.855],[29.691,61.829],[29.548,61.69],[29.404,61.654],[29.261,61.558],[29.194,61.556],[29.396,61.398],[29.322,61.348],[29.243,61.278],[29.278,61.305],[29.36,61.287],[29.576,61.171],[29.871,61.176],[32.703,60.646],[32.886,60.699],[32.813,60.755],[32.765,60.886],[32.593,60.999],[32.527,61.118],[31.9,61.324],[31.637,61.463],[31.603,61.424],[31.486,61.551],[31.365,61.627],[31.307,61.607],[31.258,61.641],[31.195,61.636],[31.123,62.804],[30.559,63.111],[30.603,65.146],[30.993,65.754],[30.603,66.665],[30.733,68.573],[31.261,69.534],[31.291,69.589],[31.383,69.61],[31.482,69.674],[31.819,69.648],[31.685,69.724],[31.773,69.765],[31.774,69.767],[31.779,69.769],[31.781,69.768],[31.873,69.811],[32.098,69.762],[31.972,69.847],[32.054,69.876],[32.066,69.881],[32.074,69.862],[32.075,69.861],[32.146,69.699],[31.953,69.628],[32.051,69.591],[32.001,69.549],[32.242,69.578],[32.44,69.481],[32.26,69.422],[32.431,69.429],[32.455,69.472],[32.95,69.392],[32.815,69.326],[32.884,69.276],[33.049,69.381],[33.233,69.349],[33.253,69.345],[33.28,69.341],[33.291,69.272],[33.21,69.253],[33.246,69.242],[33.291,69.254],[33.31,69.098],[33.048,69.066],[33.005,68.886],[33.074,69.049],[33.469,69.083],[33.629,69.215],[33.725,69.211],[33.726,69.211],[33.827,69.206],[33.823,69.208],[33.895,69.205],[33.891,69.204],[34.75,69.167],[34.74,69.174],[34.735,69.175],[35.317,69.154],[35.312,69.149],[35.438,69.15],[36.014,69.036],[36.047,69.03],[36.465,68.947],[36.531,68.934],[36.675,68.906],[37.246,68.793],[37.59,68.637],[37.598,68.64],[37.604,68.633],[37.641,68.632],[37.646,68.628],[37.676,68.615],[37.685,68.614],[37.703,68.585],[37.734,68.571],[37.751,68.567],[37.757,68.567],[37.761,68.559],[37.82,68.532],[37.848,68.542],[37.85,68.543],[38.052,68.434],[38.057,68.429],[38.064,68.428],[38.233,68.336],[38.23,68.345],[38.35,68.291],[38.469,68.237],[38.464,68.233],[38.437,68.231],[38.668,68.146],[39.43,68.02],[39.765,67.965],[39.918,67.94],[40.217,67.833],[40.217,67.845],[40.212,67.849],[40.617,67.725],[40.617,67.724],[40.668,67.709],[40.717,67.694],[40.721,67.692],[40.825,67.66],[40.827,67.659],[40.907,67.591],[40.971,67.535],[40.956,67.384],[40.951,67.335],[41.017,67.202],[41.209,67.069],[41.224,67.025],[41.201,67.009],[41.254,66.939],[41.116,66.761],[40.47,66.41],[40.004,66.257],[38.656,66.064],[37.924,66.083],[37.145,66.242],[35.554,66.384],[34.898,66.594],[34.464,66.541],[34.373,66.621],[34.505,66.632],[34.352,66.699],[34.118,66.675],[34.184,66.746],[34.151,66.786],[34.13,66.703],[34.064,66.684],[34.054,66.76],[34.026,66.686],[33.926,66.686],[33.607,66.852],[33.625,66.787],[33.542,66.798],[33.643,66.734],[33.519,66.766],[33.632,66.705],[33.504,66.717],[32.79,67.029],[32.998,67.084],[32.323,67.167],[31.87,67.139],[32.046,67.097],[32.291,67.101],[32.444,67.024],[32.265,67.0],[32.219,66.994],[32.36,66.924],[32.361,66.92],[32.354,66.915],[32.544,66.804],[32.628,66.741],[32.625,66.757],[32.797,66.657],[32.748,66.675],[32.746,66.675],[32.725,66.676],[32.712,66.68],[32.754,66.649],[32.784,66.639],[32.811,66.649],[32.883,66.607],[32.821,66.591],[33.196,66.538],[32.931,66.519],[33.583,66.439],[33.645,66.412],[33.463,66.378],[33.677,66.34],[33.414,66.325],[33.077,66.276],[32.982,66.249],[33.598,66.313],[33.563,66.276],[33.879,66.2],[34.105,66.228],[34.141,66.167],[34.698,65.983],[34.635,65.916],[34.693,65.871],[34.857,65.866],[34.775,65.81],[34.886,65.814],[34.916,65.769],[34.863,65.776],[34.837,65.754],[34.979,65.709],[34.66,65.794],[34.683,65.694],[34.773,65.686],[34.686,65.668],[34.797,65.581],[34.737,65.583],[34.754,65.529],[34.633,65.487],[34.689,65.436],[34.456,65.43],[34.501,65.388],[34.353,65.406],[34.443,65.367],[34.362,65.381],[34.307,65.38],[34.271,65.371],[34.5,65.328],[34.446,65.317],[34.457,65.269],[34.662,65.181],[34.637,65.133],[34.686,65.079],[34.783,65.079],[34.774,64.995],[34.83,65.019],[34.782,64.981],[34.608,64.951],[34.96,64.838],[34.78,64.732],[34.913,64.633],[34.996,64.619],[34.859,64.538],[34.812,64.541],[34.731,64.531],[34.7,64.524],[34.683,64.509],[34.889,64.48],[35.011,64.506],[34.964,64.418],[35.404,64.284],[35.697,64.362],[35.955,64.191],[36.241,64.128],[36.176,64.074],[36.3,63.971],[37.205,63.877],[37.311,63.798],[38.01,63.936],[38.06,64.071],[37.892,64.212],[38.01,64.288],[37.79,64.367],[37.791,64.438],[37.614,64.356],[37.111,64.401],[36.738,64.689],[36.534,64.717],[36.5,64.822],[36.571,64.812],[36.448,64.926],[36.811,64.957],[36.829,65.139],[37.046,65.168],[37.676,65.029],[37.872,64.896],[38.36,64.841],[38.369,64.764],[38.007,64.757],[38.125,64.673],[37.994,64.614],[38.013,64.584],[38.15,64.656],[38.159,64.711],[38.495,64.735],[38.431,64.808],[39.527,64.55],[39.756,64.539],[39.849,64.676],[39.893,64.66],[40.182,64.559],[40.421,64.548],[40.44,64.565],[40.195,64.574],[40.055,64.653],[39.91,64.67],[39.824,64.68],[39.943,64.689],[39.962,64.701],[39.98,64.695],[40.0,64.699],[40.0,64.697],[40.025,64.7],[40.054,64.715],[40.188,64.708],[40.302,64.635],[40.444,64.603],[40.453,64.676],[40.422,64.721],[40.447,64.735],[40.449,64.737],[40.447,64.767],[40.302,64.907],[40.292,64.917],[40.151,65.053],[39.724,65.337],[39.765,65.566],[40.486,65.812],[40.743,65.984],[41.523,66.121],[42.206,66.51],[42.632,66.393],[43.259,66.411],[43.349,66.32],[43.599,66.294],[44.072,66.066],[44.019,65.983],[44.194,65.812],[44.234,65.846],[44.222,65.861],[44.167,65.885],[44.166,65.929],[44.086,65.984],[44.182,66.041],[44.074,66.228],[44.22,66.402],[44.305,66.403],[44.335,66.404],[44.577,66.303],[44.859,66.231],[45.74,66.063],[45.833,66.083],[46.347,66.023],[47.11,65.816],[47.407,65.831],[47.661,65.803],[47.764,65.841],[47.737,65.912],[47.756,65.937],[48.141,66.122],[49.007,66.114],[51.511,66.778],[51.554,66.797],[51.493,66.831],[51.527,66.923],[51.812,66.949],[51.848,66.997],[52.022,67.023],[52.156,67.081],[53.772,66.994],[59.884,66.997],[59.867,66.969],[59.919,66.949],[60.084,66.985],[61.625,67.007],[61.854,67.122],[62.824,67.384],[62.877,67.578],[63.108,67.67],[63.422,67.763],[63.691,67.757],[63.712,67.805],[63.873,67.831],[63.952,67.895],[63.92,67.964],[63.839,68.025],[64.326,68.129],[64.351,68.173],[64.418,68.196],[64.532,68.195],[64.501,68.314],[64.557,68.354],[64.762,68.401],[65.006,68.384],[65.445,68.424],[65.272,68.237],[65.324,68.09],[65.286,68.01],[65.436,67.915],[65.781,67.919],[65.911,67.955],[66.082,67.928],[66.015,67.796],[66.194,67.737],[66.2,67.695],[66.106,67.652],[65.991,67.683],[65.84,67.655],[65.838,67.604],[65.793,67.577],[65.836,67.55],[66.034,67.569],[66.1,67.488],[65.973,67.407],[65.689,67.389],[65.673,67.368],[65.699,67.34],[65.66,67.315],[65.188,67.149],[65.207,67.077],[65.073,67.043],[65.101,66.899],[64.575,66.803],[64.532,66.733],[64.412,66.728],[64.294,66.668],[63.98,66.656],[63.805,66.552],[63.54,66.476],[63.412,66.485],[63.237,66.33],[63.293,66.245],[63.104,66.255],[63.009,66.199],[62.958,66.119],[62.859,66.078],[62.816,66.012],[62.868,65.977],[62.798,65.932],[62.846,65.878],[62.523,65.844],[62.015,65.72],[62.275,65.619],[62.322,65.537],[62.399,65.512],[62.369,65.447],[62.479,65.345],[62.81,65.289],[62.797,65.053],[62.673,64.891],[62.806,64.832],[62.781,64.785],[62.799,64.735],[62.59,64.645],[62.533,64.551],[62.687,64.489],[62.9,64.472],[63.237,64.518],[63.455,64.454],[63.496,64.378],[63.409,64.325],[63.611,64.263],[63.889,64.28],[64.018,64.352],[64.478,64.355],[64.603,64.432],[64.761,64.422],[64.995,64.461],[65.177,64.441],[65.401,64.566],[65.884,64.564],[66.02,64.59],[66.465,64.507],[66.681,64.552],[66.932,64.483],[66.883,64.382],[66.792,64.328],[66.816,64.221],[67.16,64.159],[67.163,64.121],[67.252,64.112],[67.279,64.076],[67.678,64.074],[67.799,64.027],[67.928,64.111],[68.18,64.171],[68.426,64.291],[68.884,64.218],[68.894,64.266],[68.995,64.33],[68.878,64.433],[69.016,64.467],[69.23,64.465],[69.378,64.385],[69.731,64.389],[69.824,64.336],[70.0,64.311],[70.304,64.339],[70.471,64.247],[70.67,64.232],[70.765,64.19],[70.771,64.118],[70.553,64.001],[70.635,63.899],[70.81,63.818],[70.921,63.683],[71.385,63.67],[71.546,63.587],[71.607,63.18],[71.806,63.214],[71.989,63.197],[72.161,63.294],[72.656,63.275],[72.91,63.389],[73.102,63.431],[73.28,63.311],[73.367,63.202],[74.239,63.167],[74.507,63.038],[74.915,63.027],[75.363,63.103],[75.861,63.106],[76.237,63.014],[76.297,62.945],[76.687,63.034],[76.823,62.987],[77.022,62.97],[77.156,62.787],[77.326,62.706],[77.886,62.553],[77.964,62.474],[78.026,62.456],[78.379,62.563],[78.793,62.61],[79.821,62.599],[79.907,62.699],[79.919,62.788],[80.555,62.996],[80.592,63.078],[81.107,63.11],[81.171,62.969],[81.316,62.881],[81.337,62.822],[81.597,62.768],[81.783,62.684],[82.165,62.804],[82.316,62.765],[82.744,62.749],[82.756,62.666],[83.007,62.59],[83.032,62.525],[83.282,62.456],[83.788,62.558],[83.938,62.48],[84.017,62.392],[84.235,62.371],[84.286,62.273],[84.391,62.235],[84.442,62.173],[84.487,62.097],[84.516,61.925],[84.684,61.801],[85.094,61.747],[85.277,61.669],[85.404,61.682],[85.491,61.613],[85.712,61.568],[85.843,61.589],[85.956,61.541],[85.962,61.455],[86.129,61.374],[86.211,61.374],[86.327,61.453],[86.509,61.405],[86.523,61.349],[86.603,61.311],[86.775,61.317],[86.976,61.36],[86.989,61.411],[86.95,61.448],[87.001,61.461],[87.255,61.377],[87.245,61.354],[87.467,61.34],[87.474,61.266],[87.565,61.208],[87.692,61.267],[87.713,61.296],[87.677,61.33],[87.777,61.362],[87.963,61.314],[88.182,61.346],[88.953,60.746],[89.868,60.807],[90.946,60.746],[91.965,60.751],[92.138,60.829],[92.135,60.889],[92.234,60.951],[92.226,60.981],[92.409,60.968],[92.474,60.997],[92.401,61.111],[92.466,61.195],[92.558,61.191],[92.757,61.087],[92.902,61.068],[92.891,61.096],[92.939,61.13],[92.817,61.215],[92.829,61.236],[92.631,61.303],[92.83,61.36],[92.93,61.331],[93.012,61.362],[93.152,61.321],[93.156,61.245],[93.343,61.1],[93.472,61.082],[93.567,61.104],[93.732,61.038],[93.92,61.058],[94.029,60.96],[94.251,61.12],[94.382,61.118],[94.546,61.175],[94.723,61.158],[95.115,61.088],[95.36,60.922],[95.402,60.815],[95.326,60.744],[95.48,60.707],[95.234,60.563],[95.227,60.499],[95.29,60.452],[95.265,60.422],[95.114,60.416],[95.022,60.37],[94.929,60.236],[95.012,60.196],[94.977,60.113],[95.082,60.049],[95.006,60.007],[95.02,59.966],[95.062,59.89],[95.174,59.802],[95.136,59.755],[95.241,59.637],[95.499,59.637],[95.593,59.575],[95.726,59.554],[95.784,59.607],[95.879,59.627],[95.952,59.628],[96.052,59.556],[96.238,59.626],[96.326,59.549],[96.29,59.505],[96.352,59.471],[96.452,59.473],[96.556,59.539],[96.785,59.55],[97.121,59.5],[97.224,59.535],[97.237,59.576],[97.204,59.616],[97.361,59.66],[97.458,59.73],[97.696,59.679],[98.052,59.723],[98.127,59.768],[98.337,59.723],[98.445,59.784],[98.606,59.762],[98.879,59.826],[98.935,59.767],[99.001,59.772],[99.102,59.841],[99.117,59.907],[99.409,60.029],[99.411,60.077],[99.647,60.116],[100.065,59.995],[100.097,59.959],[100.072,59.895],[100.315,59.841],[100.431,59.858],[100.554,59.788],[100.865,59.783],[101.025,59.714],[101.448,59.683],[101.472,59.725],[101.729,59.74],[101.791,59.712],[101.785,59.684],[102.017,59.637],[102.107,59.589],[102.444,59.647],[102.488,59.628],[102.456,59.614],[102.454,59.524],[102.528,59.471],[102.639,59.448],[102.483,59.392],[102.517,59.261],[102.436,59.214],[102.484,59.181],[102.616,59.207],[102.82,59.187],[102.9,59.271],[103.014,59.313],[103.136,59.254],[103.212,59.251],[103.234,59.286],[103.332,59.268],[103.344,59.243],[103.21,59.233],[103.235,59.17],[103.31,59.13],[103.391,59.025],[103.556,58.994],[103.623,58.918],[103.894,58.918],[103.975,58.868],[103.944,58.835],[103.951,58.774],[103.884,58.754],[103.889,58.732],[103.97,58.723],[104.04,58.782],[104.19,58.771],[104.252,58.711],[104.377,58.722],[104.343,58.67],[104.466,58.604],[104.814,58.672],[104.899,58.748],[104.765,58.813],[104.834,58.895],[105.098,59.011],[105.136,59.055],[105.277,59.063],[105.373,59.117],[105.314,59.161],[105.343,59.197],[105.307,59.249],[105.191,59.299],[105.241,59.445],[105.149,59.49],[104.976,59.473],[104.858,59.558],[104.886,59.607],[104.81,59.63],[104.813,59.673],[104.782,59.692],[104.889,59.76],[105.026,59.773],[105.018,59.83],[105.07,59.87],[105.372,59.834],[105.431,59.853],[105.466,59.826],[105.52,59.844],[105.437,59.902],[105.428,59.947],[105.51,60.0],[105.433,60.149],[105.512,60.231],[105.344,60.304],[105.231,60.28],[104.903,60.305],[104.79,60.381],[104.667,60.411],[104.649,60.522],[104.587,60.543],[104.575,60.591],[104.513,60.626],[104.614,60.726],[104.582,60.773],[104.491,60.809],[104.485,60.844],[104.638,60.903],[104.585,60.946],[104.648,61.036],[104.629,61.074],[104.697,61.083],[104.856,61.187],[105.049,61.175],[104.953,61.32],[104.823,61.354],[105.011,61.408],[105.283,61.419],[105.283,61.466],[105.377,61.54],[105.586,61.586],[105.67,61.65],[105.814,61.625],[105.897,61.682],[105.982,61.686],[105.904,61.842],[106.278,62.019],[106.398,62.039],[106.417,62.099],[106.393,62.14],[106.454,62.196],[106.47,62.261],[106.381,62.284],[106.487,62.337],[106.445,62.394],[106.548,62.392],[106.632,62.459],[106.759,62.493],[106.688,62.564],[106.8,62.627],[106.477,62.703],[106.516,62.728],[106.516,62.794],[106.453,62.817],[106.438,62.868],[106.204,62.928],[106.193,62.973],[106.153,62.982],[106.175,63.008],[106.128,63.077],[106.4,63.122],[106.398,63.182],[106.443,63.218],[106.356,63.254],[106.421,63.353],[106.622,63.312],[106.741,63.395],[106.503,63.537],[106.522,63.563],[106.602,63.558],[106.592,63.598],[106.66,63.622],[106.694,63.661],[106.611,63.722],[106.795,63.87],[106.729,63.912],[106.733,63.939],[106.627,63.975],[106.63,64.005],[106.673,64.037],[106.97,63.966],[107.043,63.922],[107.198,63.977],[107.305,63.973],[107.371,63.931],[107.339,63.904],[107.415,63.889],[107.453,63.917],[107.585,63.897],[107.632,63.93],[107.632,63.976],[107.761,64.016],[108.205,63.999],[108.315,64.006],[108.394,64.048],[108.248,64.255],[108.086,64.252],[108.049,64.192],[107.977,64.187],[107.642,64.316],[107.353,64.269],[107.273,64.304],[107.258,64.35],[107.107,64.359],[106.916,64.443],[106.739,64.429],[106.656,64.533],[106.58,64.548],[106.547,64.526],[106.576,64.481],[106.553,64.465],[106.256,64.452],[106.182,64.421],[106.094,64.432],[106.138,64.488],[106.025,64.546],[105.906,64.494],[105.767,64.492],[105.79,64.553],[105.717,64.59],[105.756,64.642],[105.699,64.679],[105.873,64.672],[105.829,64.781],[105.87,64.832],[105.992,64.828],[105.935,64.903],[106.032,64.914],[106.027,64.88],[106.058,64.865],[106.212,64.871],[106.113,64.915],[106.074,64.985],[105.976,65.005],[105.959,65.036],[106.111,65.065],[106.195,65.128],[106.312,65.14],[106.41,65.222],[106.528,65.215],[106.435,65.251],[106.447,65.314],[106.615,65.39],[106.819,65.373],[106.973,65.506],[106.708,65.546],[106.705,65.607],[106.434,65.674],[106.464,65.733],[106.439,65.77],[106.495,65.797],[106.47,65.824],[106.498,65.883],[106.469,65.923],[106.522,66.003],[106.34,66.158],[106.203,66.154],[106.118,66.196],[106.142,66.249],[106.119,66.37],[106.335,66.47],[106.318,66.542],[106.391,66.489],[106.521,66.498],[106.762,66.424],[106.895,66.432],[106.92,66.48],[107.069,66.537],[107.24,66.456],[107.5,66.447],[107.604,66.491],[107.84,66.483],[107.885,66.451],[107.965,66.463],[107.982,66.416],[108.043,66.413],[108.106,66.441],[108.109,66.529],[108.387,66.642],[108.389,66.672],[108.269,66.714],[108.776,66.757],[108.8,66.804],[108.875,66.822],[108.982,66.752],[108.865,66.677],[108.864,66.639],[109.021,66.585],[109.201,66.608],[109.254,66.509],[109.232,66.465],[109.37,66.424],[109.385,66.345],[109.276,66.313],[109.28,66.255],[109.353,66.233],[109.349,66.148],[109.453,66.146],[109.518,66.189],[109.672,66.194],[109.815,66.261],[109.958,66.262],[110.143,66.339],[110.375,66.367],[110.33,66.449],[110.519,66.461],[110.769,66.548],[111.103,66.559],[111.236,66.599],[111.36,66.567],[111.577,66.64],[112.115,66.661],[112.208,66.609],[112.695,66.615],[112.759,66.569],[112.883,66.559],[112.942,66.488],[113.12,66.438],[113.186,66.382],[113.266,66.224],[113.314,66.21],[113.274,66.104],[113.453,66.032],[113.487,65.927],[113.402,65.894],[113.3,65.924],[113.054,65.925],[112.931,65.871],[112.869,65.784],[112.767,65.762],[112.671,65.677],[112.609,65.663],[112.621,65.607],[112.536,65.62],[112.478,65.569],[112.309,65.542],[112.33,65.49],[112.794,65.459],[112.749,65.366],[112.809,65.354],[112.781,65.273],[112.63,65.305],[112.532,65.268],[112.53,65.228],[112.577,65.188],[112.555,65.1],[112.66,65.044],[112.897,65.102],[113.04,65.081],[113.032,65.04],[113.089,65.021],[113.11,64.979],[113.37,64.955],[113.409,64.83],[113.965,64.822],[114.062,64.747],[114.049,64.655],[114.125,64.633],[114.088,64.59],[114.131,64.561],[114.365,64.597],[114.444,64.671],[114.582,64.7],[114.605,64.628],[114.674,64.657],[114.681,64.706],[114.803,64.676],[114.816,64.697],[114.765,64.71],[114.746,64.754],[114.805,64.731],[114.849,64.76],[114.725,64.785],[114.747,64.822],[114.845,64.831],[114.825,64.875],[114.955,64.926],[115.416,64.95],[115.412,64.985],[115.263,65.019],[115.351,65.034],[115.347,65.065],[115.576,65.043],[115.564,65.097],[115.858,65.084],[115.901,65.156],[116.054,65.1],[116.098,65.112],[116.136,65.07],[116.338,65.1],[116.556,65.087],[116.544,65.058],[116.409,65.031],[116.497,65.0],[116.669,65.071],[116.708,65.061],[116.696,65.093],[116.729,65.114],[116.792,65.086],[116.795,65.115],[116.859,65.128],[116.859,65.171],[117.003,65.174],[116.99,65.205],[117.094,65.266],[117.256,65.281],[117.251,65.307],[117.313,65.326],[117.307,65.364],[117.368,65.374],[117.385,65.426],[117.421,65.428],[117.409,65.488],[117.367,65.513],[117.675,65.649],[117.687,65.705],[117.806,65.741],[117.834,65.794],[118.069,65.786],[118.018,65.836],[118.063,65.901],[118.041,65.976],[118.391,66.106],[118.376,66.176],[118.198,66.238],[118.099,66.32],[118.139,66.378],[118.298,66.414],[118.327,66.454],[118.393,66.434],[118.6,66.494],[118.717,66.486],[118.849,66.432],[118.831,66.464],[118.879,66.495],[119.076,66.537],[119.271,66.634],[119.151,66.708],[119.159,66.743],[119.059,66.84],[119.043,66.95],[119.116,66.911],[119.658,66.84],[119.927,66.704],[119.981,66.703],[119.998,66.665],[120.053,66.666],[120.057,66.599],[120.194,66.551],[120.174,66.516],[120.222,66.485],[120.339,66.471],[120.33,66.425],[120.374,66.404],[120.343,66.352],[120.498,66.328],[120.503,66.244],[120.555,66.219],[120.478,66.141],[120.508,66.018],[120.59,65.95],[120.448,65.813],[120.491,65.761],[120.473,65.682],[120.575,65.646],[120.698,65.649],[120.698,65.617],[120.79,65.58],[120.907,65.587],[120.93,65.551],[121.033,65.536],[121.063,65.472],[121.107,65.454],[121.085,65.429],[121.122,65.412],[121.137,65.351],[121.233,65.334],[121.217,65.263],[121.518,65.226],[121.83,65.092],[122.31,64.975],[122.596,64.975],[122.745,64.866],[122.873,64.823],[123.002,64.879],[123.064,64.873],[123.383,64.744],[123.63,64.765],[123.922,64.721],[124.172,64.762],[124.22,64.856],[124.271,64.887],[124.479,64.931],[124.543,64.915],[124.608,64.961],[124.776,64.966],[124.85,65.028],[125.0,65.028],[124.945,65.089],[125.001,65.101],[125.043,65.223],[125.139,65.3],[125.276,65.328],[125.292,65.361],[125.786,65.327],[125.8,65.38],[125.987,65.443],[126.16,65.471],[126.519,65.46],[126.53,65.515],[126.63,65.585],[126.821,65.56],[127.019,65.613],[127.069,65.736],[127.042,65.771],[127.11,65.794],[127.111,65.819],[127.307,65.774],[127.39,65.857],[127.386,65.953],[127.584,65.954],[127.61,65.998],[127.594,66.042],[127.461,66.049],[127.374,66.111],[127.257,66.056],[127.151,66.081],[127.136,66.148],[126.988,66.147],[127.007,66.164],[126.975,66.312],[127.016,66.401],[127.183,66.485],[127.189,66.537],[127.351,66.592],[127.311,66.624],[127.324,66.652],[127.419,66.663],[127.537,66.612],[127.676,66.622],[127.813,66.555],[128.023,66.533],[128.046,66.48],[128.254,66.469],[128.391,66.5],[128.395,66.534],[128.454,66.559],[128.398,66.603],[128.522,66.657],[128.61,66.635],[128.617,66.604],[128.725,66.553],[129.164,66.546],[129.382,66.497],[129.463,66.523],[129.41,66.593],[129.753,66.489],[129.899,66.493],[130.022,66.54],[130.12,66.472],[130.054,66.421],[130.051,66.383],[130.102,66.321],[130.109,66.215],[130.435,66.203],[130.544,66.08],[130.848,65.971],[131.14,65.938],[131.134,65.881],[131.264,65.789],[131.352,65.797],[131.411,65.693],[131.709,65.698],[131.644,65.608],[131.653,65.567],[131.48,65.454],[131.528,65.439],[131.537,65.399],[131.606,65.39],[131.683,65.301],[131.842,65.296],[131.994,65.217],[132.129,65.061],[132.168,64.964],[132.265,64.927],[132.27,64.855],[132.354,64.801],[132.355,64.731],[132.278,64.663],[132.409,64.61],[132.612,64.645],[132.618,64.612],[132.741,64.588],[132.878,64.627],[132.874,64.687],[132.971,64.707],[133.004,64.744],[132.961,64.801],[133.012,64.844],[132.918,64.93],[132.959,64.991],[132.956,65.05],[132.992,65.065],[132.974,65.125],[133.023,65.175],[133.193,65.232],[133.223,65.275],[133.484,65.279],[133.632,65.212],[133.882,65.199],[133.946,65.227],[134.0,65.305],[134.147,65.323],[134.323,65.411],[134.469,65.37],[134.494,65.404],[134.469,65.433],[134.528,65.48],[134.519,65.501],[134.671,65.554],[134.715,65.595],[134.697,65.644],[134.741,65.645],[134.761,65.689],[134.832,65.692],[134.865,65.763],[135.079,65.759],[135.374,65.802],[135.438,65.85],[135.436,65.892],[135.487,65.905],[135.741,65.889],[135.75,65.957],[135.844,65.972],[135.863,66.004],[136.014,66.006],[136.107,66.087],[136.272,66.155],[136.436,66.196],[136.708,66.204],[136.856,66.194],[136.878,66.157],[136.951,66.153],[137.008,66.11],[137.277,66.097],[137.315,66.05],[137.524,66.054],[137.709,65.967],[138.017,65.962],[138.11,65.997],[138.224,65.936],[138.379,65.93],[139.26,66.018],[139.524,65.967],[139.827,65.845],[139.987,65.832],[140.177,65.875],[140.392,65.795],[140.292,65.704],[140.217,65.684],[140.19,65.628],[140.368,65.549],[140.51,65.559],[140.669,65.523],[140.726,65.558],[140.98,65.538],[141.054,65.566],[141.148,65.509],[141.453,65.443],[141.842,65.462],[141.879,65.399],[142.086,65.391],[142.101,65.36],[142.906,65.312],[142.977,65.252],[142.988,65.167],[143.354,65.152],[143.535,65.111],[143.535,65.066],[143.663,65.069],[143.79,65.029],[143.896,65.051],[144.039,65.019],[144.247,65.024],[144.351,64.886],[144.531,64.861],[144.689,64.772],[144.66,64.721],[144.53,64.654],[144.707,64.607],[144.782,64.554],[144.922,64.569],[144.992,64.531],[145.139,64.538],[145.291,64.439],[145.493,64.451],[145.668,64.409],[145.74,64.435],[145.863,64.397],[145.878,64.344],[146.048,64.284],[146.153,64.195],[146.473,64.191],[147.006,64.129],[147.22,64.037],[147.361,64.056],[147.391,64.091],[147.37,64.118],[147.639,64.171],[147.724,64.114],[147.647,64.069],[147.668,64.007],[147.771,64.006],[147.773,63.962],[147.819,63.942],[147.894,63.965],[148.018,63.931],[148.089,64.002],[148.181,64.02],[148.172,64.097],[148.267,64.149],[148.269,64.199],[148.319,64.22],[148.222,64.275],[148.262,64.298],[148.237,64.327],[148.089,64.38],[148.069,64.413],[148.227,64.438],[148.33,64.524],[148.509,64.502],[148.551,64.447],[148.704,64.398],[149.041,64.426],[149.174,64.419],[149.194,64.377],[149.34,64.372],[149.372,64.378],[149.362,64.415],[149.503,64.401],[149.588,64.469],[149.776,64.544],[149.935,64.549],[149.993,64.492],[150.136,64.464],[150.012,64.352],[150.09,64.278],[150.198,64.259],[150.192,64.224],[150.236,64.207],[150.375,64.21],[150.552,64.161],[150.666,64.174],[150.679,64.271],[150.603,64.304],[150.641,64.332],[151.252,64.339],[151.323,64.368],[151.406,64.325],[151.497,64.421],[151.97,64.484],[152.066,64.447],[152.14,64.347],[152.449,64.39],[152.44,64.47],[152.376,64.526],[152.728,64.62],[152.852,64.7],[152.75,64.779],[152.587,64.819],[152.529,64.914],[152.528,64.987],[152.634,65.057],[152.668,65.167],[152.719,65.179],[152.729,65.218],[152.798,65.202],[152.934,65.251],[153.154,65.239],[153.204,65.296],[153.44,65.353],[153.503,65.342],[153.595,65.407],[153.451,65.482],[153.545,65.634],[153.52,65.661],[153.585,65.697],[153.552,65.741],[153.497,65.75],[153.537,65.806],[153.754,65.866],[153.957,65.868],[154.086,65.844],[154.106,65.772],[154.267,65.801],[154.415,65.919],[154.396,65.973],[154.435,65.995],[154.247,66.056],[154.303,66.098],[154.368,66.1],[154.398,66.178],[154.52,66.215],[154.84,66.163],[154.895,66.104],[155.077,66.123],[155.074,66.159],[155.171,66.178],[155.261,66.177],[155.398,66.12],[155.53,66.139],[155.649,66.116],[155.749,66.156],[156.06,66.041],[156.145,66.065],[156.433,66.029],[156.674,66.184],[157.014,66.007],[156.958,65.953],[157.083,65.91],[157.336,65.887],[157.451,65.907],[157.463,65.94],[157.417,65.966],[157.436,65.99],[157.657,66.029],[157.74,66.094],[158.188,66.137],[158.466,66.076],[158.522,66.107],[158.433,66.21],[158.442,66.259],[158.557,66.352],[158.775,66.279],[159.193,66.208],[159.19,66.153],[159.049,66.052],[158.987,65.939],[158.924,65.898],[158.93,65.817],[158.885,65.785],[158.908,65.746],[159.833,65.524],[160.026,65.51],[160.167,65.446],[160.165,65.38],[160.206,65.344],[160.413,65.249],[160.518,65.161],[161.01,65.165],[161.362,65.112],[161.416,65.064],[161.687,64.99],[161.781,64.835],[161.866,64.808],[162.293,64.737],[162.553,64.742],[162.735,64.656],[162.997,64.644],[163.121,64.69],[163.142,64.77],[163.12,64.796],[163.347,64.814],[163.506,64.923],[163.873,64.86],[164.023,64.87],[164.189,64.929],[164.794,64.767],[164.881,64.681],[165.023,64.691],[165.032,64.838],[165.262,64.846],[165.336,64.806],[165.32,64.78],[165.358,64.756],[165.683,64.749],[165.737,64.72],[165.74,64.675],[165.868,64.618],[165.815,64.591],[165.871,64.55],[166.058,64.557],[166.198,64.604],[166.807,64.528],[167.009,64.546],[167.233,64.619],[167.37,64.489],[167.504,64.473],[167.713,64.336],[167.814,64.346],[168.026,64.281],[168.154,64.286],[168.225,64.341],[168.506,64.309],[168.623,64.21],[168.769,64.182],[168.764,64.146],[168.858,64.022],[169.111,63.948],[169.34,63.942],[169.368,63.87],[169.541,63.813],[169.548,63.698],[169.585,63.659],[169.51,63.632],[169.49,63.573],[169.203,63.52],[168.785,63.304],[168.777,63.247],[168.684,63.245],[168.707,63.194],[168.602,63.193],[168.46,63.075],[168.925,62.939],[169.125,62.968],[169.513,62.809],[169.655,62.704],[169.841,62.65],[170.049,62.663],[169.981,62.545],[170.085,62.485],[170.036,62.445],[170.282,62.274],[170.423,62.309],[170.859,62.244],[170.903,62.274],[171.08,62.285],[171.046,62.335],[171.219,62.363],[171.259,62.321],[171.358,62.35],[171.377,62.319],[171.486,62.307],[171.858,62.377],[171.872,62.408],[172.055,62.461],[172.207,62.445],[172.293,62.398],[172.487,62.435],[172.703,62.398],[172.853,62.327],[172.905,62.388],[173.172,62.39],[173.218,62.432],[173.504,62.528],[173.689,62.53],[173.796,62.511],[173.871,62.436],[174.075,62.442],[174.088,62.345],[174.005,62.278],[174.104,62.186],[174.103,62.075],[174.228,62.061],[174.327,62.088],[174.344,62.041],[174.456,61.984],[174.446,61.911],[174.505,61.875],[174.476,61.868],[174.478,61.867],[174.483,61.868],[173.838,61.646],[173.52,61.723],[173.504,61.555],[173.319,61.523],[173.17,61.394],[172.79,61.439],[172.739,61.403],[172.97,61.284],[172.65,61.166],[172.374,61.22],[172.432,61.123],[172.241,61.131],[172.481,61.061],[172.422,61.012],[172.01,61.087],[172.214,60.949],[172.074,60.838],[171.71,60.833],[171.396,60.614],[170.643,60.41],[170.688,60.31],[170.525,60.255],[170.426,59.971],[170.296,59.926],[169.957,60.074],[169.668,60.425],[169.231,60.548],[168.476,60.597],[167.797,60.531],[167.787,60.471],[167.228,60.339],[167.067,60.404],[167.118,60.409],[167.003,60.415],[167.075,60.308],[166.787,60.227],[166.861,60.214],[166.285,59.81],[166.09,59.812],[166.21,60.126],[166.314,60.196],[166.286,60.244],[166.291,60.321],[166.253,60.368],[166.259,60.396],[166.389,60.408],[166.268,60.473],[165.228,60.087],[165.171,60.143],[165.027,60.101],[165.166,60.079],[165.215,59.986],[164.836,59.782],[164.716,59.996],[164.49,60.1],[164.342,60.089],[164.33,59.989],[164.143,59.935],[164.2,59.854],[164.073,59.895],[164.214,59.991],[163.647,60.01],[163.696,59.956],[163.835,59.992],[163.691,59.878],[163.434,59.837],[163.37,59.731],[163.416,59.622],[163.214,59.567],[163.19,59.528],[163.189,59.514],[163.194,59.51],[163.212,59.532],[163.275,59.555],[163.206,59.486],[163.332,59.404],[163.345,59.356],[163.342,59.273],[163.071,59.22],[163.23,59.138],[163.25,59.086],[163.25,59.084],[163.225,59.04],[163.107,59.132],[162.904,59.113],[163.066,58.987],[162.411,58.657],[162.133,58.37],[161.989,58.087],[162.137,57.847],[162.446,57.773],[162.45,57.741],[162.34,57.673],[162.355,57.662],[162.53,57.751],[162.556,57.929],[162.701,57.947],[163.211,57.819],[163.322,57.725],[163.097,57.484],[162.782,57.351],[162.853,57.031],[162.777,56.781],[162.933,56.693],[163.226,56.741],[163.285,56.688],[163.25,56.443],[163.359,56.184],[163.043,56.007],[162.817,56.062],[162.619,56.227],[162.077,56.08],[161.788,55.638],[161.741,55.385],[161.863,55.085],[162.154,54.852],[162.14,54.753],[161.715,54.505],[161.29,54.482],[161.071,54.593],[160.719,54.528],[159.985,54.109],[160.037,54.163],[159.993,54.161],[159.841,53.76],[159.955,53.495],[159.838,53.434],[159.972,53.327],[159.903,53.256],[160.008,53.259],[160.036,53.098],[159.743,53.205],[159.814,53.276],[159.711,53.219],[159.576,53.252],[159.091,53.108],[158.713,52.887],[158.708,52.963],[158.611,53.051],[158.42,53.017],[158.43,52.894],[158.637,52.902],[158.646,52.844],[158.481,52.77],[158.599,52.695],[158.547,52.628],[158.388,52.65],[158.525,52.529],[158.397,52.408],[158.561,52.418],[158.483,52.344],[158.547,52.29],[158.393,52.227],[158.273,51.963],[157.911,51.629],[157.563,51.501],[157.468,51.358],[156.668,50.867],[156.76,51.074],[156.715,51.199],[156.534,51.321],[156.468,52.126],[156.147,52.848],[155.558,55.199],[155.651,55.967],[155.99,56.682],[156.472,56.957],[156.55,57.1],[156.737,57.076],[157.0,57.436],[156.907,57.67],[156.773,57.725],[156.854,57.8],[157.006,57.854],[157.349,57.771],[157.526,57.822],[157.678,58.016],[157.984,57.98],[158.332,58.075],[159.53,58.725],[159.738,58.876],[159.719,58.978],[159.858,59.127],[160.394,59.387],[160.496,59.555],[160.897,59.628],[161.492,60.042],[161.919,60.208],[161.952,60.423],[162.705,60.608],[162.896,60.753],[163.73,60.872],[163.768,60.92],[163.487,61.007],[163.937,61.223],[164.029,61.35],[163.751,61.467],[163.872,61.652],[164.054,61.684],[164.137,62.255],[164.532,62.44],[165.021,62.402],[165.091,62.487],[164.722,62.574],[164.616,62.68],[164.44,62.694],[163.275,62.527],[163.172,62.429],[163.365,62.333],[163.086,62.22],[163.104,62.083],[163.196,62.059],[162.966,61.809],[163.074,61.758],[163.064,61.702],[163.055,61.646],[163.033,61.518],[162.834,61.715],[162.639,61.625],[162.389,61.663],[162.007,61.383],[161.876,61.429],[161.897,61.339],[161.815,61.373],[161.784,61.301],[161.543,61.253],[161.581,61.188],[160.911,60.898],[160.788,60.719],[160.686,60.772],[160.41,60.702],[160.426,60.759],[160.168,60.575],[160.145,60.655],[160.255,60.713],[160.19,60.823],[160.387,60.906],[160.336,60.93],[160.443,61.036],[159.788,60.933],[160.005,61.107],[159.938,61.245],[159.776,61.261],[159.966,61.264],[159.881,61.321],[160.084,61.378],[160.059,61.464],[160.279,61.554],[160.323,61.664],[160.254,61.692],[160.41,61.762],[160.365,61.939],[160.03,61.846],[159.893,61.71],[159.696,61.73],[159.574,61.656],[159.515,61.707],[159.572,61.817],[159.469,61.765],[159.351,61.817],[159.396,61.877],[159.006,61.923],[158.829,61.817],[158.272,61.826],[158.037,61.729],[157.499,61.79],[157.339,61.678],[157.038,61.649],[156.899,61.539],[156.672,61.519],[156.656,61.203],[155.929,60.929],[155.988,60.909],[155.906,60.709],[155.811,60.728],[154.935,60.353],[154.672,60.185],[154.485,59.932],[154.585,60.105],[154.411,60.066],[154.477,59.885],[154.209,59.878],[154.274,59.669],[154.211,59.651],[154.145,59.536],[154.072,59.519],[154.126,59.458],[154.303,59.439],[154.394,59.536],[154.414,59.421],[154.534,59.42],[154.413,59.551],[154.973,59.496],[155.079,59.332],[155.108,59.325],[155.098,59.313],[155.098,59.302],[155.181,59.174],[154.834,59.197],[154.789,59.134],[154.334,59.209],[154.355,59.109],[154.041,59.047],[153.7,59.187],[153.785,59.246],[153.638,59.19],[153.388,59.248],[153.279,59.132],[153.331,59.091],[153.009,59.063],[152.904,58.907],[152.551,58.952],[152.354,59.061],[152.395,59.008],[152.172,58.987],[152.067,58.887],[151.365,58.84],[151.132,59.095],[151.433,59.165],[151.754,59.129],[152.081,59.145],[152.322,59.23],[152.141,59.305],[151.74,59.3],[151.771,59.356],[151.668,59.454],[151.409,59.605],[150.915,59.566],[150.939,59.455],[150.76,59.433],[150.754,59.488],[150.537,59.496],[150.772,59.563],[150.577,59.543],[150.458,59.617],[149.597,59.758],[149.045,59.616],[149.227,59.463],[148.933,59.453],[148.875,59.551],[148.716,59.458],[148.74,59.36],[148.986,59.375],[148.929,59.235],[148.417,59.254],[148.402,59.376],[148.242,59.409],[147.878,59.385],[147.786,59.343],[147.846,59.301],[147.797,59.263],[147.638,59.308],[147.541,59.236],[146.507,59.465],[146.312,59.402],[146.308,59.286],[146.246,59.278],[146.054,59.251],[146.037,59.216],[146.001,59.142],[145.83,59.247],[145.971,59.404],[145.802,59.366],[145.698,59.427],[143.255,59.361],[142.436,59.193],[141.924,58.941],[141.676,58.757],[141.79,58.855],[141.591,58.728],[141.511,58.655],[141.536,58.666],[141.622,58.716],[141.383,58.539],[140.657,58.265],[140.665,58.274],[140.587,58.239],[140.177,57.806],[140.117,57.743],[139.797,57.585],[139.775,57.551],[139.772,57.548],[139.731,57.552],[139.505,57.44],[139.49,57.414],[139.474,57.399],[139.443,57.385],[139.435,57.382],[139.431,57.38],[139.4,57.365],[139.392,57.367],[139.357,57.363],[139.301,57.339],[138.867,57.124],[138.853,57.115],[138.814,57.091],[138.818,57.09],[138.053,56.557],[138.053,56.579],[138.06,56.594],[137.281,56.022],[137.287,56.023],[137.229,55.983],[137.218,55.978],[137.218,55.977],[137.202,55.969],[137.198,55.967],[137.038,55.887],[137.026,55.875],[136.99,55.856],[136.971,55.853],[136.775,55.754],[136.756,55.736],[136.751,55.728],[136.741,55.722],[136.739,55.724],[136.711,55.722],[136.258,55.495],[136.257,55.492],[135.513,55.143],[135.619,55.173],[135.242,54.984],[135.248,54.994],[135.254,55.0],[135.255,55.0],[135.279,55.013],[135.316,55.04],[135.331,55.048],[135.407,55.074],[135.407,55.076],[135.442,55.11],[135.27,55.029],[134.985,54.854],[134.894,54.72],[134.902,54.559],[134.965,54.505],[131.22,54.505],[131.199,54.605],[131.391,54.712],[131.534,54.718],[131.618,54.776],[131.766,54.792],[131.795,54.836],[131.979,54.888],[131.999,54.921],[131.97,54.988],[132.064,55.04],[132.387,55.06],[132.408,55.087],[132.353,55.151],[132.364,55.188],[132.609,55.198],[132.691,55.268],[132.663,55.333],[132.683,55.361],[132.761,55.341],[132.948,55.381],[132.756,55.427],[132.629,55.507],[132.667,55.563],[132.541,55.68],[132.387,55.71],[132.224,55.708],[132.123,55.65],[131.952,55.662],[131.805,55.619],[131.618,55.658],[131.57,55.619],[131.438,55.651],[131.107,55.621],[130.743,55.724],[130.599,55.728],[130.39,56.054],[129.207,56.868],[128.837,56.646],[128.171,56.72],[126.914,56.498],[126.544,56.498],[124.916,56.202],[124.546,56.276],[124.101,56.276],[123.827,56.403],[123.29,56.428],[123.046,56.497],[122.888,56.6],[122.8,56.581],[122.775,56.504],[122.593,56.494],[122.469,56.606],[122.285,56.655],[122.161,56.743],[121.602,56.75],[121.621,56.784],[121.532,56.858],[121.51,56.932],[121.408,56.98],[121.08,56.985],[121.02,57.036],[120.889,57.046],[120.301,57.009],[120.031,56.904],[119.897,56.894],[119.665,56.771],[119.86,56.682],[119.805,56.595],[119.958,56.489],[120.265,56.452],[120.258,56.391],[120.401,56.35],[120.402,56.304],[120.534,56.275],[120.52,56.237],[120.235,56.204],[120.058,56.142],[120.051,56.075],[120.16,55.97],[120.128,55.911],[120.179,55.869],[120.271,55.913],[120.386,55.861],[120.467,55.867],[120.508,55.902],[120.889,56.005],[121.206,56.01],[121.271,55.943],[121.274,55.859],[121.344,55.806],[121.297,55.732],[121.36,55.503],[121.439,55.476],[121.549,55.498],[121.636,55.531],[121.689,55.593],[121.769,55.61],[121.886,55.597],[121.974,55.479],[121.934,55.213],[122.003,55.178],[121.929,55.123],[121.942,54.998],[121.667,54.83],[121.647,54.74],[121.694,54.719],[121.889,54.792],[121.919,54.712],[121.88,54.66],[121.93,54.619],[121.92,54.573],[122.123,54.464],[122.13,54.432],[121.903,54.374],[121.815,54.441],[121.71,54.419],[121.65,54.355],[121.744,54.274],[121.744,54.152],[121.651,54.133],[121.629,54.082],[121.64,54.009],[121.8,53.959],[121.919,53.822],[121.921,53.721],[121.963,53.693],[121.942,53.603],[122.013,53.517],[122.019,53.434],[121.641,53.385],[121.512,53.33],[121.341,53.324],[121.203,53.277],[120.846,53.273],[120.279,52.866],[120.033,52.761],[120.034,52.625],[120.079,52.59],[120.453,52.639],[120.724,52.542],[120.626,52.347],[120.758,52.237],[120.779,52.167],[120.779,52.118],[120.697,52.049],[120.71,51.991],[120.648,51.912],[120.493,51.876],[120.166,51.669],[120.1,51.66],[120.053,51.552],[119.977,51.487],[119.983,51.442],[119.953,51.399],[119.895,51.384],[119.913,51.33],[119.82,51.275],[119.81,51.217],[119.762,51.215],[119.781,51.173],[119.741,51.073],[119.518,50.905],[119.497,50.737],[119.294,50.599],[119.243,50.445],[119.138,50.393],[119.175,50.356],[119.357,50.339],[119.315,50.093],[119.209,50.015],[119.093,49.987],[118.644,49.955],[117.874,49.513],[117.758,49.513],[117.473,49.614],[117.253,49.622],[117.058,49.673],[116.722,49.802],[116.578,49.926],[116.219,50.019],[116.052,50.003],[115.716,49.883],[115.39,49.896],[115.213,49.976],[115.0,50.149],[114.756,50.241],[114.473,50.239],[114.286,50.282],[113.971,50.165],[113.848,50.086],[113.577,50.024],[113.18,49.806],[113.083,49.69],[113.056,49.6],[112.777,49.506],[112.473,49.539],[112.029,49.417],[111.66,49.401],[111.479,49.348],[111.337,49.37],[110.84,49.167],[110.645,49.142],[110.371,49.247],[110.181,49.167],[109.729,49.271],[109.517,49.261],[109.452,49.311],[109.287,49.344],[108.539,49.332],[108.338,49.441],[108.239,49.537],[108.108,49.559],[108.019,49.606],[108.019,49.66],[107.936,49.674],[107.961,49.745],[107.949,49.938],[107.195,50.011],[107.062,50.078],[106.976,50.201],[106.657,50.332],[106.224,50.297],[106.059,50.338],[105.986,50.405],[105.328,50.481],[105.103,50.395],[104.901,50.395],[104.609,50.319],[104.404,50.305],[104.121,50.153],[103.785,50.191],[103.603,50.138],[103.439,50.198],[103.306,50.195],[103.203,50.302],[102.928,50.308],[102.764,50.38],[102.619,50.404],[102.473,50.53],[102.306,50.567],[102.281,50.646],[102.334,50.72],[102.22,50.804],[102.235,50.98],[102.151,51.1],[102.142,51.239],[102.198,51.308],[102.077,51.379],[101.527,51.481],[101.351,51.455],[101.243,51.52],[101.119,51.533],[100.512,51.732],[99.921,51.754],[99.711,51.885],[99.325,51.939],[99.235,51.999],[98.998,52.063],[98.93,52.199],[98.818,52.199],[98.801,52.279],[98.714,52.298],[98.653,52.266],[98.682,52.37],[98.645,52.421],[98.719,52.455],[98.734,52.501],[98.809,52.51],[98.831,52.542],[98.807,52.604],[98.939,52.664],[98.942,52.8],[98.872,52.798],[98.858,52.832],[98.931,52.913],[99.225,52.863],[99.253,52.958],[98.993,53.045],[99.067,53.102],[98.939,53.154],[98.863,53.13],[98.687,53.16],[98.597,53.109],[98.308,53.108],[98.291,53.228],[98.033,53.258],[97.978,53.296],[97.958,53.363],[97.609,53.378],[97.589,53.442],[97.451,53.466],[97.336,53.599],[97.127,53.619],[96.875,53.734],[96.715,53.703],[96.651,53.557],[96.565,53.539],[96.443,53.519],[96.369,53.563],[96.375,53.603],[96.289,53.587],[96.301,53.616],[96.252,53.621],[96.184,53.521],[96.091,53.456],[95.756,53.525],[95.397,53.377],[95.306,53.4],[95.293,53.449],[95.247,53.462],[95.054,53.383],[94.976,53.41],[94.739,53.388],[94.592,53.32],[94.588,53.288],[94.672,53.275],[94.693,53.239],[94.6,53.178],[94.598,53.049],[94.507,52.914],[94.304,52.909],[94.146,52.846],[94.134,52.763],[94.068,52.672],[93.98,52.637],[93.979,52.583],[93.761,52.443],[93.759,52.368],[93.683,52.298],[93.669,52.226],[93.358,52.134],[93.227,52.041],[93.131,52.017],[93.071,51.95],[92.899,51.899],[92.853,51.839],[92.672,51.845],[92.505,51.787],[92.209,51.811],[92.104,51.788],[91.948,51.809],[91.885,51.861],[91.63,51.872],[91.558,51.905],[91.237,51.887],[91.1,51.948],[90.852,51.915],[90.738,52.074],[90.563,52.126],[90.493,52.187],[90.35,52.197],[90.127,52.139],[90.113,52.047],[90.023,51.987],[90.096,51.756],[89.963,51.766],[89.727,51.587],[89.581,51.558],[89.421,51.61],[89.259,51.554],[89.22,51.572],[89.238,51.645],[89.206,51.664],[89.03,51.605],[88.735,51.564],[88.653,51.53],[88.692,51.396],[88.444,51.289],[88.316,51.349],[88.161,51.355],[88.144,51.433],[87.936,51.478],[87.873,51.553],[87.677,51.536],[87.732,51.389],[87.552,51.369],[87.524,51.249],[87.124,51.225],[87.205,51.043],[87.311,50.919],[87.359,50.914],[87.368,50.847],[87.424,50.803],[87.423,50.737],[87.497,50.647],[87.433,50.508],[87.338,50.443],[87.399,50.376],[87.106,50.334],[87.069,50.288],[87.113,50.241],[86.975,50.295],[86.779,50.202],[86.719,50.243],[86.664,50.199],[86.709,50.089],[86.616,50.022],[86.658,49.889],[86.618,49.886],[86.585,49.806],[86.769,49.786],[86.748,49.743],[86.768,49.704],[86.698,49.69],[86.593,49.608],[86.628,49.561],[86.813,49.544],[86.845,49.502],[86.829,49.449],[86.932,49.41],[86.922,49.347],[86.994,49.288],[85.843,48.414],[85.747,48.39],[85.602,48.232],[85.382,48.148],[83.131,48.282],[84.267,49.205],[81.479,50.291],[78.65,50.806],[74.921,54.149],[72.992,55.307],[64.687,54.272],[64.457,53.58],[63.038,51.177],[62.258,51.064],[62.154,51.115],[62.032,51.072],[61.964,51.132],[61.929,51.242],[61.875,51.3],[61.645,51.268],[61.53,51.209],[61.4,50.806],[60.818,50.668],[60.301,50.69],[60.18,50.746],[60.139,50.849],[60.021,50.859],[59.958,50.832],[59.91,50.747],[59.909,50.676],[59.811,50.566],[59.522,50.481],[59.457,50.533],[59.562,50.549],[59.568,50.582],[59.44,50.636],[59.275,50.621],[59.198,50.668],[58.927,50.683],[58.813,50.73],[58.75,50.8],[58.665,50.796],[58.645,50.867],[58.555,50.896],[58.6,50.959],[58.599,51.027],[58.521,51.067],[58.384,51.075],[58.308,51.155],[58.221,51.127],[58.166,51.06],[58.078,51.103],[57.961,51.083],[57.767,51.124],[57.73,51.075],[57.719,50.913],[57.555,50.924],[57.466,50.864],[57.338,50.901],[57.276,51.001],[57.201,51.022],[57.156,51.105],[56.865,51.057],[56.715,51.077],[56.676,51.051],[56.688,50.974],[56.599,50.989],[56.477,51.078],[56.417,51.036],[56.425,50.977],[56.347,50.952],[56.315,50.89],[56.155,50.909],[56.076,50.729],[55.661,50.535],[55.469,50.662],[55.306,50.67],[55.087,50.801],[55.05,50.889],[54.896,50.917],[54.814,50.977],[54.638,51.033],[54.531,51.007],[54.537,50.955],[54.498,50.928],[54.634,50.88],[54.634,50.706],[54.671,50.604],[54.5,50.528],[54.386,50.619],[54.427,50.766],[54.49,50.823],[54.482,50.857],[54.278,50.909],[54.153,50.994],[54.115,51.1],[54.022,51.123],[53.938,51.19],[53.675,51.225],[53.598,51.294],[53.614,51.392],[53.409,51.489],[53.166,51.52],[53.142,51.492],[53.036,51.495],[52.943,51.458],[52.78,51.513],[52.672,51.464],[52.545,51.466],[52.483,51.508],[52.308,51.78],[52.258,51.729],[52.146,51.72],[52.089,51.664],[51.867,51.678],[51.76,51.595],[51.776,51.496],[51.692,51.459],[51.649,51.457],[51.585,51.54],[51.461,51.48],[51.308,51.477],[51.249,51.534],[51.362,51.558],[51.374,51.634],[51.234,51.69],[50.925,51.685],[50.842,51.75],[50.766,51.764],[50.742,51.709],[50.785,51.599],[50.675,51.573],[50.697,51.615],[50.579,51.64],[50.57,51.592],[50.521,51.567],[50.517,51.466],[50.356,51.417],[50.323,51.308],[49.985,51.235],[49.776,51.107],[49.435,51.117],[49.342,50.965],[49.417,50.883],[49.369,50.831],[49.142,50.786],[48.829,50.601],[48.565,50.64],[48.57,50.613],[48.668,50.577],[48.696,50.334],[48.784,50.173],[48.778,50.11],[48.849,50.092],[48.879,50.022],[48.782,49.938],[48.429,49.816],[48.242,49.871],[47.997,50.186],[47.601,50.457],[47.509,50.441],[47.431,50.383],[47.244,50.376],[47.208,50.513],[46.922,50.495],[46.92,50.527],[46.877,50.532],[46.874,50.581],[46.814,50.586],[46.861,50.645],[46.748,50.661],[46.719,50.716],[46.628,50.686],[46.581,50.717],[46.562,50.626],[46.538,50.649],[46.456,50.621],[46.444,50.555],[46.277,50.578],[46.269,50.533],[46.077,50.531],[46.096,50.669],[45.894,50.755],[45.721,50.75],[45.674,50.667],[45.701,50.58],[45.739,50.587],[45.889,50.438],[45.876,50.346],[45.737,50.311],[45.416,50.033],[45.341,49.893],[45.337,49.798],[45.049,49.433],[44.917,49.079],[44.664,48.872],[44.65,48.818],[44.54,48.717],[44.512,48.621],[44.639,48.591],[44.602,48.565],[44.674,48.522],[44.661,48.458],[44.574,48.495],[44.505,48.474],[44.412,48.517],[44.344,48.621],[44.295,48.605],[44.283,48.491],[44.208,48.498],[44.172,48.537],[44.23,48.58],[44.162,48.578],[44.119,48.632],[43.94,48.684],[43.949,48.728],[43.881,48.764],[43.896,48.791],[43.785,48.895],[43.795,48.929],[43.718,48.95],[43.752,48.967],[43.744,48.995],[43.613,49.021],[43.631,49.089],[43.405,49.18],[43.395,49.306],[43.55,49.466],[43.616,49.475],[43.635,49.531],[43.778,49.524],[43.787,49.574],[43.894,49.572],[43.886,49.628],[43.965,49.598],[43.995,49.647],[44.102,49.648],[44.164,49.712],[44.153,49.771],[44.275,49.825],[44.149,49.908],[44.262,50.009],[44.193,50.07],[44.202,50.105],[44.001,50.129],[44.009,50.187],[43.938,50.228],[43.831,50.214],[43.845,50.181],[43.811,50.15],[43.692,50.159],[43.694,50.082],[43.589,50.048],[43.532,49.902],[43.44,49.909],[43.367,49.832],[43.275,49.831],[43.176,49.891],[42.988,49.851],[42.906,49.911],[42.896,49.989],[42.665,50.105],[42.744,50.167],[42.71,50.188],[42.719,50.231],[42.763,50.222],[42.787,50.261],[42.865,50.249],[42.934,50.343],[43.025,50.283],[43.204,50.358],[43.298,50.302],[43.335,50.353],[43.453,50.377],[43.416,50.449],[43.376,50.44],[43.328,50.498],[43.235,50.524],[43.018,50.503],[43.02,50.536],[42.96,50.558],[42.953,50.643],[42.826,50.695],[42.903,50.731],[42.906,50.764],[42.842,50.812],[42.888,50.844],[42.874,50.883],[42.98,50.954],[43.126,50.974],[43.167,51.108],[42.856,51.25],[42.708,51.253],[42.553,51.15],[42.175,51.141],[41.927,51.199],[41.816,51.122],[41.759,51.017],[41.471,50.956],[41.424,50.918],[41.414,50.842],[41.164,50.778],[41.343,50.708],[41.445,50.602],[41.527,50.584],[41.416,50.499],[41.514,50.361],[41.383,50.212],[41.349,50.219],[41.284,50.165],[41.37,50.124],[41.377,50.085],[41.081,49.949],[41.037,49.806],[40.918,49.706],[40.635,49.678],[40.537,49.583],[40.158,49.647],[40.13,49.617],[40.154,49.57],[40.036,49.524],[40.025,49.454],[40.19,49.344],[40.182,49.28],[40.21,49.253],[40.028,49.184],[39.93,49.063],[39.668,49.043],[39.661,48.997],[39.746,48.975],[39.825,48.882],[39.994,48.863],[40.037,48.911],[40.072,48.875],[39.975,48.8],[39.797,48.847],[39.656,48.61],[39.687,48.582],[39.845,48.565],[39.841,48.473],[39.931,48.355],[39.844,48.337],[39.836,48.307],[39.916,48.265],[39.986,48.309],[40.013,48.259],[39.999,48.231],[39.94,48.233],[39.863,48.084],[39.829,48.069],[39.854,48.046],[39.763,48.033],[39.259,48.437],[37.885,49.186],[37.384,48.811],[36.792,48.589],[36.739,48.631],[36.593,48.609],[36.482,48.669],[36.416,48.637],[36.359,48.543],[36.286,48.542],[36.324,48.587],[36.266,48.62],[36.285,48.664],[36.156,48.724],[36.163,48.787],[36.035,48.854],[36.048,48.918],[35.939,49.004],[35.807,48.945],[35.801,48.881],[35.633,48.886],[35.673,48.742],[35.521,48.602],[35.543,48.543],[35.329,48.513],[35.362,48.458],[35.319,48.433],[35.302,48.497],[35.164,48.584],[35.221,48.655],[35.167,48.668],[35.165,48.737],[35.068,48.76],[35.003,48.702],[34.947,48.75],[34.961,48.796],[34.929,48.79],[34.891,48.839],[34.839,48.826],[34.795,48.762],[34.741,48.866],[34.793,48.916],[34.672,49.049],[34.675,49.101],[34.624,49.128],[34.556,49.06],[34.401,49.099],[34.407,49.059],[34.328,49.012],[34.341,48.98],[34.295,48.895],[34.333,48.855],[34.293,48.823],[34.301,48.74],[34.135,48.786],[34.122,48.827],[33.895,48.907],[33.84,48.777],[33.813,48.808],[33.731,48.796],[33.716,48.819],[33.579,48.8],[33.616,48.723],[33.792,48.671],[33.753,48.661],[33.742,48.62],[33.607,48.604],[33.611,48.569],[33.468,48.548],[33.482,48.4],[33.456,48.352],[33.51,48.321],[33.537,48.237],[33.422,48.174],[33.289,48.154],[33.288,48.108],[33.275,48.158],[33.211,48.175],[33.223,48.133],[33.177,48.118],[33.185,48.09],[33.035,48.038],[32.99,47.986],[33.001,47.91],[33.079,47.893],[33.045,47.782],[33.064,47.746],[32.968,47.726],[32.99,47.62],[32.955,47.592],[33.084,47.592],[33.091,47.524],[33.138,47.533],[33.129,47.425],[33.077,47.42],[33.069,47.48],[33.025,47.422],[33.037,47.375],[33.119,47.378],[33.11,47.33],[31.991,47.403],[31.194,47.737],[31.181,47.816],[31.123,47.834],[31.08,47.917],[31.08,48.182],[31.114,48.218],[30.855,48.163],[30.883,48.228],[30.862,48.299],[30.903,48.346],[30.85,48.384],[30.845,48.442],[30.752,48.491],[30.752,48.541],[30.845,48.743],[31.025,48.755],[31.114,48.723],[31.248,48.755],[31.384,48.723],[31.531,48.8],[31.603,48.889],[31.808,48.938],[31.921,48.88],[32.494,49.001],[32.522,48.939],[32.648,48.954],[32.688,48.987],[32.792,48.971],[32.848,49.004],[32.812,49.061],[32.876,49.087],[33.076,49.096],[33.229,49.064],[33.037,49.206],[32.574,49.273],[32.03,49.494],[31.935,49.56],[31.805,49.585],[31.78,49.635],[31.631,49.655],[31.515,49.741],[31.514,49.847],[31.451,49.879],[31.449,49.987],[31.424,50.002],[31.342,50.0],[31.251,49.944],[31.119,49.984],[30.488,50.052],[30.461,50.21],[30.39,50.26],[30.478,50.335],[30.472,50.364],[30.334,50.38],[30.218,50.34],[30.394,50.714],[30.459,50.759],[30.546,51.257],[30.61,51.276],[30.612,51.319],[30.661,51.343],[30.626,51.432],[30.59,51.439],[30.628,51.467],[30.577,51.512],[30.589,51.548],[30.546,51.55],[30.56,51.579],[30.532,51.597],[30.586,51.647],[30.575,51.699],[30.628,51.709],[30.641,51.777],[30.708,51.862],[30.941,51.994],[30.954,52.069],[31.299,52.046],[31.328,52.101],[31.406,52.138],[31.769,52.106],[31.766,52.153],[31.687,52.206],[31.703,52.255],[31.581,52.308],[31.614,52.355],[31.593,52.484],[31.562,52.507],[31.579,52.543],[31.396,52.888],[31.261,53.015],[31.368,53.086],[31.382,53.178],[31.615,53.205],[31.753,53.182],[31.795,53.108],[32.118,53.076],[32.408,53.188],[32.484,53.273],[32.462,53.295],[32.722,53.335],[32.704,53.466],[32.579,53.492],[32.417,53.585],[32.408,53.632],[32.495,53.675],[32.464,53.711],[32.084,53.815],[31.873,53.782],[31.757,53.8],[31.843,53.961],[31.826,54.057],[31.329,54.233],[31.289,54.35],[31.212,54.452],[31.076,54.497],[31.172,54.625],[30.773,54.792],[30.831,54.876],[30.826,54.925],[30.94,54.971],[30.916,55.018],[31.011,55.022],[30.964,55.166],[30.801,55.286],[30.923,55.386],[30.887,55.451],[30.925,55.534],[30.89,55.604],[30.746,55.599],[30.696,55.657],[30.598,55.671],[30.591,55.722],[30.483,55.758],[30.471,55.798],[30.201,55.863],[30.106,55.827],[29.907,55.848],[29.802,55.776],[29.683,55.775],[29.481,55.686],[29.355,55.769],[29.388,55.875],[29.449,55.907],[29.379,55.959],[29.031,56.029],[28.858,55.981],[28.822,55.943],[28.733,55.952],[28.624,56.087],[28.538,56.103],[28.389,56.093],[28.291,56.051],[28.16,56.142],[28.222,56.271],[28.169,56.439],[28.101,56.496],[28.129,56.551],[28.014,56.592],[27.985,56.69],[27.875,56.74],[27.918,56.823],[27.817,56.871],[27.641,56.848],[27.747,57.036],[27.747,57.072],[27.692,57.104],[27.774,57.136],[27.741,57.182],[27.773,57.211],[27.782,57.322],[27.694,57.356],[27.554,57.259],[27.354,57.32],[27.205,57.323],[27.208,57.234],[27.157,57.226],[26.861,57.018],[26.86,56.983],[26.914,56.969],[26.974,56.867],[26.805,56.726],[26.536,56.773],[26.294,56.591],[26.131,56.654],[26.04,56.626],[25.984,56.666],[25.932,56.64],[25.936,56.682],[25.834,56.714],[25.843,56.789],[25.765,56.828],[25.694,56.771],[25.505,56.813],[25.268,56.745],[25.294,56.718],[25.277,56.698],[25.029,56.727],[25.051,56.703],[25.017,56.682],[25.026,56.619],[24.99,56.613],[24.91,56.644],[24.863,56.705],[24.448,56.847],[24.328,56.845],[24.135,56.774],[23.772,56.81],[23.64,56.895],[23.55,56.895],[23.507,56.936],[23.533,56.923],[23.549,56.918],[23.607,56.907],[23.615,56.906],[23.407,57.034],[23.834,56.984],[24.38,57.225],[24.334,57.835],[24.479,58.068],[24.476,58.247],[24.587,58.304],[24.314,58.382],[24.268,58.272],[24.119,58.228],[24.011,58.32],[23.839,58.359],[23.745,58.342],[23.685,58.526],[23.521,58.565],[23.489,58.689],[23.802,58.751],[23.727,58.788],[23.465,58.77],[23.536,58.814],[23.419,58.906],[23.664,58.972],[23.404,59.026],[23.45,59.029],[23.437,59.077],[23.542,59.09],[23.515,59.224],[24.084,59.269],[24.039,59.386],[24.241,59.344],[24.212,59.394],[24.368,59.474],[24.79,59.443],[24.796,59.572],[24.969,59.489],[25.441,59.491],[25.555,59.541],[25.494,59.604],[25.507,59.644],[25.67,59.564],[25.7,59.667],[25.814,59.564],[26.059,59.629],[26.949,59.437],[27.914,59.402],[28.074,59.513],[28.093,59.598],[28.0,59.69],[28.101,59.79],[28.369,59.664],[28.473,59.828],[28.845,59.782],[29.057,59.86],[28.988,59.914],[29.132,59.983],[30.026,59.861],[30.176,59.87],[30.168,59.886],[30.222,59.906],[30.235,59.928],[29.962,60.01],[29.921,60.147],[29.038,60.177],[28.805,60.357],[28.617,60.352],[28.437,60.547],[28.672,60.429],[28.714,60.439],[28.642,60.656],[28.712,60.629],[28.766,60.721],[28.708,60.776],[28.617,60.705],[28.658,60.686],[28.53,60.67],[28.298,60.623],[28.345,60.596],[28.232,60.511],[27.86,60.552],[27.817,60.508],[27.791,60.519],[27.818,60.525],[27.766,60.582],[27.727,60.579],[27.697,60.517],[27.741,60.485],[27.468,60.513],[27.477,60.461],[27.365,60.514],[27.229,60.532]]],[[[57.035,75.38],[57.996,75.296],[57.719,75.349],[57.73,75.423],[57.554,75.475],[58.491,75.595],[57.98,75.626],[58.834,75.722],[58.734,75.8],[58.876,75.846],[60.43,75.966],[60.039,76.034],[60.263,76.089],[60.782,76.1],[60.467,76.004],[60.562,75.988],[61.081,76.017],[61.082,76.085],[61.225,76.125],[60.906,76.148],[61.051,76.257],[62.403,76.253],[62.347,76.176],[62.544,76.155],[62.77,76.261],[63.052,76.186],[63.72,76.329],[63.978,76.333],[64.119,76.254],[64.535,76.38],[64.843,76.339],[64.699,76.39],[64.969,76.476],[65.261,76.434],[65.486,76.551],[66.091,76.476],[66.006,76.603],[65.822,76.651],[66.04,76.738],[66.379,76.706],[66.227,76.763],[67.571,76.991],[68.58,76.955],[68.501,76.93],[68.833,76.868],[68.759,76.841],[69.09,76.703],[68.795,76.575],[68.957,76.537],[68.195,76.294],[68.306,76.249],[65.991,75.984],[63.792,75.612],[63.811,75.652],[63.705,75.704],[63.587,75.715],[63.686,75.69],[62.311,75.419],[61.904,75.466],[61.854,75.432],[61.949,75.387],[61.817,75.32],[61.734,75.36],[61.463,75.207],[61.382,75.211],[61.412,75.313],[61.29,75.309],[61.349,75.281],[61.091,75.172],[60.79,75.141],[60.741,75.014],[60.503,75.103],[60.307,75.084],[60.485,75.048],[60.386,75.044],[60.411,75.0],[59.908,74.983],[60.629,74.913],[60.527,74.843],[60.155,74.843],[60.305,74.78],[60.247,74.734],[59.656,74.719],[59.626,74.749],[59.45,74.785],[59.575,74.719],[59.837,74.663],[59.862,74.607],[59.762,74.572],[59.14,74.735],[59.09,74.699],[59.269,74.618],[59.138,74.614],[59.122,74.526],[58.785,74.584],[59.113,74.52],[59.061,74.468],[59.134,74.424],[58.211,74.554],[58.591,74.448],[58.531,74.412],[58.413,74.439],[58.354,74.439],[58.315,74.427],[58.611,74.381],[58.721,74.249],[58.634,74.235],[58.731,74.214],[58.531,74.221],[58.638,74.201],[58.471,74.199],[58.584,74.161],[58.506,74.144],[58.277,74.184],[58.279,74.15],[58.537,74.119],[58.141,74.117],[58.192,74.077],[58.115,74.034],[58.249,74.002],[58.16,74.0],[58.144,73.973],[57.71,74.044],[57.546,74.179],[57.338,74.204],[57.542,74.08],[57.251,74.067],[57.521,74.066],[57.865,73.906],[57.76,73.882],[57.884,73.77],[57.724,73.723],[57.43,73.829],[56.705,73.878],[56.625,73.864],[57.293,73.811],[57.619,73.629],[57.234,73.552],[56.951,73.591],[56.792,73.679],[56.684,73.688],[56.888,73.599],[56.75,73.579],[57.24,73.454],[56.904,73.301],[56.765,73.341],[56.807,73.308],[56.728,73.234],[56.12,73.259],[56.025,73.308],[56.046,73.374],[55.933,73.426],[55.963,73.295],[54.955,73.44],[54.222,73.316],[54.067,73.357],[54.487,73.462],[54.233,73.482],[54.389,73.557],[55.406,73.706],[54.562,73.691],[54.236,73.596],[53.673,73.75],[54.009,73.778],[54.322,73.914],[54.846,73.953],[54.577,73.997],[55.034,74.158],[56.078,74.035],[55.61,74.176],[55.119,74.226],[55.689,74.247],[55.754,74.276],[55.677,74.341],[55.297,74.35],[55.378,74.41],[56.259,74.46],[55.567,74.544],[55.824,74.671],[55.95,74.63],[56.409,74.702],[56.568,74.643],[56.654,74.671],[56.736,74.645],[56.946,74.672],[55.826,74.784],[56.446,74.887],[56.256,74.926],[56.443,75.033],[56.03,74.996],[56.079,75.049],[56.1,75.072],[56.156,75.132],[56.292,75.158],[56.385,75.037],[56.587,75.058],[56.75,75.194],[57.076,75.216],[56.704,75.298],[57.035,75.38]]],[[[52.456,72.275],[52.642,72.245],[52.599,72.29],[52.725,72.314],[52.575,72.364],[52.761,72.325],[52.705,72.427],[52.849,72.431],[52.705,72.455],[52.982,72.547],[52.912,72.562],[53.325,72.553],[53.117,72.591],[52.727,72.54],[52.846,72.611],[52.748,72.629],[52.976,72.662],[52.403,72.717],[52.614,72.852],[52.954,72.908],[53.298,72.865],[53.524,72.854],[53.628,72.889],[53.085,72.949],[53.415,72.996],[53.154,73.09],[53.423,73.23],[54.248,73.258],[54.916,73.424],[55.435,73.313],[56.409,73.222],[56.566,73.138],[55.819,73.057],[56.42,73.018],[55.546,72.942],[56.275,72.947],[56.12,72.779],[55.342,72.762],[55.843,72.738],[55.922,72.65],[55.668,72.655],[55.695,72.595],[55.598,72.523],[55.494,72.559],[55.298,72.569],[55.563,72.508],[55.302,72.441],[55.479,72.435],[55.483,72.351],[55.362,72.287],[55.576,72.173],[55.408,72.098],[55.46,72.056],[55.363,71.98],[55.433,71.934],[55.275,71.943],[55.524,71.882],[55.655,71.626],[56.214,71.185],[57.613,70.708],[57.468,70.659],[57.476,70.592],[57.358,70.607],[57.433,70.587],[57.037,70.655],[56.763,70.672],[57.321,70.542],[56.547,70.655],[56.683,70.618],[56.608,70.618],[56.505,70.66],[56.623,70.718],[56.516,70.741],[56.22,70.738],[56.325,70.691],[56.193,70.699],[56.321,70.652],[56.159,70.651],[56.226,70.633],[55.794,70.665],[56.032,70.557],[55.884,70.567],[55.83,70.606],[55.745,70.593],[55.706,70.6],[55.665,70.625],[55.611,70.633],[55.631,70.638],[55.746,70.6],[55.568,70.677],[55.763,70.611],[55.861,70.613],[55.611,70.724],[55.81,70.616],[55.436,70.733],[55.354,70.685],[55.099,70.765],[54.906,70.762],[55.358,70.679],[55.401,70.687],[55.452,70.659],[55.481,70.633],[55.27,70.681],[55.206,70.657],[55.293,70.562],[55.168,70.545],[54.54,70.782],[54.431,70.735],[54.791,70.636],[54.306,70.763],[54.047,70.724],[53.906,70.815],[53.846,70.797],[53.899,70.76],[53.459,70.824],[53.42,70.856],[53.575,70.881],[53.752,70.811],[53.683,70.878],[53.777,70.935],[53.51,71.087],[53.963,71.015],[53.906,71.073],[54.175,71.07],[54.266,71.095],[54.011,71.137],[54.225,71.147],[54.103,71.212],[53.805,71.19],[53.838,71.134],[53.516,71.217],[53.464,71.257],[53.547,71.254],[53.552,71.277],[53.341,71.325],[53.287,71.438],[53.496,71.528],[53.472,71.573],[53.238,71.499],[53.16,71.408],[53.096,71.484],[52.999,71.511],[53.055,71.465],[52.935,71.472],[53.029,71.4],[52.953,71.371],[52.882,71.46],[52.78,71.464],[52.856,71.41],[52.621,71.461],[52.717,71.524],[52.583,71.598],[52.635,71.591],[52.554,71.652],[52.573,71.731],[52.531,71.764],[52.504,71.68],[52.536,71.565],[52.399,71.539],[52.458,71.462],[52.297,71.571],[52.261,71.568],[52.193,71.529],[52.301,71.461],[51.919,71.457],[51.62,71.536],[51.442,71.778],[51.564,72.061],[51.859,72.154],[52.046,72.049],[52.203,72.13],[52.248,72.093],[52.175,72.069],[52.292,72.076],[52.247,72.055],[52.527,72.026],[52.504,72.035],[52.464,72.04],[52.453,72.046],[52.467,72.07],[52.398,72.098],[52.442,72.123],[52.441,72.168],[52.467,72.118],[52.562,72.131],[52.526,72.175],[52.431,72.212],[52.551,72.186],[52.456,72.275]]],[[[46.044,43.938],[45.797,43.981],[45.729,43.953],[45.489,44.015],[45.503,44.176],[45.103,44.191],[45.14,44.249],[45.374,44.286],[45.431,44.429],[45.227,44.493],[44.755,44.439],[43.88,44.814],[43.449,46.0],[43.875,45.941],[44.077,45.792],[44.138,45.656],[44.205,45.606],[44.42,45.522],[44.736,45.492],[45.583,45.154],[45.708,45.011],[45.704,44.971],[46.0,44.981],[46.433,44.932],[46.757,44.812],[46.791,44.76],[46.881,44.78],[46.888,44.747],[46.928,44.754],[46.933,44.766],[46.933,44.771],[47.0,44.806],[47.0,44.837],[47.0,44.915],[47.017,44.847],[47.021,44.85],[47.038,44.853],[47.082,44.782],[47.09,44.841],[47.098,44.837],[47.102,44.832],[47.117,44.869],[47.105,44.95],[47.147,44.924],[47.142,44.947],[47.148,44.957],[47.205,44.966],[47.244,45.054],[47.301,45.184],[47.322,45.188],[47.384,45.2],[47.465,45.39],[47.427,45.402],[47.392,45.414],[47.435,45.419],[47.44,45.432],[47.452,45.442],[47.559,45.492],[47.457,45.354],[47.43,45.124],[47.388,45.187],[47.201,44.937],[47.258,44.838],[47.179,44.718],[47.052,44.798],[46.984,44.747],[47.081,44.665],[46.835,44.63],[46.912,44.492],[46.738,44.503],[46.903,44.468],[47.112,44.223],[47.234,44.218],[47.374,44.0],[47.285,44.001],[46.998,44.004],[46.995,43.814],[46.91,43.818],[46.866,43.762],[46.785,43.781],[46.625,43.733],[46.564,43.74],[46.578,43.77],[46.426,43.619],[46.43,43.539],[46.382,43.482],[46.306,43.468],[46.306,43.435],[46.231,43.424],[46.112,43.46],[45.988,43.426],[45.87,43.474],[45.807,43.513],[45.766,43.607],[45.816,43.69],[45.834,43.838],[45.776,43.843],[45.727,43.949],[45.858,43.966],[46.044,43.938]]],[[[47.532,45.98],[47.533,46.02],[47.307,46.025],[47.241,46.09],[47.617,46.178],[47.575,46.211],[47.69,46.205],[47.714,46.245],[47.881,46.249],[47.969,46.315],[47.972,46.364],[48.025,46.384],[47.968,46.406],[47.962,46.466],[48.07,46.387],[48.047,46.471],[48.0,46.475],[48.045,46.508],[48.1,46.464],[48.223,46.467],[48.278,46.408],[48.263,46.44],[48.291,46.477],[48.334,46.434],[48.406,46.488],[48.516,46.441],[48.538,46.493],[48.619,46.445],[48.736,46.481],[48.896,46.477],[49.145,46.36],[49.14,46.334],[49.141,46.323],[49.336,46.2],[49.326,46.137],[49.243,46.162],[49.318,46.068],[49.252,46.102],[49.233,46.0],[49.033,46.12],[49.0,45.951],[48.929,45.979],[48.857,45.841],[48.843,45.841],[48.836,45.828],[48.832,45.833],[48.833,45.837],[48.838,45.837],[48.827,45.843],[48.812,45.891],[48.754,45.899],[48.716,45.814],[48.705,45.827],[48.705,45.828],[48.695,45.839],[48.686,45.85],[48.673,45.88],[48.68,45.901],[48.598,45.953],[48.303,45.768],[48.223,45.753],[48.226,45.747],[48.245,45.755],[48.27,45.753],[48.279,45.749],[48.313,45.758],[48.243,45.71],[48.183,45.716],[48.189,45.722],[48.193,45.724],[48.195,45.729],[48.162,45.742],[48.142,45.739],[48.145,45.736],[48.151,45.719],[48.061,45.727],[48.007,45.632],[47.858,45.695],[47.882,45.465],[47.731,45.631],[47.769,45.518],[47.778,45.448],[47.769,45.405],[47.691,45.661],[47.649,45.706],[47.64,45.707],[47.607,45.81],[47.542,45.819],[47.595,45.87],[47.617,45.951],[47.532,45.98]]],[[[22.017,57.916],[21.978,57.977],[22.225,58.139],[21.999,58.25],[21.831,58.28],[21.909,58.307],[21.861,58.353],[21.946,58.307],[22.023,58.366],[21.903,58.469],[21.889,58.475],[21.877,58.474],[21.867,58.467],[21.834,58.482],[21.838,58.502],[22.009,58.506],[22.077,58.419],[22.203,58.546],[22.293,58.487],[22.287,58.57],[22.539,58.642],[22.638,58.579],[22.946,58.617],[23.329,58.453],[23.158,58.478],[23.065,58.421],[23.072,58.41],[23.089,58.379],[22.954,58.384],[22.926,58.302],[22.704,58.275],[22.723,58.211],[22.621,58.255],[22.309,58.208],[22.197,57.978],[22.017,57.916]]],[[[155.39,50.0],[155.221,50.051],[155.209,50.291],[155.648,50.377],[155.929,50.71],[156.156,50.741],[156.17,50.507],[156.042,50.466],[155.795,50.191],[155.523,50.145],[155.39,50.0]]],[[[22.941,58.942],[23.069,58.839],[22.961,58.849],[22.762,58.814],[22.755,58.813],[22.784,58.79],[22.889,58.82],[22.883,58.79],[22.83,58.783],[22.823,58.765],[22.787,58.755],[22.734,58.806],[22.563,58.687],[22.466,58.716],[22.398,58.889],[22.039,58.927],[22.396,58.937],[22.583,59.093],[22.942,58.982],[22.941,58.942]]],[[[177.258,62.732],[177.334,62.802],[177.448,62.814],[177.423,62.775],[177.316,62.749],[177.329,62.69],[177.261,62.616],[177.279,62.608],[177.307,62.609],[177.305,62.577],[177.68,62.57],[178.076,62.532],[177.153,62.543],[177.267,62.593],[177.158,62.599],[177.16,62.603],[177.19,62.67],[176.935,62.687],[177.047,62.768],[176.993,62.864],[177.145,62.792],[177.124,62.743],[177.189,62.705],[177.269,62.708],[177.258,62.732]]],[[[51.117,47.063],[51.0,47.008],[51.0,46.989],[51.0,46.988],[51.0,46.922],[50.813,46.944],[50.719,46.854],[50.679,46.917],[50.596,46.818],[50.502,46.805],[50.461,46.862],[50.368,46.77],[50.432,46.891],[50.571,46.824],[50.62,46.93],[50.732,46.963],[50.737,46.964],[50.751,46.968],[50.743,46.902],[50.824,47.0],[50.85,47.032],[50.907,47.014],[51.212,47.116],[51.323,47.085],[51.117,47.063]]],[[[35.658,65.13],[35.728,65.173],[35.825,65.096],[35.84,65.049],[35.85,65.041],[35.864,65.039],[35.856,65.037],[35.814,65.052],[35.812,65.088],[35.792,65.096],[35.739,65.045],[35.88,65.019],[36.024,65.04],[35.751,64.955],[35.502,65.105],[35.538,65.145],[35.605,65.154],[35.565,65.127],[35.658,65.13]]],[[[156.484,50.87],[156.514,50.765],[156.402,50.631],[156.173,50.707],[156.484,50.87]]],[[[23.14,58.552],[23.067,58.62],[23.191,58.684],[23.353,58.646],[23.406,58.551],[23.14,58.552]]],[[[56.529,70.586],[56.295,70.586],[56.162,70.631],[56.382,70.623],[56.445,70.633],[56.339,70.659],[56.432,70.666],[56.649,70.564],[56.529,70.586]]],[[[155.673,50.818],[155.536,50.807],[155.455,50.885],[155.63,50.91],[155.673,50.818]]],[[[125.763,73.542],[125.857,73.49],[125.669,73.547],[125.826,73.65],[125.883,73.651],[125.914,73.638],[125.763,73.542]]]]}}]}