{"type":"FeatureCollection","features":[{"type":"Feature","properties":{"lite":true,"src":"data/years/1774-10-10.geojson"},"geometry":{"type":"MultiPolygon","coordinates":[[[[23.746,58.341],[23.685,58.526],[23.503,58.564],[23.54,58.593],[23.489,58.689],[23.802,58.751],[23.727,58.788],[23.441,58.766],[23.536,58.814],[23.425,58.943],[23.53,58.939],[23.664,58.972],[23.404,59.026],[23.45,59.029],[23.435,59.078],[23.542,59.09],[23.508,59.229],[24.084,59.269],[24.035,59.387],[24.241,59.344],[24.179,59.397],[24.359,59.474],[24.79,59.443],[24.796,59.572],[24.969,59.489],[25.149,59.476],[25.146,59.541],[25.441,59.491],[25.555,59.541],[25.497,59.648],[25.67,59.564],[25.713,59.601],[25.671,59.654],[25.697,59.675],[25.814,59.564],[25.98,59.635],[26.949,59.437],[27.914,59.402],[28.074,59.513],[28.093,59.598],[27.997,59.692],[28.096,59.79],[28.364,59.664],[28.473,59.828],[28.845,59.782],[29.037,59.845],[28.988,59.914],[29.126,59.986],[30.026,59.861],[30.176,59.87],[30.228,59.911],[30.184,59.99],[29.962,60.01],[29.939,60.126],[29.87,60.162],[29.147,60.161],[28.805,60.357],[28.617,60.352],[28.437,60.547],[28.672,60.429],[28.714,60.439],[28.642,60.656],[28.746,60.664],[28.722,60.686],[28.735,60.697],[28.748,60.696],[28.728,60.714],[28.766,60.721],[28.708,60.776],[28.617,60.705],[28.658,60.686],[28.622,60.667],[28.637,60.682],[28.626,60.681],[28.618,60.687],[28.607,60.69],[28.598,60.692],[28.586,60.69],[28.6,60.661],[28.545,60.682],[28.542,60.66],[28.521,60.67],[28.521,60.678],[28.508,60.682],[28.399,60.662],[28.392,60.632],[28.386,60.604],[28.298,60.623],[28.345,60.596],[28.232,60.511],[28.159,60.543],[28.177,60.508],[28.152,60.517],[28.14,60.506],[28.073,60.528],[28.072,60.499],[28.006,60.525],[27.896,60.502],[27.86,60.552],[27.734,60.582],[27.697,60.517],[27.741,60.485],[27.468,60.513],[27.491,60.46],[27.365,60.514],[27.369,60.499],[27.363,60.5],[27.229,60.532],[27.197,60.515],[27.194,60.553],[27.273,60.526],[27.282,60.533],[27.179,60.585],[27.162,60.572],[27.177,60.521],[27.008,60.555],[26.92,60.465],[26.84,60.533],[26.86,60.537],[26.861,60.537],[26.847,60.555],[26.775,60.588],[26.743,60.665],[26.842,60.651],[26.815,60.726],[26.724,60.829],[26.605,60.859],[26.619,60.902],[26.688,60.908],[26.603,60.934],[26.532,61.028],[26.827,61.125],[27.18,61.143],[27.342,61.186],[27.45,61.261],[27.651,61.264],[27.747,61.339],[27.938,61.367],[28.031,61.445],[28.211,61.522],[28.29,61.598],[28.542,61.628],[28.516,61.735],[28.597,61.766],[28.594,61.805],[28.422,61.876],[28.392,61.921],[28.566,61.95],[28.674,61.928],[28.739,61.971],[28.66,61.977],[28.681,62.013],[28.647,62.018],[28.593,62.102],[28.418,62.12],[28.386,62.168],[28.415,62.211],[28.691,62.12],[28.751,62.126],[28.83,62.065],[28.726,62.054],[28.789,62.02],[29.083,62.007],[29.126,62.098],[29.084,62.101],[29.096,62.126],[29.017,62.157],[29.025,62.179],[28.905,62.223],[28.944,62.29],[28.973,62.289],[28.958,62.308],[29.169,62.332],[29.171,62.405],[29.233,62.417],[29.294,62.388],[29.307,62.334],[29.426,62.237],[29.407,62.202],[29.459,62.081],[29.652,61.981],[29.615,61.913],[29.687,61.868],[29.675,61.791],[29.571,61.736],[29.546,61.689],[29.404,61.654],[29.261,61.558],[29.194,61.556],[29.395,61.399],[29.279,61.304],[29.488,61.24],[29.552,61.177],[29.871,61.176],[32.703,60.646],[32.885,60.699],[32.814,60.754],[32.766,60.886],[32.59,61.0],[32.527,61.118],[31.9,61.324],[31.637,61.463],[31.603,61.424],[31.486,61.551],[31.365,61.627],[31.307,61.607],[31.195,61.638],[31.123,62.804],[30.559,63.112],[30.603,65.147],[30.993,65.754],[30.603,66.665],[30.733,68.575],[31.261,69.534],[31.292,69.591],[31.511,69.686],[31.819,69.648],[31.686,69.707],[31.711,69.759],[31.874,69.811],[32.098,69.762],[31.971,69.847],[32.053,69.877],[32.065,69.881],[32.073,69.863],[32.146,69.7],[31.953,69.628],[32.054,69.59],[32.001,69.549],[32.251,69.577],[32.441,69.481],[32.41,69.457],[32.359,69.458],[32.26,69.422],[32.431,69.429],[32.455,69.472],[32.95,69.392],[32.815,69.326],[32.884,69.276],[33.049,69.381],[33.231,69.349],[33.252,69.345],[33.28,69.34],[33.305,69.274],[33.21,69.253],[33.246,69.242],[33.291,69.259],[33.267,69.222],[33.313,69.096],[33.048,69.066],[33.005,68.886],[33.073,69.049],[33.469,69.083],[33.628,69.214],[33.725,69.211],[33.723,69.21],[33.83,69.205],[33.825,69.207],[33.894,69.205],[33.89,69.203],[34.751,69.166],[34.74,69.174],[34.738,69.175],[35.317,69.154],[35.312,69.15],[35.438,69.15],[36.014,69.036],[36.048,69.03],[36.464,68.948],[36.532,68.934],[36.674,68.906],[37.244,68.794],[37.59,68.637],[37.598,68.64],[37.604,68.633],[37.641,68.632],[37.646,68.628],[37.676,68.615],[37.685,68.614],[37.703,68.585],[37.735,68.571],[37.751,68.567],[37.757,68.567],[37.761,68.559],[37.82,68.532],[37.848,68.542],[37.849,68.543],[38.053,68.433],[38.057,68.429],[38.063,68.428],[38.233,68.336],[38.23,68.345],[38.35,68.291],[38.469,68.237],[38.464,68.233],[38.437,68.231],[38.668,68.146],[39.43,68.02],[39.765,67.965],[39.918,67.94],[40.217,67.833],[40.217,67.845],[40.212,67.849],[40.617,67.724],[40.67,67.708],[40.715,67.694],[40.721,67.692],[40.825,67.66],[40.826,67.659],[40.907,67.591],[40.972,67.535],[40.956,67.384],[40.951,67.335],[41.017,67.202],[41.208,67.07],[41.224,67.025],[41.201,67.009],[41.254,66.94],[41.116,66.761],[40.47,66.41],[40.003,66.256],[38.653,66.064],[37.926,66.083],[37.145,66.242],[35.554,66.384],[34.898,66.594],[34.462,66.541],[34.367,66.619],[34.505,66.632],[34.352,66.699],[34.093,66.674],[34.141,66.695],[34.184,66.746],[34.172,66.777],[34.151,66.786],[34.13,66.703],[34.064,66.681],[34.054,66.76],[34.025,66.685],[33.925,66.686],[33.607,66.852],[33.625,66.787],[33.542,66.798],[33.643,66.734],[33.519,66.766],[33.543,66.745],[33.631,66.714],[33.632,66.705],[33.503,66.717],[32.789,67.03],[32.998,67.084],[32.323,67.167],[31.87,67.139],[32.046,67.097],[32.255,67.122],[32.354,67.07],[32.311,67.039],[32.466,67.025],[32.266,67.0],[32.22,66.994],[32.36,66.924],[32.361,66.92],[32.357,66.917],[32.601,66.78],[32.583,66.786],[32.576,66.789],[32.538,66.808],[32.628,66.741],[32.625,66.757],[32.627,66.762],[32.617,66.77],[32.934,66.592],[32.821,66.591],[33.196,66.538],[32.931,66.519],[33.718,66.415],[33.463,66.378],[33.666,66.335],[33.414,66.325],[33.215,66.28],[33.077,66.276],[32.982,66.249],[33.573,66.315],[33.632,66.306],[33.58,66.295],[33.563,66.276],[33.911,66.234],[33.879,66.2],[34.109,66.227],[34.141,66.167],[34.698,65.983],[34.634,65.92],[34.683,65.876],[34.857,65.866],[34.775,65.81],[34.842,65.813],[34.92,65.815],[34.837,65.754],[34.976,65.716],[34.931,65.675],[34.688,65.797],[34.66,65.794],[34.683,65.694],[34.773,65.686],[34.686,65.668],[34.797,65.581],[34.737,65.583],[34.754,65.529],[34.633,65.487],[34.689,65.436],[34.456,65.43],[34.531,65.406],[34.474,65.407],[34.509,65.39],[34.501,65.388],[34.353,65.406],[34.443,65.367],[34.362,65.381],[34.307,65.38],[34.271,65.371],[34.5,65.328],[34.446,65.317],[34.457,65.269],[34.66,65.194],[34.599,65.196],[34.691,65.157],[34.637,65.141],[34.686,65.079],[34.783,65.079],[34.774,64.995],[34.831,65.022],[34.782,64.981],[34.608,64.951],[34.769,64.953],[34.921,64.834],[34.961,64.836],[34.78,64.732],[34.913,64.633],[34.99,64.611],[34.859,64.538],[34.781,64.526],[34.759,64.534],[34.731,64.531],[34.7,64.524],[34.683,64.509],[34.772,64.525],[34.787,64.51],[34.83,64.514],[34.809,64.502],[34.868,64.503],[34.889,64.48],[35.011,64.506],[34.964,64.418],[35.404,64.284],[35.698,64.362],[35.955,64.191],[36.241,64.128],[36.176,64.074],[36.3,63.971],[37.205,63.877],[37.311,63.798],[38.01,63.936],[38.06,64.071],[37.891,64.212],[38.01,64.288],[37.788,64.368],[37.791,64.438],[37.615,64.355],[37.11,64.401],[36.738,64.689],[36.534,64.717],[36.5,64.822],[36.571,64.812],[36.438,64.922],[36.811,64.957],[36.827,65.138],[37.046,65.168],[37.677,65.029],[37.872,64.896],[38.37,64.843],[38.368,64.763],[38.007,64.757],[38.125,64.673],[37.994,64.614],[38.013,64.584],[38.15,64.656],[38.158,64.711],[38.495,64.735],[38.431,64.808],[39.527,64.55],[39.756,64.539],[39.85,64.676],[39.894,64.661],[40.182,64.559],[40.421,64.548],[40.44,64.565],[40.196,64.574],[40.055,64.653],[39.91,64.67],[39.824,64.68],[39.943,64.689],[39.962,64.701],[39.98,64.695],[40.0,64.699],[40.0,64.697],[40.025,64.7],[40.055,64.715],[40.189,64.708],[40.302,64.635],[40.444,64.603],[40.453,64.675],[40.421,64.721],[40.426,64.723],[40.331,64.894],[40.34,64.89],[40.321,64.912],[40.274,64.945],[39.724,65.336],[39.765,65.566],[40.486,65.812],[40.743,65.984],[41.523,66.121],[42.206,66.51],[42.632,66.393],[43.259,66.411],[43.349,66.32],[43.6,66.294],[44.072,66.066],[44.019,65.983],[44.194,65.812],[44.214,65.832],[44.18,65.869],[44.234,65.846],[44.222,65.861],[44.191,65.87],[44.189,65.876],[44.188,65.876],[44.185,65.88],[44.167,65.885],[44.166,65.929],[44.113,65.973],[44.109,65.977],[44.101,65.979],[44.084,65.986],[44.182,66.041],[44.074,66.228],[44.303,66.408],[44.309,66.406],[44.859,66.231],[45.741,66.063],[45.833,66.083],[46.347,66.023],[47.11,65.816],[47.408,65.831],[47.661,65.803],[47.764,65.84],[47.737,65.913],[47.757,65.937],[48.141,66.122],[49.007,66.114],[51.512,66.778],[51.554,66.797],[51.491,66.83],[51.525,66.922],[51.812,66.949],[51.849,66.997],[52.022,67.023],[52.159,67.081],[53.772,66.994],[59.879,66.997],[59.869,66.963],[59.919,66.949],[60.083,66.985],[61.661,67.011],[61.854,67.122],[62.823,67.383],[62.878,67.578],[63.107,67.67],[63.422,67.763],[63.691,67.757],[63.711,67.805],[63.873,67.831],[63.952,67.895],[63.919,67.964],[63.839,68.025],[64.326,68.129],[64.351,68.173],[64.418,68.196],[64.532,68.196],[64.501,68.314],[64.559,68.354],[64.761,68.401],[65.006,68.384],[65.445,68.424],[65.269,68.232],[65.324,68.09],[65.286,68.01],[65.436,67.915],[65.781,67.919],[65.91,67.955],[66.084,67.925],[66.015,67.796],[66.194,67.736],[66.2,67.695],[66.106,67.652],[66.0,67.683],[65.85,67.659],[65.819,67.631],[65.839,67.604],[65.791,67.568],[66.033,67.57],[66.1,67.506],[66.085,67.471],[65.937,67.398],[65.7,67.393],[65.673,67.368],[65.701,67.339],[65.662,67.316],[65.188,67.149],[65.207,67.078],[65.073,67.043],[65.102,66.997],[65.098,66.897],[64.575,66.803],[64.533,66.733],[64.411,66.728],[64.295,66.668],[63.98,66.656],[63.807,66.552],[63.541,66.476],[63.413,66.485],[63.237,66.33],[63.292,66.244],[63.104,66.255],[63.009,66.199],[62.957,66.118],[62.858,66.078],[62.817,66.011],[62.87,65.977],[62.798,65.932],[62.844,65.877],[62.522,65.844],[62.014,65.72],[62.273,65.619],[62.322,65.537],[62.402,65.511],[62.369,65.447],[62.479,65.345],[62.81,65.289],[62.797,65.054],[62.673,64.891],[62.806,64.833],[62.816,64.806],[62.781,64.785],[62.799,64.736],[62.59,64.645],[62.533,64.551],[62.687,64.489],[62.899,64.472],[63.234,64.519],[63.455,64.454],[63.497,64.377],[63.41,64.325],[63.611,64.263],[63.889,64.279],[64.017,64.352],[64.478,64.355],[64.604,64.432],[64.761,64.422],[64.995,64.461],[65.177,64.441],[65.4,64.566],[65.884,64.564],[66.02,64.59],[66.465,64.507],[66.682,64.552],[66.932,64.482],[66.884,64.383],[66.792,64.328],[66.816,64.221],[67.161,64.159],[67.163,64.121],[67.253,64.112],[67.279,64.076],[67.677,64.074],[67.798,64.027],[67.929,64.111],[68.18,64.171],[68.427,64.291],[68.884,64.218],[68.894,64.266],[68.995,64.33],[68.874,64.433],[69.015,64.467],[69.229,64.465],[69.389,64.384],[69.732,64.389],[69.824,64.336],[69.999,64.311],[70.304,64.339],[70.471,64.247],[70.67,64.232],[70.765,64.189],[70.77,64.117],[70.554,63.999],[70.641,63.893],[70.818,63.811],[70.911,63.688],[71.386,63.67],[71.546,63.587],[71.607,63.18],[71.805,63.214],[71.989,63.197],[72.16,63.294],[72.656,63.275],[72.911,63.389],[73.101,63.431],[73.279,63.313],[73.366,63.202],[74.24,63.167],[74.507,63.038],[74.915,63.027],[75.363,63.103],[75.7,63.086],[75.804,63.109],[76.235,63.015],[76.297,62.945],[76.689,63.034],[76.823,62.987],[77.022,62.971],[77.155,62.787],[77.326,62.706],[77.885,62.553],[78.015,62.456],[78.379,62.563],[78.793,62.61],[79.821,62.599],[79.907,62.699],[79.92,62.789],[80.555,62.996],[80.592,63.079],[81.109,63.11],[81.171,62.969],[81.316,62.881],[81.337,62.821],[81.596,62.769],[81.633,62.73],[81.783,62.684],[82.165,62.804],[82.316,62.765],[82.746,62.749],[82.755,62.666],[83.006,62.591],[83.032,62.525],[83.282,62.456],[83.798,62.555],[83.938,62.48],[84.017,62.392],[84.24,62.368],[84.286,62.272],[84.39,62.236],[84.444,62.17],[84.487,62.096],[84.516,61.925],[84.684,61.801],[85.096,61.747],[85.277,61.669],[85.403,61.682],[85.491,61.613],[85.712,61.568],[85.843,61.588],[85.956,61.541],[85.962,61.455],[86.129,61.374],[86.211,61.374],[86.327,61.452],[86.507,61.406],[86.523,61.349],[86.603,61.311],[86.775,61.317],[86.976,61.36],[86.989,61.411],[86.95,61.447],[87.003,61.46],[87.254,61.376],[87.245,61.354],[87.467,61.339],[87.474,61.266],[87.564,61.209],[87.692,61.267],[87.713,61.296],[87.676,61.329],[87.778,61.362],[87.963,61.315],[88.182,61.346],[88.953,60.746],[89.867,60.807],[90.946,60.746],[91.965,60.751],[92.138,60.829],[92.136,60.89],[92.234,60.951],[92.227,60.98],[92.409,60.968],[92.474,60.997],[92.401,61.111],[92.467,61.195],[92.56,61.191],[92.757,61.087],[92.902,61.068],[92.891,61.095],[92.939,61.13],[92.818,61.216],[92.829,61.236],[92.632,61.304],[92.83,61.359],[92.93,61.332],[93.012,61.363],[93.151,61.321],[93.156,61.244],[93.343,61.1],[93.472,61.082],[93.568,61.104],[93.732,61.038],[93.918,61.058],[94.029,60.96],[94.252,61.12],[94.382,61.118],[94.546,61.174],[94.721,61.158],[95.113,61.089],[95.359,60.921],[95.402,60.816],[95.326,60.744],[95.48,60.706],[95.234,60.563],[95.227,60.499],[95.289,60.451],[95.267,60.423],[95.113,60.416],[95.022,60.37],[94.929,60.237],[95.011,60.196],[94.977,60.113],[95.081,60.049],[95.007,60.007],[95.02,59.966],[95.062,59.89],[95.173,59.803],[95.136,59.755],[95.241,59.637],[95.498,59.637],[95.593,59.575],[95.726,59.554],[95.783,59.606],[95.881,59.627],[95.954,59.628],[96.052,59.556],[96.239,59.626],[96.326,59.549],[96.29,59.505],[96.352,59.471],[96.452,59.473],[96.554,59.539],[96.784,59.549],[97.121,59.5],[97.224,59.535],[97.237,59.577],[97.204,59.615],[97.361,59.66],[97.457,59.73],[97.696,59.679],[98.052,59.723],[98.129,59.768],[98.337,59.723],[98.445,59.784],[98.606,59.762],[98.878,59.826],[98.935,59.767],[99.001,59.772],[99.102,59.841],[99.116,59.906],[99.409,60.029],[99.412,60.078],[99.649,60.116],[100.066,59.994],[100.097,59.959],[100.072,59.895],[100.315,59.841],[100.429,59.859],[100.553,59.788],[100.866,59.783],[101.025,59.714],[101.448,59.683],[101.472,59.725],[101.729,59.74],[101.79,59.712],[101.785,59.684],[102.016,59.637],[102.107,59.589],[102.443,59.647],[102.485,59.627],[102.456,59.614],[102.454,59.524],[102.525,59.498],[102.527,59.471],[102.639,59.449],[102.483,59.392],[102.517,59.26],[102.436,59.214],[102.484,59.181],[102.616,59.206],[102.82,59.187],[102.899,59.27],[103.014,59.312],[103.136,59.254],[103.212,59.251],[103.235,59.285],[103.333,59.268],[103.342,59.243],[103.21,59.232],[103.235,59.17],[103.309,59.131],[103.391,59.025],[103.555,58.993],[103.623,58.918],[103.896,58.917],[103.976,58.867],[103.944,58.835],[103.951,58.774],[103.884,58.754],[103.889,58.732],[103.97,58.723],[104.04,58.783],[104.19,58.771],[104.252,58.711],[104.376,58.722],[104.343,58.67],[104.466,58.604],[104.814,58.672],[104.899,58.748],[104.766,58.812],[104.792,58.861],[105.135,59.055],[105.277,59.063],[105.373,59.116],[105.314,59.161],[105.343,59.197],[105.307,59.249],[105.19,59.301],[105.241,59.445],[105.149,59.49],[104.976,59.473],[104.859,59.558],[104.886,59.608],[104.811,59.63],[104.813,59.673],[104.782,59.692],[104.889,59.76],[105.026,59.773],[105.018,59.83],[105.07,59.869],[105.372,59.834],[105.429,59.853],[105.466,59.826],[105.52,59.844],[105.437,59.902],[105.429,59.947],[105.51,60.0],[105.433,60.149],[105.512,60.23],[105.344,60.304],[105.231,60.28],[104.903,60.305],[104.854,60.352],[104.669,60.411],[104.649,60.522],[104.585,60.544],[104.575,60.591],[104.514,60.627],[104.614,60.726],[104.582,60.773],[104.492,60.807],[104.486,60.843],[104.638,60.903],[104.586,60.946],[104.648,61.036],[104.631,61.074],[104.697,61.083],[104.856,61.186],[105.049,61.175],[104.953,61.32],[104.826,61.354],[105.01,61.407],[105.283,61.419],[105.284,61.466],[105.378,61.54],[105.587,61.586],[105.669,61.65],[105.814,61.625],[105.896,61.681],[105.982,61.686],[105.903,61.841],[106.276,62.018],[106.399,62.039],[106.417,62.099],[106.393,62.14],[106.454,62.196],[106.47,62.261],[106.381,62.284],[106.487,62.337],[106.445,62.393],[106.548,62.392],[106.634,62.46],[106.759,62.493],[106.689,62.564],[106.8,62.627],[106.478,62.703],[106.516,62.728],[106.516,62.794],[106.453,62.818],[106.438,62.868],[106.205,62.928],[106.193,62.973],[106.153,62.982],[106.175,63.008],[106.127,63.077],[106.4,63.122],[106.398,63.182],[106.443,63.218],[106.356,63.256],[106.422,63.353],[106.622,63.312],[106.741,63.395],[106.503,63.537],[106.524,63.563],[106.602,63.558],[106.593,63.598],[106.66,63.622],[106.694,63.661],[106.612,63.722],[106.795,63.87],[106.73,63.912],[106.733,63.939],[106.629,63.974],[106.631,64.005],[106.675,64.037],[106.97,63.966],[107.043,63.922],[107.197,63.977],[107.303,63.973],[107.371,63.931],[107.339,63.904],[107.416,63.889],[107.454,63.917],[107.585,63.897],[107.632,63.93],[107.632,63.975],[107.761,64.015],[108.206,63.999],[108.315,64.006],[108.394,64.048],[108.248,64.255],[108.086,64.252],[108.049,64.192],[107.978,64.187],[107.642,64.316],[107.353,64.269],[107.274,64.303],[107.258,64.35],[107.105,64.359],[106.917,64.443],[106.738,64.429],[106.656,64.533],[106.58,64.548],[106.547,64.526],[106.576,64.481],[106.553,64.465],[106.256,64.452],[106.181,64.421],[106.094,64.432],[106.138,64.488],[106.025,64.546],[105.906,64.495],[105.763,64.497],[105.79,64.553],[105.717,64.591],[105.756,64.642],[105.7,64.679],[105.873,64.672],[105.829,64.781],[105.872,64.832],[105.992,64.828],[105.935,64.902],[106.033,64.913],[106.027,64.88],[106.058,64.865],[106.212,64.871],[105.959,65.037],[106.111,65.065],[106.194,65.128],[106.312,65.14],[106.411,65.222],[106.528,65.215],[106.436,65.251],[106.449,65.314],[106.615,65.39],[106.819,65.373],[106.973,65.506],[106.71,65.545],[106.705,65.607],[106.435,65.674],[106.464,65.733],[106.439,65.771],[106.495,65.797],[106.47,65.824],[106.498,65.883],[106.469,65.922],[106.522,66.003],[106.34,66.158],[106.202,66.154],[106.12,66.194],[106.141,66.249],[106.119,66.37],[106.335,66.47],[106.318,66.542],[106.391,66.489],[106.52,66.498],[106.762,66.424],[106.895,66.432],[106.921,66.48],[107.07,66.536],[107.24,66.456],[107.5,66.447],[107.603,66.491],[107.839,66.483],[107.885,66.451],[107.966,66.463],[107.982,66.416],[108.043,66.413],[108.106,66.44],[108.11,66.529],[108.387,66.642],[108.389,66.672],[108.27,66.714],[108.776,66.757],[108.803,66.806],[108.876,66.822],[108.982,66.753],[108.865,66.677],[108.864,66.639],[109.021,66.585],[109.201,66.607],[109.253,66.51],[109.232,66.465],[109.369,66.426],[109.386,66.347],[109.276,66.313],[109.28,66.255],[109.353,66.234],[109.349,66.148],[109.453,66.146],[109.519,66.19],[109.672,66.194],[109.815,66.261],[109.958,66.262],[110.143,66.339],[110.375,66.367],[110.33,66.448],[110.52,66.461],[110.768,66.548],[111.103,66.559],[111.235,66.598],[111.36,66.567],[111.579,66.64],[112.115,66.661],[112.208,66.609],[112.695,66.615],[112.759,66.569],[112.883,66.559],[112.942,66.488],[113.12,66.436],[113.185,66.382],[113.266,66.224],[113.314,66.21],[113.274,66.104],[113.452,66.032],[113.486,65.927],[113.403,65.894],[113.3,65.924],[113.054,65.925],[112.931,65.871],[112.869,65.784],[112.767,65.762],[112.67,65.677],[112.61,65.663],[112.621,65.607],[112.536,65.62],[112.478,65.569],[112.309,65.542],[112.33,65.49],[112.793,65.46],[112.749,65.366],[112.808,65.353],[112.78,65.273],[112.63,65.305],[112.532,65.268],[112.53,65.228],[112.576,65.188],[112.555,65.1],[112.66,65.044],[112.896,65.102],[113.039,65.081],[113.033,65.04],[113.11,64.979],[113.368,64.956],[113.409,64.83],[113.964,64.822],[114.063,64.745],[114.049,64.655],[114.124,64.633],[114.088,64.59],[114.131,64.561],[114.365,64.597],[114.443,64.67],[114.583,64.7],[114.605,64.628],[114.674,64.656],[114.683,64.706],[114.803,64.676],[114.816,64.697],[114.764,64.712],[114.747,64.754],[114.805,64.731],[114.849,64.76],[114.726,64.785],[114.748,64.823],[114.845,64.831],[114.826,64.874],[114.956,64.926],[115.416,64.95],[115.412,64.985],[115.264,65.018],[115.351,65.034],[115.348,65.065],[115.576,65.043],[115.564,65.097],[115.858,65.084],[115.902,65.156],[116.054,65.1],[116.097,65.111],[116.136,65.07],[116.338,65.099],[116.556,65.086],[116.542,65.057],[116.409,65.031],[116.497,65.0],[116.669,65.071],[116.708,65.061],[116.697,65.093],[116.729,65.114],[116.792,65.086],[116.798,65.116],[116.859,65.128],[116.859,65.171],[117.003,65.174],[116.991,65.205],[117.095,65.266],[117.256,65.281],[117.253,65.307],[117.314,65.326],[117.307,65.364],[117.368,65.374],[117.386,65.425],[117.421,65.428],[117.408,65.488],[117.368,65.513],[117.675,65.649],[117.687,65.705],[117.806,65.741],[117.835,65.795],[118.069,65.786],[118.018,65.836],[118.063,65.901],[118.042,65.976],[118.391,66.106],[118.376,66.176],[118.199,66.238],[118.1,66.32],[118.14,66.378],[118.298,66.414],[118.329,66.455],[118.393,66.434],[118.602,66.494],[118.715,66.487],[118.849,66.432],[118.832,66.463],[118.877,66.495],[119.076,66.537],[119.271,66.634],[119.152,66.707],[119.159,66.743],[119.059,66.839],[119.044,66.95],[119.116,66.911],[119.659,66.84],[119.98,66.703],[119.998,66.665],[120.054,66.665],[120.057,66.599],[120.195,66.55],[120.174,66.516],[120.222,66.485],[120.339,66.471],[120.33,66.425],[120.374,66.404],[120.343,66.352],[120.498,66.327],[120.503,66.244],[120.555,66.219],[120.478,66.14],[120.508,66.018],[120.589,65.949],[120.448,65.813],[120.49,65.762],[120.473,65.682],[120.575,65.646],[120.699,65.649],[120.698,65.617],[120.79,65.58],[120.905,65.587],[120.93,65.551],[121.033,65.536],[121.063,65.472],[121.105,65.455],[121.085,65.429],[121.128,65.403],[121.137,65.352],[121.232,65.335],[121.217,65.263],[121.516,65.226],[121.83,65.092],[122.31,64.975],[122.595,64.975],[122.744,64.866],[122.873,64.823],[123.005,64.879],[123.064,64.873],[123.382,64.744],[123.629,64.765],[123.922,64.721],[124.172,64.762],[124.22,64.856],[124.273,64.888],[124.479,64.931],[124.544,64.915],[124.609,64.961],[124.776,64.966],[124.851,65.028],[125.0,65.028],[124.946,65.089],[125.001,65.101],[125.042,65.223],[125.138,65.299],[125.276,65.328],[125.293,65.361],[125.786,65.328],[125.802,65.38],[125.985,65.443],[126.159,65.471],[126.303,65.475],[126.355,65.445],[126.519,65.46],[126.529,65.514],[126.631,65.585],[126.821,65.56],[127.019,65.613],[127.069,65.736],[127.052,65.78],[127.154,65.829],[127.307,65.774],[127.39,65.857],[127.387,65.953],[127.584,65.954],[127.61,65.998],[127.594,66.042],[127.469,66.046],[127.374,66.111],[127.256,66.056],[127.152,66.082],[127.137,66.148],[126.988,66.147],[127.007,66.164],[126.976,66.312],[127.017,66.401],[127.183,66.485],[127.188,66.535],[127.351,66.592],[127.312,66.625],[127.325,66.652],[127.419,66.663],[127.537,66.612],[127.677,66.622],[127.812,66.555],[128.022,66.534],[128.045,66.48],[128.254,66.469],[128.391,66.5],[128.396,66.535],[128.454,66.559],[128.399,66.603],[128.521,66.657],[128.61,66.636],[128.617,66.604],[128.724,66.553],[129.164,66.546],[129.382,66.497],[129.462,66.523],[129.412,66.593],[129.753,66.489],[129.899,66.493],[130.02,66.541],[130.12,66.472],[130.054,66.421],[130.051,66.383],[130.102,66.321],[130.109,66.215],[130.435,66.203],[130.544,66.08],[130.848,65.971],[131.138,65.939],[131.134,65.881],[131.264,65.789],[131.353,65.795],[131.411,65.692],[131.707,65.699],[131.644,65.608],[131.652,65.567],[131.48,65.454],[131.527,65.44],[131.537,65.399],[131.606,65.39],[131.683,65.301],[131.843,65.296],[131.994,65.216],[132.128,65.061],[132.168,64.964],[132.264,64.927],[132.27,64.855],[132.354,64.801],[132.354,64.731],[132.278,64.663],[132.409,64.61],[132.612,64.645],[132.618,64.612],[132.741,64.588],[132.878,64.626],[132.873,64.686],[132.971,64.707],[133.004,64.744],[132.961,64.8],[133.012,64.844],[132.918,64.929],[132.959,64.991],[132.947,65.031],[132.992,65.065],[132.974,65.125],[133.021,65.174],[133.193,65.232],[133.224,65.275],[133.482,65.279],[133.632,65.212],[133.883,65.199],[133.946,65.227],[133.999,65.304],[134.147,65.323],[134.322,65.411],[134.469,65.37],[134.494,65.403],[134.47,65.433],[134.52,65.502],[134.671,65.554],[134.715,65.595],[134.698,65.644],[134.741,65.645],[134.763,65.689],[134.832,65.692],[134.865,65.764],[135.079,65.759],[135.374,65.802],[135.438,65.85],[135.437,65.892],[135.487,65.904],[135.741,65.889],[135.752,65.958],[135.843,65.972],[135.862,66.003],[136.015,66.006],[136.109,66.087],[136.233,66.117],[136.273,66.156],[136.437,66.195],[136.708,66.203],[136.855,66.193],[136.878,66.157],[136.95,66.153],[137.008,66.11],[137.276,66.097],[137.315,66.05],[137.523,66.054],[137.709,65.967],[138.017,65.962],[138.11,65.997],[138.224,65.936],[138.379,65.93],[139.26,66.018],[139.526,65.967],[139.827,65.845],[139.987,65.832],[140.178,65.875],[140.392,65.795],[140.292,65.704],[140.217,65.684],[140.19,65.628],[140.367,65.549],[140.508,65.559],[140.669,65.523],[140.724,65.557],[140.98,65.538],[141.053,65.566],[141.148,65.509],[141.329,65.485],[141.345,65.458],[141.418,65.471],[141.453,65.443],[141.842,65.462],[141.879,65.399],[142.085,65.391],[142.101,65.36],[142.905,65.312],[142.976,65.252],[142.988,65.167],[143.353,65.152],[143.533,65.112],[143.534,65.066],[143.661,65.07],[143.79,65.029],[143.898,65.051],[144.039,65.019],[144.248,65.024],[144.351,64.886],[144.529,64.862],[144.688,64.772],[144.658,64.72],[144.53,64.654],[144.705,64.607],[144.782,64.554],[144.921,64.569],[144.991,64.531],[145.139,64.538],[145.291,64.439],[145.491,64.451],[145.667,64.409],[145.739,64.435],[145.863,64.397],[145.878,64.344],[146.046,64.285],[146.153,64.195],[146.473,64.191],[147.006,64.129],[147.219,64.037],[147.361,64.056],[147.391,64.091],[147.372,64.118],[147.637,64.171],[147.724,64.115],[147.648,64.069],[147.668,64.007],[147.772,64.005],[147.773,63.962],[147.819,63.942],[147.892,63.965],[148.018,63.931],[148.089,64.001],[148.181,64.02],[148.173,64.097],[148.267,64.149],[148.269,64.197],[148.319,64.22],[148.223,64.275],[148.262,64.298],[148.237,64.327],[148.089,64.381],[148.07,64.413],[148.227,64.438],[148.331,64.524],[148.509,64.502],[148.551,64.447],[148.704,64.398],[149.164,64.421],[149.194,64.377],[149.34,64.372],[149.372,64.378],[149.363,64.415],[149.504,64.401],[149.589,64.47],[149.777,64.544],[149.935,64.549],[149.993,64.492],[150.135,64.464],[150.012,64.352],[150.09,64.278],[150.197,64.26],[150.192,64.224],[150.236,64.207],[150.376,64.21],[150.552,64.161],[150.666,64.174],[150.679,64.271],[150.603,64.304],[150.641,64.332],[151.252,64.339],[151.324,64.367],[151.406,64.325],[151.495,64.421],[151.968,64.484],[152.065,64.447],[152.14,64.347],[152.449,64.39],[152.44,64.47],[152.377,64.526],[152.728,64.62],[152.852,64.7],[152.751,64.779],[152.589,64.817],[152.53,64.914],[152.528,64.985],[152.634,65.057],[152.668,65.167],[152.719,65.179],[152.729,65.218],[152.799,65.202],[152.933,65.25],[153.154,65.239],[153.202,65.296],[153.441,65.353],[153.503,65.342],[153.595,65.407],[153.451,65.481],[153.545,65.634],[153.52,65.661],[153.585,65.697],[153.552,65.741],[153.497,65.75],[153.538,65.806],[153.753,65.865],[153.957,65.868],[154.087,65.843],[154.106,65.772],[154.268,65.801],[154.415,65.919],[154.396,65.974],[154.435,65.995],[154.247,66.056],[154.302,66.098],[154.368,66.1],[154.398,66.178],[154.521,66.215],[154.838,66.164],[154.894,66.104],[155.077,66.123],[155.075,66.158],[155.173,66.178],[155.261,66.177],[155.398,66.12],[155.53,66.139],[155.649,66.116],[155.75,66.156],[156.06,66.041],[156.145,66.065],[156.433,66.029],[156.675,66.183],[157.013,66.007],[156.958,65.953],[157.083,65.91],[157.336,65.887],[157.451,65.907],[157.463,65.94],[157.417,65.967],[157.436,65.99],[157.657,66.029],[157.742,66.094],[158.189,66.137],[158.283,66.096],[158.509,66.091],[158.434,66.21],[158.443,66.258],[158.552,66.352],[158.605,66.353],[158.774,66.279],[159.194,66.207],[159.19,66.154],[159.049,66.052],[158.987,65.94],[158.924,65.898],[158.932,65.817],[158.885,65.785],[158.92,65.738],[159.377,65.653],[159.833,65.524],[160.027,65.51],[160.169,65.445],[160.165,65.38],[160.206,65.344],[160.414,65.248],[160.518,65.161],[161.01,65.165],[161.347,65.118],[161.415,65.064],[161.687,64.989],[161.781,64.835],[161.866,64.808],[162.292,64.737],[162.554,64.742],[162.734,64.656],[162.997,64.644],[163.121,64.69],[163.142,64.77],[163.121,64.797],[163.347,64.814],[163.508,64.924],[163.873,64.86],[164.023,64.87],[164.188,64.929],[164.794,64.767],[164.881,64.681],[165.022,64.691],[165.033,64.838],[165.263,64.846],[165.358,64.756],[165.684,64.748],[165.738,64.718],[165.741,64.674],[165.867,64.618],[165.814,64.585],[165.87,64.55],[166.058,64.557],[166.199,64.604],[166.807,64.528],[167.009,64.546],[167.235,64.618],[167.37,64.49],[167.504,64.472],[167.713,64.336],[167.813,64.346],[168.025,64.281],[168.153,64.286],[168.224,64.341],[168.496,64.313],[168.623,64.21],[168.769,64.183],[168.764,64.146],[168.858,64.022],[169.111,63.948],[169.342,63.942],[169.368,63.87],[169.54,63.814],[169.548,63.698],[169.587,63.659],[169.51,63.633],[169.49,63.574],[169.203,63.52],[168.785,63.304],[168.777,63.248],[168.684,63.245],[168.704,63.196],[168.595,63.19],[168.46,63.075],[168.925,62.939],[169.124,62.968],[169.514,62.809],[169.655,62.704],[169.841,62.651],[170.053,62.663],[169.982,62.543],[170.084,62.485],[170.037,62.443],[170.27,62.277],[170.421,62.309],[170.859,62.244],[170.906,62.275],[171.08,62.285],[171.049,62.337],[171.218,62.363],[171.258,62.321],[171.359,62.351],[171.377,62.319],[171.486,62.307],[171.858,62.377],[171.871,62.408],[172.054,62.461],[172.205,62.446],[172.294,62.398],[172.486,62.435],[172.701,62.398],[172.853,62.327],[172.905,62.388],[173.172,62.39],[173.218,62.432],[173.505,62.529],[173.687,62.529],[173.796,62.511],[173.871,62.436],[174.075,62.441],[174.088,62.345],[174.005,62.278],[174.105,62.186],[174.103,62.076],[174.227,62.061],[174.327,62.088],[174.344,62.041],[174.458,61.983],[174.446,61.911],[174.504,61.877],[174.474,61.869],[174.477,61.868],[173.835,61.644],[173.52,61.723],[173.507,61.556],[173.319,61.523],[173.171,61.394],[172.79,61.439],[172.739,61.401],[172.97,61.284],[172.65,61.166],[172.374,61.22],[172.431,61.122],[172.241,61.131],[172.472,61.072],[172.423,61.012],[172.01,61.087],[172.215,60.948],[172.074,60.838],[172.007,60.887],[171.71,60.833],[171.634,60.719],[171.395,60.614],[170.643,60.41],[170.691,60.313],[170.525,60.255],[170.427,59.971],[170.323,59.931],[169.957,60.073],[169.668,60.425],[169.231,60.548],[168.476,60.597],[167.797,60.531],[167.787,60.47],[167.228,60.339],[167.067,60.404],[167.118,60.409],[167.003,60.415],[167.074,60.307],[166.787,60.227],[166.861,60.214],[166.286,59.81],[166.09,59.812],[166.209,60.128],[166.314,60.196],[166.285,60.244],[166.291,60.321],[166.253,60.368],[166.259,60.396],[166.389,60.408],[166.268,60.473],[165.228,60.087],[165.171,60.143],[165.027,60.101],[165.166,60.079],[165.215,59.986],[164.836,59.782],[164.716,59.996],[164.49,60.1],[164.342,60.089],[164.344,59.994],[164.143,59.935],[164.2,59.853],[164.067,59.894],[164.214,59.991],[163.647,60.01],[163.696,59.956],[163.835,59.992],[163.691,59.877],[163.434,59.837],[163.37,59.731],[163.416,59.622],[163.361,59.592],[163.278,59.591],[163.192,59.561],[163.214,59.567],[163.205,59.559],[163.19,59.528],[163.189,59.514],[163.194,59.51],[163.212,59.532],[163.275,59.555],[163.206,59.486],[163.332,59.404],[163.345,59.356],[163.342,59.273],[163.071,59.22],[163.23,59.139],[163.251,59.086],[163.225,59.04],[163.107,59.132],[162.904,59.113],[163.072,58.992],[162.411,58.657],[162.133,58.37],[161.989,58.087],[162.137,57.847],[162.483,57.773],[162.468,57.768],[162.446,57.777],[162.398,57.774],[162.45,57.741],[162.34,57.673],[162.355,57.662],[162.53,57.751],[162.552,57.929],[162.698,57.95],[163.212,57.819],[163.322,57.725],[163.097,57.484],[162.782,57.351],[162.853,57.031],[162.777,56.781],[162.933,56.693],[163.232,56.742],[163.25,56.443],[163.362,56.184],[163.054,56.006],[162.817,56.062],[162.619,56.227],[162.077,56.08],[161.788,55.638],[161.741,55.385],[161.863,55.085],[162.155,54.853],[162.14,54.753],[161.715,54.505],[161.288,54.48],[161.071,54.593],[160.719,54.528],[159.985,54.109],[160.037,54.163],[159.993,54.161],[159.841,53.76],[159.956,53.495],[159.838,53.434],[159.974,53.327],[159.903,53.256],[159.947,53.211],[159.963,53.252],[160.022,53.263],[160.036,53.098],[159.743,53.205],[159.814,53.276],[159.711,53.218],[159.576,53.252],[159.091,53.108],[158.713,52.887],[158.611,53.051],[158.42,53.017],[158.43,52.894],[158.646,52.898],[158.481,52.77],[158.602,52.694],[158.549,52.627],[158.388,52.65],[158.526,52.528],[158.397,52.408],[158.561,52.418],[158.483,52.344],[158.549,52.291],[158.393,52.227],[158.273,51.963],[157.911,51.629],[157.563,51.501],[157.472,51.359],[156.669,50.866],[156.76,51.074],[156.715,51.199],[156.534,51.322],[156.443,52.225],[156.147,52.848],[155.558,55.199],[155.651,55.966],[155.99,56.682],[156.472,56.957],[156.553,57.102],[156.737,57.076],[157.0,57.436],[156.907,57.67],[156.773,57.725],[156.855,57.802],[157.006,57.855],[157.349,57.771],[157.526,57.822],[157.678,58.016],[157.984,57.98],[158.332,58.075],[159.084,58.432],[159.713,58.851],[159.719,58.978],[159.858,59.127],[160.394,59.387],[160.496,59.556],[160.897,59.628],[161.493,60.043],[161.919,60.208],[161.951,60.423],[162.705,60.608],[162.891,60.752],[163.73,60.872],[163.768,60.92],[163.487,61.007],[163.937,61.223],[164.029,61.35],[163.751,61.469],[163.872,61.652],[164.054,61.684],[164.136,62.254],[164.531,62.44],[165.021,62.402],[165.091,62.487],[164.72,62.575],[164.616,62.68],[164.44,62.694],[163.275,62.527],[163.172,62.429],[163.373,62.334],[163.086,62.22],[163.104,62.083],[163.196,62.059],[162.966,61.809],[163.075,61.761],[163.065,61.701],[163.055,61.646],[163.032,61.518],[162.853,61.603],[162.942,61.644],[162.834,61.715],[162.616,61.665],[162.749,61.628],[162.754,61.591],[162.389,61.663],[162.008,61.383],[161.876,61.429],[161.897,61.339],[161.815,61.373],[161.784,61.301],[161.543,61.253],[161.581,61.188],[160.911,60.898],[160.79,60.717],[160.686,60.772],[160.407,60.702],[160.44,60.747],[160.426,60.759],[160.168,60.575],[160.145,60.655],[160.255,60.713],[160.175,60.827],[160.387,60.906],[160.336,60.93],[160.443,61.036],[159.788,60.933],[160.005,61.107],[159.938,61.245],[159.768,61.239],[159.966,61.264],[159.881,61.321],[160.084,61.378],[160.107,61.441],[160.035,61.454],[160.279,61.554],[160.323,61.664],[160.254,61.692],[160.41,61.762],[160.365,61.939],[160.03,61.846],[159.896,61.711],[159.696,61.73],[159.576,61.652],[159.512,61.708],[159.572,61.817],[159.471,61.764],[159.351,61.817],[159.396,61.877],[159.03,61.923],[158.886,61.905],[158.829,61.817],[158.272,61.826],[158.041,61.729],[157.499,61.79],[157.339,61.678],[157.038,61.649],[156.899,61.539],[156.672,61.519],[156.657,61.203],[155.929,60.929],[155.988,60.909],[155.906,60.709],[155.811,60.728],[155.435,60.512],[154.935,60.353],[154.638,60.153],[154.485,59.932],[154.585,60.105],[154.411,60.066],[154.48,59.886],[154.209,59.878],[154.229,59.733],[154.374,59.577],[154.228,59.665],[154.072,59.519],[154.126,59.458],[154.303,59.439],[154.393,59.536],[154.414,59.421],[154.534,59.42],[154.413,59.551],[154.972,59.496],[155.079,59.332],[155.108,59.325],[155.098,59.313],[155.098,59.302],[155.182,59.174],[154.834,59.197],[154.807,59.128],[154.334,59.209],[154.355,59.109],[154.041,59.047],[153.685,59.185],[153.785,59.246],[153.638,59.19],[153.388,59.248],[153.279,59.132],[153.342,59.091],[153.009,59.063],[152.907,58.907],[152.548,58.952],[152.354,59.061],[152.395,59.008],[152.172,58.987],[152.067,58.887],[151.345,58.837],[151.102,59.106],[152.081,59.145],[152.322,59.23],[152.141,59.305],[151.738,59.3],[151.771,59.356],[151.668,59.454],[151.409,59.605],[150.915,59.566],[150.939,59.455],[150.761,59.433],[150.754,59.488],[150.5,59.485],[150.772,59.563],[150.576,59.543],[150.458,59.617],[149.597,59.758],[149.045,59.616],[149.227,59.463],[148.934,59.452],[148.875,59.551],[148.716,59.458],[148.74,59.36],[148.984,59.377],[148.929,59.234],[148.417,59.254],[148.402,59.376],[148.242,59.409],[147.878,59.385],[147.786,59.343],[147.848,59.302],[147.796,59.262],[147.638,59.308],[147.543,59.236],[146.507,59.465],[146.312,59.402],[146.308,59.286],[146.246,59.277],[146.054,59.251],[146.038,59.215],[146.005,59.141],[145.827,59.246],[145.971,59.404],[145.803,59.366],[145.698,59.427],[143.255,59.361],[142.488,59.208],[141.924,58.941],[141.672,58.753],[141.79,58.855],[141.591,58.728],[141.512,58.656],[141.536,58.666],[141.625,58.718],[141.384,58.539],[140.657,58.265],[140.665,58.274],[140.587,58.239],[140.177,57.806],[140.117,57.743],[139.797,57.585],[139.775,57.551],[139.772,57.548],[139.731,57.552],[139.505,57.44],[139.49,57.414],[139.474,57.399],[139.443,57.385],[139.435,57.382],[139.431,57.38],[139.399,57.365],[139.392,57.367],[139.357,57.363],[139.301,57.339],[138.867,57.125],[138.853,57.116],[138.812,57.091],[138.814,57.091],[138.816,57.091],[138.347,56.78],[138.355,56.796],[138.363,56.805],[138.379,56.824],[138.346,56.804],[138.293,56.765],[138.321,56.776],[138.338,56.774],[138.203,56.685],[138.211,56.703],[138.236,56.719],[138.239,56.725],[138.157,56.665],[138.174,56.666],[138.057,56.588],[138.06,56.594],[137.282,56.022],[137.273,56.019],[137.255,56.009],[137.243,56.0],[137.242,56.0],[137.238,55.997],[137.218,55.977],[137.202,55.969],[137.173,55.959],[137.164,55.954],[137.123,55.941],[137.098,55.922],[137.075,55.914],[137.05,55.899],[137.026,55.875],[136.99,55.855],[136.964,55.853],[136.928,55.839],[136.541,55.583],[136.197,55.422],[136.202,55.435],[136.244,55.472],[136.248,55.473],[136.257,55.492],[135.511,55.142],[135.63,55.176],[135.651,55.178],[135.674,55.176],[135.19,54.95],[135.215,54.966],[135.22,54.975],[135.242,54.984],[135.248,54.994],[135.254,55.0],[135.255,55.0],[135.279,55.013],[135.316,55.04],[135.331,55.048],[135.407,55.074],[135.407,55.076],[135.443,55.11],[135.269,55.029],[134.985,54.854],[134.894,54.72],[134.902,54.559],[134.965,54.505],[131.221,54.505],[131.199,54.604],[131.389,54.711],[131.534,54.718],[131.618,54.776],[131.766,54.792],[131.816,54.846],[131.979,54.888],[131.999,54.922],[131.969,54.989],[132.063,55.04],[132.387,55.059],[132.408,55.087],[132.353,55.152],[132.365,55.189],[132.629,55.208],[132.693,55.274],[132.662,55.33],[132.682,55.36],[132.762,55.341],[132.948,55.381],[132.757,55.427],[132.628,55.508],[132.667,55.563],[132.542,55.679],[132.401,55.708],[132.224,55.708],[132.123,55.65],[131.952,55.662],[131.804,55.62],[131.618,55.658],[131.568,55.618],[131.437,55.651],[131.34,55.622],[131.19,55.646],[131.106,55.621],[130.743,55.724],[130.6,55.728],[130.391,56.054],[129.207,56.867],[128.837,56.646],[128.171,56.72],[126.915,56.498],[126.543,56.498],[124.916,56.202],[124.546,56.276],[124.101,56.276],[123.828,56.403],[123.293,56.428],[123.047,56.497],[122.888,56.6],[122.8,56.581],[122.774,56.502],[122.594,56.494],[122.469,56.606],[122.285,56.655],[122.161,56.743],[121.604,56.75],[121.62,56.79],[121.532,56.858],[121.515,56.926],[121.408,56.98],[121.079,56.986],[121.021,57.036],[120.889,57.046],[120.285,57.005],[120.031,56.904],[119.897,56.894],[119.665,56.771],[119.785,56.695],[119.859,56.684],[119.805,56.595],[119.958,56.489],[120.267,56.452],[120.258,56.391],[120.401,56.35],[120.402,56.304],[120.535,56.274],[120.52,56.237],[120.235,56.204],[120.058,56.142],[120.051,56.075],[120.158,55.981],[120.136,55.9],[120.181,55.869],[120.281,55.913],[120.402,55.86],[120.888,56.005],[121.206,56.01],[121.272,55.941],[121.274,55.859],[121.345,55.806],[121.297,55.732],[121.36,55.503],[121.439,55.476],[121.549,55.499],[121.636,55.53],[121.69,55.593],[121.77,55.61],[121.885,55.597],[121.976,55.475],[121.934,55.214],[122.007,55.179],[121.928,55.123],[121.941,54.998],[121.667,54.83],[121.647,54.74],[121.695,54.719],[121.889,54.793],[121.919,54.712],[121.88,54.66],[121.93,54.619],[121.92,54.572],[122.123,54.464],[122.131,54.432],[121.904,54.375],[121.816,54.441],[121.71,54.419],[121.65,54.355],[121.745,54.275],[121.724,54.223],[121.746,54.152],[121.651,54.133],[121.629,54.082],[121.64,54.008],[121.799,53.96],[121.919,53.823],[121.921,53.721],[121.964,53.693],[121.942,53.604],[122.012,53.517],[122.019,53.436],[121.641,53.385],[121.513,53.33],[121.341,53.324],[121.204,53.277],[120.846,53.273],[120.278,52.865],[120.033,52.761],[120.052,52.694],[120.03,52.639],[120.079,52.59],[120.454,52.638],[120.718,52.543],[120.626,52.347],[120.756,52.239],[120.782,52.16],[120.775,52.116],[120.697,52.049],[120.71,51.991],[120.648,51.912],[120.493,51.876],[120.167,51.67],[120.1,51.66],[120.052,51.552],[119.977,51.487],[119.954,51.4],[119.895,51.384],[119.912,51.331],[119.82,51.275],[119.81,51.217],[119.762,51.215],[119.781,51.173],[119.742,51.074],[119.518,50.905],[119.495,50.736],[119.294,50.599],[119.244,50.446],[119.138,50.393],[119.175,50.356],[119.354,50.343],[119.344,50.142],[119.303,50.081],[119.189,50.007],[119.093,49.987],[118.644,49.955],[118.521,49.894],[118.476,49.836],[118.394,49.82],[118.188,49.682],[117.837,49.509],[117.473,49.614],[117.254,49.622],[117.057,49.673],[116.721,49.803],[116.577,49.926],[116.219,50.019],[116.052,50.003],[115.717,49.883],[115.389,49.896],[115.211,49.977],[115.0,50.149],[114.756,50.241],[114.472,50.239],[114.286,50.282],[113.971,50.165],[113.849,50.086],[113.751,50.083],[113.456,49.962],[113.179,49.806],[113.083,49.69],[113.055,49.6],[112.777,49.506],[112.473,49.539],[112.03,49.417],[111.66,49.401],[111.476,49.348],[111.337,49.37],[110.841,49.167],[110.687,49.14],[110.372,49.247],[110.181,49.167],[109.729,49.271],[109.516,49.261],[109.453,49.311],[109.287,49.344],[108.541,49.332],[108.34,49.439],[108.239,49.537],[108.106,49.559],[108.019,49.607],[108.019,49.66],[107.937,49.675],[107.961,49.745],[107.949,49.938],[107.193,50.011],[107.062,50.077],[106.976,50.201],[106.657,50.332],[106.226,50.297],[106.06,50.339],[105.986,50.405],[105.328,50.481],[105.106,50.395],[104.901,50.395],[104.608,50.319],[104.404,50.305],[104.121,50.153],[103.785,50.191],[103.606,50.138],[103.439,50.198],[103.305,50.196],[103.204,50.302],[102.927,50.308],[102.62,50.404],[102.473,50.53],[102.308,50.567],[102.28,50.644],[102.334,50.721],[102.22,50.805],[102.235,50.98],[102.151,51.102],[102.141,51.238],[102.198,51.309],[102.077,51.379],[101.527,51.481],[101.353,51.455],[101.243,51.52],[101.118,51.533],[100.512,51.732],[99.921,51.754],[99.711,51.885],[99.325,51.939],[99.235,51.999],[98.999,52.062],[98.935,52.196],[98.82,52.197],[98.801,52.279],[98.714,52.298],[98.652,52.266],[98.682,52.37],[98.642,52.421],[98.718,52.454],[98.733,52.501],[98.809,52.51],[98.831,52.542],[98.805,52.602],[98.942,52.671],[98.942,52.8],[98.87,52.799],[98.861,52.844],[98.951,52.923],[99.224,52.859],[99.253,52.958],[98.993,53.043],[99.058,53.108],[98.938,53.154],[98.862,53.13],[98.687,53.16],[98.605,53.11],[98.317,53.105],[98.291,53.228],[98.032,53.258],[97.978,53.295],[97.959,53.363],[97.611,53.377],[97.589,53.442],[97.452,53.467],[97.336,53.599],[97.129,53.618],[96.874,53.734],[96.715,53.703],[96.652,53.559],[96.563,53.539],[96.443,53.519],[96.367,53.563],[96.375,53.604],[96.295,53.589],[96.301,53.616],[96.251,53.621],[96.184,53.521],[96.111,53.494],[96.093,53.456],[95.756,53.525],[95.395,53.377],[95.306,53.4],[95.293,53.449],[95.246,53.462],[95.051,53.382],[94.976,53.41],[94.739,53.388],[94.592,53.32],[94.588,53.288],[94.672,53.276],[94.693,53.239],[94.6,53.179],[94.597,53.047],[94.507,52.914],[94.304,52.909],[94.146,52.846],[94.133,52.763],[94.067,52.671],[93.98,52.637],[93.978,52.582],[93.761,52.443],[93.76,52.368],[93.683,52.298],[93.668,52.224],[93.358,52.134],[93.227,52.041],[93.131,52.017],[93.07,51.949],[92.899,51.9],[92.853,51.839],[92.672,51.845],[92.506,51.787],[92.209,51.811],[92.104,51.788],[91.948,51.809],[91.885,51.861],[91.628,51.872],[91.558,51.905],[91.238,51.888],[91.101,51.948],[90.851,51.914],[90.738,52.074],[90.563,52.125],[90.493,52.187],[90.35,52.197],[90.127,52.139],[90.114,52.047],[90.023,51.987],[90.097,51.756],[89.963,51.766],[89.684,51.573],[89.58,51.558],[89.42,51.61],[89.258,51.554],[89.221,51.573],[89.238,51.646],[89.206,51.663],[89.032,51.605],[88.734,51.564],[88.653,51.53],[88.693,51.397],[88.444,51.29],[88.317,51.349],[88.163,51.356],[88.144,51.433],[87.939,51.48],[87.873,51.553],[87.677,51.536],[87.733,51.389],[87.551,51.369],[87.521,51.247],[87.124,51.226],[87.205,51.043],[87.311,50.919],[87.358,50.917],[87.368,50.846],[87.421,50.806],[87.423,50.737],[87.493,50.646],[87.433,50.509],[87.338,50.443],[87.4,50.377],[87.106,50.334],[87.069,50.288],[87.105,50.241],[86.975,50.295],[86.779,50.203],[86.719,50.243],[86.664,50.199],[86.708,50.09],[86.616,50.022],[86.658,49.889],[86.618,49.886],[86.585,49.806],[86.767,49.786],[86.748,49.742],[86.769,49.703],[86.697,49.689],[86.593,49.607],[86.628,49.561],[86.815,49.544],[86.844,49.504],[86.829,49.449],[86.931,49.41],[86.922,49.347],[86.991,49.285],[85.844,48.414],[85.747,48.39],[85.603,48.232],[85.382,48.148],[83.132,48.282],[84.267,49.205],[81.479,50.291],[78.65,50.807],[74.921,54.149],[72.992,55.307],[64.687,54.272],[64.456,53.58],[63.039,51.178],[62.258,51.065],[62.154,51.115],[62.033,51.072],[61.963,51.133],[61.929,51.242],[61.876,51.3],[61.645,51.268],[61.53,51.209],[61.424,50.839],[61.369,50.787],[60.718,50.658],[60.3,50.69],[60.179,50.747],[60.139,50.849],[60.02,50.859],[59.958,50.833],[59.91,50.748],[59.908,50.674],[59.811,50.566],[59.522,50.481],[59.457,50.531],[59.562,50.549],[59.568,50.582],[59.44,50.636],[59.276,50.621],[59.199,50.668],[58.926,50.683],[58.813,50.731],[58.75,50.8],[58.663,50.797],[58.645,50.867],[58.555,50.896],[58.607,50.98],[58.599,51.027],[58.522,51.067],[58.385,51.074],[58.31,51.155],[58.221,51.127],[58.164,51.06],[58.078,51.103],[57.961,51.083],[57.767,51.124],[57.73,51.075],[57.718,50.913],[57.555,50.924],[57.467,50.864],[57.337,50.902],[57.292,50.985],[57.202,51.022],[57.156,51.105],[56.866,51.057],[56.715,51.077],[56.676,51.051],[56.686,50.974],[56.601,50.988],[56.478,51.078],[56.417,51.036],[56.424,50.976],[56.347,50.952],[56.314,50.89],[56.155,50.909],[56.073,50.727],[55.66,50.536],[55.47,50.662],[55.308,50.669],[55.089,50.799],[55.05,50.889],[54.896,50.917],[54.814,50.977],[54.638,51.033],[54.531,51.007],[54.537,50.954],[54.498,50.928],[54.635,50.88],[54.634,50.706],[54.671,50.606],[54.591,50.547],[54.499,50.529],[54.386,50.618],[54.426,50.765],[54.49,50.823],[54.482,50.857],[54.278,50.91],[54.154,50.992],[54.115,51.1],[54.022,51.123],[53.938,51.19],[53.674,51.226],[53.598,51.295],[53.614,51.392],[53.409,51.489],[53.165,51.52],[53.14,51.492],[53.036,51.495],[52.943,51.459],[52.78,51.513],[52.673,51.464],[52.545,51.465],[52.482,51.509],[52.308,51.779],[52.257,51.729],[52.146,51.721],[52.088,51.663],[51.867,51.678],[51.76,51.596],[51.776,51.497],[51.694,51.459],[51.649,51.458],[51.585,51.54],[51.461,51.48],[51.31,51.476],[51.249,51.534],[51.376,51.567],[51.375,51.634],[51.234,51.69],[50.926,51.685],[50.842,51.75],[50.767,51.764],[50.742,51.708],[50.784,51.599],[50.677,51.572],[50.697,51.615],[50.579,51.639],[50.57,51.592],[50.521,51.567],[50.521,51.471],[50.356,51.417],[50.323,51.308],[49.985,51.235],[49.776,51.107],[49.435,51.117],[49.343,50.965],[49.417,50.883],[49.367,50.831],[49.142,50.786],[48.83,50.601],[48.565,50.64],[48.57,50.613],[48.668,50.577],[48.696,50.334],[48.783,50.175],[48.778,50.11],[48.87,50.066],[48.877,50.018],[48.78,49.937],[48.429,49.816],[48.243,49.87],[48.146,49.968],[48.078,50.109],[47.811,50.324],[47.6,50.458],[47.467,50.416],[47.391,50.329],[47.29,50.278],[47.314,50.237],[47.26,50.186],[47.323,50.105],[47.307,50.05],[47.174,49.951],[46.956,49.889],[46.895,49.822],[46.77,49.331],[46.978,49.239],[47.034,49.149],[46.929,49.01],[46.75,48.917],[46.474,48.408],[47.095,48.261],[47.07,48.205],[47.111,48.156],[47.099,48.099],[47.182,48.069],[47.039,47.987],[47.15,47.875],[47.119,47.806],[47.357,47.679],[47.388,47.704],[47.413,47.83],[47.649,47.761],[48.043,47.765],[48.172,47.708],[48.408,47.442],[48.523,47.404],[48.693,47.098],[48.995,46.771],[48.914,46.707],[48.766,46.688],[48.679,46.763],[48.555,46.767],[48.451,46.658],[48.527,46.633],[48.538,46.563],[48.705,46.545],[49.145,46.357],[49.144,46.353],[49.198,46.334],[49.339,46.187],[49.243,46.162],[49.318,46.068],[49.252,46.102],[49.233,46.0],[49.028,46.118],[49.0,45.951],[48.929,45.979],[48.857,45.841],[48.754,45.899],[48.716,45.814],[48.705,45.827],[48.695,45.839],[48.694,45.84],[48.686,45.85],[48.673,45.88],[48.68,45.901],[48.598,45.953],[48.305,45.77],[48.223,45.753],[48.226,45.747],[48.245,45.755],[48.27,45.753],[48.279,45.749],[48.313,45.758],[48.243,45.71],[48.183,45.716],[48.189,45.722],[48.193,45.724],[48.195,45.729],[48.162,45.742],[48.142,45.739],[48.145,45.736],[48.151,45.719],[48.061,45.727],[48.007,45.632],[47.856,45.699],[47.909,45.477],[47.731,45.631],[47.775,45.406],[47.722,45.598],[47.633,45.653],[47.648,45.46],[47.457,45.354],[47.43,45.124],[47.388,45.187],[47.262,44.927],[47.201,44.937],[47.258,44.838],[47.179,44.718],[47.052,44.798],[46.984,44.747],[47.081,44.665],[46.835,44.63],[46.912,44.492],[46.738,44.503],[46.903,44.468],[47.114,44.222],[47.234,44.218],[47.528,43.819],[47.499,43.772],[47.486,43.771],[47.44,43.718],[47.462,43.691],[47.413,43.63],[47.397,43.693],[47.271,43.816],[46.918,43.82],[46.871,43.769],[46.777,43.78],[46.572,43.736],[46.68,43.818],[46.591,43.877],[46.463,43.886],[46.469,43.958],[46.441,44.008],[46.319,44.015],[46.328,43.973],[46.243,43.946],[46.215,43.866],[46.094,43.865],[46.058,43.826],[46.024,43.874],[46.063,43.882],[46.074,43.935],[45.832,43.983],[45.724,43.958],[45.492,44.017],[45.503,44.176],[45.11,44.193],[45.144,44.25],[45.375,44.286],[45.433,44.424],[45.388,44.455],[45.225,44.493],[44.753,44.44],[43.883,44.813],[43.448,46.005],[43.367,46.024],[43.263,46.103],[42.994,46.179],[42.909,46.241],[42.836,46.202],[42.832,46.154],[42.517,45.99],[42.323,45.976],[42.326,46.126],[42.177,46.099],[42.157,45.96],[42.112,45.929],[42.036,45.965],[41.719,45.998],[41.652,46.156],[41.703,46.203],[41.864,46.139],[41.89,46.171],[41.967,46.174],[41.966,46.207],[41.927,46.216],[41.971,46.29],[42.206,46.317],[42.173,46.386],[42.093,46.414],[42.057,46.508],[42.061,46.54],[42.122,46.55],[42.393,46.507],[42.572,46.388],[42.679,46.363],[42.952,46.426],[43.338,46.162],[43.633,46.171],[43.755,46.359],[43.743,46.4],[43.871,46.316],[43.843,46.288],[43.865,46.266],[43.962,46.315],[43.977,46.359],[43.92,46.431],[43.935,46.538],[43.824,46.581],[43.886,46.62],[43.919,46.713],[44.037,46.761],[44.087,46.829],[44.159,46.819],[44.252,46.886],[44.329,47.141],[44.317,47.479],[44.24,47.485],[44.237,47.553],[44.131,47.548],[44.123,47.419],[43.961,47.404],[43.924,47.264],[43.801,47.276],[43.792,47.358],[43.674,47.55],[43.72,47.713],[43.948,47.749],[44.083,47.893],[44.359,47.847],[44.396,47.887],[44.429,48.044],[44.332,48.048],[44.329,48.156],[44.126,48.153],[43.995,48.093],[43.909,48.096],[43.959,48.122],[43.957,48.168],[43.863,48.201],[43.977,48.358],[43.976,48.41],[44.021,48.452],[44.057,48.436],[44.199,48.497],[44.174,48.539],[44.23,48.579],[44.162,48.579],[44.119,48.632],[43.942,48.684],[43.949,48.728],[43.882,48.764],[43.896,48.791],[43.786,48.893],[43.795,48.929],[43.719,48.951],[43.752,48.967],[43.744,48.994],[43.62,49.021],[43.631,49.089],[43.407,49.178],[43.392,49.293],[43.55,49.466],[43.617,49.475],[43.637,49.531],[43.779,49.524],[43.789,49.574],[43.894,49.572],[43.886,49.628],[43.965,49.598],[43.997,49.646],[44.103,49.649],[44.164,49.712],[44.153,49.77],[44.276,49.827],[44.15,49.91],[44.261,50.027],[44.195,50.069],[44.2,50.106],[44.001,50.13],[44.009,50.187],[43.943,50.226],[43.833,50.215],[43.846,50.183],[43.806,50.149],[43.692,50.159],[43.694,50.084],[43.589,50.048],[43.533,49.903],[43.44,49.909],[43.371,49.834],[43.31,49.83],[43.177,49.891],[42.988,49.854],[42.906,49.911],[42.896,49.989],[42.669,50.104],[42.743,50.167],[42.71,50.186],[42.718,50.231],[42.763,50.222],[42.787,50.261],[42.865,50.249],[42.934,50.343],[43.025,50.283],[43.203,50.358],[43.298,50.302],[43.336,50.352],[43.453,50.377],[43.417,50.449],[43.376,50.441],[43.328,50.498],[43.235,50.524],[43.024,50.505],[43.02,50.536],[42.961,50.558],[42.952,50.643],[42.828,50.691],[42.903,50.731],[42.905,50.764],[42.843,50.813],[42.888,50.844],[42.875,50.883],[42.981,50.955],[43.126,50.974],[43.169,51.104],[42.857,51.25],[42.686,51.246],[42.553,51.15],[42.174,51.141],[41.927,51.199],[41.816,51.122],[41.758,51.017],[41.471,50.956],[41.424,50.918],[41.413,50.843],[41.165,50.78],[41.343,50.708],[41.445,50.602],[41.527,50.584],[41.416,50.499],[41.514,50.361],[41.383,50.212],[41.349,50.219],[41.284,50.165],[41.369,50.124],[41.377,50.086],[41.08,49.949],[41.037,49.807],[40.919,49.706],[40.635,49.678],[40.537,49.583],[40.158,49.647],[40.13,49.617],[40.153,49.57],[40.036,49.525],[40.025,49.453],[40.189,49.343],[40.182,49.28],[40.209,49.253],[40.028,49.184],[39.929,49.063],[39.668,49.042],[39.661,48.997],[39.746,48.977],[39.825,48.882],[39.994,48.863],[40.042,48.909],[40.069,48.874],[39.974,48.8],[39.797,48.847],[39.656,48.611],[39.686,48.582],[39.845,48.565],[39.841,48.473],[39.931,48.36],[39.844,48.337],[39.836,48.307],[39.916,48.265],[39.986,48.309],[40.012,48.26],[39.998,48.229],[39.94,48.233],[39.863,48.084],[39.829,48.069],[39.842,48.046],[39.761,48.035],[39.259,48.437],[37.885,49.186],[37.383,48.811],[36.792,48.59],[36.74,48.631],[36.596,48.608],[36.481,48.668],[36.416,48.638],[36.359,48.544],[36.287,48.542],[36.324,48.587],[36.266,48.62],[36.285,48.664],[36.156,48.724],[36.163,48.787],[36.035,48.854],[36.048,48.918],[35.937,49.004],[35.807,48.945],[35.801,48.881],[35.633,48.886],[35.672,48.741],[35.521,48.602],[35.543,48.543],[35.329,48.513],[35.36,48.458],[35.319,48.433],[35.302,48.496],[35.169,48.586],[35.187,48.644],[35.221,48.655],[35.17,48.667],[35.165,48.736],[35.068,48.76],[35.004,48.701],[34.947,48.75],[34.96,48.797],[34.927,48.792],[34.892,48.839],[34.839,48.827],[34.797,48.765],[34.741,48.866],[34.793,48.915],[34.675,49.102],[34.589,49.117],[34.549,49.061],[34.402,49.099],[34.404,49.058],[34.321,49.0],[34.341,48.98],[34.295,48.895],[34.333,48.856],[34.293,48.823],[34.3,48.745],[34.141,48.783],[34.122,48.827],[33.895,48.907],[33.841,48.777],[33.716,48.819],[33.58,48.801],[33.617,48.723],[33.798,48.672],[33.667,48.593],[33.607,48.604],[33.61,48.569],[33.468,48.547],[33.482,48.402],[33.456,48.352],[33.51,48.322],[33.536,48.236],[33.421,48.174],[33.289,48.154],[33.288,48.108],[33.275,48.157],[33.211,48.175],[33.225,48.132],[33.177,48.118],[33.181,48.093],[33.035,48.038],[32.99,47.987],[33.0,47.91],[33.079,47.893],[33.05,47.832],[33.064,47.746],[32.968,47.726],[32.989,47.624],[32.955,47.592],[33.084,47.591],[33.091,47.524],[33.138,47.532],[33.129,47.426],[33.078,47.421],[33.069,47.48],[33.024,47.422],[33.037,47.375],[33.119,47.378],[33.1,47.279],[33.16,47.245],[33.123,47.21],[33.07,47.228],[33.027,47.186],[32.959,47.194],[32.902,47.122],[32.914,47.083],[33.027,47.035],[33.077,47.059],[33.105,47.128],[33.143,47.114],[33.018,46.975],[33.055,46.914],[33.003,46.907],[33.007,46.871],[32.973,46.861],[32.983,46.827],[33.02,46.825],[33.038,46.744],[32.69,46.663],[32.43,46.551],[32.445,46.547],[32.447,46.545],[32.302,46.496],[32.274,46.585],[32.141,46.557],[31.935,46.747],[32.025,46.928],[31.878,47.009],[31.881,47.012],[31.883,47.013],[31.87,47.013],[31.907,47.099],[31.842,47.126],[31.831,47.19],[31.752,47.222],[31.781,47.287],[31.722,47.335],[31.529,47.395],[31.406,47.534],[31.193,47.6],[31.276,47.676],[31.193,47.721],[31.181,47.816],[31.13,47.833],[31.022,47.992],[30.82,48.077],[30.819,48.175],[30.87,48.196],[30.863,48.299],[30.903,48.345],[30.851,48.382],[30.845,48.442],[30.751,48.494],[30.82,48.707],[30.844,48.742],[30.932,48.757],[31.113,48.723],[31.245,48.755],[31.386,48.723],[31.531,48.8],[31.604,48.889],[31.807,48.938],[31.921,48.881],[32.494,49.001],[32.522,48.939],[32.648,48.954],[32.688,48.987],[32.792,48.971],[32.848,49.004],[32.813,49.061],[32.879,49.087],[33.077,49.096],[33.23,49.063],[33.037,49.206],[32.576,49.272],[32.027,49.495],[31.936,49.56],[31.809,49.583],[31.78,49.635],[31.633,49.654],[31.515,49.743],[31.514,49.846],[31.432,49.915],[31.439,49.997],[31.342,50.0],[31.252,49.945],[31.12,49.984],[30.489,50.051],[30.461,50.21],[30.39,50.262],[30.478,50.335],[30.472,50.364],[30.334,50.38],[30.219,50.338],[30.394,50.714],[30.459,50.759],[30.547,51.257],[30.619,51.282],[30.614,51.321],[30.661,51.343],[30.626,51.432],[30.589,51.44],[30.628,51.467],[30.577,51.511],[30.589,51.549],[30.54,51.56],[30.541,51.616],[30.584,51.643],[30.573,51.699],[30.629,51.71],[30.71,51.862],[30.807,51.895],[30.82,51.943],[30.872,51.967],[30.81,51.953],[30.813,51.99],[30.782,51.998],[30.803,52.032],[30.733,52.052],[30.717,52.137],[30.624,52.167],[30.598,52.23],[30.552,52.241],[30.576,52.275],[30.54,52.299],[30.574,52.326],[30.493,52.327],[30.4,52.379],[30.382,52.445],[30.285,52.498],[30.212,52.592],[30.143,52.569],[30.111,52.675],[29.986,52.677],[29.958,52.765],[29.911,52.769],[29.771,52.654],[29.764,52.698],[29.873,52.749],[29.839,52.865],[29.858,52.91],[29.791,52.971],[29.797,53.001],[29.862,53.019],[29.766,53.035],[29.737,53.09],[29.702,53.092],[29.746,53.116],[29.693,53.174],[29.592,53.194],[29.595,53.226],[29.664,53.228],[29.67,53.299],[29.642,53.328],[29.666,53.37],[29.648,53.432],[29.568,53.466],[29.615,53.537],[29.69,53.539],[29.725,53.576],[29.708,53.608],[29.742,53.653],[29.737,53.714],[29.587,53.773],[29.622,53.802],[29.711,53.789],[29.661,53.824],[29.68,53.863],[29.466,53.882],[29.487,53.935],[29.583,53.967],[29.615,54.062],[29.497,54.141],[29.481,54.248],[29.363,54.24],[29.309,54.269],[29.103,54.246],[29.103,54.314],[28.933,54.403],[28.943,54.442],[29.017,54.465],[29.021,54.53],[28.998,54.591],[28.937,54.613],[28.897,54.788],[29.454,55.056],[29.218,55.262],[29.138,55.259],[29.002,55.355],[29.032,55.401],[29.015,55.428],[28.748,55.489],[28.589,55.568],[28.485,55.532],[28.166,55.582],[28.087,55.664],[27.932,55.717],[27.928,55.811],[27.886,55.832],[27.693,55.796],[27.431,55.799],[27.281,55.866],[27.183,55.865],[27.152,55.902],[26.942,55.876],[26.922,55.924],[26.754,55.885],[26.698,55.927],[26.611,55.867],[26.508,55.872],[26.361,56.014],[26.32,56.173],[26.186,56.235],[26.208,56.27],[26.156,56.384],[26.05,56.456],[25.849,56.517],[26.268,56.556],[26.309,56.593],[26.131,56.654],[26.038,56.627],[25.983,56.666],[25.932,56.641],[25.936,56.682],[25.833,56.716],[25.843,56.789],[25.766,56.828],[25.694,56.771],[25.505,56.813],[25.268,56.745],[25.294,56.718],[25.276,56.697],[25.029,56.727],[25.05,56.702],[25.001,56.611],[24.909,56.644],[24.863,56.705],[24.448,56.847],[24.328,56.845],[24.134,56.774],[23.772,56.81],[23.64,56.895],[23.55,56.896],[23.508,56.936],[23.533,56.923],[23.549,56.918],[23.607,56.907],[23.617,56.906],[23.403,57.038],[23.659,56.963],[24.408,57.262],[24.333,57.829],[24.479,58.068],[24.469,58.246],[24.587,58.313],[24.314,58.382],[24.291,58.364],[24.292,58.329],[24.265,58.285],[24.271,58.278],[24.268,58.272],[24.119,58.228],[24.011,58.32],[23.839,58.359],[23.746,58.341]]],[[[57.996,75.296],[57.719,75.349],[57.73,75.423],[57.554,75.475],[58.491,75.595],[57.98,75.626],[58.834,75.722],[58.734,75.8],[58.876,75.846],[60.412,75.957],[60.039,76.034],[60.496,76.114],[60.782,76.1],[60.479,75.996],[61.081,76.017],[61.082,76.085],[61.225,76.125],[60.906,76.148],[61.152,76.273],[62.403,76.253],[62.347,76.176],[62.544,76.155],[62.77,76.261],[63.052,76.186],[63.72,76.329],[63.978,76.333],[64.119,76.254],[64.535,76.38],[64.843,76.339],[64.699,76.39],[64.969,76.476],[65.261,76.434],[65.486,76.551],[66.091,76.476],[66.006,76.603],[65.822,76.651],[66.04,76.738],[66.379,76.706],[66.227,76.763],[67.571,76.991],[68.58,76.955],[68.501,76.93],[68.833,76.868],[68.759,76.841],[69.09,76.703],[68.795,76.575],[68.957,76.537],[68.195,76.294],[68.306,76.249],[65.991,75.984],[63.792,75.612],[63.811,75.652],[63.705,75.704],[63.587,75.715],[63.686,75.69],[62.311,75.419],[61.904,75.466],[61.854,75.432],[61.949,75.387],[61.817,75.32],[61.734,75.36],[61.463,75.207],[61.382,75.211],[61.412,75.313],[61.29,75.309],[61.349,75.281],[61.091,75.172],[60.79,75.141],[60.741,75.014],[60.588,75.035],[60.594,75.089],[60.639,75.097],[60.628,75.102],[60.317,75.089],[60.485,75.048],[59.908,74.983],[60.629,74.909],[60.527,74.843],[60.161,74.847],[60.307,74.777],[60.207,74.726],[59.656,74.719],[59.626,74.749],[59.492,74.788],[59.45,74.785],[59.575,74.719],[59.837,74.663],[59.862,74.607],[59.762,74.572],[59.14,74.735],[59.09,74.699],[59.269,74.618],[59.138,74.614],[59.122,74.526],[58.785,74.584],[59.113,74.52],[59.061,74.468],[59.123,74.45],[59.134,74.424],[58.211,74.554],[58.591,74.448],[58.531,74.412],[58.413,74.439],[58.354,74.439],[58.315,74.427],[58.611,74.381],[58.721,74.249],[58.634,74.235],[58.731,74.214],[58.531,74.221],[58.638,74.201],[58.471,74.199],[58.584,74.161],[58.506,74.144],[58.277,74.184],[58.279,74.15],[58.537,74.119],[58.141,74.117],[58.192,74.077],[58.115,74.034],[58.231,73.995],[57.71,74.044],[57.395,74.207],[57.338,74.204],[57.542,74.08],[57.251,74.067],[57.521,74.066],[57.784,73.954],[57.864,73.9],[57.762,73.879],[57.881,73.767],[57.648,73.713],[57.43,73.829],[56.705,73.878],[56.625,73.864],[57.293,73.811],[57.619,73.629],[57.234,73.552],[56.951,73.591],[56.792,73.679],[56.684,73.688],[56.888,73.599],[56.75,73.579],[57.24,73.454],[56.904,73.301],[56.765,73.341],[56.734,73.236],[56.12,73.259],[56.025,73.308],[56.046,73.374],[55.933,73.426],[55.963,73.295],[55.774,73.336],[54.955,73.44],[54.287,73.316],[54.067,73.357],[54.487,73.462],[54.233,73.482],[54.389,73.557],[55.399,73.709],[54.562,73.691],[54.236,73.596],[53.673,73.75],[54.009,73.778],[54.322,73.914],[54.846,73.953],[54.577,73.997],[55.034,74.158],[56.078,74.035],[55.61,74.176],[55.109,74.249],[55.754,74.276],[55.677,74.341],[55.297,74.35],[55.378,74.41],[55.505,74.403],[56.259,74.46],[55.567,74.544],[55.824,74.671],[55.95,74.63],[56.409,74.702],[56.568,74.643],[56.654,74.671],[56.736,74.645],[56.946,74.672],[55.826,74.784],[56.446,74.887],[56.256,74.926],[56.466,75.013],[56.421,75.037],[56.039,75.0],[56.083,75.049],[56.103,75.071],[56.157,75.132],[56.292,75.158],[56.385,75.037],[56.587,75.058],[56.75,75.194],[57.076,75.216],[56.704,75.298],[57.035,75.38],[57.996,75.296]]],[[[52.318,71.529],[52.314,71.563],[52.297,71.571],[52.261,71.568],[52.193,71.529],[52.301,71.461],[51.632,71.53],[51.434,71.84],[51.564,72.061],[51.822,72.151],[52.046,72.049],[52.224,72.13],[52.175,72.069],[52.527,72.026],[52.504,72.035],[52.464,72.04],[52.463,72.046],[52.453,72.046],[52.467,72.07],[52.398,72.098],[52.442,72.123],[52.441,72.168],[52.467,72.118],[52.562,72.131],[52.526,72.175],[52.431,72.212],[52.551,72.186],[52.456,72.275],[52.628,72.24],[52.599,72.29],[52.725,72.314],[52.575,72.364],[52.761,72.325],[52.705,72.427],[52.849,72.431],[52.71,72.443],[52.719,72.474],[52.901,72.496],[52.98,72.573],[53.32,72.549],[53.117,72.591],[52.98,72.588],[52.727,72.54],[52.846,72.611],[52.748,72.629],[52.976,72.662],[52.403,72.717],[52.614,72.852],[52.954,72.908],[53.298,72.865],[53.524,72.854],[53.628,72.889],[53.085,72.949],[53.415,72.996],[53.154,73.09],[53.423,73.23],[54.248,73.258],[54.916,73.424],[55.435,73.313],[55.803,73.319],[56.566,73.138],[55.819,73.057],[56.434,73.033],[56.315,72.986],[55.546,72.942],[56.275,72.947],[56.12,72.779],[55.342,72.762],[55.843,72.738],[55.922,72.65],[55.668,72.655],[55.695,72.595],[55.598,72.523],[55.494,72.559],[55.298,72.569],[55.563,72.508],[55.302,72.441],[55.479,72.435],[55.469,72.334],[55.362,72.287],[55.576,72.173],[55.408,72.098],[55.46,72.056],[55.363,71.98],[55.433,71.934],[55.275,71.943],[55.524,71.882],[55.655,71.626],[56.214,71.185],[57.613,70.708],[57.468,70.659],[57.476,70.592],[57.358,70.607],[57.433,70.587],[57.037,70.655],[56.763,70.672],[57.321,70.542],[56.547,70.655],[56.691,70.612],[56.608,70.618],[56.505,70.66],[56.623,70.718],[56.516,70.741],[56.22,70.738],[56.325,70.691],[56.193,70.699],[56.321,70.652],[56.159,70.651],[56.226,70.633],[55.794,70.665],[56.032,70.557],[55.884,70.567],[55.83,70.606],[55.745,70.593],[55.611,70.633],[55.746,70.6],[55.568,70.677],[55.763,70.611],[55.861,70.613],[55.611,70.724],[55.81,70.616],[55.436,70.733],[55.354,70.685],[55.099,70.765],[54.906,70.762],[55.358,70.679],[55.401,70.687],[55.481,70.633],[55.27,70.681],[55.206,70.657],[55.293,70.562],[55.168,70.545],[54.54,70.782],[54.431,70.735],[54.791,70.636],[54.306,70.763],[54.047,70.724],[53.906,70.815],[53.881,70.803],[53.851,70.802],[53.846,70.797],[53.925,70.778],[53.899,70.76],[53.872,70.761],[53.424,70.842],[53.575,70.881],[53.752,70.811],[53.683,70.878],[53.777,70.935],[53.51,71.087],[53.963,71.015],[53.906,71.073],[54.175,71.07],[54.266,71.095],[54.011,71.137],[54.225,71.147],[54.103,71.212],[53.805,71.19],[53.838,71.134],[53.516,71.217],[53.464,71.257],[53.547,71.254],[53.552,71.277],[53.341,71.325],[53.287,71.438],[53.496,71.528],[53.46,71.537],[53.493,71.554],[53.472,71.573],[53.238,71.499],[53.16,71.408],[53.096,71.484],[53.042,71.491],[53.009,71.51],[52.999,71.511],[53.055,71.465],[52.935,71.472],[53.029,71.4],[52.927,71.411],[52.967,71.371],[52.91,71.382],[52.882,71.46],[52.78,71.464],[52.856,71.41],[52.651,71.48],[52.717,71.524],[52.583,71.598],[52.635,71.591],[52.554,71.652],[52.571,71.74],[52.531,71.764],[52.504,71.68],[52.536,71.565],[52.399,71.539],[52.458,71.462],[52.331,71.514],[52.309,71.53],[52.309,71.533],[52.313,71.533],[52.315,71.529],[52.318,71.529]]],[[[39.23,46.768],[39.236,46.715],[39.172,46.687],[39.167,46.626],[39.097,46.606],[38.871,46.638],[38.896,46.803],[38.933,46.841],[38.81,46.837],[38.687,46.832],[39.103,47.043],[39.3,47.025],[39.232,47.088],[39.243,47.262],[38.953,47.268],[38.865,47.173],[38.572,47.115],[38.482,47.141],[38.606,47.244],[38.828,47.269],[38.679,47.266],[38.597,47.246],[38.524,47.21],[38.477,47.144],[38.238,47.122],[38.276,47.192],[38.239,47.183],[38.24,47.228],[38.325,47.257],[38.336,47.306],[38.228,47.305],[38.223,47.333],[38.308,47.402],[38.725,47.396],[38.76,47.469],[39.056,47.456],[39.137,47.474],[39.142,47.512],[39.233,47.558],[39.307,47.549],[39.339,47.509],[39.223,47.432],[39.223,47.336],[39.229,47.334],[39.223,47.317],[39.298,47.271],[39.287,47.303],[39.261,47.314],[39.257,47.316],[39.311,47.315],[39.335,47.231],[39.449,47.177],[39.683,47.154],[39.662,47.119],[39.734,47.096],[39.744,47.036],[39.795,47.033],[39.792,47.0],[39.742,46.996],[39.768,46.934],[39.697,46.83],[39.721,46.79],[39.487,46.818],[39.263,46.794],[39.23,46.768]]],[[[46.416,43.995],[46.455,43.934],[46.445,43.873],[46.583,43.866],[46.648,43.795],[46.548,43.759],[46.448,43.657],[46.41,43.596],[46.428,43.54],[46.377,43.479],[46.233,43.426],[46.104,43.46],[45.987,43.426],[45.729,43.539],[45.5,43.562],[45.366,43.651],[45.267,43.626],[45.194,43.653],[45.182,43.698],[45.1,43.715],[45.081,43.692],[45.053,43.953],[45.192,43.958],[45.201,43.872],[45.438,43.871],[45.445,44.009],[45.728,43.947],[45.857,43.966],[46.042,43.926],[45.999,43.88],[46.041,43.816],[46.08,43.811],[46.106,43.854],[46.201,43.843],[46.253,43.877],[46.258,43.939],[46.363,43.94],[46.352,43.99],[46.416,43.995]]],[[[22.287,58.57],[22.539,58.642],[23.138,58.55],[23.067,58.62],[23.191,58.684],[23.397,58.574],[23.363,58.507],[23.165,58.569],[23.136,58.522],[23.29,58.487],[23.31,58.426],[23.238,58.459],[23.216,58.431],[23.158,58.478],[23.065,58.421],[23.089,58.379],[22.954,58.384],[22.926,58.302],[22.704,58.275],[22.723,58.211],[22.543,58.253],[22.271,58.19],[22.197,57.978],[22.018,57.92],[21.978,57.977],[22.225,58.139],[21.999,58.25],[21.831,58.28],[21.909,58.307],[21.861,58.353],[21.946,58.307],[22.023,58.366],[21.834,58.482],[21.838,58.502],[22.009,58.506],[22.109,58.418],[22.203,58.546],[22.293,58.487],[22.287,58.57]]],[[[155.648,50.377],[155.929,50.71],[156.156,50.741],[156.17,50.507],[156.042,50.466],[155.795,50.191],[155.616,50.185],[155.394,50.0],[155.393,50.0],[155.221,50.051],[155.209,50.291],[155.648,50.377]]],[[[22.766,58.803],[22.784,58.79],[22.826,58.822],[22.889,58.82],[22.521,58.691],[22.516,58.696],[22.487,58.702],[22.466,58.716],[22.398,58.889],[22.042,58.941],[22.396,58.937],[22.653,59.087],[22.707,59.009],[22.942,58.982],[22.941,58.942],[23.069,58.839],[22.961,58.849],[22.769,58.819],[22.755,58.813],[22.751,58.8],[22.766,58.803]]],[[[44.43,43.684],[44.328,43.678],[44.289,43.728],[44.291,43.808],[44.673,43.835],[44.793,43.816],[44.803,43.719],[44.843,43.707],[44.833,43.59],[44.767,43.625],[44.704,43.618],[44.691,43.567],[44.632,43.555],[44.631,43.614],[44.503,43.588],[44.483,43.401],[44.416,43.453],[44.475,43.583],[44.438,43.607],[44.43,43.684]]],[[[156.199,50.768],[156.484,50.87],[156.514,50.765],[156.336,50.631],[156.185,50.681],[156.199,50.768]]],[[[35.751,65.062],[35.743,65.039],[35.88,65.019],[35.926,65.052],[36.024,65.04],[35.729,64.967],[35.508,65.126],[35.658,65.13],[35.762,65.172],[35.84,65.138],[35.825,65.096],[35.84,65.049],[35.85,65.041],[35.864,65.039],[35.856,65.037],[35.814,65.052],[35.812,65.088],[35.799,65.093],[35.767,65.087],[35.769,65.065],[35.751,65.062]]],[[[51.839,47.218],[51.843,47.165],[51.957,47.155],[51.975,47.182],[52.011,47.16],[51.993,47.152],[51.989,47.15],[51.995,47.143],[52.035,47.168],[52.068,47.149],[51.879,47.03],[51.832,47.074],[51.846,47.098],[51.801,47.106],[51.827,47.164],[51.773,47.187],[51.839,47.218]]],[[[56.529,70.586],[56.494,70.572],[56.439,70.57],[56.405,70.569],[56.411,70.565],[56.356,70.572],[56.408,70.572],[56.162,70.631],[56.382,70.623],[56.445,70.633],[56.339,70.659],[56.432,70.666],[56.649,70.564],[56.583,70.576],[56.529,70.586]]],[[[31.762,46.488],[31.668,46.466],[31.712,46.427],[31.536,46.55],[31.522,46.563],[31.512,46.577],[31.512,46.581],[31.579,46.537],[32.038,46.485],[31.912,46.467],[31.888,46.464],[31.958,46.44],[31.762,46.488]]],[[[125.826,73.65],[125.883,73.651],[125.914,73.638],[125.754,73.53],[125.89,73.51],[125.857,73.49],[125.664,73.552],[125.826,73.65]]],[[[49.174,46.407],[49.295,46.4],[49.243,46.465],[49.356,46.389],[49.342,46.373],[49.269,46.289],[49.181,46.398],[49.192,46.398],[49.174,46.407]]],[[[155.479,50.916],[155.68,50.848],[155.659,50.807],[155.518,50.816],[155.479,50.916]]],[[[23.304,59.036],[23.313,59.026],[23.329,59.036],[23.388,58.992],[23.169,58.958],[23.188,59.055],[23.268,59.019],[23.304,59.036]]],[[[51.438,51.182],[51.402,51.2],[51.349,51.175],[51.36,51.2],[51.31,51.215],[51.464,51.302],[51.495,51.263],[51.466,51.252],[51.474,51.211],[51.422,51.212],[51.438,51.182]]]]}}]}