{"type":"FeatureCollection","features":[{"type":"Feature","properties":{"lite":true,"src":"data/years/1779-04-30.geojson"},"geometry":{"type":"MultiPolygon","coordinates":[[[[34.336,46.074],[34.06,46.112],[33.847,46.201],[33.717,46.201],[33.633,46.228],[33.598,46.326],[33.467,46.291],[33.449,46.358],[33.366,46.349],[33.356,46.395],[33.222,46.389],[33.214,46.418],[33.267,46.424],[33.254,46.487],[33.436,46.512],[33.415,46.612],[33.294,46.598],[33.277,46.662],[33.22,46.671],[33.166,46.667],[33.165,46.633],[33.107,46.655],[33.18,46.716],[33.098,46.767],[33.046,46.742],[33.022,46.836],[32.986,46.832],[32.977,46.86],[33.015,46.865],[33.006,46.903],[33.064,46.908],[33.031,46.975],[33.161,47.119],[33.103,47.141],[33.071,47.068],[33.027,47.048],[32.921,47.105],[32.979,47.182],[33.039,47.173],[33.189,47.238],[33.111,47.286],[33.142,47.333],[33.126,47.389],[33.036,47.415],[33.059,47.447],[33.07,47.408],[33.142,47.416],[33.129,47.505],[33.152,47.515],[33.144,47.549],[33.095,47.549],[33.098,47.601],[32.997,47.6],[33.026,47.643],[32.989,47.708],[33.092,47.73],[33.065,47.776],[33.091,47.885],[33.081,47.925],[33.037,47.922],[33.051,47.962],[32.991,48.053],[32.868,48.036],[32.881,48.0],[32.807,47.981],[32.686,47.987],[32.687,47.93],[32.647,47.923],[32.67,47.848],[32.644,47.823],[32.431,47.795],[32.234,47.825],[32.142,47.757],[32.056,47.822],[31.86,47.802],[31.862,47.86],[31.896,47.866],[31.881,47.922],[31.846,47.968],[31.749,47.979],[31.737,48.027],[31.788,48.041],[31.771,48.105],[31.698,48.099],[31.635,48.14],[31.538,48.112],[31.512,48.074],[31.488,48.134],[31.243,48.129],[31.138,48.234],[30.98,48.227],[30.977,48.19],[30.9,48.168],[30.717,48.201],[30.616,48.161],[30.367,48.18],[30.287,48.145],[30.051,48.155],[29.991,48.235],[29.928,48.238],[29.889,48.191],[29.774,48.208],[29.75,48.299],[29.786,48.369],[29.865,48.426],[30.041,48.477],[30.122,48.449],[30.163,48.498],[30.252,48.483],[30.389,48.523],[30.406,48.569],[30.452,48.578],[30.569,48.563],[30.575,48.608],[30.537,48.629],[30.602,48.66],[30.616,48.699],[30.591,48.715],[30.642,48.748],[30.814,48.763],[30.884,48.739],[30.952,48.765],[31.114,48.723],[31.244,48.762],[31.385,48.723],[31.562,48.825],[31.586,48.885],[31.691,48.892],[31.703,48.926],[31.805,48.95],[31.918,48.906],[31.921,48.88],[32.027,48.931],[32.129,48.913],[32.138,48.972],[32.283,49.085],[32.337,49.089],[32.38,49.043],[32.453,49.056],[32.522,48.939],[32.552,48.942],[32.539,48.967],[32.792,48.971],[32.848,49.004],[32.758,49.199],[31.514,49.702],[31.514,49.864],[31.492,49.842],[31.441,49.905],[31.354,49.9],[31.177,49.962],[30.516,49.962],[30.461,50.21],[30.39,50.257],[30.426,50.297],[30.407,50.313],[30.478,50.335],[30.472,50.363],[30.334,50.38],[30.216,50.34],[30.407,50.743],[30.342,51.394],[30.559,51.828],[30.707,51.859],[30.889,51.994],[30.941,51.994],[30.911,52.023],[30.934,52.07],[31.135,52.077],[31.229,52.038],[31.373,52.115],[31.305,52.986],[31.247,53.014],[31.343,53.117],[31.095,53.132],[31.106,53.197],[31.03,53.237],[30.991,53.304],[30.668,53.276],[30.481,53.317],[30.372,53.291],[30.379,53.262],[30.19,53.235],[30.146,53.286],[29.996,53.341],[29.911,53.323],[29.802,53.353],[29.754,53.316],[29.793,53.213],[29.74,53.207],[29.765,53.187],[29.732,53.15],[29.758,53.132],[29.653,53.129],[29.629,53.098],[29.663,53.06],[29.635,53.023],[29.741,52.975],[29.718,52.948],[29.544,52.956],[29.459,52.923],[29.396,52.949],[29.353,52.911],[29.182,52.949],[29.089,52.878],[28.974,52.873],[28.96,52.798],[28.796,52.763],[28.837,52.74],[28.823,52.717],[28.67,52.688],[28.469,52.68],[28.298,52.76],[28.492,52.933],[28.453,52.963],[28.493,53.015],[28.538,53.016],[28.523,53.149],[28.421,53.138],[28.381,53.197],[28.319,53.175],[28.229,53.193],[28.118,53.238],[28.089,53.286],[28.359,53.268],[28.449,53.295],[28.362,53.356],[28.401,53.393],[28.402,53.468],[28.454,53.511],[28.575,53.532],[28.547,53.545],[28.605,53.56],[28.617,53.614],[28.868,53.59],[28.894,53.525],[28.949,53.519],[28.947,53.577],[29.059,53.589],[29.061,53.639],[29.104,53.666],[29.21,53.654],[29.43,53.73],[29.4,53.751],[29.482,53.796],[29.36,53.822],[29.401,53.848],[29.357,53.849],[29.385,53.872],[29.356,53.885],[29.338,53.99],[29.421,54.059],[29.401,54.093],[29.463,54.186],[29.355,54.244],[29.41,54.306],[29.367,54.347],[29.485,54.606],[29.232,54.582],[29.212,54.638],[29.136,54.65],[29.042,54.61],[28.879,54.623],[28.885,54.575],[28.841,54.555],[28.812,54.58],[28.665,54.582],[28.65,54.653],[28.595,54.635],[28.566,54.661],[28.481,54.645],[28.394,54.55],[28.227,54.65],[27.909,54.614],[27.88,54.646],[27.756,54.639],[27.679,54.702],[27.675,54.747],[27.52,54.778],[27.523,54.809],[27.414,54.871],[27.319,54.874],[27.25,54.943],[27.281,54.977],[27.25,54.997],[27.106,55.002],[27.059,54.951],[26.897,54.975],[26.73,54.944],[26.68,54.97],[26.571,54.952],[26.383,54.983],[26.358,54.948],[26.27,54.93],[26.248,54.97],[26.17,54.993],[26.264,55.14],[26.601,55.121],[26.657,55.215],[26.801,55.273],[26.769,55.3],[26.45,55.327],[26.543,55.46],[26.532,55.516],[26.596,55.568],[26.595,55.667],[26.28,55.743],[26.179,55.85],[25.697,56.088],[25.662,56.141],[25.073,56.198],[24.892,56.439],[24.679,56.377],[24.447,56.261],[24.319,56.299],[24.139,56.257],[24.0,56.304],[24.0,57.038],[24.279,57.161],[24.401,57.258],[24.359,57.55],[24.375,57.613],[24.3,57.744],[24.286,57.833],[24.398,58.023],[24.464,58.072],[24.471,58.251],[24.56,58.312],[24.529,58.351],[24.362,58.397],[24.316,58.38],[24.243,58.28],[24.156,58.277],[24.112,58.241],[23.98,58.318],[23.834,58.354],[23.749,58.339],[23.677,58.435],[23.679,58.524],[23.584,58.545],[23.561,58.583],[23.501,58.562],[23.498,58.697],[23.547,58.71],[23.533,58.747],[23.803,58.731],[23.785,58.778],[23.874,58.772],[23.784,58.801],[23.429,58.765],[23.526,58.82],[23.422,58.929],[23.628,58.979],[23.622,59.015],[23.56,59.053],[23.614,59.011],[23.553,58.971],[23.408,59.026],[23.491,59.088],[23.518,59.073],[23.471,59.212],[23.642,59.257],[23.73,59.23],[23.724,59.265],[23.757,59.284],[24.039,59.293],[24.081,59.271],[24.1,59.295],[24.019,59.367],[24.035,59.389],[24.222,59.355],[24.163,59.402],[24.306,59.419],[24.334,59.471],[24.643,59.436],[24.622,59.471],[24.675,59.496],[24.773,59.45],[24.816,59.489],[24.773,59.56],[24.803,59.571],[24.934,59.508],[25.098,59.498],[25.146,59.539],[25.409,59.491],[25.416,59.527],[25.544,59.535],[25.497,59.571],[25.485,59.67],[25.677,59.566],[25.719,59.588],[25.671,59.656],[25.695,59.671],[25.781,59.636],[25.826,59.575],[25.883,59.631],[25.945,59.595],[25.989,59.634],[26.082,59.587],[26.28,59.587],[26.498,59.54],[26.665,59.552],[26.938,59.45],[27.409,59.452],[27.873,59.408],[27.983,59.447],[28.055,59.528],[28.073,59.578],[27.993,59.703],[28.007,59.758],[28.087,59.799],[28.185,59.759],[28.224,59.691],[28.375,59.666],[28.418,59.708],[28.428,59.813],[28.476,59.852],[28.536,59.86],[28.718,59.787],[28.833,59.787],[28.976,59.831],[29.034,59.887],[28.98,59.93],[29.161,60.003],[30.193,59.881],[30.235,59.991],[29.948,60.03],[29.891,60.101],[29.9,60.134],[29.849,60.167],[29.701,60.201],[29.418,60.169],[29.052,60.184],[28.86,60.295],[28.799,60.369],[28.746,60.342],[28.617,60.382],[28.439,60.56],[28.507,60.56],[28.544,60.51],[28.703,60.461],[28.661,60.535],[28.685,60.615],[28.645,60.67],[28.735,60.693],[28.69,60.738],[28.574,60.683],[28.401,60.665],[28.383,60.624],[28.322,60.621],[28.343,60.594],[28.286,60.598],[28.216,60.548],[27.9,60.528],[27.863,60.567],[27.794,60.533],[28.336,60.859],[28.615,60.962],[28.798,61.097],[29.13,61.213],[29.277,61.305],[29.491,61.239],[29.576,61.171],[29.87,61.176],[32.703,60.646],[32.885,60.699],[32.812,60.756],[32.808,60.826],[32.765,60.886],[32.593,60.998],[32.527,61.118],[31.899,61.324],[31.637,61.463],[31.604,61.423],[31.486,61.551],[31.365,61.627],[31.308,61.605],[31.258,61.641],[31.194,61.634],[31.123,62.804],[30.559,63.108],[30.603,65.147],[30.993,65.754],[30.603,66.665],[30.733,68.574],[31.331,69.663],[32.072,69.883],[32.076,69.815],[32.191,69.642],[32.352,69.514],[32.596,69.424],[33.281,69.342],[33.316,69.071],[33.628,69.215],[35.437,69.15],[37.246,68.793],[37.689,68.63],[38.406,68.243],[38.668,68.146],[39.918,67.94],[40.826,67.66],[40.973,67.534],[40.951,67.335],[41.017,67.202],[41.209,67.069],[41.255,66.937],[41.147,66.782],[40.918,66.619],[40.394,66.343],[40.099,66.241],[39.356,66.086],[38.561,66.005],[37.652,66.073],[37.262,66.181],[36.885,66.235],[36.403,66.245],[35.554,66.337],[35.363,66.371],[34.874,66.551],[34.805,66.563],[34.668,66.519],[34.32,66.594],[34.307,66.619],[33.79,66.666],[33.676,66.747],[33.652,66.705],[33.586,66.687],[33.437,66.702],[33.158,66.914],[32.627,67.083],[32.496,67.084],[32.582,67.038],[32.219,66.994],[32.425,66.891],[32.754,66.649],[32.971,66.583],[33.47,66.313],[33.844,66.182],[34.258,66.11],[34.544,66.001],[34.726,65.797],[34.726,65.615],[34.601,65.484],[34.293,65.396],[34.426,65.107],[34.773,64.682],[34.815,64.46],[34.885,64.367],[35.082,64.288],[36.015,64.197],[36.24,63.919],[36.421,63.876],[36.988,63.841],[37.411,63.749],[37.591,63.807],[37.945,63.85],[38.054,63.986],[38.054,64.129],[37.88,64.308],[37.769,64.335],[37.747,64.39],[37.596,64.328],[37.262,64.314],[37.044,64.39],[36.569,64.765],[36.884,65.068],[37.102,65.068],[37.604,64.853],[39.193,64.511],[39.622,64.476],[39.997,64.541],[40.322,64.463],[40.44,64.564],[40.462,64.75],[40.241,64.982],[39.979,65.153],[39.823,65.436],[39.951,65.581],[41.354,65.955],[41.623,66.065],[42.133,66.388],[42.211,66.41],[43.241,66.251],[43.876,66.011],[44.029,66.011],[44.122,66.267],[44.225,66.403],[44.336,66.405],[44.577,66.303],[44.859,66.231],[45.74,66.063],[45.831,66.083],[46.347,66.023],[47.11,65.816],[47.407,65.831],[47.661,65.803],[47.764,65.84],[47.734,65.914],[47.756,65.937],[48.14,66.122],[49.007,66.114],[51.511,66.778],[51.554,66.797],[51.487,66.83],[51.526,66.923],[51.812,66.949],[51.848,66.997],[52.022,67.023],[52.156,67.081],[53.772,66.994],[59.901,66.997],[59.869,66.963],[59.919,66.949],[60.083,66.985],[61.625,67.007],[61.853,67.122],[62.823,67.384],[62.875,67.577],[63.108,67.67],[63.423,67.763],[63.691,67.757],[63.711,67.805],[63.873,67.831],[63.952,67.895],[63.919,67.964],[63.837,68.025],[64.326,68.129],[64.345,68.171],[64.419,68.196],[64.532,68.196],[64.499,68.315],[64.557,68.354],[64.762,68.401],[65.006,68.384],[65.464,68.426],[65.269,68.232],[65.326,68.09],[65.286,68.01],[65.436,67.915],[65.781,67.919],[65.911,67.956],[66.086,67.926],[66.015,67.796],[66.195,67.735],[66.202,67.696],[66.104,67.652],[66.0,67.683],[65.85,67.659],[65.819,67.631],[65.85,67.607],[65.791,67.568],[66.034,67.57],[66.101,67.506],[66.086,67.472],[65.936,67.398],[65.7,67.393],[65.673,67.368],[65.706,67.341],[65.66,67.315],[65.188,67.149],[65.212,67.079],[65.073,67.043],[65.102,66.899],[64.575,66.803],[64.532,66.733],[64.412,66.728],[64.294,66.668],[63.98,66.656],[63.807,66.552],[63.54,66.476],[63.413,66.485],[63.237,66.33],[63.293,66.243],[63.104,66.255],[63.009,66.199],[62.959,66.119],[62.859,66.078],[62.817,66.011],[62.877,65.979],[62.798,65.932],[62.848,65.878],[62.523,65.844],[62.014,65.72],[62.275,65.619],[62.322,65.537],[62.407,65.511],[62.369,65.447],[62.479,65.345],[62.811,65.29],[62.797,65.053],[62.673,64.891],[62.807,64.833],[62.819,64.804],[62.781,64.785],[62.801,64.736],[62.59,64.645],[62.533,64.551],[62.687,64.489],[62.899,64.472],[63.236,64.519],[63.456,64.455],[63.5,64.376],[63.41,64.325],[63.611,64.263],[63.889,64.279],[64.016,64.352],[64.478,64.355],[64.602,64.432],[64.761,64.422],[64.996,64.461],[65.177,64.441],[65.4,64.566],[65.884,64.564],[66.019,64.59],[66.466,64.507],[66.681,64.552],[66.932,64.485],[66.884,64.382],[66.792,64.328],[66.816,64.221],[67.169,64.158],[67.163,64.121],[67.255,64.112],[67.28,64.076],[67.679,64.074],[67.799,64.027],[67.928,64.111],[68.18,64.171],[68.426,64.291],[68.884,64.218],[68.892,64.266],[68.995,64.33],[68.866,64.433],[69.016,64.467],[69.23,64.465],[69.389,64.384],[69.732,64.389],[69.824,64.336],[70.0,64.311],[70.305,64.339],[70.471,64.247],[70.671,64.232],[70.765,64.19],[70.772,64.118],[70.554,63.999],[70.641,63.893],[70.816,63.813],[70.911,63.688],[71.387,63.67],[71.547,63.586],[71.607,63.18],[71.806,63.214],[71.989,63.197],[72.161,63.294],[72.656,63.275],[72.909,63.389],[73.103,63.431],[73.281,63.311],[73.367,63.202],[74.24,63.167],[74.507,63.038],[74.915,63.027],[75.364,63.103],[75.861,63.106],[76.238,63.014],[76.297,62.945],[76.688,63.034],[76.824,62.987],[77.025,62.97],[77.155,62.787],[77.326,62.706],[77.887,62.553],[78.015,62.456],[78.38,62.563],[78.793,62.61],[79.821,62.599],[79.907,62.699],[79.918,62.788],[80.555,62.996],[80.588,63.079],[81.113,63.111],[81.171,62.969],[81.317,62.881],[81.337,62.822],[81.599,62.768],[81.633,62.73],[81.783,62.684],[82.164,62.804],[82.316,62.765],[82.748,62.749],[82.756,62.666],[83.008,62.59],[83.032,62.525],[83.282,62.456],[83.796,62.556],[83.94,62.479],[84.017,62.392],[84.24,62.369],[84.286,62.273],[84.392,62.235],[84.44,62.176],[84.487,62.097],[84.516,61.925],[84.684,61.801],[85.095,61.747],[85.277,61.669],[85.405,61.682],[85.491,61.613],[85.712,61.568],[85.842,61.589],[85.957,61.541],[85.962,61.455],[86.129,61.374],[86.211,61.374],[86.326,61.453],[86.509,61.405],[86.523,61.349],[86.603,61.311],[86.775,61.317],[86.976,61.36],[86.989,61.411],[86.948,61.451],[87.002,61.461],[87.258,61.377],[87.245,61.354],[87.467,61.34],[87.504,61.299],[87.474,61.266],[87.565,61.208],[87.692,61.267],[87.713,61.296],[87.678,61.333],[87.777,61.363],[87.963,61.314],[88.182,61.347],[88.953,60.746],[89.868,60.807],[90.946,60.746],[91.965,60.751],[92.138,60.829],[92.133,60.888],[92.234,60.951],[92.226,60.982],[92.409,60.968],[92.474,60.997],[92.435,61.02],[92.399,61.114],[92.466,61.195],[92.558,61.191],[92.757,61.087],[92.902,61.068],[92.89,61.102],[92.939,61.13],[92.89,61.145],[92.875,61.195],[92.791,61.216],[92.829,61.236],[92.629,61.302],[92.83,61.36],[92.93,61.331],[93.01,61.363],[93.163,61.318],[93.156,61.245],[93.343,61.1],[93.472,61.082],[93.567,61.104],[93.732,61.038],[93.92,61.058],[94.029,60.96],[94.249,61.12],[94.382,61.118],[94.546,61.176],[94.725,61.158],[95.118,61.086],[95.36,60.922],[95.408,60.816],[95.326,60.744],[95.479,60.709],[95.234,60.563],[95.227,60.499],[95.291,60.449],[95.264,60.421],[95.114,60.416],[95.022,60.37],[94.929,60.236],[95.016,60.198],[94.977,60.113],[95.083,60.049],[95.006,60.007],[95.02,59.966],[95.062,59.89],[95.175,59.802],[95.136,59.755],[95.241,59.637],[95.499,59.637],[95.593,59.575],[95.726,59.554],[95.785,59.608],[95.879,59.627],[95.951,59.628],[96.052,59.556],[96.236,59.626],[96.326,59.551],[96.29,59.505],[96.352,59.471],[96.452,59.473],[96.556,59.539],[96.785,59.55],[97.121,59.5],[97.224,59.535],[97.237,59.576],[97.192,59.595],[97.203,59.616],[97.361,59.66],[97.458,59.73],[97.696,59.679],[98.052,59.723],[98.127,59.768],[98.337,59.723],[98.445,59.785],[98.606,59.762],[98.882,59.827],[98.935,59.767],[99.001,59.772],[99.102,59.841],[99.117,59.907],[99.409,60.029],[99.398,60.075],[99.647,60.116],[99.716,60.082],[99.842,60.081],[99.84,60.052],[100.064,59.995],[100.102,59.958],[100.072,59.895],[100.315,59.841],[100.433,59.859],[100.554,59.788],[100.865,59.783],[101.025,59.714],[101.448,59.683],[101.472,59.725],[101.729,59.74],[101.794,59.711],[101.785,59.684],[102.073,59.621],[102.107,59.589],[102.238,59.592],[102.399,59.65],[102.499,59.633],[102.456,59.614],[102.476,59.558],[102.454,59.524],[102.532,59.493],[102.528,59.471],[102.639,59.448],[102.483,59.392],[102.518,59.263],[102.436,59.214],[102.484,59.181],[102.617,59.207],[102.82,59.187],[102.871,59.215],[102.859,59.245],[103.015,59.313],[103.136,59.254],[103.212,59.251],[103.233,59.286],[103.331,59.268],[103.353,59.242],[103.21,59.233],[103.235,59.17],[103.31,59.13],[103.391,59.025],[103.56,58.994],[103.623,58.918],[103.894,58.918],[103.979,58.87],[103.944,58.835],[103.956,58.774],[103.884,58.754],[103.889,58.732],[103.97,58.723],[104.036,58.783],[104.176,58.76],[104.194,58.781],[104.205,58.781],[104.195,58.757],[104.252,58.711],[104.378,58.722],[104.343,58.67],[104.466,58.604],[104.814,58.672],[104.899,58.748],[104.763,58.811],[104.792,58.862],[104.894,58.905],[104.923,58.954],[105.098,59.011],[105.137,59.056],[105.277,59.063],[105.373,59.117],[105.308,59.161],[105.343,59.197],[105.307,59.249],[105.179,59.309],[105.224,59.341],[105.234,59.389],[105.204,59.4],[105.241,59.445],[105.149,59.49],[104.973,59.474],[104.856,59.559],[104.886,59.607],[104.789,59.641],[104.813,59.673],[104.772,59.686],[104.889,59.76],[105.026,59.773],[105.023,59.837],[104.984,59.847],[105.029,59.839],[105.065,59.871],[105.372,59.834],[105.432,59.853],[105.466,59.826],[105.52,59.844],[105.433,59.903],[105.448,59.933],[105.418,59.949],[105.51,60.0],[105.43,60.152],[105.512,60.231],[105.364,60.269],[105.344,60.304],[105.231,60.28],[104.904,60.305],[104.79,60.381],[104.649,60.42],[104.683,60.424],[104.649,60.522],[104.51,60.622],[104.614,60.726],[104.476,60.844],[104.638,60.903],[104.583,60.947],[104.648,61.036],[104.628,61.074],[104.697,61.083],[104.855,61.187],[105.049,61.175],[104.953,61.32],[104.791,61.35],[105.01,61.408],[105.283,61.419],[105.273,61.463],[105.372,61.539],[105.586,61.586],[105.592,61.617],[105.67,61.65],[105.814,61.625],[105.898,61.682],[105.982,61.686],[105.903,61.842],[106.278,62.019],[106.398,62.039],[106.417,62.099],[106.393,62.142],[106.454,62.196],[106.47,62.261],[106.365,62.282],[106.487,62.337],[106.439,62.393],[106.548,62.392],[106.632,62.459],[106.759,62.493],[106.681,62.562],[106.8,62.627],[106.473,62.703],[106.516,62.728],[106.516,62.794],[106.451,62.817],[106.438,62.868],[106.196,62.927],[106.193,62.973],[106.145,62.98],[106.175,63.008],[106.126,63.084],[106.4,63.122],[106.398,63.183],[106.443,63.218],[106.354,63.249],[106.38,63.274],[106.359,63.297],[106.422,63.321],[106.42,63.353],[106.622,63.312],[106.741,63.395],[106.487,63.543],[106.602,63.558],[106.587,63.595],[106.694,63.661],[106.609,63.721],[106.701,63.821],[106.795,63.87],[106.72,63.913],[106.733,63.939],[106.624,63.977],[106.63,64.006],[106.668,64.038],[106.804,64.013],[106.822,63.983],[106.972,63.966],[107.043,63.922],[107.202,63.979],[107.306,63.973],[107.372,63.933],[107.339,63.904],[107.415,63.889],[107.451,63.917],[107.585,63.897],[107.632,63.93],[107.633,63.977],[107.763,64.016],[108.205,63.999],[108.315,64.006],[108.394,64.048],[108.248,64.255],[108.086,64.252],[108.053,64.191],[107.975,64.187],[107.721,64.262],[107.723,64.285],[107.642,64.316],[107.354,64.269],[107.273,64.304],[107.258,64.35],[107.107,64.359],[106.916,64.443],[106.738,64.428],[106.656,64.533],[106.58,64.548],[106.547,64.526],[106.579,64.478],[106.553,64.465],[106.256,64.452],[106.182,64.421],[106.095,64.431],[106.138,64.488],[106.025,64.546],[105.904,64.493],[105.77,64.489],[105.79,64.553],[105.715,64.6],[105.756,64.642],[105.693,64.681],[105.873,64.672],[105.822,64.763],[105.862,64.83],[105.992,64.828],[105.928,64.903],[106.031,64.914],[106.058,64.865],[106.212,64.871],[106.112,64.915],[106.074,64.985],[105.976,65.005],[105.956,65.036],[106.111,65.065],[106.193,65.128],[106.312,65.14],[106.411,65.223],[106.528,65.215],[106.434,65.25],[106.441,65.314],[106.613,65.391],[106.819,65.373],[106.973,65.506],[106.705,65.546],[106.705,65.607],[106.427,65.673],[106.464,65.733],[106.436,65.766],[106.495,65.797],[106.456,65.824],[106.498,65.883],[106.467,65.925],[106.522,66.003],[106.34,66.158],[106.204,66.153],[106.114,66.199],[106.142,66.249],[106.115,66.369],[106.335,66.47],[106.296,66.549],[106.391,66.489],[106.522,66.498],[106.762,66.424],[106.895,66.432],[106.911,66.48],[106.989,66.485],[107.069,66.537],[107.24,66.456],[107.5,66.447],[107.604,66.491],[107.841,66.483],[107.885,66.451],[107.963,66.464],[107.982,66.416],[108.043,66.413],[108.106,66.441],[108.085,66.488],[108.107,66.529],[108.387,66.642],[108.389,66.672],[108.258,66.715],[108.776,66.757],[108.81,66.783],[108.793,66.803],[108.877,66.823],[108.989,66.753],[108.909,66.718],[108.864,66.639],[109.021,66.585],[109.206,66.609],[109.201,66.579],[109.251,66.541],[109.232,66.465],[109.373,66.422],[109.385,66.344],[109.276,66.313],[109.28,66.255],[109.355,66.233],[109.33,66.165],[109.349,66.148],[109.453,66.146],[109.516,66.189],[109.672,66.194],[109.812,66.261],[109.958,66.262],[110.142,66.339],[110.375,66.367],[110.329,66.449],[110.519,66.461],[110.769,66.548],[111.103,66.559],[111.236,66.599],[111.36,66.567],[111.576,66.64],[112.116,66.661],[112.208,66.609],[112.701,66.615],[112.759,66.569],[112.887,66.559],[112.942,66.488],[113.123,66.438],[113.187,66.383],[113.266,66.224],[113.319,66.207],[113.275,66.161],[113.302,66.131],[113.274,66.104],[113.454,66.032],[113.488,65.925],[113.401,65.894],[113.3,65.924],[113.054,65.925],[112.883,65.834],[112.873,65.784],[112.767,65.762],[112.667,65.699],[112.676,65.676],[112.609,65.663],[112.63,65.61],[112.536,65.62],[112.473,65.59],[112.486,65.57],[112.309,65.542],[112.33,65.49],[112.804,65.453],[112.749,65.366],[112.815,65.357],[112.782,65.273],[112.63,65.305],[112.532,65.268],[112.53,65.228],[112.58,65.188],[112.555,65.1],[112.66,65.044],[112.899,65.102],[113.053,65.081],[113.032,65.04],[113.09,65.021],[113.11,64.979],[113.375,64.954],[113.409,64.83],[113.967,64.822],[114.062,64.748],[114.049,64.655],[114.132,64.63],[114.088,64.59],[114.131,64.561],[114.365,64.597],[114.444,64.671],[114.582,64.701],[114.605,64.628],[114.674,64.657],[114.68,64.706],[114.803,64.676],[114.816,64.697],[114.764,64.71],[114.742,64.757],[114.805,64.731],[114.849,64.76],[114.623,64.782],[114.845,64.831],[114.814,64.873],[114.949,64.925],[115.416,64.95],[115.412,64.985],[115.239,65.025],[115.351,65.034],[115.294,65.07],[115.576,65.043],[115.546,65.098],[115.858,65.084],[115.907,65.142],[115.831,65.166],[115.845,65.175],[116.054,65.1],[116.175,65.15],[116.233,65.157],[116.258,65.144],[116.127,65.128],[116.098,65.094],[116.136,65.07],[116.338,65.1],[116.557,65.088],[116.544,65.058],[116.409,65.031],[116.497,65.0],[116.669,65.071],[116.708,65.061],[116.691,65.091],[116.729,65.115],[116.792,65.086],[116.79,65.114],[116.859,65.128],[116.859,65.172],[116.877,65.152],[117.003,65.174],[116.98,65.233],[117.256,65.281],[117.235,65.306],[117.313,65.326],[117.307,65.366],[117.382,65.392],[117.363,65.427],[117.421,65.428],[117.387,65.441],[117.418,65.458],[117.386,65.47],[117.409,65.488],[117.353,65.491],[117.364,65.511],[117.675,65.649],[117.683,65.704],[117.806,65.741],[117.83,65.794],[118.069,65.786],[118.016,65.84],[118.063,65.901],[118.025,65.941],[118.051,65.957],[118.033,65.976],[118.391,66.106],[118.376,66.176],[118.197,66.239],[118.096,66.32],[118.134,66.379],[118.298,66.414],[118.333,66.437],[118.316,66.452],[118.393,66.434],[118.599,66.494],[118.717,66.486],[118.849,66.432],[118.829,66.465],[118.879,66.496],[119.076,66.537],[119.271,66.634],[119.149,66.707],[119.159,66.743],[119.059,66.839],[119.036,66.952],[119.116,66.911],[119.658,66.841],[119.927,66.704],[119.982,66.704],[119.998,66.665],[120.053,66.667],[120.057,66.599],[120.198,66.551],[120.174,66.516],[120.222,66.485],[120.354,66.468],[120.33,66.425],[120.376,66.407],[120.343,66.352],[120.5,66.328],[120.503,66.244],[120.57,66.221],[120.478,66.141],[120.508,66.018],[120.6,65.952],[120.448,65.813],[120.491,65.759],[120.473,65.682],[120.575,65.646],[120.698,65.649],[120.698,65.617],[120.79,65.58],[120.908,65.587],[120.93,65.551],[121.033,65.537],[121.063,65.472],[121.111,65.451],[121.085,65.429],[121.121,65.414],[121.137,65.351],[121.24,65.332],[121.217,65.263],[121.517,65.226],[121.83,65.092],[122.31,64.975],[122.596,64.975],[122.745,64.866],[122.873,64.823],[123.002,64.879],[123.066,64.873],[123.383,64.744],[123.63,64.765],[123.922,64.721],[124.172,64.762],[124.219,64.857],[124.268,64.887],[124.479,64.932],[124.543,64.915],[124.601,64.932],[124.605,64.961],[124.776,64.966],[124.85,65.028],[125.0,65.028],[124.931,65.091],[125.001,65.101],[125.043,65.224],[125.137,65.301],[125.276,65.328],[125.292,65.361],[125.786,65.327],[125.8,65.38],[126.04,65.455],[126.519,65.46],[126.531,65.517],[126.629,65.568],[126.612,65.589],[126.821,65.56],[127.019,65.613],[127.02,65.658],[127.055,65.68],[127.04,65.719],[127.069,65.736],[127.039,65.769],[127.11,65.794],[127.102,65.818],[127.156,65.83],[127.185,65.797],[127.307,65.774],[127.39,65.857],[127.398,65.936],[127.369,65.953],[127.584,65.954],[127.61,65.998],[127.594,66.042],[127.455,66.051],[127.374,66.111],[127.259,66.056],[127.15,66.081],[127.136,66.148],[126.987,66.145],[127.007,66.164],[126.972,66.31],[127.011,66.401],[127.183,66.485],[127.189,66.537],[127.351,66.592],[127.308,66.625],[127.318,66.654],[127.417,66.663],[127.537,66.612],[127.675,66.622],[127.813,66.555],[128.028,66.534],[128.046,66.48],[128.254,66.469],[128.391,66.5],[128.388,66.53],[128.454,66.559],[128.396,66.602],[128.523,66.657],[128.624,66.633],[128.617,66.604],[128.725,66.553],[129.164,66.546],[129.332,66.529],[129.382,66.497],[129.463,66.523],[129.398,66.593],[129.478,66.594],[129.603,66.522],[129.753,66.489],[129.899,66.493],[130.023,66.54],[130.124,66.469],[130.054,66.421],[130.051,66.383],[130.106,66.316],[130.109,66.215],[130.436,66.203],[130.544,66.08],[130.848,65.971],[131.144,65.938],[131.117,65.907],[131.134,65.881],[131.264,65.789],[131.351,65.798],[131.411,65.693],[131.716,65.697],[131.67,65.664],[131.656,65.568],[131.48,65.454],[131.535,65.438],[131.515,65.419],[131.537,65.399],[131.607,65.391],[131.683,65.301],[131.843,65.297],[131.995,65.217],[132.133,65.056],[132.168,64.964],[132.284,64.913],[132.27,64.855],[132.356,64.8],[132.356,64.731],[132.278,64.663],[132.409,64.61],[132.611,64.645],[132.652,64.64],[132.618,64.612],[132.741,64.588],[132.878,64.627],[132.852,64.666],[132.876,64.689],[132.971,64.707],[133.004,64.744],[132.953,64.801],[133.012,64.844],[132.908,64.933],[132.959,64.991],[132.95,65.049],[132.992,65.065],[132.972,65.125],[133.023,65.175],[133.193,65.232],[133.218,65.275],[133.486,65.279],[133.632,65.212],[133.882,65.199],[133.982,65.262],[133.969,65.291],[134.147,65.323],[134.323,65.412],[134.469,65.37],[134.494,65.404],[134.465,65.432],[134.528,65.48],[134.512,65.501],[134.671,65.554],[134.715,65.595],[134.692,65.646],[134.832,65.692],[134.865,65.764],[135.079,65.759],[135.374,65.802],[135.438,65.85],[135.438,65.882],[135.406,65.886],[135.488,65.905],[135.741,65.889],[135.747,65.957],[135.844,65.972],[135.863,66.004],[136.014,66.006],[136.106,66.087],[136.232,66.117],[136.273,66.156],[136.354,66.157],[136.36,66.181],[136.856,66.198],[136.878,66.157],[136.951,66.153],[137.008,66.11],[137.277,66.097],[137.335,66.047],[137.522,66.054],[137.709,65.967],[138.017,65.962],[138.11,65.997],[138.224,65.936],[138.379,65.93],[139.259,66.018],[139.525,65.967],[139.827,65.845],[139.987,65.832],[140.179,65.877],[140.397,65.797],[140.287,65.72],[140.302,65.704],[140.217,65.684],[140.226,65.646],[140.19,65.628],[140.368,65.549],[140.511,65.559],[140.669,65.523],[140.726,65.558],[140.98,65.538],[141.054,65.566],[141.148,65.509],[141.336,65.484],[141.345,65.458],[141.423,65.47],[141.453,65.443],[141.848,65.462],[141.879,65.399],[142.097,65.391],[142.101,65.36],[142.909,65.312],[142.979,65.252],[142.988,65.167],[143.355,65.152],[143.545,65.11],[143.535,65.066],[143.663,65.07],[143.79,65.029],[143.895,65.051],[144.039,65.019],[144.244,65.026],[144.351,64.886],[144.532,64.861],[144.69,64.772],[144.661,64.721],[144.53,64.654],[144.707,64.607],[144.782,64.554],[144.922,64.569],[144.992,64.531],[145.139,64.539],[145.291,64.439],[145.493,64.451],[145.668,64.409],[145.741,64.435],[145.868,64.396],[145.878,64.344],[146.048,64.284],[146.153,64.195],[146.473,64.191],[147.006,64.129],[147.22,64.037],[147.361,64.056],[147.391,64.091],[147.349,64.107],[147.37,64.118],[147.641,64.172],[147.727,64.116],[147.647,64.069],[147.668,64.007],[147.77,64.006],[147.791,63.994],[147.773,63.962],[147.819,63.942],[147.894,63.965],[148.018,63.931],[148.089,64.002],[148.181,64.02],[148.166,64.098],[148.267,64.149],[148.269,64.2],[148.319,64.22],[148.213,64.28],[148.262,64.298],[148.237,64.327],[148.056,64.411],[148.227,64.438],[148.329,64.524],[148.51,64.502],[148.551,64.447],[148.704,64.398],[149.164,64.421],[149.194,64.377],[149.34,64.372],[149.372,64.378],[149.362,64.415],[149.503,64.401],[149.588,64.469],[149.775,64.544],[149.935,64.549],[149.993,64.492],[150.137,64.466],[150.012,64.352],[150.09,64.278],[150.199,64.259],[150.192,64.224],[150.236,64.207],[150.375,64.21],[150.552,64.161],[150.666,64.174],[150.65,64.22],[150.679,64.271],[150.594,64.303],[150.64,64.332],[151.252,64.339],[151.32,64.368],[151.406,64.325],[151.497,64.421],[151.971,64.485],[152.067,64.448],[152.14,64.347],[152.449,64.39],[152.44,64.47],[152.378,64.528],[152.728,64.62],[152.852,64.7],[152.75,64.779],[152.583,64.819],[152.526,64.916],[152.529,64.989],[152.634,65.057],[152.666,65.166],[152.719,65.179],[152.721,65.217],[152.798,65.202],[152.934,65.251],[153.154,65.239],[153.204,65.296],[153.44,65.353],[153.503,65.342],[153.595,65.407],[153.448,65.483],[153.545,65.634],[153.521,65.663],[153.585,65.697],[153.552,65.741],[153.491,65.75],[153.535,65.806],[153.755,65.866],[153.957,65.868],[154.085,65.845],[154.106,65.772],[154.267,65.801],[154.415,65.919],[154.39,65.973],[154.435,65.995],[154.372,66.035],[154.236,66.048],[154.304,66.098],[154.368,66.1],[154.398,66.179],[154.465,66.178],[154.519,66.215],[154.841,66.163],[154.895,66.104],[155.077,66.123],[155.07,66.158],[155.171,66.178],[155.262,66.177],[155.398,66.12],[155.529,66.139],[155.649,66.116],[155.748,66.156],[156.06,66.041],[156.145,66.065],[156.433,66.029],[156.577,66.134],[156.646,66.142],[156.637,66.172],[156.674,66.184],[156.924,66.032],[157.029,66.004],[156.958,65.953],[157.083,65.91],[157.336,65.887],[157.451,65.907],[157.463,65.94],[157.415,65.968],[157.436,65.99],[157.657,66.029],[157.74,66.094],[158.188,66.137],[158.283,66.096],[158.509,66.091],[158.476,66.174],[158.411,66.215],[158.555,66.34],[158.532,66.354],[158.605,66.353],[158.775,66.279],[159.193,66.209],[159.191,66.155],[159.049,66.051],[158.987,65.938],[158.924,65.898],[158.934,65.816],[158.885,65.785],[158.92,65.738],[159.376,65.653],[159.833,65.524],[160.026,65.51],[160.167,65.447],[160.165,65.38],[160.206,65.344],[160.416,65.247],[160.519,65.161],[161.01,65.165],[161.346,65.118],[161.415,65.064],[161.688,64.99],[161.781,64.835],[161.866,64.808],[162.292,64.737],[162.553,64.742],[162.735,64.656],[162.997,64.644],[163.121,64.69],[163.142,64.77],[163.119,64.796],[163.347,64.814],[163.505,64.924],[163.873,64.86],[164.023,64.87],[164.187,64.929],[164.797,64.767],[164.881,64.681],[165.022,64.691],[165.031,64.838],[165.262,64.846],[165.337,64.804],[165.32,64.78],[165.358,64.756],[165.682,64.749],[165.74,64.718],[165.74,64.675],[165.884,64.614],[165.813,64.585],[165.871,64.55],[166.058,64.557],[166.198,64.604],[166.807,64.528],[167.009,64.546],[167.236,64.619],[167.37,64.49],[167.506,64.473],[167.713,64.336],[167.815,64.346],[168.026,64.281],[168.153,64.286],[168.224,64.341],[168.497,64.313],[168.623,64.21],[168.774,64.181],[168.764,64.146],[168.858,64.022],[169.111,63.948],[169.35,63.942],[169.368,63.87],[169.543,63.813],[169.548,63.698],[169.593,63.657],[169.51,63.633],[169.49,63.573],[169.203,63.52],[168.785,63.304],[168.776,63.246],[168.684,63.245],[168.719,63.196],[168.595,63.19],[168.46,63.075],[168.925,62.939],[169.125,62.968],[169.512,62.809],[169.655,62.704],[169.841,62.65],[170.071,62.659],[170.031,62.642],[169.982,62.543],[170.087,62.485],[170.037,62.443],[170.271,62.277],[170.423,62.309],[170.859,62.244],[170.902,62.275],[171.08,62.285],[171.036,62.333],[171.218,62.364],[171.259,62.321],[171.359,62.351],[171.377,62.319],[171.486,62.307],[171.858,62.377],[171.871,62.408],[172.055,62.462],[172.207,62.445],[172.294,62.398],[172.487,62.435],[172.703,62.398],[172.853,62.327],[172.904,62.388],[173.172,62.39],[173.216,62.432],[173.504,62.529],[173.687,62.53],[173.802,62.51],[173.871,62.436],[174.077,62.443],[174.089,62.342],[174.005,62.278],[174.107,62.186],[174.103,62.076],[174.227,62.061],[174.327,62.089],[174.344,62.041],[174.463,61.981],[174.446,61.911],[174.507,61.875],[174.318,61.772],[174.147,61.751],[173.842,61.613],[173.773,61.611],[173.755,61.654],[173.571,61.704],[173.544,61.603],[173.343,61.552],[173.07,61.345],[172.977,61.372],[173.005,61.316],[172.918,61.278],[172.492,61.263],[172.108,60.983],[172.0,60.858],[171.248,60.654],[171.122,60.509],[170.847,60.464],[170.781,60.393],[170.337,60.277],[170.268,60.145],[170.273,60.013],[170.118,59.917],[170.051,59.993],[169.904,60.037],[169.794,60.203],[169.707,60.252],[169.657,60.378],[169.549,60.421],[169.208,60.537],[168.645,60.503],[168.482,60.549],[168.104,60.522],[167.594,60.395],[167.508,60.405],[167.236,60.31],[167.102,60.33],[166.956,60.215],[166.159,59.777],[166.081,59.786],[166.051,59.865],[166.133,60.147],[166.233,60.218],[166.224,60.329],[166.183,60.397],[166.074,60.378],[165.954,60.311],[165.78,60.354],[165.424,60.125],[164.933,59.962],[164.886,59.753],[164.845,59.738],[164.758,59.766],[164.659,59.952],[164.452,60.065],[164.339,59.94],[164.111,60.078],[163.964,59.988],[163.842,59.977],[163.743,59.881],[163.389,59.814],[163.106,59.579],[163.043,59.462],[163.1,59.359],[163.255,59.29],[162.835,59.056],[162.753,58.966],[162.907,58.891],[162.22,58.486],[161.938,58.259],[161.804,58.102],[161.8,57.863],[161.989,57.72],[162.204,57.679],[162.826,57.701],[163.078,57.626],[163.128,57.552],[162.932,57.374],[162.593,57.17],[162.512,57.033],[162.744,56.6],[163.098,56.56],[163.172,56.384],[163.166,56.106],[163.022,55.958],[162.795,56.014],[162.598,56.174],[162.722,56.342],[162.697,56.343],[162.718,56.382],[162.807,56.406],[162.731,56.43],[162.58,56.377],[162.522,56.391],[162.572,56.347],[162.522,56.349],[162.318,56.24],[161.861,55.861],[161.609,55.557],[161.503,55.287],[161.647,54.985],[161.939,54.845],[162.008,54.738],[161.876,54.564],[161.655,54.464],[161.315,54.44],[161.213,54.474],[161.14,54.547],[160.901,54.522],[160.404,54.368],[160.027,54.153],[159.695,53.859],[159.633,53.706],[159.683,53.579],[159.905,53.4],[159.922,53.3],[159.897,53.241],[159.726,53.181],[159.629,53.207],[159.492,53.181],[159.428,53.129],[159.178,53.087],[158.461,52.826],[158.432,52.713],[158.462,52.587],[158.39,52.203],[158.258,52.017],[157.898,51.666],[157.21,51.229],[156.696,50.958],[156.716,51.008],[156.66,51.074],[156.668,51.167],[156.564,51.234],[156.442,51.693],[156.391,52.203],[156.063,52.921],[155.888,53.849],[155.681,54.41],[155.561,54.887],[155.505,55.374],[155.638,56.054],[155.821,56.455],[156.236,56.757],[156.558,56.947],[156.946,57.434],[156.896,57.607],[157.511,57.745],[157.962,57.883],[158.326,58.027],[159.104,58.425],[159.393,58.61],[159.586,58.803],[159.621,58.886],[159.699,58.927],[159.69,58.974],[160.844,59.554],[161.535,59.942],[161.701,60.074],[161.776,60.199],[161.877,60.251],[161.849,60.279],[162.381,60.464],[163.329,60.695],[163.44,60.883],[163.594,60.917],[163.522,60.943],[163.793,61.128],[163.831,61.233],[163.793,61.248],[163.897,61.277],[163.914,61.335],[163.963,61.362],[163.853,61.403],[163.761,61.365],[163.702,61.45],[163.924,61.717],[164.002,61.717],[164.018,61.791],[163.993,61.851],[164.042,61.91],[164.023,62.0],[164.058,62.148],[164.277,62.223],[165.286,62.288],[165.067,62.436],[164.512,62.494],[164.745,62.51],[165.035,62.453],[164.746,62.512],[164.578,62.624],[164.442,62.64],[164.064,62.605],[163.917,62.535],[163.77,62.552],[163.316,62.483],[163.298,62.425],[163.34,62.411],[162.99,62.326],[163.009,62.178],[162.711,61.763],[162.767,61.672],[162.749,61.609],[162.576,61.58],[162.427,61.623],[162.351,61.546],[161.536,61.187],[160.645,60.718],[160.119,60.564],[160.087,60.591],[160.1,60.68],[160.193,60.754],[160.126,60.802],[160.21,60.914],[160.318,60.981],[160.097,60.958],[159.816,60.981],[159.795,61.014],[159.931,61.116],[159.869,61.205],[159.794,61.19],[159.857,61.302],[160.061,61.521],[160.202,61.568],[160.219,61.721],[160.327,61.773],[160.305,61.888],[160.066,61.802],[160.028,61.759],[159.966,61.765],[159.564,61.605],[159.482,61.641],[159.463,61.716],[159.321,61.781],[159.306,61.849],[159.03,61.866],[158.901,61.841],[158.864,61.777],[158.574,61.781],[158.454,61.75],[158.273,61.776],[158.203,61.729],[157.921,61.705],[157.48,61.734],[157.417,61.7],[157.408,61.66],[157.098,61.633],[156.825,61.563],[156.423,61.401],[156.381,61.205],[156.418,61.121],[155.667,60.778],[155.719,60.605],[155.591,60.578],[155.508,60.493],[155.324,60.466],[154.693,60.199],[154.316,59.983],[154.092,59.776],[153.943,59.569],[153.944,59.397],[154.182,59.301],[154.753,59.281],[154.887,59.139],[154.854,59.139],[154.838,59.094],[154.669,59.096],[154.45,59.166],[154.401,59.146],[154.379,59.065],[154.045,59.003],[153.877,59.045],[153.782,59.126],[153.415,59.185],[153.402,59.097],[153.355,59.043],[153.097,59.033],[152.828,58.948],[152.691,58.872],[152.543,58.902],[152.376,58.983],[151.893,58.823],[151.722,58.799],[151.463,58.814],[151.346,58.783],[151.191,58.944],[151.857,59.056],[151.685,59.205],[151.922,59.189],[152.162,59.235],[151.973,59.215],[151.893,59.252],[151.72,59.259],[151.632,59.422],[151.494,59.464],[151.387,59.538],[151.329,59.506],[150.988,59.515],[150.986,59.437],[150.531,59.429],[150.462,59.46],[150.471,59.526],[150.419,59.569],[149.598,59.708],[149.416,59.692],[148.728,59.476],[148.747,59.297],[148.597,59.192],[148.424,59.214],[148.356,59.334],[148.22,59.359],[147.883,59.333],[147.881,59.26],[147.382,59.234],[147.262,59.283],[147.192,59.263],[147.044,59.313],[146.712,59.332],[146.647,59.385],[146.504,59.413],[146.369,59.376],[146.381,59.275],[146.054,59.251],[145.991,59.092],[145.939,59.109],[145.906,59.17],[145.791,59.204],[145.774,59.262],[145.801,59.318],[145.661,59.373],[145.008,59.32],[143.899,59.369],[143.424,59.273],[143.198,59.322],[143.022,59.276],[142.846,59.273],[142.358,59.141],[141.924,58.941],[141.591,58.728],[141.35,58.501],[140.587,58.239],[140.044,57.661],[138.867,57.124],[138.346,56.804],[137.229,55.983],[136.521,55.59],[135.27,55.029],[134.985,54.854],[134.894,54.72],[134.902,54.559],[135.095,54.433],[135.726,54.407],[136.196,54.475],[136.492,54.455],[136.344,53.888],[136.351,53.701],[136.487,53.655],[136.77,53.695],[137.041,53.862],[137.383,53.81],[137.122,53.589],[137.071,53.489],[137.239,53.457],[136.161,53.021],[135.273,53.021],[134.681,52.947],[134.802,53.056],[134.871,53.073],[134.841,53.126],[134.864,53.182],[134.946,53.219],[134.961,53.265],[134.819,53.342],[134.837,53.378],[134.915,53.37],[134.919,53.431],[134.828,53.484],[134.763,53.48],[134.756,53.54],[134.556,53.626],[134.44,53.596],[134.43,53.525],[134.225,53.523],[134.212,53.477],[134.01,53.438],[133.796,53.492],[133.728,53.473],[133.646,53.544],[133.564,53.549],[133.528,53.502],[133.456,53.512],[133.213,53.43],[133.158,53.345],[133.162,53.299],[132.942,53.292],[132.875,53.236],[132.652,53.262],[132.594,53.235],[132.099,53.227],[132.018,53.143],[131.894,53.133],[131.841,53.166],[131.854,53.238],[131.544,53.219],[131.526,53.361],[131.467,53.501],[131.505,53.57],[131.448,53.63],[131.434,53.748],[131.195,53.801],[131.13,53.908],[130.538,53.908],[130.615,54.183],[130.758,54.28],[130.831,54.277],[130.928,54.321],[131.044,54.277],[131.109,54.312],[131.229,54.538],[131.198,54.605],[131.391,54.712],[131.534,54.718],[131.621,54.78],[131.66,54.762],[131.766,54.792],[131.818,54.846],[131.979,54.888],[131.999,54.922],[131.966,54.988],[132.064,55.04],[132.387,55.059],[132.408,55.087],[132.345,55.15],[132.361,55.189],[132.629,55.208],[132.693,55.274],[132.662,55.329],[132.683,55.362],[132.761,55.341],[132.948,55.382],[132.757,55.425],[132.629,55.506],[132.667,55.563],[132.542,55.679],[132.401,55.708],[132.224,55.708],[132.124,55.649],[131.952,55.662],[131.804,55.619],[131.618,55.658],[131.572,55.618],[131.437,55.651],[131.107,55.62],[130.743,55.724],[130.598,55.728],[130.39,56.054],[129.207,56.868],[128.837,56.646],[128.171,56.72],[126.913,56.498],[126.544,56.498],[124.916,56.202],[124.546,56.276],[124.102,56.276],[123.828,56.403],[123.29,56.428],[123.045,56.497],[122.888,56.6],[122.8,56.581],[122.779,56.502],[122.59,56.494],[122.571,56.539],[122.469,56.606],[122.285,56.655],[122.161,56.743],[121.601,56.748],[121.62,56.79],[121.531,56.858],[121.515,56.926],[121.408,56.98],[121.08,56.985],[121.021,57.036],[120.889,57.046],[120.285,57.005],[120.03,56.904],[119.897,56.894],[119.665,56.771],[119.862,56.682],[119.805,56.595],[119.958,56.489],[120.265,56.453],[120.258,56.391],[120.403,56.351],[120.402,56.304],[120.536,56.273],[120.525,56.237],[120.235,56.204],[120.058,56.142],[120.051,56.075],[120.161,55.973],[120.131,55.905],[120.18,55.869],[120.262,55.912],[120.318,55.906],[120.402,55.86],[120.889,56.005],[121.206,56.011],[121.271,55.943],[121.274,55.859],[121.349,55.806],[121.297,55.732],[121.361,55.503],[121.439,55.476],[121.549,55.498],[121.636,55.531],[121.695,55.595],[121.826,55.6],[121.735,55.388],[121.291,55.092],[121.217,54.722],[120.921,54.5],[121.069,54.278],[120.921,53.834],[121.661,53.76],[121.675,53.357],[121.188,53.32],[120.702,53.185],[119.997,52.704],[119.943,52.591],[120.313,52.626],[120.564,52.614],[120.773,52.476],[120.821,52.364],[120.746,52.007],[120.129,51.733],[119.86,51.488],[119.182,50.702],[119.137,50.59],[119.164,50.524],[119.322,50.368],[119.346,50.23],[119.291,50.125],[118.94,49.972],[117.645,49.594],[117.491,49.586],[116.984,49.845],[116.566,50.006],[116.286,49.998],[115.734,49.864],[115.347,49.94],[115.194,49.998],[114.856,50.226],[114.523,50.296],[114.098,50.274],[113.574,50.055],[113.235,49.831],[113.033,49.654],[112.524,49.462],[111.378,49.319],[110.2,49.241],[109.424,49.296],[108.424,49.518],[108.058,49.686],[107.549,49.827],[106.668,50.314],[106.323,50.417],[105.155,50.443],[104.797,50.409],[103.681,50.166],[103.378,50.217],[102.639,50.456],[102.45,50.606],[102.266,50.809],[102.184,51.026],[102.182,51.269],[102.117,51.361],[101.772,51.425],[101.011,51.672],[99.758,51.903],[99.295,51.946],[98.852,52.043],[98.86,52.104],[98.942,52.122],[98.941,52.189],[98.817,52.196],[98.801,52.279],[98.714,52.298],[98.65,52.267],[98.682,52.37],[98.634,52.422],[98.718,52.454],[98.735,52.502],[98.809,52.51],[98.831,52.542],[98.805,52.603],[98.938,52.663],[98.942,52.799],[98.868,52.798],[98.856,52.836],[98.932,52.915],[99.207,52.848],[99.253,52.958],[98.992,53.039],[99.069,53.1],[98.938,53.154],[98.862,53.13],[98.687,53.16],[98.599,53.108],[98.306,53.108],[98.291,53.228],[98.033,53.257],[97.978,53.295],[97.959,53.363],[97.608,53.378],[97.589,53.442],[97.45,53.466],[97.336,53.599],[97.129,53.618],[96.875,53.734],[96.715,53.703],[96.65,53.556],[96.443,53.516],[96.36,53.563],[96.375,53.604],[96.288,53.586],[96.301,53.616],[96.252,53.621],[96.183,53.52],[96.091,53.456],[95.756,53.525],[95.396,53.377],[95.306,53.399],[95.293,53.449],[95.246,53.462],[95.052,53.382],[94.976,53.41],[94.739,53.388],[94.592,53.32],[94.588,53.288],[94.673,53.276],[94.696,53.238],[94.6,53.178],[94.579,53.097],[94.599,53.05],[94.509,52.915],[94.304,52.909],[94.146,52.846],[94.134,52.763],[94.067,52.67],[93.98,52.637],[93.98,52.583],[93.761,52.443],[93.761,52.368],[93.683,52.298],[93.673,52.226],[93.358,52.134],[93.225,52.04],[93.131,52.017],[93.072,51.95],[92.899,51.899],[92.852,51.838],[92.672,51.845],[92.505,51.786],[92.209,51.811],[92.105,51.788],[91.947,51.809],[91.885,51.861],[91.628,51.872],[91.558,51.905],[91.239,51.887],[91.1,51.948],[90.851,51.913],[90.738,52.074],[90.562,52.126],[90.493,52.187],[90.35,52.197],[90.127,52.139],[90.115,52.046],[90.023,51.987],[90.098,51.755],[89.963,51.766],[89.683,51.573],[89.581,51.558],[89.42,51.61],[89.26,51.554],[89.22,51.571],[89.238,51.645],[89.206,51.663],[89.031,51.605],[88.735,51.564],[88.653,51.53],[88.696,51.395],[88.629,51.39],[88.588,51.329],[88.447,51.29],[88.316,51.349],[88.163,51.354],[88.144,51.433],[87.931,51.48],[87.873,51.553],[87.677,51.536],[87.735,51.386],[87.552,51.369],[87.523,51.249],[87.124,51.226],[87.205,51.043],[87.311,50.919],[87.36,50.92],[87.368,50.847],[87.423,50.805],[87.423,50.738],[87.494,50.646],[87.435,50.506],[87.338,50.443],[87.406,50.374],[87.106,50.334],[87.069,50.288],[87.121,50.24],[86.975,50.295],[86.777,50.201],[86.719,50.243],[86.664,50.199],[86.709,50.087],[86.616,50.022],[86.66,49.89],[86.618,49.886],[86.585,49.806],[86.776,49.789],[86.748,49.742],[86.774,49.699],[86.697,49.689],[86.593,49.608],[86.628,49.561],[86.822,49.542],[86.848,49.505],[86.829,49.449],[86.935,49.412],[86.922,49.347],[87.0,49.293],[85.601,48.231],[85.383,48.148],[83.116,48.283],[84.267,49.205],[81.479,50.291],[78.65,50.806],[74.921,54.149],[72.992,55.307],[64.687,54.272],[64.457,53.581],[63.038,51.176],[62.256,51.064],[62.154,51.115],[62.031,51.071],[61.964,51.132],[61.929,51.242],[61.875,51.3],[61.645,51.268],[61.53,51.209],[61.401,50.806],[60.818,50.668],[60.301,50.69],[60.18,50.746],[60.139,50.849],[60.021,50.859],[59.958,50.833],[59.91,50.747],[59.911,50.676],[59.812,50.567],[59.523,50.48],[59.457,50.534],[59.562,50.549],[59.568,50.582],[59.44,50.636],[59.274,50.621],[59.198,50.668],[58.927,50.683],[58.797,50.741],[58.75,50.8],[58.666,50.795],[58.645,50.867],[58.574,50.868],[58.555,50.895],[58.607,50.98],[58.599,51.027],[58.521,51.067],[58.381,51.075],[58.308,51.155],[58.221,51.127],[58.167,51.06],[58.078,51.103],[57.96,51.083],[57.767,51.124],[57.73,51.075],[57.719,50.913],[57.555,50.924],[57.467,50.863],[57.337,50.901],[57.292,50.985],[57.201,51.021],[57.156,51.105],[56.865,51.057],[56.715,51.077],[56.676,51.051],[56.689,50.974],[56.599,50.989],[56.477,51.078],[56.417,51.036],[56.427,50.979],[56.347,50.952],[56.332,50.899],[56.155,50.909],[56.076,50.729],[55.66,50.535],[55.47,50.662],[55.308,50.669],[55.087,50.801],[55.05,50.889],[54.896,50.917],[54.814,50.977],[54.637,51.033],[54.531,51.007],[54.54,50.954],[54.498,50.928],[54.634,50.882],[54.634,50.706],[54.671,50.604],[54.499,50.528],[54.385,50.619],[54.426,50.766],[54.49,50.823],[54.482,50.857],[54.278,50.909],[54.151,50.995],[54.115,51.1],[54.021,51.123],[53.938,51.19],[53.676,51.225],[53.598,51.293],[53.585,51.351],[53.614,51.392],[53.409,51.489],[53.165,51.52],[53.149,51.492],[53.036,51.495],[52.944,51.458],[52.78,51.513],[52.671,51.461],[52.547,51.464],[52.483,51.508],[52.308,51.78],[52.257,51.729],[52.146,51.721],[52.09,51.663],[51.867,51.678],[51.76,51.596],[51.777,51.496],[51.692,51.459],[51.65,51.456],[51.585,51.54],[51.461,51.48],[51.306,51.477],[51.243,51.536],[51.376,51.568],[51.374,51.634],[51.234,51.69],[50.926,51.685],[50.842,51.75],[50.767,51.764],[50.742,51.709],[50.786,51.6],[50.673,51.572],[50.697,51.615],[50.579,51.639],[50.571,51.591],[50.521,51.567],[50.523,51.472],[50.356,51.417],[50.323,51.308],[49.985,51.235],[49.778,51.107],[49.435,51.117],[49.342,50.965],[49.418,50.882],[49.368,50.831],[49.142,50.786],[48.829,50.601],[48.565,50.64],[48.57,50.613],[48.669,50.577],[48.696,50.334],[48.784,50.172],[48.778,50.11],[48.869,50.068],[48.881,50.022],[48.782,49.938],[48.429,49.815],[48.242,49.87],[48.147,49.966],[48.078,50.109],[47.917,50.248],[47.6,50.458],[47.509,50.441],[47.29,50.278],[47.317,50.238],[47.26,50.186],[47.323,50.107],[47.305,50.048],[47.175,49.952],[46.956,49.889],[46.896,49.823],[46.77,49.331],[46.976,49.24],[47.035,49.151],[46.927,49.008],[46.75,48.917],[46.474,48.408],[47.096,48.261],[47.07,48.205],[47.111,48.154],[47.099,48.099],[47.185,48.071],[47.039,47.987],[47.153,47.871],[47.119,47.806],[47.358,47.679],[47.413,47.831],[47.649,47.761],[48.044,47.765],[48.171,47.709],[48.408,47.442],[48.522,47.406],[48.693,47.098],[48.999,46.77],[48.915,46.707],[48.764,46.688],[48.678,46.763],[48.556,46.767],[48.451,46.658],[48.527,46.634],[48.555,46.59],[48.538,46.563],[48.703,46.546],[48.818,46.475],[48.896,46.477],[49.226,46.323],[49.22,46.383],[49.174,46.407],[49.295,46.393],[49.243,46.465],[49.356,46.389],[49.238,46.263],[49.159,46.239],[49.164,46.211],[49.058,46.137],[48.833,46.083],[48.833,46.009],[48.779,46.016],[48.807,45.906],[48.77,45.885],[48.635,45.975],[48.303,45.768],[47.871,45.678],[47.673,45.75],[47.628,45.732],[47.601,45.66],[47.655,45.543],[47.547,45.453],[47.394,45.175],[47.365,45.135],[47.332,45.141],[47.16,44.855],[46.873,44.68],[44.755,44.439],[43.88,44.814],[43.381,46.188],[42.257,46.813],[40.633,46.688],[40.508,47.437],[39.259,48.437],[37.885,49.186],[37.385,48.811],[36.783,48.586],[36.859,48.569],[36.907,48.521],[36.85,48.518],[36.857,48.487],[36.83,48.485],[36.851,48.417],[36.825,48.415],[36.809,48.348],[36.817,48.313],[36.912,48.309],[36.937,48.194],[36.873,48.184],[36.896,48.078],[36.854,48.035],[36.653,48.1],[36.58,48.079],[36.585,47.957],[36.629,47.962],[36.64,47.92],[36.542,47.906],[36.549,47.877],[36.605,47.851],[36.588,47.79],[36.671,47.794],[36.712,47.683],[36.792,47.685],[36.72,47.658],[36.766,47.634],[36.749,47.607],[36.83,47.624],[36.893,47.551],[36.944,47.576],[37.144,47.461],[37.18,47.484],[37.245,47.469],[37.203,47.356],[37.162,47.341],[37.114,47.371],[37.122,47.34],[37.029,47.288],[36.93,47.305],[36.963,47.202],[36.857,47.194],[37.002,47.128],[37.004,47.073],[37.125,47.039],[37.097,47.004],[37.141,46.982],[37.021,46.928],[37.062,46.884],[36.902,46.811],[36.768,46.63],[36.744,46.65],[36.803,46.725],[36.696,46.78],[36.379,46.709],[36.234,46.562],[36.257,46.622],[36.189,46.669],[35.896,46.651],[35.491,46.448],[35.38,46.368],[35.183,46.149],[35.144,46.124],[34.982,46.078],[35.038,46.147],[35.213,46.188],[35.27,46.266],[35.219,46.283],[35.24,46.309],[35.219,46.337],[35.172,46.293],[34.897,46.241],[34.81,46.159],[34.9,45.887],[34.975,45.762],[34.799,45.81],[34.802,45.901],[34.69,45.979],[34.573,45.995],[34.466,45.96],[34.336,46.074]],[[45.853,45.005],[45.706,44.976],[45.875,44.98],[45.91,44.988],[45.853,45.005]],[[45.653,44.815],[45.423,44.617],[45.349,44.602],[45.415,44.59],[45.66,44.794],[45.653,44.815]],[[45.271,44.513],[45.242,44.531],[45.229,44.503],[45.264,44.498],[45.271,44.513]]],[[[63.642,75.642],[61.833,75.357],[60.887,75.247],[60.463,75.156],[60.334,75.033],[60.623,74.935],[60.025,74.682],[59.772,74.659],[58.851,74.689],[58.656,74.608],[58.603,74.504],[58.829,74.413],[58.673,74.46],[58.675,74.39],[58.774,74.32],[58.733,74.287],[58.191,74.085],[58.009,74.149],[57.671,74.188],[57.405,74.052],[57.799,73.924],[57.823,73.781],[57.365,73.506],[57.301,73.508],[57.301,73.475],[56.96,73.357],[56.265,73.515],[55.757,73.577],[54.994,73.536],[54.664,73.472],[54.479,73.519],[54.018,73.734],[54.894,74.063],[55.188,74.104],[55.885,74.105],[55.946,74.265],[55.619,74.417],[55.776,74.539],[55.965,74.603],[56.269,74.612],[56.652,74.693],[56.303,74.871],[56.995,75.273],[57.226,75.331],[57.327,75.298],[57.729,75.291],[58.17,75.532],[58.559,75.682],[59.018,75.799],[60.043,75.918],[60.617,75.894],[60.949,75.961],[61.303,76.238],[61.426,76.23],[61.819,76.289],[62.593,76.165],[62.805,76.182],[63.673,76.326],[65.926,76.507],[66.273,76.762],[66.442,76.83],[68.457,76.927],[68.668,76.868],[68.867,76.766],[68.937,76.606],[68.571,76.394],[67.722,76.175],[66.548,75.98],[63.642,75.642]]],[[[56.151,71.271],[56.379,71.132],[57.251,70.818],[57.238,70.691],[56.059,70.731],[55.679,70.707],[55.427,70.618],[55.338,70.633],[55.342,70.587],[55.266,70.561],[55.076,70.533],[54.903,70.591],[54.694,70.744],[54.522,70.759],[54.032,70.719],[53.729,70.765],[53.715,70.927],[54.321,71.09],[54.353,71.198],[53.234,71.514],[52.55,71.59],[52.402,71.52],[52.121,71.465],[51.815,71.48],[51.534,71.658],[51.482,71.845],[51.585,71.985],[51.76,72.079],[51.915,72.095],[52.058,72.049],[52.351,72.041],[52.584,72.128],[53.089,72.473],[53.198,72.631],[53.053,72.631],[52.611,72.74],[53.08,72.907],[53.502,73.137],[54.144,73.146],[54.736,73.258],[55.816,73.307],[56.509,73.174],[56.48,73.095],[56.355,72.952],[56.304,72.949],[56.272,72.857],[56.136,72.786],[55.822,72.754],[55.623,72.651],[55.518,72.478],[55.495,72.315],[55.519,72.309],[55.52,72.114],[55.486,72.096],[55.484,72.02],[55.424,71.985],[55.435,71.965],[55.546,71.93],[55.576,71.803],[55.708,71.647],[56.151,71.271]]],[[[22.322,58.585],[22.583,58.635],[22.648,58.587],[22.811,58.623],[22.99,58.602],[23.333,58.456],[23.261,58.466],[23.238,58.456],[23.278,58.437],[23.235,58.44],[23.157,58.478],[23.042,58.371],[22.955,58.381],[22.969,58.36],[22.903,58.312],[22.721,58.27],[22.757,58.242],[22.723,58.225],[22.535,58.254],[22.504,58.224],[22.477,58.245],[22.323,58.207],[22.275,58.179],[22.203,57.994],[22.017,57.914],[21.963,57.984],[21.998,57.984],[22.086,58.083],[22.148,58.08],[22.203,58.148],[22.072,58.176],[21.994,58.245],[21.868,58.265],[21.843,58.302],[21.908,58.299],[21.873,58.342],[21.945,58.319],[21.968,58.355],[22.011,58.354],[21.832,58.511],[22.021,58.499],[22.089,58.422],[22.104,58.487],[22.195,58.546],[22.273,58.502],[22.288,58.569],[22.322,58.585]]],[[[155.208,50.063],[155.221,50.226],[155.177,50.278],[155.439,50.38],[155.685,50.412],[155.767,50.485],[155.883,50.698],[156.075,50.791],[156.133,50.73],[156.16,50.512],[155.776,50.177],[155.565,50.157],[155.488,50.112],[155.402,49.988],[155.362,49.99],[155.371,50.038],[155.208,50.063]]],[[[150.016,46.082],[150.189,46.122],[150.172,46.163],[150.207,46.188],[150.396,46.241],[150.578,46.236],[150.399,46.092],[150.252,46.028],[150.199,45.977],[150.204,45.922],[150.028,45.815],[149.932,45.804],[149.601,45.596],[149.428,45.591],[149.474,45.675],[149.546,45.717],[149.664,45.862],[149.806,45.889],[150.016,46.082]]],[[[22.655,58.703],[22.556,58.687],[22.463,58.716],[22.497,58.738],[22.382,58.882],[22.195,58.888],[22.045,58.936],[22.463,58.971],[22.442,58.985],[22.488,58.981],[22.488,59.016],[22.559,59.038],[22.587,59.087],[22.64,59.087],[22.714,59.07],[22.692,59.041],[22.737,59.005],[22.95,58.971],[22.95,58.936],[23.041,58.841],[22.88,58.833],[22.887,58.79],[22.845,58.777],[22.778,58.792],[22.819,58.83],[22.753,58.815],[22.655,58.703]]],[[[156.272,50.633],[156.18,50.688],[156.168,50.737],[156.199,50.781],[156.434,50.876],[156.484,50.857],[156.511,50.766],[156.406,50.63],[156.272,50.633]]],[[[154.837,49.65],[154.905,49.631],[154.885,49.558],[154.797,49.457],[154.832,49.344],[154.72,49.267],[154.603,49.298],[154.608,49.375],[154.761,49.558],[154.751,49.596],[154.837,49.65]]],[[[152.295,47.142],[151.985,46.879],[151.801,46.766],[151.712,46.807],[151.705,46.848],[151.873,46.872],[152.225,47.177],[152.199,47.129],[152.278,47.162],[152.295,47.142]]],[[[23.198,58.681],[23.33,58.653],[23.4,58.555],[23.224,58.535],[23.059,58.603],[23.198,58.681]]],[[[179.782,65.014],[180.0,65.061],[180.0,65.016],[179.807,64.975],[179.675,64.875],[179.512,64.835],[179.782,65.014]]],[[[155.492,50.828],[155.447,50.885],[155.474,50.922],[155.631,50.912],[155.673,50.87],[155.67,50.812],[155.492,50.828]]],[[[23.114,59.022],[23.344,59.039],[23.39,59.008],[23.374,58.976],[23.174,58.968],[23.114,59.022]]],[[[141.173,72.645],[141.179,72.596],[141.25,72.586],[140.933,72.601],[141.011,72.67],[141.173,72.645]]],[[[123.28,72.913],[123.14,72.906],[123.349,72.988],[123.314,73.026],[123.4,73.093],[123.444,73.087],[123.376,73.022],[123.43,72.972],[123.361,72.967],[123.28,72.913]]],[[[154.147,48.915],[154.231,48.897],[154.063,48.774],[154.056,48.738],[153.973,48.739],[154.147,48.915]]],[[[132.191,71.572],[131.986,71.252],[131.942,71.267],[132.061,71.447],[132.191,71.572]]],[[[139.191,72.174],[139.26,72.164],[139.189,72.164],[139.094,72.248],[139.167,72.328],[139.324,72.384],[139.147,72.257],[139.191,72.174]]],[[[80.555,71.043],[80.58,71.039],[80.634,70.831],[80.559,70.89],[80.555,71.043]]],[[[152.524,47.299],[152.482,47.301],[152.43,47.319],[152.413,47.367],[152.503,47.383],[152.537,47.349],[152.524,47.299]]],[[[154.584,49.149],[154.601,49.111],[154.488,49.088],[154.444,49.165],[154.584,49.149]]],[[[28.58,60.349],[28.721,60.288],[28.695,60.261],[28.624,60.27],[28.545,60.33],[28.58,60.349]]],[[[80.805,70.625],[80.711,70.571],[80.718,70.512],[80.617,70.499],[80.662,70.515],[80.668,70.57],[80.723,70.591],[80.766,70.656],[80.805,70.625]]],[[[152.978,47.684],[152.983,47.77],[153.062,47.794],[153.06,47.722],[152.978,47.684]]],[[[82.541,68.609],[82.629,68.6],[82.621,68.538],[82.482,68.577],[82.541,68.609]]],[[[153.165,48.121],[153.215,48.126],[153.294,48.042],[153.233,48.04],[153.159,48.092],[153.165,48.121]]],[[[139.952,72.168],[139.888,72.098],[139.821,72.083],[139.874,72.178],[139.952,72.168]]],[[[154.374,49.778],[154.448,49.817],[154.48,49.811],[154.473,49.762],[154.412,49.733],[154.374,49.778]]],[[[140.529,72.242],[140.594,72.252],[140.594,72.225],[140.518,72.197],[140.454,72.202],[140.529,72.242]]],[[[139.836,71.59],[139.821,71.641],[139.994,71.531],[139.981,71.533],[139.836,71.59]]],[[[28.576,60.643],[28.618,60.639],[28.635,60.601],[28.599,60.577],[28.557,60.612],[28.576,60.643]]],[[[85.536,63.26],[85.563,63.266],[85.559,63.222],[85.497,63.183],[85.517,63.12],[85.477,63.138],[85.505,63.208],[85.54,63.23],[85.536,63.26]]],[[[80.636,70.706],[80.601,70.72],[80.686,70.788],[80.648,70.824],[80.706,70.805],[80.636,70.706]]],[[[153.984,48.929],[153.926,48.931],[153.915,48.982],[154.014,48.945],[153.984,48.929]]],[[[79.647,70.193],[79.516,70.117],[79.633,70.216],[79.659,70.229],[79.647,70.193]]],[[[23.938,58.137],[24.013,58.154],[24.022,58.13],[23.971,58.1],[23.938,58.137]]],[[[139.739,71.837],[139.835,71.851],[139.776,71.831],[139.784,71.73],[139.739,71.837]]],[[[27.021,60.018],[26.985,60.018],[26.945,60.091],[27.025,60.037],[27.021,60.018]]],[[[139.857,71.494],[139.91,71.485],[139.797,71.459],[139.767,71.465],[139.857,71.494]]],[[[145.239,72.425],[145.375,72.346],[145.253,72.401],[145.181,72.408],[145.239,72.425]]],[[[24.55,59.558],[24.516,59.544],[24.487,59.579],[24.516,59.598],[24.55,59.558]]]]}}]}