{"type":"FeatureCollection","features":[{"type":"Feature","properties":{"lite":true,"src":"data/years/1858-05-16.geojson"},"geometry":{"type":"MultiPolygon","coordinates":[[[[21.183,62.782],[21.242,62.869],[21.357,62.859],[21.463,62.951],[21.441,63.036],[21.514,63.067],[21.496,63.121],[21.514,63.166],[21.552,63.171],[21.499,63.211],[21.56,63.232],[21.743,63.2],[21.764,63.206],[21.703,63.226],[21.895,63.26],[21.881,63.178],[21.984,63.143],[21.956,63.185],[22.025,63.24],[22.175,63.233],[22.276,63.299],[22.33,63.284],[22.374,63.321],[22.192,63.458],[22.246,63.47],[22.401,63.418],[22.272,63.515],[22.334,63.523],[22.333,63.493],[22.394,63.478],[22.395,63.452],[22.436,63.473],[22.476,63.602],[22.569,63.723],[22.637,63.683],[22.676,63.702],[22.734,63.628],[22.774,63.628],[22.902,63.705],[22.833,63.726],[22.926,63.743],[22.904,63.795],[23.001,63.764],[22.991,63.815],[23.062,63.853],[23.294,63.892],[23.374,63.945],[23.382,64.048],[23.515,64.039],[23.583,64.083],[23.574,64.107],[23.615,64.103],[23.724,64.178],[23.735,64.215],[23.819,64.221],[23.861,64.267],[23.926,64.28],[24.006,64.39],[24.204,64.452],[24.358,64.559],[24.423,64.676],[24.53,64.718],[24.536,64.755],[24.588,64.781],[24.558,64.806],[24.668,64.789],[24.672,64.83],[24.738,64.856],[25.093,64.918],[25.26,64.816],[25.33,64.826],[25.346,64.911],[25.191,64.967],[25.311,64.984],[25.213,65.04],[25.338,65.031],[25.311,65.061],[25.187,65.08],[25.161,65.124],[25.23,65.214],[25.259,65.315],[25.228,65.345],[25.245,65.423],[25.295,65.431],[25.295,65.466],[24.852,65.61],[24.67,65.584],[24.503,65.745],[24.4,65.719],[24.194,65.787],[23.949,65.797],[23.897,65.902],[23.749,66.04],[23.657,66.278],[23.677,66.364],[23.643,66.438],[23.806,66.528],[23.881,66.641],[23.868,66.817],[23.763,66.994],[23.581,67.154],[23.615,67.214],[23.458,67.412],[23.432,67.485],[23.459,67.517],[23.477,67.842],[23.141,68.085],[22.913,68.188],[22.201,68.281],[21.712,68.413],[21.133,68.709],[20.857,68.918],[20.801,68.931],[20.872,68.985],[20.631,69.035],[20.743,69.104],[20.977,69.053],[21.098,69.132],[21.037,69.179],[21.079,69.23],[21.313,69.291],[21.664,69.263],[22.023,69.012],[22.369,68.824],[22.395,68.738],[22.435,68.711],[22.571,68.727],[22.851,68.676],[23.072,68.681],[23.205,68.62],[23.735,68.715],[23.788,68.8],[23.93,68.816],[24.332,68.709],[24.664,68.666],[24.905,68.557],[24.954,68.606],[25.133,68.648],[25.15,68.766],[25.202,68.813],[25.433,68.884],[25.655,68.887],[25.745,69.257],[25.906,69.502],[25.891,69.525],[26.004,69.587],[25.962,69.651],[26.004,69.689],[26.198,69.715],[26.419,69.836],[26.502,69.919],[26.866,69.938],[27.1,69.902],[27.312,69.929],[27.352,69.949],[27.335,69.969],[27.563,70.024],[27.612,70.062],[27.868,70.075],[28.167,69.894],[28.378,69.857],[28.404,69.802],[29.132,69.674],[29.341,69.467],[29.23,69.377],[29.082,69.312],[28.856,69.073],[28.942,69.023],[28.74,68.95],[28.718,68.866],[28.798,68.831],[28.697,68.696],[29.008,68.832],[29.462,69.134],[29.924,69.355],[30.27,69.409],[30.641,69.418],[30.872,69.51],[31.055,69.64],[31.331,69.663],[32.069,69.881],[32.076,69.815],[32.19,69.642],[32.352,69.514],[32.596,69.424],[33.279,69.342],[33.316,69.071],[33.629,69.215],[35.437,69.15],[37.245,68.794],[37.688,68.63],[38.406,68.243],[38.668,68.146],[39.918,67.94],[40.827,67.66],[40.972,67.536],[40.951,67.335],[41.017,67.202],[41.209,67.069],[41.255,66.937],[41.147,66.782],[40.918,66.619],[40.395,66.343],[40.1,66.241],[39.356,66.086],[38.561,66.005],[37.652,66.073],[37.263,66.181],[36.885,66.235],[36.402,66.245],[35.553,66.337],[35.363,66.371],[34.874,66.551],[34.805,66.563],[34.666,66.519],[34.322,66.593],[34.307,66.619],[33.79,66.666],[33.676,66.747],[33.652,66.705],[33.587,66.687],[33.437,66.702],[33.158,66.915],[32.627,67.083],[32.496,67.084],[32.582,67.038],[32.22,66.994],[32.425,66.891],[32.753,66.649],[32.97,66.584],[33.47,66.313],[33.844,66.182],[34.259,66.11],[34.544,66.001],[34.726,65.797],[34.725,65.614],[34.6,65.483],[34.294,65.396],[34.426,65.106],[34.773,64.682],[34.815,64.46],[34.885,64.367],[35.082,64.288],[36.015,64.197],[36.24,63.919],[36.42,63.876],[36.987,63.842],[37.41,63.75],[37.591,63.807],[37.945,63.85],[38.054,63.986],[38.054,64.129],[37.88,64.308],[37.765,64.338],[37.747,64.39],[37.597,64.328],[37.261,64.314],[37.044,64.39],[36.893,64.493],[36.571,64.765],[36.883,65.067],[37.103,65.068],[37.604,64.853],[39.193,64.511],[39.622,64.476],[39.998,64.541],[40.322,64.463],[40.44,64.563],[40.462,64.75],[40.241,64.982],[39.979,65.153],[39.824,65.434],[39.95,65.58],[41.354,65.955],[41.623,66.065],[42.133,66.388],[42.21,66.41],[43.242,66.251],[43.876,66.011],[44.03,66.011],[44.122,66.268],[44.223,66.401],[44.337,66.404],[44.577,66.303],[44.859,66.231],[45.74,66.063],[45.832,66.083],[46.347,66.023],[47.11,65.816],[47.408,65.831],[47.661,65.803],[47.764,65.84],[47.736,65.911],[47.756,65.937],[48.14,66.122],[49.007,66.114],[51.512,66.778],[51.554,66.797],[51.49,66.831],[51.526,66.923],[51.812,66.949],[51.848,66.997],[52.022,67.023],[52.156,67.081],[53.772,66.994],[59.882,66.997],[59.869,66.963],[59.919,66.949],[60.082,66.985],[61.626,67.007],[61.853,67.122],[62.823,67.383],[62.876,67.577],[63.107,67.67],[63.422,67.763],[63.691,67.757],[63.711,67.805],[63.873,67.831],[63.952,67.895],[63.919,67.964],[63.838,68.025],[64.326,68.129],[64.35,68.173],[64.418,68.196],[64.532,68.196],[64.5,68.315],[64.557,68.354],[64.761,68.401],[65.006,68.384],[65.448,68.424],[65.269,68.232],[65.324,68.093],[65.286,68.01],[65.436,67.915],[65.781,67.919],[65.909,67.955],[66.083,67.927],[66.015,67.796],[66.196,67.735],[66.201,67.696],[66.106,67.652],[66.0,67.683],[65.85,67.659],[65.819,67.631],[65.84,67.604],[65.791,67.568],[66.034,67.57],[66.101,67.507],[66.085,67.471],[65.937,67.398],[65.7,67.393],[65.673,67.368],[65.701,67.338],[65.66,67.315],[65.188,67.149],[65.206,67.077],[65.073,67.043],[65.102,66.998],[65.1,66.898],[64.575,66.803],[64.533,66.733],[64.411,66.728],[64.295,66.668],[63.98,66.656],[63.807,66.552],[63.541,66.476],[63.413,66.485],[63.237,66.33],[63.293,66.244],[63.104,66.255],[63.009,66.199],[62.958,66.118],[62.858,66.078],[62.817,66.011],[62.871,65.977],[62.798,65.932],[62.845,65.877],[62.522,65.844],[62.014,65.72],[62.275,65.619],[62.322,65.537],[62.403,65.511],[62.369,65.447],[62.479,65.345],[62.81,65.29],[62.797,65.053],[62.673,64.891],[62.807,64.832],[62.816,64.805],[62.781,64.785],[62.8,64.736],[62.59,64.645],[62.533,64.551],[62.687,64.489],[62.899,64.472],[63.236,64.519],[63.455,64.455],[63.497,64.376],[63.41,64.325],[63.611,64.263],[63.889,64.279],[64.016,64.352],[64.478,64.355],[64.601,64.432],[64.761,64.422],[64.995,64.461],[65.177,64.441],[65.399,64.566],[65.884,64.564],[66.02,64.59],[66.465,64.507],[66.682,64.552],[66.932,64.483],[66.884,64.382],[66.792,64.328],[66.816,64.221],[67.162,64.159],[67.163,64.121],[67.253,64.112],[67.279,64.076],[67.68,64.074],[67.798,64.027],[67.928,64.111],[68.18,64.171],[68.425,64.291],[68.884,64.218],[68.892,64.264],[68.995,64.33],[68.874,64.434],[69.015,64.467],[69.23,64.465],[69.389,64.384],[69.733,64.389],[69.824,64.336],[69.999,64.311],[70.305,64.339],[70.471,64.247],[70.672,64.232],[70.766,64.189],[70.771,64.117],[70.554,63.999],[70.641,63.893],[70.816,63.813],[70.911,63.688],[71.387,63.67],[71.547,63.587],[71.607,63.18],[71.805,63.214],[71.989,63.197],[72.16,63.294],[72.656,63.275],[72.909,63.389],[73.103,63.431],[73.28,63.312],[73.366,63.202],[74.241,63.167],[74.507,63.038],[74.915,63.027],[75.363,63.103],[75.7,63.086],[75.804,63.109],[76.236,63.015],[76.297,62.945],[76.689,63.034],[76.823,62.987],[77.022,62.971],[77.155,62.787],[77.326,62.706],[77.887,62.553],[78.015,62.456],[78.379,62.563],[78.793,62.61],[79.821,62.599],[79.907,62.699],[79.92,62.789],[80.555,62.996],[80.591,63.079],[81.111,63.11],[81.171,62.969],[81.316,62.882],[81.337,62.821],[81.597,62.769],[81.633,62.73],[81.783,62.684],[82.165,62.804],[82.316,62.765],[82.747,62.749],[82.755,62.666],[83.008,62.59],[83.032,62.525],[83.282,62.456],[83.798,62.555],[83.939,62.48],[84.017,62.392],[84.241,62.368],[84.286,62.272],[84.391,62.236],[84.443,62.172],[84.487,62.097],[84.516,61.925],[84.684,61.801],[85.096,61.747],[85.277,61.669],[85.405,61.682],[85.491,61.613],[85.712,61.568],[85.842,61.589],[85.957,61.541],[85.962,61.455],[86.129,61.374],[86.211,61.374],[86.327,61.453],[86.51,61.405],[86.523,61.349],[86.603,61.311],[86.775,61.317],[86.976,61.36],[86.989,61.411],[86.95,61.448],[87.001,61.461],[87.255,61.377],[87.245,61.354],[87.467,61.34],[87.474,61.266],[87.564,61.209],[87.692,61.267],[87.713,61.296],[87.676,61.33],[87.776,61.362],[87.963,61.315],[88.182,61.347],[88.953,60.746],[89.866,60.807],[90.946,60.746],[91.965,60.751],[92.138,60.829],[92.134,60.889],[92.234,60.951],[92.226,60.981],[92.409,60.968],[92.474,60.997],[92.401,61.109],[92.466,61.195],[92.559,61.191],[92.757,61.087],[92.902,61.068],[92.89,61.096],[92.939,61.13],[92.818,61.214],[92.829,61.236],[92.631,61.303],[92.829,61.36],[92.93,61.332],[93.012,61.363],[93.152,61.321],[93.156,61.244],[93.343,61.1],[93.472,61.082],[93.568,61.104],[93.732,61.038],[93.92,61.058],[94.029,60.96],[94.251,61.12],[94.382,61.118],[94.545,61.175],[94.724,61.158],[94.919,61.103],[95.102,61.096],[95.359,60.923],[95.403,60.816],[95.326,60.744],[95.48,60.707],[95.234,60.563],[95.227,60.499],[95.29,60.451],[95.265,60.421],[95.113,60.416],[95.022,60.37],[94.929,60.237],[95.011,60.197],[94.977,60.113],[95.082,60.05],[95.007,60.007],[95.02,59.966],[95.062,59.89],[95.174,59.803],[95.136,59.755],[95.241,59.637],[95.499,59.637],[95.593,59.575],[95.726,59.554],[95.786,59.608],[95.879,59.627],[95.953,59.628],[96.052,59.556],[96.239,59.626],[96.326,59.55],[96.29,59.505],[96.352,59.471],[96.452,59.473],[96.554,59.539],[96.783,59.549],[96.905,59.552],[97.033,59.5],[97.121,59.5],[97.224,59.535],[97.237,59.577],[97.204,59.616],[97.361,59.66],[97.457,59.73],[97.696,59.679],[98.052,59.723],[98.126,59.768],[98.337,59.723],[98.445,59.785],[98.606,59.762],[98.878,59.826],[98.935,59.767],[99.001,59.772],[99.102,59.841],[99.118,59.908],[99.409,60.029],[99.41,60.077],[99.649,60.116],[100.065,59.995],[100.097,59.961],[100.072,59.895],[100.315,59.841],[100.431,59.859],[100.553,59.788],[100.866,59.783],[101.025,59.714],[101.448,59.683],[101.471,59.725],[101.73,59.74],[101.792,59.711],[101.785,59.684],[102.073,59.621],[102.107,59.589],[102.444,59.647],[102.486,59.628],[102.456,59.614],[102.454,59.524],[102.526,59.498],[102.527,59.471],[102.639,59.449],[102.483,59.392],[102.517,59.26],[102.436,59.214],[102.484,59.181],[102.615,59.206],[102.82,59.187],[102.9,59.271],[103.014,59.313],[103.136,59.254],[103.212,59.251],[103.232,59.285],[103.332,59.268],[103.343,59.243],[103.21,59.232],[103.235,59.17],[103.309,59.131],[103.391,59.025],[103.556,58.994],[103.623,58.918],[103.896,58.917],[103.975,58.869],[103.944,58.835],[103.951,58.773],[103.884,58.754],[103.889,58.732],[103.97,58.723],[104.039,58.783],[104.192,58.771],[104.252,58.711],[104.378,58.722],[104.343,58.67],[104.406,58.624],[104.609,58.617],[104.631,58.645],[104.814,58.672],[104.877,58.72],[104.899,58.748],[104.764,58.818],[104.923,58.954],[105.098,59.011],[105.137,59.056],[105.277,59.063],[105.373,59.116],[105.313,59.161],[105.343,59.197],[105.307,59.249],[105.191,59.298],[105.241,59.445],[105.149,59.49],[104.974,59.474],[104.857,59.559],[104.886,59.608],[104.811,59.63],[104.813,59.673],[104.78,59.69],[104.889,59.76],[105.026,59.773],[105.018,59.831],[105.069,59.869],[105.372,59.834],[105.431,59.853],[105.466,59.826],[105.52,59.844],[105.437,59.901],[105.428,59.946],[105.51,60.0],[105.433,60.152],[105.512,60.23],[105.344,60.304],[105.23,60.28],[104.903,60.305],[104.79,60.381],[104.668,60.411],[104.649,60.522],[104.587,60.542],[104.575,60.591],[104.513,60.626],[104.614,60.726],[104.582,60.773],[104.492,60.807],[104.485,60.844],[104.638,60.903],[104.585,60.944],[104.648,61.036],[104.629,61.074],[104.697,61.083],[104.855,61.186],[105.049,61.175],[104.953,61.32],[104.822,61.354],[105.008,61.407],[105.283,61.419],[105.284,61.467],[105.378,61.54],[105.587,61.586],[105.669,61.65],[105.814,61.625],[105.898,61.682],[105.982,61.686],[105.903,61.842],[106.277,62.019],[106.399,62.039],[106.417,62.099],[106.393,62.141],[106.454,62.196],[106.47,62.261],[106.38,62.284],[106.487,62.337],[106.444,62.393],[106.548,62.392],[106.633,62.46],[106.759,62.493],[106.688,62.563],[106.8,62.627],[106.478,62.702],[106.516,62.728],[106.516,62.794],[106.454,62.816],[106.438,62.868],[106.204,62.927],[106.193,62.973],[106.152,62.982],[106.175,63.008],[106.127,63.077],[106.4,63.122],[106.398,63.182],[106.443,63.218],[106.356,63.256],[106.421,63.353],[106.622,63.312],[106.741,63.395],[106.502,63.537],[106.523,63.563],[106.602,63.558],[106.591,63.597],[106.66,63.622],[106.694,63.661],[106.61,63.721],[106.701,63.82],[106.795,63.87],[106.728,63.912],[106.733,63.939],[106.627,63.975],[106.63,64.005],[106.674,64.037],[106.971,63.966],[107.043,63.922],[107.197,63.977],[107.306,63.973],[107.372,63.93],[107.339,63.904],[107.416,63.889],[107.452,63.917],[107.585,63.897],[107.632,63.93],[107.632,63.976],[107.762,64.016],[108.206,63.999],[108.315,64.006],[108.394,64.048],[108.248,64.255],[108.086,64.252],[108.05,64.191],[107.976,64.187],[107.642,64.316],[107.353,64.269],[107.272,64.304],[107.258,64.35],[107.105,64.359],[106.917,64.443],[106.738,64.429],[106.656,64.533],[106.58,64.548],[106.547,64.526],[106.576,64.483],[106.553,64.465],[106.137,64.421],[106.089,64.439],[106.137,64.489],[106.026,64.545],[105.906,64.494],[105.771,64.49],[105.79,64.553],[105.716,64.591],[105.756,64.642],[105.701,64.682],[105.881,64.684],[105.823,64.763],[105.866,64.83],[105.991,64.827],[105.935,64.903],[106.033,64.913],[106.027,64.88],[106.058,64.865],[106.212,64.87],[105.959,65.038],[106.111,65.065],[106.193,65.128],[106.312,65.14],[106.41,65.222],[106.528,65.215],[106.435,65.251],[106.449,65.315],[106.614,65.39],[106.819,65.373],[106.973,65.506],[106.709,65.545],[106.705,65.607],[106.435,65.673],[106.464,65.733],[106.438,65.769],[106.495,65.797],[106.469,65.822],[106.498,65.883],[106.469,65.924],[106.522,66.004],[106.34,66.158],[106.202,66.154],[106.117,66.197],[106.141,66.249],[106.119,66.37],[106.337,66.473],[106.317,66.532],[106.245,66.569],[106.222,66.65],[106.26,66.686],[106.152,66.731],[106.216,66.802],[106.014,66.794],[106.097,66.857],[106.087,66.898],[105.858,66.916],[105.857,66.949],[105.697,66.931],[105.551,66.985],[105.556,67.016],[105.949,67.036],[106.067,67.112],[106.076,67.163],[106.342,67.196],[106.439,67.262],[106.543,67.286],[106.711,67.253],[106.827,67.333],[106.926,68.254],[106.911,68.859],[106.155,69.413],[106.344,69.472],[106.358,69.509],[106.479,69.575],[106.597,69.563],[106.63,69.523],[106.853,69.518],[107.607,69.656],[107.954,69.664],[108.023,69.695],[108.017,69.745],[108.052,69.785],[108.119,69.782],[108.248,69.849],[108.899,69.838],[108.944,69.766],[109.201,69.75],[109.309,69.773],[109.34,69.818],[109.39,69.822],[109.409,69.959],[109.532,69.989],[109.551,70.028],[109.361,70.081],[109.368,70.132],[109.309,70.15],[109.309,70.203],[109.578,70.248],[109.622,70.285],[109.586,70.356],[110.008,70.408],[110.317,70.405],[110.313,70.437],[110.122,70.48],[110.092,70.53],[110.158,70.542],[110.117,70.586],[110.15,70.607],[110.139,70.634],[110.452,70.701],[110.511,70.721],[110.519,70.762],[110.622,70.782],[110.845,70.778],[111.052,70.84],[111.374,70.857],[111.48,70.924],[111.936,70.969],[112.039,71.05],[112.106,71.055],[112.247,70.995],[112.356,71.066],[112.596,71.098],[112.518,71.168],[112.668,71.191],[112.721,71.26],[112.605,71.299],[112.473,71.281],[112.222,71.383],[112.006,71.407],[112.004,72.128],[111.717,72.169],[111.693,72.226],[111.6,72.216],[111.673,72.259],[111.576,72.329],[111.325,72.321],[111.062,72.371],[111.046,72.394],[111.079,72.415],[111.04,72.438],[111.289,72.481],[111.313,72.513],[111.18,72.563],[110.917,72.578],[110.89,72.603],[110.912,72.636],[110.777,72.649],[110.726,72.683],[110.669,72.786],[110.751,72.811],[110.649,72.883],[110.912,72.936],[110.702,72.985],[110.857,73.044],[110.791,73.095],[110.854,73.164],[110.385,73.157],[110.37,73.197],[110.585,73.236],[110.631,73.27],[110.545,73.338],[110.21,73.383],[110.561,73.402],[110.681,73.438],[110.692,73.484],[110.818,73.508],[110.885,73.56],[111.011,73.553],[111.296,73.612],[111.2,73.631],[111.188,73.668],[110.79,73.728],[111.064,73.819],[111.14,73.816],[111.215,73.768],[111.496,73.745],[111.762,73.658],[112.093,73.635],[112.477,73.659],[112.996,73.779],[113.221,73.748],[113.308,73.613],[113.309,73.523],[113.241,73.464],[113.547,73.201],[114.186,73.551],[114.934,73.56],[115.611,73.625],[116.671,73.619],[117.535,73.549],[118.455,73.519],[118.339,73.186],[118.498,73.036],[120.578,72.835],[122.244,72.909],[122.882,72.753],[123.515,73.172],[123.442,73.33],[123.414,73.482],[124.222,73.697],[124.457,73.705],[124.818,73.658],[125.717,73.398],[127.719,73.402],[128.497,73.127],[128.523,72.953],[127.313,72.714],[126.216,72.382],[126.111,72.28],[126.225,72.249],[127.122,72.212],[127.418,72.142],[128.17,71.832],[128.432,71.755],[129.355,71.176],[130.172,70.815],[130.779,70.678],[131.055,70.686],[131.519,70.929],[132.283,71.661],[132.553,71.809],[132.684,71.801],[132.791,71.592],[133.138,71.453],[133.744,71.323],[134.241,71.262],[134.623,71.301],[135.51,71.512],[135.861,71.543],[136.227,71.513],[136.765,71.406],[137.63,71.075],[137.855,71.13],[138.076,71.246],[138.175,71.362],[138.114,71.387],[138.121,71.471],[138.445,71.61],[138.676,71.618],[138.9,71.503],[139.159,71.418],[139.745,71.404],[139.791,71.532],[139.824,71.541],[139.8,71.558],[139.826,71.628],[139.739,71.84],[139.806,72.001],[139.848,72.236],[139.339,72.164],[139.095,72.164],[139.045,72.213],[139.046,72.262],[139.168,72.344],[139.311,72.383],[140.215,72.432],[140.589,72.495],[141.293,72.787],[144.562,72.456],[145.571,72.427],[145.57,72.415],[144.821,72.143],[145.21,72.121],[145.666,72.16],[145.755,72.123],[145.702,72.083],[145.799,72.078],[145.68,71.928],[145.266,71.843],[144.881,71.723],[144.801,71.591],[145.101,71.576],[145.746,71.694],[146.186,71.842],[146.915,72.202],[148.698,72.166],[149.529,72.028],[149.709,71.892],[149.437,71.82],[149.371,71.852],[149.216,71.762],[148.711,71.629],[149.715,71.438],[150.694,71.347],[151.119,71.255],[151.48,71.086],[151.645,70.894],[151.899,70.733],[152.134,70.664],[153.405,70.728],[155.049,70.939],[156.043,70.987],[157.397,70.928],[158.409,70.814],[159.228,70.548],[159.466,70.395],[159.627,70.217],[159.573,69.999],[159.444,69.764],[159.673,69.652],[160.678,69.579],[160.674,69.27],[160.862,69.083],[161.078,69.136],[161.088,69.117],[161.08,69.137],[161.171,69.159],[161.417,69.355],[162.119,69.558],[162.307,69.536],[162.405,69.462],[162.365,69.413],[162.493,69.384],[162.537,69.303],[162.77,69.2],[162.522,69.122],[162.493,69.074],[162.543,69.05],[162.533,68.996],[162.764,68.925],[162.777,68.886],[162.833,68.869],[162.74,68.802],[162.592,68.804],[162.606,68.702],[162.681,68.67],[162.717,68.606],[162.578,68.51],[162.587,68.454],[162.525,68.358],[162.417,68.314],[162.179,68.36],[161.406,68.417],[161.224,68.389],[160.997,68.306],[159.849,68.282],[159.782,68.214],[159.552,68.244],[158.935,68.149],[158.418,68.116],[158.254,68.073],[158.188,67.959],[158.063,67.925],[158.064,67.843],[158.254,67.828],[158.318,67.753],[158.151,67.725],[157.923,67.741],[157.804,67.71],[157.729,67.649],[157.731,67.593],[157.686,67.538],[157.749,67.504],[157.751,67.47],[157.878,67.437],[157.778,67.347],[157.867,67.263],[158.351,67.112],[158.7,67.051],[158.797,66.977],[158.783,66.918],[158.856,66.871],[158.895,66.795],[158.713,66.735],[158.626,66.616],[158.527,66.573],[158.459,66.487],[158.354,66.447],[158.527,66.355],[158.641,66.345],[158.774,66.279],[159.188,66.216],[159.19,66.153],[159.049,66.052],[158.987,65.938],[158.924,65.898],[158.932,65.816],[158.885,65.785],[158.919,65.739],[159.376,65.653],[159.833,65.524],[160.026,65.51],[160.167,65.447],[160.165,65.38],[160.206,65.344],[160.415,65.248],[160.518,65.161],[161.01,65.165],[161.281,65.136],[161.416,65.064],[161.687,64.99],[161.717,64.913],[161.808,64.822],[162.292,64.737],[162.554,64.742],[162.735,64.656],[163.046,64.65],[163.122,64.691],[163.142,64.77],[163.12,64.797],[163.347,64.814],[163.507,64.924],[163.873,64.86],[164.023,64.87],[164.188,64.929],[164.796,64.767],[164.881,64.681],[165.022,64.691],[165.032,64.838],[165.263,64.846],[165.333,64.808],[165.32,64.78],[165.358,64.756],[165.681,64.75],[165.739,64.718],[165.741,64.674],[165.869,64.617],[165.814,64.585],[165.87,64.55],[166.058,64.557],[166.199,64.604],[166.807,64.528],[167.009,64.546],[167.157,64.614],[167.238,64.618],[167.37,64.49],[167.505,64.473],[167.713,64.336],[167.814,64.346],[168.025,64.281],[168.153,64.286],[168.223,64.341],[168.497,64.313],[168.623,64.21],[168.77,64.183],[168.764,64.146],[168.858,64.022],[169.111,63.948],[169.342,63.943],[169.368,63.87],[169.542,63.813],[169.548,63.698],[169.587,63.657],[169.51,63.633],[169.491,63.573],[169.203,63.52],[168.785,63.304],[168.776,63.246],[168.684,63.245],[168.706,63.196],[168.595,63.19],[168.46,63.075],[168.925,62.939],[169.125,62.968],[169.513,62.809],[169.655,62.704],[169.841,62.651],[170.053,62.663],[169.982,62.543],[170.084,62.486],[170.037,62.444],[170.26,62.281],[170.423,62.309],[170.848,62.243],[170.903,62.275],[171.08,62.285],[171.045,62.336],[171.217,62.363],[171.258,62.321],[171.36,62.351],[171.377,62.319],[171.486,62.307],[171.858,62.377],[171.871,62.408],[172.054,62.461],[172.206,62.446],[172.294,62.398],[172.488,62.435],[172.703,62.398],[172.853,62.327],[172.904,62.388],[173.172,62.39],[173.216,62.432],[173.504,62.529],[173.688,62.53],[173.797,62.511],[173.871,62.436],[174.075,62.442],[174.089,62.345],[174.005,62.278],[174.106,62.186],[174.103,62.076],[174.227,62.061],[174.328,62.088],[174.344,62.041],[174.458,61.984],[174.446,61.911],[174.504,61.875],[174.318,61.772],[174.147,61.751],[173.842,61.613],[173.774,61.611],[173.755,61.654],[173.571,61.704],[173.544,61.603],[173.342,61.552],[173.072,61.345],[172.977,61.372],[173.003,61.315],[172.919,61.278],[172.492,61.263],[172.108,60.983],[171.999,60.857],[171.248,60.654],[171.123,60.51],[170.847,60.464],[170.782,60.393],[170.337,60.277],[170.268,60.145],[170.272,60.013],[170.119,59.918],[170.066,59.946],[170.051,59.993],[169.904,60.037],[169.795,60.202],[169.704,60.256],[169.657,60.378],[169.55,60.421],[169.208,60.537],[168.645,60.503],[168.482,60.549],[168.287,60.546],[167.809,60.463],[167.594,60.395],[167.508,60.404],[167.243,60.311],[167.102,60.33],[166.96,60.217],[166.16,59.777],[166.077,59.789],[166.051,59.865],[166.13,60.142],[166.233,60.218],[166.224,60.329],[166.183,60.397],[166.074,60.378],[165.955,60.311],[165.78,60.354],[165.42,60.123],[164.933,59.962],[164.887,59.756],[164.85,59.739],[164.761,59.762],[164.659,59.952],[164.452,60.065],[164.343,59.941],[164.11,60.078],[163.966,59.988],[163.842,59.977],[163.742,59.881],[163.389,59.814],[163.106,59.579],[163.043,59.462],[163.1,59.359],[163.255,59.29],[162.835,59.056],[162.753,58.966],[162.907,58.891],[162.22,58.486],[161.938,58.259],[161.804,58.102],[161.8,57.863],[161.989,57.72],[162.203,57.679],[162.827,57.701],[163.08,57.625],[163.125,57.549],[162.932,57.374],[162.593,57.17],[162.512,57.033],[162.744,56.6],[163.099,56.558],[163.172,56.385],[163.165,56.105],[163.022,55.958],[162.794,56.014],[162.598,56.174],[162.722,56.342],[162.697,56.343],[162.714,56.378],[162.807,56.406],[162.731,56.43],[162.58,56.377],[162.522,56.391],[162.572,56.347],[162.522,56.349],[162.317,56.24],[161.861,55.861],[161.609,55.557],[161.503,55.288],[161.647,54.985],[161.938,54.846],[162.006,54.742],[161.876,54.564],[161.657,54.464],[161.315,54.44],[161.213,54.474],[161.14,54.547],[160.901,54.522],[160.404,54.368],[160.027,54.153],[159.695,53.859],[159.633,53.706],[159.683,53.58],[159.905,53.4],[159.922,53.299],[159.896,53.24],[159.729,53.182],[159.629,53.207],[159.492,53.181],[159.428,53.129],[159.178,53.087],[158.461,52.826],[158.432,52.713],[158.462,52.586],[158.39,52.203],[158.258,52.017],[157.898,51.666],[157.21,51.229],[156.701,50.959],[156.707,51.038],[156.651,51.108],[156.668,51.167],[156.564,51.234],[156.443,51.691],[156.391,52.203],[156.063,52.921],[155.888,53.849],[155.681,54.41],[155.561,54.887],[155.505,55.374],[155.638,56.054],[155.82,56.454],[156.236,56.757],[156.558,56.947],[156.946,57.434],[156.899,57.608],[157.511,57.745],[157.962,57.883],[158.326,58.027],[159.104,58.425],[159.393,58.61],[159.586,58.803],[159.62,58.885],[159.692,58.918],[159.69,58.974],[160.844,59.554],[161.535,59.942],[161.701,60.073],[161.778,60.2],[161.876,60.251],[161.849,60.279],[162.381,60.464],[163.329,60.695],[163.439,60.881],[163.594,60.917],[163.522,60.943],[163.793,61.128],[163.831,61.233],[163.793,61.248],[163.897,61.277],[163.911,61.332],[163.963,61.362],[163.853,61.403],[163.761,61.365],[163.702,61.45],[163.924,61.717],[164.003,61.717],[164.018,61.792],[163.993,61.851],[164.042,61.91],[164.03,62.097],[164.061,62.149],[164.276,62.223],[165.286,62.288],[165.067,62.436],[164.512,62.494],[164.745,62.51],[165.035,62.453],[164.751,62.51],[164.579,62.624],[164.442,62.64],[164.063,62.605],[163.918,62.535],[163.77,62.552],[163.316,62.483],[163.298,62.425],[163.34,62.411],[162.99,62.326],[163.009,62.178],[162.711,61.763],[162.766,61.674],[162.746,61.608],[162.575,61.581],[162.426,61.623],[162.355,61.548],[161.536,61.187],[160.646,60.718],[160.12,60.564],[160.087,60.59],[160.1,60.68],[160.193,60.754],[160.127,60.804],[160.213,60.916],[160.318,60.981],[160.096,60.958],[159.816,60.981],[159.798,61.016],[159.931,61.116],[159.869,61.205],[159.797,61.196],[159.857,61.303],[160.062,61.521],[160.202,61.568],[160.214,61.713],[160.327,61.773],[160.305,61.888],[160.066,61.802],[160.027,61.76],[159.966,61.765],[159.566,61.605],[159.482,61.641],[159.463,61.716],[159.324,61.778],[159.306,61.849],[159.03,61.866],[158.901,61.841],[158.866,61.778],[158.574,61.781],[158.456,61.751],[158.273,61.776],[158.204,61.729],[157.924,61.705],[157.479,61.734],[157.417,61.7],[157.407,61.66],[157.098,61.633],[156.825,61.563],[156.423,61.401],[156.381,61.205],[156.415,61.12],[155.667,60.778],[155.719,60.605],[155.591,60.578],[155.509,60.493],[155.324,60.466],[154.693,60.199],[154.316,59.983],[154.092,59.776],[153.943,59.569],[153.944,59.397],[154.182,59.301],[154.753,59.281],[154.887,59.139],[154.854,59.139],[154.836,59.094],[154.669,59.096],[154.45,59.166],[154.401,59.146],[154.379,59.065],[154.045,59.003],[153.881,59.043],[153.782,59.126],[153.415,59.185],[153.404,59.102],[153.36,59.045],[153.097,59.033],[152.828,58.948],[152.694,58.873],[152.538,58.903],[152.376,58.982],[151.894,58.823],[151.722,58.799],[151.463,58.814],[151.346,58.783],[151.191,58.944],[151.857,59.056],[151.685,59.205],[152.05,59.198],[152.162,59.235],[151.973,59.215],[151.894,59.252],[151.72,59.259],[151.613,59.438],[151.498,59.462],[151.387,59.538],[151.329,59.506],[150.988,59.515],[150.984,59.437],[150.531,59.429],[150.468,59.453],[150.47,59.526],[150.419,59.57],[149.599,59.708],[149.415,59.691],[148.728,59.476],[148.747,59.298],[148.598,59.192],[148.416,59.217],[148.356,59.334],[148.22,59.359],[147.883,59.333],[147.879,59.259],[147.381,59.235],[147.262,59.283],[147.192,59.263],[147.045,59.313],[146.712,59.332],[146.647,59.385],[146.503,59.413],[146.369,59.376],[146.381,59.275],[146.054,59.251],[145.99,59.093],[145.946,59.103],[145.906,59.17],[145.785,59.211],[145.801,59.318],[145.661,59.373],[145.008,59.32],[143.899,59.369],[143.424,59.273],[143.198,59.322],[143.023,59.276],[142.846,59.273],[142.358,59.141],[141.924,58.941],[141.591,58.728],[141.35,58.501],[140.587,58.239],[140.043,57.66],[138.867,57.125],[138.346,56.804],[137.229,55.983],[136.522,55.59],[135.269,55.029],[134.985,54.854],[134.894,54.72],[134.902,54.559],[135.094,54.433],[135.726,54.407],[136.196,54.475],[136.488,54.455],[136.344,53.888],[136.351,53.701],[136.487,53.655],[136.77,53.695],[137.039,53.862],[137.376,53.81],[137.122,53.59],[137.071,53.489],[137.239,53.457],[137.98,53.465],[138.234,53.572],[138.409,53.805],[138.417,53.987],[138.6,54.045],[138.631,54.008],[138.636,53.895],[138.722,54.035],[138.652,54.027],[138.618,54.089],[139.379,54.08],[139.807,53.961],[140.102,53.802],[140.321,53.536],[140.702,53.277],[140.893,53.198],[141.12,53.05],[141.088,52.984],[140.828,52.825],[141.032,52.726],[141.09,52.589],[140.94,52.262],[141.161,52.209],[141.256,52.101],[141.127,51.872],[140.73,51.441],[140.404,50.827],[140.324,50.518],[140.457,50.102],[140.328,49.357],[140.08,48.501],[139.214,47.811],[139.047,47.615],[138.974,47.404],[138.857,47.471],[138.73,47.442],[138.584,47.485],[138.627,47.507],[138.601,47.545],[138.648,47.607],[138.517,47.661],[138.61,47.721],[138.819,47.765],[138.834,47.837],[138.709,47.958],[138.587,48.021],[138.631,48.115],[138.726,48.133],[138.712,48.192],[138.546,48.193],[138.542,48.265],[138.486,48.294],[138.513,48.354],[138.489,48.41],[138.305,48.45],[138.177,48.388],[138.164,48.328],[137.993,48.302],[137.884,48.225],[137.578,48.233],[137.435,48.204],[137.311,48.092],[137.319,48.051],[137.399,48.012],[137.414,47.974],[137.509,47.958],[137.601,47.894],[137.449,47.823],[137.437,47.778],[137.607,47.778],[137.786,47.692],[137.952,47.707],[138.034,47.667],[137.967,47.596],[138.064,47.578],[138.081,47.519],[137.815,47.359],[137.601,47.308],[137.451,47.203],[137.364,47.203],[137.264,47.286],[137.2,47.255],[137.063,47.299],[136.945,47.158],[136.928,47.061],[136.969,47.016],[136.589,46.785],[136.451,46.815],[136.371,46.77],[136.264,46.77],[136.069,46.856],[135.941,46.795],[135.839,46.82],[135.801,46.881],[135.73,46.904],[135.746,46.954],[135.618,46.942],[135.563,46.967],[135.369,46.921],[135.437,47.017],[135.427,47.044],[135.309,47.101],[135.311,47.149],[135.077,47.197],[135.0,47.123],[134.851,47.159],[134.673,47.11],[134.573,47.034],[134.536,46.962],[134.44,46.95],[134.406,46.859],[134.462,46.775],[134.416,46.684],[133.998,46.643],[133.896,46.582],[134.165,47.334],[134.717,47.694],[134.71,47.921],[134.628,48.213],[134.518,48.264],[134.111,48.249],[133.58,48.155],[132.969,48.016],[132.268,47.778],[130.923,47.734],[130.807,47.933],[130.476,48.9],[130.384,48.964],[129.187,49.342],[128.501,49.456],[127.94,49.609],[127.712,49.699],[127.515,49.875],[127.099,50.731],[126.675,51.445],[126.186,52.518],[125.853,52.947],[125.509,53.157],[125.266,53.169],[124.642,53.113],[124.336,53.197],[123.87,53.413],[123.353,53.51],[121.554,53.348],[121.204,53.277],[121.055,53.29],[120.729,53.194],[120.279,52.865],[120.044,52.739],[120.03,52.639],[120.055,52.602],[120.454,52.639],[120.718,52.544],[120.709,52.519],[120.773,52.477],[120.821,52.365],[120.747,52.01],[120.647,51.911],[120.493,51.876],[120.167,51.669],[120.1,51.66],[120.052,51.551],[119.977,51.487],[119.954,51.399],[119.895,51.384],[119.912,51.329],[119.82,51.275],[119.811,51.217],[119.762,51.215],[119.781,51.17],[119.741,51.072],[119.518,50.905],[119.497,50.737],[119.294,50.599],[119.251,50.505],[119.244,50.445],[119.364,50.315],[119.336,50.286],[119.344,50.142],[119.317,50.093],[119.19,50.007],[118.962,49.982],[118.377,49.799],[117.873,49.513],[117.757,49.513],[117.433,49.616],[117.253,49.622],[117.057,49.673],[116.722,49.802],[116.577,49.926],[116.219,50.019],[116.052,50.003],[115.717,49.883],[115.388,49.896],[115.212,49.976],[115.0,50.149],[114.756,50.241],[114.472,50.239],[114.286,50.282],[113.971,50.165],[113.847,50.085],[113.751,50.083],[113.456,49.962],[113.179,49.806],[113.083,49.69],[113.056,49.6],[112.776,49.506],[112.473,49.539],[112.03,49.417],[111.66,49.401],[111.479,49.348],[111.337,49.37],[110.84,49.167],[110.687,49.14],[110.372,49.247],[110.181,49.167],[109.729,49.271],[109.516,49.261],[109.453,49.311],[109.287,49.344],[108.54,49.332],[108.338,49.44],[108.239,49.537],[108.107,49.559],[108.019,49.606],[108.019,49.66],[107.935,49.676],[107.961,49.745],[107.949,49.938],[107.193,50.011],[107.062,50.077],[106.976,50.201],[106.658,50.332],[106.223,50.297],[106.06,50.338],[105.986,50.405],[105.278,50.478],[105.106,50.395],[104.901,50.395],[104.609,50.319],[104.404,50.305],[104.121,50.153],[103.785,50.191],[103.666,50.136],[103.439,50.198],[103.279,50.202],[103.203,50.302],[102.928,50.308],[102.764,50.38],[102.619,50.404],[102.515,50.508],[102.33,50.55],[102.286,50.594],[102.28,50.647],[102.334,50.72],[102.22,50.804],[102.235,50.98],[102.151,51.099],[102.14,51.233],[102.198,51.305],[102.186,51.328],[102.053,51.388],[101.725,51.455],[101.527,51.481],[101.352,51.455],[101.243,51.52],[101.118,51.533],[100.512,51.732],[99.92,51.754],[99.711,51.885],[99.325,51.939],[99.235,51.999],[98.998,52.062],[98.935,52.196],[98.815,52.2],[98.802,52.279],[98.714,52.298],[98.651,52.266],[98.682,52.37],[98.64,52.42],[98.718,52.454],[98.734,52.502],[98.809,52.51],[98.831,52.542],[98.806,52.604],[98.938,52.663],[98.942,52.8],[98.871,52.798],[98.857,52.832],[98.932,52.915],[99.197,52.848],[99.253,52.958],[98.994,53.04],[99.067,53.101],[98.938,53.154],[98.861,53.13],[98.687,53.16],[98.608,53.11],[98.316,53.105],[98.291,53.228],[98.033,53.257],[97.977,53.296],[97.959,53.363],[97.607,53.378],[97.589,53.442],[97.45,53.467],[97.336,53.599],[97.128,53.618],[96.886,53.732],[96.714,53.702],[96.652,53.558],[96.564,53.539],[96.444,53.518],[96.366,53.563],[96.375,53.604],[96.294,53.588],[96.301,53.616],[96.251,53.621],[96.184,53.52],[96.111,53.494],[96.093,53.456],[95.756,53.525],[95.396,53.377],[95.306,53.399],[95.293,53.449],[95.246,53.462],[95.052,53.382],[94.976,53.41],[94.739,53.388],[94.592,53.32],[94.588,53.288],[94.672,53.276],[94.694,53.238],[94.6,53.179],[94.598,53.049],[94.508,52.914],[94.304,52.909],[94.146,52.846],[94.134,52.763],[94.068,52.671],[93.98,52.637],[93.979,52.582],[93.761,52.443],[93.76,52.367],[93.683,52.298],[93.67,52.225],[93.358,52.134],[93.227,52.041],[93.131,52.017],[93.073,51.95],[92.899,51.9],[92.851,51.838],[92.672,51.845],[92.507,51.787],[92.209,51.811],[92.104,51.788],[91.947,51.809],[91.885,51.861],[91.627,51.872],[91.558,51.905],[91.238,51.887],[91.101,51.948],[90.849,51.914],[90.738,52.074],[90.563,52.125],[90.493,52.187],[90.35,52.197],[90.127,52.139],[90.114,52.046],[90.023,51.987],[90.097,51.755],[89.963,51.766],[89.684,51.573],[89.58,51.558],[89.42,51.61],[89.258,51.554],[89.22,51.573],[89.238,51.646],[89.206,51.663],[89.032,51.605],[88.734,51.564],[88.653,51.53],[88.692,51.395],[88.629,51.39],[88.588,51.33],[88.447,51.29],[88.317,51.349],[88.162,51.356],[88.144,51.433],[87.938,51.479],[87.91,51.53],[87.821,51.556],[87.677,51.536],[87.733,51.388],[87.551,51.369],[87.546,51.271],[87.5,51.237],[87.432,51.262],[87.124,51.226],[87.205,51.043],[87.311,50.919],[87.358,50.918],[87.486,50.616],[87.433,50.508],[87.338,50.443],[87.398,50.374],[87.106,50.334],[87.069,50.288],[87.108,50.241],[86.977,50.295],[86.78,50.202],[86.717,50.243],[86.665,50.2],[86.708,50.088],[86.617,50.023],[86.658,49.888],[86.618,49.886],[86.586,49.804],[86.768,49.786],[86.748,49.742],[86.77,49.702],[86.698,49.69],[86.593,49.609],[86.614,49.567],[86.816,49.544],[86.845,49.505],[86.829,49.449],[86.934,49.407],[86.922,49.347],[87.024,49.249],[87.271,49.206],[87.282,49.114],[87.315,49.091],[87.116,49.13],[86.977,49.093],[86.859,49.105],[86.709,48.954],[86.787,48.84],[86.739,48.784],[86.75,48.713],[86.565,48.527],[86.307,48.483],[86.193,48.418],[85.784,48.408],[85.719,48.359],[85.586,48.141],[85.515,47.92],[85.595,47.625],[85.585,47.493],[85.671,47.383],[85.679,47.273],[85.658,47.205],[85.557,47.179],[85.5,47.054],[85.226,47.042],[84.915,46.85],[84.738,46.815],[84.716,46.836],[84.752,46.918],[84.664,46.984],[84.266,47.0],[84.071,46.965],[83.905,46.974],[83.524,47.067],[83.15,47.212],[83.021,47.206],[82.986,46.943],[82.839,46.733],[82.674,46.33],[82.568,46.197],[82.489,45.901],[82.372,45.734],[82.292,45.533],[82.327,45.493],[82.632,45.416],[82.615,45.249],[82.54,45.124],[82.474,45.116],[82.245,45.232],[81.949,45.145],[81.796,45.195],[81.765,45.308],[81.665,45.348],[81.542,45.293],[80.855,45.127],[80.697,45.144],[80.445,45.104],[80.391,45.046],[80.103,45.032],[79.858,44.904],[79.843,44.873],[79.869,44.849],[79.992,44.794],[80.245,44.816],[80.492,44.728],[80.492,44.702],[80.356,44.653],[80.382,44.599],[80.33,44.453],[80.373,44.23],[80.339,44.121],[80.404,44.049],[80.713,43.458],[80.643,43.326],[80.749,43.275],[80.793,43.151],[80.733,43.101],[80.618,43.134],[80.368,43.029],[80.374,42.975],[80.554,42.896],[80.335,42.817],[80.248,42.816],[80.144,42.645],[80.268,42.24],[80.213,42.19],[79.918,42.424],[79.425,42.47],[79.353,42.577],[79.206,42.657],[79.181,42.776],[79.148,42.791],[78.992,42.757],[78.43,42.881],[78.313,42.851],[78.03,42.855],[77.714,42.908],[77.558,42.888],[77.418,42.922],[77.327,42.898],[77.179,42.913],[77.124,42.959],[76.957,42.988],[76.833,42.972],[76.709,42.914],[76.584,42.895],[76.48,42.917],[76.417,42.887],[75.599,42.979],[75.651,43.017],[75.366,43.157],[75.322,43.22],[75.298,43.3],[75.428,43.469],[75.022,43.564],[75.273,43.877],[75.318,43.967],[75.326,44.078],[75.149,44.221],[74.979,44.291],[74.757,44.314],[74.611,44.412],[74.557,44.517],[74.54,44.655],[74.156,44.907],[74.095,45.06],[73.899,45.078],[73.814,45.171],[73.848,45.258],[74.094,45.269],[74.03,45.536],[74.056,45.776],[74.184,45.956],[69.171,45.937],[67.277,45.958],[67.248,46.057],[66.978,46.056],[65.553,46.291],[65.342,46.361],[65.1,46.511],[63.788,46.869],[63.6,46.866],[63.35,46.948],[63.21,46.961],[62.951,47.08],[62.659,47.049],[62.671,47.093],[62.842,47.184],[62.456,47.247],[62.467,47.292],[62.32,47.446],[62.17,47.544],[62.048,47.571],[61.859,47.776],[61.574,47.776],[61.327,47.733],[61.108,47.528],[61.017,47.361],[60.766,47.101],[60.538,47.112],[60.441,47.046],[60.409,46.923],[60.169,46.885],[59.921,46.76],[59.668,46.58],[59.113,46.066],[59.027,45.818],[59.051,45.328],[58.531,45.559],[55.976,44.995],[55.975,41.322],[55.635,41.264],[55.449,41.279],[55.373,41.376],[55.228,41.473],[54.95,41.796],[54.907,41.932],[54.738,42.048],[54.123,42.338],[53.412,42.258],[52.979,42.127],[52.441,41.754],[52.491,41.902],[52.404,42.096],[52.436,42.179],[52.594,42.335],[52.676,42.538],[52.663,42.613],[52.564,42.741],[52.664,42.667],[52.71,42.585],[52.741,42.638],[52.713,42.731],[52.471,42.826],[52.357,42.832],[52.274,42.798],[52.169,42.887],[51.912,42.842],[51.772,43.031],[51.676,43.1],[51.651,43.191],[51.51,43.155],[51.265,43.162],[51.313,43.311],[51.315,43.463],[51.273,43.559],[51.115,43.661],[50.991,43.908],[50.86,44.026],[50.847,44.189],[50.696,44.264],[50.278,44.336],[50.23,44.39],[50.224,44.566],[50.268,44.57],[50.312,44.662],[50.757,44.605],[50.786,44.633],[50.873,44.629],[51.115,44.488],[51.366,44.56],[51.374,44.528],[51.56,44.511],[51.554,44.551],[51.439,44.61],[51.318,44.597],[51.234,44.719],[50.963,44.862],[50.994,44.937],[50.953,44.955],[50.96,44.979],[51.194,45.065],[51.273,45.025],[51.245,45.163],[51.418,45.385],[51.494,45.335],[51.593,45.345],[51.7,45.392],[51.759,45.456],[51.792,45.405],[51.94,45.367],[52.007,45.395],[52.52,45.409],[52.91,45.313],[53.108,45.3],[53.258,45.341],[52.755,45.517],[52.733,45.553],[52.746,45.64],[52.954,45.83],[53.082,46.005],[53.157,46.342],[53.033,46.471],[53.102,46.444],[53.082,46.512],[53.019,46.479],[52.997,46.506],[53.04,46.574],[53.054,46.546],[53.088,46.553],[53.108,46.622],[53.118,46.602],[53.201,46.643],[53.208,46.695],[53.106,46.738],[53.06,46.892],[52.957,46.927],[52.551,46.978],[52.377,46.874],[52.22,46.85],[52.236,46.807],[52.112,46.813],[52.038,46.865],[51.854,46.895],[51.885,46.933],[51.763,46.916],[51.677,46.977],[51.695,47.031],[51.633,47.043],[51.595,46.987],[51.527,47.053],[51.382,47.084],[51.117,47.063],[50.874,46.975],[50.821,46.919],[50.631,46.91],[50.571,46.83],[50.579,46.877],[50.485,46.818],[50.449,46.836],[50.416,46.779],[50.328,46.76],[50.254,46.681],[50.177,46.693],[50.084,46.612],[49.947,46.559],[49.703,46.519],[49.624,46.537],[49.579,46.499],[49.535,46.542],[49.287,46.34],[49.237,46.262],[49.159,46.239],[49.163,46.211],[49.059,46.137],[48.833,46.083],[48.832,46.009],[48.779,46.016],[48.807,45.909],[48.772,45.886],[48.635,45.975],[48.303,45.768],[47.873,45.679],[47.673,45.75],[47.628,45.732],[47.601,45.66],[47.654,45.543],[47.548,45.453],[47.437,45.293],[47.395,45.175],[47.365,45.136],[47.332,45.141],[47.158,44.854],[46.949,44.734],[46.992,44.725],[46.937,44.722],[46.763,44.607],[46.771,44.534],[46.739,44.5],[46.781,44.445],[46.932,44.433],[46.944,44.398],[47.022,44.372],[47.071,44.27],[47.047,44.35],[47.101,44.344],[47.137,44.274],[47.24,44.219],[47.282,44.105],[47.258,44.198],[47.31,44.189],[47.472,43.918],[47.544,43.876],[47.461,43.554],[47.425,43.51],[47.375,43.605],[47.413,43.624],[47.399,43.69],[47.278,43.782],[47.274,43.815],[46.918,43.82],[46.869,43.768],[46.777,43.78],[46.571,43.736],[46.664,43.781],[46.666,43.839],[46.591,43.877],[46.466,43.882],[46.444,44.007],[46.322,44.015],[46.329,43.973],[46.243,43.946],[46.217,43.867],[46.094,43.865],[46.06,43.825],[46.024,43.877],[46.063,43.882],[46.074,43.935],[45.832,43.983],[45.723,43.958],[45.487,44.011],[45.719,43.948],[45.858,43.966],[46.04,43.929],[45.999,43.88],[46.041,43.816],[46.08,43.811],[46.104,43.854],[46.201,43.843],[46.253,43.877],[46.26,43.941],[46.363,43.94],[46.352,43.991],[46.421,43.992],[46.455,43.934],[46.445,43.873],[46.584,43.866],[46.648,43.794],[46.548,43.759],[46.455,43.667],[46.411,43.597],[46.428,43.538],[46.38,43.48],[46.306,43.469],[46.303,43.438],[46.23,43.425],[46.112,43.46],[45.98,43.427],[45.729,43.539],[45.5,43.562],[45.366,43.651],[45.264,43.626],[45.195,43.652],[45.182,43.698],[45.102,43.715],[45.079,43.694],[45.065,43.777],[45.001,43.762],[44.958,43.675],[44.836,43.665],[44.831,43.588],[44.767,43.625],[44.698,43.614],[44.685,43.563],[44.623,43.555],[44.622,43.615],[44.549,43.604],[44.517,43.565],[44.493,43.396],[44.57,43.382],[44.571,43.237],[44.66,43.204],[44.651,43.234],[44.678,43.244],[44.922,43.051],[44.933,42.925],[44.851,42.843],[44.624,42.884],[44.611,42.776],[44.771,42.605],[44.864,42.754],[45.028,42.684],[45.153,42.689],[45.354,42.515],[45.537,42.536],[45.697,42.503],[45.732,42.449],[45.617,42.226],[45.628,42.197],[45.88,42.097],[45.946,42.018],[46.056,42.015],[46.098,41.98],[46.221,41.989],[46.292,41.934],[46.537,41.872],[46.566,41.782],[46.736,41.843],[46.766,41.772],[46.898,41.709],[47.024,41.553],[47.137,41.55],[47.234,41.414],[47.248,41.312],[47.374,41.255],[47.498,41.242],[47.546,41.201],[47.625,41.224],[47.744,41.188],[47.897,41.215],[47.898,41.282],[47.954,41.349],[48.005,41.359],[48.058,41.458],[48.204,41.489],[48.373,41.576],[48.586,41.841],[49.043,41.414],[49.136,41.275],[49.195,41.057],[49.382,40.867],[49.537,40.789],[49.51,40.699],[49.539,40.654],[49.817,40.565],[50.052,40.584],[50.109,40.527],[50.236,40.497],[50.351,40.386],[50.388,40.221],[50.323,40.297],[50.23,40.343],[50.128,40.359],[49.984,40.324],[49.893,40.369],[49.819,40.292],[49.577,40.217],[49.493,40.154],[49.496,40.096],[49.433,40.063],[49.48,39.987],[49.424,39.936],[49.442,39.872],[49.395,39.783],[49.424,39.711],[49.318,39.622],[49.285,39.522],[49.296,39.477],[49.408,39.388],[49.407,39.324],[49.367,39.351],[49.407,39.289],[49.307,39.346],[49.247,39.311],[49.203,39.033],[49.082,38.964],[49.056,39.007],[49.126,39.028],[49.148,39.084],[49.07,39.112],[49.041,39.184],[48.962,39.176],[48.922,38.935],[48.869,38.865],[48.832,38.871],[48.874,38.439],[48.778,38.445],[48.608,38.396],[48.415,38.618],[48.31,38.6],[48.229,38.662],[48.223,38.722],[47.993,38.85],[47.991,38.892],[48.059,38.948],[48.243,38.974],[48.301,39.017],[48.271,39.108],[48.142,39.181],[48.106,39.269],[48.153,39.319],[48.339,39.379],[47.957,39.707],[47.823,39.68],[47.541,39.515],[47.407,39.477],[47.292,39.38],[47.102,39.308],[47.019,39.189],[46.866,39.165],[46.569,38.897],[46.495,38.886],[46.378,38.925],[46.125,38.863],[45.46,38.993],[45.311,39.2],[45.152,39.217],[45.088,39.351],[44.956,39.436],[44.872,39.625],[44.647,39.719],[44.59,39.772],[44.46,39.699],[44.455,39.645],[44.224,39.628],[43.884,39.654],[43.564,39.833],[43.403,39.784],[43.351,39.803],[43.32,39.971],[43.359,40.042],[43.665,40.11],[43.655,40.141],[43.721,40.169],[43.595,40.346],[43.625,40.42],[43.56,40.475],[43.653,40.529],[43.707,40.612],[43.721,40.763],[43.636,40.934],[43.46,41.023],[43.438,41.156],[43.352,41.194],[43.217,41.18],[43.172,41.242],[43.123,41.251],[43.184,41.299],[43.003,41.382],[42.868,41.5],[42.832,41.474],[42.774,41.5],[42.809,41.552],[42.694,41.564],[42.546,41.497],[42.591,41.581],[42.487,41.699],[42.486,41.802],[42.407,41.84],[42.231,41.804],[42.063,41.817],[41.906,41.903],[41.773,41.907],[41.735,41.751],[41.616,41.638],[41.724,41.832],[41.724,41.902],[41.442,42.726],[41.225,42.802],[41.151,42.795],[41.023,42.99],[40.935,42.982],[40.856,43.063],[40.591,43.086],[40.398,43.162],[40.334,43.144],[40.269,43.216],[40.265,43.263],[40.101,43.365],[40.012,43.386],[40.106,43.563],[40.259,43.581],[40.564,43.514],[40.667,43.562],[40.466,43.658],[40.469,43.716],[40.393,43.736],[40.394,43.769],[40.357,43.781],[40.462,43.974],[40.388,44.035],[40.373,44.216],[40.443,44.299],[40.413,44.343],[40.411,44.502],[40.336,44.56],[40.331,44.612],[40.383,44.65],[40.407,44.733],[40.499,44.743],[40.545,44.723],[40.554,44.666],[40.626,44.618],[40.672,44.534],[40.67,44.489],[40.623,44.458],[40.759,44.474],[40.733,44.61],[40.635,44.71],[40.623,44.788],[40.531,44.919],[40.419,45.004],[40.248,45.097],[40.158,45.116],[39.903,45.084],[39.635,45.198],[39.555,45.183],[39.319,45.005],[39.079,44.969],[38.987,44.989],[38.907,45.055],[38.809,45.01],[38.722,45.019],[38.687,45.08],[38.639,45.064],[38.588,45.106],[38.499,45.12],[38.467,45.092],[38.314,45.178],[38.215,45.194],[38.14,45.148],[38.105,45.17],[37.799,45.125],[37.751,45.17],[37.636,45.144],[37.469,45.188],[37.448,45.153],[37.51,45.144],[37.543,45.053],[37.641,45.009],[37.62,44.972],[37.694,44.922],[37.7,44.876],[37.761,44.886],[37.765,44.849],[37.911,44.766],[37.865,44.697],[37.774,44.729],[37.804,44.679],[37.724,44.65],[37.475,44.692],[37.387,44.758],[37.297,44.89],[37.315,44.923],[37.253,44.98],[36.912,45.103],[36.976,45.121],[37.119,45.093],[36.97,45.231],[37.227,45.312],[37.661,45.345],[37.706,45.579],[37.99,46.006],[38.227,46.02],[38.497,46.085],[38.432,46.112],[38.265,46.319],[37.97,46.441],[37.757,46.603],[37.866,46.655],[38.401,46.721],[38.899,46.966],[39.27,47.07],[39.232,47.088],[39.263,47.112],[39.16,47.269],[38.941,47.245],[38.946,47.197],[38.57,47.142],[38.572,47.115],[38.497,47.137],[38.525,47.192],[38.476,47.144],[38.238,47.121],[38.237,47.154],[37.422,47.077],[37.194,46.895],[36.916,46.823],[36.767,46.63],[36.744,46.65],[36.802,46.725],[36.696,46.78],[36.379,46.709],[36.234,46.562],[36.257,46.621],[36.19,46.669],[35.896,46.651],[35.491,46.448],[35.284,46.259],[35.218,46.281],[35.24,46.309],[35.219,46.337],[35.171,46.293],[35.112,46.302],[34.835,46.206],[34.81,46.159],[34.852,46.0],[34.962,45.757],[34.8,45.811],[34.802,45.901],[34.629,45.986],[34.561,45.994],[34.476,45.944],[34.32,46.068],[34.183,46.067],[33.839,46.193],[35.008,45.612],[35.031,45.532],[34.99,45.45],[35.063,45.34],[35.317,45.321],[35.515,45.346],[35.849,45.445],[35.988,45.414],[36.02,45.443],[36.324,45.44],[36.516,45.387],[36.415,45.272],[36.366,45.16],[36.264,45.096],[35.867,45.031],[35.6,45.102],[35.387,45.082],[35.068,44.862],[34.614,44.841],[34.372,44.757],[34.136,44.538],[34.014,44.492],[33.66,44.524],[33.395,44.6],[33.494,44.702],[33.474,44.762],[33.57,44.913],[33.517,45.124],[33.398,45.253],[33.014,45.381],[32.575,45.362],[32.503,45.445],[32.903,45.673],[33.639,45.927],[33.528,46.134],[33.332,46.166],[32.516,46.126],[32.203,46.17],[32.114,46.215],[31.926,46.41],[32.189,46.592],[31.951,46.865],[31.781,46.702],[31.538,46.701],[30.833,46.577],[30.52,46.251],[30.434,46.177],[30.401,46.185],[30.456,46.112],[30.559,46.178],[30.48,46.08],[30.218,45.863],[29.625,45.503],[29.68,45.458],[29.745,45.49],[29.744,45.463],[29.785,45.461],[29.756,45.223],[29.69,45.2],[29.657,45.333],[29.589,45.39],[29.327,45.448],[28.966,45.331],[28.943,45.281],[28.796,45.335],[28.803,45.303],[28.752,45.284],[28.791,45.244],[28.704,45.224],[28.348,45.321],[28.281,45.444],[28.219,45.466],[28.252,45.512],[28.195,45.466],[28.141,45.56],[28.069,45.592],[28.168,45.632],[28.155,45.762],[28.113,45.826],[28.125,45.919],[28.083,46.013],[28.145,46.183],[28.113,46.233],[28.178,46.287],[28.247,46.436],[28.219,46.503],[28.244,46.635],[28.122,46.833],[28.083,46.972],[28.028,47.033],[27.941,47.046],[27.8,47.15],[27.733,47.276],[27.638,47.306],[27.574,47.375],[27.576,47.46],[27.473,47.492],[27.428,47.581],[27.304,47.666],[27.288,47.752],[27.223,47.811],[27.253,47.828],[27.165,47.92],[27.169,47.983],[27.094,48.009],[27.109,48.034],[27.042,48.077],[27.043,48.127],[26.972,48.143],[26.998,48.167],[26.805,48.258],[26.621,48.264],[26.681,48.329],[26.774,48.287],[26.779,48.368],[26.834,48.392],[26.943,48.351],[27.033,48.36],[27.036,48.399],[27.209,48.361],[27.341,48.436],[27.42,48.417],[27.504,48.472],[27.458,48.577],[27.37,48.63],[27.324,48.601],[27.234,48.618],[27.248,48.571],[26.945,48.581],[26.858,48.541],[26.797,48.608],[26.773,48.551],[26.717,48.595],[26.724,48.536],[26.613,48.551],[26.702,48.499],[26.616,48.507],[26.608,48.452],[26.471,48.538],[26.378,48.521],[26.372,48.574],[26.308,48.606],[26.316,48.643],[26.238,48.68],[26.23,48.782],[26.264,48.808],[26.218,48.837],[26.223,48.897],[26.162,48.942],[26.077,49.133],[26.036,49.634],[24.257,50.159],[20.266,49.887],[20.18,50.147],[19.208,50.253],[18.769,50.181],[18.646,50.645],[18.14,50.989],[18.113,51.769],[18.14,51.825],[18.005,51.879],[17.898,52.172],[18.084,52.39],[18.464,52.392],[18.599,52.5],[18.518,52.555],[18.519,52.662],[18.653,52.716],[18.576,52.826],[18.761,52.932],[18.841,53.065],[18.95,53.04],[18.993,53.131],[19.286,53.165],[19.423,53.113],[19.494,53.163],[19.579,53.079],[20.011,53.044],[20.098,53.182],[20.477,53.131],[20.701,53.32],[21.117,53.269],[21.54,53.404],[21.528,53.445],[21.712,53.459],[22.154,53.599],[22.486,53.738],[22.619,53.878],[22.622,53.925],[22.467,54.04],[22.449,54.099],[22.352,54.182],[22.442,54.257],[22.71,54.293],[22.663,54.572],[22.723,54.731],[22.824,54.787],[22.795,54.898],[22.633,54.948],[22.584,55.009],[22.451,55.06],[22.251,55.071],[22.076,55.029],[22.029,55.044],[22.004,55.093],[21.942,55.078],[21.605,55.193],[21.505,55.194],[21.375,55.29],[21.27,55.252],[21.291,55.297],[21.257,55.369],[21.189,55.339],[21.248,55.442],[21.147,55.678],[21.074,55.746],[21.045,55.873],[21.058,55.999],[21.009,56.03],[20.927,56.213],[20.965,56.609],[21.06,56.705],[21.064,56.845],[21.33,56.975],[21.364,57.082],[21.355,57.177],[21.414,57.222],[21.433,57.306],[21.729,57.574],[21.999,57.6],[22.585,57.76],[22.61,57.755],[22.591,57.645],[22.656,57.586],[23.129,57.371],[23.261,57.099],[23.509,57.031],[23.585,56.979],[23.695,56.967],[23.953,57.013],[24.34,57.206],[24.358,57.302],[24.309,57.543],[24.323,57.617],[24.25,57.745],[24.415,58.034],[24.468,58.229],[24.422,58.261],[24.483,58.316],[24.349,58.342],[24.212,58.222],[24.117,58.191],[23.96,58.272],[23.713,58.301],[23.675,58.367],[23.679,58.524],[23.584,58.545],[23.561,58.583],[23.502,58.562],[23.443,58.668],[23.453,58.719],[23.385,58.741],[23.432,58.858],[23.338,58.972],[23.36,58.978],[23.162,58.969],[23.12,59.034],[23.345,59.039],[23.388,58.986],[23.441,59.001],[23.408,59.026],[23.436,59.026],[23.422,59.106],[23.515,59.131],[23.471,59.212],[23.641,59.257],[23.73,59.23],[23.726,59.267],[23.757,59.284],[24.04,59.293],[24.081,59.271],[24.1,59.295],[24.022,59.366],[24.034,59.388],[24.222,59.355],[24.163,59.402],[24.306,59.419],[24.336,59.471],[24.643,59.436],[24.622,59.471],[24.679,59.495],[24.773,59.45],[24.816,59.489],[24.774,59.555],[24.801,59.57],[24.934,59.508],[25.098,59.498],[25.146,59.539],[25.409,59.491],[25.416,59.527],[25.544,59.535],[25.496,59.573],[25.487,59.668],[25.677,59.566],[25.719,59.588],[25.671,59.656],[25.697,59.671],[25.781,59.636],[25.826,59.575],[25.883,59.629],[25.945,59.595],[25.991,59.634],[26.082,59.587],[26.281,59.587],[26.498,59.54],[26.666,59.552],[26.938,59.45],[27.41,59.452],[27.873,59.408],[28.006,59.469],[27.979,59.512],[28.019,59.576],[27.961,59.65],[28.019,59.656],[28.006,59.756],[28.086,59.799],[28.185,59.759],[28.224,59.691],[28.322,59.671],[28.419,59.721],[28.427,59.813],[28.476,59.852],[28.535,59.86],[28.718,59.787],[28.833,59.787],[29.029,59.88],[28.98,59.93],[29.161,60.003],[29.805,59.94],[30.053,59.882],[29.993,59.944],[30.162,59.922],[30.158,59.954],[29.968,59.97],[29.862,60.052],[29.842,60.115],[29.695,60.151],[29.088,60.128],[28.99,60.153],[28.8,60.293],[28.697,60.211],[28.508,60.262],[28.432,60.36],[28.481,60.413],[28.533,60.397],[28.497,60.437],[28.522,60.484],[28.439,60.56],[28.506,60.56],[28.54,60.513],[28.509,60.627],[27.462,60.413],[27.06,60.482],[26.973,60.398],[26.903,60.422],[26.595,60.358],[26.512,60.399],[26.532,60.439],[26.499,60.455],[26.44,60.348],[26.337,60.326],[26.184,60.36],[26.135,60.276],[26.047,60.25],[25.95,60.306],[25.979,60.245],[25.89,60.236],[25.842,60.146],[25.643,60.228],[25.61,60.213],[25.622,60.238],[25.573,60.256],[25.508,60.196],[25.253,60.196],[25.218,60.145],[25.035,60.098],[24.721,60.088],[24.455,59.943],[24.299,59.949],[24.22,59.992],[23.989,59.965],[23.859,59.899],[23.404,59.913],[23.299,59.863],[23.296,59.822],[22.888,59.813],[23.089,59.877],[23.022,59.912],[23.054,59.92],[23.064,59.99],[22.962,60.027],[22.93,59.997],[22.898,60.036],[22.859,60.012],[22.903,60.082],[22.845,60.086],[22.94,60.128],[22.878,60.148],[22.893,60.206],[22.84,60.201],[22.819,60.163],[22.845,60.109],[22.73,60.047],[22.758,60.032],[22.729,60.005],[22.682,59.999],[22.655,60.032],[22.6,59.985],[22.576,60.014],[22.593,60.046],[22.47,59.998],[22.474,60.091],[22.422,60.115],[22.6,60.142],[22.392,60.121],[22.421,60.293],[22.216,60.253],[22.082,60.27],[22.1,60.31],[21.994,60.354],[21.964,60.348],[21.989,60.331],[21.904,60.33],[21.794,60.374],[21.749,60.434],[21.728,60.419],[21.558,60.492],[21.578,60.502],[21.521,60.573],[21.409,60.58],[21.415,60.608],[21.47,60.608],[21.353,60.69],[21.439,60.68],[21.441,60.734],[21.332,60.823],[21.326,60.861],[21.428,60.876],[21.353,60.903],[21.428,60.903],[21.305,61.054],[21.445,61.057],[21.463,61.101],[21.435,61.143],[21.47,61.15],[21.443,61.17],[21.498,61.183],[21.485,61.25],[21.521,61.379],[21.449,61.403],[21.532,61.409],[21.544,61.441],[21.422,61.485],[21.561,61.485],[21.465,61.555],[21.5,61.57],[21.432,61.67],[21.471,61.689],[21.344,61.888],[21.237,61.922],[21.289,62.122],[21.312,62.109],[21.346,62.178],[21.342,62.257],[21.319,62.247],[21.335,62.345],[21.271,62.35],[21.255,62.399],[21.193,62.34],[21.202,62.418],[21.134,62.404],[21.149,62.448],[21.063,62.473],[21.08,62.676],[21.161,62.722],[21.109,62.77],[21.183,62.782]],[[144.864,72.376],[144.73,72.329],[144.588,72.225],[144.749,72.283],[145.293,72.32],[145.16,72.363],[144.864,72.376]],[[138.628,53.814],[138.41,53.645],[138.372,53.565],[138.494,53.601],[138.613,53.757],[138.646,53.828],[138.636,53.857],[138.628,53.814]]],[[[-164.027,59.798],[-164.208,59.902],[-164.262,59.951],[-164.245,59.993],[-164.329,60.011],[-164.594,60.208],[-165.047,60.416],[-165.126,60.541],[-164.996,60.619],[-164.845,60.815],[-163.938,60.614],[-163.627,60.601],[-163.504,60.715],[-163.689,60.923],[-163.895,61.042],[-164.058,61.042],[-164.301,60.943],[-164.54,60.95],[-165.423,61.264],[-165.874,61.274],[-165.971,61.406],[-165.949,61.454],[-165.859,61.49],[-165.922,61.512],[-166.016,61.474],[-166.19,61.749],[-165.834,61.834],[-165.825,61.884],[-165.748,61.895],[-165.797,61.966],[-165.803,62.037],[-165.579,62.139],[-165.5,62.324],[-165.151,62.563],[-164.902,62.588],[-164.869,62.623],[-164.933,62.746],[-164.878,62.821],[-164.467,63.171],[-164.292,63.25],[-163.308,63.038],[-162.97,63.102],[-162.475,63.41],[-161.979,63.512],[-161.441,63.512],[-161.133,63.563],[-160.974,63.642],[-160.95,63.702],[-160.835,63.774],[-160.847,63.877],[-160.939,63.983],[-161.013,64.217],[-161.131,64.262],[-161.372,64.47],[-161.358,64.51],[-160.944,64.525],[-160.79,64.64],[-160.902,64.813],[-161.126,64.928],[-161.291,64.964],[-162.137,64.789],[-162.801,64.471],[-162.924,64.455],[-162.992,64.508],[-163.035,64.444],[-163.883,64.591],[-164.6,64.619],[-165.171,64.546],[-165.741,64.559],[-166.348,64.637],[-166.527,64.707],[-166.528,64.817],[-166.476,64.857],[-166.629,64.916],[-166.668,65.085],[-166.604,65.15],[-165.864,65.166],[-165.663,65.247],[-166.139,65.355],[-168.179,65.694],[-167.916,65.801],[-167.024,65.959],[-166.059,66.19],[-166.043,66.172],[-165.719,66.163],[-165.968,66.213],[-165.522,66.366],[-164.464,66.596],[-163.788,66.539],[-163.855,66.221],[-163.843,66.178],[-163.747,66.139],[-162.759,66.063],[-162.275,66.071],[-162.031,66.108],[-161.869,66.06],[-161.69,66.207],[-161.439,66.327],[-161.344,66.323],[-161.291,66.277],[-161.146,66.293],[-161.353,66.334],[-161.427,66.334],[-161.263,66.396],[-160.585,66.316],[-160.125,66.339],[-160.035,66.486],[-160.032,66.568],[-161.218,66.728],[-161.792,66.748],[-161.857,66.899],[-161.775,66.977],[-161.901,67.004],[-161.936,67.088],[-162.599,67.161],[-163.737,67.218],[-163.826,67.448],[-164.044,67.589],[-164.512,67.797],[-166.836,68.403],[-166.51,68.473],[-166.415,68.463],[-166.36,68.507],[-166.289,68.592],[-166.255,68.703],[-166.246,68.785],[-166.285,68.879],[-164.89,68.935],[-164.352,68.979],[-163.977,69.052],[-163.643,69.165],[-163.3,69.363],[-163.22,69.459],[-163.241,69.541],[-163.22,69.672],[-163.133,69.783],[-162.957,69.933],[-162.512,70.184],[-162.178,70.284],[-162.113,70.27],[-161.527,70.368],[-161.505,70.307],[-161.22,70.326],[-160.872,70.396],[-160.788,70.454],[-159.905,70.427],[-159.839,70.512],[-159.909,70.604],[-160.099,70.695],[-159.875,70.756],[-159.683,70.853],[-159.369,70.899],[-159.116,70.892],[-159.1,70.854],[-158.715,70.841],[-158.573,70.851],[-158.534,70.902],[-158.047,70.887],[-157.876,70.915],[-157.252,71.117],[-156.848,71.347],[-156.47,71.354],[-156.045,71.224],[-155.977,71.147],[-156.145,71.083],[-156.138,70.928],[-155.903,70.885],[-155.475,70.852],[-155.1,71.077],[-154.551,71.005],[-154.618,70.902],[-154.586,70.875],[-154.298,70.88],[-154.207,70.828],[-153.902,70.948],[-152.97,70.934],[-152.652,70.819],[-152.49,70.695],[-152.137,70.534],[-151.915,70.496],[-151.725,70.535],[-151.691,70.532],[-151.743,70.486],[-151.45,70.489],[-151.255,70.444],[-151.219,70.488],[-150.311,70.481],[-149.286,70.539],[-148.779,70.497],[-148.77,70.467],[-148.531,70.43],[-148.455,70.366],[-148.257,70.405],[-147.772,70.333],[-147.738,70.272],[-147.675,70.262],[-147.122,70.218],[-146.855,70.243],[-146.226,70.236],[-145.988,70.204],[-145.876,70.225],[-145.589,70.133],[-145.505,70.14],[-145.443,70.1],[-145.211,70.094],[-145.166,70.052],[-144.946,70.029],[-144.598,70.032],[-144.391,70.094],[-144.19,70.094],[-144.02,70.143],[-143.232,70.168],[-142.802,70.09],[-141.704,69.734],[-141.058,69.591],[-141.013,69.379],[-140.997,67.077],[-140.916,64.768],[-140.935,60.86],[-140.895,60.389],[-140.807,60.263],[-140.429,60.23],[-139.338,60.285],[-139.007,60.259],[-138.856,60.085],[-138.778,59.91],[-138.622,59.778],[-137.648,59.185],[-137.223,58.882],[-137.115,59.029],[-136.735,59.121],[-136.184,59.422],[-135.854,59.647],[-135.633,59.703],[-135.256,59.67],[-135.116,59.581],[-134.949,59.359],[-134.791,59.214],[-133.869,58.685],[-133.503,58.425],[-132.707,57.629],[-131.956,56.782],[-131.725,56.605],[-131.199,56.451],[-130.288,56.108],[-130.11,55.995],[-130.18,55.638],[-130.003,55.286],[-130.066,55.102],[-130.413,55.021],[-130.549,54.911],[-130.69,54.971],[-130.773,55.066],[-130.695,55.466],[-130.892,55.769],[-131.1,55.912],[-131.19,56.035],[-131.767,56.01],[-131.964,55.966],[-132.033,55.893],[-132.258,55.877],[-132.279,56.132],[-132.101,56.349],[-132.271,56.506],[-132.559,56.702],[-132.871,57.016],[-133.396,57.218],[-133.341,57.377],[-133.597,57.643],[-133.64,57.736],[-133.474,57.842],[-133.505,57.897],[-133.64,57.965],[-133.842,58.0],[-134.123,58.239],[-134.829,58.56],[-135.046,58.905],[-135.144,59.168],[-135.309,59.347],[-135.469,59.34],[-135.515,58.973],[-135.326,58.581],[-135.279,58.444],[-135.301,58.376],[-135.738,58.47],[-136.148,58.903],[-136.391,58.841],[-136.939,58.943],[-136.371,58.621],[-136.357,58.527],[-137.086,58.447],[-137.577,58.604],[-138.201,59.031],[-138.446,59.162],[-138.78,59.181],[-139.2,59.277],[-139.785,59.518],[-139.367,59.63],[-139.307,59.706],[-139.4,59.831],[-139.572,59.9],[-140.132,59.767],[-140.429,59.76],[-140.904,59.786],[-141.38,59.895],[-141.377,59.965],[-141.311,59.984],[-141.316,60.011],[-141.337,60.024],[-141.377,59.975],[-141.439,60.091],[-141.585,60.14],[-141.747,60.133],[-141.959,60.041],[-142.402,60.021],[-143.084,60.074],[-144.053,60.051],[-144.272,60.077],[-144.194,60.086],[-144.302,60.145],[-144.449,60.126],[-144.533,60.15],[-144.811,60.315],[-145.003,60.552],[-145.138,60.454],[-145.494,60.384],[-145.892,60.515],[-145.998,60.662],[-146.578,60.836],[-146.855,60.878],[-146.79,60.92],[-146.8,60.982],[-146.97,60.896],[-147.271,60.94],[-147.638,61.052],[-147.94,61.206],[-148.188,61.1],[-148.493,61.064],[-148.467,60.869],[-148.728,60.727],[-148.84,60.545],[-148.338,60.414],[-148.258,60.282],[-148.301,60.106],[-148.48,59.918],[-148.509,59.938],[-148.559,59.904],[-148.701,59.904],[-149.062,60.0],[-149.325,60.027],[-149.581,59.985],[-150.02,59.714],[-150.501,59.616],[-151.387,59.213],[-151.881,59.163],[-151.771,59.358],[-151.448,59.538],[-151.49,59.711],[-151.782,59.944],[-151.783,59.994],[-151.415,60.254],[-151.23,60.471],[-151.159,60.66],[-150.829,60.8],[-150.438,60.906],[-149.912,60.914],[-149.425,60.859],[-149.317,60.929],[-150.311,61.314],[-150.781,61.292],[-150.882,61.193],[-151.084,61.151],[-151.333,60.968],[-151.511,60.96],[-151.708,60.876],[-151.745,60.843],[-151.709,60.794],[-152.19,60.658],[-152.561,60.384],[-152.878,60.279],[-152.819,60.131],[-152.901,59.894],[-153.153,59.742],[-153.71,59.644],[-153.976,59.519],[-154.282,59.249],[-154.298,59.117],[-154.127,59.042],[-153.665,58.981],[-153.458,58.879],[-153.488,58.795],[-153.681,58.643],[-153.964,58.552],[-154.214,58.428],[-154.648,58.077],[-155.598,57.896],[-155.903,57.717],[-156.37,57.566],[-156.684,57.401],[-156.453,57.178],[-156.496,57.1],[-156.993,56.915],[-157.748,56.77],[-158.527,56.449],[-158.739,56.189],[-159.076,55.992],[-160.171,55.807],[-160.605,55.961],[-160.606,56.041],[-160.457,56.2],[-160.114,56.323],[-159.777,56.582],[-159.347,56.719],[-159.248,56.78],[-158.617,56.748],[-158.671,56.843],[-158.66,57.077],[-158.451,57.213],[-157.785,57.508],[-157.665,57.604],[-157.665,57.933],[-157.554,58.27],[-157.242,58.491],[-157.149,58.737],[-157.08,58.837],[-157.142,58.823],[-157.14,58.856],[-157.987,58.717],[-158.291,58.73],[-158.517,58.999],[-158.912,58.874],[-158.973,58.77],[-158.866,58.613],[-158.857,58.456],[-158.931,58.433],[-159.109,58.487],[-159.275,58.58],[-159.416,58.716],[-159.813,58.941],[-160.362,59.011],[-160.84,58.96],[-160.831,58.896],[-161.153,58.741],[-161.645,58.683],[-161.91,58.719],[-161.811,58.819],[-161.842,58.951],[-162.015,59.102],[-162.06,59.29],[-161.978,59.427],[-161.819,59.526],[-161.929,59.672],[-162.378,60.163],[-163.021,59.967],[-163.354,59.931],[-163.535,59.841],[-164.027,59.798]],[[-132.013,56.083],[-132.107,56.035],[-132.083,55.988],[-132.0,56.011],[-132.013,56.083]]],[[[-153.178,57.825],[-152.68,57.765],[-152.439,57.615],[-152.383,57.526],[-152.912,57.49],[-153.177,57.407],[-153.271,57.264],[-153.492,57.051],[-153.669,56.969],[-153.877,56.941],[-154.161,56.982],[-154.58,57.14],[-154.66,57.232],[-154.584,57.364],[-154.342,57.487],[-154.19,57.63],[-153.731,57.427],[-153.522,57.544],[-153.425,57.64],[-153.393,57.805],[-153.178,57.825]]],[[[-162.582,55.39],[-162.224,55.498],[-161.811,55.783],[-161.609,55.845],[-161.317,55.879],[-160.676,55.765],[-160.358,55.657],[-160.393,55.562],[-160.527,55.542],[-160.867,55.575],[-161.532,55.486],[-161.442,55.588],[-161.573,55.569],[-161.648,55.505],[-161.66,55.407],[-161.695,55.377],[-162.219,55.132],[-162.544,55.145],[-162.59,55.253],[-162.582,55.39]]],[[[-132.555,55.453],[-132.177,55.283],[-132.176,54.852],[-133.016,55.371],[-133.169,55.521],[-133.152,55.549],[-133.19,55.541],[-133.271,55.621],[-133.266,55.831],[-133.332,55.93],[-133.314,55.948],[-133.345,55.949],[-133.516,56.207],[-133.484,56.258],[-133.281,56.232],[-133.157,56.116],[-132.632,55.898],[-132.595,55.81],[-132.688,55.649],[-132.555,55.453]]],[[[-135.816,57.454],[-136.237,57.727],[-136.596,57.905],[-136.417,58.112],[-136.301,58.18],[-136.024,58.215],[-135.672,58.044],[-135.325,58.091],[-135.116,57.677],[-135.145,57.603],[-135.542,57.722],[-135.822,57.755],[-135.792,57.558],[-135.816,57.454]]],[[[22.583,58.634],[22.648,58.587],[22.811,58.623],[22.99,58.602],[23.332,58.454],[23.261,58.466],[23.238,58.456],[23.278,58.437],[23.234,58.44],[23.157,58.478],[23.042,58.371],[22.955,58.381],[22.969,58.36],[22.904,58.312],[22.721,58.27],[22.757,58.242],[22.723,58.225],[22.535,58.254],[22.502,58.223],[22.477,58.245],[22.323,58.207],[22.275,58.179],[22.2,57.992],[22.016,57.915],[21.965,57.982],[22.085,58.082],[22.148,58.08],[22.203,58.148],[22.071,58.176],[22.017,58.234],[21.869,58.264],[21.847,58.296],[21.908,58.299],[21.882,58.344],[21.945,58.319],[21.967,58.354],[22.011,58.354],[21.832,58.511],[21.997,58.512],[22.09,58.422],[22.104,58.488],[22.196,58.546],[22.273,58.502],[22.288,58.568],[22.321,58.585],[22.583,58.634]]],[[[-134.803,56.67],[-134.951,56.461],[-135.466,57.229],[-135.484,57.332],[-135.442,57.426],[-135.257,57.414],[-135.002,57.325],[-134.764,56.795],[-134.803,56.67]]],[[[48.214,42.114],[48.242,42.132],[48.286,42.101],[48.367,41.945],[48.491,41.914],[48.454,41.841],[48.399,41.854],[48.381,41.831],[48.305,41.882],[48.233,41.857],[48.156,41.899],[48.184,41.926],[48.234,41.912],[48.141,42.004],[48.093,42.006],[48.095,42.124],[48.06,42.124],[47.981,42.234],[47.781,42.231],[47.769,42.272],[47.797,42.306],[47.696,42.367],[47.746,42.426],[47.854,42.471],[47.839,42.509],[47.702,42.476],[47.675,42.513],[47.58,42.513],[47.482,42.468],[47.413,42.544],[47.357,42.538],[47.382,42.625],[47.262,42.654],[47.309,42.719],[47.325,42.829],[47.521,42.813],[47.549,42.855],[47.517,42.896],[47.333,42.972],[47.306,43.031],[47.337,43.051],[47.291,43.114],[47.391,43.123],[47.405,43.023],[47.458,43.022],[47.713,42.838],[47.711,42.743],[47.756,42.63],[47.889,42.581],[47.948,42.46],[48.204,42.186],[48.214,42.114]]],[[[155.685,50.412],[155.767,50.484],[155.873,50.687],[155.974,50.757],[156.069,50.791],[156.112,50.774],[156.13,50.652],[156.168,50.601],[156.159,50.512],[156.062,50.478],[156.045,50.403],[155.891,50.246],[155.787,50.181],[155.507,50.129],[155.396,49.986],[155.355,49.996],[155.371,50.038],[155.225,50.046],[155.207,50.101],[155.245,50.155],[155.238,50.214],[155.178,50.259],[155.195,50.301],[155.32,50.3],[155.438,50.38],[155.685,50.412]]],[[[150.206,46.188],[150.395,46.241],[150.577,46.236],[150.399,46.092],[150.252,46.028],[150.198,45.977],[150.202,45.921],[150.026,45.814],[149.932,45.804],[149.64,45.601],[149.584,45.615],[149.533,45.574],[149.434,45.578],[149.475,45.676],[149.546,45.717],[149.663,45.862],[149.806,45.889],[150.015,46.082],[150.177,46.115],[150.2,46.132],[150.174,46.165],[150.206,46.188]]],[[[131.156,43.532],[131.269,43.449],[131.276,43.383],[131.233,43.268],[131.164,43.204],[131.179,43.123],[131.074,43.034],[131.095,42.912],[131.021,42.901],[130.989,42.854],[130.856,42.855],[130.817,42.876],[131.07,43.079],[131.14,43.226],[131.09,43.358],[131.133,43.419],[131.144,43.592],[131.118,44.163],[130.969,44.567],[130.985,44.755],[131.062,44.679],[131.258,44.058],[131.202,43.976],[131.212,43.908],[131.165,43.781],[131.186,43.587],[131.156,43.532]]],[[[22.737,59.005],[22.934,58.984],[23.04,58.84],[22.879,58.833],[22.887,58.793],[22.847,58.777],[22.79,58.781],[22.827,58.819],[22.777,58.824],[22.654,58.702],[22.555,58.687],[22.463,58.716],[22.497,58.738],[22.382,58.882],[22.194,58.888],[22.048,58.937],[22.463,58.971],[22.587,59.086],[22.668,59.085],[22.714,59.07],[22.692,59.041],[22.737,59.005]]],[[[-163.26,55.172],[-163.088,55.269],[-162.788,55.152],[-162.748,55.061],[-162.801,54.996],[-162.966,54.949],[-163.199,55.042],[-163.26,55.172]]],[[[130.435,42.277],[130.36,42.454],[130.229,42.646],[130.375,42.712],[130.403,42.673],[130.502,42.673],[130.568,42.619],[130.579,42.571],[130.526,42.529],[130.612,42.414],[130.435,42.277]]],[[[41.812,41.417],[41.946,41.5],[42.157,41.495],[42.405,41.428],[42.249,41.369],[41.494,41.439],[41.541,41.501],[41.697,41.482],[41.812,41.417]]],[[[154.814,49.309],[154.7,49.265],[154.607,49.292],[154.608,49.375],[154.759,49.567],[154.75,49.594],[154.824,49.646],[154.905,49.631],[154.876,49.543],[154.803,49.479],[154.834,49.354],[154.814,49.309]]],[[[156.46,50.874],[156.51,50.764],[156.402,50.63],[156.272,50.634],[156.166,50.714],[156.198,50.78],[156.357,50.856],[156.46,50.874]]],[[[133.896,46.262],[133.684,46.145],[133.714,46.063],[133.656,45.941],[133.615,45.94],[133.579,45.883],[133.533,45.892],[133.833,46.464],[133.841,46.466],[133.927,46.392],[133.859,46.341],[133.902,46.317],[133.896,46.262]]],[[[152.225,47.177],[152.201,47.142],[152.295,47.142],[151.984,46.878],[151.804,46.767],[151.712,46.807],[151.705,46.848],[151.873,46.872],[152.225,47.177]]],[[[23.395,58.561],[23.363,58.533],[23.222,58.536],[23.06,58.604],[23.175,58.681],[23.331,58.653],[23.395,58.561]]],[[[131.596,45.175],[131.605,45.173],[131.606,45.094],[131.432,44.967],[131.328,44.972],[131.164,44.92],[131.596,45.175]]],[[[132.989,45.143],[133.1,45.271],[133.122,45.153],[133.095,45.111],[132.954,45.03],[132.875,45.059],[132.989,45.143]]],[[[21.082,55.497],[21.085,55.723],[21.132,55.655],[21.103,55.419],[20.987,55.275],[20.931,55.287],[21.082,55.497]]],[[[155.632,50.912],[155.673,50.87],[155.67,50.814],[155.491,50.829],[155.448,50.882],[155.476,50.922],[155.632,50.912]]],[[[154.1,48.839],[154.147,48.915],[154.23,48.898],[154.199,48.85],[154.063,48.774],[154.056,48.738],[153.973,48.739],[154.1,48.839]]],[[[47.867,43.99],[47.762,43.928],[47.65,43.944],[47.637,43.98],[47.664,43.996],[47.867,43.99]]],[[[52.561,45.457],[52.6,45.525],[52.673,45.504],[52.699,45.404],[52.561,45.457]]],[[[49.724,46.357],[49.822,46.315],[49.841,46.261],[49.82,46.217],[49.781,46.225],[49.724,46.357]]],[[[34.989,46.085],[35.039,46.148],[35.203,46.182],[35.143,46.123],[34.989,46.085]]],[[[21.392,60.56],[21.482,60.526],[21.443,60.471],[21.335,60.524],[21.334,60.557],[21.392,60.56]]],[[[152.426,47.383],[152.522,47.372],[152.54,47.324],[152.482,47.301],[152.414,47.339],[152.426,47.383]]],[[[154.564,49.157],[154.6,49.128],[154.51,49.081],[154.441,49.161],[154.564,49.157]]],[[[50.277,45.07],[50.341,45.083],[50.325,44.974],[50.266,44.963],[50.277,45.07]]],[[[152.975,47.687],[152.971,47.753],[153.046,47.807],[153.06,47.722],[152.975,47.687]]],[[[22.415,60.085],[22.449,60.066],[22.443,60.003],[22.381,59.995],[22.349,60.064],[22.373,60.08],[22.408,60.053],[22.415,60.085]]],[[[154.448,49.73],[154.379,49.765],[154.396,49.805],[154.48,49.81],[154.49,49.781],[154.448,49.73]]],[[[153.259,48.105],[153.293,48.043],[153.202,48.052],[153.164,48.119],[153.259,48.105]]],[[[50.687,44.912],[50.641,44.933],[50.628,44.967],[50.659,44.939],[50.715,44.95],[50.761,44.865],[50.698,44.858],[50.687,44.912]]],[[[21.344,63.363],[21.373,63.348],[21.319,63.288],[21.229,63.329],[21.344,63.363]]],[[[22.741,63.721],[22.681,63.763],[22.819,63.773],[22.804,63.742],[22.741,63.721]]],[[[22.061,60.209],[22.011,60.17],[22.038,60.156],[22.01,60.138],[21.935,60.176],[22.061,60.209]]],[[[21.229,60.56],[21.278,60.543],[21.325,60.482],[21.256,60.497],[21.229,60.56]]],[[[21.147,62.953],[21.136,63.004],[21.197,62.994],[21.22,62.952],[21.147,62.953]]],[[[153.902,48.958],[153.928,48.982],[154.013,48.951],[153.938,48.927],[153.902,48.958]]],[[[50.389,40.402],[50.354,40.4],[50.326,40.458],[50.326,40.482],[50.395,40.421],[50.389,40.402]]],[[[23.943,58.114],[23.955,58.152],[24.01,58.154],[24.002,58.108],[23.943,58.114]]],[[[22.27,60.196],[22.213,60.202],[22.247,60.244],[22.292,60.244],[22.27,60.196]]],[[[22.373,60.204],[22.383,60.196],[22.316,60.15],[22.292,60.156],[22.305,60.188],[22.373,60.204]]],[[[27.819,59.983],[27.821,60.029],[27.882,60.012],[27.889,59.999],[27.819,59.983]]],[[[21.218,60.612],[21.271,60.639],[21.278,60.586],[21.299,60.567],[21.218,60.612]]]]}}]}