{"type":"FeatureCollection","features":[{"type":"Feature","properties":{"lite":true,"src":"data/years/1867-10-18.geojson"},"geometry":{"type":"MultiPolygon","coordinates":[[[[23.581,67.155],[23.615,67.214],[23.603,67.26],[23.735,67.29],[23.786,67.337],[23.752,67.35],[23.765,67.42],[23.477,67.444],[23.433,67.483],[23.48,67.557],[23.554,67.587],[23.485,67.737],[23.482,67.865],[23.636,67.913],[23.662,67.95],[23.383,68.051],[23.307,68.146],[23.165,68.123],[23.155,68.217],[23.067,68.29],[22.808,68.395],[22.303,68.476],[22.072,68.477],[21.919,68.568],[21.739,68.588],[21.717,68.619],[21.464,68.687],[21.406,68.749],[21.305,68.756],[21.072,68.869],[20.887,68.905],[20.934,68.949],[20.911,68.981],[20.631,69.041],[20.744,69.104],[21.072,69.037],[21.156,69.088],[21.038,69.179],[21.081,69.23],[21.314,69.291],[21.638,69.271],[22.37,68.823],[22.409,68.713],[22.57,68.727],[22.852,68.676],[23.07,68.681],[23.198,68.618],[23.735,68.715],[23.789,68.8],[23.929,68.816],[24.332,68.709],[24.663,68.666],[24.905,68.557],[24.953,68.605],[25.132,68.648],[25.15,68.765],[25.202,68.813],[25.434,68.884],[25.628,68.874],[25.796,68.993],[25.75,69.061],[25.771,69.135],[25.741,69.226],[25.786,69.312],[25.877,69.371],[25.841,69.418],[25.887,69.455],[25.891,69.524],[26.004,69.587],[25.964,69.643],[26.005,69.689],[26.198,69.715],[26.419,69.836],[26.502,69.918],[26.865,69.938],[27.1,69.902],[27.312,69.929],[27.352,69.949],[27.335,69.969],[27.563,70.024],[27.614,70.062],[27.867,70.075],[28.167,69.894],[28.378,69.856],[28.405,69.802],[29.131,69.674],[29.34,69.468],[29.229,69.377],[28.852,69.204],[28.828,69.091],[28.946,69.031],[28.74,68.95],[28.718,68.866],[28.797,68.831],[28.697,68.696],[29.007,68.832],[29.463,69.134],[29.924,69.355],[30.14,69.389],[30.062,69.416],[30.232,69.558],[30.22,69.6],[30.145,69.633],[30.143,69.631],[30.136,69.636],[30.148,69.635],[30.151,69.636],[30.232,69.637],[30.246,69.632],[30.259,69.618],[30.318,69.609],[30.314,69.607],[30.512,69.536],[30.853,69.527],[30.931,69.595],[30.928,69.672],[30.878,69.729],[30.884,69.731],[30.886,69.73],[30.889,69.728],[30.87,69.79],[31.446,69.689],[31.268,69.593],[31.54,69.68],[31.819,69.648],[31.686,69.707],[31.775,69.83],[32.098,69.762],[31.892,69.905],[31.942,69.954],[32.876,69.711],[32.852,69.711],[32.846,69.712],[32.716,69.728],[32.715,69.727],[32.711,69.724],[32.683,69.717],[33.0,69.688],[33.011,69.68],[33.002,69.678],[33.096,69.653],[32.833,69.567],[32.178,69.634],[32.188,69.7],[32.116,69.743],[32.094,69.656],[31.953,69.628],[32.051,69.591],[32.001,69.549],[32.179,69.587],[32.502,69.502],[32.26,69.422],[32.901,69.464],[32.843,69.446],[32.804,69.415],[32.805,69.373],[32.909,69.444],[33.074,69.452],[32.815,69.326],[32.884,69.276],[33.048,69.381],[33.501,69.4],[33.43,69.304],[33.402,69.297],[33.21,69.253],[33.246,69.242],[33.344,69.259],[33.356,69.274],[33.454,69.264],[33.267,69.222],[33.479,69.155],[33.048,69.066],[33.005,68.886],[33.074,69.049],[33.584,69.132],[33.64,69.176],[33.558,69.228],[33.629,69.268],[33.553,69.257],[33.58,69.3],[34.312,69.303],[34.366,69.265],[34.88,69.225],[34.937,69.166],[35.125,69.203],[35.118,69.165],[35.148,69.126],[35.181,69.118],[35.162,69.185],[35.289,69.203],[35.156,69.253],[35.83,69.19],[36.042,69.084],[36.046,69.139],[36.061,69.119],[36.098,69.109],[36.285,69.097],[36.247,69.078],[36.786,68.905],[37.665,68.691],[38.357,68.401],[38.287,68.352],[38.398,68.379],[38.44,68.288],[38.484,68.333],[38.785,68.245],[38.494,68.348],[38.639,68.369],[39.084,68.167],[39.173,68.194],[39.579,68.03],[39.87,68.033],[39.753,68.154],[40.006,67.986],[40.366,67.887],[40.394,67.844],[40.273,67.84],[40.419,67.757],[40.644,67.802],[40.979,67.694],[41.032,67.615],[40.948,67.44],[41.116,67.414],[41.081,67.25],[41.317,67.217],[41.278,67.138],[41.393,67.113],[41.212,66.823],[40.558,66.451],[40.004,66.257],[38.656,66.064],[37.924,66.083],[37.145,66.242],[35.554,66.384],[34.898,66.594],[34.464,66.541],[34.373,66.621],[34.505,66.632],[34.352,66.699],[34.118,66.675],[34.184,66.746],[34.151,66.786],[34.13,66.703],[34.064,66.684],[34.054,66.76],[34.026,66.686],[33.926,66.686],[33.607,66.852],[33.625,66.787],[33.542,66.798],[33.643,66.734],[33.519,66.766],[33.632,66.705],[33.504,66.717],[32.79,67.03],[32.998,67.084],[32.323,67.167],[31.87,67.139],[32.046,67.097],[32.266,67.11],[32.354,67.07],[32.311,67.039],[32.544,67.001],[32.539,66.936],[32.417,66.947],[32.504,66.897],[32.387,66.869],[32.956,66.729],[32.778,66.755],[32.684,66.749],[32.855,66.691],[33.187,66.673],[33.324,66.608],[32.821,66.593],[33.196,66.538],[32.931,66.519],[33.583,66.439],[33.645,66.412],[33.463,66.378],[33.677,66.34],[33.414,66.325],[33.077,66.276],[32.982,66.249],[33.522,66.314],[33.879,66.2],[34.105,66.228],[34.141,66.167],[34.698,65.983],[34.634,65.92],[34.683,65.876],[34.826,65.884],[34.775,65.81],[34.886,65.814],[34.916,65.768],[34.863,65.776],[34.837,65.754],[34.979,65.709],[34.66,65.794],[34.683,65.694],[34.773,65.686],[34.686,65.668],[34.797,65.581],[34.737,65.583],[34.754,65.529],[34.633,65.487],[34.689,65.436],[34.456,65.43],[34.501,65.388],[34.353,65.406],[34.443,65.367],[34.362,65.381],[34.307,65.38],[34.271,65.371],[34.5,65.328],[34.446,65.317],[34.457,65.269],[34.662,65.181],[34.637,65.133],[34.686,65.079],[34.783,65.079],[34.774,64.995],[34.831,65.022],[34.782,64.981],[34.608,64.951],[34.961,64.836],[34.78,64.732],[34.913,64.633],[34.99,64.611],[34.85,64.535],[34.812,64.541],[34.731,64.531],[34.7,64.524],[34.683,64.509],[34.889,64.48],[35.011,64.506],[34.964,64.418],[35.404,64.284],[35.697,64.362],[35.955,64.191],[36.241,64.128],[36.172,64.09],[36.249,64.005],[36.506,63.954],[36.515,63.893],[36.518,63.87],[36.62,63.864],[36.635,63.855],[36.644,63.853],[36.709,63.844],[36.725,63.844],[36.725,63.843],[36.769,63.838],[36.788,63.843],[36.796,63.847],[36.807,63.841],[36.874,63.83],[36.896,63.83],[36.941,63.839],[36.956,63.831],[37.0,63.828],[37.0,63.825],[37.018,63.823],[37.028,63.822],[37.067,63.824],[37.146,63.807],[37.146,63.806],[37.146,63.803],[37.162,63.783],[37.411,63.749],[37.685,63.801],[37.692,63.819],[37.768,63.828],[37.769,63.828],[37.782,63.827],[37.819,63.826],[37.931,63.847],[37.936,63.849],[37.945,63.85],[37.947,63.853],[38.075,64.009],[37.893,64.214],[38.01,64.288],[37.79,64.367],[37.791,64.438],[37.615,64.356],[37.151,64.385],[36.574,64.761],[36.626,64.813],[36.626,64.814],[36.658,64.846],[36.661,64.847],[36.884,65.067],[36.915,65.067],[37.103,65.068],[37.604,64.853],[37.947,64.774],[37.95,64.779],[38.002,64.761],[38.125,64.673],[37.994,64.614],[38.013,64.584],[38.206,64.714],[38.361,64.682],[39.193,64.511],[39.622,64.476],[39.701,64.49],[39.801,64.507],[39.997,64.541],[40.322,64.463],[40.44,64.564],[40.462,64.75],[40.461,64.751],[39.961,65.187],[39.887,65.322],[39.824,65.435],[39.95,65.58],[39.975,65.587],[40.227,65.654],[41.354,65.955],[41.623,66.065],[42.132,66.388],[42.21,66.41],[42.595,66.35],[42.717,66.332],[43.241,66.251],[43.876,66.011],[43.969,66.011],[43.974,66.025],[44.023,66.011],[44.194,65.812],[44.234,65.846],[44.222,65.861],[44.167,65.885],[44.166,65.929],[44.086,65.984],[44.182,66.041],[44.074,66.228],[44.22,66.402],[44.305,66.403],[44.335,66.404],[44.577,66.303],[44.859,66.231],[45.74,66.063],[45.833,66.083],[46.347,66.023],[47.11,65.816],[47.407,65.831],[47.661,65.803],[47.764,65.841],[47.737,65.912],[47.756,65.937],[48.141,66.122],[49.007,66.114],[51.511,66.778],[51.554,66.797],[51.493,66.831],[51.527,66.923],[51.812,66.949],[51.848,66.997],[52.022,67.023],[52.156,67.081],[53.772,66.994],[59.884,66.997],[59.867,66.969],[59.919,66.949],[60.084,66.985],[61.625,67.007],[61.854,67.122],[62.824,67.384],[62.877,67.578],[63.108,67.67],[63.422,67.763],[63.691,67.757],[63.712,67.805],[63.873,67.831],[63.952,67.895],[63.92,67.964],[63.839,68.025],[64.326,68.129],[64.351,68.173],[64.418,68.196],[64.532,68.195],[64.501,68.314],[64.557,68.354],[64.762,68.401],[65.006,68.384],[65.446,68.424],[65.272,68.237],[65.324,68.09],[65.286,68.01],[65.436,67.915],[65.781,67.919],[65.911,67.955],[66.082,67.928],[66.015,67.796],[66.194,67.737],[66.2,67.695],[66.106,67.652],[65.991,67.683],[65.84,67.655],[65.838,67.604],[65.793,67.577],[65.836,67.55],[66.034,67.569],[66.1,67.488],[65.973,67.407],[65.689,67.389],[65.673,67.368],[65.699,67.34],[65.66,67.315],[65.188,67.149],[65.207,67.077],[65.073,67.043],[65.101,66.899],[64.575,66.803],[64.532,66.733],[64.412,66.728],[64.294,66.668],[63.98,66.656],[63.805,66.552],[63.54,66.476],[63.412,66.485],[63.237,66.33],[63.293,66.245],[63.104,66.255],[63.009,66.199],[62.958,66.119],[62.859,66.078],[62.816,66.012],[62.868,65.977],[62.798,65.932],[62.846,65.878],[62.523,65.844],[62.015,65.72],[62.275,65.619],[62.322,65.537],[62.399,65.512],[62.369,65.447],[62.479,65.345],[62.81,65.289],[62.797,65.053],[62.673,64.891],[62.806,64.832],[62.781,64.785],[62.799,64.735],[62.59,64.645],[62.533,64.551],[62.687,64.489],[62.9,64.472],[63.237,64.518],[63.455,64.454],[63.496,64.378],[63.409,64.325],[63.611,64.263],[63.889,64.28],[64.018,64.352],[64.478,64.355],[64.603,64.432],[64.761,64.422],[64.995,64.461],[65.177,64.441],[65.401,64.566],[65.884,64.564],[66.02,64.59],[66.465,64.507],[66.681,64.552],[66.932,64.483],[66.883,64.382],[66.792,64.328],[66.816,64.221],[67.16,64.159],[67.163,64.121],[67.252,64.112],[67.279,64.076],[67.678,64.074],[67.799,64.027],[67.928,64.111],[68.18,64.171],[68.426,64.291],[68.884,64.218],[68.894,64.266],[68.995,64.33],[68.878,64.433],[69.016,64.467],[69.23,64.465],[69.378,64.385],[69.731,64.389],[69.824,64.336],[70.0,64.311],[70.304,64.339],[70.471,64.247],[70.67,64.232],[70.765,64.19],[70.771,64.118],[70.553,64.001],[70.635,63.899],[70.81,63.818],[70.921,63.683],[71.385,63.67],[71.546,63.587],[71.607,63.18],[71.806,63.214],[71.989,63.197],[72.161,63.294],[72.656,63.275],[72.91,63.389],[73.102,63.431],[73.28,63.311],[73.367,63.202],[74.239,63.167],[74.507,63.038],[74.915,63.027],[75.363,63.103],[75.861,63.106],[76.237,63.014],[76.297,62.945],[76.687,63.034],[76.823,62.987],[77.022,62.97],[77.156,62.787],[77.326,62.706],[77.886,62.553],[77.964,62.474],[78.026,62.456],[78.379,62.563],[78.793,62.61],[79.821,62.599],[79.907,62.699],[79.919,62.788],[80.555,62.996],[80.592,63.078],[81.107,63.11],[81.171,62.969],[81.316,62.881],[81.337,62.822],[81.597,62.768],[81.783,62.684],[82.165,62.804],[82.316,62.765],[82.744,62.749],[82.756,62.666],[83.007,62.59],[83.032,62.525],[83.282,62.456],[83.788,62.558],[83.938,62.48],[84.017,62.392],[84.235,62.371],[84.286,62.273],[84.391,62.235],[84.442,62.173],[84.487,62.097],[84.516,61.925],[84.684,61.801],[85.094,61.747],[85.277,61.669],[85.404,61.682],[85.491,61.613],[85.712,61.568],[85.843,61.589],[85.956,61.541],[85.962,61.455],[86.129,61.374],[86.211,61.374],[86.327,61.453],[86.509,61.405],[86.523,61.349],[86.603,61.311],[86.775,61.317],[86.976,61.36],[86.989,61.411],[86.95,61.448],[87.001,61.461],[87.255,61.377],[87.245,61.354],[87.467,61.34],[87.474,61.266],[87.565,61.208],[87.692,61.267],[87.713,61.296],[87.677,61.33],[87.777,61.362],[87.963,61.314],[88.182,61.346],[88.953,60.746],[89.868,60.807],[90.946,60.746],[91.965,60.751],[92.138,60.829],[92.135,60.889],[92.234,60.951],[92.226,60.981],[92.409,60.968],[92.474,60.997],[92.401,61.111],[92.466,61.195],[92.558,61.191],[92.757,61.087],[92.902,61.068],[92.891,61.096],[92.939,61.13],[92.817,61.215],[92.829,61.236],[92.631,61.303],[92.83,61.36],[92.93,61.331],[93.012,61.362],[93.152,61.321],[93.156,61.245],[93.343,61.1],[93.472,61.082],[93.567,61.104],[93.732,61.038],[93.92,61.058],[94.029,60.96],[94.251,61.12],[94.382,61.118],[94.546,61.175],[94.723,61.158],[95.115,61.088],[95.36,60.922],[95.402,60.815],[95.326,60.744],[95.48,60.707],[95.234,60.563],[95.227,60.499],[95.29,60.452],[95.265,60.422],[95.114,60.416],[95.022,60.37],[94.929,60.236],[95.012,60.196],[94.977,60.113],[95.082,60.049],[95.006,60.007],[95.02,59.966],[95.062,59.89],[95.174,59.802],[95.136,59.755],[95.241,59.637],[95.499,59.637],[95.593,59.575],[95.726,59.554],[95.784,59.607],[95.879,59.627],[95.952,59.628],[96.052,59.556],[96.238,59.626],[96.326,59.549],[96.29,59.505],[96.352,59.471],[96.452,59.473],[96.556,59.539],[96.785,59.55],[97.121,59.5],[97.224,59.535],[97.237,59.576],[97.204,59.616],[97.361,59.66],[97.458,59.73],[97.696,59.679],[98.052,59.723],[98.127,59.768],[98.337,59.723],[98.445,59.784],[98.606,59.762],[98.879,59.826],[98.935,59.767],[99.001,59.772],[99.102,59.841],[99.117,59.907],[99.409,60.029],[99.411,60.077],[99.647,60.116],[100.065,59.995],[100.097,59.959],[100.072,59.895],[100.315,59.841],[100.431,59.858],[100.554,59.788],[100.865,59.783],[101.025,59.714],[101.448,59.683],[101.472,59.725],[101.729,59.74],[101.791,59.712],[101.785,59.684],[102.017,59.637],[102.107,59.589],[102.444,59.647],[102.488,59.628],[102.456,59.614],[102.454,59.524],[102.528,59.471],[102.639,59.448],[102.483,59.392],[102.517,59.261],[102.436,59.214],[102.484,59.181],[102.616,59.207],[102.82,59.187],[102.9,59.271],[103.014,59.313],[103.136,59.254],[103.212,59.251],[103.234,59.286],[103.332,59.268],[103.344,59.243],[103.21,59.233],[103.235,59.17],[103.31,59.13],[103.391,59.025],[103.556,58.994],[103.623,58.918],[103.894,58.918],[103.975,58.868],[103.944,58.835],[103.951,58.774],[103.884,58.754],[103.889,58.732],[103.97,58.723],[104.04,58.782],[104.19,58.771],[104.252,58.711],[104.377,58.722],[104.342,58.672],[104.466,58.604],[104.813,58.672],[104.898,58.751],[104.765,58.813],[104.834,58.895],[105.098,59.01],[105.136,59.055],[105.277,59.063],[105.372,59.116],[105.314,59.161],[105.343,59.197],[105.307,59.249],[105.191,59.299],[105.241,59.445],[105.149,59.49],[104.976,59.473],[104.858,59.558],[104.886,59.607],[104.81,59.63],[104.813,59.673],[104.782,59.692],[104.889,59.76],[105.026,59.773],[105.018,59.83],[105.07,59.87],[105.518,59.84],[105.437,59.902],[105.428,59.947],[105.51,60.0],[105.433,60.149],[105.513,60.227],[105.344,60.304],[105.231,60.28],[104.903,60.305],[104.79,60.381],[104.667,60.411],[104.649,60.522],[104.587,60.543],[104.575,60.591],[104.513,60.626],[104.614,60.726],[104.582,60.773],[104.491,60.809],[104.485,60.844],[104.638,60.903],[104.585,60.946],[104.648,61.036],[104.629,61.074],[104.697,61.083],[104.856,61.187],[105.049,61.175],[104.953,61.32],[104.823,61.354],[105.011,61.408],[105.283,61.419],[105.283,61.466],[105.377,61.54],[105.586,61.586],[105.67,61.65],[105.814,61.625],[105.897,61.682],[105.982,61.686],[105.904,61.842],[106.278,62.019],[106.398,62.039],[106.417,62.099],[106.393,62.14],[106.454,62.196],[106.47,62.261],[106.381,62.284],[106.487,62.337],[106.445,62.394],[106.548,62.392],[106.632,62.459],[106.759,62.493],[106.688,62.564],[106.8,62.627],[106.477,62.703],[106.516,62.728],[106.516,62.794],[106.453,62.817],[106.438,62.868],[106.204,62.928],[106.193,62.973],[106.153,62.982],[106.175,63.008],[106.128,63.077],[106.4,63.122],[106.398,63.182],[106.443,63.218],[106.356,63.254],[106.421,63.353],[106.622,63.312],[106.741,63.395],[106.503,63.537],[106.522,63.563],[106.602,63.558],[106.592,63.598],[106.66,63.622],[106.694,63.661],[106.611,63.722],[106.795,63.87],[106.729,63.912],[106.733,63.939],[106.627,63.975],[106.63,64.005],[106.673,64.037],[106.97,63.966],[107.043,63.922],[107.198,63.977],[107.305,63.973],[107.371,63.931],[107.339,63.904],[107.415,63.889],[107.453,63.917],[107.585,63.897],[107.632,63.93],[107.632,63.976],[107.761,64.016],[108.205,63.999],[108.315,64.006],[108.394,64.048],[108.248,64.255],[108.086,64.252],[108.049,64.192],[107.977,64.187],[107.642,64.316],[107.353,64.269],[107.273,64.304],[107.258,64.35],[107.107,64.359],[106.916,64.443],[106.739,64.429],[106.656,64.533],[106.579,64.548],[106.547,64.526],[106.576,64.481],[106.553,64.465],[106.138,64.421],[106.089,64.439],[106.137,64.489],[106.026,64.546],[105.906,64.494],[105.769,64.491],[105.79,64.553],[105.717,64.592],[105.756,64.642],[105.702,64.682],[105.782,64.663],[105.881,64.684],[105.823,64.764],[105.868,64.831],[105.991,64.827],[105.936,64.903],[106.032,64.914],[106.027,64.88],[106.058,64.865],[106.212,64.87],[106.113,64.915],[106.074,64.985],[105.976,65.005],[105.959,65.037],[106.111,65.065],[106.195,65.128],[106.312,65.14],[106.41,65.222],[106.528,65.215],[106.435,65.251],[106.447,65.314],[106.615,65.39],[106.819,65.373],[106.973,65.506],[106.708,65.546],[106.705,65.607],[106.435,65.673],[106.464,65.733],[106.439,65.77],[106.495,65.797],[106.47,65.824],[106.498,65.883],[106.469,65.923],[106.522,66.004],[106.34,66.158],[106.203,66.154],[106.117,66.197],[106.142,66.249],[106.119,66.371],[106.337,66.473],[106.316,66.532],[106.245,66.569],[106.222,66.649],[106.26,66.686],[106.152,66.733],[106.216,66.802],[106.014,66.794],[106.097,66.857],[106.086,66.898],[105.86,66.916],[105.857,66.949],[105.699,66.931],[105.552,66.986],[105.557,67.015],[105.949,67.036],[106.067,67.112],[106.077,67.163],[106.342,67.196],[106.44,67.262],[106.543,67.286],[106.711,67.253],[106.827,67.333],[106.926,68.254],[106.911,68.859],[106.156,69.414],[106.344,69.472],[106.382,69.527],[106.496,69.576],[106.596,69.563],[106.63,69.523],[106.857,69.518],[107.607,69.656],[107.954,69.664],[108.023,69.695],[108.052,69.783],[108.119,69.782],[108.249,69.849],[108.897,69.838],[108.944,69.766],[109.201,69.75],[109.308,69.773],[109.341,69.817],[109.39,69.822],[109.41,69.959],[109.532,69.989],[109.551,70.028],[109.364,70.081],[109.368,70.132],[109.311,70.151],[109.31,70.202],[109.578,70.248],[109.622,70.285],[109.584,70.351],[109.64,70.367],[110.317,70.405],[110.308,70.439],[110.125,70.479],[110.094,70.528],[110.158,70.542],[110.118,70.585],[110.141,70.634],[110.452,70.701],[110.512,70.721],[110.519,70.761],[110.623,70.782],[110.844,70.778],[111.054,70.84],[111.374,70.857],[111.483,70.924],[111.936,70.969],[112.04,71.05],[112.105,71.055],[112.247,70.995],[112.356,71.066],[112.597,71.098],[112.521,71.166],[112.668,71.191],[112.728,71.255],[112.604,71.299],[112.474,71.282],[112.222,71.383],[112.008,71.407],[112.004,72.128],[111.716,72.17],[111.721,72.213],[111.693,72.226],[111.605,72.217],[111.673,72.259],[111.576,72.329],[111.327,72.321],[111.059,72.372],[111.04,72.394],[111.08,72.414],[111.039,72.438],[111.29,72.482],[111.313,72.511],[111.179,72.563],[110.919,72.578],[110.893,72.606],[110.913,72.635],[110.728,72.678],[110.666,72.786],[110.751,72.811],[110.647,72.882],[110.913,72.937],[110.694,72.984],[110.857,73.044],[110.793,73.098],[110.854,73.164],[110.386,73.157],[110.37,73.196],[110.584,73.236],[110.631,73.27],[110.545,73.338],[110.206,73.39],[110.561,73.402],[110.681,73.438],[110.693,73.484],[110.814,73.507],[110.882,73.558],[111.011,73.553],[111.297,73.613],[111.202,73.632],[111.188,73.668],[111.025,73.692],[111.026,73.689],[111.025,73.684],[111.021,73.677],[110.844,73.718],[110.954,73.769],[111.062,73.819],[111.21,73.812],[111.254,73.826],[111.237,73.838],[111.329,73.848],[112.303,73.701],[112.982,73.772],[112.829,74.001],[113.176,73.868],[113.434,73.662],[113.46,73.599],[113.182,73.445],[113.555,73.34],[113.48,73.227],[113.589,73.134],[113.669,73.162],[113.584,73.232],[113.693,73.259],[113.872,73.347],[113.54,73.509],[114.921,73.599],[115.659,73.708],[118.664,73.559],[118.757,73.544],[118.753,73.464],[118.433,73.42],[118.407,73.225],[118.535,73.173],[119.697,72.99],[121.074,72.924],[121.727,72.967],[122.101,72.897],[122.665,72.841],[122.597,72.911],[122.817,72.863],[123.001,72.889],[122.961,72.908],[122.788,72.949],[122.683,72.956],[122.549,73.007],[122.744,73.033],[122.755,73.015],[122.992,72.968],[122.81,72.969],[123.202,72.895],[123.434,72.968],[123.382,73.02],[123.49,73.112],[123.724,73.097],[123.572,73.151],[123.744,73.205],[123.405,73.289],[123.498,73.298],[123.383,73.347],[123.531,73.378],[123.481,73.46],[123.327,73.472],[123.386,73.499],[123.324,73.544],[123.514,73.555],[123.435,73.647],[123.526,73.605],[123.592,73.692],[123.704,73.695],[123.611,73.611],[123.766,73.563],[124.003,73.595],[124.436,73.798],[124.513,73.731],[124.747,73.742],[124.748,73.687],[124.917,73.719],[124.845,73.678],[124.944,73.647],[124.986,73.656],[124.996,73.692],[125.032,73.698],[125.011,73.597],[125.164,73.704],[125.129,73.629],[125.264,73.607],[125.196,73.509],[125.24,73.562],[125.296,73.571],[125.307,73.504],[125.461,73.53],[125.435,73.56],[125.454,73.582],[125.506,73.544],[125.462,73.517],[125.5,73.493],[125.68,73.526],[125.658,73.444],[125.547,73.447],[125.574,73.371],[125.709,73.464],[125.897,73.429],[125.803,73.453],[125.94,73.525],[125.982,73.478],[126.302,73.55],[126.445,73.507],[126.383,73.479],[126.455,73.435],[126.356,73.398],[126.376,73.428],[126.342,73.449],[126.105,73.424],[126.342,73.345],[126.704,73.367],[126.82,73.446],[126.868,73.375],[126.952,73.37],[126.896,73.414],[127.034,73.408],[127.029,73.519],[127.278,73.518],[127.38,73.41],[127.558,73.443],[127.582,73.489],[127.593,73.462],[127.826,73.467],[127.721,73.379],[128.101,73.407],[127.988,73.36],[127.944,73.324],[128.47,73.344],[128.421,73.34],[128.365,73.323],[128.165,73.224],[128.177,73.196],[128.314,73.199],[128.452,73.237],[128.769,73.244],[128.704,73.221],[128.737,73.222],[128.743,73.213],[128.785,73.212],[128.804,73.078],[128.793,73.08],[128.788,73.081],[128.777,73.071],[128.811,73.066],[128.817,73.0],[128.816,72.999],[128.819,72.975],[128.363,72.92],[128.41,72.898],[128.285,72.871],[128.272,72.841],[128.294,72.802],[128.171,72.77],[128.006,72.781],[127.853,72.761],[127.684,72.689],[127.575,72.706],[127.615,72.762],[127.628,72.781],[127.543,72.763],[127.314,72.714],[126.965,72.623],[126.962,72.621],[126.896,72.603],[126.887,72.602],[126.582,72.522],[126.504,72.482],[126.503,72.478],[126.505,72.47],[126.216,72.382],[126.111,72.28],[126.225,72.249],[127.121,72.212],[127.418,72.142],[127.623,72.051],[127.435,72.238],[127.401,72.315],[127.426,72.309],[127.374,72.378],[127.795,72.324],[127.881,72.262],[127.787,72.242],[128.507,72.038],[128.506,71.955],[128.735,71.77],[128.946,71.724],[128.83,71.679],[128.875,71.597],[129.238,71.599],[129.455,71.31],[129.814,71.128],[130.167,71.07],[130.264,70.939],[130.606,70.848],[130.806,70.868],[130.819,70.949],[130.857,70.964],[130.935,70.765],[131.077,70.706],[131.623,70.86],[131.864,71.067],[131.787,71.117],[131.955,71.149],[131.85,71.162],[131.928,71.201],[132.205,71.212],[131.991,71.259],[132.19,71.563],[132.562,71.873],[132.78,71.949],[132.948,71.941],[132.786,71.921],[132.774,71.767],[133.329,71.528],[134.069,71.381],[134.722,71.399],[134.821,71.356],[134.749,71.317],[134.758,71.266],[134.869,71.363],[134.799,71.415],[134.891,71.394],[135.015,71.385],[135.05,71.389],[135.024,71.404],[134.884,71.419],[134.836,71.469],[134.97,71.47],[135.846,71.65],[136.342,71.6],[136.276,71.589],[136.29,71.585],[136.584,71.58],[136.615,71.518],[136.875,71.534],[136.965,71.469],[137.126,71.418],[137.389,71.392],[137.324,71.353],[137.384,71.364],[137.414,71.382],[137.49,71.372],[137.424,71.372],[137.473,71.356],[137.425,71.348],[137.415,71.335],[137.383,71.332],[137.401,71.329],[137.406,71.33],[137.587,71.362],[137.548,71.263],[137.742,71.22],[137.735,71.195],[137.849,71.149],[137.846,71.109],[137.978,71.155],[138.072,71.09],[138.17,71.135],[137.82,71.233],[138.29,71.234],[138.358,71.278],[138.041,71.297],[138.49,71.304],[137.916,71.359],[138.196,71.557],[138.165,71.581],[138.2,71.576],[138.252,71.577],[138.454,71.587],[138.517,71.526],[138.662,71.548],[138.619,71.611],[138.851,71.634],[139.15,71.579],[139.22,71.432],[139.167,71.43],[139.236,71.403],[139.409,71.406],[139.484,71.493],[139.793,71.442],[140.019,71.472],[140.022,71.474],[140.064,71.492],[140.087,71.519],[139.786,71.689],[139.78,71.827],[139.856,71.852],[139.774,71.889],[139.841,71.891],[139.624,71.94],[139.383,71.918],[139.377,71.976],[139.502,72.047],[139.452,71.971],[139.632,71.952],[139.958,72.091],[139.893,72.103],[139.952,72.163],[140.121,72.132],[140.542,72.187],[140.606,72.256],[140.299,72.179],[140.058,72.274],[139.414,72.148],[139.199,72.176],[139.157,72.265],[139.59,72.488],[140.54,72.469],[141.301,72.585],[140.771,72.794],[140.715,72.863],[140.768,72.879],[141.94,72.719],[145.559,72.526],[145.891,72.478],[145.923,72.419],[145.895,72.423],[145.896,72.401],[145.933,72.402],[145.958,72.356],[145.385,72.347],[145.24,72.43],[144.956,72.431],[144.495,72.229],[144.26,72.255],[144.415,72.157],[145.211,72.262],[146.042,72.291],[146.079,72.241],[146.103,72.173],[146.026,72.133],[146.098,72.115],[146.0,72.104],[146.0,72.06],[145.958,72.094],[146.071,72.211],[145.878,72.146],[145.948,72.187],[145.743,72.254],[145.49,72.25],[145.675,72.207],[145.81,72.216],[145.627,72.087],[145.802,72.029],[145.839,71.939],[145.342,71.864],[145.028,71.938],[145.229,71.837],[144.91,71.766],[144.992,71.73],[144.944,71.725],[144.945,71.7],[144.958,71.698],[145.006,71.688],[145.054,71.687],[145.044,71.646],[145.111,71.684],[145.191,71.659],[145.327,71.68],[145.336,71.651],[145.416,71.655],[146.058,71.772],[147.14,72.305],[148.384,72.319],[149.414,72.178],[149.929,72.019],[150.104,71.847],[149.703,71.748],[149.52,71.878],[149.357,71.882],[149.413,71.875],[148.858,71.682],[149.554,71.641],[149.763,71.641],[149.892,71.662],[149.982,71.654],[150.012,71.643],[149.982,71.634],[149.997,71.602],[150.022,71.547],[149.993,71.529],[150.0,71.513],[150.069,71.51],[150.249,71.544],[150.074,71.503],[150.085,71.494],[150.662,71.498],[150.704,71.445],[150.985,71.375],[151.561,71.314],[152.059,70.99],[151.919,70.965],[151.609,70.991],[151.601,70.992],[151.449,70.969],[151.526,70.954],[151.604,70.961],[151.678,70.967],[151.99,70.935],[152.534,70.81],[152.985,70.806],[153.004,70.818],[153.175,70.82],[153.267,70.838],[153.299,70.828],[153.3,70.827],[153.594,70.865],[153.675,70.844],[154.496,70.958],[155.561,71.014],[155.949,71.074],[157.819,71.024],[159.0,70.855],[159.539,70.704],[159.671,70.578],[159.724,70.551],[159.884,70.376],[159.918,70.293],[159.915,70.192],[159.91,70.188],[159.907,70.185],[159.914,70.13],[159.873,70.131],[159.689,70.134],[159.87,70.108],[159.899,70.104],[159.865,69.982],[159.713,69.902],[159.677,69.874],[159.762,69.809],[159.636,69.832],[160.54,69.585],[160.619,69.605],[160.625,69.623],[160.47,69.641],[160.858,69.611],[160.725,69.563],[160.684,69.549],[160.979,69.594],[160.955,69.539],[160.921,69.462],[161.022,69.297],[161.004,69.246],[161.039,69.193],[160.965,69.108],[161.131,69.149],[161.128,69.236],[161.169,69.325],[161.066,69.418],[161.12,69.478],[161.374,69.546],[161.386,69.462],[161.292,69.414],[161.352,69.379],[161.364,69.312],[161.455,69.367],[161.436,69.38],[161.6,69.428],[161.703,69.496],[161.824,69.535],[161.946,69.528],[161.988,69.547],[161.958,69.55],[162.351,69.634],[162.354,69.574],[162.36,69.575],[162.36,69.574],[162.307,69.541],[162.405,69.462],[162.364,69.414],[162.493,69.384],[162.538,69.303],[162.766,69.197],[162.507,69.113],[162.496,69.068],[162.544,69.045],[162.528,69.002],[162.765,68.925],[162.777,68.886],[162.831,68.865],[162.74,68.802],[162.592,68.803],[162.606,68.702],[162.682,68.669],[162.715,68.605],[162.578,68.51],[162.585,68.453],[162.524,68.356],[162.428,68.317],[161.406,68.417],[161.224,68.389],[160.995,68.306],[159.85,68.282],[159.78,68.214],[159.552,68.244],[158.933,68.149],[158.419,68.116],[158.254,68.073],[158.188,67.959],[158.07,67.928],[158.054,67.851],[158.254,67.827],[158.316,67.751],[158.151,67.725],[157.923,67.741],[157.804,67.71],[157.729,67.649],[157.731,67.592],[157.686,67.538],[157.747,67.505],[157.751,67.47],[157.877,67.437],[157.778,67.346],[157.867,67.263],[158.351,67.112],[158.699,67.051],[158.796,66.978],[158.78,66.924],[158.855,66.871],[158.894,66.794],[158.713,66.735],[158.625,66.617],[158.527,66.573],[158.458,66.487],[158.354,66.447],[158.527,66.355],[158.64,66.345],[158.775,66.279],[159.193,66.208],[159.19,66.153],[159.049,66.052],[158.987,65.939],[158.924,65.898],[158.93,65.817],[158.885,65.785],[158.908,65.746],[159.833,65.524],[160.026,65.51],[160.167,65.446],[160.165,65.38],[160.206,65.344],[160.413,65.249],[160.518,65.161],[161.01,65.165],[161.28,65.136],[161.416,65.064],[161.687,64.99],[161.717,64.913],[161.808,64.822],[162.292,64.737],[162.553,64.742],[162.735,64.656],[163.046,64.65],[163.122,64.691],[163.142,64.77],[163.119,64.796],[163.347,64.814],[163.506,64.923],[163.873,64.86],[164.023,64.87],[164.189,64.929],[164.794,64.767],[164.881,64.681],[165.023,64.691],[165.032,64.838],[165.262,64.846],[165.336,64.806],[165.32,64.78],[165.358,64.756],[165.683,64.749],[165.737,64.72],[165.74,64.675],[165.868,64.618],[165.815,64.591],[165.871,64.55],[166.058,64.557],[166.198,64.604],[166.807,64.528],[167.009,64.546],[167.233,64.619],[167.37,64.489],[167.504,64.473],[167.713,64.336],[167.814,64.346],[168.026,64.281],[168.154,64.286],[168.225,64.341],[168.506,64.309],[168.623,64.21],[168.769,64.182],[168.764,64.146],[168.858,64.022],[169.111,63.948],[169.34,63.942],[169.368,63.87],[169.541,63.813],[169.548,63.698],[169.585,63.659],[169.51,63.632],[169.49,63.573],[169.203,63.52],[168.785,63.304],[168.777,63.247],[168.684,63.245],[168.707,63.194],[168.602,63.193],[168.46,63.075],[168.925,62.939],[169.125,62.968],[169.513,62.809],[169.655,62.704],[169.841,62.65],[170.049,62.663],[169.981,62.545],[170.085,62.485],[170.036,62.445],[170.281,62.274],[170.423,62.309],[170.859,62.244],[170.903,62.274],[171.08,62.285],[171.046,62.335],[171.219,62.363],[171.259,62.321],[171.358,62.35],[171.377,62.319],[171.486,62.307],[171.858,62.377],[171.872,62.408],[172.055,62.461],[172.207,62.445],[172.293,62.398],[172.487,62.435],[172.703,62.398],[172.853,62.327],[172.905,62.388],[173.172,62.39],[173.218,62.432],[173.504,62.528],[173.689,62.53],[173.796,62.511],[173.871,62.436],[174.075,62.442],[174.088,62.345],[174.005,62.278],[174.104,62.186],[174.103,62.075],[174.228,62.061],[174.327,62.088],[174.344,62.041],[174.456,61.984],[174.446,61.911],[174.505,61.874],[174.477,61.868],[174.478,61.867],[174.485,61.868],[173.838,61.646],[173.52,61.723],[173.504,61.555],[173.319,61.523],[173.17,61.394],[172.79,61.439],[172.739,61.403],[172.97,61.284],[172.65,61.166],[172.374,61.22],[172.432,61.123],[172.241,61.131],[172.481,61.061],[172.422,61.012],[172.01,61.087],[172.214,60.949],[172.074,60.838],[171.71,60.833],[171.396,60.614],[170.643,60.41],[170.688,60.31],[170.525,60.255],[170.426,59.971],[170.296,59.926],[169.957,60.074],[169.668,60.425],[169.231,60.548],[168.476,60.597],[167.797,60.531],[167.787,60.471],[167.228,60.339],[167.067,60.404],[167.118,60.409],[167.003,60.415],[167.075,60.308],[166.787,60.227],[166.861,60.214],[166.285,59.81],[166.09,59.812],[166.21,60.126],[166.314,60.196],[166.286,60.244],[166.291,60.321],[166.253,60.368],[166.259,60.396],[166.389,60.408],[166.268,60.473],[165.228,60.087],[165.171,60.143],[165.027,60.101],[165.166,60.079],[165.215,59.986],[164.836,59.782],[164.716,59.996],[164.49,60.1],[164.342,60.089],[164.33,59.989],[164.143,59.935],[164.2,59.854],[164.073,59.895],[164.214,59.991],[163.647,60.01],[163.696,59.956],[163.835,59.992],[163.691,59.878],[163.434,59.837],[163.37,59.731],[163.416,59.622],[163.214,59.567],[163.19,59.528],[163.189,59.514],[163.194,59.51],[163.212,59.532],[163.275,59.555],[163.206,59.486],[163.332,59.404],[163.345,59.356],[163.342,59.273],[163.071,59.22],[163.23,59.138],[163.25,59.086],[163.25,59.084],[163.225,59.04],[163.107,59.132],[162.904,59.113],[163.066,58.987],[162.411,58.657],[162.133,58.37],[161.989,58.087],[162.137,57.847],[162.446,57.773],[162.45,57.741],[162.34,57.673],[162.355,57.662],[162.53,57.751],[162.556,57.929],[162.701,57.947],[163.211,57.819],[163.322,57.725],[163.097,57.484],[162.782,57.351],[162.853,57.031],[162.777,56.781],[162.933,56.693],[163.226,56.741],[163.285,56.688],[163.25,56.443],[163.359,56.184],[163.043,56.007],[162.817,56.062],[162.619,56.227],[162.077,56.08],[161.788,55.638],[161.741,55.385],[161.863,55.085],[162.154,54.852],[162.14,54.753],[161.715,54.505],[161.29,54.482],[161.071,54.593],[160.719,54.528],[159.985,54.109],[160.037,54.163],[159.993,54.161],[159.841,53.76],[159.955,53.495],[159.838,53.434],[159.972,53.327],[159.903,53.256],[160.008,53.259],[160.036,53.098],[159.743,53.205],[159.814,53.276],[159.711,53.219],[159.576,53.252],[159.091,53.108],[158.713,52.887],[158.708,52.963],[158.611,53.051],[158.42,53.017],[158.43,52.894],[158.637,52.902],[158.646,52.844],[158.481,52.77],[158.599,52.695],[158.547,52.628],[158.388,52.65],[158.525,52.529],[158.397,52.408],[158.561,52.418],[158.483,52.344],[158.547,52.29],[158.393,52.227],[158.273,51.963],[157.911,51.629],[157.563,51.501],[157.468,51.358],[156.668,50.867],[156.76,51.074],[156.715,51.199],[156.534,51.321],[156.468,52.126],[156.147,52.848],[155.558,55.199],[155.651,55.967],[155.99,56.682],[156.472,56.957],[156.55,57.1],[156.737,57.076],[157.0,57.436],[156.907,57.67],[156.773,57.725],[156.854,57.8],[157.006,57.854],[157.349,57.771],[157.526,57.822],[157.678,58.016],[157.984,57.98],[158.332,58.075],[159.53,58.725],[159.738,58.876],[159.719,58.978],[159.858,59.127],[160.394,59.387],[160.496,59.555],[160.897,59.628],[161.492,60.042],[161.919,60.208],[161.952,60.423],[162.705,60.608],[162.896,60.753],[163.73,60.872],[163.768,60.92],[163.487,61.007],[163.937,61.223],[164.029,61.35],[163.751,61.467],[163.872,61.652],[164.054,61.684],[164.137,62.255],[164.532,62.44],[165.021,62.402],[165.091,62.487],[164.722,62.574],[164.616,62.68],[164.44,62.694],[163.275,62.527],[163.172,62.429],[163.365,62.333],[163.086,62.22],[163.104,62.083],[163.196,62.059],[162.966,61.809],[163.074,61.758],[163.064,61.702],[163.055,61.646],[163.033,61.518],[162.834,61.715],[162.639,61.625],[162.389,61.663],[162.007,61.383],[161.876,61.429],[161.897,61.339],[161.815,61.373],[161.784,61.301],[161.543,61.253],[161.581,61.188],[160.911,60.898],[160.788,60.719],[160.686,60.772],[160.41,60.702],[160.426,60.759],[160.168,60.575],[160.145,60.655],[160.255,60.713],[160.19,60.823],[160.387,60.906],[160.336,60.93],[160.443,61.036],[159.788,60.933],[160.005,61.107],[159.938,61.245],[159.776,61.261],[159.966,61.264],[159.881,61.321],[160.084,61.378],[160.059,61.464],[160.279,61.554],[160.323,61.664],[160.254,61.692],[160.41,61.762],[160.365,61.939],[160.03,61.846],[159.893,61.71],[159.696,61.73],[159.574,61.656],[159.515,61.707],[159.572,61.817],[159.469,61.765],[159.351,61.817],[159.396,61.877],[159.006,61.923],[158.829,61.817],[158.272,61.826],[158.037,61.729],[157.499,61.79],[157.339,61.678],[157.038,61.649],[156.899,61.539],[156.672,61.519],[156.656,61.203],[155.929,60.929],[155.988,60.909],[155.906,60.709],[155.811,60.728],[154.935,60.353],[154.672,60.185],[154.485,59.932],[154.585,60.105],[154.411,60.066],[154.477,59.885],[154.209,59.878],[154.274,59.669],[154.211,59.651],[154.145,59.536],[154.072,59.519],[154.126,59.458],[154.303,59.439],[154.394,59.536],[154.414,59.421],[154.534,59.42],[154.413,59.551],[154.973,59.496],[155.079,59.332],[155.108,59.325],[155.098,59.313],[155.098,59.302],[155.181,59.174],[154.834,59.197],[154.789,59.134],[154.334,59.209],[154.355,59.109],[154.041,59.047],[153.7,59.187],[153.785,59.246],[153.638,59.19],[153.388,59.248],[153.279,59.132],[153.331,59.091],[153.009,59.063],[152.904,58.907],[152.551,58.952],[152.354,59.061],[152.395,59.008],[152.172,58.987],[152.067,58.887],[151.365,58.84],[151.132,59.095],[151.433,59.165],[151.754,59.129],[152.081,59.145],[152.322,59.23],[152.141,59.305],[151.74,59.3],[151.771,59.356],[151.668,59.454],[151.409,59.605],[150.915,59.566],[150.939,59.455],[150.76,59.433],[150.754,59.488],[150.537,59.496],[150.772,59.563],[150.577,59.543],[150.458,59.617],[149.597,59.758],[149.045,59.616],[149.227,59.463],[148.933,59.453],[148.875,59.551],[148.716,59.458],[148.74,59.36],[148.986,59.375],[148.929,59.235],[148.417,59.254],[148.402,59.376],[148.242,59.409],[147.878,59.385],[147.786,59.343],[147.846,59.301],[147.797,59.263],[147.638,59.308],[147.541,59.236],[146.507,59.465],[146.304,59.391],[146.349,59.204],[146.046,59.141],[145.83,59.246],[145.971,59.404],[145.802,59.366],[145.698,59.427],[143.219,59.357],[142.172,59.082],[141.563,58.612],[140.766,58.294],[140.489,57.843],[140.006,57.704],[139.794,57.487],[138.927,57.143],[138.871,57.014],[138.627,56.967],[138.272,56.62],[138.113,56.579],[138.228,56.425],[137.918,56.365],[137.841,56.234],[137.442,56.046],[137.393,55.948],[137.303,55.967],[136.757,55.644],[136.42,55.568],[136.135,55.291],[135.468,55.059],[135.174,54.849],[135.257,54.74],[135.666,54.659],[135.763,54.563],[136.516,54.588],[136.664,54.677],[136.741,54.551],[136.758,54.555],[136.759,54.555],[136.758,54.552],[136.753,54.548],[136.749,54.536],[136.791,54.467],[136.722,54.16],[136.723,54.159],[136.714,54.108],[136.711,54.098],[136.707,54.096],[136.676,53.957],[136.71,53.795],[137.196,53.849],[137.304,54.034],[137.161,54.037],[137.11,54.155],[137.188,54.126],[137.21,54.133],[137.217,54.139],[137.263,54.132],[137.263,54.128],[137.26,54.126],[137.252,54.112],[137.238,54.108],[137.642,53.959],[137.673,53.876],[137.497,53.654],[137.218,53.595],[137.313,53.533],[137.952,53.582],[138.305,53.742],[138.37,53.901],[138.58,53.994],[138.585,53.805],[138.259,53.533],[138.469,53.527],[138.659,53.707],[138.768,53.982],[138.763,54.075],[138.662,54.061],[138.737,54.247],[138.659,54.287],[139.317,54.177],[139.785,54.29],[139.789,54.205],[140.325,53.956],[140.257,53.869],[140.54,53.652],[141.124,53.453],[140.903,53.464],[141.409,53.222],[141.443,53.164],[141.359,53.136],[141.36,53.081],[141.219,53.069],[141.238,52.867],[141.163,52.792],[141.278,52.658],[141.106,52.456],[141.253,52.297],[141.538,52.16],[141.353,52.099],[141.39,51.918],[141.19,51.846],[141.107,51.683],[140.876,51.628],[140.884,51.496],[140.727,51.465],[140.863,51.39],[140.67,51.327],[140.65,50.962],[140.526,50.902],[140.432,50.722],[140.502,50.165],[140.682,50.091],[140.399,49.879],[140.529,49.786],[140.546,49.566],[140.311,49.217],[140.347,49.097],[140.2,49.014],[140.286,49.017],[140.251,48.95],[140.333,49.023],[140.382,48.976],[140.193,48.759],[140.172,48.446],[139.264,47.802],[138.991,47.317],[138.837,47.275],[138.561,47.03],[138.348,46.692],[138.343,46.541],[138.177,46.448],[138.1,46.235],[137.655,45.783],[136.802,45.199],[136.449,44.774],[136.304,44.749],[136.151,44.498],[135.874,44.406],[135.648,44.176],[135.632,44.035],[135.452,43.947],[135.509,43.875],[135.434,43.765],[135.22,43.721],[135.141,43.506],[134.187,43.072],[133.922,42.867],[133.866,42.908],[133.748,42.846],[133.725,42.808],[133.504,42.834],[133.147,42.685],[133.0,42.716],[133.097,42.748],[132.993,42.85],[132.834,42.739],[132.76,42.91],[132.572,42.839],[132.406,42.948],[132.349,42.841],[132.284,43.071],[132.39,43.189],[132.306,43.228],[132.35,43.296],[131.963,43.057],[131.876,43.126],[132.072,43.313],[131.824,43.294],[131.789,43.364],[131.756,43.348],[131.761,43.235],[131.695,43.204],[131.778,43.18],[131.686,43.202],[131.572,43.001],[131.376,42.943],[131.438,42.861],[131.257,42.77],[131.217,42.556],[131.108,42.672],[130.939,42.61],[130.841,42.706],[130.652,42.658],[130.739,42.627],[130.685,42.575],[130.796,42.633],[130.85,42.538],[130.699,42.299],[130.664,42.348],[130.533,42.526],[130.585,42.569],[130.572,42.622],[130.504,42.678],[130.382,42.698],[130.586,42.817],[130.735,42.825],[130.794,42.869],[130.992,42.849],[131.023,42.896],[131.103,42.91],[131.078,43.031],[131.184,43.121],[131.169,43.202],[131.238,43.266],[131.281,43.38],[131.274,43.451],[131.161,43.533],[131.192,43.589],[131.17,43.781],[131.217,43.908],[131.207,43.975],[131.264,44.054],[131.066,44.682],[130.988,44.769],[130.992,44.817],[131.313,44.964],[131.434,44.961],[131.609,45.09],[131.616,45.186],[131.711,45.209],[131.754,45.257],[131.918,45.241],[132.531,45.032],[132.778,44.988],[132.862,45.05],[132.966,45.029],[133.115,45.123],[133.103,45.289],[133.301,45.542],[133.413,45.573],[133.428,45.615],[133.477,45.628],[133.488,45.687],[133.446,45.71],[133.511,45.779],[133.478,45.81],[133.521,45.883],[133.586,45.876],[133.616,45.935],[133.658,45.935],[133.72,46.064],[133.69,46.143],[133.902,46.259],[133.916,46.313],[133.865,46.34],[133.934,46.391],[133.846,46.472],[133.903,46.574],[134.015,46.665],[134.045,46.772],[134.017,46.821],[134.07,46.982],[134.125,47.071],[134.227,47.118],[134.154,47.258],[134.183,47.326],[134.313,47.42],[134.485,47.43],[134.557,47.471],[134.624,47.55],[134.625,47.55],[134.683,47.588],[134.693,47.649],[134.773,47.711],[134.714,47.784],[134.659,48.102],[134.719,48.263],[134.611,48.286],[134.543,48.357],[134.471,48.34],[134.386,48.381],[134.206,48.36],[133.966,48.279],[133.738,48.251],[133.584,48.156],[133.324,48.1],[133.224,48.126],[133.092,48.107],[132.858,47.98],[132.689,47.958],[132.658,47.915],[132.269,47.778],[130.943,47.733],[130.942,47.821],[130.793,47.973],[130.726,48.171],[130.819,48.282],[130.822,48.334],[130.743,48.412],[130.744,48.497],[130.627,48.483],[130.62,48.56],[130.555,48.669],[130.674,48.871],[130.511,48.856],[130.384,48.964],[129.848,49.133],[129.842,49.167],[129.742,49.195],[129.711,49.274],[129.552,49.291],[129.528,49.385],[129.481,49.421],[129.379,49.425],[129.341,49.341],[129.218,49.391],[129.128,49.352],[129.068,49.362],[128.998,49.441],[128.879,49.48],[128.76,49.471],[128.802,49.565],[128.672,49.611],[128.629,49.576],[128.384,49.579],[128.344,49.548],[128.196,49.539],[127.713,49.699],[127.517,49.873],[127.534,49.922],[127.487,50.026],[127.57,50.13],[127.591,50.209],[127.332,50.327],[127.359,50.415],[127.292,50.467],[127.367,50.578],[127.289,50.675],[127.287,50.751],[126.932,51.065],[126.905,51.208],[126.972,51.324],[126.899,51.316],[126.869,51.252],[126.809,51.288],[126.826,51.338],[126.909,51.391],[126.799,51.421],[126.83,51.508],[126.807,51.534],[126.678,51.577],[126.724,51.636],[126.726,51.709],[126.648,51.742],[126.44,51.996],[126.514,52.043],[126.556,52.131],[126.333,52.195],[126.322,52.232],[126.439,52.275],[126.321,52.314],[126.344,52.391],[126.276,52.463],[126.209,52.468],[126.212,52.533],[126.158,52.555],[126.038,52.724],[126.104,52.754],[126.088,52.775],[125.989,52.772],[125.853,52.947],[125.509,53.157],[125.236,53.166],[125.073,53.212],[124.898,53.186],[124.882,53.134],[124.721,53.149],[124.652,53.209],[124.384,53.246],[124.253,53.375],[124.121,53.353],[123.971,53.455],[123.702,53.51],[123.614,53.563],[123.542,53.515],[123.514,53.562],[123.478,53.518],[123.277,53.569],[123.153,53.513],[122.403,53.451],[122.317,53.496],[122.082,53.43],[121.889,53.431],[121.641,53.385],[121.512,53.33],[121.341,53.324],[121.203,53.277],[120.846,53.273],[120.279,52.866],[120.033,52.761],[120.034,52.625],[120.079,52.59],[120.453,52.639],[120.724,52.542],[120.626,52.347],[120.758,52.237],[120.779,52.118],[120.697,52.049],[120.711,51.993],[120.648,51.912],[120.493,51.876],[120.166,51.669],[120.1,51.66],[120.053,51.552],[119.977,51.487],[119.983,51.442],[119.953,51.399],[119.895,51.384],[119.913,51.33],[119.82,51.275],[119.81,51.217],[119.762,51.215],[119.781,51.173],[119.741,51.073],[119.518,50.905],[119.497,50.737],[119.294,50.599],[119.243,50.445],[119.138,50.393],[119.175,50.356],[119.357,50.339],[119.316,50.094],[119.209,50.015],[119.093,49.987],[118.644,49.955],[117.874,49.513],[117.758,49.513],[117.473,49.614],[117.253,49.622],[117.058,49.673],[116.722,49.802],[116.578,49.926],[116.219,50.019],[116.052,50.003],[115.716,49.883],[115.39,49.896],[115.213,49.976],[115.0,50.149],[114.756,50.241],[114.473,50.239],[114.286,50.282],[113.971,50.165],[113.848,50.086],[113.577,50.024],[113.18,49.806],[113.083,49.69],[113.056,49.6],[112.777,49.506],[112.473,49.539],[112.029,49.417],[111.66,49.401],[111.479,49.348],[111.337,49.37],[110.84,49.167],[110.646,49.142],[110.371,49.247],[110.181,49.167],[109.729,49.271],[109.517,49.261],[109.452,49.311],[109.287,49.344],[108.539,49.332],[108.338,49.441],[108.239,49.537],[108.108,49.559],[108.019,49.606],[108.019,49.66],[107.936,49.674],[107.961,49.745],[107.949,49.938],[107.195,50.011],[107.062,50.078],[106.976,50.201],[106.657,50.332],[106.224,50.297],[106.059,50.338],[105.986,50.405],[105.278,50.478],[105.103,50.395],[104.901,50.395],[104.609,50.319],[104.404,50.305],[104.121,50.153],[103.785,50.191],[103.666,50.136],[103.439,50.198],[103.28,50.202],[103.203,50.302],[102.928,50.308],[102.764,50.38],[102.619,50.404],[102.515,50.508],[102.331,50.55],[102.287,50.594],[102.281,50.647],[102.334,50.72],[102.22,50.804],[102.235,50.98],[102.151,51.1],[102.142,51.238],[102.198,51.305],[102.186,51.328],[102.052,51.388],[101.725,51.456],[101.527,51.481],[101.35,51.455],[101.243,51.52],[101.119,51.533],[100.512,51.732],[99.921,51.754],[99.711,51.885],[99.325,51.939],[99.235,51.999],[98.998,52.063],[98.93,52.199],[98.817,52.2],[98.802,52.279],[98.714,52.298],[98.652,52.266],[98.682,52.37],[98.644,52.419],[98.719,52.455],[98.734,52.501],[98.809,52.51],[98.831,52.542],[98.807,52.604],[98.938,52.663],[98.942,52.8],[98.872,52.798],[98.858,52.832],[98.932,52.914],[99.207,52.848],[99.253,52.958],[98.993,53.039],[99.069,53.099],[98.939,53.154],[98.863,53.13],[98.687,53.16],[98.597,53.109],[98.308,53.108],[98.291,53.228],[98.033,53.258],[97.978,53.296],[97.958,53.363],[97.609,53.378],[97.589,53.442],[97.451,53.466],[97.336,53.599],[97.127,53.619],[96.875,53.734],[96.715,53.703],[96.651,53.557],[96.565,53.539],[96.443,53.519],[96.369,53.563],[96.375,53.603],[96.289,53.587],[96.301,53.616],[96.252,53.621],[96.184,53.521],[96.091,53.456],[95.756,53.525],[95.397,53.377],[95.306,53.4],[95.293,53.449],[95.247,53.462],[95.054,53.383],[94.976,53.41],[94.739,53.388],[94.592,53.32],[94.588,53.288],[94.672,53.275],[94.693,53.239],[94.6,53.178],[94.598,53.049],[94.507,52.914],[94.304,52.909],[94.146,52.846],[94.134,52.763],[94.068,52.672],[93.98,52.637],[93.979,52.583],[93.761,52.443],[93.759,52.368],[93.683,52.298],[93.669,52.226],[93.358,52.134],[93.227,52.041],[93.131,52.017],[93.071,51.95],[92.899,51.899],[92.853,51.839],[92.672,51.845],[92.505,51.787],[92.209,51.811],[92.104,51.788],[91.948,51.809],[91.885,51.861],[91.63,51.872],[91.558,51.905],[91.237,51.887],[91.1,51.948],[90.852,51.915],[90.738,52.074],[90.563,52.126],[90.493,52.187],[90.349,52.197],[90.127,52.139],[90.113,52.047],[90.023,51.987],[90.096,51.756],[89.963,51.766],[89.727,51.587],[89.581,51.558],[89.421,51.61],[89.259,51.554],[89.22,51.572],[89.238,51.645],[89.206,51.664],[89.03,51.605],[88.733,51.564],[88.963,51.423],[88.939,51.231],[89.036,51.171],[89.056,51.052],[89.194,50.958],[86.997,49.29],[87.037,49.243],[87.272,49.205],[87.318,49.088],[87.116,49.13],[86.838,49.094],[86.709,48.954],[86.786,48.839],[86.739,48.784],[86.751,48.715],[86.563,48.527],[86.307,48.483],[86.192,48.418],[86.006,48.43],[85.747,48.39],[85.586,48.141],[85.518,47.945],[85.595,47.624],[85.585,47.493],[85.677,47.369],[85.679,47.274],[85.659,47.206],[85.557,47.179],[85.499,47.053],[85.226,47.042],[84.917,46.851],[84.74,46.815],[84.717,46.835],[84.752,46.918],[84.664,46.984],[84.266,47.0],[84.07,46.964],[83.905,46.974],[83.525,47.067],[83.15,47.212],[83.021,47.206],[82.986,46.943],[82.839,46.732],[82.674,46.331],[82.568,46.197],[82.477,45.875],[82.372,45.734],[82.291,45.533],[82.327,45.493],[82.631,45.416],[82.615,45.249],[82.54,45.125],[82.475,45.116],[82.245,45.232],[81.949,45.145],[81.796,45.196],[81.739,45.338],[81.665,45.348],[81.542,45.293],[80.854,45.127],[80.697,45.144],[80.445,45.104],[80.389,45.046],[80.103,45.032],[79.858,44.904],[79.843,44.873],[79.869,44.849],[79.992,44.794],[80.244,44.816],[80.493,44.726],[80.49,44.702],[80.356,44.653],[80.383,44.602],[80.33,44.453],[80.373,44.232],[80.339,44.121],[80.404,44.049],[80.713,43.459],[80.643,43.326],[80.747,43.276],[80.793,43.149],[80.732,43.101],[80.618,43.134],[80.368,43.028],[80.374,42.975],[80.542,42.917],[80.549,42.88],[80.248,42.816],[80.144,42.645],[80.267,42.24],[80.21,42.19],[80.257,42.083],[80.232,42.035],[79.843,42.002],[79.748,41.88],[79.611,41.868],[79.392,41.773],[79.282,41.783],[79.196,41.73],[79.089,41.703],[78.976,41.642],[78.916,41.633],[78.807,41.578],[78.658,41.532],[78.618,41.478],[78.36,41.378],[78.349,41.271],[78.075,41.04],[77.831,41.063],[77.651,40.997],[77.503,40.981],[77.008,41.044],[76.861,41.013],[76.767,40.945],[76.762,40.847],[76.648,40.765],[76.614,40.603],[76.449,40.416],[76.316,40.344],[76.244,40.441],[76.153,40.369],[76.052,40.39],[75.902,40.299],[75.683,40.293],[75.639,40.384],[75.667,40.45],[75.56,40.633],[75.482,40.614],[75.21,40.445],[75.005,40.447],[74.856,40.513],[74.589,40.554],[74.571,40.623],[74.36,40.703],[74.045,40.968],[74.146,41.077],[74.069,41.14],[74.206,41.202],[74.394,41.209],[74.349,41.299],[74.655,41.387],[74.752,41.612],[74.686,41.631],[74.419,41.547],[74.075,41.566],[73.946,41.619],[73.912,41.668],[73.952,41.698],[74.019,41.69],[74.061,41.615],[74.126,41.603],[74.1,41.724],[73.978,41.746],[73.972,41.847],[73.827,41.877],[73.792,41.842],[73.726,41.887],[73.801,41.958],[73.775,42.013],[73.715,42.024],[73.637,41.989],[73.384,42.02],[73.327,42.076],[73.043,42.146],[72.818,42.061],[72.628,42.152],[72.437,42.166],[72.396,42.203],[72.235,42.186],[72.185,42.101],[72.126,42.07],[71.627,42.203],[71.421,42.181],[71.275,42.204],[71.236,42.159],[70.978,42.044],[70.845,42.03],[70.814,41.92],[70.649,41.887],[70.506,41.786],[70.453,41.712],[70.148,41.552],[70.203,41.506],[70.345,41.493],[70.466,41.4],[70.397,41.306],[70.437,41.261],[70.41,41.196],[70.459,41.134],[70.46,41.022],[70.364,41.032],[70.336,40.928],[70.28,40.878],[70.01,40.758],[69.803,40.706],[69.692,40.63],[69.436,40.803],[69.33,40.755],[69.308,40.598],[69.198,40.567],[69.313,40.344],[69.302,40.294],[69.208,40.298],[69.282,40.194],[69.198,40.183],[69.019,40.232],[68.644,40.185],[68.668,40.282],[68.364,40.226],[68.109,40.236],[68.099,40.309],[68.217,40.516],[68.166,40.529],[68.17,40.591],[68.251,40.612],[68.266,40.663],[67.996,40.812],[68.081,40.873],[68.121,40.965],[68.117,41.067],[68.032,41.046],[67.937,41.2],[67.836,41.157],[67.748,41.184],[66.732,41.159],[66.688,41.2],[66.603,41.494],[66.504,41.993],[66.009,42.007],[66.014,42.402],[66.053,42.441],[66.101,42.99],[65.795,42.878],[65.517,43.297],[65.27,43.417],[64.923,43.719],[64.427,43.547],[63.208,43.627],[62.025,43.481],[61.162,44.168],[61.036,44.383],[58.531,45.559],[55.977,44.996],[55.975,41.323],[55.635,41.264],[55.45,41.279],[55.373,41.376],[55.228,41.473],[54.951,41.796],[54.907,41.932],[54.738,42.048],[54.123,42.338],[53.412,42.258],[52.979,42.127],[52.53,41.822],[52.449,41.767],[52.495,41.94],[52.436,42.146],[52.683,42.55],[52.59,42.692],[52.718,42.576],[52.737,42.733],[52.472,42.836],[52.289,42.787],[52.185,42.875],[51.906,42.833],[51.656,43.184],[51.273,43.153],[51.284,43.535],[50.872,44.025],[50.848,44.183],[50.269,44.357],[50.222,44.586],[50.27,44.546],[50.314,44.646],[50.805,44.636],[51.099,44.475],[51.362,44.551],[51.543,44.518],[51.278,44.582],[51.186,44.755],[50.983,44.867],[50.995,44.938],[51.25,45.029],[51.254,45.199],[51.362,45.305],[51.806,45.422],[52.454,45.433],[52.624,45.553],[52.708,45.485],[52.874,45.465],[52.746,45.517],[52.704,45.648],[52.871,45.629],[52.766,45.706],[52.981,45.929],[52.827,46.123],[52.917,46.144],[52.987,46.352],[53.128,46.403],[53.004,46.487],[53.011,46.58],[53.083,46.576],[52.997,46.606],[52.982,46.732],[52.895,46.718],[52.915,46.781],[52.765,46.658],[52.747,46.749],[52.617,46.799],[52.643,46.926],[52.56,46.951],[52.58,46.881],[52.403,46.79],[52.365,46.843],[52.292,46.746],[51.639,46.889],[51.53,46.831],[51.607,46.922],[51.41,46.986],[50.813,46.944],[50.719,46.854],[50.679,46.917],[50.574,46.8],[50.461,46.862],[49.93,46.574],[49.85,46.483],[49.893,46.447],[49.813,46.439],[49.843,46.368],[49.744,46.394],[49.871,46.308],[49.827,46.198],[49.679,46.37],[49.645,46.313],[49.734,46.224],[49.423,46.335],[49.59,46.244],[49.572,46.195],[49.199,46.339],[49.336,46.198],[49.325,46.139],[49.243,46.162],[49.318,46.068],[49.252,46.102],[49.193,46.0],[49.033,46.12],[49.0,45.951],[48.929,45.979],[48.846,45.829],[48.77,45.902],[48.716,45.814],[48.705,45.827],[48.705,45.828],[48.696,45.839],[48.695,45.839],[48.686,45.85],[48.673,45.88],[48.68,45.901],[48.598,45.953],[48.303,45.768],[48.223,45.753],[48.226,45.747],[48.245,45.755],[48.27,45.753],[48.279,45.749],[48.313,45.758],[48.243,45.71],[48.183,45.716],[48.189,45.722],[48.193,45.724],[48.195,45.729],[48.162,45.742],[48.142,45.739],[48.145,45.736],[48.151,45.719],[48.061,45.727],[48.007,45.632],[47.858,45.695],[47.907,45.478],[47.731,45.631],[47.769,45.519],[47.778,45.447],[47.769,45.405],[47.722,45.598],[47.666,45.647],[47.628,45.647],[47.647,45.462],[47.457,45.354],[47.429,45.124],[47.388,45.187],[47.201,44.937],[47.256,44.834],[47.178,44.718],[47.052,44.798],[46.984,44.747],[47.079,44.665],[46.835,44.63],[46.911,44.493],[46.738,44.503],[46.903,44.467],[47.114,44.222],[47.234,44.218],[47.472,43.833],[47.767,43.907],[47.513,43.491],[47.486,43.317],[47.553,43.274],[47.465,43.053],[47.698,42.871],[47.745,42.657],[47.888,42.582],[48.362,41.956],[48.65,41.805],[48.975,41.481],[49.224,41.009],[49.553,40.784],[49.552,40.634],[49.809,40.567],[50.064,40.596],[50.367,40.359],[50.353,40.293],[49.872,40.375],[49.473,40.17],[49.417,40.078],[49.483,39.997],[49.412,39.941],[49.419,39.701],[49.273,39.497],[49.396,39.38],[49.389,39.344],[49.427,39.288],[49.432,39.27],[49.426,39.257],[49.283,39.356],[49.217,39.14],[49.188,39.196],[49.104,39.138],[49.008,39.281],[48.866,39.198],[49.02,39.206],[48.831,38.828],[48.874,38.434],[48.822,38.424],[48.824,38.428],[48.822,38.44],[48.778,38.445],[48.658,38.393],[48.576,38.42],[48.415,38.618],[48.309,38.601],[48.228,38.662],[48.223,38.721],[47.994,38.849],[47.992,38.893],[48.06,38.948],[48.243,38.974],[48.301,39.017],[48.271,39.108],[48.142,39.181],[48.106,39.268],[48.155,39.319],[48.339,39.379],[47.959,39.716],[47.934,39.687],[47.823,39.68],[47.541,39.515],[47.407,39.477],[47.291,39.38],[47.102,39.308],[47.02,39.19],[46.866,39.165],[46.554,38.89],[46.378,38.925],[46.136,38.864],[45.531,38.969],[45.431,39.013],[45.435,39.053],[45.311,39.201],[45.153,39.217],[45.096,39.341],[44.956,39.436],[44.872,39.625],[44.59,39.772],[44.459,39.698],[44.458,39.643],[44.225,39.628],[43.881,39.655],[43.563,39.833],[43.4,39.783],[43.35,39.804],[43.318,39.969],[43.356,40.041],[43.665,40.11],[43.656,40.141],[43.721,40.169],[43.594,40.345],[43.625,40.42],[43.56,40.476],[43.653,40.529],[43.707,40.612],[43.721,40.763],[43.636,40.934],[43.46,41.023],[43.438,41.156],[43.383,41.187],[43.217,41.18],[43.172,41.242],[43.123,41.251],[43.184,41.299],[43.003,41.383],[42.868,41.5],[42.829,41.474],[42.767,41.504],[42.82,41.572],[42.59,41.579],[42.487,41.699],[42.486,41.802],[42.408,41.839],[42.231,41.804],[42.064,41.817],[41.906,41.902],[41.832,41.905],[41.834,41.888],[41.773,41.907],[41.475,42.686],[41.15,42.798],[41.054,42.987],[40.339,43.148],[40.24,43.319],[39.925,43.414],[38.791,44.282],[38.206,44.415],[38.065,44.577],[37.806,44.732],[37.736,44.65],[37.483,44.694],[37.254,44.978],[36.633,45.141],[36.591,45.245],[36.99,45.289],[36.802,45.305],[36.766,45.375],[36.859,45.379],[36.787,45.442],[37.374,45.318],[37.522,45.376],[37.617,45.664],[37.83,45.752],[37.973,46.035],[38.112,46.055],[38.11,45.955],[38.271,46.26],[38.262,46.153],[38.581,46.039],[38.568,46.114],[38.128,46.384],[37.924,46.402],[37.735,46.683],[38.008,46.636],[38.291,46.743],[38.333,46.664],[38.593,46.662],[38.586,46.72],[38.398,46.75],[38.448,46.851],[38.837,46.906],[39.101,47.042],[39.295,47.025],[39.198,47.284],[38.498,47.137],[38.606,47.242],[38.143,47.055],[38.064,47.112],[37.574,47.1],[37.521,47.072],[37.498,47.041],[37.477,47.031],[37.335,46.89],[37.304,46.869],[37.236,46.951],[36.981,46.86],[36.891,46.798],[36.812,46.672],[36.765,46.632],[36.752,46.644],[36.787,46.652],[36.806,46.678],[36.827,46.706],[36.718,46.78],[36.409,46.725],[36.249,46.578],[36.296,46.642],[36.196,46.67],[35.887,46.652],[35.308,46.3],[35.357,46.364],[35.2,46.381],[34.811,46.162],[34.799,46.163],[34.628,46.173],[34.604,46.029],[34.483,45.963],[34.48,46.002],[34.421,46.03],[34.526,46.129],[34.327,46.224],[34.302,46.191],[34.317,46.106],[34.261,46.186],[34.181,46.078],[34.143,46.214],[34.123,46.18],[34.156,46.12],[34.062,46.161],[34.024,46.102],[34.283,46.004],[34.357,46.036],[34.486,45.873],[34.582,45.914],[34.558,45.985],[34.644,45.943],[34.518,45.788],[34.696,45.875],[34.654,45.793],[34.781,45.793],[34.721,45.728],[34.983,45.68],[35.109,45.491],[35.015,45.413],[35.134,45.335],[35.403,45.256],[35.72,45.334],[35.845,45.473],[35.963,45.373],[36.284,45.482],[36.647,45.383],[36.461,45.341],[36.402,45.211],[36.453,45.098],[36.374,45.059],[35.841,44.999],[35.681,45.111],[35.497,45.118],[35.386,45.052],[35.384,44.947],[35.264,44.967],[35.083,44.793],[34.729,44.812],[34.457,44.71],[34.125,44.429],[33.767,44.395],[33.852,44.432],[33.837,44.463],[33.815,44.51],[33.632,44.549],[33.428,44.592],[33.602,44.61],[33.51,44.624],[33.613,44.903],[33.565,45.081],[33.403,45.196],[33.26,45.148],[33.024,45.302],[33.206,45.443],[32.652,45.315],[32.48,45.396],[33.171,45.792],[33.263,45.755],[33.613,45.889],[33.683,45.843],[33.759,45.936],[33.618,45.946],[33.599,46.155],[33.511,46.122],[33.563,46.075],[33.503,46.028],[33.283,46.134],[33.205,46.107],[33.195,46.177],[32.536,46.067],[31.898,46.311],[31.78,46.265],[31.791,46.324],[31.838,46.335],[31.899,46.333],[31.959,46.343],[32.059,46.399],[31.99,46.456],[31.762,46.488],[31.668,46.466],[31.712,46.427],[31.536,46.55],[31.512,46.581],[31.968,46.494],[32.35,46.462],[32.428,46.489],[32.405,46.496],[32.338,46.484],[32.326,46.468],[32.315,46.469],[32.291,46.576],[32.142,46.558],[31.982,46.658],[31.923,46.788],[32.026,46.919],[32.012,46.947],[31.939,46.936],[31.979,46.987],[31.958,46.999],[31.903,46.945],[31.996,46.907],[31.877,46.801],[31.878,46.634],[31.423,46.626],[31.489,46.635],[31.458,46.638],[31.534,46.704],[31.6,46.806],[31.589,46.836],[31.504,46.727],[31.426,46.802],[31.486,46.695],[31.41,46.619],[31.031,46.601],[31.003,46.66],[31.008,46.596],[30.748,46.542],[30.752,46.376],[30.68,46.32],[30.639,46.385],[30.672,46.304],[30.481,46.081],[29.605,45.484],[29.778,45.468],[29.755,45.219],[29.69,45.2],[29.671,45.268],[29.651,45.34],[29.551,45.409],[29.43,45.443],[29.238,45.433],[28.966,45.331],[28.942,45.281],[28.796,45.335],[28.802,45.302],[28.752,45.284],[28.791,45.244],[28.712,45.224],[28.349,45.321],[28.281,45.444],[28.219,45.467],[28.252,45.512],[28.195,45.466],[28.141,45.56],[28.069,45.594],[28.168,45.632],[28.083,46.015],[28.145,46.183],[28.113,46.232],[28.178,46.287],[28.246,46.428],[28.219,46.505],[28.247,46.621],[28.123,46.833],[28.083,46.972],[28.028,47.033],[27.942,47.046],[27.806,47.146],[27.733,47.276],[27.637,47.307],[27.574,47.375],[27.576,47.46],[27.474,47.492],[27.428,47.581],[27.304,47.667],[27.288,47.752],[27.232,47.81],[27.258,47.831],[27.173,47.921],[27.173,47.986],[27.061,48.063],[27.052,48.126],[26.989,48.143],[27.001,48.171],[26.734,48.276],[26.626,48.267],[26.533,48.217],[26.466,48.351],[26.263,48.37],[26.228,48.341],[26.229,48.388],[26.113,48.473],[26.136,48.554],[26.167,48.524],[26.267,48.534],[26.303,48.504],[26.382,48.522],[26.375,48.577],[26.314,48.608],[26.32,48.646],[26.244,48.683],[26.236,48.781],[26.269,48.809],[26.223,48.84],[26.228,48.899],[26.2,48.91],[26.226,49.0],[26.207,49.04],[26.236,49.075],[26.204,49.184],[26.263,49.29],[26.234,49.399],[26.155,49.516],[26.258,49.652],[26.211,49.7],[26.238,49.78],[26.193,49.824],[26.157,49.958],[26.235,49.991],[26.222,50.081],[26.278,50.107],[26.231,50.142],[26.224,50.266],[25.946,50.269],[25.806,50.184],[25.565,50.146],[25.452,50.167],[25.457,50.102],[25.36,50.022],[25.198,50.107],[25.175,50.216],[25.212,50.249],[25.198,50.292],[25.077,50.289],[25.056,50.349],[24.933,50.375],[24.718,50.35],[24.559,50.443],[24.515,50.414],[24.468,50.466],[24.54,50.498],[24.503,50.55],[24.435,50.555],[24.359,50.615],[24.252,50.584],[24.153,50.649],[24.081,50.607],[24.099,50.538],[24.007,50.497],[23.979,50.411],[23.929,50.396],[23.712,50.387],[23.653,50.334],[23.464,50.426],[23.331,50.428],[23.157,50.328],[22.859,50.322],[22.732,50.346],[22.766,50.366],[22.74,50.382],[22.489,50.378],[22.412,50.633],[22.225,50.664],[22.24,50.727],[21.898,50.812],[21.844,50.781],[21.804,50.697],[21.742,50.679],[21.593,50.529],[21.433,50.491],[21.428,50.458],[21.248,50.402],[21.179,50.342],[21.119,50.353],[20.824,50.281],[20.782,50.302],[20.631,50.179],[20.457,50.198],[20.269,50.109],[20.18,50.147],[19.311,50.273],[18.773,50.186],[18.65,50.648],[18.145,50.991],[18.124,51.601],[18.081,51.648],[18.116,51.691],[17.987,51.739],[17.99,51.778],[17.951,51.799],[18.016,51.8],[18.012,51.846],[17.783,52.031],[17.703,52.05],[17.645,52.167],[17.82,52.258],[17.846,52.315],[17.881,52.307],[17.9,52.374],[17.944,52.376],[17.944,52.421],[18.133,52.506],[18.26,52.481],[18.352,52.543],[18.468,52.536],[18.47,52.686],[18.5,52.692],[18.505,52.746],[18.604,52.754],[18.575,52.822],[18.597,52.862],[18.761,52.932],[18.786,53.016],[18.763,53.031],[18.807,53.066],[18.96,53.063],[18.993,53.131],[19.195,53.154],[19.319,53.217],[19.494,53.164],[19.545,53.177],[19.557,53.223],[19.69,53.126],[19.841,53.141],[19.831,53.178],[19.922,53.226],[20.307,53.154],[20.376,53.177],[20.538,53.348],[20.94,53.291],[21.433,53.463],[21.781,53.481],[22.154,53.599],[22.543,53.774],[22.622,53.925],[22.466,54.041],[22.449,54.099],[22.352,54.18],[22.443,54.257],[22.531,54.264],[22.527,54.233],[22.544,54.269],[22.709,54.296],[22.662,54.571],[22.724,54.733],[22.824,54.787],[22.796,54.894],[22.633,54.949],[22.51,55.039],[22.591,55.066],[22.615,55.09],[22.595,55.117],[22.195,55.158],[22.216,55.217],[21.881,55.283],[21.849,55.328],[21.726,55.297],[21.672,55.36],[21.614,55.376],[21.607,55.43],[21.52,55.505],[21.501,55.583],[21.294,55.856],[21.113,55.893],[21.052,55.905],[20.968,56.528],[21.057,56.834],[21.382,57.014],[21.419,57.29],[21.692,57.56],[22.488,57.739],[22.596,57.756],[22.62,57.598],[23.128,57.36],[23.238,57.107],[23.56,56.977],[23.928,57.007],[24.384,57.231],[24.334,57.83],[24.479,58.067],[24.476,58.247],[24.584,58.317],[24.314,58.382],[24.271,58.277],[24.119,58.228],[24.011,58.32],[23.839,58.359],[23.746,58.341],[23.685,58.526],[23.521,58.565],[23.489,58.689],[23.805,58.745],[23.727,58.788],[23.462,58.772],[23.536,58.814],[23.425,58.943],[23.53,58.939],[23.662,58.976],[23.404,59.026],[23.45,59.029],[23.437,59.077],[23.542,59.09],[23.524,59.132],[23.492,59.21],[24.084,59.269],[24.039,59.386],[24.241,59.344],[24.212,59.394],[24.368,59.474],[24.79,59.443],[24.796,59.572],[24.969,59.489],[25.441,59.492],[25.555,59.541],[25.494,59.604],[25.507,59.644],[25.67,59.564],[25.7,59.667],[25.814,59.564],[26.059,59.629],[26.949,59.437],[27.914,59.402],[28.074,59.513],[28.093,59.598],[28.0,59.69],[28.101,59.79],[28.369,59.664],[28.473,59.828],[28.845,59.782],[29.057,59.86],[28.988,59.914],[29.132,59.983],[30.026,59.861],[30.176,59.87],[30.168,59.886],[30.222,59.906],[30.235,59.928],[29.962,60.01],[29.921,60.147],[29.038,60.177],[28.805,60.357],[28.617,60.352],[28.437,60.547],[28.672,60.429],[28.714,60.439],[28.642,60.656],[28.746,60.664],[28.766,60.721],[28.708,60.776],[28.617,60.705],[28.658,60.686],[28.622,60.667],[28.584,60.693],[28.298,60.623],[28.345,60.596],[28.232,60.511],[27.86,60.552],[27.817,60.508],[27.791,60.519],[27.818,60.525],[27.771,60.578],[27.747,60.581],[27.697,60.517],[27.741,60.485],[27.468,60.513],[27.477,60.461],[27.365,60.514],[27.229,60.532],[27.197,60.515],[27.228,60.55],[27.192,60.586],[27.161,60.518],[27.008,60.555],[26.928,60.467],[26.886,60.487],[26.792,60.456],[26.78,60.493],[26.672,60.427],[26.621,60.461],[26.563,60.459],[26.569,60.428],[26.455,60.486],[26.336,60.371],[26.237,60.458],[26.265,60.389],[26.241,60.401],[26.22,60.397],[26.168,60.425],[26.198,60.363],[26.166,60.399],[26.051,60.424],[25.979,60.479],[25.919,60.49],[25.97,60.476],[25.968,60.47],[25.958,60.445],[26.04,60.417],[25.993,60.402],[26.12,60.325],[25.844,60.412],[25.913,60.25],[25.887,60.244],[25.862,60.289],[25.743,60.324],[25.785,60.282],[25.848,60.267],[25.669,60.277],[25.628,60.328],[25.719,60.334],[25.689,60.379],[25.662,60.371],[25.514,60.328],[25.48,60.257],[25.328,60.285],[25.346,60.258],[25.241,60.261],[25.204,60.255],[25.191,60.248],[25.209,60.233],[25.155,60.234],[25.173,60.197],[24.981,60.216],[24.951,60.156],[24.845,60.21],[24.838,60.167],[24.685,60.14],[24.678,60.116],[24.575,60.178],[24.626,60.136],[24.566,60.101],[24.619,60.121],[24.647,60.109],[24.584,60.095],[24.602,60.091],[24.651,60.106],[24.626,60.085],[24.621,60.086],[24.508,60.02],[24.507,59.997],[24.494,60.0],[24.456,60.009],[24.461,59.986],[24.425,59.988],[24.42,59.98],[24.413,59.983],[24.403,59.973],[24.395,59.966],[24.42,59.998],[24.477,60.07],[24.453,60.044],[24.416,60.034],[24.403,60.018],[24.334,60.095],[23.651,59.974],[23.72,59.939],[23.424,59.963],[23.553,60.097],[23.514,60.085],[23.488,60.051],[23.463,60.05],[23.378,59.941],[23.223,59.891],[23.188,59.828],[22.961,59.818],[23.207,59.911],[23.144,59.928],[23.229,59.962],[23.097,59.956],[23.232,60.036],[23.113,60.008],[23.265,60.063],[23.198,60.075],[23.129,60.067],[23.101,60.055],[23.1,60.041],[23.039,60.069],[23.008,60.063],[23.064,60.13],[22.869,60.164],[22.872,60.2],[23.009,60.289],[23.09,60.366],[23.08,60.374],[22.521,60.214],[22.615,60.248],[22.563,60.268],[22.616,60.289],[22.472,60.283],[22.646,60.405],[22.479,60.388],[22.52,60.423],[22.293,60.384],[22.219,60.444],[22.125,60.448],[22.122,60.473],[22.017,60.463],[21.969,60.538],[21.897,60.553],[21.864,60.544],[21.89,60.482],[21.739,60.495],[21.705,60.46],[21.752,60.554],[21.8,60.504],[21.847,60.635],[21.73,60.591],[21.698,60.616],[21.653,60.644],[21.607,60.654],[21.579,60.679],[21.588,60.642],[21.713,60.597],[21.587,60.491],[21.609,60.524],[21.544,60.594],[21.337,60.688],[21.473,60.706],[21.394,60.823],[21.274,60.841],[21.235,60.812],[21.174,60.882],[21.194,60.894],[21.24,60.882],[21.256,60.892],[21.23,60.924],[21.32,60.904],[21.24,60.982],[21.288,61.004],[21.439,60.912],[21.375,61.025],[21.296,61.084],[21.429,61.047],[21.425,61.074],[21.371,61.091],[21.492,61.073],[21.493,61.142],[21.404,61.213],[21.536,61.186],[21.612,61.23],[21.477,61.276],[21.537,61.281],[21.492,61.306],[21.579,61.335],[21.538,61.401],[21.447,61.43],[21.6,61.445],[21.45,61.509],[21.634,61.514],[21.537,61.532],[21.496,61.589],[21.464,61.589],[21.461,61.599],[21.521,61.609],[21.572,61.574],[21.648,61.572],[21.674,61.571],[21.636,61.619],[21.506,61.724],[21.603,61.72],[21.5,61.782],[21.548,61.814],[21.419,61.953],[21.294,61.995],[21.322,62.067],[21.315,62.148],[21.305,62.143],[21.431,62.22],[21.308,62.256],[21.34,62.261],[21.359,62.311],[21.32,62.296],[21.306,62.322],[21.366,62.371],[21.243,62.447],[21.176,62.419],[21.208,62.495],[21.128,62.479],[21.223,62.607],[21.134,62.644],[21.087,62.608],[21.107,62.682],[21.082,62.683],[21.17,62.72],[21.121,62.799],[21.211,62.805],[21.253,62.841],[21.248,62.892],[21.392,62.877],[21.495,62.966],[21.502,63.029],[21.467,63.056],[21.685,63.054],[21.517,63.178],[21.54,63.267],[21.67,63.21],[21.983,63.265],[21.941,63.184],[21.942,63.184],[22.002,63.158],[22.024,63.254],[22.085,63.216],[22.369,63.292],[22.385,63.346],[22.203,63.474],[22.403,63.438],[22.296,63.507],[22.323,63.582],[22.36,63.509],[22.447,63.475],[22.519,63.596],[22.428,63.604],[22.615,63.724],[22.686,63.681],[22.754,63.717],[22.672,63.759],[22.76,63.796],[22.699,63.841],[22.826,63.844],[22.778,63.859],[22.788,63.861],[22.793,63.859],[22.816,63.849],[22.837,63.855],[22.869,63.829],[22.903,63.836],[22.837,63.906],[22.852,63.892],[22.939,63.892],[22.941,63.844],[23.025,63.822],[23.029,63.879],[23.1,63.856],[23.133,63.87],[23.071,63.917],[23.371,63.912],[23.397,64.083],[23.56,64.042],[23.618,64.046],[23.634,64.072],[23.581,64.118],[23.643,64.117],[23.72,64.186],[23.685,64.22],[23.931,64.265],[24.03,64.415],[24.371,64.545],[24.39,64.659],[24.569,64.734],[24.545,64.819],[25.098,64.922],[25.309,64.83],[25.394,64.895],[25.199,65.008],[25.487,64.96],[25.38,64.997],[25.418,64.997],[25.473,65.023],[25.385,65.097],[25.364,65.103],[25.231,65.145],[25.352,65.23],[25.293,65.314],[25.244,65.318],[25.299,65.323],[25.334,65.36],[25.258,65.391],[25.365,65.426],[25.325,65.486],[25.18,65.588],[25.114,65.55],[25.051,65.62],[24.874,65.668],[24.66,65.639],[24.643,65.706],[24.464,65.749],[24.443,65.773],[24.313,65.805],[24.186,65.789],[24.193,65.757],[24.159,65.75],[24.141,65.771],[24.164,65.783],[24.169,65.785],[24.162,65.799],[24.175,65.797],[24.163,65.841],[24.14,65.875],[24.129,65.875],[24.055,65.948],[24.02,66.049],[23.911,66.149],[23.75,66.19],[23.689,66.257],[23.652,66.458],[23.882,66.564],[23.882,66.631],[23.882,66.632],[23.882,66.633],[23.903,66.686],[23.892,66.751],[24.004,66.805],[23.581,67.155]],[[26.871,48.425],[26.704,48.405],[26.782,48.344],[26.843,48.388],[26.942,48.346],[27.038,48.359],[27.029,48.388],[26.923,48.374],[26.871,48.425]]],[[[21.909,58.307],[21.861,58.353],[21.946,58.307],[22.023,58.366],[21.903,58.469],[21.889,58.475],[21.877,58.474],[21.867,58.467],[21.834,58.482],[21.838,58.502],[22.009,58.506],[22.109,58.418],[22.203,58.546],[22.293,58.487],[22.287,58.57],[22.539,58.642],[22.751,58.574],[22.946,58.617],[23.329,58.453],[23.158,58.478],[23.065,58.421],[23.072,58.41],[23.089,58.379],[22.954,58.384],[22.926,58.302],[22.704,58.275],[22.723,58.211],[22.621,58.255],[22.309,58.208],[22.197,57.978],[22.052,57.905],[21.982,57.947],[22.225,58.139],[21.999,58.25],[21.831,58.28],[21.909,58.307]]],[[[156.152,50.502],[155.795,50.191],[155.523,50.145],[155.39,50.0],[155.221,50.051],[155.209,50.291],[155.648,50.377],[156.038,50.768],[156.156,50.741],[156.152,50.502]]],[[[175.232,62.039],[175.243,62.091],[175.258,62.161],[175.293,62.117],[175.332,62.134],[175.382,62.116],[175.307,62.07],[175.635,62.186],[176.281,62.312],[176.594,62.491],[176.619,62.497],[176.663,62.53],[176.715,62.535],[176.678,62.514],[176.68,62.513],[176.795,62.542],[177.269,62.585],[177.051,62.589],[177.05,62.59],[176.933,62.675],[177.047,62.767],[177.007,62.795],[176.993,62.864],[177.145,62.792],[177.124,62.743],[177.189,62.705],[177.269,62.708],[177.258,62.732],[177.334,62.802],[177.448,62.814],[177.423,62.775],[177.316,62.749],[177.329,62.69],[177.261,62.616],[177.279,62.608],[177.307,62.609],[177.305,62.577],[177.68,62.57],[178.075,62.532],[176.868,62.499],[176.279,62.292],[175.542,62.146],[174.721,61.854],[174.506,61.809],[174.46,61.81],[174.731,61.883],[174.694,61.912],[174.612,61.977],[174.755,61.957],[174.74,61.951],[174.718,61.937],[174.715,61.934],[174.766,61.912],[175.232,62.039]]],[[[150.217,46.188],[150.571,46.228],[149.668,45.625],[149.397,45.577],[149.642,45.831],[150.183,46.104],[150.217,46.188]]],[[[22.883,58.79],[22.83,58.783],[22.823,58.765],[22.787,58.755],[22.563,58.687],[22.466,58.716],[22.398,58.889],[22.039,58.927],[22.396,58.937],[22.658,59.087],[22.707,59.009],[22.942,58.982],[22.941,58.942],[23.069,58.837],[22.961,58.849],[22.769,58.819],[22.755,58.813],[22.751,58.8],[22.766,58.803],[22.784,58.79],[22.889,58.82],[22.883,58.79]]],[[[22.753,60.064],[22.761,60.007],[22.67,60.05],[22.575,60.021],[22.615,60.052],[22.611,60.061],[22.388,60.004],[22.363,60.06],[22.61,60.152],[22.495,60.156],[22.414,60.159],[22.46,60.209],[22.54,60.203],[22.846,60.237],[22.983,60.303],[22.832,60.211],[22.881,60.136],[22.753,60.064]]],[[[68.813,40.039],[68.775,40.08],[68.881,39.878],[68.838,39.865],[68.759,39.981],[68.788,39.896],[68.748,39.826],[68.685,39.868],[68.64,39.848],[68.653,39.895],[68.62,39.919],[68.652,39.916],[68.658,39.954],[68.634,40.036],[68.697,40.112],[68.931,40.147],[68.977,40.121],[68.977,40.065],[68.882,40.071],[68.813,40.039]]],[[[156.199,50.768],[156.484,50.87],[156.514,50.765],[156.414,50.637],[156.185,50.681],[156.199,50.768]]],[[[35.762,65.172],[35.84,65.138],[35.825,65.096],[35.84,65.049],[35.85,65.041],[35.864,65.039],[35.856,65.037],[35.814,65.052],[35.812,65.088],[35.792,65.096],[35.743,65.039],[35.899,65.028],[36.024,65.04],[35.751,64.955],[35.502,65.105],[35.762,65.172]]],[[[154.824,49.295],[154.624,49.279],[154.815,49.632],[154.916,49.611],[154.811,49.463],[154.824,49.295]]],[[[24.789,65.046],[24.876,64.966],[24.639,64.964],[24.547,65.04],[24.833,65.098],[25.088,65.038],[24.789,65.046]]],[[[151.735,46.793],[151.716,46.852],[151.86,46.853],[152.241,47.162],[152.198,47.126],[152.276,47.115],[152.028,46.9],[151.735,46.793]]],[[[21.36,63.212],[21.308,63.156],[21.224,63.196],[21.163,63.185],[21.126,63.273],[21.084,63.308],[21.11,63.293],[21.199,63.28],[21.25,63.321],[21.276,63.309],[21.196,63.256],[21.202,63.246],[21.256,63.234],[21.27,63.252],[21.325,63.238],[21.27,63.257],[21.389,63.282],[21.463,63.207],[21.406,63.207],[21.418,63.189],[21.412,63.186],[21.413,63.188],[21.41,63.187],[21.409,63.189],[21.414,63.191],[21.407,63.197],[21.381,63.194],[21.386,63.185],[21.36,63.212]]],[[[23.191,58.684],[23.353,58.646],[23.406,58.551],[23.067,58.62],[23.191,58.684]]],[[[22.815,59.982],[22.813,60.017],[22.979,59.971],[23.031,59.988],[22.994,60.041],[23.113,60.008],[23.038,59.99],[23.027,59.91],[22.978,59.953],[22.888,59.916],[22.815,59.982]]],[[[155.455,50.885],[155.652,50.903],[155.667,50.841],[155.523,50.81],[155.455,50.885]]],[[[125.883,73.651],[125.756,73.521],[125.89,73.51],[125.792,73.49],[125.667,73.561],[125.883,73.651]]],[[[128.538,72.851],[128.573,72.878],[128.77,72.878],[128.51,72.811],[128.327,72.829],[128.538,72.851]]],[[[131.903,42.995],[131.843,43.058],[131.903,43.061],[131.907,42.958],[131.745,42.987],[131.805,43.062],[131.903,42.995]]]]}}]}