{"type":"FeatureCollection","features":[{"type":"Feature","properties":{"lite":true,"src":"data/years/1877-11-28.geojson"},"geometry":{"type":"MultiPolygon","coordinates":[[[[23.585,56.979],[23.695,56.967],[23.953,57.013],[24.34,57.206],[24.358,57.302],[24.309,57.543],[24.323,57.617],[24.25,57.744],[24.415,58.034],[24.468,58.229],[24.422,58.262],[24.483,58.316],[24.349,58.342],[24.213,58.223],[24.117,58.191],[23.96,58.272],[23.725,58.295],[23.675,58.369],[23.679,58.524],[23.583,58.545],[23.561,58.583],[23.504,58.561],[23.443,58.668],[23.453,58.719],[23.384,58.743],[23.432,58.858],[23.338,58.972],[23.36,58.978],[23.162,58.969],[23.115,59.023],[23.343,59.039],[23.388,58.986],[23.441,59.001],[23.408,59.026],[23.436,59.026],[23.423,59.106],[23.515,59.131],[23.471,59.212],[23.642,59.257],[23.73,59.23],[23.729,59.27],[23.759,59.284],[24.037,59.293],[24.081,59.271],[24.1,59.295],[24.023,59.365],[24.037,59.389],[24.222,59.355],[24.163,59.402],[24.306,59.419],[24.338,59.471],[24.643,59.436],[24.622,59.471],[24.678,59.495],[24.773,59.45],[24.816,59.489],[24.774,59.554],[24.801,59.57],[24.934,59.508],[25.098,59.498],[25.145,59.539],[25.409,59.491],[25.417,59.527],[25.544,59.535],[25.496,59.574],[25.485,59.666],[25.677,59.566],[25.719,59.588],[25.671,59.656],[25.697,59.671],[25.781,59.636],[25.826,59.575],[25.883,59.628],[25.945,59.595],[25.991,59.634],[26.082,59.587],[26.281,59.587],[26.498,59.54],[26.666,59.552],[26.938,59.45],[27.41,59.452],[27.873,59.408],[28.006,59.469],[27.98,59.511],[28.019,59.576],[27.961,59.65],[28.019,59.656],[28.006,59.754],[28.087,59.799],[28.184,59.759],[28.224,59.691],[28.322,59.671],[28.419,59.721],[28.427,59.812],[28.498,59.86],[28.718,59.787],[28.833,59.787],[29.029,59.88],[28.98,59.93],[29.163,60.003],[29.805,59.94],[30.053,59.882],[29.993,59.944],[30.154,59.919],[30.158,59.954],[29.968,59.97],[29.861,60.054],[29.842,60.115],[29.695,60.151],[29.089,60.128],[28.992,60.152],[28.8,60.293],[28.697,60.211],[28.509,60.262],[28.432,60.357],[28.482,60.412],[28.533,60.397],[28.497,60.438],[28.522,60.484],[28.439,60.56],[28.506,60.56],[28.54,60.513],[28.509,60.627],[27.46,60.413],[27.06,60.482],[26.98,60.4],[26.781,60.409],[26.597,60.358],[26.514,60.397],[26.532,60.439],[26.499,60.455],[26.437,60.347],[26.337,60.326],[26.184,60.36],[26.13,60.273],[26.047,60.25],[25.95,60.306],[25.979,60.246],[25.89,60.236],[25.843,60.146],[25.643,60.228],[25.612,60.213],[25.622,60.238],[25.573,60.256],[25.508,60.196],[25.253,60.196],[25.217,60.145],[25.036,60.098],[24.721,60.088],[24.456,59.943],[24.303,59.948],[24.22,59.992],[23.989,59.965],[23.859,59.899],[23.404,59.913],[23.299,59.863],[23.294,59.822],[22.904,59.811],[22.931,59.843],[23.089,59.877],[23.022,59.912],[23.054,59.92],[23.064,59.99],[22.962,60.027],[22.931,59.997],[22.898,60.036],[22.859,60.014],[22.903,60.082],[22.845,60.086],[22.94,60.128],[22.878,60.149],[22.893,60.206],[22.84,60.201],[22.819,60.163],[22.844,60.11],[22.73,60.047],[22.758,60.032],[22.73,60.006],[22.682,59.999],[22.655,60.032],[22.6,59.985],[22.576,60.014],[22.593,60.046],[22.47,59.998],[22.474,60.091],[22.422,60.115],[22.6,60.142],[22.392,60.121],[22.421,60.293],[22.216,60.253],[22.084,60.27],[22.1,60.31],[21.994,60.354],[21.964,60.348],[21.989,60.331],[21.907,60.33],[21.797,60.373],[21.749,60.434],[21.725,60.42],[21.558,60.492],[21.578,60.502],[21.521,60.573],[21.411,60.58],[21.415,60.608],[21.47,60.608],[21.353,60.69],[21.439,60.68],[21.441,60.734],[21.327,60.859],[21.428,60.876],[21.353,60.903],[21.428,60.903],[21.305,61.052],[21.445,61.057],[21.463,61.101],[21.435,61.143],[21.47,61.15],[21.443,61.17],[21.498,61.183],[21.521,61.379],[21.449,61.403],[21.532,61.409],[21.544,61.441],[21.422,61.485],[21.561,61.485],[21.465,61.556],[21.5,61.57],[21.432,61.667],[21.471,61.689],[21.344,61.888],[21.237,61.923],[21.289,62.122],[21.312,62.109],[21.346,62.178],[21.342,62.257],[21.319,62.251],[21.335,62.345],[21.271,62.351],[21.255,62.399],[21.197,62.338],[21.202,62.418],[21.134,62.404],[21.149,62.448],[21.064,62.472],[21.081,62.535],[21.05,62.554],[21.081,62.676],[21.161,62.722],[21.113,62.78],[21.183,62.782],[21.242,62.869],[21.357,62.859],[21.463,62.951],[21.441,63.035],[21.514,63.067],[21.497,63.121],[21.514,63.166],[21.552,63.171],[21.5,63.196],[21.525,63.226],[21.743,63.2],[21.764,63.206],[21.703,63.226],[21.895,63.26],[21.881,63.178],[21.984,63.143],[21.956,63.185],[22.027,63.24],[22.175,63.233],[22.277,63.298],[22.33,63.284],[22.374,63.321],[22.215,63.416],[22.193,63.459],[22.245,63.47],[22.401,63.418],[22.273,63.516],[22.332,63.523],[22.395,63.452],[22.436,63.473],[22.477,63.603],[22.569,63.723],[22.637,63.683],[22.676,63.701],[22.734,63.628],[22.774,63.628],[22.902,63.705],[22.833,63.726],[22.926,63.743],[22.905,63.794],[23.001,63.764],[22.992,63.815],[23.063,63.852],[23.294,63.892],[23.374,63.945],[23.383,64.048],[23.515,64.039],[23.583,64.083],[23.574,64.106],[23.615,64.103],[23.724,64.178],[23.734,64.214],[23.819,64.221],[23.926,64.28],[24.007,64.39],[24.204,64.452],[24.358,64.559],[24.422,64.675],[24.53,64.718],[24.588,64.781],[24.56,64.806],[24.668,64.789],[24.672,64.829],[24.771,64.866],[25.094,64.918],[25.259,64.836],[25.225,64.823],[25.33,64.826],[25.346,64.911],[25.191,64.967],[25.311,64.984],[25.213,65.04],[25.338,65.031],[25.328,65.053],[25.19,65.078],[25.161,65.125],[25.23,65.214],[25.259,65.315],[25.228,65.348],[25.245,65.423],[25.303,65.459],[25.05,65.566],[24.852,65.61],[24.669,65.584],[24.503,65.745],[24.403,65.719],[24.194,65.787],[24.042,65.793],[24.14,65.805],[24.163,65.841],[24.056,65.947],[24.02,66.049],[23.911,66.149],[23.75,66.19],[23.69,66.256],[23.652,66.457],[23.882,66.564],[23.893,66.75],[24.004,66.805],[23.578,67.161],[23.615,67.214],[23.603,67.26],[23.735,67.29],[23.786,67.337],[23.752,67.349],[23.765,67.42],[23.477,67.444],[23.433,67.482],[23.479,67.557],[23.554,67.587],[23.485,67.736],[23.481,67.864],[23.636,67.913],[23.662,67.95],[23.384,68.051],[23.307,68.146],[23.165,68.123],[23.155,68.217],[23.067,68.29],[22.808,68.395],[22.303,68.476],[22.071,68.477],[21.919,68.568],[21.739,68.588],[21.717,68.619],[21.464,68.687],[21.406,68.749],[21.306,68.756],[21.072,68.869],[20.906,68.895],[20.888,68.925],[20.934,68.949],[20.911,68.981],[20.632,69.041],[20.745,69.104],[21.072,69.037],[21.156,69.088],[21.037,69.179],[21.099,69.24],[21.313,69.291],[21.64,69.271],[22.023,69.012],[22.368,68.824],[22.409,68.713],[22.57,68.727],[22.852,68.676],[23.07,68.681],[23.198,68.618],[23.735,68.715],[23.79,68.8],[23.93,68.816],[24.332,68.709],[24.664,68.666],[24.905,68.557],[24.956,68.606],[25.133,68.648],[25.15,68.766],[25.202,68.813],[25.434,68.884],[25.628,68.874],[25.796,68.993],[25.75,69.06],[25.771,69.135],[25.74,69.224],[25.786,69.312],[25.877,69.371],[25.844,69.418],[25.887,69.455],[25.891,69.524],[26.004,69.587],[25.963,69.65],[26.007,69.69],[26.198,69.715],[26.529,69.924],[26.865,69.938],[27.1,69.902],[27.312,69.929],[27.352,69.949],[27.336,69.969],[27.563,70.024],[27.612,70.062],[27.867,70.075],[28.167,69.894],[28.377,69.856],[28.404,69.802],[29.132,69.673],[29.34,69.468],[29.23,69.377],[28.852,69.204],[28.828,69.091],[28.943,69.026],[28.74,68.95],[28.718,68.866],[28.797,68.831],[28.697,68.696],[29.008,68.832],[29.461,69.134],[29.925,69.355],[30.14,69.389],[30.062,69.416],[30.232,69.558],[30.22,69.6],[30.139,69.637],[30.295,69.62],[30.512,69.536],[30.853,69.527],[30.931,69.595],[30.928,69.672],[30.845,69.767],[30.846,69.804],[31.285,69.76],[31.406,69.716],[31.387,69.677],[31.717,69.761],[31.711,69.827],[31.752,69.854],[31.918,69.827],[32.006,69.859],[31.915,69.933],[31.985,69.97],[32.267,69.876],[32.395,69.874],[32.501,69.778],[32.663,69.719],[33.117,69.668],[33.037,69.618],[32.872,69.583],[32.437,69.65],[32.183,69.654],[32.273,69.576],[32.413,69.581],[32.429,69.562],[32.392,69.537],[32.502,69.517],[32.406,69.494],[32.44,69.481],[32.54,69.508],[32.899,69.482],[32.77,69.414],[32.892,69.462],[33.085,69.476],[32.921,69.395],[32.977,69.39],[33.316,69.451],[33.524,69.428],[33.414,69.373],[33.496,69.38],[33.466,69.358],[33.287,69.293],[33.476,69.27],[33.297,69.229],[33.544,69.209],[33.31,69.117],[33.313,69.095],[33.564,69.185],[33.564,69.291],[33.592,69.319],[33.722,69.336],[33.722,69.304],[33.873,69.311],[33.852,69.339],[34.421,69.311],[34.662,69.249],[34.982,69.229],[34.973,69.193],[35.088,69.226],[35.169,69.181],[35.264,69.215],[35.147,69.27],[35.183,69.28],[35.875,69.195],[36.055,69.128],[36.25,69.111],[36.312,69.058],[36.518,69.03],[37.207,68.846],[37.243,68.809],[37.454,68.745],[37.683,68.713],[37.948,68.6],[38.066,68.51],[38.327,68.443],[38.389,68.399],[38.389,68.343],[38.447,68.357],[38.765,68.291],[38.511,68.369],[38.64,68.385],[38.928,68.311],[38.954,68.266],[39.521,68.076],[39.86,68.047],[39.72,68.167],[39.792,68.165],[39.912,68.122],[40.004,68.02],[40.408,67.876],[40.402,67.853],[40.322,67.851],[40.405,67.79],[40.525,67.753],[40.571,67.808],[40.653,67.815],[40.8,67.728],[40.967,67.725],[41.042,67.675],[41.051,67.619],[40.989,67.564],[41.013,67.533],[40.999,67.467],[41.148,67.424],[41.109,67.254],[41.243,67.213],[41.339,67.224],[41.361,67.202],[41.336,67.16],[41.389,67.123],[41.343,67.087],[41.352,67.005],[41.267,66.988],[41.305,66.958],[41.271,66.903],[40.92,66.621],[40.396,66.344],[40.1,66.241],[39.355,66.086],[38.561,66.005],[37.652,66.073],[37.263,66.181],[36.885,66.235],[36.402,66.245],[35.553,66.337],[35.363,66.371],[34.805,66.563],[34.667,66.519],[34.479,66.538],[34.307,66.619],[33.792,66.666],[33.676,66.747],[33.652,66.705],[33.585,66.687],[33.438,66.702],[33.335,66.78],[33.099,66.858],[32.627,67.083],[32.496,67.084],[32.582,67.038],[32.506,67.029],[32.554,66.99],[32.53,66.956],[32.392,66.954],[32.496,66.933],[32.432,66.886],[32.545,66.883],[32.705,66.796],[32.889,66.782],[32.935,66.742],[32.77,66.742],[32.974,66.691],[33.184,66.692],[33.321,66.645],[33.121,66.65],[33.067,66.598],[32.912,66.601],[33.126,66.563],[33.037,66.548],[33.106,66.51],[33.229,66.533],[33.355,66.48],[33.508,66.464],[33.603,66.501],[33.629,66.475],[33.585,66.46],[33.735,66.426],[33.516,66.406],[33.675,66.357],[33.409,66.346],[33.465,66.315],[33.615,66.328],[33.87,66.267],[33.9,66.229],[34.104,66.247],[34.167,66.221],[34.161,66.185],[34.552,66.093],[34.72,65.989],[34.661,65.953],[34.716,65.933],[34.695,65.909],[34.853,65.899],[34.825,65.843],[34.898,65.825],[34.871,65.774],[34.969,65.728],[34.9,65.706],[34.726,65.79],[34.726,65.721],[34.754,65.709],[34.726,65.67],[34.773,65.6],[34.737,65.583],[34.737,65.542],[34.633,65.487],[34.68,65.454],[34.511,65.456],[34.511,65.412],[34.369,65.418],[34.393,65.398],[34.301,65.387],[34.461,65.365],[34.48,65.281],[34.64,65.241],[34.606,65.227],[34.681,65.2],[34.627,65.172],[34.671,65.152],[34.663,65.127],[34.765,65.107],[34.754,65.055],[34.816,65.043],[34.702,64.98],[34.778,64.966],[34.942,64.858],[34.871,64.802],[34.757,64.774],[34.977,64.769],[35.009,64.743],[34.832,64.698],[34.975,64.614],[34.798,64.547],[35.009,64.494],[34.956,64.452],[35.014,64.423],[35.309,64.371],[35.349,64.296],[35.589,64.322],[35.618,64.341],[35.581,64.411],[35.812,64.342],[35.972,64.203],[36.061,64.217],[36.226,64.137],[36.21,64.103],[36.28,64.049],[36.265,64.024],[36.516,63.97],[36.518,63.87],[36.985,63.842],[37.411,63.75],[37.591,63.807],[37.945,63.85],[38.054,63.986],[38.054,64.129],[37.88,64.308],[37.764,64.339],[37.747,64.39],[37.597,64.328],[37.26,64.314],[37.044,64.391],[36.574,64.76],[36.888,65.068],[37.103,65.068],[37.604,64.853],[39.193,64.511],[39.622,64.476],[39.997,64.541],[40.322,64.463],[40.44,64.563],[40.462,64.75],[40.241,64.982],[39.979,65.155],[39.825,65.434],[39.949,65.578],[41.354,65.955],[41.623,66.065],[42.21,66.41],[43.242,66.251],[43.876,66.011],[44.03,66.011],[44.123,66.267],[44.223,66.4],[44.337,66.404],[44.577,66.303],[44.859,66.231],[45.74,66.063],[45.832,66.083],[46.348,66.023],[47.11,65.816],[47.408,65.831],[47.661,65.803],[47.764,65.84],[47.737,65.912],[47.757,65.937],[48.14,66.122],[49.007,66.114],[51.512,66.778],[51.554,66.797],[51.491,66.83],[51.525,66.923],[51.812,66.949],[51.849,66.997],[52.159,67.081],[53.772,66.994],[59.879,66.997],[59.869,66.963],[59.919,66.949],[60.082,66.985],[61.626,67.007],[61.854,67.122],[62.823,67.383],[62.877,67.577],[63.107,67.67],[63.422,67.763],[63.691,67.757],[63.711,67.805],[63.873,67.831],[63.952,67.895],[63.919,67.964],[63.839,68.025],[64.326,68.129],[64.351,68.173],[64.417,68.196],[64.532,68.196],[64.501,68.315],[64.559,68.354],[64.761,68.401],[65.006,68.384],[65.445,68.424],[65.269,68.232],[65.324,68.091],[65.286,68.01],[65.436,67.915],[65.781,67.919],[65.91,67.955],[66.084,67.926],[66.015,67.796],[66.193,67.736],[66.2,67.695],[66.106,67.652],[66.0,67.683],[65.85,67.659],[65.819,67.631],[65.839,67.604],[65.791,67.568],[66.034,67.57],[66.1,67.506],[66.085,67.471],[65.937,67.398],[65.7,67.393],[65.673,67.368],[65.701,67.339],[65.662,67.317],[65.188,67.149],[65.207,67.078],[65.073,67.043],[65.102,66.996],[65.097,66.897],[64.575,66.803],[64.533,66.734],[64.411,66.728],[64.296,66.668],[63.98,66.656],[63.807,66.552],[63.542,66.476],[63.413,66.485],[63.237,66.33],[63.292,66.244],[63.104,66.255],[63.009,66.199],[62.957,66.118],[62.858,66.078],[62.817,66.011],[62.87,65.977],[62.798,65.932],[62.844,65.877],[62.522,65.844],[62.014,65.72],[62.274,65.619],[62.322,65.537],[62.402,65.511],[62.369,65.447],[62.479,65.345],[62.81,65.289],[62.797,65.053],[62.673,64.891],[62.806,64.833],[62.815,64.806],[62.781,64.785],[62.799,64.736],[62.59,64.645],[62.533,64.551],[62.687,64.489],[62.899,64.472],[63.235,64.519],[63.455,64.454],[63.497,64.377],[63.41,64.325],[63.611,64.263],[63.889,64.279],[64.016,64.352],[64.478,64.355],[64.603,64.432],[64.761,64.422],[64.995,64.461],[65.177,64.441],[65.4,64.566],[65.884,64.564],[66.02,64.59],[66.465,64.507],[66.682,64.552],[66.932,64.482],[66.884,64.383],[66.792,64.328],[66.816,64.221],[67.161,64.159],[67.163,64.121],[67.252,64.112],[67.279,64.076],[67.677,64.074],[67.798,64.027],[67.929,64.111],[68.18,64.171],[68.427,64.291],[68.884,64.218],[68.894,64.266],[68.995,64.33],[68.874,64.433],[69.015,64.467],[69.229,64.465],[69.389,64.384],[69.732,64.389],[69.824,64.336],[69.999,64.311],[70.303,64.339],[70.471,64.247],[70.67,64.232],[70.765,64.189],[70.77,64.117],[70.554,63.999],[70.641,63.893],[70.817,63.811],[70.911,63.688],[71.385,63.67],[71.546,63.587],[71.607,63.18],[71.805,63.214],[71.989,63.197],[72.16,63.294],[72.656,63.275],[72.911,63.389],[73.101,63.431],[73.279,63.313],[73.366,63.202],[74.241,63.167],[74.507,63.038],[74.915,63.027],[75.363,63.103],[75.7,63.086],[75.804,63.109],[76.235,63.015],[76.297,62.945],[76.689,63.034],[76.823,62.987],[77.022,62.971],[77.155,62.787],[77.326,62.706],[77.885,62.553],[78.015,62.456],[78.379,62.563],[78.793,62.61],[79.821,62.599],[79.907,62.699],[79.92,62.789],[80.555,62.996],[80.592,63.079],[81.108,63.11],[81.171,62.969],[81.315,62.882],[81.337,62.821],[81.596,62.769],[81.633,62.73],[81.783,62.684],[82.164,62.804],[82.316,62.765],[82.746,62.749],[82.755,62.666],[83.006,62.591],[83.032,62.525],[83.282,62.456],[83.799,62.555],[83.939,62.48],[84.017,62.392],[84.24,62.368],[84.286,62.272],[84.39,62.236],[84.444,62.171],[84.487,62.097],[84.516,61.925],[84.684,61.801],[85.096,61.747],[85.277,61.669],[85.403,61.682],[85.491,61.613],[85.712,61.568],[85.844,61.588],[85.956,61.541],[85.962,61.455],[86.129,61.374],[86.211,61.374],[86.327,61.452],[86.507,61.406],[86.523,61.349],[86.603,61.311],[86.775,61.317],[86.976,61.36],[86.989,61.411],[86.95,61.447],[87.003,61.46],[87.254,61.377],[87.245,61.354],[87.467,61.34],[87.474,61.266],[87.564,61.209],[87.692,61.267],[87.713,61.296],[87.676,61.329],[87.778,61.362],[87.963,61.315],[88.182,61.346],[88.953,60.746],[89.867,60.807],[90.946,60.746],[91.965,60.751],[92.138,60.829],[92.135,60.89],[92.234,60.951],[92.226,60.98],[92.409,60.968],[92.474,60.997],[92.401,61.111],[92.468,61.195],[92.559,61.191],[92.757,61.087],[92.902,61.068],[92.891,61.095],[92.939,61.13],[92.892,61.146],[92.876,61.195],[92.632,61.304],[92.83,61.359],[92.93,61.332],[93.012,61.363],[93.15,61.321],[93.156,61.244],[93.343,61.1],[93.472,61.082],[93.568,61.104],[93.732,61.038],[93.918,61.058],[94.029,60.96],[94.251,61.12],[94.382,61.118],[94.545,61.174],[94.722,61.158],[95.113,61.089],[95.359,60.922],[95.402,60.815],[95.326,60.744],[95.48,60.706],[95.234,60.563],[95.227,60.499],[95.289,60.451],[95.267,60.423],[95.113,60.416],[95.022,60.37],[94.929,60.237],[95.011,60.196],[94.977,60.113],[95.081,60.049],[95.007,60.007],[95.02,59.966],[95.062,59.89],[95.173,59.802],[95.136,59.755],[95.241,59.637],[95.498,59.637],[95.593,59.575],[95.726,59.554],[95.783,59.606],[95.88,59.627],[95.954,59.628],[96.052,59.556],[96.239,59.626],[96.326,59.549],[96.29,59.505],[96.352,59.471],[96.452,59.473],[96.554,59.539],[96.784,59.549],[97.121,59.5],[97.224,59.535],[97.237,59.577],[97.204,59.615],[97.361,59.66],[97.457,59.73],[97.696,59.679],[98.052,59.723],[98.129,59.768],[98.337,59.723],[98.446,59.784],[98.606,59.762],[98.878,59.826],[98.935,59.767],[99.001,59.772],[99.102,59.841],[99.116,59.906],[99.409,60.029],[99.412,60.078],[99.649,60.116],[100.066,59.994],[100.097,59.959],[100.072,59.895],[100.315,59.841],[100.429,59.859],[100.553,59.788],[100.866,59.783],[101.025,59.714],[101.448,59.683],[101.471,59.725],[101.73,59.74],[101.79,59.712],[101.785,59.684],[102.016,59.637],[102.107,59.589],[102.443,59.647],[102.485,59.628],[102.456,59.614],[102.454,59.524],[102.525,59.498],[102.527,59.471],[102.639,59.449],[102.483,59.392],[102.517,59.26],[102.436,59.214],[102.484,59.181],[102.616,59.206],[102.82,59.187],[102.899,59.269],[103.014,59.312],[103.136,59.254],[103.212,59.251],[103.235,59.285],[103.332,59.268],[103.342,59.243],[103.21,59.232],[103.235,59.17],[103.309,59.131],[103.391,59.025],[103.555,58.994],[103.623,58.918],[103.896,58.917],[103.976,58.867],[103.944,58.835],[103.951,58.774],[103.884,58.754],[103.889,58.732],[103.97,58.723],[104.04,58.783],[104.189,58.771],[104.252,58.711],[104.377,58.722],[104.343,58.67],[104.406,58.624],[104.609,58.617],[104.632,58.645],[104.814,58.672],[104.877,58.72],[104.899,58.748],[104.764,58.819],[104.923,58.953],[105.098,59.011],[105.137,59.056],[105.277,59.063],[105.373,59.116],[105.314,59.161],[105.343,59.197],[105.307,59.249],[105.19,59.301],[105.241,59.445],[105.149,59.49],[104.976,59.473],[104.858,59.558],[104.886,59.608],[104.811,59.63],[104.813,59.673],[104.78,59.689],[104.888,59.76],[105.026,59.773],[105.019,59.83],[105.07,59.869],[105.372,59.834],[105.43,59.853],[105.466,59.826],[105.52,59.844],[105.437,59.902],[105.429,59.947],[105.51,60.0],[105.433,60.149],[105.512,60.23],[105.344,60.304],[105.231,60.28],[104.902,60.305],[104.854,60.352],[104.669,60.411],[104.649,60.522],[104.585,60.544],[104.575,60.591],[104.514,60.626],[104.614,60.726],[104.582,60.773],[104.491,60.808],[104.486,60.843],[104.638,60.903],[104.586,60.946],[104.648,61.036],[104.63,61.074],[104.697,61.083],[104.856,61.186],[105.049,61.175],[104.953,61.32],[104.826,61.354],[105.011,61.407],[105.283,61.419],[105.284,61.466],[105.379,61.54],[105.587,61.586],[105.669,61.65],[105.814,61.625],[105.896,61.681],[105.982,61.686],[105.904,61.842],[106.276,62.019],[106.399,62.039],[106.417,62.099],[106.393,62.139],[106.454,62.196],[106.47,62.261],[106.381,62.283],[106.487,62.337],[106.445,62.393],[106.548,62.392],[106.633,62.46],[106.759,62.493],[106.689,62.564],[106.8,62.627],[106.479,62.702],[106.516,62.728],[106.516,62.794],[106.453,62.818],[106.438,62.868],[106.205,62.928],[106.193,62.973],[106.153,62.982],[106.175,63.008],[106.127,63.076],[106.4,63.122],[106.398,63.182],[106.443,63.218],[106.356,63.256],[106.422,63.352],[106.622,63.312],[106.741,63.395],[106.503,63.536],[106.524,63.563],[106.602,63.558],[106.593,63.598],[106.66,63.622],[106.694,63.661],[106.611,63.722],[106.795,63.87],[106.73,63.911],[106.733,63.939],[106.629,63.974],[106.631,64.005],[106.675,64.037],[106.97,63.966],[107.043,63.922],[107.197,63.977],[107.303,63.973],[107.371,63.931],[107.339,63.904],[107.416,63.889],[107.454,63.917],[107.585,63.897],[107.632,63.93],[107.632,63.975],[107.761,64.015],[108.206,63.999],[108.315,64.006],[108.394,64.048],[108.248,64.255],[108.086,64.252],[108.049,64.192],[107.978,64.187],[107.642,64.316],[107.353,64.269],[107.274,64.303],[107.258,64.35],[107.105,64.359],[106.917,64.443],[106.739,64.429],[106.656,64.533],[106.58,64.548],[106.547,64.526],[106.576,64.481],[106.552,64.465],[106.137,64.421],[106.09,64.44],[106.137,64.489],[106.026,64.545],[105.906,64.495],[105.77,64.491],[105.79,64.553],[105.716,64.592],[105.756,64.642],[105.703,64.682],[105.782,64.663],[105.881,64.684],[105.823,64.765],[105.868,64.83],[105.991,64.827],[105.937,64.903],[106.032,64.913],[106.027,64.88],[106.058,64.865],[106.212,64.87],[105.96,65.038],[106.111,65.065],[106.194,65.128],[106.312,65.14],[106.41,65.222],[106.528,65.215],[106.436,65.251],[106.448,65.314],[106.616,65.39],[106.819,65.373],[106.973,65.506],[106.71,65.545],[106.705,65.607],[106.436,65.674],[106.464,65.733],[106.439,65.771],[106.495,65.797],[106.47,65.824],[106.498,65.883],[106.469,65.922],[106.522,66.004],[106.34,66.158],[106.202,66.154],[106.118,66.197],[106.141,66.249],[106.12,66.371],[106.337,66.473],[106.317,66.532],[106.245,66.57],[106.222,66.65],[106.26,66.686],[106.152,66.732],[106.216,66.802],[106.014,66.794],[106.097,66.857],[106.087,66.898],[105.86,66.916],[105.857,66.949],[105.697,66.931],[105.552,66.986],[105.558,67.016],[105.949,67.036],[106.067,67.112],[106.08,67.164],[106.342,67.196],[106.439,67.261],[106.543,67.286],[106.711,67.253],[106.827,67.333],[106.926,68.254],[106.911,68.859],[106.156,69.414],[106.344,69.472],[106.36,69.51],[106.479,69.575],[106.598,69.563],[106.63,69.523],[106.853,69.518],[107.61,69.656],[107.954,69.664],[108.023,69.695],[108.018,69.746],[108.052,69.784],[108.119,69.782],[108.248,69.849],[108.897,69.838],[108.944,69.766],[109.201,69.75],[109.309,69.773],[109.341,69.817],[109.39,69.822],[109.411,69.96],[109.532,69.989],[109.551,70.028],[109.362,70.081],[109.368,70.132],[109.311,70.149],[109.311,70.203],[109.578,70.248],[109.622,70.285],[109.584,70.353],[109.64,70.367],[110.011,70.408],[110.317,70.405],[110.313,70.437],[110.123,70.479],[110.092,70.528],[110.158,70.542],[110.117,70.587],[110.15,70.607],[110.14,70.634],[110.452,70.701],[110.511,70.721],[110.519,70.762],[110.622,70.782],[110.845,70.778],[111.055,70.84],[111.374,70.857],[111.481,70.924],[111.936,70.969],[112.041,71.05],[112.104,71.055],[112.247,70.995],[112.355,71.066],[112.596,71.098],[112.519,71.168],[112.668,71.191],[112.721,71.26],[112.605,71.299],[112.474,71.281],[112.222,71.383],[112.007,71.407],[112.004,72.128],[111.719,72.169],[111.693,72.226],[111.601,72.217],[111.673,72.259],[111.576,72.329],[111.327,72.321],[111.062,72.372],[111.047,72.393],[111.079,72.415],[111.042,72.437],[111.289,72.481],[111.313,72.513],[111.18,72.563],[110.92,72.578],[110.89,72.605],[110.912,72.636],[110.728,72.681],[110.67,72.785],[110.751,72.811],[110.65,72.882],[110.912,72.936],[110.703,72.986],[110.857,73.044],[110.792,73.098],[110.854,73.164],[110.385,73.157],[110.371,73.197],[110.585,73.236],[110.631,73.27],[110.545,73.338],[110.21,73.387],[110.561,73.402],[110.681,73.438],[110.694,73.484],[110.818,73.508],[110.886,73.56],[111.011,73.553],[111.296,73.612],[111.201,73.631],[111.188,73.668],[110.79,73.728],[111.057,73.819],[111.211,73.812],[111.338,73.852],[111.804,73.744],[112.147,73.708],[112.822,73.747],[112.959,73.806],[112.935,73.882],[112.824,73.958],[112.829,73.997],[113.128,73.883],[113.404,73.677],[113.424,73.593],[113.308,73.573],[113.308,73.522],[113.241,73.464],[113.336,73.364],[113.492,73.34],[113.532,73.213],[113.564,73.254],[113.818,73.349],[113.538,73.438],[113.467,73.505],[113.915,73.536],[114.112,73.6],[114.854,73.609],[115.413,73.71],[116.603,73.675],[117.444,73.589],[118.45,73.589],[118.757,73.553],[118.753,73.463],[118.706,73.444],[118.576,73.486],[118.436,73.452],[118.368,73.268],[118.462,73.209],[118.917,73.12],[119.533,73.055],[119.722,72.959],[120.534,72.874],[120.573,72.889],[119.841,72.957],[119.767,73.007],[120.655,72.977],[121.055,72.932],[121.388,72.976],[121.793,72.977],[121.947,72.965],[121.924,72.926],[121.998,72.905],[122.244,72.909],[122.534,72.839],[122.732,72.827],[122.312,72.942],[122.843,72.873],[122.953,72.892],[122.449,72.979],[122.505,72.991],[122.481,73.02],[122.615,73.031],[123.133,72.919],[123.425,73.113],[123.382,73.16],[123.505,73.192],[123.465,73.28],[123.398,73.292],[123.338,73.347],[123.413,73.391],[123.231,73.405],[123.307,73.426],[123.26,73.457],[123.281,73.464],[123.417,73.443],[123.246,73.546],[123.37,73.56],[123.314,73.594],[123.424,73.581],[123.37,73.663],[123.589,73.717],[123.629,73.697],[123.562,73.643],[123.63,73.638],[123.602,73.615],[123.645,73.603],[123.958,73.627],[124.0,73.642],[123.92,73.672],[123.905,73.717],[123.931,73.745],[123.899,73.773],[124.055,73.724],[123.993,73.691],[124.06,73.685],[124.219,73.724],[124.339,73.805],[124.693,73.742],[124.726,73.708],[124.84,73.722],[124.93,73.667],[124.98,73.676],[124.987,73.628],[125.043,73.641],[125.048,73.683],[125.137,73.704],[125.151,73.656],[125.212,73.649],[125.178,73.622],[125.214,73.616],[125.177,73.565],[125.287,73.539],[125.365,73.583],[125.399,73.556],[125.462,73.571],[125.475,73.541],[125.628,73.535],[125.644,73.498],[125.525,73.461],[125.627,73.428],[125.604,73.45],[125.877,73.461],[125.816,73.491],[125.948,73.541],[125.966,73.486],[125.912,73.436],[125.941,73.428],[126.004,73.454],[126.015,73.509],[126.268,73.559],[126.405,73.512],[126.387,73.463],[126.329,73.431],[126.171,73.459],[126.152,73.436],[126.255,73.403],[126.187,73.389],[126.389,73.412],[126.438,73.384],[126.66,73.393],[126.667,73.427],[126.73,73.444],[126.781,73.399],[126.839,73.402],[126.84,73.441],[126.932,73.43],[126.918,73.504],[126.83,73.519],[127.05,73.549],[127.451,73.491],[127.988,73.471],[127.9,73.436],[128.077,73.406],[127.96,73.347],[128.342,73.361],[128.365,73.354],[128.235,73.265],[128.439,73.236],[128.615,73.266],[128.782,73.222],[128.806,73.099],[128.777,73.071],[128.811,73.065],[128.82,72.975],[128.291,72.909],[128.214,72.861],[128.228,72.82],[128.129,72.786],[128.747,72.754],[128.692,72.705],[128.479,72.725],[128.396,72.673],[127.906,72.667],[128.124,72.583],[127.465,72.439],[128.444,72.064],[128.453,72.024],[128.518,71.984],[128.633,71.955],[128.664,71.863],[128.926,71.739],[128.998,71.757],[129.05,71.716],[128.865,71.695],[128.821,71.658],[128.842,71.622],[128.928,71.591],[129.145,71.613],[129.247,71.551],[129.236,71.497],[129.314,71.465],[129.392,71.347],[129.653,71.26],[129.763,71.148],[129.626,71.086],[129.866,71.11],[129.941,71.093],[129.92,71.066],[130.082,71.083],[130.219,70.994],[130.167,70.969],[130.466,70.927],[130.496,70.887],[130.62,70.866],[130.7,70.888],[130.721,70.96],[130.772,70.977],[130.89,70.844],[130.888,70.763],[131.042,70.739],[131.168,70.743],[131.519,70.929],[131.892,71.272],[132.265,71.682],[132.541,71.884],[132.717,71.946],[132.943,71.952],[132.929,71.912],[132.796,71.911],[132.775,71.88],[132.813,71.831],[132.729,71.82],[132.715,71.777],[132.984,71.72],[133.152,71.579],[133.426,71.49],[133.909,71.399],[134.168,71.371],[134.489,71.377],[134.586,71.405],[134.741,71.36],[134.668,71.312],[134.77,71.367],[134.697,71.421],[135.031,71.539],[135.104,71.516],[135.206,71.552],[135.423,71.531],[135.341,71.566],[135.621,71.623],[135.985,71.635],[136.511,71.56],[136.547,71.477],[136.719,71.531],[136.919,71.454],[137.263,71.388],[137.239,71.367],[137.492,71.347],[137.445,71.313],[137.485,71.298],[137.404,71.285],[137.56,71.241],[137.705,71.285],[137.671,71.251],[137.739,71.251],[137.694,71.221],[137.526,71.22],[137.762,71.169],[137.813,71.12],[137.975,71.193],[137.842,71.182],[137.848,71.205],[137.739,71.229],[137.832,71.254],[138.036,71.225],[138.113,71.289],[137.996,71.302],[138.156,71.339],[138.011,71.339],[137.95,71.362],[137.966,71.38],[137.829,71.387],[138.015,71.474],[138.039,71.557],[138.102,71.582],[138.716,71.648],[139.042,71.57],[139.089,71.49],[139.158,71.449],[139.12,71.431],[139.182,71.417],[139.346,71.422],[139.444,71.495],[139.718,71.457],[139.824,71.541],[139.801,71.556],[139.816,71.603],[139.735,71.672],[139.692,71.792],[139.752,71.87],[139.574,71.933],[139.336,71.95],[139.682,71.97],[139.712,71.998],[139.715,72.082],[139.83,72.137],[139.847,72.229],[139.443,72.179],[139.556,72.175],[139.533,72.164],[139.26,72.164],[139.274,72.142],[139.092,72.166],[139.043,72.216],[139.045,72.26],[139.33,72.422],[139.543,72.498],[140.577,72.496],[140.861,72.587],[141.011,72.67],[140.992,72.709],[140.66,72.814],[140.654,72.847],[140.763,72.892],[141.273,72.866],[141.551,72.774],[142.231,72.702],[143.487,72.7],[145.41,72.556],[145.891,72.479],[145.897,72.389],[145.957,72.354],[145.47,72.36],[145.161,72.267],[146.039,72.292],[146.092,72.213],[146.102,72.172],[146.047,72.157],[146.062,72.122],[145.979,72.069],[145.935,72.1],[145.962,72.127],[145.942,72.155],[145.848,72.165],[145.839,72.183],[145.907,72.203],[145.88,72.219],[145.692,72.257],[145.613,72.244],[145.747,72.214],[145.702,72.145],[145.755,72.123],[145.702,72.083],[145.799,72.078],[145.765,72.035],[145.817,71.964],[145.804,71.929],[145.266,71.843],[144.902,71.73],[144.893,71.675],[144.956,71.702],[145.003,71.675],[145.08,71.696],[145.333,71.661],[145.569,71.741],[145.73,71.73],[146.006,71.781],[146.186,71.842],[146.62,72.075],[147.195,72.33],[148.402,72.311],[149.612,72.148],[149.724,72.12],[150.012,71.961],[150.017,71.85],[149.67,71.771],[149.51,71.839],[149.436,71.82],[149.371,71.852],[149.214,71.762],[148.877,71.673],[149.026,71.67],[149.103,71.703],[149.772,71.648],[149.953,71.668],[150.102,71.595],[150.006,71.572],[150.012,71.6],[149.952,71.592],[149.965,71.531],[149.868,71.497],[149.868,71.462],[150.117,71.516],[150.633,71.515],[150.669,71.466],[150.532,71.362],[150.739,71.394],[150.656,71.35],[150.758,71.333],[151.034,71.394],[151.592,71.31],[151.751,71.23],[151.843,71.123],[152.059,70.994],[151.658,70.991],[151.681,70.976],[152.504,70.848],[152.547,70.827],[152.541,70.791],[152.616,70.835],[152.99,70.835],[153.348,70.882],[153.664,70.861],[154.238,70.965],[155.476,71.062],[155.519,71.047],[155.495,71.004],[155.53,70.976],[155.607,71.066],[155.936,71.099],[157.986,71.048],[159.238,70.829],[159.473,70.747],[159.648,70.633],[159.897,70.352],[159.927,70.236],[159.913,70.13],[159.689,70.134],[159.901,70.101],[159.851,70.055],[159.862,69.993],[159.692,69.911],[159.763,69.839],[159.73,69.839],[159.798,69.806],[159.769,69.762],[159.862,69.789],[160.169,69.703],[160.141,69.729],[160.255,69.719],[160.314,69.698],[160.319,69.654],[160.517,69.687],[160.926,69.641],[160.982,69.571],[160.921,69.462],[161.021,69.298],[161.004,69.246],[161.038,69.194],[160.965,69.108],[161.088,69.117],[161.08,69.137],[161.131,69.149],[161.128,69.237],[161.169,69.325],[161.067,69.419],[161.121,69.479],[161.373,69.546],[161.385,69.462],[161.293,69.414],[161.352,69.378],[161.364,69.313],[161.455,69.367],[161.436,69.38],[161.6,69.428],[161.703,69.496],[162.026,69.551],[162.028,69.582],[162.196,69.626],[162.178,69.639],[162.208,69.656],[162.299,69.652],[162.34,69.702],[162.422,69.678],[162.435,69.646],[162.346,69.622],[162.364,69.574],[162.307,69.542],[162.404,69.463],[162.364,69.414],[162.494,69.382],[162.537,69.303],[162.766,69.197],[162.507,69.113],[162.493,69.073],[162.544,69.046],[162.528,69.002],[162.764,68.925],[162.777,68.886],[162.833,68.865],[162.739,68.802],[162.592,68.804],[162.606,68.702],[162.683,68.667],[162.716,68.606],[162.578,68.51],[162.587,68.454],[162.526,68.36],[162.415,68.314],[162.179,68.36],[161.406,68.417],[161.224,68.389],[160.996,68.306],[159.849,68.282],[159.78,68.214],[159.552,68.244],[158.935,68.149],[158.418,68.116],[158.254,68.073],[158.189,67.96],[158.063,67.925],[158.064,67.843],[158.253,67.828],[158.317,67.753],[158.151,67.725],[157.923,67.741],[157.804,67.71],[157.729,67.649],[157.731,67.594],[157.686,67.538],[157.747,67.505],[157.751,67.47],[157.877,67.437],[157.778,67.347],[157.867,67.263],[158.351,67.112],[158.699,67.051],[158.795,66.979],[158.783,66.918],[158.854,66.872],[158.894,66.795],[158.713,66.735],[158.625,66.615],[158.527,66.573],[158.457,66.486],[158.354,66.447],[158.527,66.355],[158.641,66.345],[158.774,66.279],[159.188,66.215],[159.189,66.152],[159.049,66.052],[158.987,65.939],[158.924,65.898],[158.932,65.816],[158.885,65.785],[158.919,65.739],[159.377,65.653],[159.833,65.524],[160.027,65.51],[160.169,65.445],[160.165,65.38],[160.206,65.344],[160.413,65.248],[160.518,65.161],[161.01,65.165],[161.282,65.136],[161.416,65.064],[161.687,64.99],[161.717,64.913],[161.808,64.822],[162.292,64.737],[162.554,64.742],[162.735,64.656],[163.046,64.65],[163.122,64.691],[163.142,64.77],[163.121,64.797],[163.347,64.814],[163.508,64.924],[163.873,64.86],[164.023,64.87],[164.188,64.929],[164.795,64.767],[164.881,64.681],[165.022,64.691],[165.033,64.838],[165.263,64.846],[165.358,64.756],[165.684,64.748],[165.738,64.718],[165.741,64.674],[165.866,64.619],[165.814,64.585],[165.87,64.55],[166.058,64.557],[166.198,64.604],[166.807,64.528],[167.009,64.546],[167.235,64.618],[167.37,64.49],[167.504,64.473],[167.713,64.336],[167.813,64.346],[168.025,64.281],[168.153,64.286],[168.224,64.341],[168.495,64.313],[168.623,64.21],[168.77,64.182],[168.764,64.146],[168.858,64.022],[169.111,63.948],[169.342,63.942],[169.368,63.87],[169.541,63.813],[169.548,63.698],[169.587,63.66],[169.51,63.633],[169.49,63.573],[169.203,63.52],[168.785,63.304],[168.777,63.248],[168.684,63.245],[168.704,63.196],[168.595,63.19],[168.46,63.075],[168.925,62.939],[169.123,62.968],[169.514,62.808],[169.655,62.704],[169.841,62.651],[170.052,62.663],[169.982,62.543],[170.084,62.485],[170.037,62.444],[170.26,62.281],[170.421,62.309],[170.848,62.243],[170.905,62.275],[171.08,62.285],[171.044,62.329],[171.062,62.342],[171.22,62.363],[171.258,62.321],[171.359,62.351],[171.377,62.319],[171.486,62.307],[171.858,62.377],[171.871,62.408],[172.055,62.461],[172.205,62.446],[172.294,62.398],[172.486,62.435],[172.701,62.398],[172.853,62.327],[172.905,62.388],[173.172,62.39],[173.217,62.432],[173.505,62.529],[173.688,62.529],[173.797,62.51],[173.871,62.436],[174.076,62.441],[174.089,62.345],[174.005,62.278],[174.105,62.186],[174.103,62.076],[174.227,62.061],[174.327,62.088],[174.344,62.041],[174.458,61.983],[174.446,61.911],[174.505,61.876],[174.447,61.862],[174.442,61.817],[174.147,61.751],[173.841,61.613],[173.775,61.611],[173.755,61.654],[173.577,61.706],[173.544,61.603],[173.493,61.601],[173.483,61.557],[173.342,61.552],[173.288,61.467],[173.073,61.345],[172.977,61.372],[173.003,61.316],[172.918,61.278],[172.768,61.273],[172.643,61.191],[172.43,61.218],[172.377,61.179],[172.434,61.143],[172.281,61.109],[172.49,61.081],[172.473,61.055],[172.371,61.013],[172.19,61.043],[172.165,61.024],[172.194,60.956],[172.115,60.941],[172.044,60.86],[171.375,60.689],[171.358,60.629],[171.164,60.557],[171.122,60.511],[170.847,60.464],[170.809,60.404],[170.64,60.364],[170.651,60.32],[170.502,60.273],[170.474,60.232],[170.4,59.966],[170.264,59.92],[170.177,59.954],[170.104,59.92],[170.051,59.993],[169.924,60.021],[169.795,60.202],[169.708,60.251],[169.657,60.378],[169.208,60.537],[168.646,60.503],[168.482,60.549],[168.287,60.546],[167.809,60.463],[167.599,60.396],[167.508,60.404],[167.236,60.31],[167.102,60.33],[166.958,60.216],[166.157,59.777],[166.065,59.803],[166.053,59.916],[166.133,60.147],[166.233,60.218],[166.224,60.329],[166.183,60.397],[166.074,60.378],[165.956,60.311],[165.846,60.338],[165.601,60.237],[165.424,60.125],[165.146,60.04],[165.212,59.991],[165.016,59.85],[164.901,59.82],[164.885,59.754],[164.851,59.739],[164.76,59.763],[164.659,59.952],[164.452,60.065],[164.358,59.945],[164.29,59.981],[164.118,59.941],[164.109,59.902],[164.145,59.864],[164.055,59.879],[164.045,59.91],[164.205,59.997],[164.112,59.991],[164.037,60.033],[163.966,59.988],[163.842,59.977],[163.742,59.881],[163.389,59.814],[163.362,59.742],[163.388,59.63],[163.321,59.587],[163.184,59.566],[163.21,59.56],[163.169,59.511],[163.321,59.411],[163.307,59.273],[163.244,59.241],[163.288,59.287],[163.245,59.294],[163.079,59.192],[163.218,59.15],[163.258,59.076],[163.161,59.034],[163.165,59.097],[163.02,59.159],[162.909,59.097],[163.048,59.028],[163.079,58.982],[162.878,58.906],[162.907,58.891],[162.291,58.53],[162.17,58.406],[161.993,58.088],[162.026,57.929],[162.082,57.882],[162.214,57.822],[162.456,57.782],[162.461,57.76],[162.354,57.689],[162.522,57.754],[162.491,57.884],[162.53,57.936],[162.689,57.969],[163.004,57.838],[163.215,57.814],[163.33,57.709],[163.242,57.67],[163.241,57.595],[163.164,57.562],[163.077,57.463],[163.013,57.448],[162.781,57.283],[162.786,57.145],[162.858,57.051],[162.79,56.922],[162.784,56.763],[162.835,56.722],[162.967,56.704],[163.067,56.741],[163.234,56.737],[163.281,56.688],[163.239,56.624],[163.275,56.563],[163.247,56.531],[163.281,56.468],[163.25,56.451],[163.352,56.324],[163.366,56.181],[163.166,56.128],[163.021,55.958],[162.808,56.008],[162.598,56.174],[162.633,56.221],[162.557,56.229],[162.651,56.246],[162.722,56.342],[162.697,56.343],[162.715,56.379],[162.807,56.406],[162.691,56.433],[162.645,56.392],[162.508,56.381],[162.572,56.347],[162.492,56.333],[162.593,56.268],[162.202,56.144],[162.018,55.976],[162.018,55.931],[161.777,55.608],[161.75,55.465],[161.793,55.236],[161.875,55.079],[162.151,54.861],[162.107,54.825],[162.11,54.744],[162.009,54.702],[161.877,54.566],[161.657,54.464],[161.306,54.44],[161.213,54.474],[161.14,54.547],[160.901,54.522],[160.407,54.368],[160.239,54.25],[160.024,54.151],[159.902,53.982],[159.844,53.797],[159.864,53.695],[159.818,53.66],[159.914,53.591],[159.873,53.666],[159.929,53.647],[159.968,53.574],[159.96,53.494],[159.919,53.476],[159.825,53.536],[159.791,53.516],[159.931,53.39],[159.928,53.338],[159.972,53.329],[159.921,53.253],[159.969,53.215],[159.979,53.264],[160.016,53.267],[160.059,53.097],[159.78,53.2],[159.599,53.205],[158.606,52.878],[158.623,52.847],[158.545,52.837],[158.561,52.796],[158.495,52.759],[158.567,52.741],[158.597,52.695],[158.542,52.631],[158.449,52.643],[158.46,52.575],[158.522,52.567],[158.503,52.501],[158.53,52.488],[158.462,52.461],[158.429,52.41],[158.546,52.419],[158.571,52.392],[158.503,52.358],[158.558,52.313],[158.427,52.268],[158.435,52.243],[158.394,52.227],[158.422,52.18],[158.317,52.101],[158.285,51.967],[158.117,51.815],[158.015,51.766],[157.915,51.633],[157.854,51.622],[157.76,51.545],[157.715,51.55],[157.481,51.401],[157.474,51.361],[157.401,51.351],[156.674,50.866],[156.662,50.885],[156.758,50.98],[156.694,50.963],[156.716,51.008],[156.661,51.071],[156.668,51.167],[156.573,51.216],[156.524,51.31],[156.443,51.691],[156.391,52.203],[156.063,52.921],[155.906,53.775],[155.681,54.41],[155.562,54.881],[155.501,55.286],[155.604,55.932],[155.821,56.454],[155.895,56.509],[156.05,56.768],[156.153,56.835],[156.064,56.716],[156.208,56.826],[156.21,56.856],[156.461,56.948],[156.53,57.021],[156.553,57.109],[156.659,57.071],[156.946,57.434],[156.897,57.601],[156.944,57.618],[156.931,57.659],[156.82,57.736],[156.749,57.73],[156.983,57.857],[157.051,57.805],[157.242,57.771],[157.47,57.804],[157.557,57.876],[157.571,57.93],[157.653,58.004],[157.64,58.025],[157.947,57.983],[158.293,58.014],[158.229,58.039],[158.657,58.271],[159.024,58.415],[159.154,58.507],[159.215,58.496],[159.183,58.518],[159.195,58.543],[159.4,58.677],[159.472,58.689],[159.586,58.803],[159.62,58.884],[159.692,58.918],[159.69,58.974],[159.805,59.097],[160.212,59.331],[160.336,59.361],[160.447,59.455],[160.497,59.551],[160.847,59.618],[160.978,59.717],[161.284,59.87],[161.338,59.945],[161.469,60.034],[161.734,60.128],[161.778,60.2],[161.876,60.251],[161.849,60.279],[161.931,60.307],[161.893,60.303],[161.94,60.416],[162.208,60.538],[162.403,60.561],[162.503,60.621],[162.626,60.611],[162.754,60.646],[162.915,60.76],[163.02,60.779],[163.099,60.755],[163.195,60.805],[163.323,60.805],[163.346,60.799],[163.295,60.728],[163.334,60.725],[163.441,60.882],[163.594,60.917],[163.522,60.943],[163.572,60.978],[163.487,61.002],[163.618,61.059],[163.628,61.122],[163.82,61.203],[163.831,61.233],[163.793,61.248],[163.897,61.277],[163.912,61.333],[163.963,61.362],[163.853,61.403],[163.761,61.365],[163.702,61.45],[163.922,61.715],[164.003,61.717],[163.994,61.855],[164.042,61.91],[164.031,62.103],[164.126,62.194],[164.129,62.262],[164.245,62.328],[164.418,62.353],[164.541,62.451],[164.74,62.46],[165.125,62.396],[165.067,62.436],[164.512,62.494],[164.745,62.51],[165.035,62.453],[164.754,62.509],[164.579,62.624],[164.442,62.64],[164.063,62.605],[163.918,62.535],[163.77,62.552],[163.316,62.483],[163.298,62.425],[163.34,62.411],[163.23,62.385],[163.368,62.33],[163.231,62.311],[163.241,62.285],[163.087,62.215],[163.15,62.112],[163.105,62.08],[163.193,62.067],[163.026,61.921],[163.059,61.901],[162.978,61.81],[163.075,61.761],[163.032,61.518],[162.908,61.582],[162.909,61.609],[162.86,61.603],[162.943,61.65],[162.839,61.708],[162.749,61.701],[162.76,61.595],[162.576,61.581],[162.426,61.623],[162.352,61.547],[161.536,61.187],[160.859,60.831],[160.788,60.719],[160.712,60.753],[160.12,60.564],[160.087,60.591],[160.1,60.68],[160.193,60.754],[160.128,60.805],[160.212,60.915],[160.318,60.981],[159.966,60.966],[159.885,60.941],[159.894,60.915],[159.798,60.931],[159.836,60.979],[159.799,61.017],[159.931,61.116],[159.869,61.205],[159.807,61.185],[159.819,61.234],[159.776,61.242],[160.08,61.537],[160.202,61.568],[160.215,61.714],[160.327,61.773],[160.305,61.888],[159.566,61.605],[159.482,61.641],[159.463,61.716],[159.323,61.779],[159.306,61.849],[159.03,61.866],[158.901,61.841],[158.865,61.778],[158.574,61.781],[158.456,61.751],[158.273,61.776],[158.204,61.729],[157.924,61.705],[157.479,61.734],[157.405,61.66],[157.098,61.633],[156.848,61.527],[156.736,61.527],[156.671,61.498],[156.632,61.424],[156.648,61.327],[156.62,61.275],[156.655,61.197],[156.547,61.209],[156.402,61.159],[156.412,61.119],[155.944,60.922],[155.973,60.905],[155.917,60.859],[155.914,60.704],[155.83,60.729],[155.703,60.656],[155.719,60.605],[155.591,60.578],[155.508,60.493],[155.324,60.466],[154.693,60.199],[154.51,60.025],[154.488,59.946],[154.499,60.029],[154.564,60.094],[154.407,60.036],[154.466,59.968],[154.472,59.88],[154.417,59.861],[154.433,59.896],[154.396,59.902],[154.221,59.87],[154.229,59.73],[154.342,59.601],[154.22,59.664],[154.193,59.581],[154.075,59.509],[154.138,59.457],[154.298,59.443],[154.357,59.524],[154.398,59.534],[154.38,59.47],[154.427,59.421],[154.516,59.41],[154.533,59.436],[154.45,59.47],[154.418,59.546],[154.554,59.513],[154.645,59.543],[154.783,59.471],[154.878,59.461],[154.961,59.496],[155.128,59.324],[155.175,59.232],[155.15,59.221],[155.194,59.176],[154.845,59.19],[154.887,59.139],[154.854,59.139],[154.834,59.094],[154.668,59.096],[154.45,59.166],[154.401,59.146],[154.405,59.093],[154.373,59.063],[154.045,59.003],[153.88,59.044],[153.782,59.126],[153.415,59.185],[153.361,59.046],[153.037,59.017],[152.94,58.986],[152.902,58.906],[152.782,58.922],[152.689,58.873],[152.541,58.902],[152.376,58.982],[151.894,58.823],[151.721,58.799],[151.463,58.814],[151.346,58.783],[151.192,58.942],[151.245,58.955],[151.236,58.998],[151.153,59.04],[151.098,59.111],[151.217,59.092],[151.439,59.17],[151.767,59.134],[151.685,59.205],[152.05,59.198],[152.162,59.235],[151.973,59.215],[151.894,59.252],[151.715,59.261],[151.632,59.422],[151.497,59.463],[151.387,59.538],[151.329,59.506],[150.988,59.515],[150.982,59.437],[150.531,59.429],[150.465,59.457],[150.47,59.526],[150.419,59.57],[149.599,59.708],[149.415,59.691],[149.103,59.591],[149.081,59.56],[149.198,59.526],[149.209,59.471],[149.114,59.493],[148.971,59.453],[148.868,59.476],[148.844,59.517],[148.767,59.49],[148.731,59.455],[148.74,59.368],[148.814,59.364],[148.865,59.403],[148.861,59.354],[148.92,59.396],[148.989,59.375],[148.934,59.317],[148.955,59.251],[148.931,59.235],[148.841,59.277],[148.743,59.237],[148.708,59.262],[148.598,59.192],[148.417,59.217],[148.356,59.334],[148.22,59.359],[147.883,59.333],[147.877,59.259],[147.385,59.234],[147.262,59.283],[147.192,59.263],[147.045,59.313],[146.712,59.332],[146.647,59.385],[146.503,59.413],[146.369,59.376],[146.381,59.275],[146.312,59.279],[146.363,59.213],[146.323,59.182],[146.204,59.205],[146.006,59.141],[145.987,59.093],[145.945,59.104],[145.906,59.17],[145.786,59.21],[145.801,59.318],[145.661,59.373],[145.007,59.32],[143.899,59.369],[143.424,59.273],[143.198,59.322],[143.023,59.276],[142.846,59.273],[142.358,59.141],[141.972,58.963],[141.78,58.763],[141.581,58.616],[141.347,58.5],[140.821,58.326],[140.74,58.271],[140.667,58.191],[140.493,57.844],[140.303,57.75],[140.114,57.739],[140.041,57.659],[139.863,57.575],[139.79,57.484],[139.62,57.467],[139.421,57.299],[139.196,57.273],[139.069,57.207],[139.026,57.142],[138.933,57.135],[138.884,57.019],[138.806,57.032],[138.623,56.959],[138.586,56.922],[138.577,56.783],[138.544,56.794],[138.55,56.859],[138.455,56.839],[138.396,56.732],[138.29,56.692],[138.263,56.62],[138.13,56.586],[138.125,56.507],[138.245,56.466],[138.222,56.426],[138.163,56.451],[138.069,56.438],[138.05,56.387],[137.914,56.36],[137.835,56.227],[137.776,56.211],[137.721,56.136],[137.572,56.117],[137.444,56.049],[137.39,55.948],[137.296,55.961],[137.047,55.819],[137.049,55.793],[136.91,55.771],[136.773,55.661],[136.581,55.623],[136.372,55.527],[136.319,55.487],[136.306,55.425],[136.164,55.32],[135.869,55.174],[135.469,55.057],[135.219,54.894],[135.173,54.821],[135.265,54.722],[135.244,54.701],[135.332,54.715],[135.653,54.666],[135.75,54.571],[136.206,54.621],[136.535,54.596],[136.668,54.681],[136.667,54.623],[136.75,54.608],[136.791,54.467],[136.788,54.434],[136.739,54.414],[136.772,54.344],[136.659,53.935],[136.685,53.808],[136.775,53.773],[136.844,53.829],[136.959,53.858],[137.177,53.842],[137.291,54.036],[137.158,54.045],[137.061,54.146],[137.094,54.157],[137.307,54.125],[137.294,54.077],[137.32,54.049],[137.642,53.96],[137.673,53.877],[137.597,53.824],[137.554,53.715],[137.478,53.666],[137.345,53.665],[137.218,53.601],[137.228,53.567],[137.335,53.529],[137.918,53.587],[138.15,53.673],[138.298,53.756],[138.351,53.891],[138.413,53.933],[138.417,53.986],[138.555,54.046],[138.627,54.016],[138.636,53.895],[138.722,54.035],[138.658,54.025],[138.615,54.083],[138.67,54.087],[138.713,54.137],[138.747,54.242],[138.661,54.303],[138.74,54.316],[139.302,54.191],[139.714,54.298],[139.795,54.276],[139.801,54.226],[139.875,54.189],[139.918,54.2],[140.002,54.123],[140.239,54.057],[140.236,54.001],[140.328,53.966],[140.257,53.868],[140.357,53.79],[140.52,53.728],[140.581,53.639],[140.953,53.497],[140.931,53.436],[140.987,53.451],[141.124,53.393],[141.349,53.247],[141.405,53.143],[141.361,53.075],[141.254,53.088],[141.186,53.05],[141.249,53.033],[141.218,53.002],[141.098,53.002],[140.993,52.926],[141.186,52.851],[141.261,52.852],[141.201,52.777],[141.271,52.734],[141.313,52.657],[141.234,52.525],[141.118,52.449],[141.167,52.365],[141.402,52.226],[141.54,52.221],[141.555,52.161],[141.494,52.172],[141.355,52.106],[141.303,52.022],[141.425,51.927],[141.2,51.824],[141.112,51.68],[140.915,51.624],[140.9,51.493],[140.8,51.454],[140.819,51.417],[140.892,51.428],[140.873,51.372],[140.686,51.313],[140.711,51.257],[140.659,51.224],[140.706,51.03],[140.665,51.008],[140.672,50.947],[140.6,50.928],[140.53,50.862],[140.541,50.803],[140.463,50.699],[140.515,50.617],[140.442,50.53],[140.513,50.448],[140.544,50.347],[140.515,50.295],[140.523,50.151],[140.6,50.075],[140.681,50.102],[140.69,50.083],[140.482,49.975],[140.415,49.875],[140.458,49.806],[140.536,49.775],[140.508,49.691],[140.559,49.575],[140.454,49.421],[140.435,49.297],[140.336,49.288],[140.39,49.273],[140.346,49.229],[140.35,49.198],[140.377,49.206],[140.357,49.099],[140.295,49.088],[140.341,49.045],[140.231,49.018],[140.268,49.008],[140.248,48.976],[140.281,48.965],[140.353,49.02],[140.398,48.993],[140.213,48.768],[140.176,48.462],[140.072,48.399],[140.034,48.329],[139.767,48.188],[139.652,48.069],[139.262,47.788],[138.97,47.32],[138.563,47.03],[138.5,46.867],[138.41,46.781],[138.349,46.664],[138.343,46.548],[138.202,46.454],[138.1,46.228],[138.034,46.156],[137.944,46.108],[137.67,45.794],[137.397,45.624],[137.147,45.377],[136.811,45.193],[136.779,45.107],[136.558,44.948],[136.553,44.896],[136.45,44.827],[136.441,44.783],[136.355,44.789],[136.307,44.744],[136.33,44.709],[136.235,44.652],[136.229,44.572],[136.167,44.498],[135.721,44.237],[135.656,44.169],[135.623,44.039],[135.541,44.004],[135.512,43.922],[135.464,43.95],[135.464,43.894],[135.519,43.881],[135.425,43.764],[135.278,43.69],[135.236,43.734],[135.182,43.711],[135.228,43.685],[135.224,43.644],[135.13,43.502],[134.975,43.46],[134.755,43.307],[134.042,42.968],[133.925,42.882],[133.839,42.898],[133.715,42.821],[133.672,42.853],[133.594,42.852],[133.419,42.771],[133.237,42.744],[133.177,42.694],[132.977,42.677],[132.947,42.713],[132.968,42.764],[132.946,42.773],[132.918,42.723],[132.889,42.767],[132.807,42.765],[132.76,42.835],[132.772,42.871],[132.707,42.882],[132.575,42.841],[132.395,42.929],[132.346,42.901],[132.36,42.86],[132.311,42.848],[132.301,43.013],[132.244,43.101],[132.273,43.203],[132.204,43.167],[132.182,43.195],[131.951,43.072],[131.842,43.063],[131.921,43.023],[131.885,42.962],[131.757,42.99],[131.791,42.996],[131.785,43.047],[131.859,43.037],[131.833,43.061],[131.725,43.037],[131.917,43.263],[131.84,43.256],[131.865,43.29],[131.756,43.26],[131.723,43.21],[131.752,43.177],[131.695,43.202],[131.647,43.169],[131.695,43.175],[131.563,43.038],[131.562,42.997],[131.499,43.0],[131.493,42.943],[131.394,42.945],[131.4,42.873],[131.471,42.875],[131.379,42.831],[131.356,42.776],[131.273,42.777],[131.237,42.707],[131.259,42.676],[131.201,42.614],[131.234,42.589],[131.219,42.557],[131.129,42.617],[131.12,42.667],[130.872,42.604],[130.822,42.566],[130.869,42.526],[130.836,42.473],[130.787,42.462],[130.702,42.298],[130.533,42.526],[130.585,42.569],[130.572,42.622],[130.504,42.678],[130.383,42.701],[130.585,42.817],[130.735,42.825],[130.794,42.869],[130.992,42.849],[131.023,42.896],[131.103,42.91],[131.078,43.032],[131.184,43.121],[131.169,43.202],[131.238,43.266],[131.281,43.38],[131.274,43.451],[131.161,43.533],[131.192,43.589],[131.17,43.781],[131.217,43.908],[131.207,43.975],[131.264,44.054],[131.066,44.682],[130.987,44.769],[130.992,44.818],[131.314,44.964],[131.434,44.961],[131.609,45.09],[131.616,45.186],[131.711,45.209],[131.755,45.257],[131.919,45.241],[132.531,45.032],[132.777,44.988],[132.863,45.049],[132.966,45.029],[133.115,45.123],[133.103,45.289],[133.301,45.542],[133.413,45.573],[133.427,45.615],[133.477,45.628],[133.488,45.687],[133.446,45.71],[133.511,45.779],[133.478,45.809],[133.521,45.883],[133.586,45.876],[133.616,45.935],[133.658,45.935],[133.72,46.064],[133.69,46.143],[133.902,46.259],[133.916,46.313],[133.865,46.339],[133.934,46.391],[133.846,46.472],[133.903,46.574],[134.015,46.665],[134.045,46.772],[134.017,46.821],[134.07,46.982],[134.124,47.07],[134.227,47.118],[134.155,47.256],[134.183,47.327],[134.313,47.42],[134.485,47.43],[134.557,47.471],[134.773,47.711],[134.714,47.783],[134.659,48.102],[134.719,48.263],[134.611,48.285],[134.543,48.357],[134.471,48.34],[134.386,48.381],[134.206,48.36],[133.966,48.279],[133.738,48.251],[133.585,48.156],[133.354,48.104],[133.224,48.126],[133.092,48.107],[132.857,47.98],[132.689,47.958],[132.658,47.915],[132.267,47.778],[130.943,47.733],[130.942,47.821],[130.794,47.973],[130.726,48.171],[130.819,48.282],[130.822,48.334],[130.743,48.411],[130.744,48.497],[130.626,48.483],[130.62,48.56],[130.555,48.669],[130.674,48.871],[130.511,48.856],[130.384,48.964],[129.848,49.133],[129.842,49.167],[129.742,49.195],[129.711,49.274],[129.552,49.291],[129.528,49.385],[129.481,49.421],[129.379,49.425],[129.341,49.341],[129.218,49.391],[129.128,49.352],[129.068,49.362],[128.998,49.441],[128.879,49.48],[128.761,49.471],[128.802,49.565],[128.672,49.611],[128.629,49.576],[128.384,49.579],[128.343,49.548],[128.196,49.539],[127.714,49.699],[127.517,49.874],[127.534,49.922],[127.487,50.026],[127.57,50.13],[127.591,50.209],[127.332,50.327],[127.359,50.415],[127.292,50.467],[127.367,50.578],[127.289,50.675],[127.287,50.751],[126.931,51.065],[126.905,51.208],[126.972,51.324],[126.899,51.316],[126.869,51.252],[126.81,51.288],[126.827,51.338],[126.909,51.391],[126.799,51.421],[126.83,51.508],[126.807,51.534],[126.678,51.576],[126.724,51.636],[126.726,51.709],[126.647,51.742],[126.44,51.996],[126.514,52.043],[126.556,52.131],[126.333,52.195],[126.321,52.232],[126.439,52.275],[126.321,52.314],[126.344,52.391],[126.276,52.463],[126.209,52.468],[126.212,52.533],[126.157,52.555],[126.038,52.724],[126.104,52.754],[126.088,52.775],[125.989,52.771],[125.853,52.947],[125.509,53.157],[125.236,53.166],[125.073,53.212],[124.898,53.186],[124.882,53.134],[124.721,53.149],[124.652,53.209],[124.384,53.246],[124.253,53.375],[124.121,53.353],[123.971,53.455],[123.702,53.51],[123.614,53.563],[123.542,53.515],[123.514,53.562],[123.478,53.518],[123.277,53.569],[123.154,53.513],[122.403,53.451],[122.317,53.496],[122.082,53.43],[121.889,53.431],[121.641,53.385],[121.513,53.33],[121.341,53.324],[121.204,53.277],[120.846,53.273],[120.278,52.865],[120.033,52.761],[120.052,52.694],[120.03,52.639],[120.079,52.59],[120.454,52.638],[120.717,52.544],[120.626,52.347],[120.757,52.238],[120.776,52.117],[120.697,52.049],[120.711,51.993],[120.648,51.913],[120.493,51.876],[120.166,51.67],[120.1,51.66],[120.052,51.552],[119.977,51.487],[119.954,51.4],[119.895,51.384],[119.912,51.331],[119.82,51.275],[119.81,51.217],[119.762,51.215],[119.781,51.173],[119.741,51.073],[119.518,50.905],[119.495,50.736],[119.294,50.599],[119.244,50.446],[119.138,50.393],[119.175,50.356],[119.353,50.343],[119.317,50.094],[119.192,50.009],[119.093,49.987],[118.644,49.955],[117.871,49.513],[117.757,49.513],[117.473,49.614],[117.254,49.622],[117.057,49.673],[116.721,49.803],[116.577,49.926],[116.219,50.019],[116.052,50.003],[115.717,49.883],[115.39,49.896],[115.211,49.977],[115.0,50.149],[114.756,50.241],[114.472,50.239],[114.286,50.282],[113.971,50.165],[113.847,50.085],[113.751,50.083],[113.456,49.962],[113.179,49.806],[113.083,49.69],[113.055,49.6],[112.777,49.506],[112.473,49.539],[112.03,49.417],[111.66,49.401],[111.476,49.348],[111.337,49.37],[110.841,49.167],[110.688,49.14],[110.372,49.247],[110.181,49.167],[109.729,49.271],[109.516,49.261],[109.453,49.311],[109.287,49.344],[108.541,49.332],[108.34,49.439],[108.239,49.537],[108.106,49.56],[108.019,49.607],[108.019,49.66],[107.937,49.675],[107.961,49.745],[107.949,49.938],[107.193,50.011],[107.062,50.077],[106.976,50.201],[106.658,50.332],[106.226,50.297],[106.06,50.338],[105.986,50.405],[105.278,50.478],[105.106,50.395],[104.901,50.395],[104.608,50.319],[104.404,50.305],[104.122,50.153],[103.785,50.191],[103.664,50.136],[103.439,50.198],[103.279,50.202],[103.203,50.302],[102.928,50.308],[102.621,50.404],[102.515,50.508],[102.33,50.55],[102.285,50.596],[102.28,50.646],[102.334,50.72],[102.22,50.805],[102.235,50.98],[102.151,51.102],[102.14,51.232],[102.198,51.305],[102.186,51.328],[102.053,51.388],[101.725,51.455],[101.527,51.481],[101.353,51.455],[101.243,51.52],[101.118,51.533],[100.512,51.732],[99.921,51.754],[99.711,51.885],[99.324,51.939],[99.235,51.999],[99.0,52.062],[98.946,52.128],[98.935,52.196],[98.817,52.199],[98.802,52.279],[98.714,52.298],[98.652,52.266],[98.682,52.37],[98.641,52.419],[98.718,52.454],[98.733,52.5],[98.809,52.51],[98.831,52.542],[98.808,52.605],[98.938,52.663],[98.942,52.8],[98.871,52.799],[98.857,52.833],[98.93,52.913],[99.208,52.849],[99.253,52.958],[98.994,53.038],[99.069,53.1],[98.939,53.154],[98.861,53.13],[98.687,53.16],[98.599,53.109],[98.308,53.108],[98.291,53.228],[98.032,53.258],[97.978,53.295],[97.959,53.363],[97.611,53.377],[97.589,53.442],[97.451,53.467],[97.336,53.599],[97.128,53.618],[96.885,53.733],[96.724,53.709],[96.653,53.559],[96.563,53.539],[96.443,53.519],[96.367,53.563],[96.375,53.604],[96.295,53.589],[96.301,53.616],[96.251,53.621],[96.184,53.521],[96.111,53.494],[96.092,53.456],[95.756,53.525],[95.395,53.377],[95.306,53.4],[95.293,53.449],[95.246,53.462],[95.051,53.382],[94.976,53.41],[94.739,53.388],[94.581,53.308],[94.673,53.275],[94.693,53.239],[94.6,53.179],[94.597,53.047],[94.508,52.915],[94.304,52.909],[94.146,52.846],[94.134,52.763],[94.067,52.671],[93.98,52.637],[93.978,52.582],[93.761,52.443],[93.76,52.368],[93.683,52.298],[93.669,52.225],[93.358,52.134],[93.228,52.042],[93.131,52.017],[93.071,51.949],[92.899,51.9],[92.854,51.839],[92.672,51.845],[92.506,51.787],[92.209,51.811],[92.104,51.788],[91.947,51.809],[91.885,51.861],[91.628,51.872],[91.558,51.905],[91.238,51.888],[91.101,51.948],[90.856,51.913],[90.739,52.073],[90.564,52.125],[90.493,52.187],[90.349,52.197],[90.137,52.143],[90.114,52.047],[90.023,51.985],[90.096,51.759],[90.035,51.741],[89.963,51.766],[89.725,51.586],[89.581,51.558],[89.42,51.61],[89.258,51.554],[89.221,51.573],[89.238,51.646],[89.206,51.663],[89.032,51.605],[88.732,51.563],[88.962,51.424],[88.941,51.226],[89.037,51.17],[89.056,51.052],[89.193,50.958],[86.997,49.291],[87.037,49.243],[87.27,49.206],[87.319,49.091],[87.116,49.13],[86.838,49.094],[86.709,48.954],[86.786,48.84],[86.739,48.784],[86.75,48.713],[86.565,48.528],[86.307,48.483],[86.192,48.418],[86.006,48.43],[85.747,48.39],[85.586,48.141],[85.518,47.945],[85.595,47.625],[85.585,47.493],[85.671,47.382],[85.679,47.276],[85.657,47.204],[85.557,47.179],[85.498,47.053],[85.226,47.042],[84.918,46.852],[84.74,46.815],[84.716,46.835],[84.752,46.918],[84.664,46.984],[84.266,47.0],[84.07,46.965],[83.905,46.974],[83.525,47.067],[83.15,47.212],[83.021,47.206],[82.986,46.945],[82.839,46.733],[82.675,46.332],[82.568,46.197],[82.489,45.901],[82.372,45.734],[82.292,45.533],[82.362,45.481],[82.63,45.418],[82.615,45.25],[82.541,45.126],[82.474,45.116],[82.245,45.232],[81.948,45.145],[81.796,45.196],[81.739,45.338],[81.665,45.348],[81.541,45.293],[80.856,45.127],[80.697,45.144],[80.445,45.104],[80.389,45.046],[80.103,45.032],[79.843,44.874],[79.992,44.794],[80.243,44.816],[80.497,44.717],[80.356,44.653],[80.382,44.6],[80.33,44.453],[80.373,44.231],[80.339,44.121],[80.403,44.048],[80.712,43.46],[80.643,43.326],[80.748,43.275],[80.793,43.149],[80.732,43.101],[80.618,43.134],[80.368,43.029],[80.374,42.975],[80.542,42.916],[80.549,42.879],[80.872,42.941],[80.905,42.921],[80.963,42.951],[80.971,42.988],[80.806,43.221],[80.837,43.286],[80.912,43.294],[80.947,43.348],[80.791,43.403],[80.761,43.494],[80.797,43.58],[80.722,43.592],[80.728,43.626],[80.794,43.607],[80.794,43.658],[80.756,43.766],[80.773,43.802],[80.674,43.845],[80.742,43.926],[80.739,44.016],[80.681,44.1],[80.7,44.136],[80.645,44.181],[80.567,44.173],[80.552,44.103],[80.588,44.022],[80.529,44.03],[80.535,44.19],[80.632,44.261],[80.632,44.306],[80.608,44.26],[80.584,44.29],[80.549,44.274],[80.438,44.394],[80.452,44.492],[80.503,44.555],[80.626,44.588],[80.657,44.627],[80.704,44.601],[80.696,44.576],[80.844,44.549],[80.807,44.44],[80.831,44.41],[80.861,44.43],[80.83,44.433],[80.827,44.468],[80.942,44.537],[81.257,44.454],[81.603,44.427],[81.739,44.347],[81.982,44.292],[82.345,44.261],[82.428,44.179],[82.636,44.124],[82.706,44.076],[82.891,44.054],[82.979,44.091],[83.124,44.092],[83.237,44.075],[83.314,44.006],[83.461,44.039],[83.618,43.965],[83.896,43.946],[83.932,43.902],[84.075,43.877],[84.111,43.804],[84.249,43.784],[84.316,43.721],[84.511,43.75],[84.626,43.727],[84.603,43.66],[84.78,43.64],[84.818,43.58],[84.89,43.572],[84.889,43.533],[84.945,43.476],[84.898,43.419],[84.655,43.487],[84.628,43.439],[84.686,43.401],[84.673,43.372],[84.551,43.33],[84.53,43.291],[84.536,43.261],[84.58,43.26],[84.559,43.231],[84.647,43.173],[84.423,43.162],[84.409,43.108],[84.36,43.158],[84.277,43.174],[84.031,43.133],[83.96,43.155],[83.896,43.122],[83.755,43.148],[83.647,43.085],[83.564,43.091],[83.359,43.028],[83.262,43.023],[83.256,43.059],[83.207,43.067],[83.187,43.008],[82.826,42.981],[82.784,42.933],[82.652,42.935],[82.649,42.976],[82.601,43.008],[82.644,42.882],[82.53,42.901],[82.467,42.842],[82.477,42.799],[82.541,42.772],[82.623,42.668],[82.627,42.582],[82.591,42.546],[82.373,42.547],[82.293,42.666],[82.201,42.679],[82.222,42.495],[82.186,42.47],[82.135,42.488],[82.127,42.436],[81.865,42.41],[81.853,42.376],[81.788,42.413],[81.732,42.36],[81.658,42.393],[81.362,42.334],[81.318,42.358],[81.194,42.343],[81.149,42.322],[81.149,42.26],[81.043,42.287],[80.984,42.38],[80.839,42.352],[80.571,42.367],[80.426,42.305],[80.239,42.342],[80.209,42.466],[80.277,42.515],[80.226,42.6],[80.286,42.648],[80.285,42.731],[80.499,42.863],[80.265,42.824],[80.14,42.623],[80.21,42.491],[80.196,42.434],[80.268,42.24],[80.21,42.19],[80.257,42.082],[80.23,42.033],[79.843,42.002],[79.748,41.88],[79.611,41.868],[79.392,41.773],[79.282,41.784],[78.658,41.533],[78.618,41.478],[78.36,41.378],[78.349,41.271],[78.073,41.039],[77.831,41.063],[77.503,40.981],[77.008,41.044],[76.861,41.013],[76.767,40.945],[76.762,40.847],[76.648,40.765],[76.609,40.598],[76.556,40.566],[76.477,40.437],[76.317,40.345],[76.244,40.441],[76.154,40.369],[76.052,40.39],[75.902,40.299],[75.683,40.293],[75.639,40.383],[75.667,40.45],[75.56,40.633],[75.482,40.614],[75.204,40.443],[75.004,40.447],[74.835,40.512],[74.787,40.421],[74.857,40.325],[74.706,40.331],[74.336,40.094],[74.168,40.106],[73.966,40.033],[73.823,39.806],[73.829,39.747],[73.894,39.709],[73.926,39.594],[73.837,39.475],[73.635,39.449],[73.477,39.465],[73.168,39.355],[72.834,39.356],[72.634,39.394],[72.575,39.36],[72.519,39.376],[72.316,39.329],[72.219,39.128],[72.131,39.086],[72.113,39.026],[72.027,38.957],[72.007,38.885],[72.057,38.804],[71.974,38.736],[71.847,38.712],[71.75,38.647],[71.605,38.637],[71.533,38.574],[71.525,38.53],[71.428,38.479],[71.372,38.514],[71.276,38.49],[71.178,38.608],[71.043,38.607],[71.051,38.699],[71.007,38.803],[70.844,38.761],[70.775,38.761],[70.733,38.804],[70.663,38.783],[70.545,38.717],[70.591,38.655],[70.342,38.418],[70.341,38.155],[70.274,38.036],[70.295,37.998],[70.252,37.937],[70.172,37.946],[70.161,37.921],[70.179,37.861],[70.272,37.775],[70.283,37.704],[70.159,37.542],[70.009,37.549],[69.919,37.617],[69.803,37.582],[69.529,37.586],[69.384,37.453],[69.41,37.246],[69.441,37.23],[69.324,37.121],[69.244,37.105],[69.126,37.168],[68.985,37.32],[68.888,37.338],[68.913,37.281],[68.836,37.329],[68.81,37.312],[68.816,37.254],[68.669,37.278],[68.625,37.206],[68.404,37.152],[68.394,37.106],[68.288,37.103],[68.278,37.012],[68.186,37.018],[68.032,36.926],[67.878,37.064],[67.785,37.097],[67.776,37.208],[67.747,37.229],[67.633,37.254],[67.56,37.222],[67.503,37.282],[67.257,37.186],[67.124,37.283],[67.097,37.341],[67.006,37.384],[66.695,37.344],[66.517,37.366],[66.497,37.396],[66.547,37.451],[66.494,37.522],[66.519,37.782],[66.646,37.946],[66.624,37.994],[66.308,38.08],[66.231,38.149],[65.877,38.273],[65.738,38.224],[65.606,38.237],[65.207,38.449],[64.978,38.612],[64.635,38.744],[64.337,38.971],[64.119,38.963],[63.708,39.192],[63.478,39.403],[62.593,39.89],[62.452,40.012],[62.422,40.114],[62.436,40.194],[62.353,40.43],[62.192,40.499],[62.043,40.718],[61.971,41.016],[61.878,41.125],[61.568,41.278],[61.411,41.292],[61.387,41.236],[61.279,41.157],[61.01,41.237],[60.978,41.003],[60.248,41.001],[60.255,40.342],[60.471,40.329],[60.492,40.301],[60.509,39.493],[60.388,39.474],[60.315,39.53],[60.275,39.624],[60.157,39.622],[60.084,39.584],[60.012,39.64],[59.994,39.999],[59.184,40.004],[59.107,40.018],[58.988,40.11],[58.478,40.214],[58.386,40.211],[58.371,40.158],[58.246,40.164],[58.003,40.109],[57.479,40.102],[57.281,40.032],[57.184,40.071],[57.081,40.177],[57.129,40.304],[57.029,40.554],[56.91,40.664],[56.778,40.931],[56.656,41.031],[56.66,41.077],[56.603,41.105],[56.534,41.299],[55.91,41.327],[55.633,41.264],[55.449,41.28],[55.373,41.376],[55.228,41.473],[54.951,41.796],[54.907,41.932],[54.738,42.048],[54.195,42.318],[54.047,42.345],[53.478,42.269],[52.979,42.127],[52.44,41.756],[52.491,41.902],[52.404,42.095],[52.437,42.179],[52.594,42.335],[52.676,42.538],[52.663,42.613],[52.564,42.741],[52.663,42.667],[52.71,42.585],[52.741,42.638],[52.713,42.731],[52.471,42.826],[52.357,42.832],[52.277,42.797],[52.169,42.887],[51.913,42.842],[51.772,43.031],[51.676,43.102],[51.651,43.191],[51.507,43.155],[51.267,43.161],[51.313,43.311],[51.315,43.463],[51.273,43.559],[51.116,43.66],[50.991,43.908],[50.86,44.028],[50.847,44.189],[50.696,44.264],[50.278,44.337],[50.23,44.392],[50.224,44.564],[50.268,44.57],[50.313,44.661],[50.757,44.605],[50.787,44.633],[50.872,44.629],[51.115,44.488],[51.366,44.56],[51.374,44.528],[51.56,44.511],[51.554,44.551],[51.439,44.61],[51.318,44.598],[51.234,44.719],[50.963,44.863],[50.994,44.937],[50.953,44.955],[50.96,44.979],[51.195,45.064],[51.273,45.025],[51.246,45.165],[51.417,45.384],[51.494,45.335],[51.593,45.345],[51.7,45.392],[51.757,45.455],[51.792,45.405],[51.94,45.367],[52.008,45.395],[52.519,45.409],[52.91,45.313],[53.108,45.3],[53.258,45.341],[52.754,45.517],[52.734,45.553],[52.747,45.64],[52.954,45.83],[53.082,46.005],[53.157,46.272],[53.128,46.394],[53.033,46.471],[53.102,46.444],[53.082,46.512],[53.016,46.479],[52.997,46.503],[53.04,46.574],[53.054,46.546],[53.088,46.553],[53.106,46.609],[53.201,46.643],[53.208,46.695],[53.106,46.739],[53.06,46.892],[52.957,46.927],[52.551,46.978],[52.378,46.875],[52.22,46.85],[52.236,46.807],[52.113,46.813],[52.038,46.865],[51.864,46.893],[51.885,46.933],[51.762,46.917],[51.678,46.976],[51.695,47.031],[51.633,47.043],[51.596,46.987],[51.527,47.053],[51.382,47.084],[51.117,47.063],[50.874,46.975],[50.819,46.919],[50.631,46.91],[50.572,46.83],[50.552,46.835],[50.579,46.877],[50.485,46.818],[50.449,46.836],[50.41,46.775],[50.328,46.76],[50.252,46.681],[50.177,46.693],[50.084,46.613],[49.946,46.559],[49.703,46.519],[49.624,46.537],[49.579,46.499],[49.535,46.542],[49.287,46.34],[49.264,46.293],[49.299,46.253],[49.243,46.269],[49.159,46.239],[49.112,46.156],[48.833,46.083],[48.832,46.01],[48.778,46.011],[48.806,45.907],[48.757,45.894],[48.791,45.841],[48.721,45.838],[48.716,45.814],[48.687,45.848],[48.71,45.882],[48.598,45.953],[48.305,45.77],[48.223,45.753],[48.243,45.71],[48.161,45.742],[47.845,45.686],[47.819,45.611],[47.752,45.691],[47.628,45.732],[47.685,45.659],[47.693,45.529],[47.588,45.508],[47.437,45.293],[47.395,45.175],[47.332,45.141],[47.158,44.855],[46.949,44.734],[47.002,44.736],[46.985,44.721],[46.937,44.722],[46.763,44.607],[46.748,44.467],[46.935,44.432],[46.95,44.393],[47.1,44.343],[47.147,44.266],[47.31,44.189],[47.502,43.891],[47.519,43.912],[47.548,43.87],[47.713,43.925],[47.753,43.912],[47.607,43.746],[47.54,43.586],[47.487,43.311],[47.509,43.292],[47.555,43.34],[47.585,43.3],[47.49,43.176],[47.459,43.042],[47.699,42.868],[47.721,42.702],[47.76,42.633],[47.888,42.581],[47.94,42.48],[48.098,42.348],[48.302,42.105],[48.387,41.937],[48.491,41.914],[48.655,41.801],[48.904,41.523],[49.029,41.429],[49.136,41.275],[49.195,41.057],[49.382,40.867],[49.535,40.79],[49.51,40.699],[49.539,40.654],[49.817,40.565],[50.052,40.584],[50.109,40.527],[50.238,40.495],[50.361,40.363],[50.388,40.221],[50.253,40.336],[50.128,40.359],[49.987,40.324],[49.893,40.369],[49.819,40.293],[49.577,40.217],[49.493,40.154],[49.495,40.096],[49.433,40.063],[49.48,39.99],[49.424,39.936],[49.442,39.873],[49.395,39.783],[49.424,39.711],[49.318,39.622],[49.285,39.522],[49.296,39.477],[49.407,39.389],[49.407,39.324],[49.367,39.351],[49.407,39.289],[49.307,39.346],[49.247,39.311],[49.202,39.032],[49.083,38.964],[49.055,39.004],[49.126,39.028],[49.148,39.084],[49.07,39.113],[49.041,39.184],[48.968,39.184],[48.935,39.124],[48.952,39.029],[48.922,38.937],[48.87,38.866],[48.832,38.871],[48.874,38.439],[48.778,38.445],[48.66,38.393],[48.577,38.419],[48.415,38.618],[48.309,38.602],[48.23,38.662],[48.223,38.722],[47.995,38.848],[47.993,38.894],[48.062,38.948],[48.294,39.005],[48.307,39.046],[48.271,39.108],[48.142,39.182],[48.106,39.267],[48.153,39.319],[48.339,39.379],[47.971,39.705],[47.823,39.68],[47.541,39.516],[47.407,39.477],[47.29,39.379],[47.102,39.308],[47.02,39.191],[46.866,39.165],[46.555,38.891],[46.378,38.925],[46.126,38.863],[45.44,39.004],[45.434,39.053],[45.311,39.201],[45.152,39.218],[45.088,39.351],[44.956,39.436],[44.872,39.625],[44.648,39.719],[44.59,39.772],[44.459,39.698],[44.487,39.641],[44.416,39.557],[44.42,39.413],[44.294,39.378],[44.224,39.418],[44.07,39.412],[44.029,39.364],[43.88,39.337],[43.811,39.537],[43.755,39.57],[43.759,39.596],[43.823,39.61],[43.756,39.656],[43.568,39.687],[43.559,39.834],[43.399,39.784],[43.336,39.84],[43.32,39.968],[43.359,40.041],[43.665,40.11],[43.657,40.142],[43.712,40.156],[43.721,40.169],[43.676,40.266],[43.596,40.344],[43.616,40.391],[43.591,40.345],[43.676,40.262],[43.653,40.225],[43.708,40.163],[43.482,40.106],[43.375,40.131],[43.346,40.118],[43.358,40.046],[43.268,39.994],[42.884,39.981],[42.943,39.846],[42.915,39.775],[42.872,39.753],[42.904,39.73],[42.851,39.676],[42.484,39.688],[42.304,39.77],[42.28,39.818],[42.3,39.851],[42.245,39.86],[42.083,39.831],[42.067,39.793],[41.938,39.81],[41.883,39.728],[41.826,39.728],[41.813,39.701],[41.782,39.719],[41.759,39.685],[41.689,39.809],[41.639,39.803],[41.627,39.838],[41.49,39.834],[41.478,39.944],[41.436,39.959],[41.413,40.031],[41.557,40.191],[41.622,40.204],[41.818,40.13],[42.016,40.23],[42.082,40.308],[42.118,40.293],[42.133,40.351],[42.488,40.392],[42.466,40.513],[42.602,40.629],[42.62,40.68],[42.564,40.777],[42.463,40.829],[42.392,40.789],[42.342,40.808],[42.364,40.895],[42.329,40.905],[42.376,40.995],[42.361,41.08],[42.502,41.172],[42.591,41.288],[42.516,41.405],[42.514,41.466],[42.573,41.51],[42.599,41.582],[42.488,41.698],[42.485,41.802],[42.384,41.844],[42.231,41.804],[42.063,41.817],[41.906,41.903],[41.773,41.908],[41.734,41.752],[41.616,41.638],[41.724,41.832],[41.711,41.983],[41.658,42.053],[41.503,42.609],[41.424,42.74],[41.225,42.802],[41.151,42.795],[41.023,42.99],[40.936,42.982],[40.856,43.063],[40.592,43.086],[40.398,43.162],[40.333,43.145],[40.265,43.263],[40.101,43.365],[39.936,43.405],[39.868,43.496],[39.72,43.567],[39.329,43.896],[39.117,44.023],[38.978,44.148],[38.858,44.183],[38.758,44.274],[38.595,44.332],[38.182,44.404],[38.042,44.56],[37.985,44.564],[37.875,44.689],[37.78,44.729],[37.822,44.667],[37.799,44.635],[37.48,44.676],[37.371,44.749],[37.295,44.866],[37.306,44.91],[37.192,44.991],[36.84,45.109],[36.7,45.104],[36.578,45.188],[36.962,45.283],[36.947,45.32],[36.788,45.294],[36.76,45.355],[36.803,45.313],[36.848,45.367],[36.782,45.388],[36.668,45.326],[36.707,45.392],[36.83,45.442],[37.132,45.339],[37.107,45.274],[37.186,45.299],[37.161,45.326],[37.388,45.312],[37.506,45.361],[37.505,45.334],[37.661,45.345],[37.7,45.563],[37.623,45.601],[37.662,45.559],[37.635,45.553],[37.629,45.431],[37.597,45.421],[37.601,45.651],[37.629,45.666],[37.615,45.642],[37.679,45.611],[37.703,45.622],[37.671,45.671],[37.83,45.753],[37.942,46.021],[38.091,46.06],[38.033,46.025],[38.136,46.015],[38.169,46.119],[38.247,46.141],[38.387,46.061],[38.497,46.085],[38.123,46.378],[37.981,46.4],[38.019,46.368],[37.993,46.355],[37.905,46.411],[37.827,46.478],[37.733,46.672],[37.823,46.635],[38.214,46.696],[38.269,46.73],[38.29,46.706],[38.376,46.718],[38.404,46.821],[38.458,46.858],[38.686,46.864],[39.103,47.043],[39.152,47.028],[39.27,47.07],[39.232,47.088],[39.263,47.112],[39.16,47.269],[38.941,47.245],[38.957,47.205],[38.931,47.185],[38.559,47.136],[38.572,47.115],[38.487,47.138],[38.525,47.192],[38.514,47.191],[38.476,47.144],[38.224,47.108],[38.108,47.026],[38.13,47.075],[38.072,47.1],[37.561,47.085],[37.333,46.882],[37.243,46.935],[37.191,46.894],[36.916,46.823],[36.766,46.63],[36.744,46.65],[36.802,46.725],[36.696,46.78],[36.379,46.709],[36.234,46.562],[36.257,46.621],[36.19,46.669],[35.903,46.653],[35.491,46.448],[35.38,46.369],[35.16,46.128],[34.986,46.08],[35.037,46.147],[35.201,46.183],[35.27,46.266],[35.218,46.281],[35.24,46.309],[35.22,46.337],[35.171,46.293],[34.897,46.241],[34.813,46.161],[34.889,45.908],[35.044,45.67],[35.332,45.371],[35.394,45.341],[35.515,45.346],[35.679,45.378],[35.834,45.471],[35.988,45.414],[36.021,45.443],[36.285,45.476],[36.299,45.443],[36.586,45.426],[36.636,45.35],[36.502,45.347],[36.492,45.295],[36.437,45.272],[36.409,45.149],[36.455,45.09],[36.438,45.067],[36.268,45.044],[36.227,45.008],[36.048,45.049],[35.992,44.998],[35.848,44.993],[35.791,45.051],[35.6,45.102],[35.446,45.087],[35.397,45.035],[35.426,45.006],[35.362,44.987],[35.367,44.943],[35.256,44.959],[35.154,44.901],[35.08,44.795],[34.952,44.842],[34.757,44.82],[34.5,44.743],[34.414,44.674],[34.331,44.547],[34.271,44.545],[34.104,44.425],[33.938,44.381],[33.766,44.398],[33.852,44.432],[33.815,44.51],[33.395,44.6],[33.494,44.702],[33.475,44.762],[33.568,44.903],[33.511,45.13],[33.397,45.19],[33.26,45.158],[32.941,45.343],[32.728,45.361],[32.663,45.32],[32.591,45.32],[32.514,45.341],[32.483,45.406],[32.505,45.446],[32.904,45.673],[33.639,45.927],[33.553,46.087],[33.506,46.08],[33.516,46.046],[33.426,46.053],[33.358,46.104],[33.29,46.095],[33.316,46.131],[33.215,46.128],[33.226,46.16],[32.914,46.115],[32.766,46.136],[32.502,46.076],[32.265,46.128],[32.25,46.164],[32.05,46.266],[31.886,46.32],[31.882,46.279],[31.787,46.292],[31.77,46.321],[31.816,46.348],[31.978,46.356],[31.926,46.41],[31.988,46.453],[31.826,46.48],[31.85,46.52],[32.071,46.511],[32.145,46.562],[32.118,46.607],[32.024,46.629],[31.981,46.676],[31.94,46.762],[31.951,46.865],[31.865,46.782],[31.906,46.738],[31.908,46.665],[31.859,46.629],[31.674,46.653],[31.558,46.615],[31.484,46.637],[31.521,46.699],[31.339,46.602],[31.159,46.629],[30.816,46.559],[30.76,46.501],[30.798,46.446],[30.771,46.395],[30.714,46.348],[30.652,46.345],[30.681,46.298],[30.493,46.08],[30.219,45.864],[29.636,45.511],[29.629,45.483],[29.679,45.458],[29.745,45.49],[29.748,45.462],[29.784,45.462],[29.763,45.368],[29.783,45.318],[29.754,45.223],[29.624,45.216],[29.7,45.162],[29.664,45.117],[29.611,44.85],[29.561,44.822],[29.156,44.784],[29.001,44.689],[28.975,44.745],[29.139,44.804],[29.096,44.875],[29.104,44.84],[29.061,44.834],[29.044,44.866],[29.051,44.942],[29.111,44.97],[28.973,45.011],[28.869,44.943],[28.866,44.883],[28.945,44.831],[28.925,44.813],[28.946,44.765],[28.798,44.72],[28.784,44.649],[28.87,44.662],[28.912,44.696],[28.898,44.717],[28.967,44.701],[28.987,44.675],[28.952,44.696],[28.774,44.601],[28.795,44.634],[28.758,44.627],[28.764,44.596],[28.788,44.586],[28.733,44.568],[28.772,44.551],[28.758,44.465],[28.925,44.621],[28.845,44.495],[28.635,44.316],[28.672,44.169],[28.631,44.154],[28.671,43.996],[28.577,43.74],[28.239,43.758],[27.998,43.842],[27.917,44.008],[27.738,43.954],[27.644,44.048],[27.609,44.012],[27.399,44.014],[27.291,44.076],[27.277,44.129],[27.452,44.124],[27.596,44.197],[27.723,44.196],[27.847,44.258],[27.935,44.25],[28.11,44.435],[28.015,44.572],[28.018,44.647],[27.871,44.729],[27.901,44.773],[28.011,44.757],[28.067,44.785],[28.142,44.889],[28.136,45.096],[28.198,45.137],[28.097,45.189],[28.131,45.232],[28.116,45.259],[27.997,45.29],[28.043,45.417],[28.101,45.44],[28.193,45.416],[28.252,45.512],[28.194,45.467],[28.141,45.56],[28.069,45.595],[28.168,45.632],[28.083,46.017],[28.145,46.183],[28.114,46.232],[28.178,46.287],[28.246,46.428],[28.219,46.506],[28.244,46.635],[28.124,46.831],[28.069,46.989],[27.805,47.146],[27.733,47.276],[27.638,47.307],[27.575,47.375],[27.576,47.46],[27.474,47.492],[27.428,47.581],[27.283,47.691],[27.288,47.752],[27.232,47.81],[27.258,47.831],[27.173,47.92],[27.173,47.986],[27.047,48.079],[27.052,48.126],[26.807,48.263],[26.631,48.273],[26.685,48.323],[26.777,48.283],[26.786,48.366],[26.842,48.387],[26.943,48.346],[27.035,48.356],[27.038,48.394],[27.209,48.356],[27.339,48.43],[27.422,48.413],[27.509,48.472],[27.442,48.606],[27.371,48.635],[27.332,48.607],[27.254,48.626],[27.229,48.619],[27.243,48.576],[26.945,48.586],[26.862,48.546],[26.821,48.611],[26.784,48.605],[26.769,48.558],[26.716,48.6],[26.722,48.542],[26.608,48.552],[26.688,48.504],[26.614,48.512],[26.611,48.463],[26.584,48.458],[26.472,48.543],[26.381,48.529],[26.375,48.577],[26.315,48.609],[26.32,48.646],[26.244,48.684],[26.236,48.78],[26.269,48.809],[26.223,48.84],[26.228,48.899],[26.202,48.912],[26.226,49.0],[26.207,49.039],[26.236,49.074],[26.204,49.183],[26.263,49.29],[26.234,49.399],[26.155,49.515],[26.258,49.652],[26.211,49.699],[26.238,49.78],[26.193,49.823],[26.158,49.959],[26.235,49.991],[26.219,50.082],[26.278,50.107],[26.21,50.208],[26.225,50.266],[25.946,50.269],[25.807,50.184],[25.564,50.146],[25.452,50.168],[25.457,50.101],[25.359,50.022],[25.197,50.108],[25.175,50.215],[25.212,50.249],[25.198,50.292],[25.08,50.288],[25.057,50.349],[24.933,50.375],[24.718,50.35],[24.559,50.443],[24.515,50.413],[24.467,50.466],[24.54,50.497],[24.504,50.55],[24.436,50.554],[24.359,50.615],[24.252,50.584],[24.153,50.649],[24.081,50.607],[24.097,50.538],[24.007,50.497],[23.979,50.411],[23.93,50.396],[23.712,50.387],[23.652,50.335],[23.464,50.426],[23.331,50.428],[23.154,50.327],[22.858,50.322],[22.732,50.345],[22.766,50.366],[22.741,50.382],[22.489,50.378],[22.412,50.633],[22.225,50.665],[22.24,50.727],[21.898,50.811],[21.844,50.781],[21.806,50.698],[21.742,50.679],[21.593,50.53],[21.433,50.491],[21.427,50.458],[21.248,50.402],[21.178,50.341],[21.119,50.354],[20.825,50.281],[20.782,50.302],[20.629,50.179],[20.457,50.198],[20.268,50.11],[20.18,50.147],[19.312,50.273],[18.776,50.184],[18.65,50.648],[18.145,50.992],[18.124,51.601],[18.081,51.647],[18.116,51.692],[18.009,51.718],[17.99,51.778],[17.95,51.792],[18.016,51.8],[18.012,51.846],[17.662,52.101],[17.646,52.168],[17.821,52.258],[17.845,52.313],[17.881,52.307],[17.9,52.374],[17.944,52.376],[17.945,52.422],[18.134,52.506],[18.26,52.481],[18.351,52.543],[18.469,52.536],[18.47,52.685],[18.5,52.692],[18.506,52.746],[18.604,52.754],[18.575,52.821],[18.596,52.86],[18.761,52.932],[18.786,53.016],[18.763,53.031],[18.808,53.066],[18.959,53.063],[18.994,53.131],[19.194,53.154],[19.301,53.216],[19.51,53.166],[19.557,53.223],[19.69,53.126],[19.777,53.155],[19.841,53.141],[19.831,53.178],[19.922,53.225],[20.309,53.154],[20.464,53.251],[20.539,53.348],[20.935,53.292],[21.433,53.463],[21.781,53.48],[22.154,53.599],[22.543,53.774],[22.622,53.925],[22.468,54.04],[22.449,54.099],[22.352,54.18],[22.443,54.257],[22.71,54.293],[22.663,54.572],[22.725,54.733],[22.824,54.787],[22.795,54.898],[22.634,54.948],[22.512,55.038],[22.614,55.089],[22.54,55.14],[22.195,55.158],[22.216,55.217],[21.882,55.283],[21.849,55.328],[21.727,55.293],[21.672,55.36],[21.614,55.376],[21.607,55.429],[21.52,55.506],[21.501,55.583],[21.367,55.735],[21.368,55.786],[21.292,55.857],[21.046,55.902],[21.058,55.999],[21.01,56.03],[20.927,56.215],[20.965,56.608],[21.06,56.705],[21.055,56.832],[21.33,56.975],[21.364,57.082],[21.355,57.177],[21.414,57.222],[21.433,57.305],[21.7,57.556],[21.999,57.6],[22.583,57.76],[22.61,57.755],[22.591,57.645],[22.656,57.586],[23.129,57.37],[23.261,57.099],[23.509,57.031],[23.585,56.979]],[[145.259,72.347],[144.903,72.385],[144.73,72.329],[144.588,72.225],[144.748,72.283],[145.293,72.32],[145.259,72.347]],[[138.372,53.565],[138.474,53.585],[138.613,53.757],[138.646,53.828],[138.636,53.857],[138.614,53.791],[138.41,53.645],[138.372,53.565]],[[83.371,43.454],[83.312,43.515],[83.185,43.531],[83.218,43.457],[83.371,43.454]],[[83.23,43.822],[83.26,43.805],[83.214,43.766],[83.27,43.765],[83.301,43.813],[83.363,43.806],[83.369,43.882],[83.251,43.878],[83.23,43.822]],[[82.827,43.537],[82.79,43.52],[82.792,43.467],[82.876,43.431],[82.993,43.443],[82.982,43.493],[82.888,43.485],[82.827,43.537]],[[81.973,43.511],[82.01,43.571],[82.201,43.563],[82.26,43.599],[82.06,43.594],[81.984,43.656],[81.953,43.531],[81.876,43.516],[81.808,43.449],[81.862,43.411],[81.884,43.447],[81.964,43.454],[81.904,43.469],[81.897,43.499],[81.973,43.511]],[[82.073,42.666],[82.179,42.681],[82.217,42.75],[82.16,42.762],[82.19,42.815],[82.106,42.86],[81.975,43.029],[81.891,43.068],[81.999,42.894],[81.983,42.847],[82.02,42.785],[81.997,42.763],[82.066,42.722],[82.073,42.666]],[[81.929,42.806],[81.966,42.882],[81.922,42.926],[81.894,42.806],[81.929,42.806]],[[81.438,43.836],[81.374,43.855],[81.365,43.785],[81.506,43.739],[81.527,43.766],[81.45,43.829],[81.62,43.859],[81.496,43.885],[81.438,43.836]],[[80.762,43.853],[81.037,43.839],[81.131,43.865],[80.856,43.921],[80.741,43.881],[80.762,43.853]],[[81.122,44.054],[81.086,44.071],[80.938,43.933],[81.074,43.913],[81.122,44.054]],[[80.715,42.727],[80.664,42.809],[80.594,42.784],[80.649,42.692],[80.715,42.727]]],[[[143.332,46.487],[143.373,46.492],[143.393,46.533],[143.276,46.56],[143.298,46.515],[143.16,46.598],[142.798,46.594],[142.725,46.741],[142.7,46.742],[142.457,46.631],[142.282,46.328],[142.2,46.03],[142.12,45.992],[142.086,45.901],[141.934,46.036],[141.899,46.279],[141.814,46.537],[142.057,47.054],[142.057,47.17],[141.976,47.299],[141.966,47.612],[142.094,47.857],[142.191,47.967],[142.133,48.334],[141.919,48.611],[141.857,48.77],[141.967,48.862],[142.077,49.198],[142.063,49.317],[142.125,49.462],[142.16,49.678],[142.125,49.898],[142.174,50.087],[142.146,50.364],[142.042,50.552],[142.098,50.823],[142.25,51.031],[142.269,51.113],[142.173,51.26],[142.179,51.314],[142.081,51.414],[142.079,51.471],[141.942,51.56],[141.939,51.612],[141.866,51.614],[141.687,51.747],[141.808,51.721],[141.823,51.744],[141.81,51.806],[141.639,51.885],[141.676,51.912],[141.645,52.084],[141.7,52.166],[141.66,52.216],[141.673,52.276],[141.643,52.32],[141.66,52.381],[141.783,52.467],[141.844,52.591],[141.811,52.604],[141.928,53.021],[141.839,53.159],[141.81,53.338],[141.769,53.372],[141.956,53.456],[142.241,53.529],[142.237,53.42],[142.264,53.38],[142.455,53.38],[142.579,53.501],[142.687,53.529],[142.586,53.576],[142.514,53.551],[142.501,53.66],[142.64,53.681],[142.719,53.64],[142.804,53.707],[142.776,53.824],[142.739,53.846],[142.673,53.716],[142.611,53.703],[142.706,53.864],[142.708,53.948],[142.469,54.144],[142.41,54.232],[142.283,54.297],[142.443,54.269],[142.537,54.297],[142.529,54.252],[142.57,54.235],[142.57,54.277],[142.649,54.283],[142.625,54.324],[142.68,54.359],[142.703,54.427],[143.012,54.122],[142.899,53.9],[142.852,53.872],[142.933,53.858],[143.002,53.701],[142.927,53.83],[142.89,53.813],[142.906,53.767],[142.988,53.694],[142.968,53.666],[143.029,53.646],[142.996,53.626],[143.057,53.601],[142.988,53.563],[143.043,53.536],[143.092,53.558],[143.12,53.52],[143.127,53.471],[143.071,53.461],[143.111,53.418],[143.094,53.382],[143.181,53.398],[143.211,53.363],[143.359,52.874],[143.325,52.809],[143.331,52.603],[143.297,52.454],[143.194,52.337],[143.2,52.426],[143.272,52.463],[143.238,52.482],[143.293,52.592],[143.261,52.598],[143.119,52.338],[143.167,52.344],[143.178,52.313],[143.151,52.12],[143.116,52.153],[143.098,52.104],[143.139,52.09],[143.159,51.995],[143.126,51.967],[143.163,51.874],[143.213,51.855],[143.242,51.88],[143.318,51.706],[143.261,51.678],[143.224,51.522],[143.338,51.508],[143.326,51.594],[143.362,51.642],[143.448,51.508],[143.475,51.343],[143.427,51.37],[143.38,51.35],[143.474,51.288],[143.483,51.214],[143.521,51.247],[143.495,51.309],[143.522,51.283],[143.79,50.309],[144.003,50.012],[144.126,49.749],[144.137,49.639],[144.228,49.518],[144.222,49.438],[144.283,49.25],[144.385,49.073],[144.684,48.874],[144.703,48.689],[144.757,48.643],[144.679,48.656],[144.633,48.808],[144.504,48.949],[144.006,49.269],[143.302,49.405],[143.25,49.373],[143.331,49.314],[143.667,49.315],[143.371,49.299],[143.174,49.246],[143.07,49.185],[142.985,49.083],[142.988,48.916],[142.537,48.01],[142.545,47.767],[142.592,47.642],[142.748,47.445],[142.714,47.437],[142.878,47.39],[143.016,47.254],[143.032,47.071],[143.12,46.888],[143.098,46.875],[143.174,46.859],[143.09,46.839],[143.084,46.813],[143.173,46.708],[143.341,46.684],[143.39,46.708],[143.349,46.749],[143.193,46.781],[143.173,46.815],[143.194,46.84],[143.321,46.796],[143.419,46.8],[143.453,46.846],[143.48,46.826],[143.577,46.444],[143.558,46.396],[143.626,46.375],[143.476,46.19],[143.475,46.089],[143.427,46.03],[143.421,46.223],[143.332,46.487]]],[[[23.639,43.793],[23.77,43.802],[24.175,43.681],[24.35,43.697],[24.503,43.762],[24.728,43.685],[24.972,43.722],[25.106,43.684],[25.181,43.698],[25.394,43.618],[25.494,43.646],[25.507,43.612],[25.47,43.546],[25.563,43.509],[25.55,43.453],[25.606,43.413],[25.931,43.375],[25.949,43.33],[26.06,43.307],[26.105,43.184],[26.057,43.098],[26.112,43.024],[26.095,42.977],[26.17,42.946],[26.082,42.886],[26.056,42.818],[25.969,42.785],[25.732,42.789],[25.62,42.767],[25.613,42.74],[25.56,42.773],[25.395,42.736],[25.248,42.744],[25.216,42.773],[24.751,42.71],[24.585,42.789],[24.332,42.758],[24.158,42.782],[24.151,42.909],[24.048,42.976],[24.006,43.06],[23.933,43.029],[23.766,43.068],[23.691,43.027],[23.634,43.053],[23.549,43.012],[23.436,43.109],[23.462,43.15],[23.398,43.169],[23.463,43.232],[23.332,43.274],[23.405,43.378],[23.443,43.489],[23.623,43.528],[23.553,43.587],[23.639,43.793]]],[[[21.832,58.511],[21.994,58.513],[22.09,58.422],[22.104,58.487],[22.189,58.543],[22.273,58.502],[22.322,58.585],[22.58,58.634],[22.648,58.587],[22.924,58.617],[23.331,58.456],[23.261,58.466],[23.238,58.456],[23.278,58.437],[23.234,58.44],[23.157,58.478],[23.041,58.371],[22.955,58.381],[22.969,58.36],[22.905,58.313],[22.721,58.27],[22.757,58.242],[22.721,58.225],[22.535,58.254],[22.503,58.224],[22.477,58.245],[22.323,58.207],[22.272,58.174],[22.2,57.993],[22.046,57.915],[21.965,57.981],[22.084,58.081],[22.148,58.08],[22.203,58.148],[22.07,58.177],[21.994,58.245],[21.894,58.252],[21.847,58.303],[21.908,58.299],[21.884,58.344],[21.945,58.319],[21.967,58.353],[22.011,58.354],[21.832,58.511]]],[[[22.588,59.086],[22.667,59.085],[22.708,59.07],[22.692,59.041],[22.737,59.005],[22.935,58.983],[23.039,58.856],[23.03,58.83],[22.879,58.833],[22.886,58.792],[22.847,58.777],[22.784,58.788],[22.819,58.83],[22.753,58.815],[22.679,58.722],[22.608,58.69],[22.463,58.716],[22.497,58.738],[22.44,58.841],[22.382,58.882],[22.194,58.888],[22.049,58.943],[22.463,58.971],[22.588,59.086]]],[[[35.843,64.986],[35.798,64.977],[35.751,64.955],[35.687,65.022],[35.709,65.025],[35.584,65.042],[35.528,65.072],[35.513,65.085],[35.502,65.105],[35.528,65.145],[35.65,65.154],[35.685,65.171],[35.823,65.15],[35.875,65.02],[35.874,65.018],[35.853,64.996],[35.879,64.991],[35.847,64.993],[35.843,64.986]]],[[[23.395,58.556],[23.222,58.536],[23.065,58.6],[23.065,58.625],[23.121,58.628],[23.176,58.681],[23.285,58.667],[23.342,58.645],[23.395,58.556]]],[[[47.838,44.001],[47.867,43.988],[47.76,43.928],[47.647,43.944],[47.64,43.982],[47.838,44.001]]],[[[35.957,65.17],[36.274,65.157],[36.073,65.125],[35.93,65.153],[35.934,65.18],[35.989,65.193],[35.957,65.181],[35.957,65.17]]],[[[52.699,45.405],[52.562,45.456],[52.598,45.517],[52.657,45.519],[52.699,45.405]]],[[[49.837,46.288],[49.82,46.217],[49.781,46.226],[49.722,46.338],[49.75,46.357],[49.837,46.288]]],[[[50.279,45.072],[50.352,45.074],[50.324,44.974],[50.283,44.956],[50.257,44.985],[50.279,45.072]]],[[[50.628,44.967],[50.726,44.939],[50.761,44.865],[50.698,44.861],[50.628,44.967]]],[[[22.358,60.077],[22.387,60.052],[22.413,60.085],[22.445,60.07],[22.441,60.002],[22.381,59.997],[22.358,60.077]]],[[[22.829,63.776],[22.74,63.721],[22.681,63.763],[22.779,63.79],[22.829,63.776]]],[[[35.979,65.057],[36.024,65.039],[35.913,65.015],[35.88,65.042],[35.979,65.057]]],[[[21.935,60.176],[22.072,60.197],[22.011,60.17],[22.038,60.156],[22.009,60.137],[21.935,60.176]]],[[[24.009,58.154],[24.021,58.129],[23.97,58.1],[23.943,58.116],[23.955,58.151],[24.009,58.154]]],[[[21.299,60.567],[21.281,60.566],[21.222,60.603],[21.264,60.645],[21.299,60.567]]],[[[50.349,40.479],[50.393,40.422],[50.391,40.407],[50.357,40.405],[50.326,40.461],[50.349,40.479]]],[[[22.295,60.22],[22.23,60.187],[22.213,60.21],[22.268,60.251],[22.295,60.22]]],[[[27.015,60.051],[27.023,60.024],[26.983,60.021],[26.95,60.098],[27.015,60.051]]],[[[27.887,59.999],[27.809,59.988],[27.823,60.029],[27.883,60.007],[27.887,59.999]]],[[[22.382,60.196],[22.297,60.15],[22.311,60.189],[22.372,60.204],[22.382,60.196]]]]}}]}