{"type":"FeatureCollection","features":[{"type":"Feature","properties":{"lite":true,"src":"data/years/1889-08-03.geojson"},"geometry":{"type":"MultiPolygon","coordinates":[[[[21.067,56.437],[21.058,56.504],[20.993,56.549],[21.056,56.691],[21.053,56.828],[21.391,57.022],[21.418,57.282],[21.729,57.574],[21.999,57.6],[22.61,57.755],[22.594,57.64],[22.656,57.586],[23.13,57.369],[23.261,57.099],[23.509,57.031],[23.585,56.979],[23.695,56.967],[23.953,57.013],[24.211,57.124],[24.401,57.258],[24.373,57.531],[24.286,57.832],[24.457,58.076],[24.47,58.248],[24.542,58.286],[24.555,58.325],[24.459,58.378],[24.331,58.387],[24.242,58.275],[24.105,58.236],[23.973,58.316],[23.74,58.346],[23.624,58.525],[23.503,58.564],[23.496,58.694],[23.535,58.747],[23.864,58.773],[23.798,58.8],[23.429,58.765],[23.485,58.81],[23.425,58.931],[23.628,58.979],[23.623,59.011],[23.571,59.041],[23.614,59.011],[23.548,58.97],[23.41,59.016],[23.482,59.089],[23.474,59.213],[23.642,59.257],[23.736,59.234],[23.727,59.269],[23.759,59.284],[24.027,59.293],[24.036,59.388],[24.221,59.355],[24.163,59.402],[24.306,59.419],[24.337,59.471],[24.648,59.455],[24.622,59.471],[24.678,59.495],[24.728,59.459],[24.801,59.57],[24.91,59.511],[25.145,59.539],[25.403,59.492],[25.489,59.565],[25.487,59.668],[25.677,59.566],[25.713,59.592],[25.671,59.656],[25.698,59.671],[25.873,59.599],[25.884,59.629],[25.989,59.634],[26.498,59.54],[26.666,59.552],[26.938,59.45],[27.409,59.452],[27.876,59.408],[27.983,59.447],[28.055,59.528],[28.065,59.596],[27.994,59.705],[28.009,59.759],[28.087,59.799],[28.184,59.759],[28.224,59.691],[28.375,59.666],[28.418,59.708],[28.428,59.812],[28.477,59.852],[28.534,59.86],[28.718,59.787],[28.833,59.787],[29.011,59.858],[29.031,59.901],[28.98,59.93],[29.194,60.007],[29.805,59.94],[30.115,59.871],[30.216,59.907],[30.234,59.983],[29.948,60.027],[29.899,60.124],[29.824,60.168],[29.58,60.199],[29.4,60.159],[29.046,60.182],[28.787,60.335],[28.597,60.388],[28.445,60.557],[28.506,60.56],[28.547,60.509],[28.703,60.461],[28.662,60.58],[28.578,60.58],[28.555,60.61],[28.59,60.646],[28.681,60.615],[28.648,60.674],[28.732,60.69],[28.679,60.735],[28.575,60.683],[28.41,60.665],[28.343,60.594],[28.144,60.529],[27.823,60.526],[27.778,60.571],[27.74,60.557],[27.753,60.506],[27.708,60.486],[27.612,60.506],[27.63,60.471],[27.481,60.505],[27.478,60.461],[27.237,60.511],[27.276,60.528],[27.212,60.56],[27.218,60.583],[27.178,60.567],[27.182,60.515],[27.113,60.547],[27.025,60.532],[26.959,60.447],[26.807,60.471],[26.539,60.378],[26.511,60.408],[26.581,60.428],[26.501,60.446],[26.478,60.486],[26.569,60.582],[26.627,60.609],[26.75,60.576],[26.692,60.642],[26.652,60.646],[26.465,60.505],[26.483,60.44],[26.416,60.392],[26.145,60.394],[26.055,60.423],[26.106,60.334],[26.075,60.294],[25.851,60.396],[25.916,60.36],[25.93,60.245],[25.746,60.304],[25.849,60.266],[25.774,60.234],[25.721,60.248],[25.653,60.295],[25.651,60.339],[25.689,60.349],[25.658,60.361],[25.545,60.311],[25.502,60.246],[25.196,60.241],[25.156,60.223],[25.204,60.204],[25.187,60.183],[25.031,60.148],[24.679,60.13],[24.665,60.101],[24.603,60.122],[24.588,60.054],[24.47,59.99],[24.424,59.989],[24.415,60.032],[24.313,59.998],[24.36,60.043],[24.333,60.072],[23.8,59.957],[23.432,59.954],[23.54,60.029],[23.537,60.068],[23.249,59.838],[22.9,59.807],[22.947,59.848],[23.247,59.922],[23.326,60.009],[23.227,59.929],[23.115,59.923],[23.113,59.974],[23.252,60.038],[22.997,60.056],[23.025,60.129],[22.969,60.094],[22.953,60.115],[22.946,60.085],[22.845,60.082],[22.914,60.124],[22.87,60.186],[23.083,60.346],[22.558,60.206],[22.815,60.227],[22.893,60.286],[22.956,60.293],[22.835,60.195],[22.845,60.108],[22.732,60.004],[22.601,59.983],[22.572,60.027],[22.475,59.998],[22.471,60.072],[22.416,60.155],[22.451,60.222],[22.548,60.217],[22.449,60.245],[22.626,60.38],[22.29,60.383],[22.11,60.448],[22.045,60.44],[21.935,60.492],[21.946,60.517],[21.848,60.52],[21.874,60.478],[21.785,60.478],[21.824,60.619],[21.664,60.553],[21.639,60.495],[21.58,60.491],[21.518,60.567],[21.577,60.563],[21.416,60.577],[21.358,60.656],[21.392,60.756],[21.319,60.865],[21.388,60.943],[21.305,61.053],[21.409,61.043],[21.367,61.06],[21.415,61.065],[21.503,61.28],[21.544,61.28],[21.524,61.375],[21.449,61.403],[21.537,61.409],[21.53,61.448],[21.422,61.485],[21.522,61.478],[21.467,61.558],[21.497,61.573],[21.664,61.54],[21.537,61.651],[21.471,61.759],[21.489,61.801],[21.405,61.895],[21.237,61.985],[21.291,62.124],[21.389,62.207],[21.355,62.233],[21.369,62.267],[21.32,62.249],[21.332,62.351],[21.274,62.349],[21.236,62.384],[21.195,62.339],[21.202,62.39],[21.112,62.452],[21.125,62.548],[21.066,62.599],[21.114,62.78],[21.221,62.827],[21.244,62.869],[21.39,62.879],[21.446,62.967],[21.443,63.04],[21.497,63.07],[21.679,63.024],[21.519,63.125],[21.499,63.21],[21.559,63.232],[21.647,63.198],[21.895,63.26],[21.893,63.206],[21.959,63.186],[22.04,63.244],[22.175,63.233],[22.276,63.298],[22.33,63.284],[22.368,63.317],[22.35,63.345],[22.188,63.446],[22.279,63.524],[22.338,63.522],[22.397,63.473],[22.505,63.587],[22.525,63.658],[22.595,63.7],[22.676,63.701],[22.734,63.628],[22.774,63.628],[22.902,63.705],[22.833,63.726],[22.917,63.74],[22.906,63.796],[23.167,63.887],[23.332,63.908],[23.37,63.941],[23.384,64.048],[23.602,64.064],[23.574,64.106],[23.614,64.104],[23.735,64.215],[23.927,64.269],[24.006,64.39],[24.344,64.531],[24.373,64.623],[24.534,64.746],[24.538,64.805],[25.094,64.918],[25.259,64.836],[25.226,64.823],[25.355,64.83],[25.365,64.898],[25.228,64.931],[25.193,64.961],[25.204,64.987],[25.441,64.961],[25.354,65.092],[25.211,65.124],[25.27,65.179],[25.326,65.348],[25.266,65.378],[25.355,65.412],[25.351,65.479],[25.304,65.515],[24.891,65.648],[24.678,65.636],[24.551,65.764],[24.689,65.896],[24.626,65.888],[24.537,65.796],[24.412,65.767],[24.178,65.791],[24.057,65.947],[24.02,66.049],[23.911,66.149],[23.748,66.191],[23.69,66.257],[23.652,66.457],[23.882,66.564],[23.894,66.751],[24.004,66.805],[23.581,67.155],[23.615,67.214],[23.604,67.26],[23.735,67.29],[23.78,67.329],[23.753,67.35],[23.765,67.42],[23.477,67.444],[23.433,67.482],[23.48,67.557],[23.554,67.587],[23.485,67.737],[23.481,67.864],[23.636,67.913],[23.662,67.95],[23.388,68.049],[23.307,68.146],[23.165,68.124],[23.155,68.218],[23.067,68.29],[22.808,68.395],[22.303,68.476],[22.068,68.478],[21.919,68.568],[21.739,68.588],[21.717,68.619],[21.464,68.687],[21.406,68.749],[21.305,68.756],[21.072,68.869],[20.905,68.895],[20.888,68.925],[20.934,68.949],[20.911,68.981],[20.633,69.042],[20.745,69.104],[21.072,69.037],[21.156,69.088],[21.037,69.18],[21.098,69.239],[21.314,69.291],[21.638,69.271],[22.023,69.012],[22.368,68.825],[22.409,68.713],[22.57,68.727],[22.852,68.676],[23.07,68.681],[23.198,68.618],[23.735,68.715],[23.79,68.8],[23.928,68.816],[24.332,68.709],[24.664,68.666],[24.905,68.557],[24.955,68.606],[25.132,68.648],[25.15,68.764],[25.203,68.813],[25.434,68.884],[25.628,68.874],[25.796,68.993],[25.751,69.06],[25.771,69.135],[25.737,69.218],[25.786,69.312],[25.877,69.371],[25.846,69.415],[25.887,69.455],[25.892,69.523],[26.004,69.587],[25.962,69.652],[26.004,69.689],[26.198,69.715],[26.419,69.836],[26.502,69.919],[26.865,69.938],[27.1,69.902],[27.312,69.929],[27.352,69.949],[27.335,69.969],[27.665,70.068],[27.897,70.071],[28.167,69.894],[28.377,69.857],[28.405,69.802],[29.144,69.666],[29.34,69.463],[29.23,69.377],[28.852,69.204],[28.828,69.091],[28.954,69.027],[29.178,69.07],[29.255,69.12],[29.334,69.276],[29.377,69.302],[29.948,69.366],[30.123,69.442],[30.155,69.506],[30.232,69.558],[30.22,69.6],[30.138,69.639],[30.294,69.62],[30.512,69.536],[30.755,69.522],[30.853,69.527],[30.941,69.574],[30.943,69.691],[30.868,69.791],[31.774,69.681],[31.798,69.689],[31.693,69.736],[31.715,69.823],[31.757,69.847],[31.858,69.845],[32.042,69.769],[32.097,69.793],[31.918,69.923],[31.938,69.964],[32.036,69.962],[32.466,69.848],[32.58,69.782],[32.917,69.777],[33.129,69.724],[33.105,69.645],[32.896,69.583],[32.11,69.676],[32.026,69.637],[32.1,69.594],[32.426,69.571],[32.481,69.508],[32.202,69.429],[32.668,69.5],[33.024,69.47],[32.806,69.303],[32.901,69.31],[32.974,69.388],[33.325,69.449],[33.511,69.424],[33.469,69.35],[33.242,69.269],[33.473,69.275],[33.535,69.207],[33.519,69.183],[33.274,69.104],[33.043,69.07],[33.011,68.967],[33.078,69.06],[33.441,69.103],[33.568,69.184],[33.562,69.282],[33.644,69.326],[34.362,69.317],[34.647,69.251],[35.109,69.22],[35.185,69.181],[35.261,69.218],[35.182,69.274],[35.837,69.199],[37.773,68.676],[38.327,68.439],[38.433,68.339],[38.609,68.327],[38.508,68.366],[38.63,68.383],[38.929,68.304],[39.109,68.211],[39.528,68.069],[39.853,68.044],[39.721,68.156],[39.775,68.165],[39.918,68.112],[39.986,68.029],[40.145,67.951],[40.363,67.899],[40.406,67.861],[40.331,67.847],[40.484,67.749],[40.697,67.77],[40.804,67.725],[40.994,67.714],[41.056,67.635],[41.036,67.468],[41.15,67.414],[41.111,67.251],[41.224,67.213],[41.319,67.227],[41.39,67.122],[41.218,66.836],[40.737,66.587],[40.718,66.542],[40.567,66.455],[40.173,66.339],[40.068,66.276],[39.277,66.119],[38.608,66.052],[37.913,66.087],[37.016,66.269],[35.509,66.388],[34.846,66.605],[34.48,66.532],[34.364,66.612],[34.434,66.644],[33.859,66.692],[33.777,66.761],[33.599,66.823],[33.519,66.813],[33.628,66.746],[33.536,66.72],[33.254,66.793],[32.837,66.98],[32.794,67.086],[32.668,67.119],[32.365,67.162],[32.067,67.133],[31.859,67.153],[31.923,67.122],[32.258,67.123],[32.54,67.007],[32.557,66.984],[32.518,66.882],[32.909,66.77],[32.931,66.736],[32.801,66.727],[32.97,66.686],[33.219,66.679],[33.318,66.639],[33.122,66.647],[33.066,66.595],[32.871,66.581],[33.084,66.581],[33.241,66.616],[33.428,66.589],[33.525,66.527],[33.199,66.564],[32.959,66.53],[33.077,66.505],[33.245,66.53],[33.445,66.467],[33.61,66.489],[33.711,66.427],[33.322,66.32],[33.554,66.322],[34.109,66.249],[34.568,66.077],[34.851,65.897],[34.96,65.718],[34.89,65.705],[34.689,65.802],[34.69,65.717],[34.777,65.6],[34.676,65.452],[34.495,65.45],[34.381,65.383],[34.474,65.278],[34.635,65.24],[34.685,65.183],[34.682,65.108],[34.793,65.017],[34.775,64.969],[34.935,64.838],[34.956,64.653],[34.788,64.548],[34.946,64.515],[34.961,64.458],[35.325,64.327],[35.538,64.355],[35.596,64.404],[35.806,64.343],[35.984,64.196],[36.11,64.23],[36.274,64.146],[36.282,64.01],[36.833,63.911],[37.173,63.889],[37.297,63.813],[37.505,63.815],[37.579,63.844],[37.586,63.882],[37.653,63.923],[37.828,63.908],[37.997,63.956],[38.08,64.021],[38.084,64.057],[38.047,64.148],[37.911,64.228],[37.979,64.317],[37.816,64.385],[37.801,64.42],[37.688,64.423],[37.359,64.352],[37.144,64.409],[36.729,64.716],[36.56,64.747],[36.445,64.94],[36.653,64.923],[36.833,64.992],[36.867,65.076],[36.839,65.162],[37.043,65.207],[37.692,65.056],[37.734,65.033],[37.744,64.969],[38.004,64.87],[38.404,64.854],[38.361,64.806],[38.039,64.76],[38.041,64.643],[38.159,64.671],[38.189,64.718],[38.491,64.761],[38.54,64.798],[38.931,64.744],[39.546,64.563],[39.737,64.553],[39.916,64.61],[39.794,64.595],[39.816,64.661],[39.863,64.666],[40.059,64.621],[40.164,64.562],[40.524,64.541],[40.516,64.594],[40.414,64.723],[40.451,64.789],[40.376,64.924],[40.28,65.012],[40.103,65.081],[39.718,65.379],[39.704,65.464],[39.751,65.55],[39.916,65.633],[40.413,65.776],[40.702,65.968],[41.008,65.999],[41.425,66.09],[41.805,66.265],[42.174,66.524],[42.587,66.464],[42.653,66.443],[42.67,66.396],[43.295,66.424],[43.645,66.283],[43.692,66.236],[43.294,66.091],[43.355,66.039],[43.516,65.976],[43.517,66.037],[43.392,66.076],[43.477,66.126],[43.691,66.177],[43.857,66.177],[44.047,66.079],[44.041,65.991],[44.174,65.875],[44.15,66.048],[44.077,66.202],[44.165,66.373],[44.303,66.408],[44.859,66.231],[45.741,66.063],[45.833,66.083],[46.347,66.023],[47.11,65.816],[47.408,65.831],[47.662,65.803],[47.764,65.84],[47.737,65.913],[47.757,65.937],[48.141,66.122],[49.007,66.114],[51.512,66.778],[51.554,66.797],[51.491,66.83],[51.525,66.922],[51.812,66.949],[51.849,66.997],[52.159,67.081],[53.772,66.994],[59.878,66.997],[59.869,66.963],[59.919,66.949],[60.083,66.985],[61.661,67.011],[61.854,67.122],[62.823,67.383],[62.877,67.577],[63.107,67.67],[63.422,67.763],[63.691,67.757],[63.711,67.805],[63.873,67.831],[63.952,67.895],[63.919,67.964],[63.839,68.025],[64.326,68.129],[64.351,68.173],[64.418,68.196],[64.532,68.196],[64.501,68.314],[64.559,68.354],[64.761,68.401],[65.006,68.384],[65.444,68.424],[65.269,68.232],[65.324,68.09],[65.286,68.01],[65.436,67.915],[65.781,67.919],[65.91,67.955],[66.084,67.926],[66.015,67.796],[66.193,67.736],[66.2,67.695],[66.106,67.652],[66.0,67.683],[65.85,67.659],[65.819,67.631],[65.839,67.604],[65.791,67.568],[66.033,67.57],[66.1,67.506],[66.085,67.471],[65.937,67.398],[65.7,67.393],[65.673,67.368],[65.701,67.339],[65.662,67.317],[65.188,67.149],[65.206,67.078],[65.073,67.043],[65.102,66.996],[65.098,66.897],[64.575,66.803],[64.533,66.734],[64.411,66.728],[64.295,66.668],[63.98,66.656],[63.807,66.552],[63.542,66.476],[63.413,66.485],[63.237,66.33],[63.292,66.244],[63.104,66.255],[63.009,66.199],[62.957,66.118],[62.858,66.078],[62.817,66.011],[62.87,65.977],[62.798,65.932],[62.844,65.877],[62.522,65.844],[62.014,65.72],[62.274,65.619],[62.322,65.537],[62.402,65.511],[62.369,65.447],[62.479,65.345],[62.81,65.289],[62.797,65.054],[62.673,64.891],[62.806,64.833],[62.816,64.806],[62.781,64.785],[62.799,64.736],[62.59,64.645],[62.533,64.551],[62.687,64.489],[62.899,64.472],[63.234,64.519],[63.455,64.454],[63.497,64.377],[63.41,64.325],[63.611,64.263],[63.889,64.279],[64.017,64.352],[64.478,64.355],[64.604,64.432],[64.761,64.422],[64.996,64.461],[65.177,64.441],[65.4,64.566],[65.884,64.564],[66.02,64.59],[66.465,64.507],[66.682,64.552],[66.932,64.482],[66.884,64.383],[66.792,64.328],[66.816,64.221],[67.161,64.159],[67.163,64.121],[67.253,64.112],[67.279,64.076],[67.677,64.074],[67.798,64.027],[67.929,64.111],[68.18,64.171],[68.427,64.291],[68.884,64.218],[68.894,64.266],[68.995,64.33],[68.874,64.433],[69.015,64.467],[69.229,64.465],[69.389,64.384],[69.732,64.389],[69.824,64.336],[69.999,64.311],[70.303,64.339],[70.471,64.247],[70.67,64.232],[70.765,64.189],[70.77,64.117],[70.554,63.999],[70.641,63.893],[70.818,63.811],[70.911,63.688],[71.386,63.67],[71.546,63.587],[71.607,63.18],[71.805,63.214],[71.989,63.197],[72.16,63.294],[72.656,63.275],[72.911,63.389],[73.101,63.431],[73.279,63.313],[73.366,63.202],[74.24,63.167],[74.507,63.038],[74.915,63.027],[75.363,63.103],[75.7,63.086],[75.804,63.109],[76.235,63.015],[76.297,62.945],[76.689,63.034],[76.823,62.987],[77.022,62.971],[77.155,62.787],[77.326,62.706],[77.885,62.553],[78.015,62.456],[78.379,62.563],[78.793,62.61],[79.821,62.599],[79.907,62.699],[79.92,62.789],[80.555,62.996],[80.593,63.079],[81.109,63.11],[81.171,62.969],[81.316,62.881],[81.337,62.821],[81.596,62.769],[81.633,62.73],[81.783,62.684],[82.165,62.804],[82.316,62.765],[82.746,62.749],[82.755,62.666],[83.006,62.591],[83.032,62.525],[83.282,62.456],[83.798,62.555],[83.938,62.48],[84.017,62.392],[84.24,62.368],[84.286,62.272],[84.39,62.236],[84.444,62.17],[84.487,62.096],[84.516,61.925],[84.684,61.801],[85.096,61.747],[85.277,61.669],[85.403,61.682],[85.491,61.613],[85.712,61.568],[85.844,61.588],[85.956,61.541],[85.962,61.455],[86.129,61.374],[86.211,61.374],[86.327,61.452],[86.507,61.406],[86.523,61.349],[86.603,61.311],[86.775,61.317],[86.976,61.36],[86.989,61.411],[86.95,61.447],[87.003,61.46],[87.254,61.376],[87.245,61.354],[87.467,61.339],[87.474,61.266],[87.564,61.209],[87.692,61.267],[87.713,61.296],[87.676,61.329],[87.778,61.362],[87.963,61.315],[88.182,61.346],[88.953,60.746],[89.867,60.807],[90.946,60.746],[91.965,60.751],[92.138,60.829],[92.136,60.89],[92.234,60.951],[92.227,60.98],[92.409,60.968],[92.474,60.997],[92.401,61.111],[92.467,61.195],[92.56,61.191],[92.757,61.087],[92.902,61.068],[92.891,61.095],[92.939,61.13],[92.818,61.216],[92.829,61.236],[92.632,61.304],[92.83,61.359],[92.93,61.332],[93.012,61.363],[93.151,61.321],[93.156,61.244],[93.343,61.1],[93.472,61.082],[93.568,61.104],[93.732,61.038],[93.918,61.058],[94.029,60.96],[94.252,61.12],[94.382,61.118],[94.546,61.174],[94.721,61.158],[95.113,61.089],[95.359,60.921],[95.402,60.816],[95.326,60.744],[95.48,60.706],[95.234,60.563],[95.227,60.499],[95.289,60.451],[95.267,60.423],[95.113,60.416],[95.022,60.37],[94.929,60.237],[95.011,60.196],[94.977,60.113],[95.081,60.049],[95.007,60.007],[95.02,59.966],[95.062,59.89],[95.173,59.803],[95.136,59.755],[95.241,59.637],[95.498,59.637],[95.593,59.575],[95.726,59.554],[95.783,59.606],[95.881,59.627],[95.954,59.627],[96.052,59.556],[96.239,59.626],[96.326,59.549],[96.29,59.505],[96.352,59.471],[96.452,59.473],[96.554,59.539],[96.784,59.549],[97.121,59.5],[97.224,59.535],[97.237,59.577],[97.204,59.615],[97.361,59.66],[97.457,59.73],[97.696,59.679],[98.052,59.723],[98.129,59.768],[98.337,59.723],[98.445,59.784],[98.606,59.762],[98.878,59.826],[98.935,59.767],[99.001,59.772],[99.102,59.841],[99.116,59.906],[99.409,60.029],[99.412,60.078],[99.649,60.116],[100.066,59.994],[100.097,59.959],[100.072,59.895],[100.315,59.841],[100.429,59.859],[100.553,59.788],[100.866,59.783],[101.025,59.714],[101.448,59.683],[101.472,59.725],[101.729,59.74],[101.79,59.712],[101.785,59.684],[102.016,59.637],[102.107,59.589],[102.443,59.647],[102.485,59.627],[102.456,59.614],[102.454,59.524],[102.525,59.498],[102.527,59.471],[102.639,59.449],[102.483,59.392],[102.517,59.26],[102.436,59.214],[102.484,59.181],[102.616,59.206],[102.82,59.187],[102.899,59.269],[103.014,59.312],[103.136,59.254],[103.212,59.251],[103.235,59.285],[103.333,59.268],[103.342,59.243],[103.21,59.232],[103.235,59.17],[103.309,59.131],[103.391,59.025],[103.555,58.993],[103.623,58.918],[103.896,58.917],[103.976,58.867],[103.944,58.835],[103.951,58.774],[103.884,58.754],[103.889,58.732],[103.97,58.723],[104.04,58.783],[104.19,58.771],[104.252,58.711],[104.376,58.722],[104.343,58.67],[104.466,58.604],[104.814,58.672],[104.899,58.748],[104.766,58.812],[104.792,58.861],[105.135,59.055],[105.277,59.063],[105.373,59.116],[105.314,59.161],[105.343,59.197],[105.307,59.249],[105.19,59.301],[105.241,59.445],[105.149,59.49],[104.976,59.473],[104.859,59.558],[104.886,59.608],[104.811,59.63],[104.813,59.673],[104.782,59.692],[104.888,59.76],[105.026,59.773],[105.018,59.83],[105.07,59.869],[105.372,59.834],[105.429,59.853],[105.466,59.826],[105.52,59.844],[105.437,59.903],[105.429,59.947],[105.51,60.0],[105.433,60.148],[105.512,60.23],[105.344,60.304],[105.231,60.28],[104.902,60.305],[104.854,60.352],[104.669,60.411],[104.649,60.522],[104.585,60.544],[104.575,60.591],[104.514,60.627],[104.614,60.726],[104.582,60.773],[104.492,60.807],[104.486,60.843],[104.638,60.903],[104.586,60.946],[104.648,61.036],[104.631,61.074],[104.697,61.083],[104.856,61.186],[105.049,61.175],[104.953,61.32],[104.826,61.354],[105.01,61.407],[105.283,61.419],[105.284,61.466],[105.378,61.54],[105.587,61.586],[105.669,61.65],[105.814,61.625],[105.896,61.681],[105.982,61.686],[105.903,61.841],[106.276,62.018],[106.399,62.039],[106.417,62.099],[106.393,62.14],[106.454,62.196],[106.47,62.261],[106.381,62.284],[106.487,62.337],[106.445,62.393],[106.548,62.392],[106.634,62.46],[106.759,62.493],[106.689,62.564],[106.8,62.627],[106.478,62.703],[106.516,62.728],[106.516,62.794],[106.453,62.818],[106.438,62.868],[106.205,62.928],[106.193,62.973],[106.153,62.982],[106.175,63.008],[106.127,63.077],[106.4,63.122],[106.398,63.182],[106.443,63.218],[106.356,63.256],[106.422,63.353],[106.622,63.312],[106.741,63.395],[106.503,63.537],[106.524,63.563],[106.602,63.558],[106.593,63.598],[106.66,63.622],[106.694,63.661],[106.612,63.722],[106.795,63.87],[106.73,63.912],[106.733,63.939],[106.629,63.974],[106.631,64.005],[106.675,64.037],[106.97,63.966],[107.043,63.922],[107.197,63.977],[107.303,63.973],[107.371,63.931],[107.339,63.904],[107.416,63.889],[107.454,63.917],[107.585,63.897],[107.632,63.93],[107.632,63.975],[107.761,64.015],[108.206,63.999],[108.315,64.006],[108.394,64.048],[108.248,64.255],[108.086,64.252],[108.049,64.192],[107.979,64.187],[107.642,64.316],[107.352,64.269],[107.274,64.303],[107.258,64.35],[107.105,64.359],[106.917,64.443],[106.738,64.429],[106.656,64.533],[106.58,64.548],[106.547,64.526],[106.576,64.481],[106.552,64.465],[106.137,64.421],[106.09,64.44],[106.137,64.489],[106.026,64.545],[105.906,64.495],[105.77,64.491],[105.79,64.553],[105.716,64.592],[105.756,64.642],[105.703,64.683],[105.782,64.663],[105.881,64.684],[105.823,64.765],[105.868,64.83],[105.991,64.827],[105.936,64.903],[106.033,64.913],[106.027,64.88],[106.058,64.865],[106.212,64.87],[105.96,65.038],[106.111,65.065],[106.194,65.128],[106.312,65.14],[106.411,65.222],[106.528,65.215],[106.436,65.251],[106.449,65.314],[106.615,65.39],[106.819,65.373],[106.973,65.506],[106.71,65.545],[106.705,65.607],[106.436,65.674],[106.464,65.733],[106.439,65.771],[106.495,65.797],[106.47,65.824],[106.498,65.883],[106.469,65.922],[106.522,66.004],[106.34,66.158],[106.202,66.154],[106.118,66.197],[106.141,66.249],[106.12,66.371],[106.337,66.473],[106.317,66.532],[106.245,66.569],[106.222,66.65],[106.26,66.686],[106.152,66.732],[106.216,66.802],[106.015,66.794],[106.097,66.857],[106.087,66.898],[105.86,66.916],[105.857,66.949],[105.697,66.931],[105.552,66.986],[105.558,67.016],[105.949,67.036],[106.067,67.112],[106.079,67.164],[106.342,67.196],[106.439,67.262],[106.544,67.286],[106.711,67.253],[106.827,67.333],[106.926,68.254],[106.911,68.859],[106.155,69.413],[106.344,69.472],[106.36,69.51],[106.479,69.575],[106.598,69.563],[106.63,69.523],[106.853,69.518],[107.61,69.656],[107.954,69.664],[108.023,69.695],[108.018,69.747],[108.052,69.784],[108.119,69.782],[108.248,69.849],[108.896,69.838],[108.944,69.766],[109.297,69.769],[109.34,69.817],[109.39,69.822],[109.41,69.959],[109.532,69.989],[109.551,70.028],[109.362,70.08],[109.368,70.132],[109.31,70.149],[109.311,70.203],[109.578,70.248],[109.622,70.285],[109.584,70.352],[109.64,70.367],[110.011,70.408],[110.317,70.405],[110.313,70.437],[110.123,70.48],[110.092,70.528],[110.158,70.542],[110.117,70.587],[110.15,70.607],[110.14,70.634],[110.452,70.701],[110.511,70.721],[110.519,70.762],[110.621,70.782],[110.845,70.778],[111.055,70.84],[111.374,70.857],[111.482,70.924],[111.94,70.97],[112.056,71.052],[112.247,70.995],[112.355,71.066],[112.6,71.101],[112.519,71.168],[112.668,71.191],[112.728,71.256],[112.605,71.299],[112.474,71.281],[112.222,71.383],[112.007,71.408],[112.004,72.128],[111.72,72.169],[111.693,72.226],[111.601,72.216],[111.673,72.259],[111.576,72.329],[111.327,72.321],[111.062,72.372],[111.047,72.393],[111.079,72.415],[111.042,72.437],[111.289,72.481],[111.313,72.513],[111.18,72.563],[110.92,72.578],[110.89,72.605],[110.912,72.636],[110.728,72.682],[110.67,72.785],[110.751,72.811],[110.65,72.882],[110.912,72.936],[110.703,72.986],[110.857,73.044],[110.792,73.098],[110.854,73.164],[110.386,73.157],[110.371,73.197],[110.585,73.236],[110.631,73.27],[110.545,73.338],[110.211,73.383],[110.561,73.402],[110.681,73.438],[110.694,73.484],[110.818,73.508],[110.886,73.56],[111.011,73.553],[111.296,73.612],[111.201,73.631],[111.188,73.668],[110.91,73.703],[110.879,73.732],[111.056,73.819],[111.211,73.812],[111.326,73.842],[111.648,73.765],[112.272,73.707],[112.845,73.748],[112.951,73.797],[112.871,73.926],[112.889,73.963],[113.141,73.861],[113.401,73.68],[113.429,73.604],[113.292,73.567],[113.135,73.448],[113.272,73.375],[113.496,73.331],[113.521,73.103],[113.456,72.996],[113.487,72.964],[113.298,72.884],[113.535,72.971],[113.52,73.021],[113.561,73.077],[113.529,73.185],[113.544,73.239],[113.694,73.312],[114.028,73.344],[113.768,73.354],[113.527,73.439],[113.471,73.501],[114.098,73.587],[114.859,73.605],[115.242,73.693],[115.457,73.703],[116.575,73.663],[117.242,73.59],[118.636,73.572],[118.833,73.545],[118.98,73.484],[118.688,73.442],[118.471,73.48],[118.347,73.405],[118.406,73.372],[118.353,73.283],[118.389,73.239],[119.004,73.104],[119.53,73.059],[119.586,72.996],[119.917,72.924],[120.561,72.882],[119.879,72.946],[119.757,72.998],[119.812,73.017],[120.582,72.981],[121.014,72.93],[121.388,72.967],[121.866,72.968],[121.961,72.952],[121.925,72.929],[122.028,72.896],[122.375,72.877],[122.931,72.785],[122.98,72.817],[122.731,72.824],[122.304,72.934],[123.048,72.862],[123.085,72.887],[122.432,72.977],[122.468,73.013],[122.631,73.022],[122.853,72.994],[122.892,72.956],[123.11,72.913],[123.317,72.976],[123.311,73.026],[123.378,73.162],[123.547,73.197],[123.521,73.172],[123.659,73.169],[123.609,73.183],[123.666,73.203],[123.533,73.214],[123.225,73.4],[123.242,73.551],[123.372,73.618],[123.377,73.66],[123.544,73.696],[123.602,73.609],[123.974,73.627],[123.991,73.64],[123.908,73.67],[123.886,73.761],[123.91,73.772],[124.055,73.715],[123.999,73.692],[124.035,73.681],[124.359,73.804],[124.7,73.705],[124.839,73.7],[124.989,73.624],[125.058,73.68],[125.136,73.684],[125.2,73.551],[125.624,73.524],[125.618,73.492],[125.522,73.455],[125.563,73.409],[125.869,73.499],[126.287,73.551],[126.402,73.508],[126.319,73.448],[126.199,73.454],[126.161,73.382],[126.424,73.406],[126.55,73.346],[126.587,73.297],[126.565,73.234],[126.607,73.27],[126.616,73.34],[126.563,73.381],[126.628,73.38],[126.726,73.444],[126.829,73.389],[126.923,73.492],[126.831,73.52],[126.853,73.526],[127.235,73.533],[127.465,73.48],[127.975,73.47],[128.083,73.358],[128.343,73.351],[128.258,73.268],[128.657,73.258],[128.894,73.211],[128.962,73.168],[128.781,73.073],[129.042,73.129],[129.097,73.127],[129.117,73.096],[129.08,73.04],[128.949,72.987],[128.299,72.908],[128.213,72.864],[128.231,72.825],[128.175,72.808],[127.647,72.717],[127.327,72.708],[126.495,72.467],[126.573,72.424],[126.557,72.405],[126.403,72.439],[126.339,72.419],[126.343,72.378],[126.111,72.28],[126.246,72.29],[126.367,72.352],[126.577,72.226],[126.633,72.223],[126.524,72.313],[126.544,72.354],[126.611,72.364],[126.65,72.352],[126.626,72.32],[126.71,72.219],[126.909,72.215],[126.892,72.293],[126.738,72.387],[127.03,72.402],[127.656,72.348],[127.938,72.206],[128.256,72.112],[128.382,72.04],[128.495,71.914],[128.612,71.89],[128.646,71.798],[128.92,71.74],[129.182,71.803],[129.17,71.85],[129.08,71.92],[129.056,71.973],[129.077,71.999],[129.294,71.867],[129.315,71.799],[129.482,71.729],[129.275,71.749],[128.929,71.708],[128.814,71.656],[128.844,71.604],[129.183,71.591],[129.313,71.465],[129.384,71.344],[129.655,71.257],[129.756,71.147],[129.744,71.121],[130.077,71.083],[130.157,71.046],[130.222,70.984],[130.169,70.966],[130.224,70.947],[130.626,70.867],[130.694,70.883],[130.722,70.953],[130.783,70.971],[130.891,70.838],[130.898,70.755],[131.024,70.734],[131.226,70.75],[131.546,70.887],[131.854,71.21],[132.176,71.218],[131.947,71.254],[131.946,71.285],[132.257,71.672],[132.537,71.888],[132.717,71.941],[132.753,71.93],[132.756,71.834],[132.707,71.793],[132.716,71.768],[132.924,71.724],[133.157,71.573],[133.679,71.433],[134.006,71.383],[134.452,71.367],[134.696,71.415],[134.81,71.477],[135.023,71.529],[135.227,71.548],[135.358,71.524],[135.418,71.532],[135.37,71.569],[135.59,71.615],[135.965,71.632],[136.495,71.568],[136.564,71.501],[136.775,71.519],[136.885,71.461],[137.452,71.341],[137.476,71.331],[137.422,71.279],[137.538,71.239],[137.644,71.254],[137.804,71.116],[137.911,71.149],[137.977,71.119],[138.068,71.136],[138.011,71.183],[137.747,71.221],[137.783,71.245],[138.027,71.22],[138.216,71.259],[138.021,71.297],[138.233,71.324],[137.992,71.335],[137.826,71.387],[138.008,71.469],[138.033,71.556],[138.069,71.574],[138.495,71.612],[138.402,71.567],[138.438,71.539],[138.577,71.552],[138.589,71.588],[138.555,71.607],[138.734,71.642],[139.041,71.567],[139.112,71.433],[139.192,71.415],[139.354,71.421],[139.446,71.496],[139.742,71.464],[139.932,71.485],[139.926,71.549],[139.8,71.604],[139.71,71.707],[139.691,71.787],[139.739,71.836],[139.644,71.912],[139.382,71.95],[139.646,71.955],[139.714,72.003],[139.714,72.075],[139.871,72.176],[140.068,72.148],[140.195,72.168],[140.216,72.183],[140.194,72.206],[139.561,72.232],[139.323,72.128],[139.154,72.177],[139.092,72.245],[139.168,72.328],[139.541,72.494],[140.093,72.473],[140.574,72.493],[141.024,72.586],[140.933,72.601],[141.02,72.674],[141.001,72.701],[140.667,72.802],[140.582,72.869],[140.622,72.892],[141.351,72.851],[141.563,72.771],[141.994,72.72],[143.549,72.689],[145.471,72.547],[146.839,72.344],[145.354,72.347],[145.253,72.396],[144.968,72.435],[144.723,72.379],[144.523,72.226],[144.287,72.295],[144.144,72.263],[144.415,72.175],[144.599,72.175],[144.75,72.233],[145.068,72.264],[146.382,72.307],[146.904,72.296],[146.428,72.038],[145.967,71.847],[145.936,71.863],[145.998,72.029],[146.106,72.033],[146.341,72.125],[146.205,72.174],[146.052,72.154],[146.057,72.123],[145.981,72.066],[145.941,72.094],[145.956,72.133],[145.902,72.203],[145.691,72.253],[145.622,72.243],[145.737,72.214],[145.741,72.189],[145.621,72.08],[145.674,72.033],[145.791,72.027],[145.817,71.957],[145.798,71.926],[145.346,71.866],[144.967,71.966],[144.974,71.914],[145.216,71.843],[145.049,71.774],[144.888,71.771],[144.921,71.693],[145.239,71.686],[145.319,71.658],[145.544,71.733],[145.824,71.747],[146.157,71.821],[147.134,72.315],[147.884,72.329],[148.504,72.299],[149.183,72.223],[149.721,72.116],[150.017,71.955],[150.07,71.889],[149.982,71.832],[149.668,71.762],[149.369,71.904],[149.127,71.766],[148.841,71.803],[149.039,71.759],[148.993,71.698],[148.832,71.675],[148.999,71.663],[149.113,71.695],[149.69,71.642],[149.962,71.657],[150.084,71.593],[150.018,71.571],[150.004,71.598],[149.947,71.589],[149.866,71.463],[150.24,71.519],[150.554,71.516],[150.666,71.483],[150.52,71.344],[150.033,71.215],[150.409,71.285],[150.675,71.388],[150.729,71.391],[150.662,71.36],[150.608,71.28],[150.99,71.392],[151.463,71.341],[151.731,71.244],[152.134,71.001],[151.995,70.97],[151.66,70.984],[152.224,70.877],[152.61,70.833],[153.698,70.866],[154.22,70.956],[154.999,71.031],[155.937,71.094],[156.77,71.093],[157.905,71.046],[159.28,70.81],[159.777,70.617],[160.035,70.409],[160.102,70.286],[160.092,70.243],[159.959,70.136],[159.795,70.137],[159.797,70.103],[159.875,70.072],[159.812,69.977],[159.698,69.917],[159.684,69.894],[159.73,69.835],[160.091,69.727],[160.921,69.637],[160.995,69.58],[160.922,69.459],[161.015,69.298],[161.042,69.171],[160.968,69.114],[161.059,69.07],[161.289,69.044],[161.413,68.984],[161.217,68.785],[161.207,68.689],[161.068,68.565],[160.762,68.561],[160.821,68.527],[161.134,68.561],[161.275,68.677],[161.321,68.793],[161.574,68.921],[161.566,69.014],[161.399,69.221],[161.415,69.331],[161.454,69.388],[161.609,69.425],[161.809,69.528],[161.986,69.533],[162.323,69.662],[162.61,69.677],[162.833,69.652],[163.179,69.717],[163.6,69.681],[164.014,69.767],[164.532,69.599],[165.628,69.591],[166.137,69.511],[166.645,69.524],[166.861,69.491],[167.367,69.636],[167.656,69.761],[167.778,69.776],[167.992,69.715],[167.994,69.627],[168.242,69.549],[168.257,69.525],[168.194,69.382],[168.233,69.279],[168.283,69.242],[168.734,69.208],[169.363,69.081],[169.425,68.999],[169.453,68.84],[169.589,68.777],[170.333,68.821],[170.612,68.756],[170.551,68.824],[170.442,68.84],[170.621,68.909],[170.654,68.901],[170.705,68.805],[170.711,68.904],[170.761,68.954],[171.032,69.042],[170.908,69.306],[170.609,69.58],[170.122,69.614],[170.284,69.729],[170.567,69.778],[170.556,69.893],[170.522,69.931],[170.558,70.079],[170.404,70.115],[170.471,70.134],[171.929,69.997],[172.639,69.966],[173.165,69.847],[173.202,69.779],[173.461,69.811],[173.476,69.833],[173.418,69.865],[173.271,69.911],[173.184,69.903],[173.457,69.952],[173.742,69.867],[173.934,69.847],[174.089,69.883],[175.296,69.846],[175.723,69.904],[176.116,69.889],[176.234,69.828],[176.235,69.794],[176.532,69.741],[176.741,69.667],[177.436,69.604],[178.187,69.449],[178.369,69.476],[178.768,69.408],[179.043,69.328],[178.939,69.32],[178.743,69.372],[178.679,69.359],[178.652,69.309],[178.715,69.279],[178.88,69.296],[179.298,69.262],[179.926,68.997],[179.55,69.106],[179.719,69.003],[180.0,68.974],[179.997,65.069],[179.796,65.022],[179.46,64.813],[179.162,64.788],[178.622,64.605],[178.523,64.588],[178.489,64.609],[178.687,64.636],[178.749,64.683],[178.272,64.669],[177.608,64.72],[177.506,64.804],[177.442,64.916],[177.258,64.933],[177.167,65.025],[176.916,65.082],[176.591,65.025],[176.438,65.074],[176.307,65.047],[176.566,64.995],[176.956,65.038],[177.215,64.909],[177.294,64.827],[177.043,64.77],[176.927,64.799],[176.87,64.848],[176.634,64.869],[176.452,64.807],[176.418,64.844],[176.06,64.948],[175.869,64.831],[175.694,64.778],[175.068,64.763],[174.705,64.679],[174.45,64.686],[174.718,64.67],[175.052,64.739],[175.682,64.754],[175.823,64.783],[176.022,64.902],[176.065,64.901],[176.201,64.874],[176.417,64.706],[176.148,64.629],[176.11,64.544],[176.214,64.62],[176.329,64.622],[176.454,64.688],[176.604,64.66],[176.739,64.565],[177.009,64.711],[177.342,64.777],[177.481,64.76],[177.453,64.65],[177.361,64.544],[177.434,64.43],[177.632,64.319],[178.088,64.2],[178.181,64.205],[178.076,64.255],[178.281,64.352],[178.344,64.297],[178.478,64.121],[178.482,64.068],[178.398,64.032],[178.377,63.972],[178.664,63.942],[178.756,63.648],[178.609,63.675],[178.354,63.626],[178.261,63.574],[178.37,63.516],[178.477,63.574],[178.702,63.572],[178.723,63.477],[178.595,63.412],[178.681,63.384],[178.774,63.4],[178.808,63.442],[178.747,63.544],[178.773,63.588],[178.836,63.47],[179.002,63.32],[178.856,63.399],[178.804,63.381],[178.822,63.339],[179.244,63.23],[179.407,63.142],[179.407,63.058],[179.315,63.059],[179.236,63.006],[179.306,62.904],[179.539,62.843],[179.604,62.703],[179.554,62.621],[179.413,62.565],[179.356,62.506],[179.129,62.479],[179.104,62.453],[179.14,62.423],[179.15,62.339],[179.098,62.29],[178.961,62.357],[178.028,62.544],[177.34,62.576],[177.292,62.609],[177.316,62.737],[177.453,62.81],[177.329,62.801],[177.243,62.706],[177.195,62.703],[177.142,62.719],[177.151,62.778],[177.113,62.813],[176.974,62.864],[176.93,62.664],[177.05,62.578],[177.229,62.572],[176.815,62.52],[176.685,62.539],[176.281,62.313],[175.318,62.101],[175.17,62.015],[174.767,61.917],[174.732,61.953],[174.604,61.979],[174.72,61.885],[174.594,61.83],[174.457,61.806],[174.079,61.841],[174.017,61.819],[174.045,61.772],[174.007,61.723],[173.872,61.676],[173.568,61.752],[173.496,61.658],[173.49,61.561],[173.349,61.552],[173.293,61.514],[173.276,61.453],[173.099,61.388],[172.888,61.47],[172.714,61.427],[172.899,61.367],[172.953,61.304],[172.845,61.277],[172.672,61.329],[172.765,61.275],[172.641,61.19],[172.369,61.229],[172.343,61.219],[172.359,61.122],[172.474,61.072],[172.453,61.041],[172.244,61.013],[172.018,61.092],[172.161,61.027],[172.189,60.948],[172.114,60.938],[172.022,60.849],[171.992,60.877],[172.002,60.922],[171.951,60.947],[171.945,60.851],[171.61,60.802],[171.627,60.744],[171.407,60.714],[171.363,60.631],[171.167,60.553],[170.857,60.506],[170.783,60.444],[170.642,60.418],[170.618,60.394],[170.656,60.324],[170.53,60.285],[170.469,60.224],[170.395,59.961],[170.245,59.911],[170.107,59.976],[170.076,60.033],[169.931,60.07],[169.746,60.278],[169.703,60.407],[169.331,60.531],[169.323,60.555],[169.367,60.563],[169.265,60.619],[169.206,60.62],[169.15,60.561],[168.189,60.582],[167.05,60.324],[166.341,59.866],[166.139,59.816],[166.097,59.852],[166.136,60.025],[166.259,60.257],[166.256,60.38],[166.347,60.412],[166.381,60.47],[166.349,60.486],[166.001,60.434],[165.769,60.289],[165.233,60.096],[164.997,60.127],[165.037,60.064],[165.12,60.084],[165.181,59.982],[165.0,59.84],[164.826,59.782],[164.702,59.976],[164.469,60.111],[164.318,60.086],[164.335,60.027],[164.14,59.933],[164.139,59.868],[164.051,59.877],[164.046,59.93],[164.107,59.972],[164.044,60.03],[163.64,60.046],[163.621,60.023],[163.677,59.971],[163.74,59.968],[163.702,59.9],[163.505,59.899],[163.36,59.824],[163.387,59.628],[163.328,59.585],[163.179,59.567],[163.166,59.502],[163.328,59.387],[163.297,59.264],[163.263,59.24],[163.24,59.246],[163.258,59.296],[163.104,59.278],[163.061,59.241],[163.066,59.194],[163.19,59.131],[163.188,59.049],[163.155,59.039],[163.175,59.07],[163.012,59.157],[162.882,59.128],[163.038,59.02],[163.031,58.994],[162.76,58.891],[162.726,58.853],[162.774,58.861],[162.764,58.835],[162.406,58.68],[162.143,58.453],[161.939,58.068],[162.003,57.948],[162.106,57.854],[162.316,57.796],[162.339,57.691],[162.381,57.69],[162.477,57.762],[162.466,57.869],[162.566,57.95],[162.701,57.964],[162.996,57.85],[163.211,57.837],[163.28,57.737],[163.074,57.503],[162.742,57.359],[162.765,57.346],[162.752,57.218],[162.828,57.046],[162.782,56.854],[162.79,56.795],[162.902,56.707],[163.071,56.746],[163.213,56.739],[163.246,56.687],[163.215,56.629],[163.341,56.331],[163.348,56.196],[163.107,56.087],[163.031,56.018],[162.867,56.041],[162.648,56.19],[162.63,56.246],[162.72,56.328],[163.074,56.477],[163.093,56.525],[162.985,56.547],[162.937,56.517],[162.898,56.433],[162.699,56.492],[162.394,56.39],[162.562,56.27],[162.086,56.101],[161.917,55.817],[161.749,55.628],[161.711,55.49],[161.718,55.366],[161.797,55.168],[161.874,55.068],[161.972,55.024],[162.148,54.863],[162.112,54.764],[161.8,54.576],[161.735,54.507],[161.309,54.491],[161.238,54.513],[161.204,54.572],[161.114,54.591],[160.728,54.529],[160.006,54.139],[159.9,53.981],[159.818,53.659],[159.904,53.601],[159.882,53.652],[159.921,53.646],[159.962,53.515],[159.919,53.473],[159.798,53.521],[159.978,53.268],[160.015,53.267],[160.05,53.095],[159.615,53.259],[159.453,53.216],[159.39,53.159],[159.256,53.153],[159.02,53.084],[158.727,52.891],[158.584,53.063],[158.439,53.027],[158.419,53.009],[158.446,52.902],[158.522,52.907],[158.484,52.936],[158.513,52.943],[158.626,52.931],[158.642,52.902],[158.632,52.847],[158.561,52.79],[158.597,52.703],[158.55,52.626],[158.419,52.652],[158.435,52.601],[158.512,52.564],[158.555,52.313],[158.525,52.275],[158.429,52.266],[158.318,52.128],[158.276,51.939],[157.912,51.643],[157.537,51.487],[157.261,51.234],[157.097,51.159],[156.692,50.891],[156.655,50.885],[156.746,50.994],[156.745,51.078],[156.674,51.229],[156.557,51.271],[156.521,51.315],[156.473,51.514],[156.493,51.925],[156.429,52.202],[156.281,52.521],[156.361,52.497],[156.379,52.45],[156.441,52.516],[156.262,52.566],[156.102,52.854],[156.077,53.133],[155.931,53.838],[155.699,54.511],[155.544,55.304],[155.646,55.914],[155.944,56.656],[156.109,56.818],[156.161,56.831],[156.064,56.723],[156.202,56.849],[156.45,56.955],[156.546,57.102],[156.646,57.077],[156.695,57.109],[156.981,57.421],[156.981,57.528],[156.933,57.644],[156.84,57.728],[156.76,57.738],[156.981,57.849],[157.054,57.798],[157.168,57.773],[157.434,57.791],[157.535,57.851],[157.646,58.004],[157.923,57.979],[158.233,58.019],[158.663,58.27],[159.044,58.421],[159.702,58.851],[159.756,58.945],[159.732,59.016],[159.792,59.085],[159.923,59.176],[160.341,59.361],[160.444,59.456],[160.485,59.543],[160.861,59.622],[161.248,59.85],[161.468,60.048],[161.837,60.187],[161.929,60.268],[161.916,60.327],[161.875,60.318],[161.917,60.421],[162.461,60.592],[162.754,60.646],[162.898,60.771],[163.11,60.778],[163.194,60.821],[163.37,60.816],[163.643,60.875],[163.729,60.937],[163.515,61.003],[163.513,61.05],[163.635,61.146],[163.854,61.213],[164.015,61.33],[164.02,61.364],[163.94,61.44],[163.782,61.425],[163.75,61.453],[163.847,61.633],[164.011,61.687],[164.072,61.784],[164.064,62.102],[164.123,62.278],[164.613,62.474],[165.092,62.421],[165.228,62.374],[165.284,62.317],[165.33,62.316],[165.232,62.401],[165.094,62.456],[165.341,62.479],[165.63,62.443],[164.763,62.568],[164.582,62.691],[164.367,62.712],[163.257,62.543],[163.165,62.445],[163.348,62.362],[163.126,62.284],[163.081,62.198],[163.137,62.044],[163.029,61.936],[162.952,61.801],[163.24,61.746],[163.302,61.716],[163.285,61.663],[163.095,61.618],[163.065,61.596],[163.084,61.554],[163.007,61.52],[162.943,61.579],[162.932,61.67],[162.838,61.72],[162.654,61.693],[162.641,61.668],[162.751,61.628],[162.743,61.599],[162.41,61.673],[162.026,61.42],[161.784,61.343],[161.566,61.202],[161.468,61.202],[161.329,61.088],[160.888,60.884],[160.793,60.739],[160.677,60.776],[160.399,60.74],[160.262,60.627],[160.139,60.589],[160.135,60.657],[160.223,60.734],[160.225,60.785],[160.166,60.827],[160.391,61.026],[160.171,61.052],[159.862,60.93],[159.781,60.943],[159.903,61.037],[159.947,61.136],[159.913,61.252],[159.839,61.267],[159.854,61.311],[160.008,61.391],[160.158,61.52],[160.366,61.766],[160.355,61.948],[159.966,61.826],[159.831,61.713],[159.526,61.666],[159.364,61.89],[159.248,61.922],[158.905,61.896],[158.734,61.836],[158.305,61.823],[158.024,61.73],[157.893,61.786],[157.486,61.803],[157.027,61.65],[156.86,61.536],[156.695,61.534],[156.634,61.422],[156.657,61.212],[156.417,61.182],[156.085,61.013],[155.928,60.907],[155.892,60.759],[154.966,60.375],[154.623,60.136],[154.532,60.05],[154.466,59.919],[154.231,59.879],[154.228,59.724],[154.293,59.639],[154.065,59.513],[154.109,59.463],[154.292,59.444],[154.344,59.486],[154.42,59.423],[154.501,59.433],[154.431,59.486],[154.438,59.548],[154.692,59.517],[154.849,59.463],[154.966,59.493],[155.083,59.393],[155.184,59.361],[155.141,59.206],[155.099,59.187],[154.828,59.189],[154.742,59.161],[154.735,59.128],[154.451,59.22],[154.331,59.203],[154.343,59.136],[154.291,59.094],[154.155,59.096],[154.022,59.046],[153.916,59.077],[153.795,59.174],[153.361,59.242],[153.268,59.092],[152.994,59.075],[152.876,58.918],[152.567,58.955],[152.357,59.023],[152.124,58.989],[152.119,58.922],[152.062,58.896],[151.614,58.852],[151.455,58.875],[151.309,58.839],[151.273,58.921],[151.214,58.946],[151.077,59.106],[151.164,59.09],[151.606,59.168],[152.045,59.153],[152.284,59.22],[152.142,59.292],[151.981,59.265],[151.75,59.296],[151.606,59.473],[151.386,59.571],[151.102,59.592],[150.904,59.567],[150.87,59.553],[150.932,59.471],[150.712,59.443],[150.681,59.452],[150.729,59.494],[150.685,59.51],[150.462,59.491],[150.728,59.556],[150.707,59.575],[150.525,59.554],[150.417,59.621],[150.297,59.648],[149.64,59.769],[149.48,59.767],[149.372,59.76],[149.034,59.632],[149.084,59.551],[149.207,59.508],[149.204,59.471],[149.088,59.493],[148.902,59.463],[148.843,59.497],[148.878,59.539],[148.861,59.553],[148.695,59.449],[148.722,59.37],[148.863,59.402],[148.96,59.379],[148.949,59.261],[148.905,59.242],[148.799,59.281],[148.545,59.246],[148.415,59.262],[148.365,59.394],[148.213,59.419],[147.843,59.383],[147.782,59.35],[147.825,59.291],[147.783,59.269],[147.606,59.299],[147.544,59.274],[147.552,59.249],[147.488,59.24],[147.289,59.326],[147.196,59.313],[147.044,59.363],[146.745,59.374],[146.512,59.461],[146.325,59.391],[146.341,59.204],[146.317,59.184],[146.002,59.143],[145.8,59.261],[145.911,59.35],[145.912,59.407],[145.815,59.404],[145.804,59.368],[145.666,59.425],[145.0,59.37],[143.901,59.412],[143.494,59.319],[143.211,59.377],[142.302,59.137],[141.979,58.968],[141.837,58.811],[141.616,58.646],[141.25,58.477],[141.105,58.459],[140.902,58.375],[140.685,58.231],[140.516,57.942],[140.498,57.825],[140.317,57.753],[140.067,57.722],[139.945,57.65],[139.839,57.51],[139.597,57.444],[139.564,57.38],[139.471,57.318],[139.179,57.264],[138.911,57.027],[138.653,56.986],[138.586,56.876],[138.478,56.846],[138.401,56.738],[138.306,56.717],[138.261,56.646],[138.138,56.594],[138.116,56.567],[138.142,56.457],[137.917,56.345],[137.844,56.252],[137.727,56.176],[136.731,55.663],[136.417,55.569],[136.128,55.303],[135.742,55.145],[135.558,55.124],[135.217,54.93],[135.156,54.861],[135.261,54.721],[135.669,54.642],[135.731,54.572],[135.973,54.574],[136.209,54.617],[136.536,54.59],[136.813,54.649],[136.877,54.583],[136.748,54.428],[136.766,54.217],[136.806,54.135],[136.689,54.006],[136.654,53.92],[136.681,53.811],[136.772,53.766],[136.843,53.826],[136.937,53.852],[137.113,53.804],[137.176,53.838],[137.283,54.038],[137.177,54.036],[137.063,54.138],[137.194,54.218],[137.386,54.305],[137.727,54.311],[137.512,54.151],[137.319,54.122],[137.293,54.075],[137.595,53.954],[137.856,53.962],[137.783,53.898],[137.597,53.827],[137.562,53.73],[137.488,53.666],[137.337,53.661],[137.212,53.582],[137.311,53.533],[137.899,53.573],[138.293,53.743],[138.345,53.888],[138.552,53.987],[138.589,53.856],[138.572,53.816],[138.24,53.559],[138.249,53.52],[138.431,53.507],[138.55,53.58],[138.649,53.72],[138.776,54.024],[138.741,54.249],[138.658,54.289],[138.733,54.314],[138.995,54.229],[139.337,54.183],[139.701,54.298],[139.796,54.294],[139.815,54.211],[140.239,54.05],[140.256,53.863],[140.361,53.78],[140.534,53.712],[140.555,53.648],[140.952,53.503],[140.926,53.436],[141.242,53.308],[141.413,53.294],[141.434,53.153],[141.352,53.095],[141.236,53.078],[141.19,53.041],[141.245,53.025],[141.203,52.988],[141.125,52.985],[140.841,53.12],[140.713,53.116],[140.939,52.989],[140.959,52.941],[141.202,52.841],[141.312,52.655],[141.22,52.508],[141.128,52.461],[141.131,52.409],[141.277,52.289],[141.504,52.205],[141.483,52.16],[141.343,52.103],[141.31,52.033],[141.305,52.009],[141.424,51.946],[141.422,51.923],[141.276,51.874],[141.083,51.68],[140.908,51.612],[140.901,51.494],[140.796,51.455],[140.814,51.413],[140.882,51.42],[140.867,51.362],[140.69,51.317],[140.676,51.173],[140.71,51.051],[140.678,50.95],[140.529,50.866],[140.462,50.702],[140.485,50.608],[140.439,50.537],[140.527,50.368],[140.516,50.171],[140.592,50.074],[140.682,50.083],[140.487,49.979],[140.411,49.866],[140.527,49.729],[140.554,49.559],[140.433,49.352],[140.34,49.272],[140.389,48.968],[140.245,48.84],[140.213,48.764],[140.175,48.45],[139.284,47.814],[139.046,47.471],[139.043,47.404],[138.555,47.019],[138.384,46.735],[138.344,46.551],[138.2,46.447],[138.064,46.183],[137.775,45.934],[137.666,45.79],[137.377,45.61],[137.177,45.416],[136.858,45.213],[136.601,44.981],[136.44,44.789],[136.374,44.788],[136.244,44.664],[136.183,44.513],[135.892,44.402],[135.801,44.265],[135.722,44.234],[135.647,44.156],[135.629,44.04],[135.46,43.944],[135.503,43.85],[135.422,43.756],[135.274,43.688],[135.129,43.503],[134.862,43.395],[134.35,43.119],[134.186,43.078],[133.904,42.875],[133.57,42.819],[133.216,42.728],[133.156,42.683],[133.036,42.684],[133.004,42.715],[133.039,42.771],[132.995,42.819],[132.916,42.818],[132.844,42.741],[132.796,42.767],[132.772,42.87],[132.591,42.842],[132.462,42.934],[132.352,42.897],[132.35,42.852],[132.308,42.85],[132.285,42.962],[132.369,43.213],[132.351,43.292],[132.302,43.317],[132.23,43.232],[131.946,43.064],[131.845,43.083],[131.909,43.195],[131.992,43.235],[132.051,43.313],[131.811,43.326],[131.752,43.22],[131.525,43.005],[131.471,42.871],[131.278,42.764],[131.219,42.651],[131.221,42.559],[131.169,42.575],[131.114,42.663],[130.968,42.628],[130.805,42.688],[130.714,42.686],[130.677,42.652],[130.867,42.523],[130.702,42.297],[130.581,42.478],[130.605,42.62],[130.536,42.682],[130.414,42.706],[130.436,42.746],[130.62,42.824],[130.735,42.825],[130.794,42.869],[130.992,42.849],[131.128,42.916],[131.106,43.039],[131.184,43.121],[131.181,43.166],[131.31,43.389],[131.301,43.457],[131.191,43.541],[131.231,43.974],[131.245,44.021],[131.298,44.052],[131.096,44.691],[130.958,44.839],[131.098,44.919],[131.177,44.903],[131.337,44.968],[131.469,44.974],[131.646,45.108],[131.698,45.207],[131.851,45.337],[131.969,45.234],[132.931,45.021],[133.117,45.124],[133.102,45.287],[133.155,45.457],[133.193,45.503],[133.413,45.573],[133.477,45.628],[133.482,45.759],[133.511,45.779],[133.477,45.818],[133.503,45.86],[133.526,45.884],[133.58,45.871],[133.66,45.935],[133.745,46.155],[133.902,46.254],[133.934,46.391],[133.848,46.475],[133.908,46.577],[134.019,46.667],[134.039,46.859],[134.114,47.056],[134.227,47.118],[134.155,47.257],[134.182,47.322],[134.313,47.42],[134.486,47.43],[134.555,47.469],[134.773,47.711],[134.658,47.887],[134.59,47.922],[134.561,48.005],[134.683,48.136],[134.717,48.266],[134.415,48.391],[133.738,48.251],[133.596,48.174],[133.525,48.096],[133.224,48.126],[133.092,48.107],[132.77,47.938],[132.675,47.951],[132.668,47.881],[132.576,47.794],[132.574,47.74],[132.523,47.711],[132.341,47.742],[131.916,47.67],[131.703,47.696],[131.621,47.664],[131.535,47.719],[131.419,47.743],[131.096,47.676],[130.965,47.704],[130.907,47.884],[130.675,48.064],[130.678,48.138],[130.831,48.294],[130.739,48.428],[130.759,48.486],[130.66,48.485],[130.615,48.517],[130.608,48.577],[130.531,48.615],[130.674,48.871],[130.535,48.854],[130.44,48.896],[130.25,48.865],[130.202,48.883],[129.915,49.038],[129.921,49.082],[129.845,49.12],[129.842,49.167],[129.743,49.195],[129.711,49.274],[129.552,49.29],[129.528,49.385],[129.481,49.421],[129.185,49.388],[129.114,49.349],[128.998,49.441],[128.872,49.481],[128.797,49.572],[128.672,49.611],[128.198,49.539],[128.068,49.547],[127.968,49.603],[127.855,49.585],[127.703,49.663],[127.644,49.767],[127.537,49.791],[127.507,49.844],[127.534,49.922],[127.487,50.026],[127.57,50.13],[127.591,50.209],[127.332,50.327],[127.359,50.415],[127.294,50.465],[127.367,50.578],[127.289,50.676],[127.287,50.751],[126.932,51.065],[126.905,51.205],[126.972,51.324],[126.899,51.316],[126.869,51.252],[126.813,51.282],[126.82,51.326],[126.89,51.35],[126.909,51.391],[126.797,51.424],[126.83,51.508],[126.753,51.553],[126.726,51.709],[126.609,51.788],[126.442,51.992],[126.51,52.037],[126.556,52.131],[126.316,52.201],[126.329,52.235],[126.439,52.275],[126.35,52.303],[126.351,52.377],[126.276,52.463],[126.203,52.468],[126.212,52.533],[126.083,52.593],[126.028,52.567],[125.991,52.587],[125.979,52.644],[126.069,52.68],[126.045,52.719],[126.104,52.754],[126.088,52.775],[125.975,52.767],[125.837,52.907],[125.654,52.883],[125.734,52.982],[125.621,53.062],[125.489,53.069],[125.127,53.207],[124.919,53.194],[124.836,53.133],[124.652,53.209],[124.408,53.236],[124.253,53.375],[124.121,53.353],[123.971,53.455],[123.614,53.563],[123.55,53.541],[123.495,53.56],[123.454,53.527],[123.253,53.568],[123.154,53.513],[122.859,53.474],[122.401,53.452],[122.317,53.496],[122.082,53.43],[121.889,53.431],[121.641,53.385],[121.513,53.33],[121.341,53.324],[121.204,53.277],[120.846,53.273],[120.279,52.865],[120.033,52.761],[120.034,52.626],[120.079,52.59],[120.454,52.639],[120.718,52.544],[120.626,52.347],[120.756,52.24],[120.777,52.117],[120.697,52.049],[120.711,51.988],[120.648,51.912],[120.493,51.876],[120.17,51.673],[120.1,51.66],[120.052,51.552],[119.977,51.487],[119.953,51.398],[119.895,51.384],[119.914,51.332],[119.82,51.275],[119.81,51.217],[119.762,51.215],[119.782,51.171],[119.741,51.072],[119.518,50.905],[119.5,50.742],[119.294,50.599],[119.244,50.446],[119.138,50.393],[119.175,50.356],[119.358,50.337],[119.323,50.102],[119.189,50.007],[118.644,49.955],[117.871,49.513],[117.758,49.513],[117.473,49.614],[117.254,49.622],[117.056,49.673],[116.721,49.803],[116.577,49.926],[116.219,50.019],[116.052,50.003],[115.717,49.883],[115.39,49.896],[115.211,49.977],[115.0,50.149],[114.756,50.241],[114.472,50.239],[114.286,50.282],[113.971,50.165],[113.849,50.086],[113.751,50.083],[113.456,49.962],[113.179,49.806],[113.083,49.69],[113.055,49.6],[112.777,49.506],[112.473,49.539],[112.03,49.417],[111.66,49.401],[111.476,49.348],[111.337,49.37],[110.841,49.167],[110.687,49.14],[110.372,49.247],[110.182,49.167],[109.729,49.271],[109.516,49.261],[109.453,49.311],[109.287,49.344],[108.541,49.332],[108.34,49.439],[108.239,49.537],[108.106,49.56],[108.019,49.607],[108.019,49.66],[107.937,49.675],[107.961,49.745],[107.949,49.938],[107.193,50.011],[107.062,50.077],[106.976,50.201],[106.657,50.332],[106.226,50.297],[106.06,50.339],[105.986,50.405],[105.278,50.478],[105.106,50.395],[104.901,50.395],[104.608,50.319],[104.404,50.305],[104.121,50.153],[103.785,50.191],[103.664,50.136],[103.439,50.198],[103.28,50.202],[103.204,50.302],[102.928,50.308],[102.621,50.404],[102.515,50.508],[102.33,50.55],[102.278,50.621],[102.334,50.721],[102.209,50.829],[102.244,50.912],[102.235,50.98],[102.151,51.101],[102.141,51.236],[102.186,51.328],[102.052,51.389],[101.725,51.455],[101.527,51.481],[101.353,51.455],[101.243,51.52],[101.118,51.533],[100.512,51.732],[99.921,51.754],[99.711,51.885],[99.324,51.939],[99.235,51.999],[98.999,52.062],[98.935,52.196],[98.82,52.197],[98.801,52.279],[98.714,52.298],[98.652,52.266],[98.682,52.37],[98.641,52.418],[98.718,52.454],[98.733,52.501],[98.809,52.51],[98.831,52.542],[98.805,52.602],[98.942,52.671],[98.942,52.8],[98.871,52.799],[98.857,52.836],[98.948,52.922],[99.224,52.859],[99.253,52.958],[98.993,53.043],[99.058,53.108],[98.938,53.154],[98.861,53.13],[98.687,53.16],[98.605,53.11],[98.318,53.105],[98.291,53.131],[98.291,53.228],[98.032,53.258],[97.978,53.295],[97.959,53.363],[97.611,53.377],[97.589,53.442],[97.452,53.467],[97.336,53.599],[97.129,53.618],[96.895,53.729],[96.807,53.73],[96.715,53.703],[96.652,53.558],[96.563,53.539],[96.443,53.519],[96.367,53.563],[96.375,53.604],[96.295,53.589],[96.301,53.616],[96.251,53.621],[96.184,53.521],[96.111,53.494],[96.093,53.456],[95.756,53.525],[95.395,53.377],[95.306,53.4],[95.293,53.449],[95.246,53.462],[95.051,53.382],[94.976,53.41],[94.739,53.388],[94.592,53.32],[94.588,53.288],[94.672,53.276],[94.693,53.239],[94.6,53.179],[94.597,53.047],[94.507,52.914],[94.304,52.909],[94.146,52.846],[94.133,52.763],[94.067,52.671],[93.98,52.637],[93.978,52.582],[93.761,52.443],[93.76,52.368],[93.683,52.298],[93.668,52.224],[93.358,52.134],[93.227,52.041],[93.131,52.017],[93.07,51.949],[92.899,51.9],[92.854,51.839],[92.672,51.845],[92.506,51.787],[92.209,51.811],[92.104,51.788],[91.948,51.809],[91.885,51.861],[91.628,51.872],[91.558,51.905],[91.238,51.888],[91.101,51.948],[90.851,51.914],[90.738,52.074],[90.563,52.125],[90.493,52.187],[90.35,52.197],[90.127,52.139],[90.114,52.047],[90.023,51.987],[90.097,51.756],[89.963,51.766],[89.725,51.586],[89.58,51.558],[89.42,51.61],[89.259,51.554],[89.221,51.573],[89.238,51.646],[89.206,51.663],[89.032,51.605],[88.732,51.563],[88.962,51.424],[88.941,51.226],[89.037,51.17],[89.056,51.052],[89.194,50.964],[89.075,50.867],[89.324,50.663],[89.421,50.54],[89.734,50.424],[89.622,50.39],[89.61,50.432],[89.511,50.474],[89.509,50.372],[89.392,50.329],[89.332,50.215],[89.398,50.181],[89.502,50.199],[89.517,50.121],[89.578,50.096],[89.545,50.038],[89.598,49.995],[89.58,49.933],[89.62,49.904],[89.622,49.786],[89.699,49.747],[89.681,49.714],[89.44,49.648],[89.371,49.588],[89.215,49.639],[89.173,49.599],[89.194,49.527],[89.014,49.466],[88.889,49.547],[88.854,49.529],[88.853,49.442],[88.69,49.457],[88.616,49.498],[88.198,49.459],[88.111,49.358],[88.138,49.273],[87.955,49.174],[87.705,49.163],[87.5,49.119],[87.447,49.078],[87.116,49.13],[86.838,49.094],[86.709,48.954],[86.788,48.84],[86.739,48.784],[86.751,48.714],[86.564,48.527],[86.308,48.483],[86.192,48.418],[85.784,48.408],[85.719,48.359],[85.586,48.141],[85.515,47.92],[85.595,47.624],[85.585,47.493],[85.671,47.383],[85.679,47.275],[85.658,47.205],[85.557,47.179],[85.497,47.052],[85.226,47.042],[84.919,46.852],[84.74,46.815],[84.716,46.834],[84.752,46.918],[84.664,46.984],[84.266,47.0],[84.068,46.965],[83.905,46.974],[83.524,47.067],[83.15,47.212],[83.021,47.206],[82.986,46.943],[82.839,46.732],[82.675,46.331],[82.568,46.197],[82.489,45.901],[82.372,45.734],[82.292,45.533],[82.362,45.481],[82.514,45.466],[82.631,45.416],[82.615,45.248],[82.54,45.124],[82.474,45.117],[82.247,45.232],[81.949,45.145],[81.796,45.196],[81.739,45.338],[81.665,45.348],[81.541,45.293],[80.855,45.127],[80.697,45.144],[80.445,45.104],[80.39,45.046],[80.103,45.032],[79.858,44.904],[79.843,44.873],[79.869,44.849],[79.992,44.794],[80.244,44.816],[80.493,44.726],[80.49,44.701],[80.356,44.653],[80.38,44.608],[80.33,44.453],[80.373,44.232],[80.339,44.121],[80.404,44.049],[80.712,43.46],[80.643,43.326],[80.748,43.276],[80.793,43.15],[80.757,43.106],[80.618,43.134],[80.368,43.028],[80.374,42.975],[80.542,42.917],[80.549,42.88],[80.248,42.816],[80.144,42.645],[80.268,42.239],[80.21,42.19],[80.257,42.083],[80.232,42.035],[79.868,42.01],[79.748,41.88],[79.611,41.868],[79.392,41.773],[79.282,41.783],[78.658,41.533],[78.618,41.479],[78.36,41.378],[78.35,41.271],[78.076,41.041],[77.831,41.063],[77.503,40.981],[77.008,41.044],[76.861,41.013],[76.767,40.945],[76.762,40.847],[76.648,40.765],[76.61,40.598],[76.556,40.566],[76.476,40.436],[76.318,40.345],[76.244,40.441],[76.154,40.369],[76.052,40.39],[75.902,40.299],[75.682,40.292],[75.64,40.371],[75.667,40.45],[75.56,40.633],[75.197,40.442],[75.138,40.464],[75.005,40.447],[74.835,40.512],[74.787,40.421],[74.858,40.326],[74.706,40.331],[74.341,40.096],[74.17,40.107],[74.004,40.061],[73.832,39.824],[73.82,39.767],[73.893,39.711],[73.926,39.591],[73.837,39.475],[73.633,39.448],[73.644,39.35],[73.602,39.236],[73.709,39.066],[73.826,38.976],[73.815,38.937],[73.717,38.919],[73.681,38.873],[73.736,38.8],[73.736,38.722],[73.797,38.603],[73.933,38.53],[74.079,38.545],[74.063,38.595],[74.129,38.669],[74.315,38.669],[74.76,38.52],[74.832,38.464],[74.839,38.38],[74.771,38.292],[74.791,38.082],[74.881,38.02],[74.908,37.882],[74.886,37.831],[74.962,37.783],[74.886,37.653],[74.892,37.599],[75.154,37.405],[75.092,37.378],[75.067,37.312],[74.912,37.243],[74.823,37.332],[74.67,37.392],[74.546,37.382],[74.316,37.427],[74.224,37.403],[74.145,37.336],[73.728,37.224],[73.622,37.265],[73.77,37.343],[73.776,37.433],[73.441,37.48],[73.276,37.459],[72.899,37.253],[72.8,37.229],[72.729,37.144],[72.686,37.203],[72.648,37.408],[72.581,37.486],[72.331,37.62],[72.235,37.749],[72.118,39.032],[72.027,38.957],[72.011,38.871],[72.058,38.808],[72.004,38.757],[71.847,38.712],[71.75,38.647],[71.605,38.637],[71.533,38.574],[71.526,38.53],[71.427,38.479],[71.372,38.514],[71.275,38.491],[71.178,38.608],[71.043,38.607],[71.051,38.699],[71.007,38.803],[70.784,38.759],[70.733,38.804],[70.549,38.721],[70.591,38.655],[70.342,38.418],[70.341,38.156],[70.274,38.036],[70.295,37.998],[70.252,37.937],[70.172,37.946],[70.161,37.921],[70.179,37.861],[70.273,37.774],[70.283,37.704],[70.247,37.625],[70.128,37.533],[70.008,37.549],[69.919,37.617],[69.803,37.582],[69.509,37.579],[69.378,37.438],[69.41,37.246],[69.442,37.224],[69.324,37.121],[69.245,37.105],[69.125,37.168],[68.985,37.32],[68.888,37.338],[68.913,37.281],[68.836,37.329],[68.81,37.312],[68.816,37.254],[68.669,37.278],[68.625,37.206],[68.404,37.152],[68.394,37.106],[68.288,37.103],[68.278,37.012],[68.186,37.018],[68.022,36.927],[67.878,37.064],[67.775,37.109],[67.781,37.189],[67.747,37.229],[67.633,37.254],[67.56,37.222],[67.503,37.282],[67.257,37.186],[67.124,37.283],[67.097,37.341],[67.006,37.384],[66.296,37.331],[66.143,37.385],[66.08,37.441],[65.854,37.509],[65.761,37.578],[65.742,37.531],[65.659,37.51],[65.621,37.431],[65.624,37.345],[65.536,37.257],[65.063,37.233],[64.779,37.118],[64.756,37.054],[64.778,36.937],[64.605,36.661],[64.595,36.425],[64.477,36.271],[64.304,36.212],[64.267,36.153],[64.123,36.146],[64.045,36.092],[64.04,36.002],[63.89,36.03],[63.765,35.977],[63.582,35.959],[63.43,35.871],[63.104,35.856],[63.084,35.826],[63.112,35.77],[63.213,35.696],[63.077,35.625],[63.1,35.525],[63.079,35.436],[62.918,35.388],[62.622,35.223],[62.536,35.228],[62.432,35.281],[62.289,35.144],[62.234,35.294],[62.008,35.439],[61.603,35.431],[61.392,35.555],[61.352,35.628],[61.271,35.62],[61.246,35.649],[61.247,35.876],[61.206,35.94],[61.137,35.973],[61.225,36.124],[61.147,36.358],[61.188,36.565],[61.166,36.636],[60.342,36.638],[60.019,37.026],[59.653,37.15],[59.602,37.126],[59.556,37.198],[59.465,37.208],[59.469,37.241],[59.37,37.321],[59.356,37.481],[59.312,37.53],[59.21,37.517],[59.035,37.625],[58.801,37.695],[58.781,37.661],[58.682,37.643],[58.53,37.7],[58.478,37.643],[58.36,37.633],[58.21,37.677],[58.157,37.788],[57.798,37.868],[57.691,37.92],[57.495,37.923],[57.355,37.967],[57.328,37.995],[57.344,38.081],[57.186,38.276],[57.039,38.188],[56.73,38.271],[56.586,38.235],[56.436,38.255],[56.303,38.179],[56.315,38.089],[56.215,38.069],[55.962,38.067],[55.739,38.119],[55.447,38.084],[55.13,37.952],[54.857,37.761],[54.787,37.652],[54.809,37.601],[54.788,37.525],[54.653,37.439],[54.533,37.441],[54.207,37.325],[53.914,37.345],[53.806,37.865],[53.807,38.033],[53.867,38.33],[53.827,38.526],[53.853,38.661],[53.981,38.911],[53.863,39.032],[53.766,39.03],[53.643,39.121],[53.604,39.238],[53.568,39.214],[53.578,39.319],[53.539,39.333],[53.389,39.311],[53.243,39.358],[53.159,39.345],[53.198,39.324],[53.163,39.178],[53.086,39.402],[53.274,39.663],[53.314,39.659],[53.248,39.608],[53.217,39.525],[53.427,39.536],[53.492,39.481],[53.568,39.468],[53.574,39.523],[53.615,39.495],[53.732,39.515],[53.629,39.571],[53.655,39.582],[53.639,39.611],[53.515,39.655],[53.451,39.632],[53.41,39.664],[53.413,39.757],[53.388,39.77],[53.485,39.884],[53.537,39.896],[53.573,39.964],[53.428,40.004],[53.281,39.94],[52.935,39.99],[52.929,39.905],[53.054,39.769],[53.039,39.742],[53.009,39.759],[52.739,40.05],[52.735,40.203],[52.691,40.273],[52.739,40.498],[52.863,40.659],[52.828,40.716],[52.898,40.895],[52.917,41.085],[52.962,41.059],[53.04,40.886],[53.122,40.872],[53.065,40.844],[53.107,40.774],[53.182,40.768],[53.266,40.817],[53.245,40.775],[53.331,40.776],[53.373,40.834],[53.399,40.763],[53.483,40.737],[53.555,40.773],[53.555,40.838],[53.607,40.893],[53.656,40.864],[53.653,40.781],[53.721,40.695],[53.719,40.629],[53.863,40.626],[53.936,40.671],[54.088,40.682],[54.054,40.715],[54.173,40.73],[54.226,40.727],[54.219,40.693],[54.26,40.676],[54.373,40.685],[54.417,40.711],[54.318,40.724],[54.25,40.888],[54.332,40.927],[54.47,40.862],[54.478,40.81],[54.648,40.85],[54.76,40.964],[54.678,41.065],[54.743,41.049],[54.732,41.098],[54.075,41.475],[54.019,41.607],[53.992,41.798],[53.899,41.902],[53.898,42.069],[53.811,42.122],[53.666,42.142],[53.283,42.072],[53.15,42.095],[52.939,41.957],[52.821,41.697],[52.917,41.668],[52.821,41.401],[52.91,41.121],[52.874,41.052],[52.761,41.374],[52.561,41.517],[52.592,41.639],[52.434,41.757],[52.491,41.902],[52.403,42.092],[52.435,42.177],[52.594,42.335],[52.676,42.538],[52.663,42.613],[52.565,42.742],[52.663,42.667],[52.71,42.585],[52.735,42.703],[52.574,42.799],[52.466,42.826],[52.357,42.832],[52.277,42.797],[52.173,42.884],[51.898,42.845],[51.76,43.041],[51.676,43.102],[51.68,43.159],[51.652,43.182],[51.27,43.153],[51.318,43.442],[51.269,43.555],[51.112,43.662],[50.907,44.006],[50.86,44.028],[50.843,44.189],[50.751,44.242],[50.285,44.328],[50.23,44.39],[50.224,44.564],[50.313,44.661],[50.643,44.621],[50.871,44.629],[51.115,44.488],[51.366,44.56],[51.374,44.528],[51.56,44.511],[51.55,44.547],[51.437,44.606],[51.297,44.601],[51.227,44.723],[50.962,44.856],[50.96,44.978],[51.242,45.1],[51.251,45.175],[51.417,45.384],[51.491,45.336],[51.593,45.345],[51.7,45.392],[51.757,45.455],[51.792,45.405],[51.94,45.367],[52.008,45.395],[52.52,45.409],[53.083,45.302],[53.227,45.339],[52.747,45.519],[52.732,45.553],[52.748,45.645],[52.954,45.83],[53.082,46.005],[53.157,46.272],[53.127,46.393],[52.998,46.491],[53.04,46.574],[53.085,46.552],[53.108,46.622],[53.118,46.602],[53.205,46.656],[53.188,46.718],[53.106,46.74],[53.059,46.889],[52.866,46.952],[52.603,46.949],[52.454,46.996],[52.242,46.804],[52.09,46.815],[51.778,46.905],[51.685,46.959],[51.635,47.042],[51.593,46.988],[51.515,47.057],[51.194,47.115],[50.844,47.008],[50.746,46.91],[50.71,46.946],[50.61,46.907],[50.571,46.83],[50.578,46.878],[50.502,46.865],[50.43,46.897],[50.379,46.814],[50.374,46.854],[50.233,46.729],[50.222,46.761],[50.155,46.739],[50.035,46.637],[49.815,46.542],[49.703,46.56],[49.703,46.519],[49.621,46.575],[49.627,46.519],[49.493,46.518],[49.504,46.499],[49.324,46.565],[49.394,46.478],[49.367,46.389],[49.281,46.439],[49.255,46.424],[49.292,46.396],[49.217,46.378],[49.277,46.262],[49.154,46.287],[49.102,46.243],[49.1,46.166],[49.047,46.196],[48.935,46.142],[48.946,46.102],[48.914,46.132],[48.858,46.115],[48.865,46.083],[48.82,46.104],[48.816,46.059],[48.714,46.129],[48.637,46.083],[48.697,46.058],[48.751,45.963],[48.761,45.858],[48.718,45.832],[48.571,45.964],[48.461,45.936],[48.36,45.863],[48.414,45.844],[48.334,45.839],[48.223,45.744],[47.936,45.723],[47.898,45.697],[47.854,45.717],[47.828,45.659],[47.557,45.768],[47.625,45.707],[47.642,45.56],[47.541,45.666],[47.433,45.694],[47.488,45.726],[47.39,45.745],[47.428,45.676],[47.547,45.632],[47.57,45.557],[47.416,45.348],[47.372,45.189],[47.34,45.191],[47.202,44.974],[47.135,44.94],[47.073,44.783],[47.033,44.83],[46.932,44.761],[46.934,44.735],[47.002,44.736],[46.804,44.649],[46.763,44.607],[46.773,44.542],[46.738,44.503],[46.781,44.445],[46.93,44.433],[46.944,44.398],[47.033,44.362],[47.128,44.22],[47.223,44.236],[47.447,43.875],[47.483,43.862],[47.469,43.841],[47.526,43.822],[47.457,43.681],[47.368,43.613],[47.404,43.511],[47.465,43.551],[47.554,43.876],[47.753,43.912],[47.607,43.746],[47.54,43.586],[47.492,43.332],[47.556,43.34],[47.585,43.293],[47.49,43.176],[47.466,43.017],[47.699,42.868],[47.721,42.702],[47.76,42.633],[47.888,42.581],[47.94,42.48],[48.097,42.348],[48.303,42.104],[48.387,41.937],[48.491,41.914],[48.655,41.801],[48.904,41.523],[49.029,41.429],[49.136,41.275],[49.195,41.057],[49.382,40.866],[49.536,40.789],[49.51,40.691],[49.538,40.655],[49.814,40.566],[50.05,40.584],[50.235,40.497],[50.359,40.367],[50.388,40.221],[50.298,40.312],[50.128,40.358],[49.847,40.316],[49.494,40.155],[49.495,40.096],[49.433,40.061],[49.48,39.989],[49.408,39.801],[49.424,39.712],[49.319,39.61],[49.286,39.498],[49.408,39.388],[49.407,39.324],[49.37,39.338],[49.407,39.289],[49.294,39.343],[49.255,39.315],[49.201,39.027],[49.084,38.964],[49.055,39.004],[49.14,39.047],[49.145,39.088],[49.07,39.113],[49.044,39.18],[48.964,39.176],[48.935,39.118],[48.949,39.009],[48.867,38.746],[48.869,38.435],[48.778,38.445],[48.608,38.396],[48.415,38.618],[48.309,38.601],[48.23,38.662],[48.223,38.722],[48.012,38.824],[47.991,38.89],[48.059,38.948],[48.243,38.974],[48.301,39.017],[48.271,39.108],[48.143,39.181],[48.106,39.267],[48.153,39.319],[48.339,39.379],[47.957,39.707],[47.823,39.68],[47.542,39.516],[47.407,39.477],[47.291,39.379],[47.102,39.308],[47.021,39.191],[46.851,39.156],[46.533,38.883],[46.378,38.925],[46.126,38.863],[45.531,38.969],[45.433,39.009],[45.435,39.053],[45.311,39.201],[45.152,39.216],[45.088,39.351],[44.957,39.436],[44.872,39.625],[44.59,39.772],[44.459,39.698],[44.455,39.646],[43.973,39.643],[43.716,39.728],[43.664,39.796],[43.563,39.833],[43.366,39.793],[43.318,39.969],[43.265,39.987],[43.064,39.989],[42.757,39.922],[42.567,39.952],[42.485,40.059],[42.349,40.141],[42.231,40.161],[42.152,40.241],[42.183,40.295],[42.538,40.431],[42.514,40.53],[42.537,40.599],[42.3,40.847],[42.279,40.925],[42.024,40.912],[41.959,40.878],[41.952,40.794],[41.821,40.589],[41.657,40.641],[41.404,40.556],[41.337,40.599],[41.365,40.755],[41.129,40.816],[41.386,41.075],[41.256,41.173],[41.202,41.301],[41.409,41.39],[41.615,41.633],[41.68,41.669],[41.774,41.821],[41.761,41.961],[41.659,42.126],[41.454,42.716],[41.216,42.8],[41.158,42.792],[41.026,42.978],[40.937,42.975],[40.845,43.066],[40.592,43.086],[40.36,43.164],[40.333,43.145],[40.219,43.316],[39.918,43.412],[39.868,43.495],[39.72,43.567],[39.323,43.9],[38.754,44.273],[38.6,44.329],[38.2,44.389],[38.032,44.558],[37.931,44.604],[37.934,44.637],[37.867,44.692],[37.786,44.722],[37.822,44.667],[37.807,44.637],[37.485,44.671],[37.376,44.741],[37.295,44.865],[37.304,44.899],[37.203,44.98],[36.882,45.086],[36.629,45.126],[36.58,45.184],[36.962,45.283],[36.944,45.317],[36.789,45.294],[36.762,45.356],[36.803,45.313],[36.835,45.358],[36.77,45.384],[36.668,45.326],[36.707,45.392],[36.831,45.442],[37.13,45.337],[37.106,45.273],[37.072,45.266],[37.1,45.238],[37.314,45.275],[37.161,45.326],[37.393,45.317],[37.519,45.369],[37.735,45.306],[37.703,45.339],[37.741,45.383],[37.717,45.389],[37.723,45.461],[37.687,45.486],[37.7,45.558],[37.632,45.576],[37.662,45.567],[37.635,45.553],[37.646,45.45],[37.618,45.418],[37.585,45.429],[37.591,45.626],[37.623,45.667],[37.669,45.615],[37.703,45.622],[37.668,45.669],[37.835,45.761],[37.93,46.014],[38.098,46.058],[38.071,45.954],[38.096,45.945],[38.166,46.117],[38.247,46.141],[38.446,46.034],[38.553,46.032],[38.571,46.091],[38.297,46.219],[38.268,46.272],[38.087,46.39],[37.983,46.393],[38.019,46.368],[37.993,46.348],[37.899,46.407],[37.825,46.48],[37.734,46.672],[37.851,46.623],[37.99,46.619],[38.27,46.73],[38.314,46.676],[38.585,46.657],[38.582,46.696],[38.483,46.739],[38.422,46.743],[38.378,46.708],[38.369,46.757],[38.415,46.833],[38.837,46.906],[38.896,46.965],[39.099,47.041],[39.28,47.02],[39.293,47.058],[39.232,47.088],[39.263,47.112],[39.216,47.19],[39.243,47.262],[39.092,47.281],[38.957,47.254],[38.955,47.201],[38.561,47.112],[38.486,47.128],[38.504,47.187],[38.45,47.135],[38.236,47.109],[38.135,47.063],[38.072,47.095],[37.559,47.086],[37.324,46.902],[37.197,46.926],[36.93,46.831],[36.766,46.63],[36.744,46.65],[36.802,46.725],[36.615,46.775],[36.379,46.709],[36.234,46.562],[36.257,46.621],[36.215,46.66],[35.907,46.651],[35.76,46.593],[35.628,46.489],[35.484,46.442],[35.198,46.156],[35.122,46.111],[34.981,46.082],[35.037,46.147],[35.205,46.185],[35.27,46.266],[35.217,46.279],[35.24,46.309],[35.22,46.337],[35.17,46.291],[35.12,46.302],[34.823,46.185],[34.865,45.962],[34.991,45.733],[35.319,45.377],[35.458,45.298],[35.697,45.328],[35.863,45.404],[36.015,45.36],[36.134,45.458],[36.29,45.465],[36.602,45.419],[36.636,45.351],[36.494,45.339],[36.431,45.271],[36.405,45.156],[36.445,45.075],[36.23,45.006],[35.86,44.986],[35.728,45.081],[35.526,45.118],[35.149,44.892],[35.085,44.792],[34.964,44.839],[34.724,44.809],[34.441,44.705],[34.334,44.547],[34.129,44.435],[33.956,44.381],[33.712,44.394],[33.579,44.492],[33.459,44.513],[33.369,44.584],[33.554,44.624],[33.52,44.781],[33.621,44.918],[33.546,45.109],[33.396,45.185],[33.275,45.156],[33.177,45.19],[32.935,45.343],[32.727,45.355],[32.656,45.313],[32.569,45.32],[32.51,45.34],[32.482,45.396],[32.53,45.458],[32.933,45.658],[33.769,45.925],[33.646,45.972],[33.594,46.156],[33.433,46.046],[33.316,46.124],[33.189,46.16],[33.123,46.131],[32.774,46.13],[32.5,46.076],[32.268,46.126],[32.243,46.173],[32.027,46.256],[31.79,46.285],[31.769,46.311],[31.814,46.339],[31.976,46.35],[32.057,46.392],[32.007,46.448],[31.772,46.494],[31.658,46.472],[31.568,46.544],[31.765,46.553],[32.348,46.459],[32.447,46.551],[32.642,46.642],[32.329,46.557],[32.243,46.601],[32.141,46.561],[32.014,46.634],[31.936,46.766],[32.008,46.905],[31.981,47.008],[31.752,47.252],[31.727,47.232],[31.816,47.178],[31.868,47.082],[31.839,47.013],[31.907,46.924],[31.965,46.919],[31.943,46.857],[31.864,46.796],[31.907,46.732],[31.906,46.653],[31.812,46.616],[31.647,46.653],[31.574,46.608],[31.482,46.631],[31.596,46.797],[31.418,46.625],[31.337,46.602],[31.053,46.612],[30.833,46.548],[30.78,46.481],[30.766,46.38],[30.507,46.094],[30.244,45.872],[29.625,45.503],[29.674,45.466],[29.745,45.49],[29.744,45.463],[29.784,45.461],[29.754,45.223],[29.669,45.212],[29.641,45.346],[29.412,45.436],[29.229,45.427],[28.955,45.319],[28.945,45.282],[28.849,45.302],[28.797,45.239],[28.702,45.22],[28.342,45.317],[28.279,45.429],[28.174,45.473],[28.07,45.595],[28.155,45.628],[28.164,45.661],[28.083,46.014],[28.14,46.193],[28.114,46.232],[28.176,46.286],[28.247,46.436],[28.219,46.506],[28.247,46.606],[28.23,46.669],[28.123,46.832],[28.083,46.972],[27.807,47.144],[27.742,47.263],[27.634,47.308],[27.433,47.565],[27.3,47.659],[27.202,47.898],[27.165,47.921],[27.159,47.986],[27.095,48.009],[27.109,48.034],[27.043,48.076],[27.042,48.112],[26.973,48.143],[26.997,48.158],[26.817,48.247],[26.704,48.264],[26.325,48.183],[26.3,48.267],[26.15,48.448],[26.174,48.53],[26.366,48.509],[26.313,48.644],[26.209,48.721],[26.236,48.808],[26.17,48.971],[26.203,49.018],[26.203,49.414],[26.15,49.517],[26.211,49.57],[26.233,49.674],[26.205,49.705],[26.229,49.732],[26.077,49.741],[25.961,49.702],[25.762,49.698],[25.613,49.766],[25.509,49.832],[25.431,49.971],[25.196,50.1],[25.175,50.278],[25.073,50.285],[25.062,50.338],[24.716,50.345],[24.558,50.438],[24.51,50.41],[24.456,50.472],[24.538,50.506],[24.478,50.541],[24.146,50.617],[23.996,50.5],[23.684,50.451],[23.631,50.379],[23.133,50.346],[22.956,50.284],[22.609,50.327],[22.478,50.296],[22.36,50.399],[22.388,50.518],[22.362,50.563],[22.055,50.663],[21.98,50.767],[21.935,50.784],[21.827,50.765],[21.661,50.544],[21.202,50.339],[20.79,50.275],[20.63,50.166],[20.247,50.074],[20.195,50.114],[19.845,50.14],[19.513,50.224],[19.165,50.243],[19.021,50.408],[19.024,50.529],[19.077,50.62],[19.041,50.661],[18.931,50.734],[18.733,50.783],[18.609,50.849],[18.634,50.927],[18.603,50.99],[18.478,51.022],[18.428,51.109],[18.359,51.146],[18.295,51.128],[18.179,51.166],[18.167,51.296],[18.215,51.416],[18.157,51.489],[18.198,51.566],[18.108,51.613],[18.115,51.699],[17.977,51.882],[17.665,52.104],[17.68,52.189],[17.836,52.256],[17.948,52.381],[18.122,52.466],[18.381,52.462],[18.478,52.55],[18.463,52.677],[18.599,52.725],[18.61,52.826],[18.768,52.885],[18.821,53.014],[19.103,53.062],[19.367,53.182],[19.741,53.149],[20.041,53.176],[20.373,53.151],[20.521,53.338],[20.925,53.298],[21.301,53.456],[21.53,53.491],[21.811,53.475],[22.016,53.531],[22.543,53.774],[22.622,53.925],[22.468,54.039],[22.449,54.099],[22.352,54.18],[22.444,54.257],[22.68,54.281],[22.775,54.328],[22.78,54.362],[22.68,54.455],[22.682,54.57],[22.727,54.723],[22.846,54.796],[22.829,54.873],[22.716,54.951],[22.633,54.96],[22.587,55.046],[22.535,55.062],[22.249,55.064],[22.059,55.029],[21.646,55.178],[21.502,55.195],[21.378,55.278],[21.271,55.251],[21.288,55.292],[21.257,55.369],[21.183,55.346],[21.248,55.442],[21.224,55.517],[21.058,55.783],[21.053,56.073],[20.973,56.235],[21.003,56.516],[21.067,56.437]]],[[[-177.21,65.593],[-177.501,65.486],[-178.37,65.476],[-178.554,65.513],[-178.569,65.542],[-178.456,65.728],[-178.657,65.763],[-178.811,65.868],[-178.907,65.993],[-178.725,66.009],[-178.674,66.113],[-178.542,66.163],[-178.505,66.393],[-178.605,66.365],[-178.785,66.205],[-178.993,66.169],[-179.109,66.246],[-179.083,66.298],[-179.109,66.37],[-179.171,66.415],[-179.178,66.292],[-179.424,66.341],[-179.25,66.199],[-179.325,66.149],[-179.635,66.118],[-179.652,66.134],[-179.58,66.148],[-179.689,66.184],[-179.762,66.117],[-179.823,65.944],[-179.741,65.792],[-179.33,65.627],[-179.321,65.533],[-179.538,65.429],[-179.57,65.266],[-179.7,65.165],[-179.998,65.074],[-179.998,68.975],[-179.626,68.906],[-179.529,68.915],[-179.537,68.948],[-179.509,68.956],[-179.423,68.896],[-179.391,68.823],[-178.922,68.768],[-178.528,68.599],[-178.716,68.656],[-178.758,68.575],[-178.74,68.543],[-178.039,68.424],[-177.951,68.29],[-177.706,68.337],[-178.347,68.538],[-177.636,68.326],[-177.634,68.295],[-177.753,68.257],[-177.68,68.224],[-177.363,68.25],[-177.253,68.211],[-177.241,68.151],[-177.162,68.128],[-177.104,68.153],[-176.972,68.134],[-175.876,67.829],[-175.896,67.807],[-175.866,67.826],[-175.464,67.708],[-175.192,67.514],[-175.218,67.449],[-175.376,67.343],[-175.099,67.371],[-175.04,67.443],[-174.833,67.384],[-174.785,67.306],[-174.893,67.29],[-174.955,67.104],[-174.915,66.992],[-174.813,66.944],[-174.745,66.766],[-174.763,66.734],[-174.858,66.746],[-174.995,66.672],[-174.906,66.616],[-174.505,66.551],[-174.437,66.462],[-174.516,66.455],[-174.467,66.303],[-174.354,66.333],[-174.372,66.364],[-174.196,66.464],[-174.025,66.48],[-173.993,66.457],[-174.087,66.262],[-174.037,66.214],[-173.956,66.278],[-173.937,66.333],[-173.782,66.373],[-173.762,66.45],[-173.918,66.516],[-174.302,66.582],[-173.983,66.697],[-173.997,66.798],[-174.125,66.989],[-174.294,67.059],[-174.508,67.031],[-174.651,67.06],[-174.432,67.103],[-173.828,67.087],[-173.676,67.132],[-173.173,67.059],[-173.274,67.049],[-173.354,66.97],[-173.357,66.84],[-173.155,66.86],[-173.21,66.886],[-173.222,66.973],[-173.138,66.996],[-173.06,66.938],[-172.82,66.909],[-172.436,66.938],[-173.01,67.028],[-173.006,67.056],[-172.328,66.962],[-171.725,66.955],[-171.695,66.936],[-171.719,66.886],[-171.7,66.85],[-171.418,66.772],[-171.399,66.752],[-171.423,66.704],[-171.343,66.651],[-170.882,66.516],[-170.49,66.325],[-170.637,66.239],[-170.349,66.291],[-170.202,66.247],[-170.188,66.2],[-170.331,66.179],[-170.223,66.144],[-169.791,66.151],[-169.708,66.126],[-169.692,66.083],[-169.783,65.992],[-170.037,66.036],[-170.159,66.015],[-170.578,65.853],[-170.516,65.82],[-170.531,65.672],[-170.635,65.611],[-170.894,65.634],[-171.542,65.836],[-171.288,65.666],[-171.028,65.581],[-171.076,65.483],[-171.393,65.538],[-171.947,65.485],[-172.083,65.484],[-171.814,65.521],[-172.04,65.534],[-172.103,65.564],[-172.248,65.538],[-172.351,65.663],[-172.654,65.703],[-172.803,65.675],[-172.436,65.592],[-172.425,65.483],[-172.462,65.472],[-172.422,65.427],[-172.193,65.448],[-172.255,65.353],[-172.248,65.248],[-172.68,65.269],[-172.683,65.228],[-172.305,65.217],[-172.132,65.081],[-172.466,64.92],[-172.541,64.925],[-172.782,64.851],[-173.046,64.863],[-173.195,64.778],[-172.998,64.841],[-172.897,64.83],[-172.779,64.775],[-173.085,64.663],[-172.954,64.672],[-172.735,64.594],[-172.462,64.553],[-172.356,64.456],[-172.364,64.423],[-172.631,64.389],[-172.758,64.422],[-172.829,64.525],[-173.026,64.497],[-173.061,64.477],[-172.883,64.447],[-172.899,64.338],[-172.992,64.282],[-173.193,64.255],[-173.427,64.323],[-173.299,64.461],[-173.284,64.52],[-173.415,64.617],[-173.352,64.496],[-173.363,64.466],[-173.469,64.394],[-173.675,64.347],[-174.051,64.424],[-174.127,64.557],[-174.703,64.732],[-174.704,64.761],[-175.005,64.813],[-175.053,64.779],[-175.443,64.784],[-175.472,64.856],[-175.808,64.957],[-175.901,65.021],[-175.811,65.063],[-175.781,65.161],[-175.861,65.235],[-175.928,65.398],[-176.078,65.47],[-177.068,65.61],[-177.21,65.593]]],[[[55.174,73.711],[54.855,73.728],[54.542,73.702],[54.267,73.606],[54.061,73.606],[53.669,73.737],[53.635,73.76],[53.65,73.801],[53.899,73.779],[54.249,73.911],[54.8,73.977],[54.591,74.008],[54.695,74.07],[55.024,74.173],[55.167,74.186],[55.268,74.151],[55.862,74.108],[55.525,74.206],[55.075,74.261],[55.219,74.305],[55.307,74.277],[55.703,74.268],[55.742,74.293],[55.665,74.326],[55.234,74.366],[55.367,74.435],[56.281,74.487],[56.052,74.493],[56.075,74.514],[56.008,74.542],[55.498,74.569],[55.527,74.645],[55.57,74.66],[55.774,74.689],[55.915,74.658],[56.389,74.718],[56.611,74.677],[56.984,74.687],[56.599,74.694],[56.484,74.793],[55.939,74.775],[55.828,74.802],[55.919,74.842],[56.676,74.949],[56.296,74.958],[56.473,75.013],[56.419,75.035],[55.887,74.989],[55.862,74.996],[55.94,75.064],[55.917,75.082],[55.729,75.076],[55.804,75.15],[56.055,75.216],[56.161,75.149],[56.357,75.189],[56.481,75.061],[56.908,75.237],[56.875,75.281],[56.732,75.298],[56.872,75.36],[57.053,75.39],[57.737,75.323],[57.655,75.427],[57.545,75.452],[57.518,75.495],[57.65,75.532],[58.181,75.578],[58.193,75.602],[58.153,75.623],[57.926,75.626],[58.042,75.68],[58.516,75.724],[58.546,75.759],[58.789,75.839],[59.145,75.86],[59.416,75.934],[59.744,75.926],[60.041,75.986],[60.328,75.993],[60.343,76.01],[60.044,76.044],[60.274,76.107],[60.811,76.119],[60.469,76.014],[60.729,76.002],[60.818,76.058],[61.083,76.075],[61.156,76.131],[60.905,76.148],[60.994,76.246],[61.066,76.274],[61.68,76.31],[62.029,76.252],[62.306,76.257],[62.392,76.19],[62.503,76.177],[62.734,76.258],[62.844,76.258],[62.905,76.207],[62.98,76.21],[63.721,76.346],[64.11,76.311],[64.666,76.417],[64.797,76.474],[64.986,76.494],[65.162,76.468],[65.548,76.582],[65.975,76.528],[66.019,76.541],[65.771,76.685],[65.924,76.744],[66.152,76.758],[66.682,76.902],[67.545,77.011],[68.506,76.954],[68.929,76.78],[68.889,76.673],[68.79,76.585],[68.863,76.574],[68.859,76.542],[68.4,76.364],[68.213,76.327],[68.319,76.288],[68.291,76.28],[67.997,76.266],[67.036,76.084],[65.409,75.88],[65.135,75.808],[64.115,75.717],[63.812,75.655],[63.656,75.712],[63.556,75.707],[63.607,75.686],[63.536,75.636],[63.306,75.586],[63.023,75.586],[62.243,75.433],[62.018,75.441],[61.855,75.382],[61.699,75.367],[61.65,75.28],[61.514,75.224],[61.397,75.237],[61.381,75.331],[61.283,75.318],[61.295,75.29],[61.149,75.207],[60.811,75.137],[60.75,75.102],[60.805,75.081],[60.737,75.025],[60.59,75.036],[60.571,75.06],[60.602,75.1],[60.516,75.114],[60.442,75.063],[60.452,75.024],[60.424,75.011],[59.93,74.997],[60.105,74.967],[60.606,74.966],[60.677,74.932],[60.556,74.862],[60.204,74.846],[60.367,74.786],[60.315,74.759],[59.937,74.718],[59.51,74.795],[59.628,74.729],[59.868,74.68],[59.868,74.624],[59.766,74.589],[59.574,74.602],[59.17,74.72],[59.288,74.641],[59.122,74.541],[59.093,74.483],[59.147,74.439],[58.783,74.461],[58.717,74.5],[58.192,74.575],[58.181,74.557],[58.61,74.429],[58.625,74.363],[58.74,74.263],[58.507,74.165],[58.28,74.218],[58.265,74.173],[58.385,74.131],[58.328,74.092],[58.252,74.133],[58.137,74.137],[58.139,74.076],[58.217,74.007],[58.135,73.985],[57.729,74.048],[57.534,74.182],[57.415,74.18],[57.519,74.12],[57.515,74.082],[57.258,74.076],[57.552,74.058],[57.91,73.915],[57.936,73.799],[57.723,73.715],[57.403,73.838],[56.568,73.88],[57.33,73.824],[57.613,73.662],[57.584,73.61],[57.351,73.55],[57.055,73.586],[56.727,73.672],[56.755,73.599],[57.249,73.487],[57.226,73.45],[56.909,73.31],[56.758,73.36],[56.744,73.246],[56.128,73.288],[56.043,73.323],[56.009,73.419],[55.908,73.44],[55.878,73.434],[55.983,73.369],[55.978,73.327],[55.929,73.305],[55.749,73.346],[55.391,73.339],[54.972,73.442],[54.535,73.401],[54.215,73.324],[54.037,73.383],[54.299,73.417],[54.333,73.459],[54.25,73.477],[54.247,73.508],[54.373,73.566],[54.753,73.659],[55.174,73.711]]],[[[143.298,46.515],[143.136,46.594],[142.782,46.598],[142.719,46.742],[142.528,46.683],[142.446,46.614],[142.295,46.341],[142.199,46.026],[142.085,45.894],[141.928,46.046],[141.9,46.27],[141.819,46.485],[141.814,46.593],[142.057,47.079],[142.032,47.227],[141.974,47.287],[141.966,47.613],[142.094,47.858],[142.188,47.954],[142.133,48.32],[141.912,48.615],[141.854,48.758],[141.965,48.864],[141.999,48.956],[142.142,49.568],[142.154,49.79],[142.125,49.9],[142.173,50.091],[142.151,50.333],[142.042,50.552],[142.097,50.823],[142.235,51.007],[142.268,51.105],[142.085,51.4],[142.074,51.474],[141.687,51.747],[141.822,51.736],[141.777,51.825],[141.639,51.885],[141.643,52.085],[141.694,52.153],[141.64,52.315],[141.655,52.375],[141.768,52.455],[141.838,52.581],[141.811,52.603],[141.859,52.852],[141.923,53.013],[141.833,53.155],[141.769,53.372],[141.956,53.456],[142.241,53.529],[142.237,53.42],[142.264,53.38],[142.46,53.383],[142.578,53.501],[142.68,53.522],[142.609,53.57],[142.511,53.551],[142.503,53.663],[142.639,53.682],[142.719,53.64],[142.799,53.704],[142.76,53.833],[142.673,53.715],[142.607,53.696],[142.693,53.846],[142.708,53.948],[142.485,54.125],[142.395,54.243],[142.283,54.297],[142.438,54.27],[142.537,54.297],[142.529,54.252],[142.57,54.235],[142.57,54.277],[142.649,54.283],[142.626,54.329],[142.703,54.426],[143.008,54.13],[142.999,54.061],[142.879,53.895],[142.933,53.858],[143.002,53.701],[142.927,53.83],[142.89,53.813],[143.104,53.555],[143.131,53.476],[143.094,53.384],[143.182,53.398],[143.211,53.361],[143.359,52.873],[143.305,52.473],[143.194,52.337],[143.198,52.426],[143.291,52.586],[143.256,52.593],[143.153,52.382],[143.18,52.312],[143.133,52.08],[143.16,51.982],[143.126,51.967],[143.163,51.874],[143.213,51.855],[143.241,51.88],[143.318,51.706],[143.261,51.678],[143.224,51.522],[143.311,51.513],[143.331,51.615],[143.363,51.641],[143.448,51.507],[143.475,51.343],[143.384,51.347],[143.478,51.276],[143.495,51.309],[143.522,51.283],[143.79,50.309],[144.004,50.011],[144.156,49.615],[144.228,49.518],[144.222,49.438],[144.283,49.25],[144.385,49.073],[144.684,48.874],[144.703,48.689],[144.757,48.643],[144.681,48.649],[144.635,48.79],[144.533,48.917],[144.284,49.07],[144.158,49.192],[144.02,49.259],[143.663,49.313],[143.426,49.3],[143.137,49.223],[142.985,49.083],[142.99,48.915],[142.537,48.01],[142.545,47.767],[142.592,47.642],[142.714,47.485],[142.909,47.366],[143.015,47.254],[143.106,46.866],[143.174,46.86],[143.085,46.817],[143.173,46.708],[143.341,46.684],[143.389,46.707],[143.349,46.749],[143.193,46.781],[143.173,46.815],[143.195,46.84],[143.386,46.794],[143.456,46.846],[143.51,46.772],[143.526,46.585],[143.577,46.415],[143.626,46.375],[143.478,46.191],[143.475,46.09],[143.428,46.019],[143.426,46.204],[143.345,46.38],[143.332,46.487],[143.37,46.492],[143.385,46.533],[143.276,46.56],[143.298,46.515]]],[[[53.561,71.201],[53.465,71.257],[53.734,71.409],[53.893,71.418],[53.941,71.458],[53.908,71.471],[53.556,71.38],[53.544,71.318],[53.48,71.292],[53.364,71.327],[53.259,71.443],[53.435,71.542],[53.365,71.565],[53.181,71.493],[53.029,71.501],[52.918,71.406],[52.624,71.496],[52.553,71.594],[52.432,71.548],[52.378,71.49],[52.287,71.508],[52.216,71.563],[52.141,71.537],[52.201,71.488],[51.796,71.475],[51.553,71.593],[51.42,71.731],[51.395,71.848],[51.574,72.07],[51.844,72.159],[52.052,72.101],[52.33,72.062],[52.403,72.08],[52.416,72.226],[52.58,72.26],[52.746,72.337],[52.69,72.372],[52.67,72.435],[52.792,72.509],[52.874,72.514],[52.909,72.569],[53.084,72.594],[52.734,72.556],[52.754,72.635],[52.964,72.67],[53.214,72.649],[52.977,72.683],[52.543,72.674],[52.382,72.727],[52.599,72.854],[52.975,72.92],[53.374,72.879],[53.392,72.928],[53.144,72.962],[53.148,73.005],[53.382,73.008],[53.128,73.092],[53.155,73.153],[53.329,73.217],[53.561,73.23],[53.789,73.302],[54.227,73.274],[54.569,73.381],[54.936,73.422],[55.322,73.332],[55.761,73.324],[56.435,73.226],[56.578,73.13],[55.812,73.058],[56.449,73.049],[56.343,72.994],[55.622,72.963],[56.006,72.942],[56.251,72.97],[56.218,72.835],[56.164,72.792],[56.011,72.774],[55.84,72.801],[55.737,72.773],[55.485,72.809],[55.437,72.782],[55.835,72.744],[55.944,72.665],[55.723,72.64],[55.67,72.562],[55.608,72.536],[55.453,72.576],[55.267,72.582],[55.448,72.564],[55.548,72.52],[55.543,72.479],[55.133,72.451],[55.462,72.429],[55.479,72.27],[55.573,72.192],[55.383,72.102],[55.345,72.065],[55.397,72.023],[55.324,71.95],[55.221,71.926],[55.505,71.891],[55.537,71.76],[55.675,71.605],[56.031,71.346],[56.077,71.275],[56.228,71.194],[56.954,70.896],[57.465,70.806],[57.633,70.728],[57.551,70.724],[57.448,70.606],[57.387,70.603],[56.744,70.699],[56.866,70.639],[57.097,70.626],[57.314,70.561],[56.596,70.641],[56.504,70.673],[56.514,70.721],[56.574,70.736],[56.546,70.749],[56.22,70.66],[56.332,70.644],[56.375,70.653],[56.337,70.674],[56.455,70.67],[56.641,70.582],[56.541,70.541],[56.511,70.551],[56.554,70.572],[56.54,70.589],[56.374,70.588],[56.059,70.662],[56.047,70.642],[56.179,70.606],[56.126,70.594],[55.854,70.672],[56.022,70.587],[55.873,70.58],[55.711,70.62],[55.778,70.632],[55.751,70.698],[55.603,70.723],[55.665,70.682],[55.407,70.748],[55.249,70.675],[55.233,70.658],[55.292,70.606],[55.186,70.552],[54.779,70.668],[54.705,70.712],[54.688,70.758],[54.574,70.781],[54.5,70.784],[54.479,70.734],[54.742,70.654],[54.558,70.677],[54.282,70.771],[54.252,70.729],[54.054,70.74],[53.831,70.809],[53.728,70.793],[53.53,70.834],[53.465,70.814],[53.394,70.852],[53.572,70.886],[53.676,70.865],[53.739,70.949],[53.509,71.06],[53.511,71.085],[53.938,71.14],[54.057,71.118],[53.928,71.123],[53.916,71.099],[54.119,71.094],[54.236,71.125],[54.126,71.121],[53.953,71.175],[53.811,71.153],[53.561,71.201]]],[[[142.661,75.305],[142.501,75.36],[142.509,75.455],[142.73,75.547],[143.016,75.595],[143.042,75.664],[142.926,75.717],[142.447,75.711],[142.423,75.672],[142.23,75.655],[142.14,75.591],[142.114,75.501],[142.153,75.378],[142.213,75.333],[142.418,75.256],[142.635,75.094],[143.099,75.058],[143.393,75.002],[143.581,75.012],[143.692,74.939],[143.431,74.888],[142.689,74.893],[142.622,74.846],[142.656,74.833],[142.488,74.812],[142.071,74.89],[141.979,74.937],[142.068,74.963],[142.356,74.929],[142.17,75.004],[140.062,74.831],[139.979,74.895],[139.647,74.979],[139.463,74.929],[139.473,74.871],[139.562,74.848],[139.496,74.76],[139.345,74.686],[139.096,74.647],[138.743,74.723],[138.027,74.804],[137.876,74.852],[137.768,74.986],[137.141,75.132],[136.914,75.27],[136.863,75.35],[137.024,75.388],[137.172,75.332],[137.405,75.352],[137.426,75.38],[137.395,75.411],[137.133,75.417],[137.287,75.592],[137.165,75.648],[136.98,75.597],[137.069,75.564],[136.983,75.581],[136.972,75.606],[137.146,75.654],[137.148,75.695],[137.082,75.725],[137.204,75.784],[137.74,75.746],[137.721,75.779],[137.432,75.879],[137.415,75.937],[137.709,76.009],[138.003,76.019],[138.101,76.059],[138.113,76.077],[138.081,76.087],[138.217,76.132],[138.336,76.145],[138.388,76.071],[138.446,76.059],[138.494,76.163],[138.564,76.193],[138.871,76.22],[138.953,76.198],[138.981,76.148],[139.095,76.096],[139.645,75.979],[139.819,75.97],[139.895,75.929],[139.833,75.926],[139.794,75.884],[139.935,75.836],[140.16,75.801],[140.439,75.811],[140.53,75.778],[140.539,75.751],[140.459,75.704],[140.431,75.65],[140.863,75.61],[141.056,75.642],[140.873,75.74],[140.91,75.841],[140.879,75.9],[140.951,76.028],[141.19,76.058],[141.612,76.017],[141.307,76.175],[141.357,76.18],[141.764,76.1],[142.56,75.858],[143.088,75.806],[143.584,75.867],[143.901,75.837],[144.475,75.71],[144.718,75.69],[144.825,75.638],[145.201,75.597],[145.366,75.524],[144.746,75.433],[144.689,75.401],[144.673,75.328],[144.936,75.266],[144.726,75.232],[144.71,75.173],[144.347,75.044],[144.019,75.026],[143.551,75.091],[143.365,75.067],[142.898,75.137],[142.835,75.218],[142.712,75.232],[142.661,75.305]]],[[[148.233,74.792],[147.659,74.951],[147.14,74.994],[146.74,75.103],[146.074,75.224],[146.156,75.273],[146.359,75.559],[146.487,75.592],[146.772,75.501],[146.679,75.479],[146.635,75.425],[146.972,75.338],[147.339,75.349],[147.171,75.363],[147.406,75.438],[148.388,75.416],[148.563,75.375],[148.446,75.282],[148.578,75.213],[148.913,75.221],[149.327,75.284],[150.106,75.225],[150.473,75.091],[150.635,75.116],[150.688,75.157],[150.953,75.139],[150.866,75.124],[150.644,74.991],[150.688,74.944],[150.602,74.884],[150.042,74.838],[149.696,74.761],[148.704,74.76],[148.233,74.792]]],[[[142.514,73.839],[143.143,73.641],[143.43,73.523],[143.525,73.439],[143.436,73.403],[143.508,73.277],[143.503,73.231],[143.186,73.203],[141.589,73.31],[140.746,73.451],[140.425,73.433],[139.882,73.346],[139.742,73.354],[139.718,73.431],[140.416,73.483],[140.645,73.567],[140.823,73.744],[141.077,73.868],[141.378,73.861],[142.025,73.92],[142.514,73.839]]],[[[-177.962,71.396],[-177.601,71.279],[-177.505,71.278],[-177.445,71.228],[-177.49,71.173],[-177.629,71.113],[-177.933,71.039],[-178.819,70.98],[-179.324,70.905],[-179.496,70.914],[-179.999,71.0],[-179.996,71.535],[-179.629,71.577],[-179.305,71.551],[-179.045,71.597],[-178.568,71.564],[-178.238,71.477],[-178.062,71.462],[-177.962,71.396]]],[[[127.242,72.604],[127.779,72.642],[128.708,72.464],[129.259,72.464],[129.261,72.412],[129.496,72.333],[129.324,72.292],[129.355,72.255],[129.559,72.222],[129.249,72.135],[129.459,72.129],[129.361,72.094],[129.01,72.069],[128.822,72.073],[128.5,72.151],[128.543,72.17],[128.451,72.187],[128.444,72.222],[128.198,72.235],[127.596,72.425],[126.676,72.429],[126.65,72.476],[126.905,72.51],[127.242,72.604]]],[[[179.675,70.895],[179.273,70.889],[178.794,70.801],[178.621,71.055],[178.867,71.214],[179.211,71.308],[179.53,71.438],[180.0,71.53],[179.994,70.996],[179.798,70.955],[179.675,70.895]]],[[[113.392,74.449],[113.428,74.394],[113.176,74.219],[112.971,74.193],[112.788,74.092],[112.158,74.135],[111.962,74.211],[111.591,74.254],[111.461,74.326],[111.676,74.373],[111.878,74.345],[111.982,74.391],[111.974,74.487],[112.082,74.549],[113.213,74.487],[113.392,74.449]]],[[[169.282,69.763],[169.3,69.65],[169.213,69.578],[168.926,69.567],[168.144,69.702],[168.045,69.764],[167.795,69.801],[167.763,69.834],[167.952,69.942],[168.27,70.02],[169.357,69.881],[169.433,69.857],[169.45,69.816],[169.411,69.764],[169.282,69.763]]],[[[23.259,58.43],[23.142,58.444],[23.03,58.359],[22.721,58.225],[22.371,58.221],[22.277,58.18],[22.2,57.984],[22.043,57.91],[21.999,57.92],[21.965,57.981],[22.086,58.082],[22.151,58.086],[22.194,58.145],[22.072,58.173],[21.846,58.289],[21.882,58.341],[22.007,58.357],[21.832,58.511],[22.109,58.493],[22.193,58.547],[22.582,58.634],[22.635,58.594],[22.924,58.617],[23.331,58.455],[23.259,58.43]]],[[[164.557,59.237],[164.703,59.026],[164.677,58.904],[164.642,58.88],[164.184,58.823],[163.579,58.58],[163.437,58.476],[163.386,58.559],[163.495,58.588],[163.692,58.745],[163.741,58.819],[163.752,58.894],[163.842,58.995],[163.773,59.022],[164.231,59.106],[164.557,59.237]]],[[[141.017,73.991],[140.45,73.902],[140.147,74.013],[140.116,74.084],[140.149,74.213],[140.317,74.263],[140.875,74.271],[141.055,74.229],[141.116,74.164],[141.084,74.066],[141.017,73.991]]],[[[138.104,54.999],[138.008,54.912],[137.918,54.766],[137.712,54.621],[137.645,54.647],[137.487,54.872],[137.225,54.773],[137.251,54.854],[137.367,54.98],[137.451,55.015],[137.566,55.187],[137.634,55.197],[137.699,55.148],[138.205,55.033],[138.104,54.999]]],[[[135.959,75.475],[136.015,75.43],[135.846,75.383],[135.458,75.377],[135.453,75.446],[135.594,75.568],[135.544,75.675],[135.703,75.846],[135.89,75.686],[136.172,75.611],[135.962,75.508],[135.959,75.475]]],[[[22.668,59.085],[22.708,59.07],[22.699,59.028],[22.737,59.005],[22.935,58.982],[23.043,58.844],[23.021,58.822],[22.884,58.833],[22.885,58.785],[22.849,58.774],[22.782,58.786],[22.826,58.82],[22.798,58.825],[22.625,58.691],[22.474,58.721],[22.44,58.841],[22.382,58.882],[22.174,58.89],[22.049,58.943],[22.444,58.97],[22.589,59.086],[22.668,59.085]]],[[[53.004,71.286],[52.744,71.374],[52.783,71.315],[53.064,71.236],[53.156,71.242],[53.083,71.251],[53.126,71.267],[53.199,71.255],[53.216,71.168],[53.15,71.127],[53.147,71.093],[53.047,71.073],[53.042,71.022],[53.124,70.98],[53.016,70.968],[52.972,71.045],[52.807,71.105],[52.757,71.177],[52.558,71.249],[52.35,71.246],[52.231,71.286],[52.215,71.321],[52.431,71.374],[52.644,71.381],[52.721,71.349],[52.691,71.398],[52.823,71.387],[52.922,71.357],[53.004,71.286]]],[[[165.841,55.265],[165.834,55.304],[165.949,55.362],[166.247,55.328],[166.263,55.307],[166.223,55.24],[166.249,55.147],[166.388,55.002],[166.643,54.845],[166.664,54.677],[166.484,54.79],[166.373,54.821],[166.178,54.967],[166.076,55.063],[166.083,55.105],[165.989,55.215],[165.841,55.265]]],[[[128.302,72.788],[129.284,72.706],[129.197,72.655],[128.479,72.725],[128.35,72.672],[127.342,72.658],[127.422,72.694],[127.687,72.7],[127.919,72.763],[128.302,72.788]]],[[[161.097,69.468],[161.371,69.538],[161.386,69.46],[161.289,69.416],[161.359,69.359],[161.34,69.293],[161.373,69.292],[161.319,69.243],[161.389,69.188],[161.392,69.102],[161.516,68.981],[161.483,68.903],[161.409,68.893],[161.477,68.975],[161.422,69.022],[161.138,69.091],[161.122,69.176],[161.169,69.325],[161.068,69.414],[161.097,69.468]]],[[[135.731,74.042],[135.66,74.11],[135.438,74.162],[135.389,74.25],[136.036,74.088],[136.258,73.988],[136.268,73.931],[136.154,73.879],[136.082,73.898],[136.042,73.938],[135.731,74.042]]],[[[137.482,71.484],[137.267,71.49],[137.39,71.436],[136.994,71.518],[137.265,71.578],[137.735,71.594],[137.885,71.571],[137.958,71.51],[137.696,71.419],[137.482,71.484]]],[[[128.339,72.561],[128.141,72.631],[128.685,72.672],[128.9,72.639],[128.955,72.601],[128.611,72.532],[128.339,72.561]]],[[[128.419,72.869],[128.766,72.891],[129.117,72.854],[129.285,72.802],[129.14,72.782],[128.323,72.828],[128.419,72.869]]],[[[120.269,73.096],[120.205,73.042],[119.801,73.039],[119.653,73.125],[119.943,73.166],[120.269,73.096]]],[[[137.065,55.0],[137.086,54.953],[137.063,54.929],[136.942,54.923],[136.896,54.96],[136.749,54.931],[136.738,54.886],[136.68,54.907],[136.689,54.942],[136.807,55.017],[137.042,55.105],[137.088,55.085],[137.12,55.119],[137.173,55.112],[137.065,55.0]]],[[[161.428,69.459],[161.4,69.587],[161.475,69.636],[161.586,69.615],[161.631,69.572],[161.61,69.448],[161.391,69.414],[161.428,69.459]]],[[[35.744,64.967],[35.723,65.026],[35.641,65.037],[35.543,65.102],[35.528,65.144],[35.733,65.173],[35.812,65.155],[35.863,65.073],[35.797,65.114],[35.781,65.073],[35.857,65.046],[35.865,65.015],[35.744,64.967]]],[[[167.443,54.86],[167.735,54.756],[168.103,54.509],[167.5,54.786],[167.443,54.86]]],[[[-172.401,64.837],[-172.207,64.809],[-172.168,64.779],[-172.441,64.718],[-172.6,64.703],[-172.608,64.731],[-172.401,64.837]]],[[[23.062,58.621],[23.121,58.628],[23.174,58.681],[23.285,58.667],[23.343,58.644],[23.397,58.558],[23.226,58.535],[23.062,58.621]]],[[[20.932,55.289],[21.082,55.497],[21.085,55.723],[21.132,55.64],[21.087,55.441],[21.106,55.423],[20.986,55.275],[20.932,55.289]]],[[[160.419,70.921],[160.511,70.932],[160.641,70.897],[160.711,70.827],[160.513,70.818],[160.553,70.885],[160.451,70.873],[160.419,70.921]]],[[[19.922,60.234],[19.942,60.182],[20.026,60.153],[20.047,60.095],[19.946,60.085],[19.81,60.183],[19.922,60.234]]],[[[23.162,58.969],[23.121,59.034],[23.343,59.039],[23.393,58.997],[23.162,58.969]]],[[[116.074,74.366],[116.122,74.317],[116.046,74.285],[115.889,74.324],[115.995,74.375],[116.074,74.366]]],[[[152.741,76.108],[152.646,76.109],[152.57,76.152],[152.772,76.192],[152.802,76.158],[152.741,76.108]]],[[[20.101,60.091],[20.19,60.065],[20.224,60.006],[20.194,59.981],[20.134,59.993],[20.034,60.062],[20.101,60.091]]],[[[47.867,43.988],[47.76,43.928],[47.645,43.944],[47.638,43.98],[47.667,43.996],[47.867,43.988]]],[[[161.759,69.554],[161.67,69.63],[161.837,69.648],[161.856,69.602],[161.759,69.554]]],[[[52.7,45.405],[52.629,45.41],[52.562,45.457],[52.594,45.509],[52.659,45.518],[52.7,45.405]]],[[[150.663,59.095],[150.701,59.14],[150.74,59.112],[150.634,59.035],[150.53,59.002],[150.487,59.025],[150.663,59.095]]],[[[19.519,60.188],[19.541,60.229],[19.608,60.254],[19.673,60.163],[19.592,60.197],[19.6,60.15],[19.563,60.13],[19.519,60.188]]],[[[137.718,54.378],[137.816,54.444],[137.834,54.491],[137.914,54.504],[137.923,54.466],[137.848,54.438],[137.823,54.388],[137.718,54.378]]],[[[49.841,46.264],[49.821,46.218],[49.78,46.227],[49.724,46.356],[49.811,46.326],[49.841,46.264]]],[[[42.609,66.69],[42.444,66.765],[42.586,66.77],[42.67,66.694],[42.609,66.69]]],[[[161.686,70.756],[161.464,70.805],[161.526,70.837],[161.66,70.807],[161.686,70.756]]],[[[137.552,54.509],[137.612,54.563],[137.645,54.508],[137.609,54.441],[137.637,54.402],[137.573,54.435],[137.552,54.509]]],[[[50.323,44.972],[50.266,44.963],[50.279,45.071],[50.35,45.078],[50.323,44.972]]],[[[50.726,44.939],[50.761,44.865],[50.697,44.861],[50.628,44.967],[50.726,44.939]]],[[[22.387,60.052],[22.413,60.084],[22.445,60.07],[22.442,60.002],[22.381,59.996],[22.356,60.075],[22.387,60.052]]],[[[21.33,60.527],[21.334,60.556],[21.482,60.526],[21.443,60.471],[21.36,60.533],[21.33,60.527]]],[[[22.74,63.721],[22.681,63.763],[22.764,63.791],[22.829,63.776],[22.74,63.721]]],[[[21.372,63.35],[21.319,63.288],[21.276,63.302],[21.229,63.329],[21.372,63.35]]],[[[25.622,60.238],[25.57,60.26],[25.581,60.294],[25.675,60.248],[25.636,60.204],[25.608,60.216],[25.622,60.238]]],[[[22.393,60.354],[22.477,60.321],[22.367,60.293],[22.388,60.321],[22.313,60.321],[22.393,60.354]]],[[[22.06,60.209],[22.011,60.17],[22.038,60.156],[22.009,60.138],[21.935,60.176],[22.06,60.209]]],[[[53.491,39.512],[53.466,39.576],[53.513,39.591],[53.522,39.517],[53.491,39.512]]],[[[50.395,40.408],[50.354,40.4],[50.326,40.482],[50.358,40.474],[50.395,40.408]]],[[[23.972,58.1],[23.942,58.141],[24.008,58.154],[24.021,58.131],[23.972,58.1]]],[[[26.977,60.026],[26.949,60.097],[27.022,60.041],[27.02,60.019],[26.977,60.026]]],[[[22.213,60.206],[22.246,60.243],[22.296,60.222],[22.232,60.186],[22.213,60.206]]],[[[22.192,60.342],[22.163,60.359],[22.282,60.375],[22.3,60.368],[22.192,60.342]]],[[[28.501,60.313],[28.435,60.365],[28.501,60.355],[28.52,60.318],[28.501,60.313]]]]}}]}