{"type":"FeatureCollection","features":[{"type":"Feature","properties":{"lite":true,"src":"data/years/1918-08-15.geojson"},"geometry":{"type":"MultiPolygon","coordinates":[[[[38.236,47.113],[38.223,47.183],[38.298,47.226],[38.321,47.279],[38.215,47.315],[38.276,47.386],[38.281,47.489],[38.332,47.574],[38.744,47.659],[38.811,47.806],[38.88,47.841],[39.112,47.809],[39.319,47.826],[39.742,47.798],[39.802,47.882],[39.795,48.009],[39.858,48.023],[39.861,48.109],[40.01,48.251],[39.986,48.309],[39.873,48.314],[39.944,48.376],[39.878,48.485],[39.87,48.57],[39.813,48.603],[39.666,48.616],[39.72,48.735],[39.787,48.789],[39.981,48.77],[40.054,48.817],[40.073,48.876],[40.036,48.906],[39.949,48.874],[39.787,48.908],[39.698,48.976],[39.702,49.005],[39.929,49.031],[39.966,49.109],[40.157,49.233],[40.178,49.34],[40.059,49.482],[40.141,49.546],[40.149,49.587],[39.997,49.628],[39.804,49.563],[39.636,49.63],[39.565,49.743],[39.445,49.769],[39.328,49.747],[39.254,49.779],[39.205,49.911],[39.291,50.066],[39.137,50.171],[39.125,50.287],[39.079,50.307],[39.103,50.357],[39.017,50.437],[39.114,50.494],[39.098,50.546],[39.137,50.619],[38.985,50.665],[38.968,50.709],[38.83,50.729],[38.806,50.799],[38.744,50.807],[38.762,50.885],[38.891,50.896],[38.86,51.051],[38.736,51.094],[38.626,51.02],[38.564,51.028],[38.518,51.083],[38.414,51.094],[38.405,51.136],[38.483,51.144],[38.521,51.182],[38.441,51.286],[38.321,51.29],[38.068,51.374],[38.046,51.441],[37.886,51.42],[37.828,51.44],[37.666,51.386],[37.529,51.414],[37.358,51.404],[37.22,51.347],[37.132,51.361],[37.103,51.253],[37.048,51.266],[36.943,51.204],[36.849,51.205],[36.61,51.099],[36.508,51.143],[36.47,51.11],[36.378,51.145],[36.258,51.124],[35.98,51.179],[35.92,51.121],[35.951,51.065],[35.804,50.96],[35.729,50.991],[35.67,50.939],[35.61,50.959],[35.546,50.927],[35.46,50.982],[35.342,50.981],[35.374,51.019],[35.353,51.055],[35.159,51.074],[35.083,51.227],[34.943,51.234],[34.746,51.185],[34.665,51.191],[34.61,51.254],[34.263,51.259],[34.326,51.324],[34.319,51.375],[34.222,51.396],[34.242,51.523],[34.126,51.65],[34.383,51.69],[34.432,51.728],[34.431,51.786],[34.304,51.891],[34.125,51.972],[34.082,52.054],[34.081,52.171],[33.81,52.374],[33.684,52.375],[33.52,52.31],[33.485,52.377],[33.421,52.359],[33.18,52.387],[32.906,52.262],[32.392,52.347],[32.337,52.333],[32.341,52.246],[32.225,52.099],[31.916,52.05],[31.869,52.117],[31.787,52.123],[31.763,52.178],[31.703,52.211],[31.714,52.265],[31.602,52.311],[31.628,52.375],[31.585,52.505],[31.648,52.552],[31.52,52.672],[31.588,52.716],[31.578,52.797],[31.515,52.867],[31.399,52.905],[31.29,53.014],[31.38,53.078],[31.395,53.166],[31.611,53.19],[31.743,53.169],[31.802,53.091],[32.206,53.078],[32.435,53.188],[32.5,53.278],[32.729,53.319],[32.739,53.443],[32.659,53.506],[32.585,53.506],[32.443,53.577],[32.422,53.623],[32.51,53.673],[32.468,53.726],[32.108,53.827],[31.874,53.798],[31.783,53.814],[31.866,53.989],[31.837,54.067],[31.338,54.246],[31.302,54.357],[31.223,54.462],[31.097,54.503],[31.183,54.635],[31.112,54.687],[31.015,54.693],[30.79,54.801],[30.844,54.869],[30.843,54.918],[30.93,54.939],[30.945,55.005],[31.025,55.018],[30.976,55.175],[30.82,55.29],[30.936,55.378],[30.904,55.451],[30.939,55.487],[30.933,55.578],[31.05,55.69],[31.064,55.743],[31.205,55.698],[31.483,55.717],[31.386,55.954],[31.529,56.044],[31.494,56.127],[31.516,56.295],[31.249,56.361],[31.214,56.462],[31.038,56.494],[31.1,56.619],[31.067,56.698],[30.937,56.705],[30.898,56.673],[30.846,56.715],[30.827,56.781],[30.901,56.79],[30.921,56.877],[30.993,56.903],[31.012,56.981],[30.837,56.957],[30.667,56.985],[30.672,57.179],[30.773,57.218],[30.793,57.26],[30.486,57.358],[30.513,57.385],[30.509,57.475],[30.629,57.614],[30.502,57.688],[30.54,57.744],[30.498,57.778],[30.562,57.835],[30.559,57.887],[29.959,57.963],[30.017,58.009],[30.014,58.053],[29.915,58.048],[29.8,58.112],[29.704,58.093],[29.712,58.184],[29.679,58.232],[29.937,58.376],[29.993,58.436],[29.983,58.463],[29.563,58.494],[29.569,58.551],[29.504,58.558],[29.456,58.613],[29.321,58.632],[29.258,58.718],[29.099,58.755],[28.951,58.839],[28.552,58.885],[28.286,58.872],[28.178,58.971],[28.499,59.171],[28.53,59.261],[28.211,59.564],[28.063,59.602],[27.994,59.69],[28.011,59.759],[28.103,59.793],[28.195,59.749],[28.244,59.678],[28.39,59.667],[28.437,59.822],[28.517,59.86],[28.727,59.782],[28.832,59.783],[28.981,59.83],[29.027,59.867],[29.064,59.969],[29.195,60.007],[30.185,59.872],[30.218,59.897],[30.234,59.983],[29.972,60.018],[29.898,60.089],[30.013,60.183],[29.89,60.309],[29.945,60.361],[30.107,60.361],[30.18,60.445],[30.16,60.57],[30.19,60.631],[30.495,60.55],[30.778,60.602],[30.884,60.707],[31.47,60.896],[31.722,61.127],[32.172,61.294],[32.298,61.389],[32.319,61.441],[32.194,61.808],[32.246,62.133],[32.374,62.195],[32.456,62.164],[32.634,61.997],[32.718,62.028],[32.833,62.165],[32.728,62.259],[32.578,62.303],[32.822,62.5],[32.791,62.605],[32.613,62.752],[32.404,62.804],[32.319,62.982],[31.952,63.098],[31.586,63.129],[31.439,63.192],[31.242,63.205],[30.912,63.354],[30.478,63.481],[30.012,63.737],[30.263,63.823],[30.595,64.047],[30.613,64.094],[30.577,64.224],[30.066,64.404],[30.088,64.481],[30.011,64.512],[29.979,64.577],[30.207,64.663],[30.143,64.772],[29.808,64.794],[29.653,64.905],[29.609,65.005],[29.648,65.072],[29.869,65.12],[29.848,65.218],[29.613,65.248],[29.749,65.346],[29.739,65.48],[29.834,65.588],[29.823,65.653],[30.03,65.69],[30.12,65.668],[30.137,65.71],[30.649,65.881],[30.404,66.175],[30.491,66.323],[30.447,66.396],[30.301,66.455],[30.286,66.513],[30.344,66.587],[30.476,66.646],[30.682,66.866],[30.608,67.086],[30.52,67.218],[30.183,67.512],[30.029,67.695],[29.691,67.816],[29.361,68.085],[29.786,68.429],[30.3,68.679],[31.761,69.559],[31.558,69.689],[31.799,69.689],[31.693,69.733],[31.716,69.825],[31.817,69.851],[32.042,69.769],[32.097,69.793],[31.919,69.921],[31.938,69.963],[32.382,69.873],[32.58,69.782],[32.917,69.777],[33.129,69.724],[33.106,69.646],[32.895,69.583],[32.11,69.676],[32.026,69.637],[32.1,69.594],[32.428,69.57],[32.481,69.508],[32.202,69.429],[32.668,69.5],[33.018,69.471],[32.806,69.303],[32.901,69.31],[32.974,69.388],[33.326,69.449],[33.511,69.422],[33.47,69.35],[33.242,69.269],[33.473,69.275],[33.535,69.207],[33.517,69.182],[33.043,69.07],[33.011,68.967],[33.032,68.963],[33.078,69.06],[33.441,69.103],[33.568,69.184],[33.561,69.279],[33.642,69.325],[34.362,69.317],[34.647,69.251],[35.107,69.22],[35.185,69.181],[35.261,69.218],[35.179,69.273],[35.836,69.199],[36.601,69.013],[37.495,68.735],[37.773,68.676],[38.327,68.439],[38.433,68.339],[38.609,68.327],[38.526,68.365],[38.63,68.382],[38.931,68.304],[39.109,68.211],[39.528,68.069],[39.853,68.044],[39.721,68.156],[39.779,68.163],[39.919,68.112],[39.986,68.029],[40.145,67.951],[40.363,67.9],[40.402,67.865],[40.33,67.847],[40.464,67.755],[40.696,67.77],[40.804,67.725],[40.938,67.733],[41.048,67.659],[41.036,67.468],[41.149,67.414],[41.111,67.251],[41.224,67.213],[41.32,67.227],[41.39,67.121],[41.272,66.901],[41.156,66.794],[40.737,66.587],[40.72,66.543],[40.566,66.454],[40.173,66.339],[40.066,66.276],[39.277,66.119],[38.608,66.052],[37.91,66.088],[37.016,66.269],[35.509,66.388],[34.846,66.605],[34.479,66.533],[34.361,66.613],[34.434,66.644],[33.857,66.692],[33.777,66.761],[33.599,66.823],[33.518,66.813],[33.628,66.746],[33.535,66.72],[33.251,66.794],[32.836,66.98],[32.794,67.086],[32.668,67.119],[32.365,67.162],[32.066,67.133],[31.859,67.153],[31.924,67.122],[32.26,67.122],[32.539,67.007],[32.558,66.984],[32.518,66.882],[32.911,66.77],[32.931,66.736],[32.801,66.727],[33.292,66.649],[33.122,66.647],[33.068,66.595],[32.871,66.581],[33.084,66.581],[33.241,66.616],[33.427,66.589],[33.506,66.536],[33.199,66.564],[32.958,66.53],[33.076,66.505],[33.247,66.53],[33.445,66.467],[33.609,66.489],[33.712,66.426],[33.322,66.32],[33.554,66.322],[34.11,66.249],[34.567,66.078],[34.85,65.899],[34.965,65.721],[34.888,65.706],[34.689,65.802],[34.69,65.717],[34.777,65.6],[34.675,65.451],[34.495,65.45],[34.381,65.383],[34.474,65.278],[34.635,65.24],[34.685,65.183],[34.682,65.108],[34.793,65.017],[34.775,64.969],[34.936,64.838],[34.956,64.653],[34.788,64.548],[34.945,64.515],[34.961,64.458],[35.325,64.327],[35.539,64.356],[35.598,64.403],[35.804,64.343],[35.984,64.196],[36.11,64.231],[36.275,64.145],[36.282,64.01],[36.833,63.911],[37.172,63.889],[37.268,63.824],[37.389,63.803],[37.538,63.822],[37.655,63.923],[37.872,63.915],[38.062,64.004],[38.085,64.057],[38.047,64.148],[37.911,64.23],[37.979,64.317],[37.814,64.387],[37.801,64.42],[37.689,64.423],[37.359,64.352],[37.145,64.409],[36.729,64.716],[36.562,64.745],[36.44,64.938],[36.653,64.923],[36.833,64.992],[36.867,65.076],[36.834,65.157],[37.042,65.207],[37.69,65.056],[37.731,65.036],[37.744,64.969],[38.004,64.871],[38.404,64.854],[38.364,64.807],[38.039,64.76],[38.041,64.643],[38.159,64.671],[38.19,64.718],[38.491,64.761],[38.539,64.798],[38.932,64.744],[39.546,64.563],[39.737,64.553],[39.916,64.61],[39.794,64.595],[39.818,64.662],[39.862,64.666],[40.217,64.552],[40.524,64.541],[40.516,64.594],[40.414,64.723],[40.451,64.789],[40.376,64.923],[40.279,65.012],[40.101,65.082],[39.719,65.378],[39.704,65.463],[39.751,65.55],[39.916,65.633],[40.413,65.776],[40.704,65.968],[41.425,66.09],[41.805,66.266],[42.176,66.524],[42.586,66.464],[42.653,66.443],[42.67,66.396],[43.294,66.424],[43.646,66.283],[43.694,66.232],[43.294,66.091],[43.355,66.039],[43.516,65.976],[43.517,66.037],[43.396,66.079],[43.692,66.177],[43.858,66.177],[44.046,66.079],[44.041,65.991],[44.174,65.875],[44.15,66.048],[44.077,66.201],[44.124,66.315],[44.201,66.396],[44.333,66.39],[44.572,66.289],[44.855,66.217],[45.737,66.048],[45.832,66.068],[46.344,66.008],[47.108,65.801],[47.407,65.816],[47.663,65.788],[47.776,65.831],[47.768,65.926],[48.144,66.108],[49.011,66.1],[51.515,66.764],[51.569,66.796],[51.51,66.834],[51.534,66.909],[51.815,66.935],[51.855,66.983],[52.025,67.008],[52.159,67.066],[53.773,66.979],[59.85,66.981],[59.919,66.934],[60.085,66.97],[61.663,66.996],[61.859,67.108],[62.83,67.37],[62.89,67.569],[63.114,67.656],[63.425,67.748],[63.694,67.743],[63.722,67.793],[63.88,67.818],[63.967,67.897],[63.931,67.974],[63.868,68.019],[64.33,68.115],[64.423,68.181],[64.539,68.182],[64.554,68.223],[64.517,68.312],[64.562,68.34],[64.762,68.386],[65.006,68.369],[65.408,68.409],[65.255,68.238],[65.309,68.089],[65.274,68.0],[65.434,67.9],[65.782,67.904],[65.911,67.94],[66.069,67.915],[66.002,67.788],[66.179,67.7],[66.104,67.667],[65.992,67.698],[65.846,67.674],[65.776,67.568],[65.822,67.536],[66.028,67.555],[66.082,67.491],[65.934,67.413],[65.695,67.407],[65.653,67.329],[65.181,67.163],[65.189,67.085],[65.059,67.047],[65.089,66.911],[64.571,66.817],[64.518,66.746],[64.407,66.743],[64.292,66.683],[63.976,66.671],[63.801,66.566],[63.538,66.491],[63.406,66.498],[63.223,66.337],[63.268,66.258],[63.099,66.269],[62.999,66.21],[62.948,66.13],[62.847,66.088],[62.801,66.014],[62.839,65.976],[62.783,65.933],[62.818,65.888],[62.52,65.859],[62.126,65.747],[61.863,65.717],[61.683,65.597],[61.572,65.566],[61.396,65.408],[61.242,65.335],[61.241,65.296],[61.293,65.275],[61.223,65.206],[61.097,65.178],[60.973,65.068],[60.799,65.062],[60.641,64.914],[60.455,65.024],[60.427,65.071],[60.219,65.091],[60.085,65.065],[59.881,64.92],[59.715,64.86],[59.618,64.746],[59.671,64.666],[59.601,64.638],[59.463,64.484],[59.588,64.444],[59.613,64.339],[59.564,64.288],[59.574,64.218],[59.729,64.134],[59.83,64.125],[59.758,64.016],[59.556,63.938],[59.551,63.845],[59.495,63.78],[59.475,63.618],[59.27,63.347],[59.311,63.284],[59.243,63.204],[59.272,63.135],[59.203,63.074],[59.274,62.948],[59.459,62.892],[59.38,62.71],[59.498,62.533],[59.616,62.503],[59.572,62.432],[59.583,62.383],[59.491,62.319],[59.383,62.138],[59.473,61.977],[59.649,61.917],[59.776,61.932],[59.959,61.888],[59.962,61.744],[60.052,61.702],[60.43,61.727],[61.16,61.663],[61.927,61.385],[62.413,61.286],[62.609,61.194],[62.827,61.003],[62.754,60.917],[62.741,60.852],[62.865,60.628],[63.077,60.446],[63.201,60.292],[63.183,60.218],[63.619,60.112],[63.626,60.04],[63.776,59.786],[63.812,59.462],[64.026,59.375],[64.324,59.391],[65.026,59.309],[65.087,59.221],[65.187,59.2],[65.367,58.907],[65.656,58.648],[65.919,58.597],[65.972,58.312],[66.159,58.051],[65.843,57.973],[65.793,57.913],[65.656,57.906],[65.619,57.879],[65.627,57.845],[65.533,57.798],[65.477,57.797],[65.424,57.853],[64.823,57.653],[64.825,57.621],[64.965,57.585],[64.825,57.46],[64.864,57.361],[64.81,57.298],[64.906,57.279],[64.97,57.23],[64.974,57.037],[65.018,57.001],[65.054,56.893],[65.111,56.872],[65.208,56.899],[65.156,56.795],[64.959,56.793],[64.837,56.862],[64.33,56.771],[64.296,56.736],[64.34,56.668],[64.301,56.625],[64.197,56.607],[64.177,56.55],[64.211,56.513],[64.172,56.489],[63.849,56.51],[63.741,56.56],[63.607,56.575],[63.576,56.624],[63.41,56.644],[63.335,56.552],[63.303,56.599],[63.127,56.587],[63.0,56.618],[62.883,56.604],[62.854,56.57],[62.768,56.578],[62.701,56.525],[62.627,56.519],[62.616,56.582],[62.539,56.598],[62.321,56.485],[62.239,56.378],[62.061,56.302],[62.055,56.122],[62.092,56.109],[62.098,56.063],[62.197,56.017],[62.201,55.927],[62.257,55.912],[62.312,55.941],[62.319,55.919],[62.247,55.893],[62.25,55.819],[62.41,55.801],[62.498,55.728],[62.519,55.639],[62.437,55.564],[62.536,55.515],[62.446,55.497],[62.434,55.446],[62.3,55.423],[62.198,55.461],[62.146,55.402],[62.208,55.356],[62.023,55.315],[62.023,55.252],[62.155,55.223],[62.185,55.195],[62.177,55.14],[62.24,55.109],[62.184,55.07],[62.182,55.022],[62.111,55.067],[61.954,55.032],[61.963,54.923],[62.064,54.867],[62.088,54.821],[62.022,54.787],[62.004,54.712],[62.147,54.624],[62.189,54.659],[62.274,54.631],[62.387,54.654],[62.433,54.704],[62.516,54.704],[62.511,54.669],[62.571,54.605],[62.632,54.641],[62.714,54.606],[62.917,54.676],[63.18,54.668],[63.21,54.586],[63.275,54.535],[63.194,54.483],[63.12,54.493],[63.108,54.449],[63.139,54.418],[63.102,54.403],[63.072,54.315],[63.188,54.289],[63.25,54.224],[63.312,54.234],[63.307,54.19],[63.116,54.193],[63.079,54.106],[62.811,54.115],[62.574,54.072],[62.531,54.032],[62.554,53.975],[62.514,53.897],[62.413,53.95],[62.466,54.013],[62.415,54.047],[61.998,54.037],[61.978,53.953],[61.862,53.962],[61.792,54.021],[61.614,54.012],[61.582,53.974],[61.425,54.074],[61.337,54.083],[61.179,54.032],[61.194,53.937],[61.148,53.97],[60.985,53.958],[60.952,53.92],[60.966,53.866],[61.171,53.804],[61.039,53.718],[61.023,53.668],[60.899,53.676],[60.861,53.627],[60.903,53.594],[61.086,53.581],[61.236,53.527],[61.119,53.382],[61.15,53.284],[61.513,53.189],[61.644,53.222],[61.759,53.15],[62.045,53.105],[62.095,53.062],[62.077,53.005],[61.957,52.956],[61.82,52.998],[61.604,52.969],[61.449,53.041],[61.346,53.005],[61.19,53.033],[60.966,52.989],[60.958,52.96],[61.011,52.918],[60.819,52.79],[60.686,52.752],[60.653,52.671],[60.716,52.608],[60.79,52.607],[60.799,52.509],[60.924,52.471],[60.945,52.391],[61.0,52.334],[60.668,52.165],[60.501,52.171],[60.197,52.013],[59.999,52.012],[59.968,51.975],[60.054,51.84],[60.144,51.867],[60.438,51.785],[60.339,51.703],[60.368,51.644],[60.478,51.632],[60.513,51.598],[60.911,51.591],[60.944,51.512],[61.022,51.464],[61.463,51.407],[61.586,51.259],[61.868,51.269],[61.943,51.117],[62.022,51.047],[62.153,51.088],[62.255,51.037],[62.221,50.937],[62.344,50.846],[62.285,50.761],[62.296,50.687],[62.343,50.654],[62.433,50.652],[62.517,50.429],[62.678,50.209],[62.871,50.015],[62.889,49.916],[62.82,49.895],[62.71,49.928],[62.6,49.872],[62.542,49.765],[62.442,49.696],[62.393,49.603],[62.415,49.544],[62.316,49.544],[62.263,49.501],[62.277,49.432],[62.438,49.248],[62.27,49.204],[62.261,49.175],[62.361,49.149],[62.433,49.036],[62.655,48.86],[62.815,48.831],[62.908,48.863],[63.012,48.846],[63.019,48.675],[63.651,48.452],[64.172,47.887],[62.66,47.11],[62.636,47.037],[62.947,47.059],[63.206,46.942],[63.598,46.846],[63.785,46.847],[65.093,46.492],[65.334,46.343],[65.548,46.271],[66.976,46.036],[67.23,46.038],[67.274,45.938],[69.171,45.917],[74.184,45.936],[74.772,46.382],[75.407,46.659],[76.159,46.661],[76.42,46.636],[76.521,46.594],[76.557,46.642],[76.694,46.649],[76.75,46.599],[76.948,46.545],[76.884,46.639],[77.055,46.617],[77.159,46.527],[77.237,46.541],[77.292,46.593],[77.498,46.621],[77.619,46.672],[77.604,47.162],[77.659,47.181],[77.855,47.16],[78.041,47.237],[78.114,47.194],[78.278,47.282],[78.633,47.127],[78.727,47.116],[78.799,47.05],[79.299,47.012],[79.486,46.843],[80.017,46.859],[80.246,46.8],[80.258,46.756],[80.341,46.718],[80.773,46.573],[81.162,46.52],[81.258,46.471],[81.368,46.473],[81.406,46.431],[81.589,46.374],[81.632,46.298],[81.896,46.052],[81.967,45.892],[82.068,45.794],[82.119,45.686],[82.112,45.573],[82.274,45.528],[82.319,45.559],[82.354,45.499],[82.61,45.456],[82.655,45.409],[82.653,45.309],[82.587,45.154],[82.515,45.12],[82.297,45.238],[81.946,45.158],[81.826,45.196],[81.783,45.321],[81.679,45.35],[81.556,45.296],[80.917,45.15],[80.525,45.109],[80.4,45.05],[80.113,45.037],[79.871,44.903],[79.874,44.868],[79.999,44.799],[80.262,44.824],[80.515,44.733],[80.385,44.636],[80.349,44.447],[80.4,44.261],[80.369,44.114],[80.74,43.466],[80.815,43.17],[80.774,43.11],[80.655,43.142],[80.384,43.029],[80.388,42.995],[80.55,42.93],[80.569,42.887],[80.258,42.816],[80.158,42.633],[80.294,42.253],[80.284,42.216],[80.234,42.196],[80.265,42.054],[79.873,42.013],[79.79,41.895],[79.341,41.792],[78.671,41.532],[78.371,41.373],[78.369,41.275],[78.291,41.23],[78.189,41.101],[78.082,41.041],[77.861,41.07],[77.685,41.002],[77.544,40.987],[77.021,41.05],[76.871,41.013],[76.791,40.951],[76.648,40.741],[76.644,40.62],[76.57,40.562],[76.514,40.459],[76.338,40.356],[76.224,40.404],[76.068,40.396],[75.9,40.301],[75.706,40.299],[75.624,40.595],[75.583,40.645],[75.234,40.451],[75.066,40.448],[74.859,40.517],[74.826,40.408],[74.88,40.329],[74.734,40.341],[74.354,40.098],[74.189,40.112],[73.991,40.042],[73.843,39.769],[73.908,39.727],[73.954,39.601],[73.863,39.485],[73.655,39.455],[73.511,39.487],[73.362,39.463],[73.314,39.409],[73.165,39.375],[72.837,39.376],[72.633,39.414],[72.571,39.379],[72.302,39.343],[72.233,39.224],[72.214,39.257],[72.108,39.292],[72.055,39.388],[71.849,39.313],[71.77,39.385],[71.753,39.464],[71.536,39.514],[71.542,39.58],[71.46,39.632],[71.36,39.61],[71.244,39.535],[71.088,39.531],[70.975,39.417],[70.902,39.441],[70.77,39.402],[70.727,39.416],[70.717,39.481],[70.634,39.58],[70.479,39.621],[70.232,39.542],[70.201,39.639],[70.131,39.571],[70.04,39.594],[69.975,39.557],[69.831,39.557],[69.668,39.598],[69.311,39.546],[69.307,39.684],[69.247,39.756],[69.322,39.954],[69.399,39.877],[69.509,39.904],[69.484,40.025],[69.526,40.091],[69.97,40.191],[70.5,40.02],[70.429,39.915],[70.573,39.749],[70.721,39.81],[70.708,39.876],[70.622,39.871],[70.511,39.92],[70.628,39.961],[70.676,40.086],[70.846,40.151],[70.938,40.152],[70.999,40.218],[70.94,40.26],[70.629,40.22],[70.535,40.36],[70.398,40.379],[70.385,40.46],[70.487,40.488],[70.743,40.658],[70.787,40.737],[70.527,40.988],[70.401,41.06],[70.348,41.045],[70.318,40.939],[70.269,40.895],[70.002,40.777],[69.796,40.724],[69.709,40.655],[69.66,40.664],[69.516,40.793],[69.417,40.824],[69.343,40.796],[69.295,40.734],[69.292,40.611],[69.179,40.569],[69.292,40.341],[69.285,40.312],[69.189,40.302],[69.243,40.215],[69.019,40.252],[68.565,40.175],[68.595,40.126],[68.684,40.091],[68.925,40.126],[68.96,40.088],[68.821,40.063],[68.76,40.093],[68.765,40.001],[68.732,39.971],[68.766,39.886],[68.733,39.854],[68.687,39.888],[68.611,39.863],[68.581,39.651],[68.488,39.56],[68.341,39.548],[67.767,39.642],[67.676,39.634],[67.497,39.57],[67.472,39.506],[67.412,39.489],[67.323,39.237],[66.949,39.264],[66.56,39.428],[65.792,39.385],[65.765,39.42],[65.774,39.523],[65.929,39.878],[65.964,40.085],[65.947,40.309],[65.981,40.412],[66.215,40.482],[66.491,40.353],[66.647,40.361],[66.724,40.508],[66.742,40.655],[66.716,40.733],[66.569,40.802],[65.868,40.854],[65.489,40.966],[65.229,41.122],[64.884,41.251],[64.365,41.355],[63.959,41.347],[63.397,41.243],[63.302,41.2],[63.129,41.208],[62.749,41.105],[62.084,41.07],[62.004,41.028],[61.862,41.141],[61.569,41.225],[61.308,41.384],[60.651,41.69],[60.582,41.861],[60.287,42.156],[60.026,42.28],[59.776,42.281],[59.549,42.405],[59.266,42.768],[59.198,42.915],[59.175,43.29],[59.096,43.449],[59.131,43.529],[59.379,43.608],[59.538,43.925],[59.152,43.994],[58.937,44.141],[58.562,44.141],[58.426,44.016],[58.403,43.858],[58.348,43.735],[58.29,43.74],[58.186,43.671],[58.203,43.516],[58.53,43.223],[58.531,43.109],[58.427,43.032],[58.221,43.015],[58.134,43.032],[58.065,43.101],[57.91,43.135],[57.616,43.135],[57.581,43.014],[57.884,42.565],[57.909,42.496],[57.868,42.413],[57.503,42.401],[57.459,42.34],[57.166,42.219],[57.106,42.116],[57.071,41.355],[57.089,41.252],[57.14,41.2],[57.322,41.139],[57.875,41.087],[58.195,40.975],[58.921,40.837],[59.396,40.793],[60.035,40.785],[60.597,40.69],[60.865,40.69],[61.116,40.646],[61.401,40.474],[61.479,40.387],[61.927,40.068],[61.971,39.981],[62.135,39.843],[62.213,39.61],[62.809,39.065],[62.939,38.987],[63.277,38.866],[63.614,38.633],[63.708,38.546],[63.786,38.408],[64.063,38.201],[64.495,37.963],[64.871,37.833],[65.117,37.6],[65.693,37.53],[65.646,37.454],[65.648,37.352],[65.563,37.262],[65.067,37.243],[64.794,37.122],[64.792,36.919],[64.617,36.636],[64.615,36.424],[64.466,36.252],[64.165,36.165],[63.978,36.039],[63.613,35.967],[63.522,35.903],[63.318,35.852],[63.123,35.863],[63.105,35.832],[63.183,35.676],[63.105,35.634],[63.123,35.536],[63.086,35.433],[62.986,35.416],[62.631,35.227],[62.47,35.288],[62.314,35.15],[62.27,35.256],[62.043,35.441],[61.966,35.459],[61.798,35.412],[61.597,35.444],[61.438,35.553],[61.375,35.636],[61.279,35.608],[61.254,35.632],[61.231,35.693],[61.262,35.817],[61.212,35.938],[61.201,36.068],[61.221,36.179],[61.163,36.42],[61.189,36.569],[61.154,36.65],[60.332,36.659],[60.063,37.012],[59.479,37.233],[59.393,37.323],[59.376,37.496],[59.343,37.536],[59.237,37.519],[58.934,37.669],[58.406,37.641],[58.234,37.679],[58.174,37.796],[57.7,37.926],[57.454,37.939],[57.353,37.993],[57.372,38.091],[57.208,38.283],[57.062,38.196],[56.867,38.226],[56.756,38.286],[56.443,38.26],[56.323,38.183],[56.349,38.136],[56.331,38.088],[56.221,38.071],[56.169,38.095],[55.987,38.073],[55.764,38.124],[55.438,38.083],[55.14,37.955],[54.833,37.746],[54.782,37.643],[54.808,37.578],[54.781,37.515],[54.67,37.441],[54.58,37.453],[54.202,37.33],[53.909,37.353],[53.806,37.865],[53.869,38.361],[53.829,38.551],[53.853,38.661],[53.983,38.908],[53.863,39.032],[53.767,39.028],[53.641,39.124],[53.579,39.319],[53.159,39.345],[53.152,39.268],[53.123,39.435],[53.264,39.653],[53.293,39.652],[53.207,39.524],[53.407,39.537],[53.564,39.462],[53.732,39.515],[53.639,39.611],[53.41,39.669],[53.414,39.774],[53.575,39.963],[53.428,40.004],[53.291,39.941],[52.935,39.991],[52.928,39.907],[53.039,39.74],[53.009,39.759],[52.739,40.05],[52.736,40.201],[52.691,40.273],[52.739,40.5],[52.863,40.659],[52.831,40.71],[52.924,41.077],[52.961,41.055],[53.111,40.769],[53.387,40.769],[53.494,40.736],[53.556,40.768],[53.594,40.89],[53.656,40.857],[53.653,40.781],[53.737,40.617],[54.031,40.654],[54.097,40.716],[54.222,40.725],[54.219,40.693],[54.35,40.673],[54.422,40.71],[54.309,40.753],[54.25,40.88],[54.338,40.924],[54.47,40.862],[54.48,40.799],[54.707,40.875],[54.76,40.965],[54.732,41.104],[54.074,41.476],[54.02,41.605],[54.025,41.715],[53.936,41.875],[53.912,42.046],[53.811,42.122],[53.66,42.143],[53.282,42.072],[53.15,42.095],[52.949,41.975],[52.82,41.697],[52.915,41.666],[52.821,41.401],[52.908,41.108],[52.882,41.05],[52.85,41.076],[52.761,41.374],[52.561,41.517],[52.592,41.639],[52.462,41.74],[52.988,42.108],[53.417,42.239],[54.119,42.318],[54.728,42.031],[54.893,41.917],[54.935,41.783],[55.214,41.459],[55.357,41.362],[55.44,41.262],[55.636,41.244],[55.991,41.306],[55.996,44.976],[56.728,45.162],[56.56,45.96],[56.395,46.277],[56.314,46.363],[56.286,46.47],[55.502,46.678],[55.304,46.807],[55.019,47.159],[55.092,47.644],[55.08,47.765],[54.99,48.022],[54.893,48.101],[54.895,48.205],[54.815,48.429],[54.869,48.629],[54.817,48.753],[54.576,48.833],[54.522,48.808],[54.431,48.68],[54.107,48.731],[54.073,49.011],[53.994,49.141],[53.899,49.083],[53.694,49.196],[53.737,49.448],[53.863,49.54],[53.985,49.564],[54.016,49.597],[54.182,49.593],[54.304,49.634],[54.316,49.683],[54.469,49.803],[54.571,50.027],[54.446,50.156],[54.455,50.258],[54.417,50.351],[54.565,50.527],[54.465,50.553],[54.401,50.619],[54.439,50.756],[54.504,50.853],[54.286,50.922],[54.188,50.985],[54.122,51.113],[54.031,51.136],[53.941,51.205],[53.682,51.239],[53.611,51.303],[53.623,51.404],[53.351,51.522],[53.163,51.534],[52.944,51.473],[52.778,51.528],[52.675,51.48],[52.551,51.479],[52.495,51.517],[52.352,51.775],[52.311,51.794],[52.252,51.744],[52.139,51.734],[52.083,51.678],[51.86,51.691],[51.747,51.602],[51.76,51.506],[51.661,51.473],[51.636,51.531],[51.586,51.555],[51.458,51.495],[51.311,51.492],[51.277,51.526],[51.388,51.558],[51.382,51.647],[51.236,51.705],[50.93,51.7],[50.849,51.763],[50.764,51.779],[50.724,51.74],[50.768,51.608],[50.702,51.588],[50.704,51.629],[50.571,51.652],[50.556,51.601],[50.506,51.572],[50.507,51.48],[50.346,51.428],[50.316,51.322],[49.981,51.249],[49.774,51.122],[49.43,51.131],[49.328,50.968],[49.399,50.883],[49.362,50.846],[49.136,50.8],[48.825,50.616],[48.612,50.668],[48.555,50.652],[48.559,50.602],[48.655,50.567],[48.682,50.331],[48.767,50.172],[48.765,50.102],[48.856,50.06],[48.864,50.025],[48.774,49.951],[48.428,49.831],[48.25,49.884],[48.007,50.197],[47.604,50.472],[47.503,50.455],[47.384,50.342],[47.293,50.31],[47.275,50.273],[47.298,50.238],[47.245,50.187],[47.307,50.101],[47.293,50.058],[47.169,49.966],[46.95,49.902],[46.882,49.83],[46.756,49.338],[47.008,49.192],[47.003,49.107],[46.918,49.02],[46.737,48.926],[46.46,48.402],[47.081,48.25],[47.055,48.205],[47.095,48.153],[47.085,48.094],[47.153,48.063],[47.024,47.985],[47.132,47.873],[47.106,47.799],[47.351,47.665],[47.401,47.697],[47.421,47.814],[47.648,47.746],[48.042,47.75],[48.161,47.697],[48.397,47.431],[48.512,47.394],[48.681,47.089],[48.974,46.773],[48.91,46.722],[48.767,46.704],[48.684,46.777],[48.552,46.781],[48.49,46.745],[48.44,46.648],[48.517,46.621],[48.532,46.549],[48.698,46.531],[48.813,46.46],[48.909,46.456],[49.26,46.271],[49.154,46.287],[48.911,46.131],[48.784,46.093],[48.71,46.132],[48.67,46.118],[48.635,46.081],[48.725,46.022],[48.761,45.859],[48.716,45.832],[48.571,45.964],[48.453,45.934],[48.224,45.744],[47.854,45.717],[47.828,45.658],[47.556,45.768],[47.554,45.739],[47.624,45.709],[47.639,45.57],[47.488,45.726],[47.39,45.745],[47.414,45.674],[47.539,45.636],[47.567,45.563],[47.422,45.363],[47.371,45.233],[47.135,44.94],[47.073,44.783],[47.033,44.83],[46.909,44.751],[46.892,44.803],[46.804,44.785],[46.78,44.829],[46.439,44.956],[45.852,45.02],[45.699,44.994],[45.61,44.919],[45.627,44.809],[45.424,44.635],[45.251,44.599],[45.211,44.453],[45.393,44.425],[45.424,44.389],[45.385,44.331],[45.121,44.286],[45.085,44.22],[45.1,44.188],[45.499,44.17],[45.498,43.998],[45.725,43.932],[45.83,43.958],[46.021,43.918],[45.995,43.879],[46.043,43.802],[46.1,43.839],[46.209,43.83],[46.264,43.929],[46.414,43.979],[46.444,43.953],[46.442,43.866],[46.576,43.853],[46.624,43.803],[46.472,43.69],[46.42,43.55],[46.307,43.437],[46.344,43.344],[46.408,43.299],[46.389,43.213],[46.426,43.181],[46.385,43.106],[46.434,43.056],[46.509,43.062],[46.469,43.009],[46.508,42.949],[46.397,42.894],[46.338,42.924],[46.287,42.892],[46.185,42.921],[46.102,42.841],[46.148,42.741],[46.037,42.707],[46.001,42.619],[45.953,42.633],[45.932,42.588],[45.793,42.5],[45.539,42.561],[45.358,42.541],[45.164,42.711],[45.035,42.708],[44.86,42.779],[44.771,42.652],[44.687,42.742],[44.507,42.77],[44.266,42.721],[44.188,42.648],[44.049,42.634],[43.94,42.573],[43.751,42.632],[43.83,42.708],[43.811,42.764],[43.669,42.799],[43.523,42.88],[43.165,42.96],[43.013,43.057],[43.011,43.116],[42.835,43.188],[42.75,43.197],[42.613,43.158],[42.355,43.256],[42.042,43.201],[41.583,43.235],[41.388,43.353],[41.019,43.394],[40.718,43.531],[40.74,43.796],[40.796,43.905],[40.972,43.976],[40.896,44.105],[41.265,44.058],[41.28,43.983],[41.445,43.973],[41.557,44.074],[41.642,44.103],[41.731,44.241],[41.707,44.341],[41.642,44.375],[41.745,44.446],[41.745,44.497],[41.587,44.553],[41.563,44.612],[41.497,44.625],[41.439,44.689],[41.532,44.709],[41.603,44.776],[41.674,44.901],[41.673,44.98],[41.474,45.008],[41.371,45.116],[41.376,45.224],[41.3,45.262],[41.053,45.24],[41.025,45.395],[40.94,45.446],[40.921,45.52],[40.862,45.542],[40.877,45.676],[41.025,45.689],[41.057,45.661],[41.137,45.664],[41.183,45.682],[41.198,45.732],[41.3,45.76],[41.299,45.813],[41.262,45.833],[41.276,45.884],[41.185,45.909],[41.141,46.081],[41.004,46.148],[40.986,46.197],[41.015,46.306],[40.932,46.3],[40.906,46.255],[40.765,46.253],[40.731,46.3],[40.343,46.301],[40.262,46.36],[40.305,46.436],[40.249,46.474],[40.228,46.539],[40.063,46.565],[40.065,46.612],[40.113,46.631],[40.151,46.725],[40.026,46.785],[39.584,46.798],[39.441,46.829],[39.227,46.786],[39.224,46.713],[39.161,46.698],[39.15,46.636],[38.869,46.645],[38.927,46.827],[38.711,46.868],[39.074,47.027],[39.28,47.017],[39.3,47.077],[39.252,47.263],[39.067,47.278],[38.957,47.254],[38.81,47.162],[38.56,47.112],[38.486,47.128],[38.562,47.215],[38.769,47.253],[38.605,47.24],[38.523,47.207],[38.451,47.135],[38.236,47.113]],[[70.53,41.017],[70.649,40.916],[70.663,40.956],[70.568,41.038],[70.53,41.017]],[[55.78,52.324],[55.903,52.384],[55.941,52.494],[56.072,52.567],[56.092,52.624],[56.266,52.535],[56.386,52.573],[56.34,52.497],[56.421,52.413],[56.431,52.317],[56.195,52.215],[56.172,52.166],[56.256,52.097],[56.34,52.106],[56.4,52.157],[56.592,52.112],[56.569,52.055],[56.659,52.04],[56.629,51.966],[56.658,51.917],[56.604,51.901],[56.589,51.816],[56.732,51.758],[56.695,51.716],[56.737,51.665],[56.733,51.595],[56.776,51.573],[56.89,51.59],[56.893,51.709],[56.948,51.717],[56.985,51.712],[57.01,51.648],[57.091,51.632],[57.137,51.565],[57.204,51.553],[57.404,51.631],[57.43,51.705],[57.52,51.697],[57.643,51.748],[57.682,51.846],[57.781,51.806],[57.935,51.814],[57.99,51.763],[58.086,51.775],[58.158,51.719],[58.554,51.753],[58.647,51.903],[58.66,52.008],[58.714,52.045],[58.628,52.174],[58.699,52.245],[58.9,52.249],[58.961,52.295],[58.933,52.343],[58.835,52.375],[58.847,52.44],[58.792,52.506],[58.858,52.546],[58.748,52.646],[58.804,52.722],[58.768,52.851],[58.856,52.987],[59.047,53.011],[59.006,53.071],[58.922,53.075],[58.909,53.198],[58.843,53.219],[58.885,53.316],[58.888,53.494],[58.922,53.548],[58.846,53.589],[58.927,53.649],[58.893,53.75],[58.967,53.894],[58.945,53.931],[59.164,53.967],[59.328,54.162],[59.533,54.177],[59.67,54.114],[59.74,54.122],[59.747,54.187],[59.823,54.247],[59.795,54.313],[59.708,54.347],[59.764,54.463],[59.68,54.52],[58.696,54.52],[58.618,54.491],[58.558,54.52],[58.195,54.52],[57.962,54.413],[57.744,54.52],[55.492,54.518],[55.48,52.596],[55.512,52.555],[55.48,52.521],[55.527,52.371],[55.661,52.346],[55.705,52.371],[55.78,52.324]]],[[[130.677,42.652],[130.866,42.522],[130.695,42.294],[130.656,42.318],[130.659,42.375],[130.581,42.481],[130.605,42.62],[130.536,42.682],[130.414,42.707],[130.434,42.745],[130.795,42.872],[131.021,42.857],[131.128,42.916],[131.107,43.04],[131.264,43.27],[131.31,43.39],[131.301,43.457],[131.192,43.539],[131.231,43.974],[131.245,44.021],[131.298,44.052],[131.096,44.691],[130.958,44.838],[131.124,44.927],[131.212,44.911],[131.341,44.971],[131.469,44.974],[131.646,45.108],[131.704,45.216],[131.867,45.344],[131.992,45.241],[132.931,45.021],[133.117,45.125],[133.102,45.294],[133.15,45.451],[133.193,45.504],[133.47,45.625],[133.477,45.825],[133.52,45.882],[133.579,45.871],[133.66,45.935],[133.745,46.155],[133.902,46.254],[133.93,46.382],[133.852,46.442],[133.848,46.479],[133.909,46.578],[134.019,46.667],[134.039,46.861],[134.113,47.055],[134.215,47.1],[134.15,47.248],[134.182,47.322],[134.315,47.421],[134.486,47.43],[134.555,47.469],[134.761,47.7],[134.768,47.737],[134.684,47.801],[134.558,47.992],[134.582,48.06],[134.661,48.101],[134.717,48.266],[134.415,48.391],[133.751,48.25],[133.596,48.174],[133.483,48.069],[133.083,48.099],[132.662,47.872],[132.578,47.734],[132.521,47.711],[132.341,47.742],[131.915,47.67],[131.619,47.664],[131.446,47.738],[131.268,47.73],[131.086,47.672],[130.957,47.706],[130.94,47.817],[130.884,47.906],[130.681,48.047],[130.661,48.106],[130.831,48.294],[130.824,48.327],[130.525,48.605],[130.674,48.86],[130.509,48.852],[130.418,48.896],[130.223,48.865],[129.91,49.04],[129.913,49.072],[129.747,49.182],[129.726,49.262],[129.553,49.288],[129.49,49.416],[129.391,49.428],[129.111,49.347],[129.052,49.364],[129.002,49.436],[128.875,49.478],[128.79,49.568],[128.712,49.584],[128.398,49.577],[128.187,49.534],[127.839,49.586],[127.69,49.67],[127.672,49.746],[127.535,49.787],[127.486,50.018],[127.574,50.137],[127.581,50.21],[127.334,50.316],[127.291,50.459],[127.367,50.576],[127.28,50.684],[127.292,50.741],[127.133,50.91],[126.933,51.06],[126.899,51.181],[126.969,51.319],[126.894,51.303],[126.89,51.244],[126.818,51.267],[126.821,51.328],[126.914,51.381],[126.795,51.424],[126.718,51.71],[126.609,51.787],[126.444,51.991],[126.509,52.037],[126.555,52.127],[126.323,52.192],[126.349,52.292],[126.334,52.396],[126.276,52.453],[126.209,52.462],[126.18,52.544],[126.087,52.589],[125.993,52.579],[125.975,52.639],[126.097,52.757],[126.065,52.782],[125.972,52.765],[125.856,52.863],[125.661,52.877],[125.661,52.922],[125.722,52.946],[125.727,52.982],[125.62,53.05],[125.486,53.069],[125.165,53.193],[124.964,53.183],[124.818,53.127],[124.644,53.188],[124.493,53.188],[124.339,53.256],[124.269,53.347],[124.104,53.341],[123.866,53.481],[123.615,53.544],[123.443,53.523],[123.283,53.554],[123.153,53.501],[122.841,53.452],[122.246,53.457],[122.061,53.413],[121.83,53.413],[121.212,53.272],[121.066,53.291],[120.831,53.264],[120.269,52.857],[120.031,52.768],[120.026,52.641],[120.082,52.588],[120.186,52.58],[120.44,52.637],[120.708,52.544],[120.626,52.344],[120.751,52.211],[120.776,52.114],[120.652,51.915],[120.492,51.879],[120.064,51.621],[119.957,51.39],[119.776,51.214],[119.747,51.076],[119.521,50.902],[119.505,50.749],[119.294,50.597],[119.238,50.442],[119.139,50.39],[119.198,50.345],[119.355,50.328],[119.321,50.097],[119.173,50.001],[118.575,49.923],[118.48,49.841],[117.875,49.521],[117.794,49.518],[117.494,49.623],[117.259,49.631],[116.983,49.709],[116.716,49.827],[116.617,49.929],[116.246,50.027],[116.07,50.003],[115.73,49.881],[115.415,49.898],[115.213,49.994],[115.034,50.145],[114.847,50.23],[114.666,50.264],[114.444,50.245],[114.322,50.284],[114.176,50.248],[113.873,50.088],[113.785,50.087],[113.557,50.002],[113.187,49.794],[113.098,49.67],[113.094,49.603],[112.832,49.518],[112.71,49.499],[112.492,49.541],[111.964,49.407],[111.691,49.407],[111.173,49.305],[110.956,49.191],[110.7,49.142],[110.352,49.214],[110.207,49.169],[109.554,49.231],[109.344,49.339],[109.198,49.36],[109.075,49.335],[108.959,49.357],[108.563,49.335],[108.072,49.59],[107.953,49.688],[107.984,49.929],[107.746,49.98],[107.462,49.982],[107.176,50.027],[107.081,50.084],[107.007,50.199],[106.788,50.311],[106.663,50.339],[106.245,50.3],[106.077,50.345],[105.989,50.411],[105.336,50.484],[105.132,50.398],[104.967,50.405],[104.621,50.318],[104.418,50.309],[104.255,50.189],[104.094,50.149],[103.826,50.201],[103.649,50.137],[103.318,50.199],[103.224,50.309],[102.918,50.316],[102.78,50.387],[102.635,50.409],[102.541,50.509],[102.332,50.567],[102.296,50.646],[102.355,50.721],[102.237,50.82],[102.255,50.987],[102.168,51.121],[102.163,51.251],[102.223,51.327],[102.082,51.389],[101.601,51.484],[101.385,51.452],[101.245,51.529],[100.557,51.735],[99.947,51.752],[99.729,51.891],[99.345,51.942],[99.021,52.065],[98.958,52.121],[98.947,52.205],[98.832,52.207],[98.807,52.293],[98.714,52.313],[98.669,52.291],[98.697,52.369],[98.669,52.411],[98.737,52.451],[98.742,52.487],[98.838,52.518],[98.821,52.597],[98.952,52.658],[98.956,52.805],[98.878,52.837],[98.946,52.905],[99.214,52.835],[99.271,52.965],[99.38,53.035],[99.384,53.092],[99.695,53.113],[99.891,53.19],[99.881,53.278],[100.084,53.281],[100.252,53.353],[100.278,53.298],[100.381,53.223],[100.331,53.159],[100.382,53.086],[100.612,52.916],[100.816,52.839],[100.857,52.782],[101.022,52.751],[101.304,52.625],[101.448,52.604],[101.471,52.546],[101.668,52.449],[101.662,52.393],[101.878,52.309],[101.877,52.274],[101.956,52.204],[102.05,52.193],[102.176,52.257],[102.317,52.212],[102.411,52.242],[102.529,52.209],[102.559,52.135],[102.667,52.079],[102.758,51.973],[103.195,51.793],[103.162,51.606],[103.317,51.421],[103.576,51.459],[103.797,51.391],[103.806,51.113],[103.956,51.151],[104.013,51.197],[104.105,51.199],[104.217,51.261],[104.486,51.289],[104.615,51.249],[104.689,51.336],[104.688,51.407],[104.649,51.447],[104.666,51.605],[105.128,51.712],[105.47,51.845],[105.764,52.015],[106.005,52.206],[106.207,52.422],[108.073,53.189],[108.44,53.771],[109.023,54.413],[109.06,54.477],[109.046,54.507],[108.635,54.568],[108.718,54.676],[108.722,54.888],[108.782,54.923],[108.722,54.987],[108.711,55.058],[108.758,55.081],[108.802,55.168],[108.794,55.247],[108.673,55.314],[108.688,55.403],[108.651,55.455],[108.709,55.514],[108.705,55.591],[108.789,55.613],[108.868,55.851],[108.976,55.926],[109.195,55.895],[109.276,55.977],[109.246,56.021],[109.169,56.001],[109.003,56.056],[108.931,56.109],[108.942,56.166],[108.808,56.275],[108.593,56.304],[108.62,56.394],[108.745,56.504],[108.732,56.559],[108.934,56.569],[108.985,56.617],[109.064,56.6],[109.146,56.656],[109.312,56.649],[109.412,56.715],[109.772,56.685],[109.904,56.777],[109.881,56.832],[109.904,56.88],[109.998,56.95],[110.082,56.955],[110.233,56.905],[110.334,56.918],[110.598,56.81],[110.754,56.853],[110.88,56.814],[110.989,56.838],[111.168,56.796],[111.252,56.853],[111.385,56.885],[111.371,56.953],[111.471,57.083],[111.581,57.087],[111.618,56.997],[111.704,56.972],[111.81,56.889],[111.918,56.925],[112.106,56.924],[112.23,56.858],[112.459,56.844],[112.662,56.939],[112.72,56.924],[112.679,56.86],[112.732,56.748],[112.861,56.71],[112.889,56.673],[113.355,56.606],[113.515,56.658],[113.795,56.584],[113.9,56.506],[114.016,56.525],[114.031,56.576],[114.095,56.597],[114.151,56.662],[114.288,56.672],[114.441,56.634],[114.525,56.681],[114.788,56.681],[114.856,56.747],[114.867,56.823],[115.063,56.974],[115.057,57.038],[115.098,57.098],[115.37,57.072],[115.681,57.111],[115.868,57.223],[116.126,57.219],[116.186,57.166],[115.796,57.049],[115.694,56.953],[116.118,56.793],[116.356,56.827],[116.563,56.738],[116.732,56.74],[116.808,56.705],[117.038,56.756],[117.056,56.794],[117.139,56.786],[117.201,56.859],[117.324,56.911],[117.335,56.853],[117.455,56.799],[117.505,56.85],[117.583,56.835],[117.596,56.92],[117.689,56.966],[117.696,57.071],[117.639,57.144],[117.756,57.181],[117.813,57.3],[117.595,57.341],[117.536,57.281],[117.455,57.268],[117.46,57.341],[117.378,57.346],[117.344,57.463],[117.278,57.518],[117.317,57.574],[117.304,57.623],[117.165,57.661],[117.191,57.744],[117.117,57.803],[117.317,57.828],[117.423,57.892],[117.39,57.99],[117.425,58.114],[117.575,58.122],[117.607,58.178],[117.495,58.295],[117.686,58.378],[117.989,58.375],[118.069,58.32],[118.149,58.365],[118.309,58.334],[118.388,58.248],[118.629,58.155],[118.787,58.193],[119.099,58.203],[119.134,58.144],[119.136,58.041],[119.024,57.739],[119.048,57.702],[119.138,57.681],[119.125,57.524],[119.197,57.483],[119.305,57.584],[119.459,57.575],[119.397,57.517],[119.385,57.428],[119.438,57.349],[119.533,57.323],[119.583,57.22],[119.656,57.168],[119.6,57.102],[119.604,57.011],[119.77,56.962],[119.873,56.873],[120.037,56.88],[120.306,56.984],[120.66,57.012],[120.998,57.015],[121.078,56.96],[121.415,56.954],[121.491,56.915],[121.512,56.841],[121.584,56.803],[121.591,56.725],[122.155,56.719],[122.274,56.633],[122.456,56.584],[122.584,56.47],[122.788,56.479],[122.825,56.564],[122.883,56.574],[123.035,56.475],[123.285,56.404],[123.907,56.359],[124.049,56.215],[124.192,56.15],[124.238,56.059],[124.357,56.036],[124.433,55.891],[124.506,55.854],[124.672,55.885],[124.772,55.835],[124.958,55.806],[125.246,55.859],[125.416,55.827],[125.432,55.78],[125.546,55.716],[125.822,55.775],[126.042,55.7],[126.04,55.57],[126.277,55.569],[126.421,55.534],[126.646,55.637],[126.72,55.577],[126.87,55.59],[126.957,55.667],[127.298,55.652],[127.348,55.587],[127.477,55.532],[127.584,55.563],[127.681,55.663],[127.763,55.652],[127.779,55.612],[127.91,55.604],[128.234,55.643],[128.488,55.498],[128.668,55.5],[128.771,55.449],[129.066,55.469],[129.113,55.576],[129.065,55.637],[129.646,55.725],[129.829,55.689],[129.912,55.711],[130.016,55.668],[130.695,55.705],[130.927,55.659],[130.954,55.74],[130.887,55.826],[130.883,55.887],[130.942,55.933],[130.983,56.119],[131.111,56.197],[131.14,56.273],[131.109,56.346],[131.141,56.397],[131.195,56.451],[131.303,56.476],[131.347,56.409],[131.41,56.403],[131.447,56.442],[131.424,56.481],[131.503,56.529],[131.587,56.484],[131.596,56.434],[131.711,56.441],[131.723,56.477],[131.675,56.524],[131.692,56.604],[131.744,56.679],[131.819,56.72],[131.772,56.85],[131.506,57.014],[131.494,57.092],[131.316,57.144],[131.279,57.183],[131.197,57.152],[131.161,57.212],[131.254,57.283],[131.357,57.229],[131.502,57.224],[131.526,57.265],[131.596,57.268],[131.619,57.296],[131.586,57.363],[131.602,57.413],[131.742,57.485],[131.745,57.539],[131.853,57.571],[131.978,57.564],[131.984,57.613],[132.067,57.657],[132.016,57.738],[131.799,57.858],[131.811,57.936],[131.648,57.999],[131.648,58.073],[131.525,58.147],[131.707,58.153],[131.74,58.115],[131.84,58.103],[132.043,57.997],[132.129,58.029],[132.147,58.081],[132.031,58.122],[132.04,58.182],[132.103,58.225],[132.18,58.211],[132.213,58.235],[132.229,58.348],[132.18,58.466],[132.431,58.468],[132.406,58.516],[132.43,58.545],[132.585,58.637],[132.562,58.674],[132.591,58.759],[132.557,58.794],[132.608,58.869],[132.82,58.864],[132.893,58.98],[132.849,59.017],[132.877,59.082],[132.942,59.074],[133.114,59.182],[133.562,59.272],[133.608,59.216],[134.046,59.236],[134.521,59.128],[134.564,59.163],[134.72,59.19],[134.741,59.136],[134.85,59.108],[134.945,59.132],[135.189,59.096],[135.294,59.176],[135.288,59.222],[135.432,59.37],[135.628,59.478],[135.761,59.509],[135.996,59.466],[136.072,59.408],[136.218,59.391],[136.307,59.413],[136.361,59.374],[136.761,59.335],[136.968,59.409],[137.214,59.433],[137.356,59.53],[137.473,59.537],[137.498,59.573],[137.468,59.627],[137.621,59.72],[137.952,59.733],[137.994,59.771],[138.029,59.667],[138.176,59.66],[138.262,59.694],[138.292,59.736],[138.215,59.769],[138.197,59.836],[138.293,59.954],[138.254,60.023],[138.275,60.084],[138.225,60.125],[138.257,60.186],[138.223,60.235],[138.336,60.314],[138.346,60.411],[138.288,60.488],[138.351,60.526],[138.338,60.575],[138.427,60.606],[138.457,60.679],[138.434,60.723],[138.303,60.771],[138.21,60.888],[138.228,60.946],[138.363,60.99],[138.332,61.084],[138.712,61.175],[138.723,61.214],[138.666,61.263],[138.723,61.315],[138.755,61.291],[138.842,61.317],[138.924,61.298],[139.072,61.377],[139.104,61.428],[139.262,61.414],[139.414,61.471],[139.559,61.465],[139.662,61.557],[139.69,61.639],[139.968,61.819],[140.006,61.96],[140.133,61.953],[140.295,62.041],[140.334,62.178],[140.315,62.269],[140.361,62.372],[140.484,62.412],[140.637,62.403],[140.701,62.474],[140.677,62.528],[140.711,62.553],[140.822,62.527],[140.876,62.479],[141.035,62.466],[141.041,62.417],[141.083,62.389],[141.288,62.415],[141.398,62.28],[141.505,62.246],[141.533,62.162],[141.736,62.06],[141.833,62.071],[141.818,62.038],[141.855,62.008],[142.012,62.007],[142.1,62.07],[142.156,62.069],[142.242,62.003],[142.253,61.958],[142.378,61.931],[142.367,61.886],[142.408,61.852],[142.68,61.945],[142.988,61.887],[143.136,62.082],[143.21,62.095],[143.241,62.04],[143.359,62.004],[143.58,62.01],[143.543,61.928],[143.642,61.85],[143.758,61.886],[143.779,61.936],[143.916,61.967],[143.926,61.877],[143.889,61.821],[143.922,61.741],[144.0,61.707],[144.226,61.714],[144.388,61.804],[144.559,61.844],[144.601,61.963],[144.758,62.031],[144.763,62.098],[144.998,62.152],[145.019,62.218],[145.186,62.26],[145.182,62.472],[145.274,62.511],[145.391,62.49],[145.495,62.535],[145.493,62.571],[145.422,62.617],[145.449,62.652],[145.409,62.728],[145.347,62.766],[145.386,62.913],[145.304,63.029],[145.319,63.113],[145.272,63.189],[145.292,63.252],[145.381,63.321],[145.467,63.515],[145.658,63.657],[145.641,63.787],[145.608,63.82],[146.117,63.924],[146.189,63.959],[146.225,64.021],[146.33,64.059],[146.4,64.187],[146.992,64.127],[147.266,64.033],[147.354,64.07],[147.335,64.116],[147.616,64.149],[147.634,64.125],[147.6,64.102],[147.599,64.021],[147.737,63.999],[147.738,63.958],[147.79,63.928],[147.877,63.955],[147.939,63.924],[148.135,64.042],[148.147,64.108],[148.246,64.165],[148.278,64.234],[148.176,64.324],[148.054,64.36],[148.063,64.422],[148.17,64.44],[148.308,64.534],[148.429,64.505],[148.61,64.401],[149.095,64.421],[149.219,64.388],[149.286,64.43],[149.441,64.419],[149.63,64.519],[149.815,64.547],[150.066,64.477],[150.007,64.351],[150.183,64.206],[150.607,64.146],[150.655,64.169],[150.636,64.22],[150.663,64.314],[150.968,64.312],[151.174,64.356],[151.308,64.34],[151.395,64.276],[151.486,64.416],[152.017,64.484],[152.112,64.437],[152.085,64.35],[152.207,64.337],[152.424,64.39],[152.367,64.51],[152.766,64.676],[152.688,64.796],[152.575,64.828],[152.575,64.887],[152.526,64.936],[152.671,65.023],[152.68,65.075],[152.631,65.146],[152.705,65.218],[153.12,65.251],[153.471,65.346],[153.544,65.412],[153.425,65.498],[153.522,65.601],[153.551,65.7],[153.48,65.765],[153.497,65.81],[153.699,65.865],[153.913,65.867],[154.037,65.847],[154.08,65.778],[154.257,65.812],[154.399,65.925],[154.374,66.047],[154.283,66.077],[154.404,66.186],[154.546,66.218],[154.807,66.163],[154.886,66.114],[155.17,66.189],[155.276,66.164],[155.319,66.122],[155.772,66.157],[155.954,66.077],[156.336,66.043],[156.629,66.182],[156.753,66.086],[156.936,66.025],[156.902,65.987],[156.916,65.948],[157.125,65.895],[157.397,65.911],[157.424,65.947],[157.399,65.984],[157.721,66.092],[158.126,66.136],[158.484,66.096],[158.503,66.126],[158.413,66.246],[158.548,66.364],[158.417,66.451],[158.642,66.597],[158.724,66.712],[158.898,66.766],[158.922,66.816],[158.805,66.93],[158.816,66.994],[158.71,67.074],[158.357,67.136],[157.871,67.289],[157.812,67.345],[157.891,67.399],[157.904,67.444],[157.775,67.488],[157.721,67.541],[157.76,67.588],[157.755,67.639],[157.927,67.716],[158.152,67.7],[158.337,67.732],[158.345,67.769],[158.268,67.849],[158.074,67.884],[158.205,67.94],[158.268,68.051],[158.423,68.091],[158.937,68.124],[159.554,68.219],[159.783,68.189],[159.854,68.257],[161.0,68.281],[161.406,68.392],[162.176,68.335],[162.383,68.291],[162.524,68.329],[162.61,68.442],[162.604,68.498],[162.743,68.601],[162.699,68.688],[162.628,68.716],[162.617,68.78],[162.748,68.779],[162.867,68.869],[162.78,68.946],[162.557,69.015],[162.569,69.062],[162.534,69.087],[162.777,69.165],[162.794,69.212],[162.552,69.323],[162.522,69.394],[162.416,69.428],[162.428,69.475],[162.341,69.536],[162.396,69.563],[162.379,69.605],[162.461,69.627],[162.457,69.671],[162.832,69.652],[163.217,69.717],[163.6,69.681],[164.014,69.767],[164.532,69.599],[165.627,69.591],[166.138,69.511],[166.648,69.524],[166.86,69.491],[167.213,69.583],[167.653,69.76],[167.777,69.776],[167.992,69.715],[167.994,69.627],[168.241,69.55],[168.257,69.526],[168.194,69.382],[168.233,69.279],[168.283,69.242],[168.734,69.208],[169.364,69.081],[169.425,68.997],[169.453,68.841],[169.589,68.777],[170.332,68.821],[170.612,68.756],[170.551,68.824],[170.46,68.845],[170.621,68.909],[170.654,68.902],[170.705,68.804],[170.71,68.903],[170.762,68.955],[171.032,69.042],[170.907,69.306],[170.609,69.58],[170.507,69.607],[170.263,69.588],[170.122,69.614],[170.283,69.728],[170.567,69.778],[170.556,69.893],[170.522,69.929],[170.558,70.079],[170.43,70.113],[170.521,70.133],[171.929,69.997],[172.639,69.966],[173.164,69.848],[173.202,69.779],[173.379,69.787],[173.476,69.833],[173.271,69.911],[173.186,69.898],[173.204,69.924],[173.458,69.952],[173.742,69.867],[173.934,69.847],[174.089,69.883],[175.296,69.846],[175.723,69.904],[176.084,69.893],[176.234,69.828],[176.235,69.794],[176.53,69.741],[176.741,69.667],[177.436,69.604],[178.187,69.449],[178.369,69.475],[178.771,69.407],[179.032,69.327],[178.94,69.32],[178.743,69.372],[178.679,69.359],[178.652,69.309],[178.715,69.279],[178.879,69.296],[179.297,69.262],[179.916,69.004],[179.836,69.003],[179.55,69.106],[179.719,69.003],[179.999,68.977],[179.997,65.069],[179.796,65.022],[179.46,64.813],[179.162,64.788],[178.699,64.631],[178.749,64.683],[178.374,64.666],[177.606,64.72],[177.505,64.805],[177.442,64.916],[177.261,64.933],[177.167,65.025],[176.916,65.082],[176.591,65.024],[176.438,65.074],[176.307,65.047],[176.567,64.995],[176.957,65.038],[177.216,64.909],[177.292,64.831],[177.043,64.77],[176.927,64.799],[176.87,64.848],[176.634,64.869],[176.454,64.807],[176.418,64.844],[176.06,64.948],[175.871,64.832],[175.692,64.778],[175.069,64.763],[174.704,64.679],[174.45,64.686],[174.718,64.67],[175.052,64.739],[175.682,64.754],[175.823,64.783],[176.066,64.901],[176.199,64.875],[176.415,64.708],[176.148,64.629],[176.11,64.544],[176.216,64.621],[176.329,64.622],[176.453,64.688],[176.603,64.661],[176.739,64.565],[177.01,64.711],[177.343,64.777],[177.482,64.759],[177.452,64.647],[177.361,64.544],[177.433,64.431],[177.668,64.302],[178.088,64.2],[178.181,64.205],[178.084,64.258],[178.289,64.351],[178.478,64.123],[178.482,64.066],[178.398,64.032],[178.377,63.972],[178.663,63.943],[178.755,63.648],[178.609,63.675],[178.354,63.626],[178.261,63.575],[178.37,63.516],[178.474,63.573],[178.703,63.573],[178.722,63.475],[178.595,63.412],[178.68,63.384],[178.774,63.4],[178.808,63.442],[178.747,63.546],[178.777,63.586],[178.837,63.47],[178.967,63.349],[178.856,63.399],[178.804,63.381],[178.822,63.339],[179.242,63.23],[179.409,63.14],[179.408,63.058],[179.315,63.059],[179.236,63.006],[179.306,62.904],[179.54,62.841],[179.604,62.701],[179.553,62.62],[179.413,62.565],[179.357,62.507],[179.129,62.479],[179.104,62.453],[179.139,62.424],[179.149,62.337],[179.1,62.291],[178.961,62.357],[178.028,62.544],[177.339,62.576],[177.292,62.61],[177.315,62.736],[177.453,62.81],[177.329,62.801],[177.242,62.705],[177.192,62.703],[177.145,62.717],[177.152,62.778],[177.113,62.813],[176.974,62.864],[176.93,62.665],[177.05,62.578],[177.173,62.568],[176.814,62.52],[176.685,62.539],[176.28,62.313],[175.318,62.101],[175.171,62.016],[174.77,61.918],[174.604,61.979],[174.718,61.886],[174.593,61.83],[174.457,61.806],[174.079,61.841],[174.017,61.819],[174.047,61.774],[174.007,61.723],[173.874,61.677],[173.542,61.744],[173.496,61.657],[173.493,61.565],[173.349,61.552],[173.293,61.514],[173.275,61.452],[173.161,61.404],[173.063,61.392],[172.888,61.47],[172.714,61.427],[172.898,61.367],[172.956,61.303],[172.844,61.277],[172.672,61.329],[172.764,61.274],[172.643,61.191],[172.343,61.219],[172.373,61.1],[172.475,61.073],[172.453,61.041],[172.362,61.009],[172.241,61.013],[172.018,61.092],[172.161,61.028],[172.197,60.963],[172.114,60.938],[172.021,60.849],[171.992,60.876],[172.002,60.922],[171.951,60.947],[171.949,60.853],[171.61,60.802],[171.612,60.735],[171.407,60.714],[171.366,60.632],[171.169,60.554],[170.857,60.506],[170.785,60.444],[170.642,60.417],[170.618,60.394],[170.654,60.325],[170.53,60.285],[170.469,60.224],[170.394,59.959],[170.244,59.911],[170.104,59.978],[170.076,60.032],[169.931,60.07],[169.747,60.277],[169.703,60.407],[169.33,60.531],[169.322,60.555],[169.367,60.563],[169.265,60.619],[169.207,60.62],[169.151,60.561],[168.189,60.582],[167.05,60.324],[166.344,59.868],[166.14,59.816],[166.097,59.854],[166.136,60.025],[166.259,60.257],[166.256,60.382],[166.347,60.412],[166.381,60.471],[166.349,60.486],[166.001,60.434],[165.768,60.288],[165.236,60.097],[164.997,60.127],[165.037,60.064],[165.12,60.083],[165.18,59.98],[164.998,59.839],[164.827,59.783],[164.702,59.976],[164.469,60.111],[164.318,60.086],[164.338,60.028],[164.14,59.932],[164.14,59.868],[164.053,59.877],[164.048,59.933],[164.107,59.972],[164.044,60.03],[163.64,60.046],[163.621,60.023],[163.677,59.971],[163.743,59.972],[163.7,59.899],[163.505,59.899],[163.36,59.824],[163.388,59.628],[163.327,59.585],[163.179,59.567],[163.166,59.502],[163.328,59.386],[163.296,59.263],[163.263,59.239],[163.234,59.245],[163.258,59.296],[163.104,59.278],[163.061,59.241],[163.066,59.194],[163.191,59.129],[163.186,59.049],[163.012,59.157],[162.882,59.127],[163.039,59.021],[163.033,58.997],[162.76,58.891],[162.726,58.853],[162.775,58.861],[162.764,58.835],[162.406,58.679],[162.143,58.453],[161.939,58.068],[162.003,57.948],[162.106,57.854],[162.316,57.797],[162.339,57.691],[162.381,57.69],[162.477,57.762],[162.466,57.868],[162.565,57.95],[162.702,57.964],[162.996,57.85],[163.211,57.837],[163.28,57.738],[163.073,57.502],[162.742,57.359],[162.765,57.347],[162.752,57.218],[162.827,57.045],[162.782,56.854],[162.79,56.795],[162.902,56.707],[163.212,56.739],[163.247,56.687],[163.215,56.629],[163.341,56.332],[163.349,56.196],[163.107,56.087],[163.031,56.018],[162.869,56.04],[162.646,56.192],[162.629,56.245],[162.718,56.327],[163.074,56.477],[163.093,56.525],[162.985,56.547],[162.897,56.433],[162.699,56.492],[162.394,56.39],[162.56,56.271],[162.444,56.208],[162.086,56.101],[162.036,56.05],[162.018,55.958],[161.749,55.627],[161.711,55.49],[161.718,55.366],[161.797,55.168],[161.874,55.068],[161.97,55.025],[162.149,54.861],[162.112,54.763],[161.8,54.576],[161.736,54.507],[161.306,54.492],[161.241,54.511],[161.203,54.572],[161.114,54.591],[160.728,54.529],[160.006,54.139],[159.9,53.981],[159.817,53.659],[159.904,53.601],[159.894,53.658],[159.922,53.646],[159.961,53.516],[159.917,53.474],[159.798,53.521],[159.978,53.268],[160.014,53.268],[160.05,53.095],[159.615,53.259],[159.453,53.216],[159.39,53.159],[159.256,53.153],[159.02,53.084],[158.727,52.893],[158.584,53.062],[158.439,53.027],[158.419,53.009],[158.446,52.902],[158.522,52.907],[158.484,52.936],[158.512,52.943],[158.625,52.931],[158.642,52.902],[158.632,52.847],[158.561,52.789],[158.598,52.704],[158.549,52.625],[158.419,52.652],[158.435,52.601],[158.512,52.565],[158.555,52.312],[158.526,52.275],[158.429,52.266],[158.318,52.128],[158.277,51.941],[157.912,51.643],[157.776,51.565],[157.537,51.487],[157.26,51.233],[156.655,50.885],[156.746,50.994],[156.745,51.078],[156.674,51.229],[156.556,51.271],[156.521,51.316],[156.473,51.514],[156.493,51.925],[156.429,52.202],[156.281,52.521],[156.36,52.498],[156.379,52.45],[156.441,52.515],[156.262,52.567],[156.102,52.853],[156.077,53.133],[155.931,53.837],[155.699,54.513],[155.544,55.304],[155.646,55.912],[155.942,56.653],[156.111,56.819],[156.15,56.827],[156.064,56.723],[156.202,56.85],[156.45,56.955],[156.546,57.103],[156.646,57.077],[156.695,57.109],[156.981,57.421],[156.981,57.528],[156.933,57.644],[156.84,57.728],[156.76,57.738],[156.981,57.85],[157.168,57.773],[157.434,57.791],[157.535,57.851],[157.645,58.004],[157.923,57.979],[158.233,58.019],[158.665,58.271],[159.044,58.421],[159.702,58.851],[159.756,58.945],[159.735,59.02],[159.79,59.084],[159.923,59.176],[160.341,59.361],[160.444,59.456],[160.485,59.543],[160.861,59.622],[161.248,59.85],[161.466,60.046],[161.837,60.187],[161.929,60.268],[161.916,60.327],[161.875,60.318],[161.914,60.42],[162.459,60.592],[162.754,60.647],[162.901,60.771],[163.11,60.778],[163.193,60.821],[163.37,60.816],[163.643,60.875],[163.729,60.937],[163.512,61.004],[163.511,61.048],[163.636,61.146],[163.854,61.213],[164.015,61.33],[164.02,61.363],[163.94,61.44],[163.785,61.424],[163.75,61.453],[163.847,61.632],[164.011,61.687],[164.071,61.784],[164.064,62.101],[164.123,62.278],[164.614,62.474],[165.091,62.421],[165.231,62.373],[165.285,62.317],[165.33,62.316],[165.232,62.401],[165.094,62.456],[165.343,62.479],[165.63,62.443],[164.764,62.568],[164.582,62.691],[164.366,62.712],[163.257,62.543],[163.164,62.445],[163.351,62.362],[163.126,62.284],[163.081,62.198],[163.137,62.045],[162.952,61.801],[163.239,61.746],[163.301,61.717],[163.282,61.662],[163.094,61.617],[163.065,61.596],[163.084,61.554],[163.007,61.519],[162.944,61.578],[162.931,61.67],[162.838,61.72],[162.654,61.693],[162.641,61.668],[162.749,61.629],[162.74,61.6],[162.41,61.673],[162.028,61.421],[161.784,61.342],[161.565,61.201],[161.468,61.202],[161.329,61.088],[160.888,60.884],[160.796,60.74],[160.677,60.776],[160.399,60.74],[160.262,60.627],[160.139,60.589],[160.135,60.657],[160.223,60.734],[160.225,60.784],[160.166,60.827],[160.391,61.026],[160.332,61.053],[160.172,61.052],[159.865,60.93],[159.781,60.943],[159.903,61.037],[159.947,61.136],[159.913,61.252],[159.839,61.265],[159.854,61.311],[160.008,61.391],[160.158,61.52],[160.366,61.766],[160.355,61.947],[159.966,61.826],[159.83,61.713],[159.528,61.665],[159.364,61.89],[159.247,61.922],[158.906,61.896],[158.733,61.836],[158.305,61.823],[158.022,61.731],[157.893,61.786],[157.487,61.803],[157.027,61.65],[156.858,61.536],[156.696,61.534],[156.634,61.422],[156.653,61.21],[156.417,61.182],[156.085,61.013],[155.928,60.907],[155.895,60.762],[154.966,60.375],[154.623,60.136],[154.532,60.049],[154.467,59.92],[154.231,59.879],[154.228,59.724],[154.294,59.638],[154.065,59.513],[154.109,59.463],[154.292,59.444],[154.344,59.486],[154.42,59.422],[154.501,59.433],[154.432,59.485],[154.439,59.548],[154.691,59.517],[154.849,59.462],[154.967,59.492],[155.083,59.393],[155.184,59.36],[155.139,59.205],[154.829,59.189],[154.742,59.161],[154.742,59.127],[154.451,59.22],[154.331,59.203],[154.345,59.137],[154.29,59.094],[154.155,59.096],[154.021,59.046],[153.915,59.078],[153.795,59.174],[153.362,59.242],[153.269,59.092],[152.994,59.075],[152.875,58.918],[152.567,58.955],[152.357,59.023],[152.124,58.989],[152.12,58.923],[152.06,58.896],[151.614,58.852],[151.456,58.875],[151.311,58.84],[151.273,58.921],[151.216,58.945],[151.077,59.106],[151.164,59.09],[151.607,59.168],[152.045,59.153],[152.284,59.22],[152.142,59.292],[151.981,59.265],[151.749,59.296],[151.606,59.473],[151.386,59.571],[151.102,59.592],[150.904,59.567],[150.87,59.553],[150.929,59.471],[150.713,59.443],[150.681,59.452],[150.729,59.494],[150.684,59.51],[150.462,59.491],[150.728,59.556],[150.707,59.575],[150.525,59.554],[150.416,59.621],[149.592,59.771],[149.372,59.76],[149.034,59.632],[149.084,59.551],[149.208,59.506],[149.205,59.47],[149.089,59.493],[148.902,59.463],[148.843,59.5],[148.862,59.553],[148.743,59.492],[148.69,59.422],[148.722,59.37],[148.861,59.402],[148.961,59.379],[148.949,59.261],[148.905,59.241],[148.799,59.281],[148.544,59.246],[148.415,59.262],[148.365,59.394],[148.213,59.419],[147.843,59.383],[147.782,59.349],[147.826,59.291],[147.782,59.269],[147.606,59.299],[147.544,59.274],[147.552,59.249],[147.49,59.24],[147.297,59.326],[147.165,59.319],[146.999,59.373],[146.745,59.374],[146.512,59.461],[146.325,59.391],[146.341,59.204],[146.315,59.183],[145.992,59.149],[145.797,59.265],[145.911,59.35],[145.908,59.413],[144.592,59.372],[143.901,59.412],[143.474,59.338],[143.211,59.377],[142.588,59.238],[142.303,59.138],[141.978,58.968],[141.839,58.813],[141.616,58.646],[141.276,58.496],[141.089,58.461],[140.685,58.231],[140.516,57.942],[140.499,57.826],[140.313,57.753],[140.067,57.722],[139.945,57.65],[139.839,57.509],[139.597,57.444],[139.565,57.38],[139.471,57.318],[139.179,57.264],[138.91,57.027],[138.653,56.986],[138.587,56.875],[138.478,56.846],[138.401,56.738],[138.306,56.717],[138.262,56.647],[138.138,56.594],[138.116,56.567],[138.142,56.457],[137.917,56.345],[137.842,56.25],[137.726,56.175],[136.729,55.662],[136.417,55.569],[136.126,55.302],[135.744,55.146],[135.558,55.124],[135.217,54.93],[135.156,54.861],[135.261,54.721],[135.673,54.64],[135.731,54.572],[135.973,54.574],[136.21,54.617],[136.536,54.59],[136.814,54.649],[136.878,54.583],[136.748,54.428],[136.766,54.217],[136.804,54.131],[136.689,54.006],[136.654,53.92],[136.681,53.811],[136.761,53.769],[136.937,53.852],[137.113,53.804],[137.176,53.838],[137.283,54.038],[137.177,54.036],[137.063,54.138],[137.192,54.217],[137.388,54.305],[137.725,54.306],[137.512,54.151],[137.319,54.122],[137.306,54.051],[137.427,54.035],[137.558,53.964],[137.856,53.962],[137.781,53.897],[137.597,53.827],[137.564,53.73],[137.487,53.665],[137.337,53.661],[137.212,53.582],[137.311,53.533],[137.899,53.573],[138.293,53.743],[138.342,53.886],[138.554,53.989],[138.589,53.855],[138.571,53.815],[138.24,53.559],[138.249,53.52],[138.431,53.507],[138.55,53.58],[138.649,53.72],[138.776,54.024],[138.741,54.249],[138.658,54.289],[138.732,54.314],[138.995,54.229],[139.337,54.183],[139.753,54.308],[139.802,54.291],[139.815,54.211],[140.238,54.05],[140.256,53.863],[140.361,53.78],[140.537,53.71],[140.555,53.648],[140.958,53.501],[140.926,53.436],[141.242,53.308],[141.414,53.292],[141.434,53.153],[141.354,53.096],[141.236,53.078],[141.19,53.041],[141.243,53.022],[141.179,52.982],[140.841,53.12],[140.713,53.116],[140.94,52.989],[140.959,52.941],[141.201,52.842],[141.312,52.657],[141.22,52.508],[141.128,52.461],[141.131,52.409],[141.396,52.226],[141.504,52.206],[141.485,52.161],[141.343,52.103],[141.31,52.033],[141.305,52.009],[141.422,51.924],[141.276,51.874],[141.082,51.678],[140.908,51.612],[140.901,51.495],[140.796,51.455],[140.814,51.413],[140.882,51.42],[140.868,51.363],[140.69,51.317],[140.676,51.174],[140.71,51.052],[140.678,50.949],[140.529,50.866],[140.462,50.702],[140.486,50.61],[140.439,50.537],[140.527,50.366],[140.516,50.171],[140.592,50.074],[140.662,50.078],[140.487,49.979],[140.411,49.866],[140.528,49.728],[140.554,49.557],[140.435,49.354],[140.34,49.272],[140.388,48.967],[140.245,48.84],[140.213,48.764],[140.176,48.45],[139.284,47.814],[139.046,47.471],[139.042,47.404],[138.555,47.019],[138.384,46.735],[138.343,46.55],[138.2,46.447],[138.062,46.181],[137.775,45.934],[137.664,45.788],[137.377,45.61],[137.177,45.416],[136.858,45.213],[136.439,44.788],[136.374,44.788],[136.244,44.663],[136.183,44.514],[135.892,44.402],[135.802,44.265],[135.722,44.234],[135.647,44.156],[135.63,44.041],[135.459,43.944],[135.498,43.872],[135.466,43.802],[135.274,43.688],[135.131,43.503],[134.862,43.395],[134.348,43.118],[134.186,43.078],[133.905,42.875],[133.57,42.819],[133.216,42.728],[133.153,42.683],[133.032,42.686],[133.003,42.717],[133.039,42.771],[132.994,42.819],[132.916,42.818],[132.844,42.742],[132.798,42.764],[132.772,42.87],[132.589,42.842],[132.462,42.934],[132.352,42.896],[132.35,42.852],[132.313,42.848],[132.285,42.961],[132.369,43.213],[132.351,43.292],[132.302,43.317],[132.229,43.23],[132.097,43.176],[131.947,43.064],[131.845,43.083],[131.908,43.194],[131.992,43.235],[132.051,43.313],[131.811,43.326],[131.752,43.22],[131.525,43.005],[131.472,42.872],[131.278,42.764],[131.219,42.651],[131.223,42.558],[131.168,42.575],[131.114,42.663],[130.968,42.627],[130.805,42.688],[130.714,42.686],[130.677,42.652]]],[[[-177.21,65.593],[-177.501,65.486],[-178.369,65.476],[-178.556,65.514],[-178.569,65.541],[-178.518,65.587],[-178.456,65.727],[-178.655,65.762],[-178.809,65.867],[-178.904,65.989],[-178.725,66.009],[-178.674,66.113],[-178.543,66.163],[-178.509,66.285],[-178.526,66.403],[-178.783,66.206],[-178.91,66.171],[-179.064,66.196],[-179.109,66.247],[-179.083,66.298],[-179.109,66.37],[-179.171,66.415],[-179.179,66.293],[-179.424,66.341],[-179.25,66.199],[-179.284,66.167],[-179.634,66.118],[-179.656,66.135],[-179.58,66.148],[-179.689,66.184],[-179.762,66.117],[-179.815,65.987],[-179.8,65.874],[-179.741,65.792],[-179.329,65.627],[-179.321,65.532],[-179.538,65.428],[-179.569,65.266],[-179.7,65.164],[-179.998,65.073],[-179.999,68.977],[-179.626,68.906],[-179.529,68.915],[-179.537,68.949],[-179.507,68.955],[-179.421,68.893],[-179.391,68.823],[-178.924,68.768],[-178.604,68.632],[-178.716,68.656],[-178.758,68.574],[-178.74,68.543],[-178.037,68.423],[-177.951,68.29],[-177.95,68.29],[-177.706,68.337],[-178.377,68.551],[-177.636,68.326],[-177.633,68.296],[-177.753,68.257],[-177.68,68.224],[-177.361,68.249],[-177.251,68.21],[-177.241,68.151],[-176.97,68.133],[-175.878,67.825],[-175.896,67.807],[-175.873,67.823],[-175.464,67.707],[-175.193,67.51],[-175.218,67.448],[-175.376,67.343],[-175.099,67.371],[-175.041,67.443],[-174.833,67.384],[-174.787,67.31],[-174.893,67.29],[-174.955,67.104],[-174.915,66.992],[-174.814,66.945],[-174.745,66.765],[-174.763,66.733],[-174.858,66.746],[-174.995,66.672],[-174.906,66.616],[-174.506,66.551],[-174.437,66.462],[-174.516,66.454],[-174.467,66.303],[-174.354,66.333],[-174.377,66.361],[-174.197,66.464],[-174.024,66.48],[-173.993,66.458],[-174.087,66.262],[-174.037,66.214],[-173.956,66.278],[-173.938,66.334],[-173.782,66.373],[-173.762,66.449],[-173.918,66.516],[-174.302,66.582],[-173.983,66.697],[-173.997,66.798],[-174.125,66.989],[-174.295,67.059],[-174.507,67.031],[-174.651,67.06],[-174.432,67.103],[-173.828,67.087],[-173.676,67.132],[-173.173,67.059],[-173.274,67.049],[-173.354,66.969],[-173.357,66.84],[-173.155,66.86],[-173.209,66.885],[-173.221,66.975],[-173.139,66.996],[-173.06,66.938],[-172.82,66.909],[-172.436,66.938],[-173.011,67.028],[-173.007,67.055],[-172.328,66.963],[-171.726,66.955],[-171.694,66.936],[-171.719,66.886],[-171.7,66.851],[-171.417,66.772],[-171.397,66.751],[-171.423,66.704],[-171.343,66.651],[-170.88,66.514],[-170.492,66.323],[-170.637,66.239],[-170.349,66.291],[-170.202,66.248],[-170.188,66.202],[-170.331,66.179],[-170.223,66.144],[-169.791,66.151],[-169.709,66.127],[-169.693,66.084],[-169.785,65.992],[-170.037,66.036],[-170.578,65.853],[-170.516,65.82],[-170.531,65.673],[-170.636,65.611],[-170.894,65.634],[-171.542,65.836],[-171.288,65.666],[-171.029,65.581],[-171.077,65.484],[-171.393,65.538],[-172.083,65.484],[-171.814,65.521],[-172.043,65.534],[-172.103,65.564],[-172.246,65.538],[-172.351,65.663],[-172.654,65.703],[-172.803,65.675],[-172.437,65.591],[-172.426,65.483],[-172.462,65.472],[-172.422,65.427],[-172.214,65.466],[-172.193,65.448],[-172.255,65.353],[-172.249,65.246],[-172.68,65.269],[-172.683,65.228],[-172.307,65.217],[-172.134,65.083],[-172.464,64.921],[-172.541,64.925],[-172.782,64.851],[-173.046,64.863],[-173.195,64.778],[-173.001,64.841],[-172.898,64.83],[-172.785,64.778],[-173.085,64.663],[-172.955,64.672],[-172.735,64.594],[-172.46,64.552],[-172.356,64.458],[-172.363,64.423],[-172.631,64.389],[-172.758,64.421],[-172.829,64.525],[-173.026,64.497],[-173.061,64.477],[-172.883,64.445],[-172.899,64.337],[-172.994,64.282],[-173.191,64.255],[-173.434,64.327],[-173.299,64.461],[-173.284,64.521],[-173.416,64.617],[-173.352,64.497],[-173.364,64.465],[-173.468,64.394],[-173.674,64.347],[-174.05,64.424],[-174.101,64.527],[-174.158,64.571],[-174.704,64.735],[-174.704,64.761],[-175.006,64.813],[-175.055,64.779],[-175.446,64.785],[-175.472,64.856],[-175.806,64.956],[-175.912,65.016],[-175.811,65.063],[-175.781,65.161],[-175.862,65.235],[-175.928,65.398],[-176.078,65.47],[-177.068,65.61],[-177.21,65.593]]],[[[57.517,74.084],[57.258,74.076],[57.555,74.057],[57.909,73.917],[57.937,73.8],[57.724,73.716],[57.403,73.838],[56.568,73.88],[57.33,73.824],[57.611,73.662],[57.584,73.61],[57.351,73.55],[57.053,73.587],[56.727,73.671],[56.755,73.599],[57.249,73.487],[57.226,73.45],[56.907,73.309],[56.758,73.36],[56.744,73.246],[56.129,73.288],[56.041,73.325],[56.009,73.419],[55.908,73.44],[55.878,73.434],[55.983,73.365],[55.979,73.327],[55.927,73.305],[55.749,73.346],[55.392,73.339],[54.972,73.442],[54.476,73.386],[54.214,73.324],[54.058,73.383],[54.299,73.417],[54.333,73.459],[54.249,73.478],[54.247,73.508],[54.375,73.566],[54.752,73.659],[55.174,73.711],[54.855,73.728],[54.542,73.702],[54.266,73.606],[54.062,73.606],[53.634,73.761],[53.653,73.803],[53.899,73.779],[54.25,73.911],[54.8,73.977],[54.591,74.008],[54.694,74.07],[55.021,74.172],[55.166,74.186],[55.268,74.151],[55.862,74.108],[55.589,74.193],[55.097,74.265],[55.217,74.304],[55.307,74.277],[55.703,74.268],[55.742,74.293],[55.665,74.326],[55.234,74.366],[55.365,74.435],[56.281,74.488],[56.053,74.494],[56.076,74.514],[56.008,74.542],[55.498,74.569],[55.528,74.646],[55.571,74.66],[55.773,74.689],[55.915,74.658],[56.388,74.719],[56.611,74.677],[56.984,74.687],[56.602,74.694],[56.484,74.793],[55.939,74.775],[55.836,74.8],[55.921,74.842],[56.676,74.949],[56.296,74.958],[56.473,75.013],[56.419,75.035],[55.888,74.989],[55.862,74.996],[55.94,75.065],[55.917,75.082],[55.729,75.076],[55.803,75.149],[56.076,75.214],[56.188,75.147],[56.354,75.189],[56.466,75.104],[56.481,75.061],[56.908,75.237],[56.875,75.281],[56.749,75.3],[56.87,75.36],[57.052,75.39],[57.737,75.323],[57.655,75.427],[57.546,75.452],[57.518,75.494],[57.651,75.532],[58.154,75.57],[58.193,75.602],[57.947,75.633],[58.044,75.68],[58.516,75.724],[58.568,75.768],[58.893,75.857],[59.145,75.86],[59.417,75.934],[59.744,75.926],[60.042,75.986],[60.328,75.993],[60.343,76.01],[60.07,76.045],[60.274,76.107],[60.79,76.113],[60.468,76.014],[60.759,76.009],[60.82,76.058],[61.064,76.07],[61.156,76.132],[60.905,76.148],[60.995,76.247],[61.067,76.274],[61.679,76.31],[62.028,76.252],[62.306,76.257],[62.392,76.19],[62.502,76.177],[62.735,76.258],[62.842,76.258],[62.905,76.207],[62.979,76.21],[63.717,76.345],[64.11,76.311],[64.666,76.417],[64.799,76.474],[64.985,76.494],[65.161,76.468],[65.549,76.582],[65.974,76.528],[66.019,76.541],[65.77,76.685],[65.926,76.744],[66.152,76.758],[66.683,76.902],[67.57,77.013],[68.508,76.954],[68.929,76.781],[68.887,76.67],[68.789,76.585],[68.863,76.575],[68.86,76.542],[68.398,76.364],[68.213,76.327],[68.319,76.288],[68.291,76.28],[67.997,76.266],[67.035,76.084],[65.409,75.88],[65.136,75.808],[64.115,75.717],[63.811,75.655],[63.582,75.711],[63.556,75.707],[63.607,75.685],[63.537,75.636],[63.305,75.586],[63.023,75.586],[62.242,75.433],[62.018,75.441],[61.854,75.382],[61.699,75.367],[61.649,75.279],[61.483,75.22],[61.385,75.251],[61.381,75.331],[61.283,75.318],[61.302,75.295],[61.148,75.207],[60.811,75.137],[60.75,75.102],[60.805,75.081],[60.736,75.025],[60.588,75.037],[60.57,75.059],[60.602,75.1],[60.516,75.114],[60.442,75.063],[60.456,75.025],[60.426,75.012],[59.93,74.997],[60.105,74.967],[60.609,74.966],[60.675,74.93],[60.555,74.862],[60.204,74.846],[60.367,74.786],[60.319,74.761],[59.937,74.718],[59.51,74.795],[59.628,74.729],[59.868,74.68],[59.869,74.625],[59.765,74.589],[59.574,74.602],[59.169,74.72],[59.288,74.641],[59.122,74.541],[59.093,74.483],[59.147,74.439],[58.784,74.461],[58.717,74.5],[58.192,74.575],[58.181,74.557],[58.612,74.428],[58.625,74.363],[58.722,74.303],[58.724,74.24],[58.506,74.165],[58.28,74.218],[58.265,74.173],[58.385,74.131],[58.329,74.092],[58.252,74.133],[58.137,74.137],[58.139,74.076],[58.217,74.007],[58.136,73.985],[57.726,74.05],[57.534,74.182],[57.415,74.18],[57.518,74.121],[57.517,74.084]]],[[[54.5,70.784],[54.479,70.734],[54.689,70.663],[54.558,70.677],[54.282,70.771],[54.276,70.74],[54.215,70.726],[54.051,70.74],[53.831,70.809],[53.729,70.793],[53.53,70.834],[53.464,70.814],[53.395,70.851],[53.572,70.886],[53.676,70.865],[53.74,70.949],[53.508,71.06],[53.512,71.086],[53.939,71.14],[54.057,71.118],[53.929,71.125],[53.916,71.099],[54.118,71.094],[54.236,71.125],[54.128,71.121],[53.953,71.175],[53.809,71.153],[53.56,71.201],[53.464,71.257],[53.736,71.409],[53.893,71.418],[53.941,71.459],[53.908,71.471],[53.557,71.38],[53.546,71.32],[53.48,71.292],[53.364,71.327],[53.256,71.446],[53.435,71.543],[53.365,71.565],[53.183,71.493],[53.029,71.501],[52.918,71.406],[52.623,71.496],[52.552,71.594],[52.432,71.548],[52.38,71.491],[52.289,71.507],[52.216,71.563],[52.141,71.537],[52.202,71.49],[51.797,71.475],[51.638,71.53],[51.42,71.73],[51.418,71.898],[51.575,72.071],[51.863,72.159],[52.052,72.101],[52.33,72.062],[52.403,72.08],[52.412,72.225],[52.58,72.26],[52.746,72.337],[52.691,72.37],[52.669,72.435],[52.792,72.509],[52.874,72.514],[52.912,72.57],[53.084,72.594],[52.734,72.556],[52.756,72.636],[52.964,72.67],[53.214,72.649],[52.977,72.683],[52.544,72.674],[52.381,72.722],[52.596,72.853],[52.976,72.92],[53.374,72.879],[53.392,72.928],[53.144,72.961],[53.146,73.004],[53.382,73.008],[53.128,73.094],[53.155,73.154],[53.329,73.217],[53.561,73.23],[53.79,73.302],[54.227,73.274],[54.57,73.381],[54.937,73.422],[55.322,73.332],[55.763,73.324],[56.438,73.225],[56.573,73.133],[55.812,73.058],[56.438,73.044],[56.341,72.994],[55.622,72.963],[56.006,72.942],[56.256,72.968],[56.216,72.832],[56.143,72.785],[55.84,72.801],[55.739,72.773],[55.485,72.809],[55.437,72.782],[55.836,72.744],[55.944,72.665],[55.802,72.669],[55.723,72.64],[55.671,72.562],[55.609,72.536],[55.452,72.576],[55.267,72.582],[55.449,72.564],[55.549,72.52],[55.543,72.479],[55.133,72.451],[55.461,72.428],[55.479,72.27],[55.576,72.189],[55.383,72.102],[55.344,72.065],[55.403,72.028],[55.322,71.949],[55.221,71.926],[55.504,71.891],[55.537,71.76],[55.675,71.605],[56.033,71.344],[56.077,71.275],[56.228,71.194],[56.954,70.896],[57.466,70.806],[57.633,70.728],[57.551,70.724],[57.452,70.606],[57.387,70.603],[56.744,70.699],[56.866,70.639],[57.095,70.626],[57.314,70.561],[56.597,70.641],[56.506,70.672],[56.516,70.721],[56.575,70.736],[56.546,70.749],[56.22,70.66],[56.332,70.644],[56.375,70.653],[56.337,70.674],[56.454,70.67],[56.642,70.582],[56.54,70.541],[56.51,70.551],[56.554,70.572],[56.54,70.589],[56.376,70.588],[56.059,70.662],[56.047,70.642],[56.159,70.61],[56.123,70.595],[55.854,70.672],[56.014,70.587],[55.874,70.58],[55.734,70.614],[55.778,70.632],[55.751,70.698],[55.603,70.723],[55.665,70.682],[55.407,70.748],[55.249,70.675],[55.233,70.658],[55.292,70.606],[55.187,70.553],[54.781,70.668],[54.702,70.715],[54.688,70.758],[54.574,70.781],[54.5,70.784]]],[[[142.174,50.094],[142.151,50.332],[142.043,50.544],[142.095,50.814],[142.201,50.953],[142.264,51.13],[142.086,51.397],[142.095,51.444],[141.799,51.677],[141.819,51.785],[141.648,51.889],[141.643,52.087],[141.694,52.179],[141.64,52.315],[141.665,52.386],[141.768,52.455],[141.838,52.581],[141.859,52.851],[141.923,53.013],[141.833,53.155],[141.772,53.365],[142.218,53.517],[142.252,53.48],[142.249,53.384],[142.352,53.356],[142.472,53.386],[142.555,53.466],[142.681,53.517],[142.608,53.57],[142.509,53.549],[142.502,53.659],[142.642,53.678],[142.731,53.637],[142.799,53.704],[142.77,53.838],[142.674,53.717],[142.618,53.699],[142.721,53.928],[142.395,54.24],[142.404,54.266],[142.479,54.274],[142.574,54.231],[142.639,54.263],[142.628,54.326],[142.712,54.422],[143.008,54.131],[142.998,54.058],[142.879,53.896],[142.881,53.808],[143.104,53.554],[143.131,53.476],[143.093,53.385],[143.176,53.398],[143.226,53.321],[143.329,52.915],[143.306,52.478],[143.201,52.357],[143.196,52.418],[143.291,52.586],[143.256,52.593],[143.153,52.382],[143.18,52.312],[143.125,51.961],[143.17,51.861],[143.233,51.871],[143.313,51.731],[143.262,51.678],[143.219,51.526],[143.311,51.513],[143.332,51.617],[143.369,51.635],[143.45,51.499],[143.457,51.362],[143.381,51.346],[143.47,51.268],[143.502,51.301],[143.795,50.294],[143.994,50.031],[144.041,49.899],[142.131,49.895],[142.174,50.094]]],[[[-179.324,70.905],[-180.0,71.002],[-180.0,71.532],[-179.901,71.549],[-179.629,71.577],[-179.305,71.551],[-179.044,71.597],[-178.569,71.564],[-178.062,71.462],[-177.962,71.396],[-177.629,71.283],[-177.504,71.277],[-177.444,71.229],[-177.489,71.174],[-177.931,71.039],[-178.818,70.98],[-179.324,70.905]]],[[[179.997,70.997],[179.805,70.957],[179.678,70.896],[179.363,70.889],[178.788,70.802],[178.622,71.053],[178.864,71.213],[179.211,71.308],[179.53,71.438],[179.999,71.531],[179.997,70.997]]],[[[169.412,69.764],[169.282,69.763],[169.3,69.65],[169.211,69.578],[168.683,69.592],[168.141,69.703],[168.045,69.764],[167.77,69.827],[167.95,69.941],[168.271,70.02],[169.359,69.881],[169.435,69.855],[169.451,69.816],[169.412,69.764]]],[[[164.231,59.106],[164.531,59.234],[164.579,59.226],[164.703,59.026],[164.676,58.902],[164.645,58.881],[164.184,58.823],[163.579,58.58],[163.463,58.472],[163.435,58.477],[163.386,58.559],[163.539,58.622],[163.692,58.745],[163.75,58.893],[163.842,58.995],[163.773,59.022],[164.231,59.106]]],[[[155.888,50.692],[156.039,50.772],[156.109,50.755],[156.15,50.522],[155.892,50.263],[155.79,50.187],[155.596,50.178],[155.358,50.053],[155.214,50.074],[155.25,50.302],[155.435,50.366],[155.665,50.388],[155.763,50.461],[155.888,50.692]]],[[[138.191,55.044],[138.063,54.966],[137.92,54.768],[137.712,54.621],[137.646,54.646],[137.487,54.872],[137.225,54.773],[137.278,54.893],[137.451,55.015],[137.567,55.188],[137.635,55.197],[137.699,55.148],[138.191,55.044]]],[[[52.329,71.248],[52.234,71.282],[52.217,71.322],[52.431,71.374],[52.753,71.398],[52.925,71.357],[52.989,71.298],[52.743,71.371],[52.798,71.307],[53.109,71.231],[53.156,71.242],[53.081,71.25],[53.202,71.253],[53.216,71.158],[53.143,71.089],[53.048,71.067],[53.042,71.022],[53.135,70.978],[53.023,70.961],[52.961,71.049],[52.806,71.106],[52.769,71.162],[52.645,71.219],[52.329,71.248]]],[[[165.951,55.362],[166.247,55.329],[166.263,55.306],[166.222,55.247],[166.249,55.147],[166.454,54.954],[166.641,54.847],[166.664,54.677],[166.341,54.841],[166.076,55.064],[166.083,55.105],[165.989,55.215],[165.84,55.264],[165.834,55.304],[165.951,55.362]]],[[[154.834,49.344],[154.81,49.304],[154.71,49.264],[154.598,49.29],[154.603,49.372],[154.703,49.481],[154.747,49.582],[154.815,49.636],[154.898,49.621],[154.878,49.543],[154.79,49.443],[154.834,49.344]]],[[[156.45,50.869],[156.493,50.838],[156.488,50.754],[156.401,50.627],[156.188,50.676],[156.164,50.709],[156.189,50.768],[156.341,50.851],[156.45,50.869]]],[[[136.884,54.958],[136.775,54.926],[136.751,54.889],[136.675,54.902],[136.688,54.942],[137.039,55.104],[137.172,55.109],[137.05,54.921],[136.95,54.921],[136.884,54.958]]]]}}]}