{"type":"FeatureCollection","features":[{"type":"Feature","properties":{"lite":true,"src":"data/years/1920-11-17.geojson"},"geometry":{"type":"MultiPolygon","coordinates":[[[[36.625,45.128],[36.589,45.193],[36.729,45.203],[36.962,45.279],[36.967,45.308],[36.77,45.384],[36.689,45.355],[36.829,45.435],[37.09,45.342],[37.068,45.251],[37.11,45.234],[37.314,45.275],[37.213,45.298],[37.211,45.324],[37.398,45.316],[37.521,45.362],[37.735,45.299],[37.702,45.558],[37.643,45.587],[37.625,45.568],[37.646,45.451],[37.585,45.43],[37.591,45.626],[37.63,45.656],[37.705,45.62],[37.666,45.66],[37.835,45.761],[37.928,46.011],[38.095,46.052],[38.071,45.954],[38.096,45.945],[38.161,46.103],[38.22,46.135],[38.454,46.026],[38.548,46.027],[38.571,46.091],[38.297,46.218],[38.268,46.272],[38.087,46.39],[37.983,46.393],[37.993,46.346],[37.898,46.407],[37.824,46.48],[37.745,46.66],[37.846,46.623],[38.025,46.621],[38.266,46.723],[38.388,46.653],[38.585,46.657],[38.582,46.696],[38.483,46.739],[38.418,46.743],[38.384,46.711],[38.367,46.746],[38.411,46.827],[38.467,46.859],[38.777,46.882],[39.074,47.027],[39.28,47.017],[39.3,47.077],[39.252,47.263],[39.067,47.278],[38.957,47.254],[38.81,47.162],[38.56,47.112],[38.486,47.128],[38.563,47.216],[38.769,47.253],[38.605,47.24],[38.523,47.207],[38.452,47.135],[38.236,47.109],[38.135,47.063],[38.071,47.095],[37.56,47.086],[37.322,46.901],[37.197,46.926],[36.765,46.752],[36.613,46.775],[36.396,46.717],[36.24,46.635],[36.193,46.667],[35.907,46.651],[35.761,46.593],[35.628,46.489],[35.484,46.442],[35.16,46.129],[35.001,46.097],[35.204,46.184],[35.334,46.322],[35.348,46.35],[35.198,46.443],[35.204,46.386],[35.057,46.26],[34.813,46.181],[34.702,46.176],[34.565,45.987],[34.408,46.016],[34.442,46.093],[34.56,46.098],[34.574,46.153],[34.537,46.184],[34.456,46.155],[34.33,46.17],[34.156,46.281],[34.122,46.119],[34.032,46.134],[33.957,46.214],[33.773,46.248],[33.682,46.222],[33.706,46.165],[33.79,46.121],[33.807,46.168],[33.845,46.16],[33.9,46.039],[33.99,46.027],[33.963,46.087],[34.007,46.096],[34.114,46.018],[34.139,45.94],[34.201,45.956],[34.206,46.031],[34.36,46.015],[34.413,45.949],[34.358,45.884],[34.497,45.875],[34.572,45.928],[34.558,45.96],[34.628,45.94],[34.463,45.769],[34.649,45.785],[34.986,45.632],[35.07,45.551],[35.092,45.468],[35.014,45.423],[35.133,45.325],[35.339,45.286],[35.343,45.332],[35.054,45.61],[34.674,46.089],[34.734,46.108],[34.823,46.072],[34.902,45.883],[35.054,45.654],[35.319,45.377],[35.458,45.298],[35.697,45.328],[35.863,45.404],[36.015,45.36],[36.138,45.458],[36.486,45.441],[36.604,45.419],[36.636,45.377],[36.618,45.334],[36.494,45.339],[36.431,45.271],[36.405,45.156],[36.446,45.075],[36.228,45.006],[35.858,44.986],[35.728,45.081],[35.527,45.118],[35.149,44.892],[35.083,44.793],[34.964,44.839],[34.724,44.809],[34.441,44.705],[34.336,44.549],[34.13,44.435],[33.956,44.381],[33.712,44.394],[33.579,44.492],[33.46,44.513],[33.377,44.58],[33.554,44.624],[33.52,44.781],[33.621,44.917],[33.546,45.108],[33.396,45.185],[33.276,45.156],[33.176,45.19],[32.935,45.343],[32.727,45.355],[32.657,45.313],[32.571,45.32],[32.51,45.34],[32.482,45.394],[32.53,45.458],[32.931,45.658],[33.769,45.925],[33.627,45.998],[33.594,46.156],[33.43,46.047],[33.316,46.124],[33.189,46.16],[33.124,46.131],[32.774,46.13],[32.5,46.076],[32.267,46.126],[32.243,46.173],[32.027,46.256],[31.79,46.285],[31.766,46.31],[31.815,46.339],[31.943,46.343],[32.057,46.392],[32.007,46.448],[31.772,46.494],[31.658,46.472],[31.568,46.546],[31.764,46.553],[32.348,46.459],[32.449,46.552],[32.642,46.642],[32.329,46.557],[32.243,46.601],[32.141,46.561],[32.014,46.634],[31.937,46.763],[32.008,46.905],[31.981,47.007],[31.752,47.252],[31.727,47.232],[31.817,47.178],[31.869,47.082],[31.839,47.013],[31.908,46.924],[31.962,46.921],[31.941,46.855],[31.864,46.795],[31.907,46.734],[31.906,46.653],[31.812,46.616],[31.647,46.653],[31.576,46.608],[31.478,46.632],[31.596,46.797],[31.418,46.625],[31.337,46.602],[31.053,46.612],[30.833,46.548],[30.78,46.481],[30.764,46.378],[30.509,46.097],[30.246,45.874],[30.065,45.801],[29.984,45.843],[29.93,45.818],[29.802,45.735],[29.854,45.673],[29.745,45.625],[29.68,45.697],[29.681,45.804],[29.636,45.821],[29.593,45.557],[29.619,45.488],[29.753,45.447],[29.729,45.226],[29.666,45.211],[29.669,45.295],[29.603,45.377],[29.411,45.436],[29.222,45.426],[28.849,45.302],[28.797,45.238],[28.702,45.22],[28.344,45.316],[28.231,45.478],[28.276,45.501],[28.513,45.492],[28.521,45.553],[28.557,45.58],[28.507,45.665],[28.575,45.701],[28.588,45.742],[28.679,45.76],[28.693,45.799],[28.753,45.824],[28.755,45.936],[28.975,45.992],[28.96,46.086],[29.035,46.184],[28.953,46.269],[28.961,46.439],[29.17,46.515],[29.164,46.365],[29.196,46.338],[29.297,46.383],[29.313,46.442],[29.377,46.396],[29.456,46.459],[29.468,46.41],[29.597,46.343],[29.729,46.428],[29.828,46.319],[29.92,46.354],[30.087,46.355],[30.151,46.425],[29.933,46.536],[29.97,46.577],[29.971,46.745],[29.942,46.824],[29.583,46.954],[29.623,47.047],[29.595,47.101],[29.544,47.113],[29.562,47.219],[29.6,47.257],[29.571,47.338],[29.475,47.357],[29.413,47.303],[29.243,47.463],[29.171,47.463],[29.14,47.533],[29.257,47.749],[29.202,47.801],[29.256,47.872],[29.187,47.906],[29.135,47.993],[28.957,47.954],[28.851,48.035],[28.809,48.129],[28.577,48.175],[28.506,48.164],[28.473,48.1],[28.442,48.177],[28.383,48.19],[28.367,48.256],[28.22,48.229],[28.184,48.278],[28.11,48.259],[28.087,48.332],[27.937,48.358],[27.793,48.46],[27.632,48.471],[27.607,48.504],[27.514,48.493],[27.475,48.588],[27.414,48.64],[27.23,48.638],[27.22,48.589],[26.942,48.601],[26.864,48.563],[26.825,48.626],[26.774,48.616],[26.763,48.58],[26.713,48.614],[26.7,48.562],[26.598,48.564],[26.588,48.478],[26.476,48.557],[26.386,48.547],[26.331,48.656],[26.257,48.691],[26.255,48.778],[26.284,48.809],[26.235,48.849],[26.221,48.921],[26.221,49.035],[26.252,49.079],[26.219,49.181],[26.278,49.287],[26.203,49.507],[26.274,49.66],[26.237,49.695],[26.253,49.784],[26.207,49.827],[26.176,49.958],[26.252,49.99],[26.249,50.072],[26.293,50.106],[26.276,50.146],[26.391,50.225],[26.479,50.232],[26.574,50.288],[26.753,50.445],[26.809,50.446],[26.82,50.483],[26.983,50.5],[27.1,50.566],[27.191,50.521],[27.242,50.554],[27.254,50.592],[27.217,50.62],[27.292,50.737],[27.245,50.807],[27.256,50.936],[27.227,50.99],[27.314,51.033],[27.465,51.216],[27.45,51.289],[27.527,51.333],[27.519,51.412],[27.611,51.375],[27.602,51.455],[27.679,51.475],[27.725,51.566],[27.699,51.608],[27.532,51.643],[27.579,51.79],[27.532,51.849],[27.544,51.931],[27.62,52.013],[27.547,52.077],[27.556,52.236],[27.167,52.421],[27.164,52.481],[27.073,52.536],[27.067,52.586],[27.201,52.599],[27.193,52.671],[27.071,52.695],[26.997,52.777],[26.948,52.759],[26.806,52.792],[26.741,52.853],[26.67,52.852],[26.592,52.904],[26.445,52.866],[26.461,52.896],[26.401,52.983],[26.438,53.027],[26.527,53.035],[26.534,53.072],[26.472,53.131],[26.376,53.14],[26.311,53.199],[26.413,53.246],[26.397,53.348],[26.587,53.409],[26.489,53.634],[26.281,53.738],[26.329,53.805],[26.246,53.841],[26.623,54.07],[26.656,54.152],[26.612,54.292],[26.633,54.47],[26.851,54.639],[26.835,54.72],[26.913,54.822],[26.982,54.86],[27.035,55.117],[27.247,55.273],[27.251,55.418],[27.38,55.496],[27.401,55.587],[27.542,55.652],[27.646,55.757],[27.656,55.782],[27.599,55.793],[27.647,55.919],[27.922,56.105],[28.197,56.181],[28.236,56.276],[28.073,56.569],[28.15,56.691],[28.103,56.938],[28.02,56.994],[28.083,57.198],[27.842,57.376],[27.783,57.459],[28.088,57.638],[28.119,57.737],[27.995,57.786],[27.811,57.988],[27.552,58.135],[27.476,58.213],[27.467,58.297],[27.54,58.365],[27.542,58.414],[27.423,58.787],[27.458,58.853],[27.597,58.931],[27.811,58.896],[28.129,58.934],[28.499,59.171],[28.53,59.261],[28.468,59.339],[28.294,59.459],[28.211,59.564],[28.065,59.601],[28.004,59.671],[28.009,59.758],[28.073,59.794],[28.17,59.767],[28.244,59.678],[28.367,59.661],[28.419,59.704],[28.437,59.822],[28.494,59.854],[28.727,59.782],[28.832,59.783],[28.981,59.83],[29.027,59.867],[29.064,59.969],[29.195,60.007],[30.185,59.872],[30.218,59.897],[30.234,59.983],[29.972,60.018],[29.898,60.089],[30.013,60.183],[29.89,60.309],[29.945,60.361],[30.107,60.361],[30.18,60.445],[30.16,60.57],[30.19,60.631],[30.495,60.55],[30.778,60.602],[30.884,60.707],[31.47,60.896],[31.722,61.127],[32.172,61.294],[32.298,61.389],[32.319,61.441],[32.194,61.808],[32.246,62.133],[32.374,62.195],[32.456,62.164],[32.634,61.997],[32.718,62.028],[32.833,62.165],[32.728,62.259],[32.578,62.303],[32.822,62.5],[32.791,62.605],[32.613,62.752],[32.404,62.804],[32.319,62.982],[31.952,63.098],[31.586,63.129],[31.439,63.192],[31.242,63.205],[30.912,63.354],[30.478,63.481],[30.012,63.737],[30.263,63.823],[30.595,64.047],[30.613,64.094],[30.564,64.241],[30.064,64.405],[30.088,64.481],[30.011,64.512],[29.979,64.576],[30.207,64.663],[30.121,64.784],[29.808,64.794],[29.653,64.905],[29.609,65.006],[29.624,65.053],[29.869,65.12],[29.87,65.202],[29.612,65.247],[29.749,65.346],[29.739,65.48],[29.834,65.588],[29.823,65.653],[30.03,65.69],[30.12,65.668],[30.137,65.71],[30.649,65.881],[30.404,66.175],[30.491,66.323],[30.447,66.396],[30.301,66.455],[30.286,66.513],[30.344,66.587],[30.476,66.646],[30.682,66.866],[30.608,67.086],[30.52,67.218],[30.183,67.512],[30.029,67.695],[29.691,67.816],[29.361,68.085],[29.786,68.429],[30.3,68.679],[31.761,69.559],[31.558,69.689],[31.799,69.689],[31.693,69.733],[31.716,69.825],[31.817,69.851],[32.042,69.769],[32.097,69.793],[31.919,69.921],[31.939,69.964],[32.468,69.848],[32.58,69.782],[32.917,69.777],[33.129,69.724],[33.106,69.646],[32.895,69.583],[32.11,69.676],[32.026,69.637],[32.1,69.594],[32.428,69.57],[32.481,69.508],[32.202,69.429],[32.668,69.5],[33.018,69.471],[32.806,69.303],[32.901,69.31],[32.974,69.388],[33.326,69.449],[33.511,69.422],[33.47,69.35],[33.242,69.269],[33.473,69.275],[33.535,69.207],[33.517,69.182],[33.043,69.07],[33.011,68.967],[33.032,68.963],[33.078,69.06],[33.441,69.103],[33.568,69.184],[33.561,69.279],[33.642,69.325],[34.362,69.317],[34.647,69.251],[35.107,69.22],[35.185,69.181],[35.261,69.218],[35.179,69.273],[35.836,69.199],[36.601,69.013],[37.495,68.735],[37.773,68.676],[38.327,68.439],[38.433,68.339],[38.609,68.327],[38.526,68.365],[38.63,68.382],[38.931,68.304],[39.109,68.211],[39.528,68.069],[39.853,68.044],[39.721,68.156],[39.779,68.163],[39.919,68.112],[39.986,68.029],[40.145,67.951],[40.363,67.9],[40.402,67.865],[40.33,67.847],[40.484,67.749],[40.696,67.77],[40.804,67.725],[40.994,67.714],[41.056,67.633],[41.036,67.468],[41.149,67.415],[41.111,67.251],[41.224,67.213],[41.32,67.227],[41.39,67.121],[41.219,66.837],[40.737,66.587],[40.72,66.543],[40.566,66.454],[40.173,66.339],[40.066,66.276],[39.277,66.119],[38.608,66.052],[37.91,66.088],[37.016,66.269],[35.509,66.388],[34.846,66.605],[34.479,66.533],[34.361,66.613],[34.434,66.644],[33.857,66.692],[33.777,66.761],[33.599,66.823],[33.518,66.813],[33.628,66.746],[33.535,66.72],[33.251,66.794],[32.836,66.98],[32.794,67.086],[32.668,67.119],[32.365,67.162],[32.066,67.133],[31.859,67.153],[31.924,67.122],[32.26,67.122],[32.539,67.007],[32.558,66.984],[32.518,66.882],[32.911,66.77],[32.931,66.736],[32.801,66.727],[33.292,66.649],[33.122,66.647],[33.068,66.595],[32.871,66.581],[33.084,66.581],[33.241,66.616],[33.427,66.589],[33.506,66.536],[33.199,66.564],[32.958,66.53],[33.076,66.505],[33.247,66.53],[33.445,66.467],[33.609,66.489],[33.712,66.426],[33.322,66.32],[33.554,66.322],[34.11,66.249],[34.567,66.078],[34.85,65.899],[34.965,65.721],[34.888,65.706],[34.689,65.802],[34.69,65.717],[34.777,65.6],[34.675,65.451],[34.495,65.45],[34.381,65.383],[34.474,65.278],[34.635,65.24],[34.685,65.183],[34.682,65.108],[34.793,65.017],[34.775,64.969],[34.936,64.838],[34.956,64.653],[34.788,64.548],[34.945,64.515],[34.961,64.458],[35.325,64.327],[35.539,64.356],[35.598,64.403],[35.804,64.343],[35.984,64.196],[36.11,64.231],[36.275,64.145],[36.282,64.01],[36.833,63.911],[37.172,63.889],[37.268,63.824],[37.389,63.803],[37.538,63.822],[37.655,63.923],[37.872,63.915],[38.062,64.004],[38.085,64.057],[38.047,64.148],[37.911,64.23],[37.979,64.317],[37.814,64.387],[37.801,64.42],[37.689,64.423],[37.359,64.352],[37.145,64.409],[36.729,64.716],[36.562,64.745],[36.44,64.938],[36.653,64.923],[36.833,64.992],[36.867,65.076],[36.834,65.157],[37.042,65.207],[37.69,65.056],[37.731,65.036],[37.744,64.969],[38.004,64.871],[38.404,64.854],[38.364,64.807],[38.039,64.76],[38.041,64.643],[38.159,64.671],[38.19,64.718],[38.491,64.761],[38.539,64.798],[38.932,64.744],[39.546,64.563],[39.737,64.553],[39.916,64.61],[39.794,64.595],[39.818,64.662],[39.862,64.666],[40.217,64.552],[40.524,64.541],[40.516,64.594],[40.414,64.723],[40.451,64.789],[40.376,64.923],[40.279,65.012],[40.101,65.082],[39.719,65.378],[39.704,65.463],[39.751,65.55],[39.916,65.633],[40.413,65.776],[40.704,65.968],[41.425,66.09],[41.805,66.266],[42.176,66.524],[42.586,66.464],[42.653,66.443],[42.67,66.396],[43.294,66.424],[43.646,66.283],[43.694,66.232],[43.294,66.091],[43.355,66.039],[43.516,65.976],[43.517,66.037],[43.396,66.079],[43.692,66.177],[43.858,66.177],[44.046,66.079],[44.041,65.991],[44.174,65.875],[44.15,66.048],[44.077,66.201],[44.124,66.315],[44.201,66.396],[44.333,66.39],[44.572,66.289],[44.855,66.217],[45.737,66.048],[45.832,66.068],[46.344,66.008],[47.108,65.801],[47.407,65.816],[47.663,65.788],[47.776,65.831],[47.768,65.926],[48.144,66.108],[49.011,66.1],[51.515,66.764],[51.569,66.796],[51.51,66.834],[51.534,66.909],[51.815,66.935],[51.855,66.983],[52.025,67.008],[52.159,67.066],[53.773,66.979],[59.85,66.981],[59.919,66.934],[60.085,66.97],[61.663,66.996],[61.859,67.108],[62.83,67.37],[62.89,67.569],[63.114,67.656],[63.425,67.748],[63.694,67.743],[63.722,67.793],[63.88,67.818],[63.967,67.897],[63.931,67.974],[63.868,68.019],[64.33,68.115],[64.423,68.181],[64.539,68.182],[64.554,68.223],[64.517,68.312],[64.562,68.34],[64.762,68.386],[65.006,68.369],[65.406,68.409],[65.255,68.238],[65.309,68.089],[65.274,68.0],[65.434,67.9],[65.782,67.904],[65.911,67.94],[66.069,67.915],[66.002,67.788],[66.179,67.7],[66.104,67.667],[65.992,67.698],[65.846,67.674],[65.776,67.568],[65.822,67.536],[66.028,67.555],[66.072,67.481],[65.934,67.413],[65.695,67.407],[65.653,67.329],[65.181,67.163],[65.189,67.085],[65.059,67.047],[65.089,66.911],[64.571,66.817],[64.518,66.746],[64.407,66.743],[64.292,66.683],[63.976,66.671],[63.801,66.566],[63.538,66.491],[63.406,66.498],[63.223,66.337],[63.268,66.258],[63.099,66.269],[62.999,66.21],[62.948,66.13],[62.847,66.088],[62.801,66.014],[62.839,65.976],[62.783,65.933],[62.817,65.888],[62.52,65.859],[62.002,65.729],[62.01,65.699],[62.264,65.606],[62.312,65.525],[62.379,65.502],[62.36,65.431],[62.471,65.332],[62.793,65.28],[62.782,65.057],[62.658,64.891],[62.676,64.855],[62.789,64.824],[62.783,64.741],[62.581,64.657],[62.514,64.569],[62.524,64.539],[62.684,64.474],[62.898,64.457],[63.233,64.504],[63.448,64.441],[63.475,64.383],[63.404,64.348],[63.398,64.315],[63.611,64.248],[63.892,64.265],[64.018,64.337],[64.479,64.34],[64.607,64.417],[64.762,64.407],[64.997,64.446],[65.18,64.426],[65.404,64.551],[65.884,64.549],[66.02,64.575],[66.466,64.492],[66.68,64.537],[66.913,64.478],[66.873,64.393],[66.778,64.334],[66.778,64.252],[66.81,64.208],[67.141,64.147],[67.155,64.108],[67.242,64.1],[67.276,64.061],[67.678,64.059],[67.798,64.012],[67.934,64.097],[68.185,64.157],[68.429,64.276],[68.889,64.204],[68.905,64.256],[69.01,64.328],[68.908,64.423],[69.018,64.452],[69.226,64.45],[69.388,64.369],[69.727,64.375],[69.82,64.322],[69.998,64.296],[70.3,64.324],[70.467,64.232],[70.668,64.217],[70.754,64.178],[70.758,64.127],[70.56,64.033],[70.539,63.995],[70.632,63.881],[70.806,63.802],[70.903,63.676],[71.383,63.655],[71.534,63.577],[71.604,63.166],[71.806,63.199],[71.992,63.182],[72.163,63.279],[72.659,63.261],[72.914,63.374],[73.1,63.415],[73.271,63.299],[73.362,63.188],[74.237,63.152],[74.505,63.023],[74.916,63.012],[75.365,63.088],[75.859,63.091],[76.231,63.0],[76.296,62.93],[76.686,63.019],[76.821,62.972],[77.017,62.956],[77.148,62.774],[77.32,62.692],[77.881,62.539],[78.014,62.441],[78.382,62.548],[78.794,62.595],[79.825,62.584],[79.92,62.691],[79.93,62.776],[80.56,62.982],[80.603,63.067],[81.098,63.096],[81.159,62.959],[81.304,62.872],[81.329,62.809],[81.591,62.754],[81.627,62.716],[81.78,62.669],[82.163,62.789],[82.315,62.75],[82.732,62.736],[82.721,62.677],[82.748,62.653],[83.0,62.577],[83.026,62.511],[83.28,62.441],[83.791,62.541],[83.932,62.467],[84.011,62.379],[84.23,62.356],[84.274,62.263],[84.386,62.22],[84.471,62.094],[84.504,61.915],[84.677,61.787],[85.09,61.733],[85.274,61.654],[85.399,61.667],[85.485,61.599],[85.709,61.553],[85.841,61.573],[85.943,61.53],[85.953,61.443],[86.126,61.359],[86.216,61.36],[86.328,61.437],[86.498,61.392],[86.512,61.338],[86.6,61.296],[86.777,61.302],[86.984,61.347],[86.999,61.445],[87.214,61.374],[87.241,61.339],[87.456,61.325],[87.462,61.256],[87.564,61.194],[87.7,61.254],[87.716,61.321],[87.781,61.345],[87.961,61.3],[88.179,61.325],[88.95,60.731],[89.869,60.792],[90.945,60.731],[91.966,60.736],[92.147,60.817],[92.15,60.88],[92.248,60.963],[92.41,60.953],[92.484,60.985],[92.42,61.106],[92.472,61.18],[92.554,61.177],[92.753,61.073],[92.911,61.055],[92.954,61.131],[92.888,61.204],[92.679,61.299],[92.83,61.344],[92.93,61.317],[93.013,61.347],[93.127,61.312],[93.146,61.234],[93.339,61.085],[93.472,61.067],[93.566,61.089],[93.73,61.023],[93.916,61.042],[94.027,60.945],[94.259,61.107],[94.385,61.103],[94.545,61.159],[94.716,61.142],[94.917,61.088],[95.098,61.08],[95.347,60.912],[95.378,60.818],[95.315,60.733],[95.448,60.702],[95.223,60.573],[95.212,60.496],[95.266,60.462],[95.257,60.437],[95.111,60.431],[95.016,60.383],[94.914,60.24],[94.992,60.189],[94.965,60.104],[95.058,60.051],[94.993,60.014],[95.007,59.958],[95.143,59.805],[95.121,59.757],[95.142,59.712],[95.237,59.623],[95.495,59.622],[95.588,59.561],[95.726,59.539],[95.79,59.593],[95.882,59.612],[95.948,59.613],[96.052,59.541],[96.238,59.609],[96.309,59.542],[96.278,59.496],[96.351,59.456],[96.456,59.459],[96.559,59.524],[96.785,59.534],[97.123,59.485],[97.236,59.526],[97.23,59.607],[97.367,59.647],[97.461,59.715],[97.696,59.664],[98.054,59.708],[98.129,59.752],[98.338,59.708],[98.448,59.768],[98.607,59.747],[98.876,59.81],[98.929,59.753],[99.006,59.757],[99.113,59.831],[99.127,59.895],[99.416,60.016],[99.437,60.067],[99.646,60.101],[100.056,59.982],[100.067,59.881],[100.313,59.826],[100.423,59.842],[100.551,59.773],[100.626,59.788],[100.751,59.75],[100.864,59.768],[101.022,59.699],[101.447,59.668],[101.487,59.71],[101.724,59.725],[101.779,59.67],[102.107,59.574],[102.435,59.631],[102.444,59.513],[102.588,59.442],[102.469,59.398],[102.496,59.265],[102.421,59.214],[102.476,59.168],[102.62,59.191],[102.822,59.172],[102.909,59.257],[103.036,59.291],[103.056,59.263],[103.194,59.236],[103.223,59.16],[103.299,59.12],[103.381,59.014],[103.545,58.979],[103.617,58.905],[103.92,58.891],[103.946,58.854],[103.932,58.786],[103.87,58.761],[103.883,58.719],[103.974,58.708],[104.049,58.767],[104.183,58.747],[104.251,58.696],[104.351,58.708],[104.332,58.659],[104.467,58.589],[104.822,58.659],[104.914,58.746],[104.791,58.821],[104.842,58.881],[105.105,58.998],[105.142,59.04],[105.282,59.049],[105.387,59.112],[105.319,59.259],[105.211,59.309],[105.251,59.456],[105.15,59.505],[104.987,59.486],[104.877,59.566],[104.901,59.612],[104.826,59.64],[104.815,59.691],[104.892,59.745],[105.033,59.76],[105.039,59.826],[105.082,59.852],[105.371,59.819],[105.428,59.837],[105.465,59.811],[105.535,59.843],[105.453,59.91],[105.464,59.961],[105.525,59.998],[105.453,60.122],[105.522,60.242],[105.346,60.319],[105.229,60.296],[104.907,60.32],[104.796,60.395],[104.698,60.416],[104.662,60.53],[104.588,60.566],[104.549,60.631],[104.628,60.732],[104.509,60.836],[104.65,60.894],[104.603,60.949],[104.662,61.032],[104.647,61.064],[104.862,61.171],[105.06,61.165],[105.047,61.231],[104.964,61.331],[104.892,61.348],[104.925,61.376],[105.287,61.405],[105.342,61.5],[105.593,61.572],[105.64,61.623],[105.726,61.64],[105.816,61.61],[105.901,61.666],[105.992,61.674],[105.923,61.835],[106.283,62.005],[106.407,62.027],[106.432,62.097],[106.413,62.134],[106.485,62.259],[106.423,62.286],[106.503,62.336],[106.473,62.381],[106.553,62.377],[106.641,62.446],[106.771,62.485],[106.717,62.562],[106.814,62.596],[106.81,62.638],[106.518,62.709],[106.526,62.806],[106.466,62.826],[106.443,62.882],[106.22,62.938],[106.152,63.064],[106.411,63.112],[106.412,63.173],[106.459,63.218],[106.39,63.259],[106.389,63.289],[106.436,63.338],[106.624,63.297],[106.755,63.389],[106.737,63.427],[106.54,63.534],[106.608,63.544],[106.613,63.594],[106.705,63.649],[106.637,63.722],[106.812,63.876],[106.653,64.001],[106.681,64.018],[107.043,63.907],[107.194,63.959],[107.3,63.958],[107.337,63.927],[107.33,63.892],[107.416,63.874],[107.455,63.901],[107.59,63.883],[107.644,63.921],[107.643,63.963],[107.761,64.0],[108.316,63.991],[108.409,64.047],[108.309,64.226],[108.251,64.27],[108.082,64.266],[108.036,64.206],[107.985,64.203],[107.644,64.33],[107.354,64.285],[107.284,64.315],[107.264,64.364],[107.118,64.374],[106.92,64.458],[106.746,64.445],[106.665,64.545],[106.581,64.563],[106.533,64.531],[106.543,64.48],[106.145,64.437],[106.149,64.498],[106.032,64.559],[105.903,64.514],[105.815,64.518],[105.741,64.602],[105.768,64.653],[105.886,64.665],[105.842,64.771],[105.887,64.821],[106.004,64.818],[105.963,64.891],[106.015,64.895],[106.057,64.85],[106.225,64.863],[106.125,64.924],[106.082,64.997],[105.996,65.03],[106.115,65.051],[106.201,65.114],[106.317,65.125],[106.414,65.206],[106.534,65.201],[106.538,65.235],[106.451,65.263],[106.463,65.302],[106.623,65.373],[106.825,65.359],[106.988,65.506],[106.728,65.558],[106.712,65.621],[106.458,65.685],[106.479,65.732],[106.46,65.769],[106.51,65.794],[106.488,65.915],[106.535,66.011],[106.346,66.171],[106.203,66.17],[106.138,66.204],[106.14,66.364],[106.352,66.471],[106.329,66.541],[106.261,66.579],[106.24,66.648],[106.273,66.695],[106.172,66.737],[106.226,66.812],[106.055,66.811],[106.12,66.866],[106.088,66.913],[105.873,66.93],[105.857,66.964],[105.701,66.946],[105.595,66.987],[105.952,67.021],[106.078,67.101],[106.088,67.149],[106.345,67.182],[106.54,67.268],[106.715,67.238],[106.841,67.328],[106.941,68.252],[106.926,68.864],[106.184,69.411],[106.351,69.459],[106.373,69.501],[106.482,69.56],[106.589,69.549],[106.627,69.508],[106.854,69.503],[107.609,69.641],[107.957,69.65],[108.034,69.685],[108.076,69.771],[108.251,69.834],[108.894,69.823],[108.941,69.751],[109.301,69.755],[109.403,69.814],[109.423,69.95],[109.54,69.976],[109.566,70.026],[109.383,70.089],[109.381,70.14],[109.328,70.161],[109.327,70.192],[109.584,70.234],[109.634,70.275],[109.616,70.342],[109.644,70.353],[110.323,70.391],[110.32,70.451],[110.138,70.487],[110.134,70.52],[110.174,70.545],[110.142,70.586],[110.209,70.64],[110.456,70.686],[110.52,70.708],[110.532,70.748],[110.623,70.767],[110.846,70.763],[111.054,70.825],[111.378,70.843],[111.484,70.909],[111.939,70.955],[112.042,71.035],[112.102,71.04],[112.248,70.98],[112.362,71.052],[112.61,71.09],[112.613,71.124],[112.556,71.16],[112.676,71.178],[112.737,71.232],[112.736,71.269],[112.607,71.314],[112.48,71.297],[112.226,71.397],[112.021,71.418],[112.015,72.138],[111.733,72.181],[111.658,72.31],[111.581,72.344],[111.334,72.337],[111.079,72.384],[111.089,72.428],[111.293,72.467],[111.328,72.515],[111.182,72.578],[110.938,72.592],[110.918,72.65],[110.743,72.693],[110.707,72.776],[110.765,72.816],[110.689,72.879],[110.928,72.936],[110.895,72.97],[110.748,72.985],[110.877,73.043],[110.822,73.088],[110.866,73.173],[110.438,73.174],[110.625,73.233],[110.645,73.275],[110.549,73.352],[110.367,73.383],[110.564,73.387],[110.896,73.545],[111.013,73.538],[111.308,73.602],[111.304,73.636],[111.214,73.649],[111.193,73.682],[110.895,73.733],[111.06,73.804],[111.213,73.797],[111.341,73.838],[112.021,73.717],[112.733,73.729],[112.952,73.797],[112.87,73.926],[112.893,73.963],[113.143,73.86],[113.423,73.641],[113.409,73.58],[113.292,73.567],[113.135,73.448],[113.264,73.372],[113.496,73.333],[113.519,73.114],[113.459,73.02],[113.473,72.963],[113.09,72.835],[113.185,72.72],[113.534,72.635],[114.092,72.595],[113.375,72.681],[113.224,72.739],[113.158,72.817],[113.177,72.856],[113.369,72.886],[113.535,72.967],[113.561,73.077],[113.546,73.24],[113.696,73.312],[114.028,73.344],[113.77,73.354],[113.528,73.439],[113.471,73.501],[114.099,73.587],[114.859,73.605],[115.243,73.693],[115.457,73.703],[116.575,73.663],[117.242,73.59],[118.467,73.579],[118.832,73.545],[118.968,73.485],[118.688,73.442],[118.471,73.48],[118.347,73.41],[118.352,73.283],[118.471,73.202],[119.004,73.104],[119.531,73.059],[119.586,72.996],[119.867,72.93],[120.561,72.882],[119.878,72.946],[119.757,72.998],[119.813,73.017],[120.581,72.981],[121.014,72.93],[121.389,72.967],[121.866,72.968],[121.961,72.952],[121.925,72.929],[122.053,72.892],[122.42,72.867],[123.344,72.728],[123.788,72.756],[124.109,72.711],[124.343,72.641],[124.738,72.624],[125.137,72.532],[125.256,72.452],[125.456,72.423],[125.647,72.342],[125.882,72.332],[126.095,72.271],[126.246,72.29],[126.367,72.351],[126.552,72.252],[126.626,72.178],[126.751,72.14],[126.803,72.017],[127.127,71.85],[127.089,71.767],[127.204,71.595],[127.215,71.395],[127.276,71.389],[127.306,71.411],[127.311,71.491],[127.189,71.748],[127.242,71.837],[127.326,71.895],[126.975,72.054],[126.892,72.293],[126.736,72.384],[127.03,72.402],[127.635,72.351],[127.938,72.206],[128.257,72.111],[128.384,72.039],[128.495,71.914],[128.612,71.89],[128.646,71.798],[128.712,71.771],[128.96,71.74],[129.182,71.803],[129.17,71.85],[129.08,71.921],[129.056,71.974],[129.077,71.999],[129.294,71.867],[129.315,71.799],[129.484,71.728],[129.275,71.749],[128.929,71.708],[128.814,71.656],[128.844,71.604],[129.184,71.59],[129.384,71.344],[129.653,71.258],[129.756,71.146],[129.744,71.121],[130.078,71.082],[130.157,71.046],[130.222,70.984],[130.169,70.966],[130.224,70.947],[130.626,70.867],[130.694,70.883],[130.721,70.952],[130.784,70.97],[130.892,70.838],[130.898,70.755],[131.024,70.734],[131.208,70.74],[131.536,70.878],[131.843,71.201],[132.176,71.218],[131.946,71.254],[131.946,71.288],[132.255,71.671],[132.537,71.889],[132.718,71.941],[132.753,71.931],[132.756,71.832],[132.707,71.793],[132.716,71.768],[132.926,71.724],[133.158,71.573],[133.679,71.433],[134.007,71.383],[134.452,71.367],[134.696,71.415],[134.809,71.477],[135.02,71.528],[135.227,71.548],[135.358,71.524],[135.419,71.532],[135.369,71.569],[135.591,71.615],[135.965,71.632],[136.496,71.568],[136.565,71.501],[136.778,71.518],[136.886,71.461],[137.452,71.341],[137.476,71.331],[137.422,71.279],[137.538,71.239],[137.642,71.255],[137.804,71.116],[137.906,71.142],[137.985,71.107],[138.068,71.136],[138.011,71.183],[137.759,71.221],[137.783,71.245],[138.062,71.221],[138.216,71.259],[138.025,71.294],[138.233,71.324],[137.993,71.335],[137.826,71.387],[138.008,71.469],[138.034,71.557],[138.066,71.574],[138.489,71.611],[138.398,71.571],[138.457,71.534],[138.591,71.551],[138.562,71.603],[138.734,71.642],[139.043,71.567],[139.114,71.428],[139.203,71.412],[139.354,71.421],[139.448,71.496],[139.742,71.464],[139.932,71.485],[139.926,71.549],[139.732,71.67],[139.691,71.786],[139.739,71.836],[139.644,71.912],[139.417,71.944],[139.646,71.955],[139.714,72.003],[139.715,72.076],[139.859,72.164],[140.063,72.134],[140.199,72.169],[140.194,72.206],[140.012,72.237],[139.561,72.233],[139.325,72.128],[139.185,72.163],[139.091,72.234],[139.166,72.324],[139.542,72.494],[140.093,72.473],[140.602,72.494],[141.024,72.586],[141.001,72.701],[140.666,72.803],[140.578,72.871],[140.623,72.892],[141.35,72.851],[141.563,72.771],[141.993,72.72],[143.549,72.689],[145.471,72.547],[146.76,72.351],[145.411,72.352],[144.968,72.435],[144.735,72.387],[144.535,72.232],[144.284,72.295],[144.143,72.263],[144.432,72.169],[145.087,72.259],[146.898,72.296],[146.429,72.038],[145.966,71.847],[145.936,71.862],[145.997,72.029],[146.106,72.033],[146.341,72.125],[146.205,72.174],[146.052,72.154],[146.057,72.123],[145.984,72.067],[145.94,72.099],[145.956,72.133],[145.902,72.203],[145.691,72.253],[145.622,72.243],[145.738,72.215],[145.74,72.189],[145.618,72.082],[145.677,72.027],[145.789,72.026],[145.798,71.927],[145.348,71.866],[144.967,71.966],[144.957,71.921],[145.202,71.838],[145.047,71.774],[144.888,71.771],[144.921,71.693],[145.238,71.686],[145.319,71.658],[145.544,71.733],[146.08,71.791],[146.327,71.89],[147.131,72.314],[147.884,72.329],[148.504,72.299],[149.185,72.223],[149.72,72.116],[150.017,71.955],[150.071,71.884],[149.981,71.832],[149.669,71.762],[149.406,71.896],[149.338,71.9],[149.125,71.766],[148.841,71.803],[149.033,71.753],[148.995,71.699],[148.829,71.672],[148.999,71.663],[149.113,71.695],[149.69,71.642],[149.961,71.657],[150.078,71.59],[149.947,71.589],[149.866,71.463],[150.24,71.519],[150.554,71.516],[150.662,71.483],[150.52,71.344],[150.024,71.208],[150.399,71.275],[150.676,71.388],[150.729,71.391],[150.662,71.36],[150.606,71.278],[150.991,71.392],[151.461,71.341],[151.732,71.243],[152.124,70.999],[151.996,70.97],[151.66,70.984],[152.224,70.877],[152.611,70.833],[153.698,70.866],[154.221,70.956],[154.999,71.031],[155.937,71.094],[156.77,71.093],[157.904,71.046],[159.28,70.81],[159.775,70.618],[160.035,70.409],[160.103,70.284],[160.094,70.244],[159.958,70.135],[159.795,70.137],[159.797,70.103],[159.875,70.073],[159.813,69.977],[159.698,69.917],[159.684,69.894],[159.73,69.835],[160.092,69.727],[160.919,69.638],[160.996,69.582],[160.922,69.459],[161.014,69.3],[161.042,69.169],[160.968,69.114],[161.03,69.072],[161.263,69.044],[161.406,68.974],[161.216,68.784],[161.209,68.698],[161.067,68.565],[160.762,68.561],[160.838,68.524],[161.009,68.525],[161.136,68.561],[161.275,68.677],[161.32,68.791],[161.577,68.912],[161.567,69.012],[161.48,69.09],[161.426,69.203],[161.435,69.374],[161.81,69.528],[161.976,69.528],[162.324,69.662],[162.61,69.677],[162.832,69.652],[163.179,69.717],[163.6,69.681],[164.014,69.767],[164.532,69.599],[165.627,69.591],[166.138,69.511],[166.648,69.524],[166.86,69.491],[167.213,69.583],[167.653,69.76],[167.778,69.776],[167.992,69.715],[167.994,69.627],[168.241,69.55],[168.257,69.526],[168.194,69.382],[168.233,69.279],[168.283,69.242],[168.734,69.208],[169.364,69.081],[169.425,68.997],[169.453,68.841],[169.589,68.777],[170.332,68.821],[170.612,68.756],[170.551,68.824],[170.46,68.845],[170.621,68.909],[170.654,68.902],[170.705,68.804],[170.71,68.903],[170.762,68.955],[171.032,69.042],[170.907,69.306],[170.609,69.58],[170.507,69.607],[170.263,69.588],[170.122,69.614],[170.283,69.728],[170.567,69.778],[170.556,69.893],[170.522,69.929],[170.558,70.079],[170.404,70.115],[170.472,70.134],[171.929,69.997],[172.639,69.966],[173.164,69.848],[173.202,69.779],[173.379,69.787],[173.476,69.833],[173.271,69.911],[173.186,69.898],[173.204,69.924],[173.458,69.952],[173.742,69.867],[173.934,69.847],[174.089,69.883],[175.296,69.846],[175.723,69.904],[176.084,69.893],[176.234,69.828],[176.235,69.794],[176.53,69.741],[176.741,69.667],[177.436,69.604],[178.187,69.449],[178.369,69.475],[178.771,69.407],[179.032,69.327],[178.94,69.32],[178.743,69.372],[178.679,69.359],[178.652,69.309],[178.715,69.279],[178.879,69.296],[179.297,69.262],[179.916,69.004],[179.836,69.003],[179.55,69.106],[179.719,69.003],[180.0,68.976],[179.997,65.069],[179.796,65.022],[179.46,64.813],[179.162,64.788],[178.699,64.631],[178.749,64.683],[178.374,64.666],[177.606,64.72],[177.505,64.805],[177.442,64.916],[177.261,64.933],[177.167,65.025],[176.916,65.082],[176.591,65.024],[176.438,65.074],[176.307,65.047],[176.567,64.995],[176.957,65.038],[177.216,64.909],[177.292,64.831],[177.043,64.77],[176.927,64.799],[176.87,64.848],[176.634,64.869],[176.454,64.807],[176.418,64.844],[176.06,64.948],[175.871,64.832],[175.692,64.778],[175.069,64.763],[174.704,64.679],[174.45,64.686],[174.718,64.67],[175.052,64.739],[175.682,64.754],[175.823,64.783],[176.066,64.901],[176.199,64.875],[176.415,64.708],[176.148,64.629],[176.11,64.544],[176.216,64.621],[176.329,64.622],[176.453,64.688],[176.603,64.661],[176.739,64.565],[177.01,64.711],[177.343,64.777],[177.482,64.759],[177.452,64.647],[177.361,64.544],[177.433,64.431],[177.632,64.319],[178.088,64.2],[178.181,64.205],[178.084,64.258],[178.283,64.352],[178.346,64.296],[178.477,64.125],[178.483,64.07],[178.398,64.032],[178.377,63.972],[178.663,63.943],[178.755,63.648],[178.609,63.675],[178.354,63.626],[178.261,63.575],[178.37,63.516],[178.474,63.573],[178.703,63.573],[178.722,63.475],[178.595,63.412],[178.68,63.384],[178.774,63.4],[178.808,63.442],[178.747,63.546],[178.777,63.586],[178.837,63.47],[178.967,63.349],[178.856,63.399],[178.804,63.381],[178.822,63.339],[179.242,63.23],[179.409,63.14],[179.408,63.058],[179.315,63.059],[179.236,63.006],[179.306,62.904],[179.54,62.841],[179.604,62.701],[179.553,62.62],[179.413,62.565],[179.357,62.507],[179.129,62.479],[179.104,62.453],[179.139,62.424],[179.149,62.337],[179.1,62.291],[178.961,62.357],[178.028,62.544],[177.339,62.576],[177.292,62.61],[177.315,62.736],[177.453,62.81],[177.329,62.801],[177.242,62.705],[177.192,62.703],[177.145,62.717],[177.152,62.778],[177.113,62.813],[176.974,62.864],[176.93,62.665],[177.05,62.578],[177.173,62.568],[176.814,62.52],[176.685,62.539],[176.28,62.313],[175.318,62.101],[175.171,62.016],[174.77,61.918],[174.604,61.979],[174.718,61.886],[174.593,61.83],[174.457,61.806],[174.079,61.841],[174.017,61.819],[174.047,61.774],[174.007,61.723],[173.874,61.677],[173.542,61.744],[173.496,61.657],[173.493,61.565],[173.349,61.552],[173.293,61.514],[173.275,61.452],[173.161,61.404],[173.063,61.392],[172.888,61.47],[172.714,61.427],[172.898,61.367],[172.956,61.303],[172.844,61.277],[172.672,61.329],[172.764,61.274],[172.643,61.191],[172.343,61.219],[172.373,61.1],[172.475,61.073],[172.453,61.041],[172.362,61.009],[172.241,61.013],[172.018,61.092],[172.161,61.028],[172.197,60.963],[172.114,60.938],[172.021,60.849],[171.992,60.876],[172.002,60.922],[171.951,60.947],[171.949,60.853],[171.61,60.802],[171.612,60.735],[171.407,60.714],[171.366,60.632],[171.169,60.554],[170.857,60.506],[170.785,60.444],[170.642,60.417],[170.618,60.394],[170.654,60.325],[170.53,60.285],[170.469,60.224],[170.394,59.959],[170.244,59.911],[170.104,59.978],[170.076,60.032],[169.931,60.07],[169.747,60.277],[169.703,60.407],[169.33,60.531],[169.322,60.555],[169.367,60.563],[169.265,60.619],[169.207,60.62],[169.151,60.561],[168.189,60.582],[167.05,60.324],[166.344,59.868],[166.14,59.816],[166.097,59.854],[166.136,60.025],[166.259,60.257],[166.256,60.382],[166.347,60.412],[166.381,60.471],[166.349,60.486],[166.001,60.434],[165.768,60.288],[165.236,60.097],[164.997,60.127],[165.037,60.064],[165.12,60.083],[165.18,59.98],[164.998,59.839],[164.827,59.783],[164.702,59.976],[164.469,60.111],[164.318,60.086],[164.338,60.028],[164.14,59.932],[164.14,59.868],[164.053,59.877],[164.048,59.933],[164.107,59.972],[164.044,60.03],[163.64,60.046],[163.621,60.023],[163.677,59.971],[163.743,59.972],[163.7,59.899],[163.505,59.899],[163.36,59.824],[163.388,59.628],[163.327,59.585],[163.179,59.567],[163.166,59.502],[163.328,59.386],[163.296,59.263],[163.263,59.239],[163.234,59.245],[163.258,59.296],[163.104,59.278],[163.061,59.241],[163.066,59.194],[163.191,59.129],[163.186,59.049],[163.012,59.157],[162.882,59.127],[163.039,59.021],[163.033,58.997],[162.76,58.891],[162.726,58.853],[162.775,58.861],[162.764,58.835],[162.406,58.679],[162.143,58.453],[161.939,58.068],[162.003,57.948],[162.106,57.854],[162.316,57.797],[162.339,57.691],[162.381,57.69],[162.477,57.762],[162.466,57.868],[162.565,57.95],[162.702,57.964],[162.996,57.85],[163.211,57.837],[163.28,57.738],[163.073,57.502],[162.742,57.359],[162.765,57.347],[162.752,57.218],[162.827,57.045],[162.782,56.854],[162.79,56.795],[162.902,56.707],[163.212,56.739],[163.247,56.687],[163.215,56.629],[163.341,56.332],[163.349,56.196],[163.107,56.087],[163.031,56.018],[162.869,56.04],[162.646,56.192],[162.629,56.245],[162.718,56.327],[163.074,56.477],[163.093,56.525],[162.985,56.547],[162.897,56.433],[162.699,56.492],[162.394,56.39],[162.56,56.271],[162.444,56.208],[162.086,56.101],[162.036,56.05],[162.018,55.958],[161.749,55.627],[161.711,55.49],[161.718,55.366],[161.797,55.168],[161.874,55.068],[161.97,55.025],[162.149,54.861],[162.112,54.763],[161.8,54.576],[161.736,54.507],[161.306,54.492],[161.241,54.511],[161.203,54.572],[161.114,54.591],[160.728,54.529],[160.006,54.139],[159.9,53.981],[159.817,53.659],[159.904,53.601],[159.894,53.658],[159.922,53.646],[159.961,53.516],[159.917,53.474],[159.798,53.521],[159.978,53.268],[160.014,53.268],[160.05,53.095],[159.615,53.259],[159.453,53.216],[159.39,53.159],[159.256,53.153],[159.02,53.084],[158.727,52.893],[158.584,53.062],[158.439,53.027],[158.419,53.009],[158.446,52.902],[158.522,52.907],[158.484,52.936],[158.512,52.943],[158.625,52.931],[158.642,52.902],[158.632,52.847],[158.561,52.789],[158.598,52.704],[158.549,52.625],[158.419,52.652],[158.435,52.601],[158.512,52.565],[158.555,52.312],[158.526,52.275],[158.429,52.266],[158.318,52.128],[158.277,51.941],[157.912,51.643],[157.776,51.565],[157.537,51.487],[157.26,51.233],[157.097,51.159],[156.692,50.891],[156.655,50.885],[156.746,50.994],[156.745,51.078],[156.674,51.229],[156.556,51.271],[156.521,51.316],[156.473,51.514],[156.493,51.925],[156.429,52.202],[156.281,52.521],[156.36,52.498],[156.379,52.45],[156.441,52.515],[156.262,52.567],[156.102,52.853],[156.077,53.133],[155.931,53.837],[155.699,54.513],[155.544,55.304],[155.646,55.912],[155.942,56.653],[156.111,56.819],[156.15,56.827],[156.064,56.723],[156.202,56.85],[156.45,56.955],[156.546,57.103],[156.646,57.077],[156.695,57.109],[156.981,57.421],[156.981,57.528],[156.933,57.644],[156.84,57.728],[156.76,57.738],[156.981,57.85],[157.168,57.773],[157.434,57.791],[157.535,57.851],[157.645,58.004],[157.923,57.979],[158.233,58.019],[158.665,58.271],[159.044,58.421],[159.702,58.851],[159.756,58.945],[159.735,59.02],[159.79,59.084],[159.923,59.176],[160.341,59.361],[160.444,59.456],[160.485,59.543],[160.861,59.622],[161.248,59.85],[161.466,60.046],[161.837,60.187],[161.929,60.268],[161.916,60.327],[161.875,60.318],[161.914,60.42],[162.459,60.592],[162.754,60.647],[162.901,60.771],[163.11,60.778],[163.193,60.821],[163.37,60.816],[163.643,60.875],[163.729,60.937],[163.512,61.004],[163.511,61.048],[163.636,61.146],[163.854,61.213],[164.015,61.33],[164.02,61.363],[163.94,61.44],[163.785,61.424],[163.75,61.453],[163.847,61.632],[164.011,61.687],[164.071,61.784],[164.064,62.101],[164.123,62.278],[164.614,62.474],[165.091,62.421],[165.231,62.373],[165.285,62.317],[165.33,62.316],[165.232,62.401],[165.094,62.456],[165.343,62.479],[165.63,62.443],[164.764,62.568],[164.582,62.691],[164.366,62.712],[163.257,62.543],[163.164,62.445],[163.351,62.362],[163.126,62.284],[163.081,62.198],[163.137,62.045],[162.952,61.801],[163.239,61.746],[163.301,61.717],[163.282,61.662],[163.094,61.617],[163.065,61.596],[163.084,61.554],[163.007,61.519],[162.944,61.578],[162.931,61.67],[162.838,61.72],[162.654,61.693],[162.641,61.668],[162.749,61.629],[162.74,61.6],[162.41,61.673],[162.028,61.421],[161.784,61.342],[161.565,61.201],[161.468,61.202],[161.329,61.088],[160.888,60.884],[160.796,60.74],[160.677,60.776],[160.399,60.74],[160.262,60.627],[160.139,60.589],[160.135,60.657],[160.223,60.734],[160.225,60.784],[160.166,60.827],[160.391,61.026],[160.332,61.053],[160.172,61.052],[159.865,60.93],[159.781,60.943],[159.903,61.037],[159.947,61.136],[159.913,61.252],[159.839,61.265],[159.854,61.311],[160.008,61.391],[160.158,61.52],[160.366,61.766],[160.355,61.947],[159.966,61.826],[159.83,61.713],[159.528,61.665],[159.364,61.89],[159.247,61.922],[158.906,61.896],[158.733,61.836],[158.305,61.823],[158.022,61.731],[157.893,61.786],[157.487,61.803],[157.027,61.65],[156.858,61.536],[156.696,61.534],[156.634,61.422],[156.653,61.21],[156.417,61.182],[156.085,61.013],[155.928,60.907],[155.895,60.762],[154.966,60.375],[154.623,60.136],[154.532,60.049],[154.467,59.92],[154.231,59.879],[154.228,59.724],[154.294,59.638],[154.065,59.513],[154.109,59.463],[154.292,59.444],[154.344,59.486],[154.42,59.422],[154.501,59.433],[154.432,59.485],[154.439,59.548],[154.691,59.517],[154.849,59.462],[154.967,59.492],[155.083,59.393],[155.184,59.36],[155.139,59.205],[154.829,59.189],[154.742,59.161],[154.742,59.127],[154.451,59.22],[154.331,59.203],[154.345,59.137],[154.29,59.094],[154.155,59.096],[154.021,59.046],[153.915,59.078],[153.795,59.174],[153.362,59.242],[153.269,59.092],[152.994,59.075],[152.875,58.918],[152.567,58.955],[152.357,59.023],[152.124,58.989],[152.12,58.923],[152.06,58.896],[151.614,58.852],[151.456,58.875],[151.311,58.84],[151.273,58.921],[151.216,58.945],[151.077,59.106],[151.164,59.09],[151.607,59.168],[152.045,59.153],[152.284,59.22],[152.142,59.292],[151.981,59.265],[151.749,59.296],[151.606,59.473],[151.386,59.571],[151.102,59.592],[150.904,59.567],[150.87,59.553],[150.929,59.471],[150.713,59.443],[150.681,59.452],[150.729,59.494],[150.684,59.51],[150.462,59.491],[150.728,59.556],[150.707,59.575],[150.525,59.554],[150.416,59.621],[150.297,59.647],[149.64,59.769],[149.48,59.767],[149.372,59.76],[149.034,59.632],[149.084,59.551],[149.208,59.506],[149.205,59.471],[149.089,59.493],[148.902,59.463],[148.843,59.5],[148.862,59.553],[148.695,59.449],[148.722,59.37],[148.861,59.402],[148.96,59.38],[148.949,59.261],[148.905,59.241],[148.799,59.281],[148.544,59.246],[148.415,59.262],[148.365,59.394],[148.213,59.419],[147.843,59.383],[147.782,59.349],[147.826,59.291],[147.782,59.269],[147.606,59.299],[147.544,59.274],[147.552,59.249],[147.49,59.24],[147.297,59.326],[147.165,59.319],[146.999,59.373],[146.745,59.374],[146.512,59.461],[146.325,59.391],[146.341,59.204],[146.315,59.183],[145.992,59.149],[145.797,59.265],[145.911,59.35],[145.908,59.413],[145.316,59.394],[145.25,59.423],[145.059,59.384],[144.592,59.372],[143.926,59.413],[143.474,59.338],[143.211,59.377],[142.588,59.238],[142.304,59.138],[141.978,58.968],[141.839,58.813],[141.616,58.646],[141.336,58.518],[141.089,58.461],[140.902,58.375],[140.685,58.231],[140.516,57.942],[140.499,57.826],[140.313,57.753],[140.067,57.722],[139.945,57.65],[139.839,57.509],[139.597,57.444],[139.565,57.38],[139.471,57.318],[139.179,57.264],[138.91,57.027],[138.653,56.986],[138.587,56.875],[138.478,56.846],[138.401,56.738],[138.306,56.717],[138.262,56.647],[138.138,56.594],[138.116,56.567],[138.142,56.457],[137.917,56.345],[137.842,56.25],[137.726,56.175],[136.729,55.662],[136.417,55.569],[136.126,55.302],[135.744,55.146],[135.558,55.124],[135.217,54.93],[135.156,54.861],[135.261,54.721],[135.673,54.64],[135.731,54.572],[135.973,54.574],[136.21,54.617],[136.536,54.59],[136.814,54.649],[136.878,54.583],[136.748,54.428],[136.766,54.217],[136.804,54.131],[136.689,54.006],[136.654,53.92],[136.681,53.811],[136.761,53.769],[136.937,53.852],[137.113,53.804],[137.176,53.838],[137.283,54.038],[137.177,54.036],[137.063,54.138],[137.192,54.217],[137.388,54.305],[137.725,54.306],[137.513,54.152],[137.357,54.135],[137.293,54.075],[137.595,53.954],[137.856,53.962],[137.781,53.897],[137.597,53.827],[137.564,53.73],[137.487,53.665],[137.337,53.661],[137.212,53.582],[137.345,53.525],[137.899,53.573],[138.293,53.743],[138.342,53.886],[138.554,53.989],[138.589,53.855],[138.571,53.815],[138.24,53.559],[138.249,53.52],[138.465,53.521],[138.55,53.58],[138.649,53.72],[138.77,54.005],[138.741,54.249],[138.658,54.289],[138.705,54.313],[138.995,54.229],[139.337,54.183],[139.73,54.307],[139.801,54.291],[139.815,54.211],[140.238,54.05],[140.256,53.863],[140.361,53.78],[140.537,53.71],[140.555,53.648],[140.958,53.501],[140.926,53.436],[141.242,53.308],[141.414,53.292],[141.434,53.153],[141.354,53.096],[141.236,53.078],[141.19,53.041],[141.243,53.022],[141.179,52.982],[140.841,53.12],[140.713,53.116],[140.94,52.989],[140.959,52.941],[141.201,52.842],[141.312,52.657],[141.22,52.508],[141.128,52.461],[141.131,52.409],[141.396,52.226],[141.504,52.206],[141.485,52.161],[141.343,52.103],[141.31,52.033],[141.305,52.009],[141.422,51.924],[141.276,51.874],[141.082,51.678],[140.908,51.612],[140.901,51.495],[140.796,51.455],[140.814,51.413],[140.882,51.42],[140.868,51.363],[140.69,51.317],[140.676,51.174],[140.71,51.052],[140.678,50.949],[140.529,50.866],[140.462,50.702],[140.486,50.61],[140.439,50.537],[140.527,50.366],[140.516,50.171],[140.592,50.074],[140.662,50.078],[140.487,49.979],[140.411,49.866],[140.528,49.728],[140.554,49.557],[140.435,49.354],[140.34,49.272],[140.388,48.967],[140.245,48.84],[140.213,48.764],[140.176,48.451],[139.284,47.814],[139.046,47.471],[139.042,47.404],[138.555,47.019],[138.384,46.735],[138.343,46.55],[138.2,46.447],[138.062,46.181],[137.775,45.934],[137.664,45.788],[137.377,45.61],[137.177,45.416],[136.858,45.213],[136.439,44.788],[136.374,44.788],[136.244,44.663],[136.183,44.514],[135.892,44.402],[135.802,44.265],[135.722,44.234],[135.647,44.156],[135.63,44.041],[135.459,43.944],[135.501,43.846],[135.422,43.756],[135.274,43.688],[135.131,43.504],[134.862,43.395],[134.348,43.118],[134.186,43.078],[133.905,42.875],[133.57,42.819],[133.216,42.728],[133.154,42.683],[133.032,42.686],[133.003,42.717],[133.039,42.771],[132.994,42.819],[132.916,42.818],[132.844,42.742],[132.798,42.764],[132.772,42.87],[132.589,42.842],[132.462,42.934],[132.352,42.896],[132.35,42.852],[132.313,42.848],[132.285,42.961],[132.369,43.213],[132.351,43.292],[132.302,43.317],[132.229,43.23],[132.097,43.176],[131.947,43.064],[131.845,43.083],[131.908,43.194],[131.992,43.235],[132.051,43.313],[131.811,43.326],[131.752,43.22],[131.525,43.005],[131.472,42.872],[131.278,42.764],[131.219,42.651],[131.223,42.558],[131.167,42.576],[131.114,42.663],[130.968,42.627],[130.805,42.688],[130.714,42.686],[130.677,42.652],[130.866,42.522],[130.698,42.295],[130.656,42.318],[130.659,42.375],[130.581,42.481],[130.605,42.62],[130.536,42.682],[130.414,42.708],[130.434,42.745],[130.638,42.832],[130.819,42.876],[131.021,42.857],[131.128,42.916],[131.107,43.04],[131.264,43.27],[131.31,43.39],[131.301,43.457],[131.192,43.539],[131.231,43.974],[131.245,44.021],[131.298,44.052],[131.096,44.691],[130.958,44.839],[131.124,44.927],[131.212,44.911],[131.341,44.971],[131.469,44.974],[131.646,45.108],[131.704,45.216],[131.867,45.344],[131.992,45.241],[132.931,45.021],[133.117,45.125],[133.102,45.294],[133.15,45.451],[133.193,45.504],[133.47,45.625],[133.477,45.825],[133.52,45.882],[133.579,45.871],[133.66,45.935],[133.745,46.155],[133.902,46.254],[133.93,46.382],[133.852,46.442],[133.848,46.479],[133.909,46.578],[134.019,46.667],[134.039,46.861],[134.113,47.055],[134.215,47.1],[134.15,47.248],[134.182,47.322],[134.315,47.421],[134.486,47.43],[134.555,47.469],[134.761,47.7],[134.768,47.737],[134.684,47.801],[134.558,47.992],[134.582,48.06],[134.661,48.101],[134.717,48.266],[134.415,48.391],[133.751,48.25],[133.596,48.174],[133.483,48.069],[133.083,48.099],[132.662,47.872],[132.578,47.734],[132.521,47.711],[132.341,47.742],[131.915,47.67],[131.619,47.664],[131.446,47.738],[131.268,47.73],[131.086,47.672],[130.957,47.706],[130.94,47.817],[130.884,47.906],[130.681,48.047],[130.661,48.106],[130.831,48.294],[130.824,48.327],[130.525,48.605],[130.674,48.86],[130.509,48.852],[130.418,48.896],[130.223,48.865],[129.91,49.04],[129.913,49.072],[129.747,49.182],[129.726,49.262],[129.553,49.288],[129.49,49.416],[129.391,49.428],[129.111,49.347],[129.052,49.364],[129.002,49.436],[128.875,49.478],[128.79,49.568],[128.712,49.584],[128.398,49.577],[128.187,49.534],[127.839,49.586],[127.69,49.67],[127.672,49.746],[127.535,49.787],[127.486,50.018],[127.574,50.137],[127.581,50.21],[127.334,50.316],[127.291,50.459],[127.367,50.576],[127.28,50.684],[127.292,50.741],[127.133,50.91],[126.933,51.06],[126.899,51.181],[126.969,51.319],[126.894,51.303],[126.89,51.244],[126.818,51.267],[126.821,51.328],[126.914,51.381],[126.795,51.424],[126.718,51.71],[126.609,51.787],[126.444,51.991],[126.509,52.037],[126.555,52.127],[126.323,52.192],[126.349,52.292],[126.334,52.396],[126.276,52.453],[126.209,52.462],[126.18,52.544],[126.087,52.589],[125.993,52.58],[125.975,52.639],[126.097,52.757],[126.065,52.782],[125.973,52.765],[125.856,52.863],[125.661,52.877],[125.661,52.922],[125.722,52.946],[125.727,52.982],[125.62,53.05],[125.486,53.069],[125.165,53.193],[124.964,53.183],[124.818,53.127],[124.644,53.188],[124.493,53.188],[124.339,53.256],[124.269,53.347],[124.104,53.341],[123.866,53.481],[123.615,53.544],[123.443,53.523],[123.283,53.554],[123.153,53.501],[122.841,53.452],[122.246,53.457],[122.061,53.413],[121.83,53.413],[121.212,53.272],[121.066,53.291],[120.831,53.264],[120.269,52.857],[120.031,52.768],[120.026,52.641],[120.082,52.588],[120.186,52.58],[120.44,52.637],[120.709,52.543],[120.626,52.344],[120.751,52.211],[120.776,52.116],[120.653,51.916],[120.492,51.879],[120.064,51.621],[119.957,51.39],[119.776,51.214],[119.747,51.076],[119.521,50.902],[119.505,50.749],[119.294,50.597],[119.238,50.442],[119.139,50.39],[119.198,50.345],[119.355,50.328],[119.32,50.096],[119.173,50.001],[118.575,49.923],[118.48,49.841],[117.875,49.521],[117.794,49.518],[117.494,49.623],[117.259,49.631],[116.983,49.709],[116.716,49.827],[116.617,49.929],[116.246,50.027],[116.07,50.003],[115.73,49.881],[115.415,49.898],[115.213,49.994],[115.034,50.145],[114.847,50.23],[114.666,50.264],[114.444,50.245],[114.322,50.284],[114.176,50.248],[113.873,50.088],[113.785,50.087],[113.557,50.002],[113.187,49.794],[113.098,49.67],[113.094,49.603],[112.832,49.518],[112.71,49.499],[112.492,49.541],[111.964,49.407],[111.691,49.407],[111.173,49.305],[110.956,49.191],[110.7,49.142],[110.352,49.214],[110.207,49.169],[109.554,49.231],[109.344,49.339],[109.198,49.36],[109.075,49.335],[108.959,49.357],[108.563,49.335],[108.072,49.59],[107.953,49.688],[107.984,49.929],[107.746,49.98],[107.462,49.982],[107.176,50.027],[107.081,50.084],[107.007,50.199],[106.788,50.311],[106.663,50.339],[106.245,50.3],[106.077,50.345],[105.989,50.411],[105.336,50.484],[105.132,50.398],[104.967,50.405],[104.621,50.318],[104.418,50.309],[104.255,50.189],[104.113,50.153],[103.826,50.201],[103.649,50.137],[103.318,50.199],[103.224,50.309],[102.943,50.31],[102.78,50.387],[102.635,50.408],[102.541,50.509],[102.355,50.553],[102.298,50.622],[102.355,50.721],[102.237,50.82],[102.255,50.987],[102.168,51.121],[102.163,51.251],[102.224,51.327],[102.082,51.389],[101.601,51.484],[101.385,51.452],[101.245,51.529],[100.557,51.735],[99.948,51.751],[99.729,51.891],[99.345,51.942],[99.021,52.065],[98.958,52.121],[98.944,52.208],[98.832,52.208],[98.81,52.291],[98.714,52.313],[98.669,52.291],[98.697,52.369],[98.669,52.411],[98.737,52.451],[98.742,52.487],[98.838,52.518],[98.821,52.597],[98.951,52.656],[98.956,52.805],[98.878,52.837],[98.939,52.901],[99.194,52.833],[99.237,52.852],[99.262,52.969],[99.023,53.045],[99.076,53.079],[99.076,53.114],[98.94,53.169],[98.863,53.145],[98.688,53.175],[98.602,53.124],[98.322,53.12],[98.296,53.242],[98.04,53.271],[97.99,53.305],[97.963,53.377],[97.617,53.392],[97.599,53.453],[97.458,53.48],[97.342,53.613],[97.132,53.633],[96.891,53.747],[96.704,53.713],[96.634,53.567],[96.446,53.54],[96.389,53.571],[96.381,53.617],[96.25,53.636],[96.088,53.471],[95.755,53.54],[95.395,53.393],[95.316,53.412],[95.302,53.46],[95.244,53.476],[95.05,53.398],[94.976,53.425],[94.737,53.402],[94.586,53.334],[94.577,53.278],[94.671,53.239],[94.587,53.186],[94.58,53.05],[94.5,52.928],[94.303,52.924],[94.138,52.858],[94.12,52.768],[94.056,52.68],[93.971,52.649],[93.966,52.592],[93.749,52.452],[93.747,52.375],[93.671,52.307],[93.655,52.233],[93.352,52.148],[93.219,52.054],[93.123,52.029],[93.065,51.963],[92.891,51.913],[92.847,51.853],[92.671,51.86],[92.503,51.802],[92.209,51.826],[92.103,51.803],[91.953,51.823],[91.887,51.876],[91.63,51.887],[91.559,51.92],[91.239,51.903],[91.1,51.963],[90.857,51.928],[90.745,52.087],[90.57,52.139],[90.498,52.201],[90.35,52.212],[90.119,52.152],[90.101,52.055],[90.01,51.995],[90.076,51.768],[89.956,51.779],[89.721,51.601],[89.583,51.573],[89.419,51.625],[89.261,51.569],[89.234,51.583],[89.25,51.658],[89.206,51.678],[89.028,51.62],[88.724,51.576],[88.724,51.543],[88.949,51.417],[88.924,51.229],[89.023,51.162],[89.046,51.042],[89.379,50.837],[89.654,50.566],[89.773,50.548],[89.845,50.494],[89.826,50.445],[89.639,50.407],[89.617,50.445],[89.504,50.487],[89.49,50.378],[89.382,50.34],[89.317,50.218],[89.396,50.166],[89.495,50.184],[89.504,50.114],[89.557,50.085],[89.529,50.045],[89.584,49.99],[89.567,49.924],[89.642,49.89],[89.659,49.788],[89.72,49.764],[89.719,49.722],[89.457,49.648],[89.373,49.583],[89.223,49.637],[89.201,49.601],[89.235,49.546],[89.209,49.521],[89.011,49.464],[88.925,49.547],[88.886,49.534],[88.901,49.452],[88.852,49.442],[88.408,49.484],[88.221,49.462],[88.134,49.369],[88.17,49.286],[87.992,49.18],[87.705,49.163],[87.447,49.078],[87.175,49.132],[86.876,49.11],[86.731,48.972],[86.807,48.824],[86.779,48.721],[86.598,48.543],[86.468,48.495],[86.344,48.495],[86.234,48.427],[85.804,48.414],[85.739,48.356],[85.618,48.165],[85.537,47.937],[85.622,47.622],[85.609,47.499],[85.702,47.376],[85.701,47.262],[85.689,47.218],[85.566,47.137],[85.521,47.059],[85.219,47.039],[84.97,46.87],[84.802,46.828],[84.746,46.837],[84.774,46.936],[84.678,46.994],[84.295,47.007],[84.111,46.972],[83.9,46.977],[83.558,47.063],[83.155,47.225],[83.062,47.22],[83.034,47.201],[83.011,46.953],[82.874,46.764],[82.709,46.354],[82.571,46.168],[82.511,45.902],[82.322,45.583],[82.317,45.537],[82.354,45.499],[82.645,45.433],[82.632,45.234],[82.545,45.123],[82.481,45.128],[82.297,45.238],[81.946,45.158],[81.826,45.196],[81.783,45.321],[81.679,45.35],[81.556,45.296],[80.917,45.15],[80.525,45.109],[80.4,45.05],[80.113,45.037],[79.871,44.903],[79.874,44.868],[79.999,44.799],[80.262,44.824],[80.515,44.733],[80.385,44.636],[80.349,44.447],[80.4,44.261],[80.369,44.114],[80.74,43.466],[80.815,43.17],[80.774,43.11],[80.655,43.142],[80.384,43.029],[80.388,42.995],[80.55,42.93],[80.569,42.887],[80.258,42.816],[80.158,42.633],[80.294,42.253],[80.284,42.216],[80.234,42.196],[80.265,42.055],[79.873,42.013],[79.79,41.895],[79.341,41.792],[78.671,41.532],[78.371,41.373],[78.369,41.275],[78.291,41.23],[78.189,41.101],[78.082,41.041],[77.861,41.07],[77.685,41.002],[77.544,40.987],[77.021,41.05],[76.871,41.013],[76.791,40.951],[76.648,40.741],[76.643,40.618],[76.57,40.562],[76.514,40.459],[76.338,40.356],[76.224,40.404],[76.068,40.396],[75.9,40.301],[75.706,40.299],[75.624,40.595],[75.583,40.645],[75.234,40.451],[75.066,40.448],[74.859,40.517],[74.826,40.408],[74.88,40.329],[74.734,40.341],[74.355,40.098],[74.226,40.117],[74.025,40.067],[73.848,39.817],[73.843,39.769],[73.908,39.727],[73.953,39.598],[73.863,39.485],[73.656,39.455],[73.669,39.342],[73.62,39.236],[73.728,39.076],[73.848,38.975],[73.708,38.887],[73.814,38.613],[73.939,38.54],[74.079,38.545],[74.063,38.595],[74.123,38.666],[74.355,38.674],[74.793,38.524],[74.853,38.474],[74.862,38.386],[74.803,38.325],[74.793,38.195],[74.818,38.074],[74.915,38.007],[74.906,37.842],[74.984,37.785],[74.904,37.652],[74.954,37.56],[75.183,37.409],[75.096,37.322],[74.916,37.239],[74.823,37.332],[74.67,37.392],[74.254,37.409],[74.146,37.336],[73.739,37.222],[73.63,37.266],[73.77,37.343],[73.776,37.433],[73.456,37.476],[73.299,37.46],[72.893,37.25],[72.8,37.229],[72.657,37.029],[72.361,37.0],[72.22,36.945],[71.799,36.687],[71.653,36.687],[71.577,36.734],[71.431,37.067],[71.494,37.308],[71.529,37.759],[71.59,37.816],[71.598,37.898],[71.537,37.944],[71.342,37.894],[71.263,37.925],[71.358,38.251],[70.974,38.474],[70.935,38.433],[70.777,38.446],[70.6,38.347],[70.583,38.277],[70.547,38.263],[70.47,38.121],[70.254,37.973],[70.258,37.941],[70.172,37.946],[70.165,37.89],[70.247,37.819],[70.283,37.705],[70.248,37.623],[70.16,37.543],[70.008,37.549],[69.919,37.617],[69.802,37.582],[69.509,37.579],[69.378,37.437],[69.41,37.246],[69.438,37.22],[69.267,37.106],[69.124,37.169],[68.985,37.32],[68.888,37.338],[68.904,37.29],[68.836,37.329],[68.81,37.312],[68.815,37.253],[68.669,37.278],[68.626,37.206],[68.404,37.152],[68.389,37.106],[68.288,37.103],[68.275,37.011],[68.186,37.018],[68.02,36.927],[67.878,37.064],[67.775,37.11],[67.781,37.189],[67.747,37.229],[67.633,37.254],[67.561,37.221],[67.503,37.282],[67.259,37.186],[67.124,37.281],[67.097,37.341],[67.006,37.384],[66.294,37.331],[66.143,37.385],[66.08,37.441],[65.855,37.508],[65.761,37.578],[65.752,37.538],[65.667,37.495],[65.648,37.352],[65.563,37.262],[65.067,37.243],[64.794,37.122],[64.792,36.919],[64.617,36.636],[64.615,36.424],[64.466,36.252],[64.165,36.165],[63.978,36.039],[63.613,35.967],[63.522,35.903],[63.318,35.852],[63.123,35.863],[63.105,35.832],[63.183,35.676],[63.105,35.634],[63.123,35.536],[63.086,35.433],[62.986,35.416],[62.631,35.227],[62.47,35.288],[62.316,35.15],[62.27,35.256],[62.043,35.441],[61.966,35.459],[61.798,35.412],[61.597,35.444],[61.438,35.553],[61.375,35.636],[61.279,35.608],[61.254,35.632],[61.231,35.693],[61.262,35.817],[61.212,35.938],[61.201,36.068],[61.221,36.179],[61.163,36.42],[61.189,36.569],[61.154,36.65],[60.332,36.659],[60.063,37.012],[59.479,37.233],[59.393,37.323],[59.376,37.496],[59.343,37.536],[59.237,37.519],[58.934,37.669],[58.406,37.641],[58.234,37.679],[58.174,37.796],[57.7,37.926],[57.454,37.939],[57.353,37.993],[57.372,38.091],[57.208,38.283],[57.062,38.196],[56.867,38.226],[56.756,38.286],[56.443,38.26],[56.323,38.183],[56.349,38.136],[56.331,38.088],[56.221,38.071],[56.169,38.095],[55.987,38.073],[55.764,38.124],[55.438,38.083],[55.14,37.955],[54.833,37.746],[54.782,37.643],[54.808,37.578],[54.781,37.515],[54.67,37.441],[54.58,37.453],[54.202,37.33],[53.909,37.352],[53.806,37.865],[53.869,38.361],[53.829,38.551],[53.853,38.661],[53.983,38.908],[53.863,39.032],[53.767,39.028],[53.641,39.124],[53.579,39.319],[53.159,39.345],[53.152,39.268],[53.123,39.435],[53.264,39.653],[53.293,39.652],[53.207,39.524],[53.407,39.537],[53.564,39.462],[53.732,39.515],[53.639,39.611],[53.41,39.669],[53.414,39.774],[53.575,39.963],[53.428,40.004],[53.291,39.941],[52.935,39.991],[52.928,39.907],[53.039,39.74],[53.009,39.759],[52.739,40.05],[52.736,40.201],[52.691,40.273],[52.739,40.5],[52.863,40.659],[52.831,40.71],[52.924,41.077],[52.961,41.055],[53.111,40.769],[53.387,40.769],[53.494,40.736],[53.556,40.768],[53.594,40.89],[53.656,40.857],[53.653,40.781],[53.737,40.617],[54.031,40.654],[54.097,40.716],[54.222,40.725],[54.219,40.693],[54.35,40.673],[54.422,40.71],[54.309,40.753],[54.25,40.88],[54.338,40.924],[54.47,40.862],[54.48,40.799],[54.707,40.875],[54.76,40.965],[54.732,41.104],[54.074,41.476],[54.02,41.605],[54.025,41.715],[53.936,41.875],[53.898,42.069],[53.811,42.122],[53.66,42.143],[53.282,42.072],[53.15,42.095],[52.949,41.975],[52.82,41.697],[52.915,41.666],[52.821,41.401],[52.908,41.108],[52.882,41.05],[52.85,41.076],[52.761,41.374],[52.561,41.516],[52.592,41.639],[52.434,41.761],[52.494,41.901],[52.406,42.093],[52.438,42.178],[52.595,42.335],[52.746,42.649],[52.733,42.713],[52.576,42.799],[52.172,42.884],[51.897,42.846],[51.652,43.182],[51.268,43.152],[51.315,43.299],[51.318,43.442],[51.269,43.555],[51.21,43.614],[51.154,43.619],[51.017,43.808],[50.916,43.98],[50.843,44.189],[50.751,44.242],[50.284,44.328],[50.233,44.371],[50.24,44.575],[50.308,44.653],[50.873,44.626],[50.993,44.532],[51.132,44.481],[51.561,44.511],[51.55,44.547],[51.437,44.606],[51.294,44.604],[51.227,44.723],[50.963,44.854],[50.963,44.973],[51.242,45.1],[51.249,45.167],[51.405,45.369],[51.475,45.335],[51.596,45.338],[51.724,45.402],[51.928,45.364],[52.518,45.406],[52.766,45.339],[53.105,45.298],[53.228,45.338],[52.75,45.518],[52.733,45.549],[52.747,45.645],[52.932,45.799],[53.083,46.004],[53.158,46.338],[53.037,46.483],[53.004,46.484],[53.007,46.527],[53.206,46.643],[53.194,46.715],[53.101,46.779],[53.059,46.889],[52.866,46.952],[52.601,46.949],[52.454,46.996],[52.24,46.803],[52.092,46.815],[51.779,46.904],[51.684,46.959],[51.635,47.042],[51.194,47.115],[50.844,47.008],[50.786,46.94],[50.71,46.946],[50.522,46.873],[50.433,46.901],[49.827,46.561],[49.62,46.575],[49.563,46.53],[49.455,46.511],[49.324,46.565],[49.386,46.493],[49.369,46.401],[49.281,46.439],[49.217,46.378],[49.228,46.311],[49.275,46.264],[49.154,46.287],[48.911,46.13],[48.783,46.093],[48.71,46.132],[48.635,46.081],[48.725,46.021],[48.761,45.857],[48.717,45.832],[48.571,45.964],[48.453,45.934],[48.224,45.744],[47.854,45.717],[47.828,45.658],[47.556,45.768],[47.554,45.739],[47.624,45.709],[47.639,45.57],[47.488,45.726],[47.39,45.745],[47.414,45.674],[47.54,45.636],[47.567,45.562],[47.422,45.363],[47.371,45.233],[47.135,44.94],[47.073,44.783],[47.033,44.83],[46.988,44.808],[46.773,44.692],[46.715,44.602],[46.68,44.515],[46.698,44.448],[46.76,44.392],[47.037,44.347],[47.085,44.25],[47.266,44.143],[47.49,43.811],[47.5,43.769],[47.452,43.682],[47.368,43.613],[47.405,43.503],[47.463,43.531],[47.551,43.871],[47.635,43.9],[47.681,43.87],[47.555,43.656],[47.487,43.457],[47.492,43.332],[47.577,43.322],[47.585,43.293],[47.487,43.216],[47.454,43.09],[47.466,43.014],[47.693,42.867],[47.732,42.643],[47.865,42.588],[47.949,42.459],[48.114,42.33],[48.306,42.093],[48.394,41.92],[48.542,41.881],[48.675,41.785],[48.901,41.525],[49.036,41.418],[49.139,41.265],[49.155,41.152],[49.227,41.012],[49.405,40.845],[49.528,40.791],[49.528,40.663],[49.694,40.585],[49.805,40.565],[49.973,40.589],[50.079,40.556],[50.234,40.492],[50.352,40.38],[50.368,40.268],[50.129,40.358],[49.923,40.34],[49.569,40.211],[49.494,40.156],[49.426,40.051],[49.45,39.964],[49.388,39.69],[49.314,39.604],[49.284,39.49],[49.408,39.389],[49.396,39.353],[49.255,39.315],[49.201,39.027],[49.158,38.986],[49.061,38.969],[49.061,39.007],[49.14,39.047],[49.146,39.093],[49.044,39.18],[48.964,39.176],[48.932,39.114],[48.952,39.024],[48.867,38.746],[48.869,38.449],[48.784,38.446],[48.664,38.39],[48.599,38.418],[48.433,38.625],[48.33,38.604],[48.245,38.671],[48.247,38.715],[48.025,38.835],[48.013,38.897],[48.077,38.954],[48.309,39.004],[48.327,39.054],[48.294,39.112],[48.135,39.21],[48.124,39.276],[48.199,39.336],[48.358,39.39],[47.985,39.716],[47.813,39.679],[47.543,39.515],[47.392,39.471],[47.287,39.375],[47.1,39.304],[47.034,39.197],[46.954,39.157],[46.849,39.161],[46.532,38.881],[46.495,38.956],[46.511,39.089],[46.427,39.178],[46.531,39.166],[46.622,39.221],[46.508,39.34],[46.392,39.409],[46.506,39.453],[46.54,39.567],[46.404,39.596],[46.347,39.638],[46.192,39.613],[45.99,39.786],[45.832,39.853],[45.754,39.957],[45.655,39.976],[45.885,39.993],[45.981,40.133],[45.998,40.231],[45.948,40.278],[45.869,40.281],[45.541,40.455],[45.396,40.668],[45.595,40.784],[45.616,40.874],[45.441,40.969],[45.427,41.036],[45.333,41.015],[45.179,41.065],[45.156,41.089],[45.215,41.113],[45.217,41.153],[45.141,41.207],[45.052,41.216],[45.033,41.286],[45.311,41.431],[45.682,41.329],[45.666,41.294],[45.699,41.251],[45.964,41.149],[46.208,41.18],[46.474,41.024],[46.637,41.102],[46.714,41.264],[46.704,41.297],[46.602,41.39],[46.327,41.51],[46.269,41.629],[46.218,41.62],[46.2,41.658],[46.208,41.728],[46.341,41.751],[46.446,41.903],[46.231,42.012],[46.104,42.005],[46.064,42.04],[45.953,42.043],[45.892,42.119],[45.646,42.226],[45.759,42.465],[45.894,42.52],[45.933,42.578],[46.009,42.574],[46.05,42.615],[46.039,42.661],[46.189,42.719],[46.153,42.812],[46.202,42.86],[46.302,42.845],[46.329,42.87],[46.371,42.821],[46.548,42.908],[46.509,42.993],[46.541,43.064],[46.511,43.106],[46.442,43.111],[46.424,43.145],[46.459,43.187],[46.434,43.218],[46.203,43.157],[46.151,43.08],[46.066,43.126],[46.05,43.088],[45.998,43.093],[45.986,43.048],[45.907,43.026],[45.851,43.045],[45.763,43.016],[45.741,43.077],[45.707,43.086],[45.677,42.985],[45.643,42.984],[45.612,43.037],[45.517,43.021],[45.45,42.945],[45.475,42.859],[45.327,42.838],[45.178,42.862],[45.144,42.839],[45.158,42.801],[45.063,42.709],[44.856,42.779],[44.769,42.652],[44.687,42.742],[44.506,42.77],[44.266,42.721],[44.188,42.648],[44.049,42.634],[43.94,42.573],[43.751,42.632],[43.83,42.708],[43.811,42.764],[43.669,42.799],[43.523,42.88],[43.165,42.96],[43.013,43.057],[43.011,43.116],[42.834,43.188],[42.613,43.158],[42.355,43.256],[42.042,43.201],[41.583,43.235],[41.388,43.353],[41.019,43.395],[40.657,43.558],[40.518,43.526],[40.235,43.596],[40.062,43.568],[39.947,43.396],[39.875,43.491],[39.472,43.758],[39.287,43.927],[38.964,44.147],[38.844,44.19],[38.754,44.273],[38.6,44.329],[38.198,44.39],[37.865,44.693],[37.783,44.723],[37.813,44.638],[37.484,44.672],[37.375,44.743],[37.299,44.864],[37.309,44.893],[37.203,44.98],[36.882,45.086],[36.625,45.128]],[[45.578,40.657],[45.486,40.676],[45.455,40.612],[45.52,40.583],[45.578,40.657]]],[[[-177.501,65.486],[-178.369,65.476],[-178.556,65.514],[-178.569,65.541],[-178.518,65.587],[-178.456,65.727],[-178.655,65.762],[-178.809,65.867],[-178.904,65.989],[-178.725,66.009],[-178.674,66.113],[-178.543,66.163],[-178.509,66.285],[-178.526,66.403],[-178.783,66.206],[-178.91,66.171],[-179.064,66.196],[-179.109,66.247],[-179.083,66.298],[-179.109,66.37],[-179.171,66.415],[-179.179,66.293],[-179.424,66.341],[-179.25,66.199],[-179.284,66.167],[-179.634,66.118],[-179.656,66.135],[-179.58,66.148],[-179.689,66.184],[-179.762,66.117],[-179.815,65.987],[-179.8,65.874],[-179.741,65.792],[-179.329,65.627],[-179.321,65.532],[-179.538,65.428],[-179.569,65.266],[-179.7,65.164],[-179.998,65.073],[-179.999,68.977],[-179.626,68.906],[-179.529,68.915],[-179.537,68.949],[-179.507,68.955],[-179.421,68.893],[-179.391,68.823],[-178.924,68.768],[-178.604,68.632],[-178.716,68.656],[-178.758,68.574],[-178.74,68.543],[-178.037,68.423],[-177.951,68.29],[-177.706,68.337],[-178.177,68.496],[-177.635,68.325],[-177.633,68.296],[-177.753,68.257],[-177.68,68.224],[-177.361,68.249],[-177.252,68.21],[-177.241,68.151],[-177.162,68.128],[-177.105,68.153],[-176.97,68.134],[-175.878,67.825],[-175.896,67.807],[-175.873,67.823],[-175.464,67.707],[-175.276,67.557],[-175.202,67.533],[-175.219,67.448],[-175.376,67.343],[-175.099,67.371],[-175.041,67.443],[-174.833,67.384],[-174.787,67.31],[-174.893,67.29],[-174.955,67.104],[-174.915,66.992],[-174.814,66.945],[-174.745,66.765],[-174.763,66.733],[-174.858,66.746],[-174.995,66.672],[-174.906,66.616],[-174.506,66.551],[-174.437,66.462],[-174.516,66.454],[-174.467,66.303],[-174.354,66.333],[-174.377,66.361],[-174.197,66.464],[-174.024,66.48],[-173.993,66.458],[-174.087,66.262],[-174.037,66.214],[-173.956,66.278],[-173.938,66.334],[-173.782,66.373],[-173.762,66.449],[-173.918,66.516],[-174.302,66.582],[-173.983,66.697],[-173.997,66.798],[-174.125,66.989],[-174.295,67.059],[-174.507,67.031],[-174.651,67.06],[-174.432,67.103],[-173.828,67.087],[-173.676,67.132],[-173.173,67.059],[-173.274,67.049],[-173.354,66.969],[-173.357,66.84],[-173.155,66.86],[-173.209,66.885],[-173.221,66.975],[-173.139,66.996],[-173.06,66.938],[-172.82,66.909],[-172.436,66.938],[-173.011,67.028],[-173.007,67.055],[-172.328,66.963],[-171.726,66.955],[-171.694,66.936],[-171.719,66.886],[-171.7,66.851],[-171.417,66.772],[-171.397,66.751],[-171.423,66.704],[-171.343,66.651],[-170.88,66.514],[-170.492,66.323],[-170.637,66.239],[-170.349,66.291],[-170.202,66.248],[-170.188,66.202],[-170.331,66.179],[-170.223,66.144],[-169.791,66.151],[-169.709,66.127],[-169.693,66.084],[-169.785,65.992],[-170.037,66.036],[-170.578,65.853],[-170.516,65.82],[-170.531,65.673],[-170.636,65.611],[-170.894,65.634],[-171.542,65.836],[-171.288,65.666],[-171.029,65.581],[-171.077,65.484],[-171.393,65.538],[-172.083,65.484],[-171.814,65.521],[-172.043,65.534],[-172.103,65.564],[-172.246,65.538],[-172.351,65.663],[-172.654,65.703],[-172.803,65.675],[-172.437,65.591],[-172.426,65.483],[-172.462,65.472],[-172.422,65.427],[-172.214,65.466],[-172.193,65.448],[-172.255,65.353],[-172.249,65.246],[-172.68,65.269],[-172.683,65.228],[-172.307,65.217],[-172.134,65.083],[-172.464,64.921],[-172.541,64.925],[-172.782,64.851],[-173.046,64.863],[-173.195,64.778],[-173.001,64.841],[-172.898,64.83],[-172.785,64.778],[-173.085,64.663],[-172.955,64.672],[-172.735,64.594],[-172.46,64.552],[-172.356,64.458],[-172.363,64.423],[-172.631,64.389],[-172.758,64.421],[-172.829,64.525],[-173.026,64.497],[-173.061,64.477],[-172.883,64.445],[-172.899,64.337],[-172.994,64.282],[-173.191,64.255],[-173.434,64.327],[-173.299,64.461],[-173.284,64.521],[-173.416,64.617],[-173.352,64.497],[-173.364,64.465],[-173.468,64.394],[-173.674,64.347],[-174.05,64.424],[-174.101,64.527],[-174.158,64.571],[-174.704,64.735],[-174.704,64.761],[-175.006,64.813],[-175.055,64.779],[-175.446,64.785],[-175.472,64.856],[-175.806,64.956],[-175.912,65.016],[-175.811,65.063],[-175.781,65.161],[-175.862,65.235],[-175.928,65.398],[-176.078,65.47],[-177.068,65.61],[-177.21,65.593],[-177.501,65.486]]],[[[55.174,73.711],[54.855,73.728],[54.542,73.702],[54.266,73.606],[54.061,73.606],[53.671,73.736],[53.634,73.76],[53.65,73.801],[53.899,73.779],[54.25,73.911],[54.8,73.977],[54.591,74.008],[54.694,74.07],[55.022,74.173],[55.166,74.186],[55.268,74.151],[55.825,74.098],[55.862,74.108],[55.589,74.193],[55.097,74.265],[55.217,74.304],[55.307,74.277],[55.703,74.268],[55.742,74.293],[55.665,74.326],[55.234,74.366],[55.365,74.435],[56.281,74.488],[56.053,74.494],[56.076,74.514],[56.008,74.542],[55.498,74.569],[55.528,74.646],[55.571,74.66],[55.773,74.689],[55.915,74.658],[56.388,74.719],[56.611,74.677],[56.984,74.687],[56.602,74.694],[56.484,74.793],[55.939,74.775],[55.836,74.8],[55.921,74.842],[56.676,74.949],[56.296,74.958],[56.473,75.013],[56.419,75.035],[55.888,74.989],[55.862,74.996],[55.94,75.065],[55.917,75.082],[55.729,75.076],[55.803,75.149],[56.055,75.215],[56.161,75.149],[56.354,75.189],[56.466,75.104],[56.481,75.061],[56.908,75.237],[56.875,75.281],[56.749,75.3],[56.87,75.36],[57.052,75.39],[57.737,75.323],[57.655,75.427],[57.546,75.452],[57.518,75.494],[57.651,75.532],[58.154,75.57],[58.193,75.602],[57.926,75.626],[57.993,75.672],[58.516,75.724],[58.544,75.759],[58.769,75.835],[59.145,75.86],[59.417,75.933],[59.744,75.926],[60.042,75.986],[60.328,75.993],[60.343,76.01],[60.071,76.045],[60.296,76.109],[60.792,76.113],[60.468,76.014],[60.729,76.002],[60.82,76.058],[61.083,76.075],[61.156,76.131],[60.905,76.148],[60.995,76.247],[61.067,76.274],[61.679,76.31],[62.028,76.252],[62.306,76.257],[62.392,76.19],[62.502,76.177],[62.735,76.258],[62.842,76.258],[62.905,76.207],[62.979,76.21],[63.717,76.345],[64.11,76.311],[64.666,76.417],[64.799,76.474],[64.985,76.494],[65.161,76.468],[65.549,76.582],[65.974,76.528],[66.019,76.541],[65.77,76.685],[65.926,76.744],[66.152,76.758],[66.683,76.902],[67.545,77.011],[68.508,76.954],[68.929,76.781],[68.887,76.67],[68.789,76.585],[68.863,76.575],[68.86,76.542],[68.398,76.364],[68.213,76.327],[68.319,76.288],[68.291,76.28],[67.997,76.266],[67.035,76.084],[65.409,75.88],[65.136,75.808],[64.115,75.717],[63.811,75.655],[63.582,75.711],[63.556,75.707],[63.607,75.685],[63.537,75.636],[63.305,75.586],[63.023,75.586],[62.242,75.433],[62.018,75.441],[61.854,75.382],[61.699,75.367],[61.649,75.279],[61.483,75.22],[61.385,75.251],[61.381,75.331],[61.283,75.318],[61.302,75.295],[61.148,75.207],[60.811,75.137],[60.75,75.102],[60.805,75.081],[60.736,75.025],[60.588,75.037],[60.57,75.059],[60.602,75.1],[60.516,75.114],[60.442,75.063],[60.456,75.025],[60.426,75.012],[59.93,74.997],[60.105,74.967],[60.609,74.966],[60.675,74.93],[60.555,74.862],[60.204,74.846],[60.367,74.786],[60.319,74.761],[59.937,74.718],[59.51,74.795],[59.628,74.729],[59.868,74.68],[59.869,74.625],[59.765,74.589],[59.574,74.602],[59.169,74.72],[59.288,74.641],[59.122,74.541],[59.093,74.483],[59.147,74.439],[58.784,74.461],[58.717,74.5],[58.192,74.575],[58.181,74.557],[58.612,74.428],[58.625,74.363],[58.722,74.303],[58.723,74.237],[58.506,74.165],[58.28,74.218],[58.265,74.173],[58.385,74.131],[58.329,74.092],[58.252,74.133],[58.137,74.137],[58.139,74.076],[58.217,74.007],[58.136,73.985],[57.726,74.05],[57.534,74.182],[57.415,74.18],[57.518,74.121],[57.514,74.083],[57.258,74.076],[57.555,74.057],[57.911,73.915],[57.937,73.799],[57.725,73.716],[57.403,73.838],[56.568,73.88],[57.33,73.824],[57.611,73.662],[57.584,73.61],[57.351,73.55],[57.053,73.587],[56.727,73.671],[56.755,73.599],[57.249,73.487],[57.226,73.45],[56.907,73.309],[56.758,73.36],[56.745,73.246],[56.129,73.288],[56.041,73.325],[56.009,73.419],[55.908,73.44],[55.878,73.434],[55.983,73.365],[55.979,73.327],[55.927,73.305],[55.749,73.346],[55.392,73.339],[54.972,73.442],[54.536,73.401],[54.215,73.324],[54.046,73.365],[54.06,73.39],[54.299,73.417],[54.333,73.459],[54.249,73.478],[54.247,73.508],[54.351,73.559],[54.752,73.659],[55.174,73.711]]],[[[54.689,70.663],[54.558,70.677],[54.282,70.771],[54.276,70.74],[54.215,70.726],[54.051,70.74],[53.831,70.809],[53.729,70.793],[53.53,70.834],[53.464,70.814],[53.395,70.851],[53.572,70.886],[53.676,70.865],[53.74,70.949],[53.508,71.06],[53.512,71.086],[53.939,71.14],[54.057,71.118],[53.929,71.125],[53.916,71.099],[54.118,71.094],[54.236,71.125],[54.128,71.121],[53.953,71.175],[53.809,71.153],[53.56,71.201],[53.464,71.257],[53.736,71.409],[53.893,71.418],[53.941,71.459],[53.908,71.471],[53.557,71.38],[53.546,71.32],[53.48,71.292],[53.364,71.327],[53.256,71.446],[53.435,71.543],[53.365,71.565],[53.183,71.493],[53.029,71.501],[52.918,71.406],[52.623,71.496],[52.552,71.594],[52.432,71.548],[52.38,71.491],[52.289,71.507],[52.216,71.563],[52.141,71.537],[52.202,71.49],[51.797,71.475],[51.638,71.53],[51.42,71.73],[51.418,71.898],[51.575,72.071],[51.863,72.159],[52.052,72.101],[52.33,72.062],[52.403,72.08],[52.412,72.225],[52.58,72.26],[52.746,72.337],[52.691,72.37],[52.669,72.435],[52.792,72.509],[52.874,72.514],[52.912,72.57],[53.084,72.594],[52.734,72.556],[52.756,72.636],[52.964,72.67],[53.214,72.649],[52.977,72.683],[52.544,72.674],[52.381,72.722],[52.596,72.853],[52.976,72.92],[53.374,72.879],[53.392,72.928],[53.144,72.961],[53.146,73.004],[53.382,73.008],[53.128,73.094],[53.155,73.154],[53.329,73.217],[53.561,73.23],[53.79,73.302],[54.227,73.274],[54.57,73.381],[54.937,73.422],[55.322,73.332],[55.763,73.324],[56.438,73.225],[56.573,73.133],[55.812,73.058],[56.246,73.071],[56.443,73.046],[56.341,72.994],[55.622,72.963],[56.006,72.942],[56.256,72.968],[56.216,72.832],[56.143,72.785],[55.84,72.801],[55.739,72.773],[55.485,72.809],[55.437,72.782],[55.836,72.744],[55.944,72.665],[55.802,72.669],[55.723,72.64],[55.671,72.562],[55.609,72.536],[55.452,72.576],[55.267,72.582],[55.449,72.564],[55.549,72.52],[55.543,72.479],[55.133,72.451],[55.461,72.428],[55.479,72.27],[55.576,72.189],[55.383,72.102],[55.344,72.065],[55.403,72.028],[55.322,71.949],[55.221,71.926],[55.504,71.891],[55.537,71.76],[55.675,71.605],[56.033,71.344],[56.077,71.275],[56.228,71.194],[56.954,70.896],[57.466,70.806],[57.633,70.728],[57.551,70.724],[57.45,70.605],[56.744,70.699],[56.866,70.639],[57.095,70.626],[57.252,70.576],[56.642,70.63],[56.508,70.67],[56.515,70.721],[56.575,70.736],[56.515,70.75],[56.22,70.66],[56.332,70.644],[56.375,70.653],[56.337,70.674],[56.454,70.67],[56.642,70.582],[56.54,70.541],[56.51,70.551],[56.554,70.572],[56.54,70.589],[56.376,70.588],[56.059,70.662],[56.047,70.642],[56.159,70.61],[56.123,70.595],[55.854,70.672],[56.014,70.587],[55.874,70.58],[55.734,70.614],[55.778,70.632],[55.751,70.698],[55.603,70.723],[55.665,70.682],[55.407,70.748],[55.249,70.675],[55.233,70.658],[55.292,70.606],[55.165,70.554],[54.749,70.68],[54.688,70.758],[54.574,70.781],[54.5,70.784],[54.479,70.734],[54.689,70.663]]],[[[137.165,75.648],[136.981,75.597],[137.069,75.564],[136.982,75.582],[136.968,75.606],[137.146,75.653],[137.148,75.695],[137.085,75.727],[137.206,75.784],[137.74,75.746],[137.721,75.779],[137.432,75.878],[137.418,75.939],[137.71,76.009],[138.003,76.019],[138.101,76.059],[138.113,76.077],[138.081,76.087],[138.219,76.132],[138.339,76.145],[138.389,76.071],[138.446,76.059],[138.498,76.166],[138.869,76.22],[138.955,76.198],[138.981,76.148],[139.095,76.096],[139.645,75.979],[139.817,75.97],[139.886,75.933],[139.794,75.884],[140.033,75.818],[140.39,75.816],[140.529,75.779],[140.539,75.75],[140.459,75.704],[140.431,75.65],[140.455,75.64],[140.887,75.609],[141.056,75.642],[140.871,75.74],[140.91,75.841],[140.879,75.9],[140.95,76.027],[141.189,76.058],[141.58,76.0],[141.613,76.017],[141.307,76.175],[141.356,76.18],[141.763,76.1],[142.56,75.858],[143.089,75.806],[143.584,75.867],[143.9,75.837],[144.475,75.71],[144.722,75.689],[144.826,75.638],[145.2,75.597],[145.366,75.519],[144.746,75.433],[144.689,75.401],[144.673,75.328],[144.936,75.266],[144.726,75.232],[144.686,75.157],[144.349,75.045],[143.95,75.027],[143.758,75.075],[143.366,75.067],[142.898,75.137],[142.834,75.218],[142.712,75.231],[142.661,75.305],[142.5,75.362],[142.509,75.455],[142.732,75.547],[143.016,75.595],[143.042,75.664],[142.926,75.717],[142.447,75.711],[142.425,75.673],[142.23,75.655],[142.14,75.591],[142.114,75.501],[142.153,75.379],[142.213,75.333],[142.418,75.256],[142.635,75.094],[143.393,75.002],[143.579,75.012],[143.687,74.937],[143.431,74.888],[142.689,74.893],[142.622,74.846],[142.64,74.834],[142.488,74.812],[142.072,74.89],[141.985,74.935],[142.068,74.963],[142.356,74.929],[142.171,75.004],[140.06,74.831],[139.979,74.895],[139.647,74.979],[139.463,74.929],[139.473,74.872],[139.562,74.85],[139.498,74.761],[139.344,74.686],[139.096,74.647],[138.743,74.723],[138.025,74.804],[137.876,74.852],[137.767,74.986],[137.141,75.132],[136.912,75.272],[136.861,75.352],[137.024,75.388],[137.172,75.332],[137.405,75.352],[137.426,75.379],[137.394,75.411],[137.141,75.419],[137.287,75.592],[137.165,75.648]]],[[[142.043,50.544],[142.095,50.813],[142.263,51.079],[142.234,51.178],[142.085,51.398],[142.074,51.473],[141.8,51.676],[141.819,51.785],[141.648,51.889],[141.643,52.087],[141.694,52.179],[141.64,52.315],[141.665,52.386],[141.768,52.455],[141.838,52.581],[141.859,52.851],[141.923,53.013],[141.833,53.155],[141.772,53.365],[142.218,53.517],[142.252,53.48],[142.249,53.384],[142.352,53.356],[142.472,53.386],[142.555,53.466],[142.681,53.517],[142.608,53.57],[142.509,53.549],[142.502,53.659],[142.642,53.678],[142.731,53.637],[142.799,53.704],[142.77,53.838],[142.674,53.717],[142.618,53.699],[142.721,53.928],[142.395,54.24],[142.404,54.266],[142.479,54.274],[142.574,54.231],[142.639,54.263],[142.628,54.326],[142.712,54.422],[143.008,54.131],[142.998,54.058],[142.879,53.896],[142.881,53.808],[143.104,53.554],[143.131,53.476],[143.093,53.385],[143.176,53.398],[143.226,53.321],[143.329,52.915],[143.306,52.478],[143.201,52.357],[143.196,52.418],[143.291,52.586],[143.256,52.593],[143.153,52.382],[143.18,52.312],[143.125,51.961],[143.17,51.861],[143.233,51.871],[143.313,51.731],[143.262,51.678],[143.219,51.526],[143.311,51.513],[143.331,51.617],[143.366,51.637],[143.449,51.499],[143.456,51.359],[143.381,51.346],[143.47,51.268],[143.502,51.301],[143.523,51.267],[143.795,50.294],[143.994,50.031],[144.04,49.898],[142.13,49.897],[142.174,50.094],[142.151,50.332],[142.043,50.544]]],[[[123.378,73.163],[123.492,73.187],[123.536,73.159],[123.659,73.168],[123.666,73.203],[123.533,73.214],[123.223,73.402],[123.241,73.55],[123.372,73.618],[123.375,73.659],[123.545,73.696],[123.602,73.609],[123.966,73.62],[123.991,73.64],[123.909,73.669],[123.889,73.767],[124.042,73.72],[123.999,73.692],[124.035,73.681],[124.359,73.803],[124.7,73.705],[124.837,73.7],[124.99,73.624],[125.059,73.655],[125.058,73.68],[125.135,73.684],[125.186,73.624],[125.173,73.561],[125.614,73.523],[125.518,73.451],[125.566,73.402],[125.871,73.499],[126.289,73.55],[126.402,73.508],[126.317,73.448],[126.199,73.454],[126.157,73.377],[126.422,73.406],[126.53,73.357],[126.588,73.293],[126.563,73.23],[126.679,73.154],[126.709,73.083],[126.574,72.989],[126.324,72.923],[126.278,72.874],[126.379,72.795],[126.293,72.666],[126.246,72.525],[126.334,72.437],[126.347,72.382],[126.118,72.302],[125.344,72.466],[125.242,72.535],[124.901,72.598],[124.718,72.676],[124.383,72.673],[124.121,72.762],[123.671,72.797],[123.329,72.868],[122.924,72.895],[122.432,72.977],[122.465,73.012],[122.854,72.994],[122.892,72.956],[123.11,72.913],[123.316,72.973],[123.31,73.022],[123.378,73.163]]],[[[147.14,74.994],[146.739,75.103],[146.074,75.224],[146.155,75.273],[146.358,75.558],[146.465,75.591],[146.754,75.505],[146.679,75.479],[146.635,75.425],[146.972,75.338],[147.339,75.349],[147.171,75.363],[147.406,75.438],[148.34,75.416],[148.56,75.376],[148.446,75.282],[148.578,75.213],[148.888,75.219],[149.327,75.284],[150.104,75.225],[150.473,75.091],[150.635,75.116],[150.686,75.156],[150.953,75.139],[150.82,75.104],[150.644,74.991],[150.689,74.942],[150.603,74.885],[150.042,74.838],[149.695,74.761],[148.705,74.76],[148.235,74.792],[147.659,74.951],[147.14,74.994]]],[[[126.698,73.439],[126.829,73.382],[126.923,73.492],[126.831,73.52],[126.853,73.526],[127.192,73.535],[127.465,73.48],[127.975,73.47],[128.083,73.358],[128.342,73.351],[128.258,73.268],[128.655,73.258],[128.892,73.211],[128.959,73.17],[128.781,73.073],[129.043,73.129],[129.117,73.098],[129.081,73.04],[128.95,72.987],[128.299,72.907],[128.213,72.864],[128.231,72.824],[128.174,72.808],[127.646,72.717],[127.392,72.721],[126.924,72.572],[126.589,72.536],[126.494,72.467],[126.575,72.424],[126.555,72.405],[126.428,72.428],[126.305,72.503],[126.343,72.691],[126.446,72.79],[126.339,72.886],[126.659,72.993],[126.772,73.076],[126.765,73.171],[126.607,73.252],[126.612,73.326],[126.698,73.439]]],[[[142.004,73.92],[142.513,73.839],[143.212,73.616],[143.432,73.523],[143.524,73.441],[143.436,73.403],[143.508,73.278],[143.504,73.231],[143.185,73.203],[141.632,73.305],[140.746,73.451],[140.425,73.433],[139.882,73.346],[139.74,73.354],[139.721,73.436],[140.416,73.483],[140.645,73.567],[140.823,73.744],[141.077,73.868],[141.378,73.861],[142.004,73.92]]],[[[-180.0,71.531],[-179.629,71.577],[-179.305,71.551],[-179.044,71.597],[-178.569,71.564],[-178.062,71.462],[-177.833,71.346],[-177.629,71.283],[-177.503,71.277],[-177.444,71.229],[-177.49,71.173],[-177.93,71.039],[-178.818,70.98],[-179.274,70.908],[-179.496,70.914],[-179.999,70.998],[-180.0,71.531]]],[[[127.24,72.604],[127.801,72.641],[128.708,72.464],[129.257,72.463],[129.261,72.412],[129.491,72.333],[129.324,72.292],[129.355,72.255],[129.537,72.221],[129.249,72.134],[129.428,72.119],[129.233,72.083],[128.818,72.075],[128.5,72.151],[128.543,72.17],[128.449,72.188],[128.444,72.222],[128.199,72.235],[127.596,72.425],[126.679,72.429],[126.653,72.476],[126.904,72.51],[127.24,72.604]]],[[[179.996,70.996],[179.805,70.957],[179.678,70.896],[179.273,70.889],[178.791,70.802],[178.749,70.892],[178.621,71.03],[178.632,71.07],[178.866,71.214],[179.211,71.308],[179.53,71.438],[180.0,71.53],[179.996,70.996]]],[[[112.959,74.186],[112.787,74.092],[112.185,74.131],[111.962,74.211],[111.592,74.254],[111.468,74.318],[111.676,74.373],[111.878,74.345],[111.982,74.391],[111.974,74.483],[112.08,74.549],[113.212,74.487],[113.413,74.432],[113.428,74.392],[113.216,74.238],[112.959,74.186]]],[[[169.412,69.764],[169.282,69.763],[169.299,69.65],[169.175,69.569],[168.65,69.597],[168.141,69.703],[168.059,69.76],[167.769,69.828],[167.95,69.941],[168.271,70.02],[169.359,69.881],[169.435,69.855],[169.451,69.816],[169.412,69.764]]],[[[45.303,39.516],[45.432,39.469],[45.592,39.526],[45.772,39.533],[45.782,39.449],[45.741,39.36],[45.963,39.243],[45.939,39.145],[46.106,38.868],[45.435,39.003],[45.345,39.165],[45.144,39.218],[45.116,39.312],[44.954,39.433],[44.889,39.606],[44.816,39.638],[44.803,39.691],[45.032,39.749],[45.132,39.66],[45.136,39.559],[45.253,39.577],[45.303,39.516]]],[[[164.703,59.025],[164.676,58.902],[164.645,58.881],[164.184,58.823],[163.579,58.58],[163.463,58.472],[163.435,58.477],[163.386,58.559],[163.536,58.621],[163.692,58.745],[163.75,58.893],[163.842,58.995],[163.773,59.022],[164.031,59.051],[164.557,59.236],[164.703,59.025]]],[[[141.116,74.165],[141.019,73.993],[140.45,73.902],[140.305,73.935],[140.122,74.045],[140.148,74.211],[140.274,74.256],[140.562,74.282],[140.963,74.258],[141.082,74.213],[141.116,74.165]]],[[[156.109,50.754],[156.15,50.521],[155.791,50.187],[155.596,50.178],[155.358,50.053],[155.231,50.053],[155.248,50.3],[155.392,50.353],[155.665,50.388],[155.763,50.461],[155.888,50.692],[156.039,50.772],[156.109,50.754]]],[[[138.063,54.966],[137.92,54.768],[137.712,54.621],[137.646,54.646],[137.487,54.872],[137.225,54.773],[137.278,54.894],[137.451,55.015],[137.567,55.188],[137.635,55.197],[137.699,55.148],[138.191,55.044],[138.063,54.966]]],[[[135.931,75.396],[135.459,75.372],[135.447,75.445],[135.59,75.563],[135.539,75.666],[135.708,75.849],[135.922,75.675],[136.164,75.607],[135.962,75.508],[135.959,75.475],[136.021,75.436],[135.931,75.396]]],[[[52.234,71.282],[52.217,71.322],[52.431,71.374],[52.753,71.398],[52.925,71.357],[52.989,71.298],[52.743,71.371],[52.798,71.307],[53.064,71.236],[53.202,71.253],[53.216,71.158],[53.143,71.089],[53.054,71.081],[53.042,71.022],[53.135,70.978],[53.022,70.961],[52.961,71.049],[52.806,71.106],[52.769,71.162],[52.645,71.219],[52.329,71.248],[52.234,71.282]]],[[[166.247,55.329],[166.263,55.306],[166.222,55.247],[166.249,55.147],[166.388,55.002],[166.641,54.847],[166.664,54.677],[166.341,54.841],[166.075,55.064],[166.083,55.105],[165.989,55.215],[165.84,55.264],[165.834,55.304],[165.951,55.362],[166.247,55.329]]],[[[127.92,72.763],[128.301,72.788],[129.344,72.704],[129.186,72.654],[128.634,72.701],[128.166,72.657],[127.345,72.66],[127.421,72.694],[127.686,72.7],[127.92,72.763]]],[[[161.386,69.102],[161.519,68.968],[161.504,68.913],[161.423,68.897],[161.467,68.945],[161.458,68.996],[161.139,69.087],[161.119,69.17],[161.162,69.343],[161.067,69.426],[161.104,69.473],[161.369,69.538],[161.387,69.459],[161.289,69.416],[161.36,69.358],[161.321,69.238],[161.386,69.102]]],[[[137.389,71.457],[137.351,71.427],[136.993,71.519],[137.271,71.579],[137.751,71.594],[137.89,71.57],[137.956,71.505],[137.677,71.412],[137.512,71.476],[137.269,71.485],[137.389,71.457]]],[[[135.67,74.101],[135.556,74.148],[135.438,74.156],[135.362,74.255],[136.034,74.088],[136.26,73.987],[136.269,73.931],[136.24,73.899],[136.126,73.88],[135.696,74.059],[135.67,74.101]]],[[[149.305,76.748],[149.213,76.664],[148.397,76.637],[148.474,76.683],[148.747,76.746],[149.305,76.748]]],[[[128.362,72.553],[128.101,72.632],[128.8,72.658],[128.95,72.602],[128.653,72.524],[128.362,72.553]]],[[[119.809,73.034],[119.633,73.118],[119.832,73.164],[120.087,73.152],[120.275,73.095],[120.214,73.042],[119.901,73.03],[119.809,73.034]]],[[[128.292,72.87],[128.437,72.9],[129.117,72.854],[129.261,72.807],[128.32,72.811],[128.292,72.87]]],[[[154.898,49.619],[154.878,49.543],[154.794,49.456],[154.834,49.347],[154.792,49.292],[154.71,49.264],[154.595,49.295],[154.603,49.373],[154.817,49.636],[154.898,49.619]]],[[[122.425,72.909],[123.187,72.868],[123.565,72.778],[123.372,72.762],[123.101,72.815],[122.867,72.812],[122.425,72.909]]],[[[156.189,50.676],[156.176,50.753],[156.342,50.851],[156.448,50.87],[156.493,50.838],[156.488,50.753],[156.4,50.627],[156.189,50.676]]],[[[35.696,65.193],[35.839,65.16],[35.868,65.03],[35.847,64.992],[35.746,64.967],[35.527,65.128],[35.561,65.177],[35.696,65.193]]],[[[136.775,54.926],[136.751,54.889],[136.675,54.902],[136.689,54.942],[137.039,55.104],[137.172,55.109],[137.05,54.921],[136.95,54.921],[136.884,54.958],[136.775,54.926]]]]}}]}