{"type":"FeatureCollection","features":[{"type":"Feature","properties":{"lite":true,"src":"data/years/1921-03-18.geojson"},"geometry":{"type":"MultiPolygon","coordinates":[[[[31.78,46.265],[31.784,46.322],[31.889,46.335],[31.905,46.339],[31.915,46.338],[31.959,46.343],[32.063,46.39],[32.008,46.453],[31.762,46.488],[31.668,46.466],[31.712,46.427],[31.536,46.55],[31.522,46.563],[31.512,46.577],[31.512,46.581],[32.002,46.488],[32.35,46.462],[32.428,46.489],[32.367,46.489],[32.339,46.473],[32.336,46.475],[32.326,46.468],[32.315,46.469],[32.294,46.575],[32.141,46.557],[31.982,46.658],[31.923,46.788],[32.026,46.919],[32.012,46.947],[31.939,46.936],[31.979,46.987],[31.958,46.999],[31.903,46.945],[31.997,46.907],[31.877,46.801],[31.893,46.641],[31.423,46.626],[31.489,46.635],[31.458,46.638],[31.599,46.8],[31.589,46.837],[31.504,46.727],[31.426,46.802],[31.486,46.691],[31.352,46.601],[31.031,46.601],[31.003,46.66],[30.997,46.654],[31.012,46.634],[31.012,46.628],[31.014,46.612],[31.011,46.596],[30.838,46.551],[30.748,46.542],[30.752,46.375],[30.683,46.319],[30.639,46.385],[30.681,46.316],[30.499,46.104],[30.451,46.141],[30.256,46.289],[30.236,46.428],[30.158,46.439],[30.13,46.415],[30.077,46.46],[30.039,46.417],[29.977,46.508],[29.894,46.508],[29.803,46.585],[29.743,46.587],[29.737,46.662],[29.583,46.667],[29.576,46.706],[29.652,46.792],[29.625,46.826],[29.542,46.8],[29.405,46.94],[29.35,46.922],[29.292,46.956],[29.343,47.066],[29.25,47.142],[29.091,47.159],[29.103,47.2],[29.058,47.254],[29.073,47.373],[28.972,47.416],[29.003,47.483],[28.91,47.557],[28.918,47.832],[28.825,47.899],[28.701,47.936],[28.578,48.054],[28.47,48.096],[28.394,48.086],[28.306,48.138],[28.254,48.187],[28.299,48.239],[28.082,48.26],[27.774,48.425],[27.451,48.491],[27.357,48.599],[27.234,48.609],[27.2,48.568],[26.91,48.558],[26.777,48.589],[26.593,48.502],[26.507,48.517],[26.424,48.478],[26.366,48.509],[26.312,48.647],[26.239,48.682],[26.2,48.746],[26.236,48.808],[26.17,48.973],[26.203,49.018],[26.203,49.507],[26.243,49.731],[26.174,49.818],[26.139,49.941],[26.306,50.192],[26.69,50.419],[26.849,50.477],[27.217,50.521],[27.272,50.623],[27.243,50.873],[27.265,50.967],[27.425,51.221],[27.434,51.394],[27.461,51.431],[27.537,51.415],[27.53,51.471],[27.716,51.577],[27.476,51.648],[27.408,51.744],[27.612,52.031],[27.518,52.141],[27.546,52.21],[27.468,52.257],[27.466,52.287],[27.569,52.364],[27.632,52.478],[27.629,52.546],[27.609,52.572],[27.404,52.56],[27.274,52.604],[27.198,52.747],[27.103,52.829],[26.902,52.88],[26.905,52.989],[26.79,53.064],[26.908,53.199],[26.875,53.378],[26.944,53.487],[26.894,53.734],[26.97,53.864],[27.217,54.063],[27.197,54.154],[27.273,54.183],[27.302,54.24],[27.507,54.327],[27.519,54.578],[27.684,54.692],[27.749,54.825],[27.878,54.931],[28.097,54.992],[28.327,55.105],[28.371,55.177],[28.336,55.247],[28.403,55.306],[28.311,55.398],[28.276,55.546],[28.175,55.601],[28.138,55.662],[27.602,55.791],[27.648,55.92],[27.924,56.105],[28.197,56.181],[28.236,56.276],[28.074,56.569],[28.15,56.691],[28.103,56.938],[28.019,56.994],[28.083,57.198],[27.842,57.375],[27.783,57.459],[28.088,57.638],[28.119,57.737],[27.996,57.786],[27.81,57.988],[27.552,58.135],[27.476,58.213],[27.467,58.297],[27.54,58.365],[27.542,58.414],[27.434,58.814],[27.597,58.931],[27.811,58.896],[28.129,58.934],[28.499,59.171],[28.53,59.261],[28.468,59.339],[28.294,59.459],[28.211,59.564],[28.154,59.578],[28.154,59.574],[27.997,59.692],[28.096,59.79],[28.369,59.664],[28.473,59.828],[28.845,59.782],[29.208,59.993],[30.176,59.87],[30.169,59.888],[30.222,59.906],[30.235,59.928],[30.208,59.979],[29.962,60.01],[29.956,60.074],[29.919,60.089],[29.988,60.158],[30.013,60.183],[29.889,60.308],[29.945,60.361],[30.107,60.361],[30.18,60.445],[30.16,60.57],[30.19,60.631],[30.495,60.55],[30.778,60.602],[30.883,60.707],[31.47,60.896],[31.723,61.127],[32.172,61.294],[32.298,61.389],[32.319,61.441],[32.194,61.807],[32.246,62.133],[32.375,62.195],[32.456,62.164],[32.634,61.997],[32.717,62.028],[32.833,62.164],[32.728,62.259],[32.578,62.303],[32.822,62.5],[32.791,62.605],[32.613,62.752],[32.404,62.805],[32.319,62.982],[31.952,63.098],[31.586,63.129],[31.438,63.192],[31.243,63.205],[30.912,63.354],[30.479,63.481],[30.009,63.738],[30.263,63.823],[30.595,64.047],[30.613,64.094],[30.577,64.224],[30.066,64.403],[30.088,64.481],[30.01,64.513],[29.979,64.577],[30.207,64.663],[30.143,64.772],[29.807,64.795],[29.653,64.904],[29.608,65.005],[29.647,65.072],[29.869,65.12],[29.848,65.218],[29.604,65.246],[29.749,65.346],[29.745,65.512],[29.834,65.588],[29.822,65.653],[30.029,65.69],[30.12,65.668],[30.137,65.71],[30.649,65.881],[30.405,66.174],[30.491,66.323],[30.447,66.396],[30.301,66.455],[30.286,66.512],[30.344,66.586],[30.476,66.646],[30.682,66.866],[30.608,67.086],[30.52,67.218],[30.183,67.512],[30.029,67.695],[29.692,67.815],[29.361,68.085],[29.786,68.429],[30.3,68.679],[31.76,69.559],[31.682,69.608],[31.57,69.679],[31.825,69.652],[31.686,69.707],[31.736,69.818],[32.098,69.762],[31.892,69.905],[31.942,69.954],[32.503,69.79],[32.948,69.77],[33.131,69.715],[32.84,69.567],[32.178,69.634],[32.188,69.7],[32.116,69.743],[32.094,69.656],[31.953,69.628],[32.054,69.59],[32.001,69.549],[32.178,69.587],[32.502,69.502],[32.26,69.422],[32.901,69.464],[32.877,69.452],[32.804,69.415],[32.805,69.373],[32.91,69.444],[33.074,69.452],[32.815,69.326],[32.884,69.276],[33.049,69.381],[33.501,69.4],[33.358,69.298],[33.399,69.286],[33.255,69.286],[33.305,69.274],[33.21,69.253],[33.246,69.242],[33.344,69.259],[33.353,69.274],[33.454,69.264],[33.267,69.222],[33.42,69.221],[33.365,69.189],[33.383,69.182],[33.5,69.202],[33.479,69.155],[33.048,69.066],[33.005,68.886],[33.073,69.049],[33.584,69.132],[33.573,69.194],[33.64,69.176],[33.556,69.231],[33.629,69.268],[33.55,69.258],[33.579,69.3],[34.312,69.303],[34.366,69.265],[34.978,69.216],[34.937,69.166],[35.127,69.203],[35.118,69.165],[35.166,69.114],[35.129,69.169],[35.289,69.203],[35.182,69.233],[35.156,69.253],[35.83,69.19],[36.042,69.084],[36.046,69.139],[36.075,69.133],[36.061,69.12],[36.098,69.109],[36.288,69.097],[36.247,69.078],[37.805,68.645],[37.743,68.626],[38.334,68.416],[38.313,68.414],[38.365,68.362],[38.287,68.352],[38.37,68.359],[38.377,68.382],[38.387,68.386],[38.44,68.288],[38.434,68.341],[38.456,68.352],[38.444,68.339],[38.785,68.245],[38.494,68.348],[38.6,68.328],[38.648,68.375],[39.084,68.167],[39.706,68.0],[39.635,68.035],[39.87,68.033],[39.741,68.158],[40.006,67.986],[40.376,67.887],[40.273,67.84],[40.419,67.757],[40.643,67.802],[41.02,67.656],[40.948,67.44],[41.084,67.444],[41.081,67.25],[41.315,67.218],[41.278,67.138],[41.393,67.113],[41.211,66.822],[40.559,66.451],[40.003,66.256],[38.653,66.064],[37.926,66.083],[37.145,66.242],[35.554,66.384],[34.898,66.594],[34.462,66.541],[34.367,66.619],[34.505,66.632],[34.352,66.699],[34.093,66.674],[34.141,66.695],[34.184,66.746],[34.172,66.777],[34.151,66.786],[34.13,66.703],[34.064,66.681],[34.054,66.76],[34.025,66.685],[33.925,66.686],[33.772,66.765],[33.607,66.852],[33.625,66.787],[33.542,66.798],[33.565,66.772],[33.643,66.734],[33.519,66.766],[33.543,66.745],[33.631,66.714],[33.632,66.705],[33.503,66.717],[32.789,67.03],[32.998,67.084],[32.323,67.167],[31.87,67.139],[32.046,67.097],[32.255,67.122],[32.354,67.07],[32.311,67.039],[32.566,66.977],[32.417,66.947],[32.504,66.897],[32.387,66.869],[32.956,66.729],[32.859,66.712],[32.805,66.753],[32.684,66.749],[32.855,66.691],[33.319,66.638],[33.118,66.642],[33.099,66.582],[32.821,66.593],[33.196,66.538],[32.931,66.519],[33.718,66.415],[33.463,66.378],[33.666,66.335],[33.414,66.325],[33.215,66.28],[33.077,66.276],[32.982,66.249],[33.573,66.315],[33.632,66.306],[33.58,66.295],[33.563,66.276],[33.911,66.234],[33.879,66.2],[34.109,66.227],[34.141,66.167],[34.698,65.983],[34.634,65.92],[34.683,65.876],[34.857,65.866],[34.775,65.81],[34.842,65.813],[34.92,65.815],[34.837,65.754],[34.976,65.716],[34.931,65.675],[34.688,65.797],[34.66,65.794],[34.683,65.694],[34.773,65.686],[34.686,65.668],[34.797,65.581],[34.737,65.583],[34.754,65.529],[34.633,65.487],[34.689,65.436],[34.456,65.43],[34.531,65.406],[34.474,65.407],[34.509,65.39],[34.501,65.388],[34.353,65.406],[34.443,65.367],[34.362,65.381],[34.307,65.38],[34.271,65.371],[34.5,65.328],[34.446,65.317],[34.457,65.269],[34.66,65.194],[34.599,65.196],[34.691,65.157],[34.637,65.141],[34.686,65.079],[34.783,65.079],[34.774,64.995],[34.831,65.022],[34.782,64.981],[34.608,64.951],[34.769,64.953],[34.921,64.834],[34.961,64.836],[34.78,64.732],[34.913,64.633],[34.99,64.611],[34.859,64.538],[34.781,64.526],[34.759,64.534],[34.731,64.531],[34.7,64.524],[34.683,64.509],[34.772,64.525],[34.787,64.51],[34.83,64.514],[34.809,64.502],[34.868,64.503],[34.889,64.48],[35.011,64.506],[34.964,64.418],[35.404,64.284],[35.698,64.362],[35.955,64.191],[36.241,64.128],[36.176,64.074],[36.3,63.971],[37.205,63.877],[37.311,63.798],[38.01,63.936],[38.06,64.071],[37.891,64.212],[38.01,64.288],[37.788,64.368],[37.791,64.438],[37.615,64.355],[37.11,64.401],[36.738,64.689],[36.534,64.717],[36.5,64.822],[36.571,64.812],[36.438,64.922],[36.811,64.957],[36.827,65.138],[37.046,65.168],[37.677,65.029],[37.872,64.896],[38.37,64.843],[38.368,64.763],[38.007,64.757],[38.125,64.673],[37.994,64.614],[38.013,64.584],[38.15,64.656],[38.158,64.711],[38.516,64.781],[39.527,64.55],[39.756,64.539],[39.862,64.666],[39.893,64.66],[39.89,64.658],[39.89,64.657],[40.216,64.553],[40.524,64.541],[40.516,64.594],[40.418,64.719],[40.447,64.735],[40.448,64.736],[40.399,64.863],[40.413,64.857],[40.376,64.924],[40.279,65.012],[40.236,65.029],[40.236,65.013],[40.236,65.012],[39.724,65.336],[39.765,65.566],[40.486,65.812],[40.743,65.984],[41.523,66.121],[42.206,66.51],[42.632,66.393],[43.259,66.411],[43.349,66.32],[43.6,66.294],[44.072,66.066],[44.019,65.983],[44.194,65.812],[44.214,65.832],[44.18,65.869],[44.234,65.846],[44.222,65.861],[44.191,65.87],[44.189,65.876],[44.185,65.88],[44.178,65.882],[44.167,65.885],[44.166,65.929],[44.113,65.973],[44.109,65.977],[44.108,65.977],[44.105,65.979],[44.101,65.979],[44.089,65.979],[44.084,65.986],[44.182,66.041],[44.073,66.221],[44.192,66.368],[44.259,66.355],[44.266,66.363],[44.331,66.359],[44.562,66.26],[44.848,66.188],[45.731,66.019],[45.836,66.037],[46.339,65.979],[47.104,65.772],[47.406,65.786],[47.665,65.758],[47.797,65.81],[47.8,65.909],[48.156,66.077],[49.019,66.071],[51.523,66.735],[51.598,66.786],[51.565,66.885],[51.822,66.905],[51.876,66.953],[52.165,67.036],[53.772,66.949],[59.822,66.951],[59.92,66.904],[60.088,66.94],[61.631,66.962],[61.872,67.08],[62.844,67.343],[62.897,67.418],[62.921,67.551],[63.126,67.628],[63.426,67.717],[63.699,67.713],[63.759,67.767],[63.892,67.791],[63.992,67.867],[63.958,67.998],[64.339,68.086],[64.425,68.15],[64.553,68.156],[64.583,68.217],[64.572,68.311],[64.764,68.356],[65.008,68.339],[65.34,68.372],[65.228,68.246],[65.271,68.086],[65.25,67.982],[65.431,67.87],[65.786,67.874],[65.912,67.908],[66.004,67.882],[65.979,67.769],[66.134,67.706],[65.99,67.728],[65.824,67.697],[65.748,67.574],[65.787,67.514],[66.018,67.523],[66.037,67.498],[65.961,67.451],[65.675,67.432],[65.625,67.355],[65.167,67.189],[65.147,67.112],[65.07,67.1],[65.031,67.059],[65.058,66.934],[64.564,66.847],[64.494,66.777],[64.396,66.771],[64.289,66.713],[63.969,66.7],[63.785,66.593],[63.533,66.521],[63.396,66.526],[63.262,66.431],[63.188,66.311],[63.08,66.293],[62.98,66.234],[62.922,66.153],[62.827,66.11],[62.751,65.917],[62.51,65.887],[61.979,65.748],[61.992,65.675],[62.244,65.581],[62.333,65.484],[62.334,65.418],[62.456,65.306],[62.757,65.254],[62.752,65.064],[62.628,64.893],[62.654,64.834],[62.739,64.81],[62.744,64.752],[62.559,64.678],[62.484,64.575],[62.504,64.519],[62.679,64.445],[62.894,64.427],[63.231,64.473],[63.429,64.409],[63.366,64.344],[63.385,64.287],[63.609,64.219],[63.896,64.235],[64.026,64.307],[64.487,64.311],[64.614,64.385],[64.763,64.377],[64.996,64.415],[65.187,64.397],[65.41,64.522],[65.885,64.519],[66.023,64.544],[66.464,64.462],[66.681,64.507],[66.878,64.459],[66.748,64.338],[66.749,64.242],[66.796,64.181],[67.111,64.12],[67.269,64.032],[67.671,64.028],[67.795,63.982],[67.947,64.067],[68.194,64.129],[68.431,64.244],[68.901,64.176],[69.035,64.306],[69.034,64.354],[68.978,64.407],[69.022,64.422],[69.222,64.418],[69.386,64.339],[69.715,64.346],[69.809,64.294],[69.996,64.266],[70.291,64.295],[70.459,64.204],[70.729,64.156],[70.54,64.055],[70.51,63.987],[70.61,63.861],[70.785,63.778],[70.888,63.65],[71.373,63.626],[71.511,63.556],[71.559,63.175],[71.597,63.136],[71.806,63.168],[71.974,63.148],[72.166,63.249],[72.663,63.231],[72.929,63.347],[73.096,63.383],[73.248,63.278],[73.356,63.159],[74.229,63.122],[74.501,62.994],[74.918,62.982],[75.364,63.057],[75.853,63.061],[76.214,62.973],[76.295,62.9],[76.68,62.989],[76.813,62.943],[76.997,62.929],[77.134,62.747],[77.31,62.664],[77.865,62.512],[77.941,62.435],[78.012,62.412],[78.385,62.518],[78.796,62.565],[79.829,62.554],[79.891,62.588],[79.958,62.757],[80.571,62.954],[80.634,63.038],[81.072,63.064],[81.138,62.938],[81.278,62.85],[81.312,62.784],[81.572,62.728],[81.774,62.64],[82.161,62.759],[82.31,62.72],[82.691,62.709],[82.711,62.64],[82.967,62.555],[83.011,62.485],[83.276,62.411],[83.786,62.51],[83.906,62.447],[83.998,62.352],[84.216,62.327],[84.252,62.243],[84.363,62.197],[84.441,62.085],[84.481,61.895],[84.663,61.761],[85.079,61.704],[85.268,61.625],[85.388,61.637],[85.478,61.569],[85.703,61.524],[85.838,61.542],[85.918,61.508],[85.934,61.42],[86.119,61.33],[86.227,61.332],[86.327,61.404],[86.467,61.364],[86.497,61.312],[86.592,61.267],[86.776,61.272],[86.997,61.32],[87.041,61.397],[87.233,61.31],[87.415,61.305],[87.452,61.223],[87.563,61.164],[87.714,61.227],[87.783,61.312],[87.958,61.27],[88.173,61.293],[88.946,60.701],[89.872,60.76],[90.944,60.701],[91.97,60.706],[92.165,60.793],[92.187,60.868],[92.274,60.928],[92.446,60.928],[92.504,60.963],[92.521,61.006],[92.466,61.101],[92.482,61.151],[92.543,61.148],[92.744,61.044],[92.928,61.031],[92.982,61.145],[92.805,61.294],[92.832,61.312],[93.098,61.29],[93.125,61.213],[93.329,61.057],[93.471,61.037],[93.561,61.059],[93.726,60.994],[93.91,61.011],[94.024,60.915],[94.276,61.075],[94.39,61.074],[94.546,61.125],[94.702,61.111],[95.072,61.052],[95.338,60.861],[95.28,60.737],[95.377,60.688],[95.206,60.599],[95.19,60.464],[95.101,60.459],[94.994,60.405],[94.884,60.241],[94.938,60.168],[94.938,60.09],[94.988,60.055],[94.961,60.007],[94.981,59.944],[95.082,59.831],[95.118,59.694],[95.229,59.594],[95.488,59.592],[95.577,59.533],[95.723,59.509],[95.888,59.582],[95.941,59.582],[96.049,59.511],[96.22,59.564],[96.258,59.474],[96.348,59.426],[96.465,59.43],[96.563,59.493],[96.786,59.502],[97.125,59.456],[97.245,59.495],[97.283,59.591],[97.485,59.685],[97.696,59.634],[98.06,59.679],[98.133,59.721],[98.342,59.678],[98.455,59.735],[98.61,59.717],[98.858,59.775],[98.922,59.723],[99.009,59.727],[99.132,59.807],[99.157,59.871],[99.428,59.988],[99.465,60.042],[99.644,60.07],[100.028,59.956],[100.021,59.9],[100.057,59.853],[100.187,59.811],[100.414,59.811],[100.546,59.744],[100.754,59.72],[100.862,59.738],[101.018,59.669],[101.444,59.638],[101.574,59.695],[101.72,59.694],[101.767,59.643],[102.105,59.544],[102.245,59.548],[102.404,59.603],[102.413,59.505],[102.481,59.453],[102.434,59.387],[102.463,59.291],[102.392,59.207],[102.465,59.14],[102.828,59.143],[102.926,59.229],[103.016,59.255],[103.171,59.206],[103.2,59.141],[103.265,59.11],[103.366,58.987],[103.531,58.949],[103.605,58.877],[103.894,58.869],[103.899,58.807],[103.837,58.756],[103.869,58.692],[103.977,58.678],[104.063,58.734],[104.114,58.73],[104.241,58.668],[104.293,58.673],[104.384,58.585],[104.469,58.559],[104.837,58.633],[104.944,58.743],[104.925,58.787],[104.835,58.824],[104.855,58.852],[105.161,59.008],[105.321,59.029],[105.415,59.102],[105.381,59.223],[105.268,59.324],[105.292,59.43],[105.272,59.477],[105.153,59.535],[105.008,59.512],[104.928,59.569],[104.926,59.629],[104.859,59.683],[105.047,59.734],[105.096,59.818],[105.468,59.781],[105.541,59.801],[105.565,59.841],[105.493,59.932],[105.555,59.996],[105.49,60.126],[105.556,60.211],[105.538,60.267],[105.35,60.348],[105.226,60.327],[104.918,60.351],[104.725,60.442],[104.687,60.546],[104.602,60.628],[104.659,60.73],[104.588,60.823],[104.678,60.881],[104.661,60.954],[104.694,61.035],[104.878,61.14],[105.08,61.142],[105.077,61.237],[104.995,61.352],[105.296,61.376],[105.366,61.476],[105.605,61.545],[105.657,61.597],[105.821,61.58],[106.01,61.65],[106.029,61.698],[105.977,61.828],[106.295,61.977],[106.425,62.002],[106.535,62.345],[106.794,62.465],[106.779,62.55],[106.85,62.6],[106.831,62.659],[106.569,62.74],[106.556,62.816],[106.467,62.903],[106.249,62.971],[106.213,63.033],[106.433,63.091],[106.488,63.21],[106.458,63.292],[106.633,63.268],[106.777,63.368],[106.761,63.446],[106.628,63.519],[106.735,63.643],[106.695,63.72],[106.712,63.751],[106.835,63.849],[106.82,63.936],[107.084,63.875],[107.284,63.925],[107.328,63.86],[107.52,63.847],[107.623,63.866],[107.755,63.967],[108.319,63.961],[108.438,64.039],[108.333,64.244],[108.257,64.299],[108.076,64.296],[108.005,64.236],[107.649,64.36],[107.356,64.315],[107.27,64.394],[107.14,64.403],[106.924,64.488],[106.762,64.477],[106.662,64.579],[106.57,64.592],[106.52,64.569],[106.498,64.509],[106.189,64.474],[106.166,64.524],[106.039,64.589],[105.842,64.551],[105.794,64.61],[105.912,64.649],[105.902,64.78],[105.985,64.773],[106.04,64.822],[106.194,64.815],[106.248,64.843],[106.248,64.903],[106.151,64.947],[106.112,65.019],[106.218,65.084],[106.332,65.099],[106.417,65.173],[106.55,65.176],[106.572,65.24],[106.51,65.282],[106.569,65.33],[106.837,65.332],[107.018,65.504],[106.989,65.552],[106.81,65.571],[106.726,65.647],[106.506,65.708],[106.56,66.027],[106.359,66.199],[106.176,66.215],[106.174,66.349],[106.355,66.429],[106.382,66.468],[106.365,66.543],[106.299,66.599],[106.3,66.707],[106.234,66.744],[106.258,66.818],[106.15,66.849],[106.104,66.939],[105.896,66.976],[105.975,66.999],[106.117,67.119],[106.356,67.153],[106.459,67.219],[106.745,67.22],[106.868,67.315],[106.924,67.663],[106.971,68.255],[106.952,68.878],[106.254,69.399],[106.366,69.433],[106.486,69.529],[106.577,69.52],[106.624,69.478],[106.858,69.473],[107.615,69.611],[107.965,69.62],[108.052,69.661],[108.097,69.738],[108.272,69.803],[108.865,69.788],[108.939,69.721],[109.202,69.705],[109.323,69.73],[109.428,69.798],[109.459,69.93],[109.55,69.948],[109.592,69.997],[109.58,70.065],[109.413,70.108],[109.409,70.164],[109.602,70.21],[109.66,70.26],[109.666,70.322],[110.349,70.373],[110.353,70.464],[110.192,70.505],[110.189,70.584],[110.224,70.611],[110.466,70.658],[110.627,70.736],[110.852,70.734],[111.068,70.796],[111.383,70.813],[111.501,70.881],[111.947,70.926],[112.053,71.005],[112.254,70.951],[112.363,71.021],[112.629,71.067],[112.644,71.14],[112.769,71.228],[112.752,71.294],[112.611,71.344],[112.497,71.326],[112.235,71.426],[112.051,71.447],[112.033,72.163],[111.769,72.211],[111.675,72.336],[111.589,72.372],[111.348,72.366],[111.198,72.406],[111.34,72.462],[111.344,72.546],[111.19,72.606],[110.964,72.631],[110.929,72.677],[110.767,72.711],[110.748,72.754],[110.794,72.794],[110.778,72.856],[110.911,72.885],[110.957,72.928],[110.945,72.974],[110.887,73.005],[110.911,73.053],[110.881,73.104],[110.898,73.175],[110.858,73.21],[110.664,73.215],[110.67,73.292],[110.587,73.364],[110.91,73.515],[111.133,73.529],[111.31,73.57],[111.342,73.605],[111.313,73.662],[111.197,73.712],[111.047,73.728],[111.0,73.746],[111.016,73.766],[111.217,73.767],[111.295,73.798],[111.283,73.804],[111.273,73.811],[111.373,73.829],[111.879,73.728],[112.826,73.719],[112.998,73.795],[112.892,73.963],[113.176,73.868],[113.457,73.637],[113.182,73.445],[113.555,73.34],[113.48,73.227],[113.589,73.134],[113.669,73.162],[113.583,73.232],[113.77,73.322],[113.833,73.324],[113.872,73.347],[113.509,73.505],[114.211,73.595],[114.921,73.599],[115.063,73.633],[115.079,73.653],[115.15,73.639],[115.259,73.633],[115.187,73.666],[115.255,73.677],[115.251,73.696],[115.34,73.705],[118.664,73.559],[119.025,73.481],[118.471,73.48],[118.347,73.41],[118.389,73.239],[118.535,73.173],[119.697,72.99],[121.074,72.924],[121.729,72.967],[122.729,72.819],[123.343,72.728],[123.788,72.756],[124.109,72.711],[124.343,72.641],[124.737,72.624],[125.138,72.532],[125.256,72.452],[125.456,72.424],[125.647,72.342],[126.0,72.298],[125.98,72.344],[125.725,72.365],[125.315,72.474],[125.156,72.56],[124.865,72.608],[124.719,72.676],[124.383,72.673],[124.121,72.762],[123.307,72.854],[123.326,72.861],[122.535,73.001],[122.743,73.033],[122.755,73.015],[122.992,72.968],[122.81,72.969],[123.162,72.896],[123.434,72.968],[123.389,73.045],[123.489,73.113],[123.724,73.097],[123.459,73.161],[123.745,73.203],[123.575,73.197],[123.487,73.239],[123.571,73.273],[123.368,73.343],[123.527,73.38],[123.425,73.372],[123.267,73.396],[123.345,73.389],[123.38,73.399],[123.354,73.453],[123.393,73.419],[123.517,73.393],[123.327,73.472],[123.386,73.499],[123.324,73.544],[123.432,73.533],[123.458,73.541],[123.363,73.576],[123.514,73.555],[123.428,73.65],[123.526,73.605],[123.592,73.692],[123.704,73.695],[123.611,73.611],[123.766,73.563],[124.003,73.595],[124.046,73.665],[124.297,73.706],[124.224,73.737],[124.292,73.731],[124.356,73.797],[124.513,73.731],[124.747,73.742],[124.748,73.687],[124.917,73.719],[124.845,73.678],[124.944,73.647],[125.032,73.698],[125.011,73.597],[125.164,73.704],[125.129,73.629],[125.264,73.607],[125.196,73.509],[125.24,73.562],[125.296,73.571],[125.331,73.5],[125.38,73.586],[125.432,73.525],[125.427,73.561],[125.451,73.582],[125.475,73.58],[125.462,73.517],[125.5,73.493],[125.68,73.527],[125.673,73.446],[125.547,73.447],[125.574,73.371],[125.709,73.464],[125.897,73.429],[125.803,73.453],[125.928,73.524],[125.982,73.478],[126.089,73.477],[126.303,73.55],[126.445,73.507],[126.383,73.479],[126.455,73.435],[126.129,73.443],[126.365,73.389],[126.253,73.391],[126.131,73.358],[126.342,73.345],[126.457,73.386],[126.533,73.362],[126.704,73.367],[126.821,73.446],[126.868,73.375],[126.952,73.37],[126.895,73.412],[127.034,73.408],[127.039,73.521],[127.354,73.505],[127.345,73.458],[127.38,73.41],[127.558,73.443],[127.566,73.459],[127.526,73.473],[127.54,73.486],[127.593,73.462],[127.843,73.469],[127.724,73.398],[127.721,73.379],[127.75,73.381],[127.864,73.389],[127.925,73.406],[127.989,73.406],[127.936,73.403],[127.878,73.383],[128.106,73.41],[127.988,73.36],[127.944,73.324],[128.01,73.318],[128.457,73.35],[128.47,73.344],[128.421,73.34],[128.396,73.334],[128.365,73.323],[128.257,73.259],[128.282,73.25],[128.249,73.245],[128.165,73.224],[128.169,73.199],[128.177,73.196],[128.314,73.199],[128.451,73.237],[128.756,73.246],[128.704,73.221],[128.743,73.213],[128.902,73.208],[128.896,73.194],[128.932,73.205],[128.8,73.14],[128.962,73.088],[129.098,73.127],[129.021,73.039],[129.126,73.033],[128.801,72.934],[128.363,72.92],[128.41,72.898],[128.285,72.871],[128.272,72.841],[128.294,72.801],[128.171,72.77],[128.006,72.781],[127.853,72.761],[127.684,72.689],[127.588,72.704],[127.403,72.699],[126.582,72.522],[126.56,72.441],[127.796,72.324],[127.9,72.255],[127.787,72.242],[128.257,72.111],[128.613,71.889],[128.637,71.823],[128.646,71.798],[128.659,71.795],[128.967,71.715],[129.271,71.814],[129.12,72.006],[129.603,71.706],[129.406,71.757],[128.982,71.707],[128.846,71.648],[128.918,71.59],[129.239,71.599],[129.465,71.303],[129.84,71.117],[130.167,71.07],[130.361,70.902],[130.711,70.848],[130.856,70.965],[130.935,70.765],[131.077,70.706],[131.332,70.726],[131.623,70.86],[131.864,71.067],[131.784,71.117],[131.955,71.149],[131.85,71.162],[131.929,71.202],[132.205,71.212],[132.154,71.226],[132.143,71.229],[132.052,71.231],[132.054,71.243],[132.002,71.24],[131.987,71.259],[132.294,71.676],[132.722,71.94],[132.719,71.875],[132.729,71.878],[132.73,71.866],[132.719,71.858],[132.719,71.857],[132.716,71.769],[132.958,71.738],[133.329,71.528],[134.069,71.381],[134.725,71.399],[134.821,71.367],[134.749,71.317],[134.758,71.266],[134.869,71.363],[134.769,71.415],[134.891,71.394],[134.886,71.399],[134.983,71.387],[135.015,71.385],[135.05,71.389],[135.024,71.404],[134.885,71.419],[134.835,71.469],[134.97,71.47],[134.975,71.471],[134.924,71.492],[135.846,71.65],[136.342,71.6],[136.276,71.589],[136.29,71.585],[136.584,71.58],[136.615,71.518],[136.875,71.534],[136.965,71.469],[137.126,71.418],[137.389,71.392],[137.324,71.353],[137.384,71.364],[137.406,71.378],[137.414,71.382],[137.49,71.372],[137.424,71.372],[137.473,71.356],[137.425,71.348],[137.417,71.335],[137.383,71.332],[137.401,71.329],[137.407,71.329],[137.418,71.333],[137.431,71.348],[137.502,71.348],[137.526,71.367],[137.587,71.362],[137.548,71.263],[137.743,71.22],[137.735,71.195],[137.851,71.15],[137.846,71.109],[137.978,71.155],[138.072,71.09],[138.17,71.135],[137.819,71.234],[138.29,71.234],[138.358,71.278],[138.033,71.3],[138.49,71.304],[137.863,71.388],[138.08,71.464],[138.122,71.569],[138.196,71.557],[138.153,71.574],[138.127,71.573],[138.105,71.565],[138.136,71.6],[138.2,71.576],[138.252,71.577],[138.344,71.589],[138.38,71.584],[138.464,71.587],[138.517,71.526],[138.662,71.548],[138.611,71.61],[138.85,71.634],[139.15,71.579],[139.236,71.403],[139.409,71.406],[139.483,71.493],[139.793,71.442],[140.019,71.472],[140.022,71.474],[140.04,71.481],[139.992,71.503],[139.96,71.531],[140.035,71.492],[140.087,71.519],[139.786,71.688],[139.78,71.829],[139.856,71.852],[139.762,71.889],[139.841,71.891],[139.624,71.94],[139.382,71.918],[139.377,71.976],[139.502,72.047],[139.452,71.971],[139.632,71.952],[139.958,72.091],[139.891,72.101],[139.952,72.163],[140.121,72.132],[140.542,72.187],[140.606,72.256],[140.3,72.179],[140.058,72.274],[139.415,72.148],[139.198,72.176],[139.156,72.264],[139.589,72.488],[140.54,72.469],[141.301,72.585],[140.711,72.863],[140.865,72.876],[141.94,72.719],[144.454,72.628],[146.869,72.338],[145.392,72.337],[145.24,72.43],[144.956,72.431],[144.495,72.229],[144.26,72.255],[144.415,72.157],[145.211,72.262],[146.955,72.305],[145.983,71.863],[146.004,72.044],[146.305,72.131],[146.045,72.158],[146.098,72.115],[146.0,72.104],[146.0,72.06],[145.957,72.093],[146.071,72.211],[145.878,72.146],[145.851,72.202],[145.93,72.179],[145.948,72.187],[145.743,72.254],[145.49,72.25],[145.675,72.207],[145.81,72.216],[145.627,72.087],[145.802,72.029],[145.84,71.938],[145.337,71.863],[145.028,71.938],[145.229,71.837],[144.91,71.766],[144.992,71.73],[144.944,71.725],[144.945,71.7],[145.006,71.688],[145.07,71.688],[145.044,71.646],[145.107,71.686],[145.191,71.659],[145.329,71.68],[145.336,71.651],[145.416,71.655],[146.058,71.772],[147.14,72.305],[148.384,72.319],[149.557,72.145],[150.111,71.878],[149.702,71.747],[149.52,71.878],[149.357,71.882],[149.413,71.875],[148.861,71.678],[149.138,71.696],[149.554,71.641],[149.763,71.641],[149.892,71.662],[149.982,71.654],[150.012,71.643],[149.982,71.634],[150.023,71.543],[149.993,71.529],[149.989,71.521],[150.0,71.513],[150.069,71.51],[150.249,71.544],[150.074,71.503],[150.085,71.494],[150.662,71.498],[150.704,71.445],[150.985,71.375],[151.577,71.309],[152.072,70.993],[151.919,70.965],[151.609,70.991],[151.601,70.992],[151.449,70.969],[151.516,70.956],[152.534,70.81],[152.985,70.806],[153.675,70.844],[155.0,71.002],[155.561,71.014],[155.861,71.07],[157.146,71.07],[158.436,70.958],[159.583,70.692],[159.939,70.471],[160.096,70.253],[159.865,69.98],[159.701,69.895],[159.687,69.884],[159.686,69.883],[159.688,69.868],[159.677,69.874],[159.791,69.805],[159.636,69.832],[160.54,69.585],[160.578,69.587],[160.548,69.595],[160.619,69.605],[160.625,69.623],[160.531,69.591],[160.467,69.631],[160.497,69.649],[160.478,69.666],[160.873,69.609],[160.843,69.6],[160.82,69.58],[160.786,69.588],[160.684,69.549],[161.064,69.598],[161.05,69.622],[161.883,69.651],[161.876,69.618],[162.182,69.586],[162.238,69.604],[162.221,69.635],[162.293,69.626],[162.302,69.567],[162.289,69.566],[162.28,69.566],[162.27,69.556],[162.262,69.531],[162.325,69.457],[162.331,69.383],[162.464,69.344],[162.511,69.267],[162.661,69.204],[162.47,69.139],[162.447,69.077],[162.489,68.979],[162.727,68.886],[162.74,68.857],[162.555,68.829],[162.566,68.682],[162.657,68.617],[162.547,68.542],[162.537,68.47],[162.479,68.391],[162.413,68.362],[161.404,68.462],[161.213,68.432],[160.985,68.351],[159.844,68.327],[159.753,68.265],[159.549,68.289],[158.925,68.194],[158.625,68.191],[158.234,68.113],[158.16,67.995],[158.05,67.969],[158.008,67.916],[158.012,67.835],[158.059,67.787],[157.911,67.785],[157.785,67.751],[157.713,67.697],[157.642,67.528],[157.722,67.436],[157.784,67.416],[157.735,67.334],[157.839,67.228],[158.341,67.068],[158.676,67.01],[158.815,66.84],[158.82,66.809],[158.688,66.773],[158.593,66.649],[158.357,66.508],[158.309,66.446],[158.332,66.406],[158.512,66.312],[158.629,66.301],[158.767,66.235],[159.148,66.185],[159.018,66.084],[158.886,65.921],[158.84,65.784],[158.884,65.707],[159.822,65.48],[160.009,65.468],[160.121,65.417],[160.125,65.36],[160.18,65.307],[160.38,65.215],[160.506,65.118],[161.272,65.091],[161.401,65.021],[161.659,64.953],[161.681,64.887],[161.793,64.779],[162.285,64.693],[162.544,64.698],[162.728,64.612],[163.062,64.608],[163.157,64.663],[163.189,64.768],[163.359,64.77],[163.527,64.879],[163.874,64.815],[164.032,64.826],[164.189,64.883],[164.769,64.725],[164.876,64.636],[165.049,64.654],[165.079,64.739],[165.063,64.797],[165.255,64.801],[165.348,64.713],[165.669,64.705],[165.771,64.608],[165.793,64.539],[165.864,64.505],[166.064,64.512],[166.196,64.559],[166.81,64.483],[167.02,64.503],[167.22,64.572],[167.349,64.45],[167.475,64.429],[167.701,64.293],[167.805,64.299],[168.023,64.236],[168.164,64.242],[168.232,64.296],[168.484,64.268],[168.604,64.169],[168.717,64.15],[168.836,63.982],[169.103,63.903],[169.293,63.901],[169.345,63.832],[169.493,63.789],[169.508,63.722],[169.446,63.614],[169.186,63.562],[168.764,63.344],[168.731,63.297],[168.66,63.283],[168.632,63.239],[168.428,63.128],[168.425,63.046],[168.919,62.894],[169.113,62.923],[169.496,62.767],[169.64,62.662],[169.836,62.606],[169.956,62.608],[169.937,62.535],[169.991,62.479],[170.002,62.415],[170.129,62.302],[170.265,62.232],[170.418,62.263],[170.865,62.2],[170.919,62.23],[171.096,62.243],[171.136,62.292],[171.199,62.305],[171.254,62.276],[171.337,62.293],[171.49,62.262],[171.87,62.333],[172.055,62.416],[172.19,62.402],[172.29,62.354],[172.482,62.388],[172.685,62.354],[172.857,62.282],[172.931,62.342],[173.178,62.346],[173.511,62.481],[173.69,62.483],[173.86,62.392],[174.04,62.399],[173.961,62.274],[174.05,62.167],[174.066,62.051],[174.227,62.016],[174.295,62.039],[174.393,61.965],[174.407,61.887],[174.407,61.88],[174.401,61.82],[173.835,61.644],[173.52,61.723],[173.507,61.556],[173.319,61.523],[173.171,61.394],[172.79,61.439],[172.739,61.401],[172.97,61.284],[172.65,61.166],[172.374,61.22],[172.364,61.114],[172.241,61.131],[172.472,61.072],[172.423,61.012],[172.01,61.087],[172.215,60.948],[172.074,60.838],[172.007,60.887],[171.71,60.833],[171.634,60.719],[171.395,60.614],[170.643,60.41],[170.691,60.313],[170.525,60.255],[170.427,59.971],[170.323,59.931],[169.957,60.073],[169.668,60.425],[169.231,60.548],[168.476,60.597],[167.797,60.531],[167.787,60.47],[167.228,60.339],[167.067,60.404],[167.118,60.409],[167.003,60.415],[167.074,60.307],[166.787,60.227],[166.861,60.214],[166.286,59.81],[166.09,59.812],[166.209,60.128],[166.314,60.196],[166.285,60.244],[166.291,60.321],[166.253,60.368],[166.259,60.396],[166.389,60.408],[166.268,60.473],[165.228,60.087],[165.171,60.143],[165.027,60.101],[165.166,60.079],[165.215,59.986],[164.836,59.782],[164.716,59.996],[164.49,60.1],[164.342,60.089],[164.344,59.994],[164.143,59.935],[164.2,59.853],[164.067,59.894],[164.214,59.991],[163.647,60.01],[163.696,59.956],[163.835,59.992],[163.691,59.877],[163.434,59.837],[163.37,59.731],[163.416,59.622],[163.361,59.592],[163.278,59.591],[163.192,59.561],[163.214,59.567],[163.205,59.559],[163.19,59.528],[163.189,59.514],[163.194,59.51],[163.212,59.532],[163.275,59.555],[163.206,59.486],[163.348,59.303],[163.342,59.273],[163.296,59.23],[163.272,59.216],[163.338,59.285],[163.078,59.253],[163.196,59.096],[162.904,59.113],[163.072,58.992],[162.411,58.657],[162.133,58.37],[161.989,58.087],[162.056,57.909],[162.319,57.79],[162.355,57.662],[162.53,57.751],[162.552,57.929],[162.698,57.95],[163.212,57.819],[163.322,57.725],[163.097,57.484],[162.782,57.351],[162.853,57.031],[162.777,56.781],[162.933,56.693],[163.232,56.742],[163.25,56.443],[163.362,56.184],[163.054,56.006],[162.817,56.062],[162.619,56.227],[162.077,56.08],[161.788,55.638],[161.741,55.385],[161.863,55.085],[162.155,54.853],[162.14,54.753],[161.715,54.505],[161.288,54.48],[161.071,54.593],[160.719,54.528],[159.985,54.109],[160.037,54.163],[159.993,54.161],[159.841,53.76],[159.956,53.495],[159.838,53.434],[159.974,53.327],[159.903,53.256],[159.947,53.211],[159.963,53.252],[160.022,53.263],[160.036,53.098],[159.743,53.205],[159.814,53.276],[159.711,53.218],[159.576,53.252],[159.091,53.108],[158.713,52.887],[158.611,53.051],[158.42,53.017],[158.43,52.894],[158.646,52.898],[158.481,52.77],[158.602,52.694],[158.549,52.627],[158.388,52.65],[158.526,52.528],[158.397,52.408],[158.561,52.418],[158.483,52.344],[158.549,52.291],[158.393,52.227],[158.273,51.963],[157.911,51.629],[157.537,51.487],[156.669,50.866],[156.76,51.074],[156.715,51.199],[156.534,51.322],[156.443,52.225],[156.147,52.848],[155.558,55.199],[155.651,55.966],[155.99,56.682],[156.472,56.957],[156.553,57.102],[156.737,57.076],[157.0,57.436],[156.907,57.67],[156.773,57.725],[156.855,57.802],[157.006,57.855],[157.349,57.771],[157.526,57.822],[157.678,58.016],[157.984,57.98],[158.332,58.075],[159.084,58.432],[159.713,58.851],[159.719,58.978],[159.858,59.127],[160.394,59.387],[160.496,59.556],[160.897,59.628],[161.493,60.043],[161.919,60.208],[161.951,60.423],[162.705,60.608],[162.891,60.752],[163.73,60.872],[163.768,60.92],[163.487,61.007],[163.937,61.223],[164.029,61.35],[163.751,61.469],[163.872,61.652],[164.054,61.684],[164.136,62.254],[164.531,62.44],[165.021,62.402],[165.091,62.487],[164.72,62.575],[164.582,62.691],[164.367,62.712],[163.257,62.543],[163.172,62.429],[163.373,62.334],[163.086,62.22],[163.137,62.045],[162.966,61.809],[163.336,61.71],[163.325,61.659],[163.121,61.619],[163.019,61.513],[162.834,61.715],[162.616,61.665],[162.749,61.628],[162.754,61.591],[162.389,61.663],[162.008,61.383],[161.876,61.429],[161.897,61.339],[161.815,61.373],[161.784,61.301],[161.543,61.253],[161.581,61.188],[160.911,60.898],[160.79,60.717],[160.686,60.772],[160.407,60.702],[160.44,60.747],[160.426,60.759],[160.168,60.575],[160.145,60.655],[160.255,60.713],[160.175,60.827],[160.387,60.906],[160.336,60.93],[160.443,61.036],[159.788,60.933],[160.005,61.107],[159.938,61.245],[159.768,61.239],[159.966,61.264],[159.881,61.321],[160.084,61.378],[160.107,61.441],[160.035,61.454],[160.279,61.554],[160.323,61.664],[160.254,61.692],[160.41,61.762],[160.365,61.939],[160.03,61.846],[159.896,61.711],[159.696,61.73],[159.576,61.652],[159.512,61.708],[159.572,61.817],[159.471,61.764],[159.351,61.817],[159.397,61.833],[159.396,61.877],[159.157,61.922],[158.886,61.905],[158.81,61.814],[158.251,61.822],[158.08,61.731],[157.433,61.786],[156.899,61.539],[156.672,61.519],[156.657,61.203],[155.929,60.929],[155.988,60.909],[155.906,60.709],[155.811,60.728],[154.864,60.313],[154.534,60.054],[154.485,59.932],[154.5,60.019],[154.522,60.047],[154.585,60.105],[154.411,60.066],[154.48,59.886],[154.209,59.878],[154.274,59.662],[154.211,59.651],[154.146,59.534],[154.076,59.524],[154.126,59.458],[154.303,59.439],[154.393,59.536],[154.414,59.421],[154.515,59.413],[154.413,59.551],[154.646,59.542],[154.795,59.464],[154.972,59.496],[155.21,59.347],[155.155,59.292],[155.202,59.237],[154.806,59.191],[154.807,59.128],[154.334,59.209],[154.355,59.109],[154.041,59.047],[153.685,59.185],[153.785,59.246],[153.638,59.19],[153.388,59.248],[153.268,59.092],[152.998,59.056],[152.907,58.907],[152.548,58.952],[152.354,59.061],[152.395,59.008],[152.172,58.987],[152.067,58.887],[151.345,58.837],[151.102,59.106],[152.081,59.145],[152.322,59.23],[152.141,59.305],[151.738,59.3],[151.771,59.356],[151.668,59.454],[151.409,59.605],[150.915,59.566],[150.939,59.455],[150.761,59.433],[150.754,59.488],[150.5,59.485],[150.772,59.563],[150.576,59.543],[150.458,59.617],[149.597,59.758],[149.045,59.616],[149.227,59.463],[148.934,59.452],[148.875,59.551],[148.716,59.458],[148.74,59.36],[148.984,59.377],[148.929,59.234],[148.417,59.254],[148.402,59.376],[148.242,59.409],[147.878,59.385],[147.786,59.343],[147.848,59.302],[147.796,59.262],[147.638,59.308],[147.543,59.236],[146.507,59.465],[146.304,59.391],[146.351,59.205],[146.047,59.141],[145.827,59.246],[145.971,59.404],[145.803,59.366],[145.698,59.427],[143.255,59.361],[142.283,59.132],[141.563,58.612],[140.766,58.294],[140.489,57.843],[140.006,57.704],[139.793,57.486],[138.927,57.143],[138.87,57.013],[138.627,56.967],[138.272,56.62],[138.126,56.594],[138.143,56.458],[137.918,56.365],[137.724,56.136],[137.553,56.107],[137.395,55.947],[137.292,55.962],[136.757,55.644],[136.42,55.568],[136.136,55.29],[135.468,55.059],[135.174,54.849],[135.257,54.74],[135.666,54.659],[135.763,54.563],[136.831,54.645],[136.882,54.564],[136.74,54.413],[136.815,54.135],[136.673,53.917],[136.796,53.762],[136.944,53.853],[137.196,53.849],[137.304,54.034],[137.158,54.036],[137.082,54.127],[137.189,54.21],[137.394,54.305],[137.736,54.319],[137.297,54.06],[137.601,53.953],[137.855,53.965],[137.608,53.834],[137.497,53.654],[137.218,53.595],[137.313,53.533],[137.952,53.582],[138.305,53.742],[138.369,53.901],[138.581,53.995],[138.585,53.805],[138.259,53.533],[138.469,53.527],[138.659,53.707],[138.768,53.982],[138.741,54.249],[138.659,54.287],[139.317,54.177],[139.729,54.297],[139.789,54.205],[140.196,54.056],[140.256,53.863],[140.54,53.652],[140.732,53.563],[141.108,53.461],[141.131,53.447],[140.945,53.497],[140.909,53.428],[141.418,53.294],[141.328,53.226],[141.443,53.164],[141.219,53.069],[141.198,53.012],[141.239,52.866],[141.163,52.792],[141.268,52.593],[141.104,52.472],[141.253,52.297],[141.504,52.204],[141.353,52.099],[141.391,51.916],[141.19,51.846],[141.107,51.682],[140.876,51.628],[140.887,51.496],[140.727,51.465],[140.859,51.371],[140.67,51.327],[140.651,50.961],[140.526,50.902],[140.432,50.722],[140.492,50.629],[140.417,50.528],[140.531,50.342],[140.502,50.165],[140.687,50.09],[140.399,49.879],[140.529,49.786],[140.547,49.565],[140.311,49.217],[140.351,49.104],[140.281,49.093],[140.26,49.078],[140.332,49.044],[140.2,49.014],[140.286,49.017],[140.215,48.97],[140.251,48.95],[140.333,49.023],[140.391,48.977],[140.193,48.759],[140.174,48.447],[139.264,47.802],[138.991,47.317],[138.837,47.275],[138.561,47.03],[138.348,46.692],[138.343,46.54],[138.177,46.448],[138.101,46.236],[137.655,45.783],[136.802,45.199],[136.45,44.772],[136.304,44.749],[136.15,44.497],[135.874,44.406],[135.648,44.176],[135.632,44.035],[135.527,44.005],[135.521,43.922],[135.452,43.947],[135.46,43.877],[135.528,43.897],[135.436,43.765],[135.22,43.721],[135.141,43.505],[134.187,43.072],[133.923,42.867],[133.923,42.891],[133.866,42.908],[133.748,42.846],[133.725,42.807],[133.611,42.859],[133.04,42.672],[133.0,42.716],[133.097,42.748],[133.005,42.841],[132.905,42.833],[132.912,42.787],[132.873,42.739],[132.849,42.734],[132.76,42.91],[132.57,42.838],[132.406,42.948],[132.318,42.843],[132.284,43.071],[132.39,43.189],[132.306,43.228],[132.333,43.31],[131.963,43.057],[131.843,43.073],[132.072,43.313],[131.969,43.259],[131.992,43.283],[131.973,43.312],[131.823,43.293],[131.789,43.364],[131.756,43.348],[131.761,43.234],[131.695,43.204],[131.778,43.18],[131.686,43.202],[131.572,43.0],[131.376,42.943],[131.384,42.868],[131.471,42.884],[131.47,42.878],[131.363,42.764],[131.257,42.77],[131.218,42.554],[131.108,42.672],[130.923,42.593],[130.808,42.634],[130.923,42.611],[130.946,42.655],[130.779,42.658],[130.833,42.673],[130.841,42.706],[130.652,42.658],[130.739,42.627],[130.685,42.575],[130.796,42.633],[130.774,42.578],[130.871,42.528],[130.699,42.296],[130.665,42.349],[130.581,42.48],[130.604,42.615],[130.605,42.62],[130.598,42.625],[130.597,42.627],[130.536,42.682],[130.416,42.701],[130.432,42.743],[130.615,42.822],[130.735,42.825],[130.774,42.866],[130.992,42.849],[131.128,42.916],[131.106,43.039],[131.184,43.121],[131.181,43.167],[131.264,43.27],[131.31,43.39],[131.301,43.457],[131.191,43.539],[131.231,43.974],[131.245,44.022],[131.298,44.052],[131.095,44.691],[130.957,44.839],[131.09,44.918],[131.177,44.903],[131.336,44.968],[131.469,44.974],[131.646,45.108],[131.698,45.207],[131.851,45.337],[131.969,45.234],[132.931,45.021],[133.117,45.125],[133.102,45.288],[133.158,45.462],[133.193,45.504],[133.413,45.573],[133.477,45.628],[133.48,45.754],[133.511,45.779],[133.477,45.818],[133.503,45.859],[133.523,45.883],[133.58,45.871],[133.66,45.935],[133.745,46.155],[133.902,46.254],[133.934,46.391],[133.848,46.476],[133.909,46.578],[134.019,46.667],[134.04,46.862],[134.114,47.056],[134.227,47.118],[134.154,47.258],[134.182,47.323],[134.313,47.42],[134.486,47.43],[134.555,47.469],[134.773,47.711],[134.658,47.887],[134.59,47.922],[134.561,48.006],[134.683,48.136],[134.719,48.263],[134.415,48.391],[133.738,48.251],[133.596,48.174],[133.524,48.095],[133.224,48.126],[133.092,48.107],[132.77,47.938],[132.675,47.951],[132.668,47.881],[132.576,47.794],[132.574,47.74],[132.522,47.71],[132.341,47.743],[131.916,47.67],[131.703,47.696],[131.62,47.664],[131.535,47.719],[131.419,47.743],[131.1,47.676],[130.965,47.704],[130.907,47.884],[130.675,48.064],[130.678,48.138],[130.831,48.294],[130.739,48.428],[130.759,48.486],[130.659,48.485],[130.614,48.517],[130.608,48.577],[130.53,48.616],[130.674,48.871],[130.541,48.853],[130.44,48.896],[130.25,48.865],[130.201,48.883],[129.915,49.038],[129.921,49.082],[129.845,49.12],[129.842,49.167],[129.742,49.195],[129.711,49.274],[129.552,49.29],[129.528,49.385],[129.481,49.421],[129.194,49.39],[129.114,49.349],[128.998,49.441],[128.872,49.481],[128.797,49.572],[128.672,49.611],[128.198,49.539],[128.067,49.547],[127.968,49.603],[127.855,49.585],[127.704,49.66],[127.644,49.767],[127.537,49.791],[127.507,49.844],[127.534,49.922],[127.487,50.026],[127.574,50.137],[127.591,50.209],[127.332,50.327],[127.359,50.415],[127.295,50.464],[127.367,50.578],[127.289,50.675],[127.287,50.751],[126.932,51.065],[126.905,51.206],[126.972,51.324],[126.899,51.316],[126.869,51.252],[126.813,51.282],[126.819,51.327],[126.89,51.35],[126.909,51.391],[126.797,51.424],[126.83,51.508],[126.753,51.553],[126.726,51.709],[126.61,51.787],[126.442,51.992],[126.514,52.043],[126.556,52.131],[126.316,52.201],[126.329,52.236],[126.439,52.275],[126.35,52.303],[126.351,52.377],[126.276,52.463],[126.203,52.468],[126.212,52.533],[126.083,52.593],[126.028,52.566],[125.99,52.587],[125.979,52.645],[126.069,52.68],[126.045,52.719],[126.104,52.754],[126.088,52.775],[125.975,52.767],[125.837,52.907],[125.654,52.883],[125.734,52.982],[125.621,53.062],[125.489,53.069],[125.074,53.212],[124.919,53.194],[124.837,53.133],[124.755,53.149],[124.652,53.209],[124.384,53.246],[124.253,53.375],[124.121,53.353],[123.971,53.455],[123.614,53.563],[123.495,53.56],[123.453,53.527],[123.253,53.568],[123.154,53.513],[122.859,53.474],[122.401,53.452],[122.317,53.496],[122.082,53.43],[121.889,53.431],[121.641,53.385],[121.518,53.332],[121.341,53.324],[121.203,53.277],[120.867,53.28],[120.279,52.865],[120.032,52.768],[120.026,52.642],[120.082,52.588],[120.186,52.58],[120.44,52.637],[120.709,52.543],[120.683,52.429],[120.626,52.344],[120.781,52.158],[120.776,52.114],[120.697,52.049],[120.706,51.98],[120.65,51.914],[120.492,51.879],[120.168,51.67],[120.1,51.66],[119.977,51.487],[119.972,51.426],[119.953,51.398],[119.895,51.384],[119.912,51.341],[119.762,51.215],[119.778,51.169],[119.741,51.072],[119.518,50.905],[119.5,50.742],[119.294,50.599],[119.238,50.441],[119.138,50.393],[119.198,50.345],[119.358,50.333],[119.316,50.093],[119.134,49.995],[118.644,49.955],[117.874,49.521],[117.792,49.519],[117.495,49.623],[117.259,49.631],[116.982,49.71],[116.717,49.827],[116.617,49.929],[116.246,50.027],[116.054,49.998],[115.731,49.881],[115.415,49.898],[115.213,49.993],[115.034,50.145],[114.848,50.23],[114.666,50.264],[114.444,50.245],[114.322,50.284],[114.118,50.224],[113.86,50.087],[113.58,50.02],[113.416,49.922],[113.415,49.922],[113.183,49.802],[113.088,49.687],[113.06,49.596],[112.811,49.513],[112.711,49.499],[112.491,49.541],[111.98,49.41],[111.691,49.407],[111.499,49.35],[111.338,49.365],[110.778,49.148],[110.631,49.152],[110.371,49.242],[110.208,49.169],[109.818,49.228],[109.729,49.266],[109.516,49.256],[109.451,49.306],[109.198,49.36],[109.075,49.335],[108.959,49.357],[108.564,49.335],[108.236,49.532],[108.072,49.59],[107.953,49.687],[107.984,49.929],[107.746,49.98],[107.462,49.982],[107.177,50.027],[107.081,50.084],[107.007,50.199],[106.789,50.31],[106.663,50.339],[106.245,50.3],[106.077,50.345],[105.989,50.41],[105.335,50.484],[105.101,50.392],[104.967,50.405],[104.619,50.318],[104.418,50.309],[104.207,50.177],[104.113,50.153],[103.826,50.201],[103.68,50.137],[103.316,50.2],[103.224,50.309],[102.918,50.315],[102.78,50.387],[102.634,50.409],[102.541,50.509],[102.354,50.552],[102.312,50.593],[102.295,50.646],[102.355,50.721],[102.236,50.82],[102.255,50.987],[102.168,51.121],[102.163,51.251],[102.223,51.327],[102.082,51.389],[101.601,51.484],[101.385,51.452],[101.245,51.529],[100.558,51.735],[99.948,51.751],[99.729,51.89],[99.319,51.95],[99.021,52.065],[98.934,52.142],[98.856,52.107],[98.839,52.026],[98.682,51.819],[98.332,51.718],[98.228,51.583],[98.22,51.475],[98.051,51.466],[97.923,51.318],[97.929,51.215],[97.806,51.001],[97.836,50.941],[97.985,50.846],[97.944,50.774],[98.039,50.623],[98.294,50.519],[98.262,50.283],[98.106,50.065],[98.106,50.064],[98.048,50.023],[97.88,49.956],[97.77,49.967],[97.567,49.917],[97.572,49.846],[97.348,49.736],[97.172,49.761],[97.007,49.889],[96.718,49.92],[96.606,49.865],[96.544,49.927],[96.383,49.893],[96.107,50.002],[95.957,49.946],[95.911,50.01],[95.826,50.023],[95.524,49.896],[95.414,49.957],[95.066,49.964],[94.98,50.052],[94.63,50.027],[94.505,50.167],[94.387,50.219],[94.352,50.415],[94.284,50.565],[93.735,50.579],[93.451,50.622],[93.104,50.599],[93.001,50.638],[92.974,50.693],[92.994,50.772],[92.968,50.793],[92.813,50.795],[92.757,50.763],[92.734,50.705],[92.669,50.682],[92.419,50.813],[92.385,50.866],[92.321,50.858],[92.243,50.721],[92.175,50.695],[91.905,50.715],[91.75,50.684],[91.44,50.502],[90.975,50.414],[90.84,50.321],[90.727,50.292],[90.684,50.216],[90.509,50.224],[90.021,50.071],[89.969,49.968],[89.668,49.927],[89.621,49.893],[89.615,49.842],[89.643,49.818],[89.626,49.788],[89.701,49.753],[89.702,49.72],[89.442,49.644],[89.374,49.583],[89.216,49.634],[89.178,49.598],[89.214,49.544],[89.16,49.503],[89.007,49.463],[88.925,49.547],[88.859,49.527],[88.853,49.442],[88.676,49.459],[88.616,49.493],[88.221,49.462],[88.116,49.357],[88.143,49.271],[87.978,49.177],[87.705,49.163],[87.506,49.121],[87.446,49.078],[87.175,49.132],[86.838,49.094],[86.709,48.954],[86.788,48.84],[86.739,48.784],[86.751,48.714],[86.568,48.532],[86.344,48.495],[86.216,48.427],[85.804,48.414],[85.719,48.359],[85.586,48.141],[85.515,47.92],[85.595,47.624],[85.585,47.493],[85.671,47.383],[85.679,47.275],[85.658,47.206],[85.557,47.179],[85.501,47.058],[85.226,47.042],[84.938,46.862],[84.802,46.828],[84.748,46.837],[84.774,46.936],[84.678,46.994],[84.294,47.007],[83.924,46.974],[83.559,47.063],[83.155,47.225],[83.021,47.206],[82.986,46.943],[82.839,46.732],[82.674,46.331],[82.568,46.197],[82.489,45.901],[82.372,45.734],[82.292,45.533],[82.362,45.481],[82.513,45.466],[82.632,45.416],[82.615,45.249],[82.539,45.124],[82.481,45.128],[82.297,45.238],[81.947,45.158],[81.825,45.196],[81.783,45.321],[81.679,45.35],[80.918,45.15],[80.445,45.104],[80.395,45.05],[80.113,45.037],[79.858,44.904],[79.843,44.873],[79.869,44.849],[79.992,44.794],[80.244,44.816],[80.493,44.726],[80.49,44.701],[80.356,44.653],[80.38,44.608],[80.33,44.453],[80.373,44.231],[80.339,44.121],[80.404,44.049],[80.476,43.91],[80.713,43.459],[80.643,43.326],[80.748,43.276],[80.793,43.15],[80.763,43.109],[80.618,43.134],[80.368,43.028],[80.374,42.975],[80.542,42.917],[80.549,42.88],[80.248,42.816],[80.144,42.645],[80.268,42.239],[80.21,42.19],[80.257,42.083],[80.234,42.037],[79.873,42.013],[79.752,41.883],[79.282,41.783],[78.658,41.532],[78.36,41.378],[78.35,41.271],[78.078,41.042],[77.86,41.07],[77.528,40.986],[77.382,41.025],[77.255,41.008],[77.022,41.05],[76.861,41.013],[76.821,40.978],[76.767,40.945],[76.648,40.765],[76.62,40.61],[76.556,40.566],[76.476,40.436],[76.339,40.355],[76.244,40.441],[76.204,40.403],[75.984,40.367],[75.901,40.301],[75.704,40.298],[75.624,40.595],[75.583,40.644],[75.482,40.614],[75.216,40.45],[75.065,40.448],[74.882,40.519],[74.832,40.508],[74.787,40.421],[74.857,40.326],[74.706,40.331],[74.37,40.106],[74.189,40.112],[73.958,40.021],[73.944,39.97],[73.943,39.969],[73.893,39.918],[73.885,39.875],[73.823,39.806],[73.83,39.747],[73.894,39.71],[73.922,39.582],[73.837,39.475],[73.633,39.448],[73.644,39.351],[73.608,39.207],[73.829,38.962],[73.717,38.919],[73.681,38.873],[73.736,38.8],[73.736,38.722],[73.797,38.603],[73.933,38.53],[74.079,38.545],[74.064,38.596],[74.128,38.669],[74.315,38.669],[74.76,38.52],[74.832,38.464],[74.839,38.38],[74.771,38.292],[74.791,38.082],[74.881,38.02],[74.909,37.882],[74.886,37.831],[74.962,37.783],[74.886,37.653],[74.892,37.599],[75.154,37.405],[75.092,37.378],[75.068,37.312],[74.912,37.244],[74.823,37.332],[74.67,37.392],[74.546,37.382],[74.316,37.427],[74.224,37.403],[74.145,37.336],[73.728,37.224],[73.622,37.264],[73.77,37.343],[73.776,37.433],[73.485,37.481],[73.296,37.465],[72.892,37.25],[72.8,37.229],[72.661,37.025],[72.307,36.978],[71.843,36.692],[71.678,36.676],[71.564,36.751],[71.431,37.067],[71.494,37.308],[71.504,37.609],[71.59,37.816],[71.589,37.907],[71.508,37.947],[71.33,37.891],[71.254,37.929],[71.366,38.195],[71.334,38.281],[70.987,38.471],[70.777,38.446],[70.6,38.347],[70.49,38.161],[70.245,37.944],[70.172,37.946],[70.166,37.872],[70.237,37.82],[70.283,37.705],[70.249,37.624],[70.158,37.542],[70.009,37.549],[69.919,37.617],[69.797,37.584],[69.509,37.579],[69.382,37.453],[69.422,37.199],[69.265,37.105],[69.124,37.169],[68.985,37.32],[68.888,37.338],[68.669,37.278],[68.626,37.207],[68.404,37.152],[68.412,37.12],[68.307,37.114],[68.283,37.031],[68.183,37.018],[68.053,36.934],[68.01,36.936],[67.878,37.064],[67.784,37.098],[67.776,37.207],[67.747,37.229],[67.503,37.282],[67.258,37.186],[67.097,37.341],[67.006,37.384],[66.295,37.331],[66.08,37.441],[65.853,37.509],[65.761,37.578],[65.772,37.538],[65.659,37.51],[65.621,37.43],[65.624,37.345],[65.537,37.257],[65.067,37.243],[64.779,37.118],[64.756,37.054],[64.778,36.938],[64.617,36.637],[64.615,36.424],[64.455,36.25],[64.164,36.165],[63.978,36.04],[63.613,35.967],[63.495,35.896],[63.338,35.856],[63.123,35.863],[63.108,35.823],[63.183,35.677],[63.095,35.618],[63.124,35.536],[63.088,35.434],[62.986,35.416],[62.631,35.226],[62.47,35.288],[62.314,35.149],[62.27,35.256],[62.043,35.441],[61.966,35.459],[61.789,35.413],[61.596,35.444],[61.438,35.553],[61.375,35.636],[61.278,35.61],[61.253,35.633],[61.231,35.692],[61.262,35.816],[61.212,35.938],[61.201,36.067],[61.221,36.179],[61.163,36.419],[61.189,36.569],[61.154,36.65],[60.333,36.657],[60.063,37.012],[59.479,37.234],[59.393,37.324],[59.375,37.496],[59.343,37.535],[59.237,37.518],[59.053,37.631],[58.815,37.688],[58.716,37.65],[58.543,37.701],[58.489,37.645],[58.406,37.641],[58.234,37.679],[58.174,37.796],[57.7,37.926],[57.454,37.939],[57.354,37.992],[57.372,38.09],[57.209,38.283],[57.061,38.196],[56.867,38.225],[56.756,38.286],[56.443,38.26],[56.319,38.179],[56.348,38.131],[56.331,38.088],[56.222,38.071],[56.169,38.095],[55.987,38.073],[55.764,38.124],[55.438,38.083],[55.128,37.949],[54.954,37.805],[54.833,37.746],[54.782,37.643],[54.808,37.579],[54.782,37.517],[54.67,37.441],[54.58,37.453],[54.202,37.33],[54.03,37.342],[54.029,37.343],[54.03,37.343],[54.029,37.354],[53.971,37.346],[53.819,37.81],[53.832,38.538],[54.02,38.962],[53.716,39.078],[53.715,39.231],[53.653,39.115],[53.552,39.366],[53.168,39.377],[53.22,39.358],[53.179,39.216],[53.097,39.43],[53.298,39.702],[53.207,39.524],[53.359,39.498],[53.431,39.505],[53.436,39.502],[53.438,39.49],[53.452,39.481],[53.564,39.462],[53.732,39.515],[53.749,39.586],[53.658,39.573],[53.653,39.648],[53.572,39.626],[53.557,39.697],[53.435,39.713],[53.419,39.799],[53.605,39.943],[53.764,39.907],[53.762,39.81],[54.139,39.795],[53.632,40.023],[53.427,40.035],[53.297,39.961],[52.926,40.006],[52.923,39.869],[52.736,40.08],[52.736,40.479],[52.862,40.674],[52.923,41.077],[53.0,40.95],[53.005,40.972],[53.111,40.769],[53.387,40.768],[53.493,40.736],[53.556,40.769],[53.587,40.89],[53.627,40.882],[53.737,40.617],[54.031,40.654],[54.1,40.716],[54.223,40.725],[54.219,40.693],[54.35,40.673],[54.422,40.71],[54.309,40.752],[54.25,40.88],[54.336,40.924],[54.47,40.862],[54.48,40.799],[54.706,40.875],[54.76,40.965],[54.732,41.104],[54.074,41.476],[54.02,41.605],[54.025,41.715],[53.936,41.875],[53.898,42.069],[53.811,42.122],[53.66,42.143],[53.282,42.072],[53.15,42.095],[52.949,41.975],[52.821,41.697],[52.917,41.667],[52.826,41.413],[52.821,41.401],[52.908,41.108],[52.866,41.053],[52.776,41.381],[52.553,41.539],[52.588,41.685],[52.442,41.774],[52.496,41.899],[52.436,42.146],[52.752,42.625],[52.737,42.733],[52.472,42.836],[52.289,42.784],[52.185,42.875],[51.905,42.833],[51.656,43.184],[51.271,43.153],[51.281,43.601],[51.163,43.627],[51.03,43.799],[50.841,44.197],[50.268,44.357],[50.222,44.586],[50.267,44.544],[50.311,44.646],[50.821,44.635],[51.099,44.475],[51.363,44.551],[51.543,44.518],[51.267,44.589],[50.985,44.923],[51.25,45.029],[51.254,45.199],[51.359,45.304],[51.725,45.403],[52.366,45.375],[52.385,45.387],[52.403,45.387],[52.422,45.376],[52.449,45.373],[52.48,45.379],[52.53,45.403],[52.766,45.339],[53.105,45.299],[53.228,45.338],[52.929,45.45],[52.75,45.518],[52.708,45.603],[52.735,45.674],[52.871,45.629],[52.766,45.706],[52.988,45.932],[52.827,46.067],[52.832,46.147],[52.917,46.144],[52.984,46.35],[53.128,46.403],[53.021,46.537],[53.134,46.602],[53.14,46.593],[53.14,46.592],[53.206,46.643],[53.194,46.715],[53.102,46.778],[53.059,46.889],[52.935,46.934],[52.693,46.945],[52.686,46.966],[52.509,46.989],[52.503,46.98],[52.454,46.996],[52.342,46.895],[52.319,46.874],[52.253,46.814],[52.241,46.803],[52.092,46.815],[51.789,46.901],[51.779,46.904],[51.686,46.958],[51.635,47.042],[51.194,47.115],[50.844,47.008],[50.834,46.997],[50.837,46.995],[50.848,47.0],[50.851,47.0],[50.888,47.007],[50.908,47.008],[50.936,47.004],[50.784,46.939],[50.582,46.917],[50.555,46.886],[50.532,46.876],[50.527,46.886],[50.501,46.908],[50.433,46.901],[50.402,46.884],[50.372,46.867],[49.987,46.65],[49.986,46.65],[49.853,46.575],[49.828,46.561],[49.62,46.575],[49.562,46.53],[49.455,46.511],[49.324,46.565],[49.386,46.493],[49.369,46.4],[49.281,46.438],[49.232,46.393],[49.241,46.389],[49.197,46.335],[49.339,46.187],[49.243,46.162],[49.318,46.068],[49.252,46.102],[49.233,46.0],[49.033,46.12],[49.0,45.951],[48.929,45.979],[48.839,45.837],[48.842,45.838],[48.843,45.841],[48.847,45.84],[48.846,45.829],[48.836,45.828],[48.833,45.837],[48.838,45.837],[48.77,45.902],[48.712,45.832],[48.681,45.861],[48.571,45.964],[48.452,45.934],[48.229,45.749],[48.233,45.75],[48.224,45.745],[48.217,45.744],[48.142,45.738],[47.854,45.717],[47.828,45.658],[47.739,45.694],[47.556,45.768],[47.554,45.739],[47.624,45.71],[47.624,45.708],[47.613,45.709],[47.603,45.7],[47.678,45.592],[47.648,45.46],[47.457,45.354],[47.43,45.124],[47.388,45.187],[47.262,44.927],[47.201,44.937],[47.262,44.926],[47.244,44.81],[47.162,44.707],[47.052,44.798],[46.99,44.761],[47.073,44.66],[46.871,44.665],[46.829,44.616],[46.912,44.492],[46.738,44.503],[46.903,44.468],[47.114,44.222],[47.234,44.218],[47.472,43.833],[47.767,43.907],[47.519,43.52],[47.484,43.324],[47.553,43.274],[47.462,43.029],[47.698,42.872],[47.763,42.631],[47.888,42.582],[48.37,41.948],[48.65,41.805],[48.975,41.481],[49.224,41.009],[49.553,40.784],[49.552,40.634],[49.809,40.567],[50.067,40.597],[50.367,40.359],[50.37,40.225],[50.241,40.345],[50.024,40.304],[49.872,40.375],[49.475,40.175],[49.384,39.789],[49.422,39.7],[49.321,39.635],[49.31,39.452],[49.273,39.497],[49.299,39.453],[49.398,39.379],[49.389,39.344],[49.427,39.288],[49.432,39.27],[49.426,39.256],[49.283,39.356],[49.249,39.342],[49.225,39.148],[49.202,39.119],[49.188,39.196],[49.15,39.129],[49.048,39.179],[49.1,39.226],[49.029,39.206],[49.008,39.281],[48.866,39.198],[49.02,39.208],[48.945,39.159],[48.942,38.941],[48.861,38.851],[48.847,38.851],[48.831,38.81],[48.87,38.75],[48.869,38.451],[48.823,38.438],[48.659,38.393],[48.6,38.416],[48.433,38.625],[48.331,38.604],[48.245,38.671],[48.247,38.715],[48.024,38.835],[48.013,38.897],[48.072,38.95],[48.309,39.004],[48.327,39.054],[48.294,39.112],[48.135,39.21],[48.124,39.276],[48.194,39.333],[48.358,39.39],[47.985,39.716],[47.813,39.679],[47.541,39.515],[47.392,39.471],[47.291,39.38],[47.102,39.308],[47.02,39.19],[46.849,39.161],[46.533,38.883],[46.378,38.925],[46.126,38.863],[45.439,39.004],[45.435,39.053],[45.311,39.201],[45.152,39.216],[45.096,39.341],[44.956,39.436],[44.872,39.625],[44.816,39.638],[44.786,39.709],[44.592,39.832],[44.488,39.963],[44.283,40.046],[43.934,40.014],[43.668,40.104],[43.653,40.129],[43.715,40.157],[43.583,40.451],[43.593,40.5],[43.653,40.532],[43.741,40.667],[43.75,40.745],[43.673,40.926],[43.595,40.993],[43.484,41.024],[43.455,41.095],[43.474,41.138],[43.43,41.184],[43.232,41.192],[42.831,41.582],[42.598,41.582],[42.596,41.58],[42.519,41.47],[42.522,41.405],[42.48,41.376],[42.172,41.447],[41.983,41.457],[41.823,41.371],[41.588,41.454],[41.614,41.485],[41.598,41.49],[41.586,41.472],[41.575,41.606],[41.718,41.705],[41.777,41.863],[41.438,42.74],[41.15,42.797],[41.054,42.987],[40.862,43.076],[40.342,43.146],[40.24,43.319],[39.925,43.414],[38.791,44.282],[38.205,44.415],[38.065,44.577],[38.028,44.56],[37.985,44.568],[37.806,44.732],[37.736,44.65],[37.483,44.694],[37.221,44.997],[36.633,45.14],[36.591,45.245],[36.992,45.29],[36.763,45.415],[36.725,45.358],[36.622,45.305],[36.785,45.442],[37.377,45.316],[37.554,45.395],[37.616,45.664],[37.83,45.752],[37.972,46.035],[38.116,46.054],[38.079,46.04],[38.065,45.968],[38.107,45.949],[38.27,46.26],[38.262,46.153],[38.581,46.039],[38.568,46.114],[38.128,46.384],[37.924,46.402],[37.735,46.683],[38.008,46.636],[38.291,46.743],[38.333,46.664],[38.593,46.662],[38.507,46.751],[38.397,46.724],[38.447,46.851],[38.837,46.906],[39.103,47.043],[39.3,47.025],[39.198,47.284],[38.953,47.268],[38.865,47.173],[38.572,47.115],[38.482,47.141],[38.606,47.244],[38.828,47.269],[38.624,47.255],[38.088,47.024],[38.136,47.06],[38.064,47.112],[37.574,47.1],[37.521,47.072],[37.518,47.061],[37.524,47.053],[37.517,47.061],[37.515,47.066],[37.498,47.041],[37.477,47.031],[37.335,46.89],[37.304,46.869],[37.236,46.951],[36.774,46.755],[36.409,46.725],[36.329,46.674],[36.272,46.606],[36.28,46.62],[36.283,46.622],[36.284,46.626],[36.295,46.638],[36.296,46.642],[35.887,46.652],[35.445,46.435],[35.2,46.167],[35.146,46.125],[34.983,46.078],[35.214,46.188],[35.357,46.364],[35.2,46.381],[34.812,46.161],[34.799,46.163],[34.688,46.185],[34.628,46.173],[34.604,46.028],[34.48,45.953],[34.47,46.009],[34.395,46.01],[34.475,46.118],[34.395,46.092],[34.519,46.138],[34.26,46.243],[34.259,46.241],[34.247,46.244],[34.231,46.241],[34.231,46.24],[34.183,46.274],[34.156,46.281],[34.151,46.269],[34.174,46.264],[34.128,46.206],[34.123,46.18],[34.143,46.14],[34.165,46.135],[34.15,46.114],[34.006,46.188],[34.0,46.182],[33.996,46.178],[33.995,46.173],[33.957,46.214],[33.773,46.248],[33.671,46.216],[33.79,46.121],[33.809,46.168],[33.845,46.16],[33.9,46.039],[33.989,46.027],[33.99,46.052],[33.989,46.052],[33.982,46.059],[33.974,46.08],[33.951,46.091],[33.969,46.093],[34.006,46.096],[34.052,46.042],[34.057,46.042],[34.065,46.034],[34.108,46.011],[34.117,46.008],[34.139,45.94],[34.2,45.956],[34.203,45.985],[34.191,45.992],[34.177,45.991],[34.206,46.031],[34.36,46.015],[34.413,45.948],[34.384,45.914],[34.359,45.884],[34.422,45.879],[34.422,45.891],[34.575,45.91],[34.555,45.989],[34.638,45.95],[34.467,45.773],[34.467,45.772],[34.464,45.769],[34.469,45.77],[34.65,45.785],[34.985,45.632],[35.092,45.472],[35.018,45.441],[35.015,45.413],[35.387,45.259],[35.862,45.404],[36.015,45.36],[36.139,45.466],[36.597,45.438],[36.63,45.362],[36.483,45.361],[36.495,45.317],[36.416,45.283],[36.454,45.096],[36.374,45.059],[35.841,44.999],[35.681,45.111],[35.497,45.118],[35.082,44.792],[34.729,44.812],[34.457,44.71],[34.347,44.548],[34.126,44.429],[33.738,44.387],[33.598,44.503],[33.487,44.498],[33.379,44.583],[33.602,44.61],[33.51,44.624],[33.613,44.903],[33.565,45.081],[33.403,45.196],[33.26,45.148],[32.987,45.325],[33.206,45.443],[32.924,45.358],[32.968,45.34],[32.986,45.33],[32.983,45.328],[32.48,45.39],[32.563,45.47],[32.83,45.548],[33.171,45.792],[33.263,45.755],[33.614,45.89],[33.681,45.842],[33.753,45.948],[33.618,45.946],[33.589,46.159],[33.503,46.028],[33.205,46.107],[33.195,46.177],[32.54,46.066],[32.227,46.132],[32.239,46.183],[31.896,46.316],[31.78,46.265]],[[127.311,71.491],[127.188,71.747],[127.241,71.836],[127.326,71.895],[127.222,71.961],[127.078,72.0],[126.83,72.0],[127.129,71.85],[127.09,71.767],[127.204,71.593],[127.215,71.395],[127.288,71.395],[127.311,71.491]],[[46.192,43.185],[46.147,43.122],[46.052,43.153],[45.89,43.062],[45.778,43.044],[45.759,43.102],[45.694,43.115],[45.648,43.053],[45.492,43.04],[45.424,42.961],[45.421,42.887],[45.135,42.875],[45.039,42.74],[45.055,42.673],[45.191,42.616],[45.325,42.475],[45.553,42.489],[45.718,42.426],[45.832,42.45],[46.025,42.549],[46.131,42.67],[46.209,42.697],[46.227,42.745],[46.202,42.819],[46.375,42.792],[46.564,42.882],[46.567,43.08],[46.534,43.126],[46.473,43.142],[46.485,43.205],[46.427,43.251],[46.192,43.185]]],[[[55.677,74.341],[55.297,74.35],[55.378,74.41],[55.505,74.403],[56.259,74.46],[55.567,74.544],[55.824,74.671],[55.95,74.63],[56.409,74.702],[56.568,74.643],[56.654,74.671],[56.736,74.645],[56.946,74.672],[56.593,74.672],[56.429,74.72],[56.464,74.769],[55.838,74.775],[56.449,74.896],[56.294,74.897],[56.392,74.971],[56.294,75.001],[55.832,74.962],[55.872,74.986],[55.869,75.001],[55.931,75.04],[55.932,75.047],[55.747,75.054],[55.951,75.177],[56.292,75.158],[56.394,75.037],[56.587,75.058],[56.75,75.194],[57.076,75.216],[56.704,75.298],[57.035,75.38],[57.996,75.296],[57.719,75.349],[57.73,75.423],[57.554,75.475],[58.491,75.595],[57.98,75.626],[58.834,75.722],[58.734,75.8],[58.876,75.846],[60.004,75.897],[60.048,75.962],[60.43,75.965],[60.039,76.034],[60.263,76.089],[60.782,76.1],[60.467,76.004],[60.562,75.988],[61.081,76.017],[61.082,76.085],[61.225,76.125],[60.905,76.146],[61.1,76.266],[62.403,76.253],[62.347,76.176],[62.544,76.155],[62.77,76.261],[62.937,76.215],[62.887,76.195],[63.13,76.191],[63.72,76.329],[63.978,76.333],[64.119,76.254],[64.535,76.38],[64.843,76.339],[64.699,76.39],[64.969,76.476],[65.261,76.434],[65.486,76.551],[66.118,76.48],[66.006,76.603],[65.822,76.651],[66.04,76.738],[66.379,76.706],[66.227,76.763],[67.571,76.991],[68.58,76.955],[68.501,76.93],[68.833,76.868],[68.759,76.841],[68.929,76.78],[68.894,76.73],[68.895,76.725],[68.898,76.72],[68.882,76.714],[68.79,76.585],[68.957,76.537],[68.195,76.294],[68.306,76.249],[65.991,75.984],[63.792,75.612],[63.811,75.652],[63.705,75.704],[63.587,75.715],[63.686,75.69],[62.311,75.419],[61.904,75.466],[61.854,75.432],[61.949,75.387],[61.817,75.32],[61.734,75.36],[61.463,75.207],[61.382,75.211],[61.412,75.313],[61.29,75.309],[61.349,75.281],[61.091,75.172],[60.79,75.141],[60.741,75.014],[60.503,75.103],[60.307,75.084],[60.485,75.048],[60.386,75.044],[60.411,75.0],[59.908,74.983],[60.629,74.913],[60.527,74.843],[60.155,74.843],[60.305,74.78],[60.247,74.734],[59.656,74.719],[59.626,74.749],[59.492,74.788],[59.45,74.785],[59.575,74.719],[59.837,74.663],[59.862,74.607],[59.762,74.572],[59.14,74.735],[59.09,74.699],[59.269,74.618],[59.138,74.614],[59.122,74.526],[58.785,74.584],[59.113,74.52],[59.061,74.468],[59.123,74.45],[59.134,74.424],[58.211,74.554],[58.591,74.448],[58.531,74.412],[58.413,74.439],[58.354,74.439],[58.315,74.427],[58.611,74.381],[58.721,74.249],[58.634,74.235],[58.731,74.214],[58.531,74.221],[58.638,74.201],[58.471,74.199],[58.584,74.161],[58.506,74.144],[58.277,74.184],[58.279,74.15],[58.537,74.119],[58.141,74.117],[58.192,74.077],[58.115,74.034],[58.249,74.002],[58.16,74.0],[58.144,73.973],[57.71,74.044],[57.546,74.179],[57.338,74.204],[57.542,74.08],[57.251,74.067],[57.521,74.066],[57.865,73.906],[57.76,73.882],[57.884,73.77],[57.724,73.723],[57.43,73.829],[56.705,73.878],[56.625,73.864],[57.293,73.811],[57.619,73.629],[57.234,73.552],[56.951,73.591],[56.792,73.679],[56.684,73.688],[56.888,73.599],[56.75,73.579],[57.24,73.454],[56.904,73.301],[56.765,73.341],[56.807,73.308],[56.728,73.234],[56.12,73.259],[56.025,73.308],[56.046,73.374],[55.933,73.426],[55.963,73.295],[55.737,73.339],[55.405,73.328],[54.955,73.44],[54.067,73.357],[54.487,73.462],[54.233,73.482],[54.389,73.557],[55.406,73.706],[54.562,73.691],[54.236,73.596],[53.682,73.73],[53.705,73.79],[53.952,73.767],[54.261,73.902],[54.846,73.953],[54.577,73.997],[55.034,74.158],[56.078,74.035],[55.61,74.176],[55.109,74.249],[55.754,74.276],[55.677,74.341]]],[[[52.621,71.461],[52.717,71.524],[52.583,71.598],[52.635,71.591],[52.554,71.652],[52.571,71.74],[52.531,71.764],[52.504,71.68],[52.536,71.565],[52.399,71.539],[52.458,71.462],[52.331,71.514],[52.309,71.53],[52.309,71.533],[52.313,71.533],[52.315,71.529],[52.318,71.529],[52.314,71.563],[52.297,71.571],[52.274,71.566],[52.141,71.537],[52.22,71.473],[51.919,71.519],[51.917,71.519],[51.905,71.521],[51.904,71.522],[51.582,71.571],[51.433,71.83],[51.564,72.061],[51.859,72.154],[52.046,72.049],[52.224,72.13],[52.175,72.069],[52.527,72.026],[52.504,72.035],[52.464,72.04],[52.463,72.046],[52.453,72.046],[52.467,72.07],[52.398,72.098],[52.442,72.123],[52.441,72.168],[52.467,72.118],[52.562,72.131],[52.526,72.175],[52.431,72.212],[52.551,72.186],[52.456,72.275],[52.628,72.24],[52.599,72.29],[52.71,72.294],[52.761,72.325],[52.705,72.427],[52.849,72.431],[52.71,72.443],[52.719,72.474],[52.901,72.496],[52.98,72.573],[53.325,72.553],[53.117,72.591],[52.98,72.588],[52.727,72.54],[52.846,72.611],[52.748,72.629],[52.976,72.662],[52.404,72.713],[52.582,72.837],[52.954,72.908],[53.298,72.865],[53.524,72.854],[53.628,72.889],[53.085,72.949],[53.415,72.996],[53.154,73.09],[53.465,73.237],[54.248,73.258],[54.916,73.424],[55.435,73.313],[55.803,73.319],[56.566,73.138],[55.819,73.057],[56.434,73.033],[56.315,72.986],[55.546,72.942],[56.275,72.947],[56.12,72.779],[55.342,72.762],[55.843,72.738],[55.922,72.65],[55.668,72.655],[55.695,72.595],[55.598,72.523],[55.494,72.559],[55.298,72.569],[55.563,72.508],[55.302,72.441],[55.479,72.435],[55.469,72.334],[55.362,72.287],[55.576,72.173],[55.408,72.098],[55.46,72.056],[55.363,71.98],[55.433,71.934],[55.275,71.943],[55.524,71.882],[55.655,71.626],[56.214,71.185],[57.613,70.708],[57.468,70.659],[57.476,70.592],[57.358,70.607],[57.433,70.587],[57.037,70.655],[56.763,70.672],[57.321,70.542],[56.547,70.655],[56.691,70.612],[56.608,70.618],[56.505,70.66],[56.623,70.718],[56.516,70.741],[56.22,70.738],[56.325,70.691],[56.193,70.699],[56.321,70.652],[56.159,70.651],[56.226,70.633],[55.794,70.665],[56.032,70.557],[55.712,70.618],[55.861,70.613],[55.611,70.724],[55.81,70.616],[55.436,70.733],[55.354,70.685],[55.099,70.765],[54.906,70.762],[55.358,70.679],[55.401,70.687],[55.481,70.633],[55.27,70.681],[55.206,70.657],[55.293,70.562],[55.168,70.545],[54.54,70.782],[54.431,70.735],[54.791,70.636],[54.306,70.763],[54.047,70.724],[53.906,70.815],[53.881,70.803],[53.851,70.802],[53.846,70.797],[53.9,70.76],[53.614,70.832],[53.522,70.821],[53.584,70.788],[53.561,70.784],[53.35,70.86],[53.634,70.875],[53.752,70.811],[53.683,70.878],[53.777,70.935],[53.51,71.087],[53.963,71.015],[53.906,71.073],[54.175,71.07],[54.266,71.095],[54.011,71.137],[54.225,71.147],[54.103,71.212],[53.805,71.19],[53.838,71.134],[53.516,71.217],[53.464,71.257],[53.547,71.254],[53.552,71.277],[53.341,71.325],[53.287,71.438],[53.496,71.528],[53.46,71.537],[53.493,71.554],[53.472,71.573],[53.195,71.536],[53.187,71.525],[53.184,71.523],[53.18,71.523],[53.149,71.513],[53.146,71.511],[53.142,71.524],[53.133,71.528],[52.999,71.511],[53.055,71.465],[52.935,71.472],[53.029,71.4],[52.953,71.371],[52.882,71.46],[52.78,71.464],[52.856,71.41],[52.621,71.461]]],[[[137.607,75.788],[137.442,75.881],[137.472,75.93],[138.103,75.999],[138.199,76.072],[138.047,76.026],[138.225,76.108],[138.854,76.201],[139.138,76.203],[139.031,76.177],[139.228,76.072],[140.004,75.946],[139.833,75.877],[140.183,75.791],[140.111,75.77],[140.468,75.789],[140.38,75.752],[140.436,75.74],[140.391,75.636],[140.57,75.613],[140.851,75.589],[141.153,75.638],[141.144,75.66],[140.919,75.719],[141.004,76.032],[141.203,76.059],[141.726,75.973],[141.748,75.988],[141.349,76.156],[141.407,76.172],[142.645,75.85],[143.935,75.817],[145.392,75.498],[144.849,75.432],[144.775,75.372],[144.919,75.271],[144.381,75.051],[143.388,75.048],[142.929,75.144],[142.743,75.301],[142.528,75.343],[142.613,75.439],[142.565,75.461],[143.057,75.557],[143.036,75.562],[142.981,75.568],[142.975,75.568],[142.957,75.568],[142.95,75.571],[143.13,75.643],[143.055,75.705],[142.734,75.747],[142.277,75.727],[142.458,75.689],[141.973,75.661],[142.28,75.645],[141.967,75.619],[142.187,75.591],[142.082,75.546],[142.213,75.333],[142.747,75.074],[143.696,74.945],[142.715,74.891],[142.628,74.827],[142.764,74.843],[142.517,74.797],[142.344,74.817],[142.08,74.885],[141.891,74.938],[141.879,74.944],[142.025,74.903],[142.148,74.968],[142.388,74.893],[142.442,74.907],[142.238,75.009],[141.889,75.004],[141.576,74.932],[140.841,74.883],[140.187,74.805],[140.048,74.795],[140.0,74.794],[139.901,74.793],[139.839,74.802],[140.104,74.803],[139.68,74.969],[139.511,74.914],[139.541,74.848],[139.696,74.858],[139.512,74.74],[139.141,74.634],[138.175,74.757],[137.865,74.941],[137.239,75.109],[136.955,75.26],[136.93,75.343],[137.482,75.362],[137.185,75.371],[137.171,75.432],[137.298,75.471],[137.278,75.493],[137.21,75.522],[137.266,75.525],[137.288,75.519],[137.313,75.521],[137.189,75.549],[137.327,75.573],[137.276,75.617],[137.026,75.588],[137.216,75.518],[136.99,75.586],[137.226,75.651],[137.149,75.702],[137.206,75.749],[137.607,75.788]]],[[[141.765,53.378],[141.869,53.428],[141.856,53.43],[142.178,53.528],[142.26,53.538],[142.241,53.386],[142.427,53.377],[142.599,53.528],[142.671,53.509],[142.56,53.6],[142.514,53.547],[142.481,53.662],[142.635,53.689],[142.679,53.625],[142.786,53.714],[142.698,53.847],[142.611,53.693],[142.721,53.928],[142.395,54.238],[142.608,54.267],[142.705,54.425],[142.988,54.115],[142.892,53.873],[142.894,53.873],[142.869,53.801],[143.014,53.634],[142.948,53.62],[143.014,53.633],[143.062,53.561],[143.028,53.589],[142.968,53.559],[143.062,53.56],[143.129,53.452],[143.056,53.448],[143.131,53.449],[143.148,53.424],[143.083,53.391],[143.149,53.422],[143.189,53.351],[143.265,53.154],[143.331,52.842],[143.254,53.146],[143.136,53.211],[143.198,53.283],[143.128,53.366],[143.032,53.259],[143.099,53.037],[143.241,52.846],[143.267,52.865],[143.267,52.933],[143.287,52.958],[143.314,52.713],[143.316,52.837],[143.333,52.821],[143.316,52.583],[143.279,52.445],[143.175,52.316],[143.274,52.453],[143.272,52.479],[143.229,52.479],[143.301,52.588],[143.289,52.642],[143.118,52.361],[143.131,52.282],[143.175,52.356],[143.14,52.112],[143.126,52.157],[143.13,52.163],[143.139,52.239],[143.146,52.251],[143.147,52.257],[143.146,52.261],[143.076,52.171],[143.088,52.049],[143.151,51.974],[143.099,51.929],[143.212,51.85],[143.183,51.969],[143.329,51.692],[143.284,51.715],[143.254,51.685],[143.208,51.513],[143.35,51.513],[143.335,51.613],[143.348,51.633],[143.357,51.634],[143.381,51.598],[143.401,51.524],[143.419,51.495],[143.424,51.467],[143.437,51.44],[143.441,51.439],[143.412,51.546],[143.435,51.5],[143.479,51.331],[143.376,51.332],[143.488,51.269],[143.465,51.214],[143.523,51.226],[143.496,51.278],[143.474,51.285],[143.482,51.321],[143.535,51.203],[143.671,50.804],[143.758,50.397],[144.028,49.897],[143.964,49.897],[142.203,49.893],[142.138,49.893],[142.153,50.367],[142.044,50.551],[142.253,51.144],[142.082,51.468],[141.799,51.683],[141.816,51.797],[141.627,51.886],[141.694,52.158],[141.63,52.326],[141.829,52.555],[141.921,53.033],[141.765,53.378]]],[[[150.121,75.206],[150.248,75.184],[150.312,75.15],[150.309,75.149],[150.248,75.132],[150.639,75.109],[150.525,75.081],[150.545,75.078],[150.962,75.126],[150.665,74.992],[150.637,74.864],[148.98,74.73],[148.163,74.787],[147.688,74.954],[146.117,75.237],[146.259,75.288],[146.232,75.388],[146.325,75.394],[146.246,75.399],[146.469,75.587],[146.743,75.516],[146.752,75.5],[146.652,75.468],[146.643,75.438],[146.787,75.351],[147.448,75.328],[147.355,75.375],[147.121,75.351],[147.354,75.408],[147.374,75.384],[147.437,75.376],[147.513,75.387],[147.441,75.387],[147.465,75.4],[147.328,75.413],[147.618,75.441],[148.375,75.402],[148.579,75.367],[148.509,75.299],[148.622,75.2],[149.394,75.262],[149.742,75.212],[150.121,75.206]]],[[[139.777,73.407],[140.573,73.497],[140.983,73.702],[140.871,73.706],[141.079,73.844],[142.071,73.908],[143.408,73.547],[143.565,73.451],[143.47,73.357],[143.61,73.211],[142.488,73.219],[140.833,73.421],[139.985,73.343],[139.777,73.407]]],[[[113.216,74.213],[112.834,74.079],[112.206,74.136],[111.508,74.325],[111.665,74.367],[111.849,74.324],[112.057,74.363],[112.113,74.443],[112.019,74.447],[112.012,74.544],[112.074,74.549],[113.187,74.497],[113.409,74.448],[113.469,74.381],[113.438,74.399],[113.358,74.395],[113.429,74.379],[113.399,74.325],[113.218,74.296],[113.311,74.288],[113.216,74.213]]],[[[164.589,59.24],[164.733,59.045],[164.639,58.87],[164.186,58.814],[163.489,58.448],[163.409,58.543],[163.597,58.599],[163.775,58.886],[163.951,59.012],[163.86,59.015],[163.789,59.017],[164.589,59.24]]],[[[138.217,55.035],[137.998,54.921],[137.986,54.772],[137.711,54.616],[137.491,54.868],[137.235,54.762],[137.554,55.18],[138.217,55.035]]],[[[140.687,73.908],[140.61,73.895],[140.51,73.902],[140.361,73.939],[140.172,74.083],[140.211,74.209],[140.422,74.257],[140.899,74.266],[141.104,74.189],[140.991,73.986],[140.47,73.914],[140.687,73.908]]],[[[136.057,75.443],[135.967,75.4],[135.514,75.385],[135.721,75.871],[135.895,75.713],[136.237,75.623],[135.962,75.489],[136.057,75.443]]],[[[166.3,55.3],[166.248,55.179],[166.644,54.865],[166.644,54.692],[166.495,54.834],[166.376,54.822],[166.178,54.956],[166.045,55.167],[165.834,55.304],[165.966,55.365],[166.3,55.3]]],[[[52.586,71.386],[52.79,71.334],[52.728,71.398],[52.903,71.369],[53.083,71.253],[52.899,71.337],[52.767,71.365],[52.905,71.328],[52.928,71.314],[52.842,71.297],[53.26,71.188],[53.052,71.032],[53.183,70.952],[53.059,70.94],[52.67,71.215],[52.241,71.313],[52.586,71.386]]],[[[128.167,72.55],[128.529,72.51],[128.59,72.476],[129.034,72.384],[128.719,72.406],[128.713,72.407],[128.305,72.397],[128.252,72.424],[128.034,72.389],[127.627,72.465],[128.182,72.553],[128.167,72.55]]],[[[136.269,73.982],[136.299,73.917],[136.159,73.883],[135.466,74.146],[135.441,74.242],[136.269,73.982]]],[[[137.357,71.5],[137.309,71.502],[137.26,71.514],[137.23,71.516],[137.235,71.523],[137.19,71.541],[137.192,71.55],[137.193,71.553],[137.175,71.554],[137.715,71.569],[137.778,71.599],[138.032,71.532],[137.768,71.409],[137.618,71.475],[137.446,71.493],[137.444,71.478],[137.357,71.5]]],[[[136.786,55.013],[137.196,55.111],[137.062,54.916],[136.9,54.961],[136.668,54.912],[136.786,55.013]]],[[[35.88,65.019],[35.926,65.052],[36.024,65.04],[35.725,64.973],[35.505,65.122],[35.658,65.13],[35.762,65.172],[35.84,65.138],[35.825,65.096],[35.84,65.049],[35.85,65.041],[35.864,65.039],[35.856,65.037],[35.814,65.052],[35.812,65.088],[35.799,65.093],[35.767,65.087],[35.769,65.065],[35.751,65.062],[35.743,65.039],[35.88,65.019]]],[[[167.438,54.867],[167.934,54.654],[168.102,54.5],[167.527,54.769],[167.438,54.867]]],[[[49.467,37.465],[49.671,37.452],[49.447,37.409],[49.449,37.408],[49.49,37.409],[49.496,37.415],[49.552,37.408],[49.536,37.377],[49.382,37.397],[49.24,37.485],[49.309,37.459],[49.193,37.557],[49.467,37.465]]],[[[33.065,66.569],[33.246,66.624],[33.534,66.515],[33.09,66.558],[33.065,66.569]]],[[[56.408,70.572],[56.162,70.631],[56.382,70.623],[56.445,70.633],[56.339,70.659],[56.432,70.666],[56.649,70.564],[56.529,70.586],[56.494,70.572],[56.405,70.569],[56.411,70.565],[56.356,70.572],[56.408,70.572]]],[[[34.818,46.147],[34.929,45.834],[35.162,45.539],[34.839,45.924],[34.835,46.016],[34.674,46.101],[34.788,46.072],[34.818,46.147]]],[[[60.496,76.171],[60.267,76.091],[60.095,76.081],[59.909,76.091],[60.496,76.171]]],[[[128.875,72.612],[128.87,72.592],[128.883,72.581],[128.896,72.579],[128.829,72.585],[128.797,72.6],[128.712,72.619],[128.668,72.624],[128.666,72.625],[128.626,72.624],[128.573,72.635],[128.749,72.663],[128.765,72.657],[128.765,72.656],[128.9,72.64],[128.915,72.612],[128.936,72.608],[129.093,72.58],[128.886,72.582],[128.882,72.609],[128.875,72.613],[128.859,72.618],[128.8,72.629],[128.818,72.623],[128.826,72.62],[128.875,72.612]]],[[[125.883,73.651],[125.914,73.638],[125.754,73.53],[125.89,73.51],[125.857,73.49],[125.664,73.552],[125.826,73.65],[125.883,73.651]]],[[[160.677,70.878],[160.762,70.809],[160.499,70.814],[160.559,70.88],[160.439,70.912],[160.677,70.878]]],[[[128.883,72.295],[128.803,72.308],[129.123,72.265],[129.197,72.262],[129.241,72.265],[129.0,72.203],[128.883,72.295]]],[[[124.006,73.643],[123.936,73.656],[123.97,73.713],[123.907,73.773],[124.124,73.728],[124.006,73.643]]],[[[120.059,73.087],[120.078,73.102],[120.197,73.107],[120.27,73.12],[120.354,73.09],[119.929,73.034],[119.985,73.053],[120.046,73.083],[120.059,73.087]]],[[[128.51,72.811],[128.537,72.814],[128.725,72.848],[128.836,72.865],[128.897,72.858],[129.078,72.836],[129.178,72.838],[128.63,72.821],[128.563,72.809],[128.551,72.8],[128.339,72.792],[128.51,72.811]]],[[[137.955,54.461],[137.812,54.375],[137.73,54.381],[137.842,54.486],[137.955,54.461]]],[[[127.981,72.563],[127.889,72.548],[127.86,72.533],[127.889,72.546],[128.034,72.559],[128.103,72.577],[128.224,72.558],[127.862,72.53],[127.782,72.535],[128.062,72.597],[128.099,72.591],[128.032,72.56],[127.981,72.563]]]]}}]}