{"type":"FeatureCollection","features":[{"type":"Feature","properties":{"lite":true,"src":"data/years/1922.geojson"},"geometry":{"type":"MultiPolygon","coordinates":[[[[27.924,56.105],[28.12,56.167],[28.168,56.15],[28.236,56.277],[28.148,56.471],[27.945,56.722],[27.939,56.822],[27.839,56.875],[27.733,56.87],[27.704,56.913],[27.849,57.179],[27.855,57.306],[27.532,57.443],[27.547,57.536],[27.372,57.54],[27.351,57.584],[27.549,57.817],[27.82,57.867],[27.688,57.965],[27.674,58.076],[27.551,58.136],[27.476,58.214],[27.467,58.296],[27.54,58.365],[27.542,58.415],[27.435,58.811],[27.789,59.06],[27.917,59.272],[28.144,59.291],[28.194,59.368],[28.022,59.48],[27.882,59.409],[27.554,59.429],[27.465,59.491],[27.903,59.463],[28.011,59.553],[27.944,59.708],[27.968,59.788],[28.038,59.835],[28.141,59.839],[28.219,59.795],[28.253,59.736],[28.364,59.717],[28.384,59.836],[28.458,59.898],[28.544,59.909],[28.724,59.838],[28.827,59.838],[28.962,59.883],[28.93,59.927],[28.953,59.971],[29.15,60.051],[29.61,60.008],[29.621,60.06],[29.679,60.077],[29.817,60.037],[29.875,59.967],[30.161,59.922],[30.158,59.954],[29.927,59.985],[29.842,60.115],[29.698,60.15],[29.415,60.119],[28.985,60.157],[28.941,60.203],[29.136,60.223],[29.176,60.277],[29.156,60.328],[28.873,60.424],[28.987,60.696],[29.061,60.78],[29.636,60.798],[30.426,61.032],[30.75,61.235],[30.978,61.463],[31.009,61.542],[30.764,62.238],[30.979,62.348],[31.225,62.277],[31.362,62.309],[31.407,62.39],[31.383,62.463],[31.322,62.512],[31.26,62.515],[31.427,62.754],[31.582,62.908],[31.219,63.223],[30.715,63.425],[30.478,63.482],[30.012,63.739],[30.264,63.823],[30.594,64.046],[30.613,64.095],[30.563,64.241],[30.065,64.406],[30.088,64.481],[30.011,64.513],[29.98,64.576],[30.207,64.663],[30.143,64.772],[29.809,64.795],[29.654,64.904],[29.612,64.998],[29.648,65.072],[29.869,65.12],[29.848,65.218],[29.614,65.249],[29.749,65.346],[29.739,65.48],[29.834,65.588],[29.822,65.652],[30.028,65.69],[30.12,65.668],[30.135,65.71],[30.094,65.838],[29.905,66.133],[29.633,66.329],[29.555,66.47],[29.354,66.679],[29.077,66.879],[29.093,66.975],[29.511,67.282],[29.993,67.194],[29.816,67.142],[29.843,67.106],[30.697,66.981],[30.608,66.932],[30.606,66.885],[30.261,66.852],[30.213,66.836],[30.219,66.809],[30.793,66.813],[31.234,66.776],[31.657,66.627],[32.158,66.538],[32.29,66.48],[32.33,66.434],[32.264,66.256],[32.308,66.095],[32.272,66.06],[32.128,66.036],[32.117,66.0],[31.99,65.942],[32.23,65.877],[32.292,65.791],[32.521,65.646],[32.645,65.522],[32.772,65.257],[32.967,65.208],[33.082,65.111],[33.442,65.047],[33.843,65.063],[33.966,65.009],[34.275,64.952],[34.326,64.849],[34.376,64.825],[35.053,64.748],[35.043,64.707],[34.973,64.678],[35.027,64.614],[34.976,64.557],[35.046,64.527],[35.052,64.467],[35.328,64.418],[35.379,64.342],[35.529,64.371],[35.522,64.429],[35.573,64.46],[35.806,64.394],[35.833,64.447],[35.929,64.462],[36.091,64.379],[36.064,64.303],[35.975,64.283],[36.003,64.25],[36.072,64.267],[36.253,64.179],[36.334,64.056],[36.701,63.976],[36.939,63.982],[37.02,63.947],[37.189,63.942],[37.305,63.866],[37.44,63.843],[37.56,63.857],[37.579,63.916],[37.644,63.947],[37.969,63.994],[38.035,64.05],[37.998,64.125],[37.859,64.216],[37.891,64.296],[37.77,64.335],[37.747,64.39],[37.641,64.329],[37.481,64.332],[37.34,64.291],[37.1,64.35],[36.712,64.642],[36.527,64.68],[36.395,64.897],[36.406,64.953],[36.465,64.984],[36.61,64.954],[36.753,64.999],[36.809,65.081],[36.769,65.123],[36.79,65.187],[37.065,65.218],[37.685,65.084],[37.812,64.967],[38.054,64.903],[38.369,64.901],[38.527,64.836],[39.34,64.689],[39.571,64.596],[39.705,64.604],[39.801,64.728],[39.936,64.79],[40.109,64.831],[40.377,64.807],[40.331,64.903],[40.24,64.982],[40.087,65.033],[39.69,65.339],[39.661,65.472],[39.718,65.591],[39.811,65.654],[40.447,65.856],[40.694,66.019],[41.33,66.112],[41.596,66.211],[41.832,66.339],[42.151,66.576],[42.65,66.502],[42.712,66.443],[43.308,66.476],[43.398,66.389],[43.584,66.366],[43.714,66.304],[43.742,66.232],[43.867,66.229],[44.036,66.141],[44.053,66.287],[44.16,66.427],[44.193,66.362],[44.337,66.358],[44.566,66.258],[45.732,66.018],[45.832,66.038],[46.339,65.978],[47.104,65.771],[47.409,65.786],[47.671,65.759],[47.796,65.808],[47.8,65.91],[48.153,66.078],[49.022,66.071],[51.524,66.735],[51.598,66.786],[51.567,66.885],[51.822,66.905],[51.877,66.954],[52.169,67.036],[53.77,66.949],[59.819,66.951],[59.919,66.904],[60.091,66.94],[61.669,66.966],[61.878,67.081],[62.844,67.343],[62.894,67.408],[62.921,67.551],[63.129,67.629],[63.438,67.719],[63.701,67.713],[63.76,67.771],[63.891,67.789],[63.995,67.875],[63.959,67.997],[64.342,68.087],[64.432,68.152],[64.552,68.155],[64.584,68.211],[64.572,68.311],[64.761,68.356],[65.01,68.339],[65.338,68.371],[65.224,68.24],[65.27,68.088],[65.249,67.983],[65.429,67.87],[65.787,67.874],[65.911,67.909],[66.001,67.882],[65.98,67.767],[66.135,67.706],[65.992,67.728],[65.832,67.701],[65.789,67.671],[65.746,67.561],[65.802,67.508],[66.014,67.524],[66.039,67.495],[65.93,67.443],[65.684,67.436],[65.625,67.355],[65.165,67.188],[65.144,67.113],[65.031,67.06],[65.055,66.931],[64.564,66.847],[64.49,66.773],[64.398,66.772],[64.289,66.713],[63.969,66.7],[63.791,66.595],[63.534,66.521],[63.392,66.525],[63.258,66.426],[63.186,66.313],[63.044,66.277],[62.922,66.15],[62.831,66.114],[62.775,66.032],[62.75,65.914],[62.51,65.887],[61.976,65.745],[61.993,65.673],[62.242,65.582],[62.329,65.483],[62.338,65.41],[62.457,65.305],[62.756,65.254],[62.75,65.058],[62.628,64.896],[62.653,64.834],[62.739,64.81],[62.743,64.751],[62.556,64.675],[62.484,64.575],[62.506,64.514],[62.679,64.444],[62.893,64.427],[63.225,64.474],[63.425,64.41],[63.365,64.341],[63.39,64.281],[63.607,64.219],[63.897,64.235],[64.021,64.307],[64.488,64.311],[64.618,64.388],[64.767,64.377],[65.001,64.416],[65.186,64.397],[65.408,64.521],[65.888,64.519],[66.022,64.544],[66.462,64.462],[66.678,64.507],[66.879,64.461],[66.748,64.34],[66.75,64.24],[66.796,64.181],[67.108,64.12],[67.269,64.032],[67.675,64.028],[67.794,63.982],[67.947,64.068],[68.194,64.128],[68.438,64.246],[68.901,64.176],[69.035,64.303],[69.036,64.352],[68.981,64.407],[69.023,64.422],[69.22,64.421],[69.384,64.339],[69.701,64.348],[69.811,64.293],[69.988,64.267],[70.289,64.295],[70.458,64.204],[70.733,64.155],[70.539,64.056],[70.51,63.987],[70.612,63.858],[70.781,63.781],[70.89,63.648],[71.374,63.625],[71.512,63.555],[71.559,63.175],[71.597,63.136],[71.809,63.168],[71.976,63.148],[72.164,63.249],[72.667,63.231],[72.926,63.346],[73.096,63.383],[73.252,63.275],[73.357,63.158],[74.233,63.122],[74.5,62.994],[74.92,62.982],[75.362,63.057],[75.846,63.062],[76.215,62.973],[76.292,62.9],[76.678,62.99],[76.815,62.942],[76.996,62.929],[77.138,62.745],[77.309,62.663],[77.869,62.51],[77.938,62.436],[78.011,62.412],[78.384,62.517],[78.797,62.565],[79.83,62.554],[79.892,62.588],[79.962,62.758],[80.106,62.783],[80.572,62.954],[80.637,63.042],[81.07,63.067],[81.151,62.922],[81.277,62.852],[81.313,62.783],[81.57,62.728],[81.773,62.639],[81.855,62.644],[82.155,62.76],[82.309,62.72],[82.689,62.71],[82.736,62.625],[82.965,62.555],[83.015,62.483],[83.275,62.411],[83.516,62.468],[83.601,62.455],[83.78,62.513],[83.908,62.445],[83.998,62.351],[84.215,62.33],[84.25,62.245],[84.366,62.197],[84.438,62.089],[84.479,61.898],[84.662,61.761],[85.078,61.704],[85.268,61.624],[85.388,61.637],[85.477,61.57],[85.699,61.524],[85.838,61.541],[85.918,61.508],[85.935,61.419],[86.118,61.33],[86.226,61.331],[86.327,61.404],[86.466,61.364],[86.497,61.312],[86.591,61.267],[86.784,61.272],[86.995,61.318],[87.042,61.396],[87.235,61.31],[87.415,61.304],[87.453,61.222],[87.561,61.164],[87.716,61.228],[87.784,61.312],[87.96,61.27],[88.173,61.292],[88.945,60.701],[89.872,60.76],[90.942,60.701],[91.975,60.706],[92.164,60.792],[92.188,60.868],[92.275,60.928],[92.446,60.928],[92.503,60.962],[92.521,61.009],[92.467,61.101],[92.483,61.15],[92.545,61.147],[92.743,61.044],[92.927,61.03],[92.982,61.145],[92.807,61.293],[92.832,61.312],[93.097,61.29],[93.122,61.216],[93.329,61.057],[93.471,61.037],[93.561,61.059],[93.725,60.994],[93.91,61.011],[94.022,60.915],[94.277,61.075],[94.39,61.073],[94.546,61.124],[94.701,61.111],[95.071,61.052],[95.337,60.86],[95.28,60.738],[95.375,60.687],[95.206,60.599],[95.189,60.465],[95.098,60.459],[94.995,60.406],[94.884,60.242],[94.938,60.167],[94.937,60.092],[94.987,60.054],[94.961,60.006],[94.981,59.943],[95.081,59.83],[95.117,59.695],[95.23,59.593],[95.485,59.592],[95.576,59.533],[95.724,59.509],[95.89,59.582],[95.941,59.582],[96.046,59.511],[96.22,59.564],[96.255,59.477],[96.346,59.426],[96.464,59.429],[96.565,59.493],[96.887,59.506],[97.024,59.456],[97.128,59.456],[97.246,59.495],[97.284,59.591],[97.486,59.685],[97.696,59.634],[98.061,59.679],[98.133,59.721],[98.344,59.678],[98.455,59.734],[98.612,59.717],[98.858,59.775],[98.922,59.723],[99.01,59.727],[99.13,59.805],[99.157,59.871],[99.428,59.988],[99.466,60.041],[99.644,60.07],[100.027,59.956],[100.02,59.901],[100.056,59.853],[100.305,59.797],[100.414,59.81],[100.545,59.744],[100.862,59.738],[101.016,59.669],[101.442,59.638],[101.574,59.694],[101.719,59.694],[101.77,59.641],[102.103,59.544],[102.249,59.548],[102.403,59.602],[102.415,59.501],[102.48,59.453],[102.434,59.389],[102.463,59.292],[102.391,59.207],[102.464,59.14],[102.828,59.142],[102.926,59.228],[103.016,59.254],[103.17,59.206],[103.2,59.141],[103.264,59.11],[103.366,58.987],[103.531,58.949],[103.605,58.877],[103.894,58.869],[103.898,58.807],[103.837,58.757],[103.87,58.691],[103.977,58.678],[104.064,58.734],[104.113,58.729],[104.24,58.668],[104.293,58.672],[104.381,58.586],[104.47,58.559],[104.836,58.632],[104.944,58.743],[104.925,58.788],[104.836,58.824],[104.854,58.851],[105.161,59.007],[105.321,59.029],[105.414,59.098],[105.379,59.226],[105.268,59.325],[105.292,59.427],[105.273,59.476],[105.155,59.535],[105.008,59.513],[104.929,59.569],[104.927,59.628],[104.86,59.682],[105.048,59.734],[105.096,59.818],[105.472,59.781],[105.565,59.837],[105.494,59.933],[105.555,59.995],[105.491,60.126],[105.556,60.211],[105.537,60.268],[105.352,60.348],[105.225,60.327],[104.919,60.351],[104.725,60.443],[104.688,60.545],[104.603,60.628],[104.659,60.731],[104.59,60.823],[104.678,60.882],[104.662,60.955],[104.695,61.035],[104.878,61.14],[105.083,61.145],[105.076,61.241],[104.995,61.351],[105.295,61.376],[105.367,61.476],[105.604,61.544],[105.672,61.603],[105.819,61.58],[106.009,61.65],[106.029,61.699],[105.978,61.828],[106.3,61.979],[106.427,62.004],[106.535,62.344],[106.797,62.469],[106.78,62.55],[106.851,62.603],[106.83,62.661],[106.57,62.74],[106.556,62.816],[106.466,62.904],[106.249,62.971],[106.214,63.033],[106.435,63.093],[106.489,63.209],[106.458,63.292],[106.636,63.268],[106.778,63.369],[106.761,63.446],[106.629,63.519],[106.736,63.644],[106.696,63.72],[106.713,63.752],[106.835,63.85],[106.82,63.936],[107.082,63.875],[107.284,63.924],[107.328,63.859],[107.52,63.847],[107.621,63.865],[107.749,63.966],[108.321,63.961],[108.438,64.039],[108.335,64.243],[108.258,64.299],[108.075,64.296],[108.005,64.237],[107.646,64.361],[107.356,64.315],[107.269,64.394],[107.141,64.403],[106.924,64.488],[106.763,64.477],[106.663,64.579],[106.57,64.592],[106.518,64.568],[106.496,64.509],[106.19,64.474],[106.165,64.525],[106.04,64.589],[105.843,64.551],[105.794,64.61],[105.912,64.649],[105.902,64.779],[105.985,64.773],[106.041,64.822],[106.196,64.815],[106.248,64.843],[106.249,64.902],[106.151,64.948],[106.113,65.018],[106.218,65.084],[106.333,65.099],[106.417,65.173],[106.549,65.175],[106.572,65.24],[106.511,65.281],[106.57,65.33],[106.836,65.331],[107.018,65.499],[106.989,65.552],[106.811,65.572],[106.723,65.649],[106.507,65.708],[106.56,66.028],[106.359,66.199],[106.177,66.215],[106.175,66.349],[106.382,66.466],[106.366,66.543],[106.3,66.599],[106.301,66.707],[106.235,66.744],[106.256,66.822],[106.151,66.85],[106.103,66.94],[105.897,66.976],[105.973,66.997],[106.119,67.119],[106.356,67.153],[106.46,67.219],[106.745,67.219],[106.869,67.315],[106.924,67.658],[106.971,68.253],[106.953,68.878],[106.255,69.398],[106.366,69.432],[106.49,69.531],[106.624,69.478],[106.859,69.473],[107.618,69.611],[107.965,69.62],[108.051,69.659],[108.095,69.734],[108.274,69.804],[108.864,69.788],[108.939,69.721],[109.311,69.726],[109.427,69.795],[109.459,69.932],[109.551,69.948],[109.594,70.0],[109.576,70.071],[109.443,70.093],[109.41,70.163],[109.604,70.211],[109.661,70.261],[109.667,70.322],[110.349,70.374],[110.37,70.43],[110.348,70.469],[110.195,70.508],[110.19,70.587],[110.223,70.611],[110.52,70.674],[110.622,70.736],[110.854,70.734],[111.064,70.795],[111.386,70.813],[111.554,70.889],[111.948,70.926],[112.06,71.007],[112.254,70.95],[112.367,71.022],[112.625,71.063],[112.645,71.14],[112.766,71.222],[112.752,71.295],[112.613,71.344],[112.499,71.327],[112.235,71.426],[112.052,71.448],[112.031,72.164],[111.77,72.211],[111.674,72.337],[111.589,72.373],[111.206,72.4],[111.343,72.465],[111.341,72.549],[111.19,72.607],[110.965,72.632],[110.932,72.677],[110.799,72.693],[110.757,72.731],[110.796,72.8],[110.779,72.856],[110.909,72.884],[110.956,72.924],[110.949,72.971],[110.888,73.006],[110.911,73.049],[110.882,73.105],[110.899,73.174],[110.859,73.21],[110.665,73.215],[110.671,73.291],[110.589,73.363],[110.913,73.515],[111.028,73.51],[111.335,73.589],[111.313,73.665],[111.0,73.749],[111.068,73.774],[111.219,73.767],[111.408,73.819],[111.772,73.748],[112.246,73.707],[112.875,73.76],[112.951,73.797],[112.87,73.926],[112.898,73.961],[113.143,73.859],[113.423,73.641],[113.409,73.581],[113.292,73.567],[113.135,73.448],[113.264,73.371],[113.496,73.332],[113.519,73.116],[113.46,73.02],[113.473,72.964],[113.09,72.835],[113.184,72.721],[113.532,72.635],[114.087,72.595],[113.348,72.688],[113.224,72.74],[113.16,72.816],[113.178,72.855],[113.37,72.885],[113.535,72.968],[113.561,73.075],[113.55,73.242],[113.697,73.312],[114.024,73.344],[113.763,73.356],[113.528,73.439],[113.48,73.502],[114.1,73.587],[114.86,73.605],[115.237,73.692],[115.454,73.703],[116.582,73.663],[117.238,73.59],[118.631,73.572],[118.831,73.545],[118.966,73.486],[118.689,73.443],[118.471,73.48],[118.347,73.41],[118.352,73.283],[118.389,73.238],[119.003,73.104],[119.53,73.058],[119.587,72.996],[119.817,72.936],[120.539,72.884],[119.878,72.947],[119.769,72.995],[119.815,73.017],[120.59,72.981],[121.01,72.93],[121.381,72.967],[121.866,72.968],[122.052,72.892],[122.423,72.867],[123.341,72.728],[123.787,72.756],[124.111,72.71],[124.341,72.641],[124.742,72.623],[125.135,72.532],[125.256,72.452],[125.456,72.423],[125.647,72.342],[125.88,72.332],[126.094,72.271],[126.247,72.29],[126.366,72.351],[126.552,72.251],[126.626,72.178],[126.75,72.14],[126.804,72.016],[127.127,71.849],[127.09,71.767],[127.203,71.594],[127.215,71.395],[127.306,71.411],[127.311,71.491],[127.19,71.749],[127.243,71.838],[127.326,71.895],[126.976,72.055],[126.892,72.293],[126.738,72.385],[127.036,72.402],[127.656,72.347],[127.938,72.205],[128.262,72.108],[128.385,72.038],[128.495,71.914],[128.612,71.889],[128.646,71.799],[128.711,71.77],[128.962,71.74],[129.182,71.803],[129.17,71.849],[129.077,71.926],[129.056,71.975],[129.08,71.998],[129.293,71.867],[129.315,71.798],[129.482,71.728],[129.271,71.749],[128.929,71.708],[128.814,71.656],[128.844,71.604],[129.184,71.59],[129.384,71.344],[129.653,71.258],[129.755,71.147],[129.744,71.121],[130.077,71.082],[130.213,70.988],[130.169,70.965],[130.576,70.869],[130.694,70.883],[130.722,70.952],[130.783,70.97],[130.891,70.838],[130.898,70.755],[131.126,70.731],[131.285,70.763],[131.535,70.877],[131.844,71.201],[132.175,71.218],[131.948,71.254],[131.946,71.286],[132.257,71.672],[132.538,71.888],[132.719,71.941],[132.752,71.93],[132.756,71.834],[132.707,71.793],[132.716,71.768],[132.926,71.723],[133.158,71.572],[133.678,71.433],[134.004,71.383],[134.455,71.368],[134.696,71.415],[134.813,71.478],[135.016,71.528],[135.225,71.548],[135.363,71.524],[135.418,71.532],[135.371,71.569],[135.584,71.614],[135.974,71.632],[136.495,71.567],[136.565,71.501],[136.777,71.518],[136.885,71.461],[137.452,71.341],[137.47,71.327],[137.423,71.279],[137.537,71.239],[137.641,71.254],[137.804,71.116],[137.906,71.141],[137.985,71.107],[138.068,71.136],[138.01,71.184],[137.761,71.221],[137.784,71.244],[138.063,71.221],[138.215,71.259],[138.027,71.294],[138.232,71.324],[137.995,71.335],[137.838,71.385],[138.007,71.468],[138.034,71.557],[138.067,71.573],[138.452,71.608],[138.398,71.571],[138.462,71.534],[138.591,71.551],[138.568,71.604],[138.735,71.642],[139.042,71.566],[139.115,71.428],[139.2,71.412],[139.354,71.421],[139.449,71.496],[139.739,71.464],[139.932,71.485],[139.926,71.55],[139.732,71.671],[139.691,71.785],[139.738,71.838],[139.644,71.912],[139.421,71.944],[139.647,71.955],[139.714,72.003],[139.716,72.076],[139.859,72.164],[140.065,72.134],[140.198,72.169],[140.194,72.207],[140.015,72.237],[139.56,72.233],[139.324,72.129],[139.184,72.163],[139.092,72.235],[139.168,72.324],[139.542,72.494],[140.094,72.473],[140.603,72.494],[141.024,72.585],[141.001,72.702],[140.669,72.801],[140.589,72.866],[140.741,72.889],[141.35,72.851],[141.562,72.771],[141.989,72.72],[143.554,72.689],[145.474,72.546],[146.758,72.351],[145.414,72.353],[144.966,72.435],[144.735,72.387],[144.535,72.232],[144.285,72.295],[144.144,72.263],[144.431,72.169],[145.09,72.259],[146.897,72.295],[146.421,72.035],[145.965,71.848],[145.937,71.862],[145.998,72.028],[146.107,72.033],[146.341,72.125],[146.206,72.174],[146.052,72.154],[146.056,72.122],[145.984,72.068],[145.941,72.099],[145.956,72.133],[145.901,72.203],[145.688,72.253],[145.622,72.243],[145.736,72.215],[145.74,72.19],[145.618,72.082],[145.677,72.027],[145.789,72.026],[145.796,71.927],[145.349,71.867],[144.967,71.966],[144.958,71.921],[145.201,71.838],[145.047,71.774],[144.888,71.771],[144.921,71.693],[145.236,71.686],[145.318,71.658],[145.544,71.732],[146.08,71.791],[147.183,72.323],[148.275,72.319],[149.19,72.222],[149.718,72.116],[150.016,71.955],[150.068,71.887],[149.976,71.831],[149.67,71.762],[149.407,71.896],[149.338,71.9],[149.125,71.766],[148.841,71.803],[149.032,71.753],[148.995,71.699],[148.83,71.672],[149.0,71.663],[149.12,71.695],[149.688,71.642],[149.959,71.657],[150.077,71.591],[149.947,71.589],[149.866,71.463],[150.243,71.519],[150.552,71.516],[150.661,71.482],[150.519,71.344],[150.026,71.208],[150.399,71.275],[150.677,71.388],[150.704,71.382],[150.607,71.278],[150.993,71.392],[151.459,71.341],[151.737,71.24],[152.123,70.999],[151.991,70.97],[151.661,70.984],[152.535,70.838],[153.7,70.866],[154.223,70.956],[155.932,71.094],[157.901,71.046],[159.051,70.868],[159.68,70.669],[160.036,70.406],[160.102,70.285],[160.094,70.245],[159.957,70.136],[159.795,70.137],[159.798,70.103],[159.875,70.073],[159.812,69.977],[159.697,69.916],[159.685,69.893],[159.73,69.834],[160.091,69.727],[160.917,69.638],[160.995,69.582],[160.922,69.458],[161.014,69.299],[161.042,69.17],[160.969,69.114],[161.029,69.072],[161.264,69.044],[161.405,68.974],[161.216,68.784],[161.209,68.698],[161.068,68.566],[160.763,68.561],[160.837,68.524],[161.011,68.525],[161.135,68.56],[161.276,68.678],[161.321,68.791],[161.577,68.912],[161.567,69.012],[161.481,69.09],[161.426,69.203],[161.435,69.373],[161.809,69.527],[161.977,69.528],[162.325,69.662],[162.613,69.677],[162.835,69.652],[163.181,69.717],[163.602,69.681],[164.012,69.767],[164.531,69.599],[165.624,69.59],[166.135,69.511],[166.644,69.524],[166.861,69.491],[167.214,69.583],[167.651,69.759],[167.777,69.776],[167.99,69.715],[167.994,69.627],[168.241,69.549],[168.256,69.526],[168.194,69.38],[168.233,69.28],[168.283,69.242],[168.737,69.208],[169.363,69.08],[169.424,68.997],[169.453,68.841],[169.588,68.777],[170.33,68.821],[170.612,68.756],[170.551,68.824],[170.462,68.845],[170.626,68.909],[170.705,68.805],[170.711,68.904],[170.762,68.954],[171.032,69.043],[170.908,69.306],[170.609,69.581],[170.133,69.614],[170.282,69.728],[170.567,69.778],[170.556,69.893],[170.523,69.93],[170.558,70.079],[170.423,70.113],[170.475,70.134],[171.926,69.998],[172.641,69.965],[173.163,69.848],[173.202,69.779],[173.38,69.787],[173.475,69.833],[173.272,69.911],[173.187,69.899],[173.203,69.922],[173.451,69.952],[173.741,69.867],[173.93,69.847],[174.093,69.883],[175.3,69.846],[175.725,69.904],[176.083,69.893],[176.233,69.828],[176.235,69.794],[176.532,69.74],[176.74,69.667],[177.441,69.603],[178.185,69.449],[178.369,69.475],[178.769,69.407],[179.03,69.327],[178.941,69.32],[178.741,69.372],[178.679,69.359],[178.652,69.309],[178.715,69.279],[178.885,69.296],[179.296,69.262],[179.914,69.004],[179.833,69.004],[179.551,69.106],[179.718,69.003],[180.0,68.973],[179.997,65.069],[179.795,65.022],[179.459,64.813],[179.161,64.788],[178.702,64.633],[178.749,64.683],[178.369,64.666],[177.607,64.721],[177.506,64.804],[177.442,64.916],[177.262,64.933],[177.166,65.025],[176.917,65.082],[176.593,65.025],[176.439,65.074],[176.308,65.047],[176.565,64.995],[176.956,65.038],[177.216,64.909],[177.291,64.831],[177.044,64.771],[176.928,64.799],[176.87,64.848],[176.634,64.869],[176.454,64.808],[176.418,64.844],[176.059,64.948],[175.87,64.832],[175.691,64.778],[175.068,64.763],[174.703,64.679],[174.464,64.686],[174.72,64.67],[175.056,64.739],[175.684,64.754],[175.823,64.783],[176.069,64.9],[176.2,64.874],[176.414,64.708],[176.148,64.63],[176.11,64.545],[176.217,64.621],[176.33,64.623],[176.453,64.687],[176.603,64.66],[176.739,64.565],[177.012,64.711],[177.34,64.777],[177.481,64.759],[177.452,64.647],[177.361,64.544],[177.434,64.43],[177.632,64.319],[178.087,64.2],[178.181,64.205],[178.085,64.258],[178.28,64.351],[178.342,64.299],[178.475,64.127],[178.483,64.077],[178.399,64.033],[178.377,63.972],[178.663,63.942],[178.754,63.648],[178.606,63.675],[178.354,63.627],[178.261,63.574],[178.369,63.516],[178.476,63.573],[178.702,63.572],[178.725,63.48],[178.595,63.412],[178.683,63.384],[178.774,63.399],[178.808,63.442],[178.747,63.546],[178.775,63.586],[178.836,63.47],[178.965,63.351],[178.855,63.399],[178.804,63.381],[178.822,63.339],[179.243,63.229],[179.408,63.14],[179.407,63.059],[179.314,63.059],[179.236,63.005],[179.306,62.903],[179.54,62.84],[179.603,62.701],[179.553,62.62],[179.413,62.565],[179.356,62.507],[179.129,62.479],[179.104,62.453],[179.139,62.423],[179.149,62.339],[179.1,62.291],[178.96,62.358],[178.029,62.544],[177.34,62.576],[177.292,62.61],[177.315,62.735],[177.452,62.81],[177.329,62.801],[177.242,62.706],[177.195,62.704],[177.145,62.718],[177.151,62.778],[177.112,62.813],[176.974,62.864],[176.93,62.665],[177.05,62.578],[177.17,62.567],[176.816,62.52],[176.684,62.539],[176.279,62.313],[175.318,62.101],[175.168,62.015],[174.776,61.919],[174.605,61.978],[174.717,61.886],[174.593,61.83],[174.45,61.806],[174.078,61.841],[174.017,61.819],[174.046,61.774],[174.007,61.724],[173.874,61.677],[173.542,61.744],[173.496,61.658],[173.492,61.566],[173.349,61.551],[173.293,61.514],[173.274,61.452],[173.16,61.405],[173.063,61.392],[172.889,61.47],[172.714,61.427],[172.897,61.367],[172.95,61.304],[172.844,61.278],[172.673,61.329],[172.763,61.274],[172.641,61.191],[172.343,61.219],[172.372,61.101],[172.473,61.072],[172.453,61.042],[172.36,61.009],[172.244,61.013],[172.021,61.091],[172.161,61.027],[172.197,60.967],[172.115,60.938],[172.023,60.851],[171.992,60.876],[172.002,60.921],[171.951,60.946],[171.948,60.853],[171.61,60.802],[171.613,60.736],[171.408,60.714],[171.365,60.632],[171.175,60.556],[170.857,60.506],[170.785,60.445],[170.642,60.418],[170.618,60.394],[170.653,60.326],[170.53,60.285],[170.468,60.223],[170.393,59.96],[170.245,59.911],[170.105,59.978],[170.076,60.033],[169.927,60.074],[169.748,60.276],[169.703,60.407],[169.332,60.531],[169.323,60.555],[169.366,60.563],[169.265,60.619],[169.207,60.62],[169.148,60.561],[168.187,60.582],[167.051,60.324],[166.345,59.869],[166.141,59.816],[166.098,59.855],[166.137,60.025],[166.259,60.256],[166.256,60.381],[166.348,60.413],[166.381,60.47],[166.349,60.486],[166.001,60.434],[165.767,60.288],[165.238,60.098],[164.997,60.127],[165.037,60.064],[165.121,60.082],[165.179,59.98],[164.998,59.84],[164.829,59.784],[164.701,59.976],[164.469,60.111],[164.318,60.086],[164.337,60.028],[164.141,59.933],[164.137,59.868],[164.053,59.877],[164.048,59.932],[164.107,59.972],[164.044,60.03],[163.64,60.046],[163.621,60.023],[163.677,59.971],[163.742,59.972],[163.7,59.9],[163.504,59.899],[163.361,59.824],[163.387,59.629],[163.327,59.585],[163.179,59.566],[163.166,59.502],[163.327,59.385],[163.265,59.241],[163.235,59.245],[163.253,59.296],[163.104,59.278],[163.061,59.241],[163.067,59.194],[163.19,59.128],[163.186,59.05],[163.013,59.157],[162.883,59.128],[163.038,59.02],[163.033,58.998],[162.762,58.892],[162.726,58.853],[162.774,58.861],[162.764,58.836],[162.406,58.68],[162.142,58.452],[161.939,58.068],[162.002,57.949],[162.107,57.854],[162.315,57.797],[162.339,57.691],[162.381,57.69],[162.477,57.762],[162.467,57.868],[162.568,57.95],[162.701,57.963],[162.995,57.85],[163.216,57.831],[163.278,57.736],[163.073,57.503],[162.743,57.36],[162.765,57.345],[162.752,57.217],[162.827,57.045],[162.79,56.795],[162.902,56.707],[163.213,56.738],[163.246,56.687],[163.215,56.628],[163.34,56.331],[163.348,56.197],[163.108,56.088],[163.031,56.019],[162.868,56.041],[162.647,56.191],[162.63,56.244],[162.719,56.327],[163.074,56.478],[163.093,56.525],[162.99,56.547],[162.896,56.434],[162.698,56.492],[162.395,56.39],[162.559,56.27],[162.444,56.208],[162.086,56.101],[162.036,56.05],[162.016,55.957],[161.749,55.627],[161.711,55.492],[161.718,55.366],[161.797,55.168],[161.874,55.067],[161.971,55.025],[162.148,54.862],[162.112,54.763],[161.734,54.508],[161.309,54.492],[161.24,54.512],[161.203,54.572],[161.116,54.591],[160.728,54.53],[160.006,54.14],[159.899,53.981],[159.818,53.66],[159.904,53.601],[159.895,53.657],[159.921,53.647],[159.96,53.516],[159.916,53.474],[159.799,53.521],[159.977,53.269],[160.013,53.267],[160.044,53.099],[159.613,53.259],[159.453,53.217],[159.389,53.16],[159.254,53.153],[159.021,53.084],[158.727,52.894],[158.584,53.062],[158.44,53.027],[158.419,53.007],[158.446,52.903],[158.522,52.907],[158.492,52.932],[158.516,52.943],[158.625,52.931],[158.642,52.901],[158.631,52.846],[158.561,52.789],[158.598,52.705],[158.549,52.627],[158.419,52.652],[158.436,52.6],[158.511,52.565],[158.554,52.312],[158.525,52.276],[158.429,52.266],[158.317,52.128],[158.276,51.94],[157.913,51.644],[157.775,51.565],[157.537,51.487],[157.262,51.234],[157.097,51.159],[156.705,50.901],[156.668,50.907],[156.746,50.994],[156.745,51.079],[156.674,51.229],[156.556,51.272],[156.52,51.319],[156.473,51.516],[156.493,51.926],[156.429,52.202],[156.287,52.511],[156.359,52.498],[156.38,52.45],[156.44,52.516],[156.263,52.567],[156.103,52.853],[156.077,53.134],[155.931,53.838],[155.701,54.509],[155.544,55.304],[155.647,55.915],[155.943,56.653],[156.112,56.819],[156.148,56.827],[156.065,56.724],[156.204,56.851],[156.448,56.953],[156.545,57.102],[156.646,57.077],[156.695,57.108],[156.98,57.421],[156.98,57.529],[156.934,57.643],[156.776,57.745],[156.981,57.849],[157.167,57.773],[157.435,57.791],[157.536,57.852],[157.647,58.004],[157.927,57.979],[158.234,58.019],[158.658,58.267],[159.044,58.42],[159.701,58.85],[159.756,58.944],[159.735,59.019],[159.794,59.087],[159.931,59.18],[160.34,59.36],[160.445,59.457],[160.486,59.542],[160.861,59.622],[161.247,59.85],[161.466,60.046],[161.837,60.187],[161.929,60.268],[161.916,60.327],[161.879,60.326],[161.915,60.42],[162.46,60.592],[162.753,60.646],[162.902,60.771],[163.111,60.778],[163.193,60.82],[163.371,60.816],[163.644,60.876],[163.729,60.937],[163.513,61.004],[163.512,61.048],[163.636,61.146],[163.854,61.213],[164.015,61.331],[164.02,61.363],[163.94,61.44],[163.787,61.425],[163.751,61.454],[163.847,61.631],[164.011,61.687],[164.071,61.783],[164.064,62.098],[164.124,62.278],[164.615,62.474],[165.095,62.42],[165.231,62.372],[165.285,62.317],[165.33,62.316],[165.116,62.456],[165.347,62.478],[165.615,62.444],[165.619,62.444],[164.766,62.568],[164.582,62.691],[164.369,62.712],[163.258,62.543],[163.165,62.445],[163.34,62.36],[163.125,62.283],[163.081,62.197],[163.136,62.045],[162.953,61.801],[163.247,61.743],[163.301,61.716],[163.281,61.662],[163.094,61.618],[163.066,61.596],[163.083,61.554],[163.007,61.52],[162.944,61.578],[162.932,61.67],[162.839,61.72],[162.653,61.692],[162.641,61.668],[162.749,61.628],[162.739,61.601],[162.409,61.673],[162.027,61.421],[161.784,61.343],[161.565,61.202],[161.468,61.202],[161.328,61.088],[160.889,60.885],[160.796,60.74],[160.673,60.776],[160.399,60.74],[160.263,60.628],[160.145,60.592],[160.136,60.657],[160.223,60.734],[160.225,60.784],[160.171,60.831],[160.391,61.026],[160.333,61.053],[160.171,61.052],[159.865,60.93],[159.793,60.942],[159.904,61.038],[159.947,61.135],[159.913,61.251],[159.839,61.27],[159.856,61.313],[160.009,61.391],[160.156,61.518],[160.366,61.766],[160.355,61.947],[159.967,61.827],[159.83,61.713],[159.53,61.666],[159.364,61.891],[159.249,61.922],[158.905,61.896],[158.732,61.836],[158.304,61.823],[158.022,61.731],[157.894,61.786],[157.486,61.803],[157.027,61.65],[156.858,61.537],[156.696,61.534],[156.634,61.422],[156.652,61.21],[156.416,61.182],[156.086,61.013],[155.928,60.906],[155.893,60.761],[154.966,60.375],[154.624,60.137],[154.531,60.049],[154.467,59.921],[154.232,59.879],[154.228,59.724],[154.293,59.638],[154.066,59.514],[154.109,59.463],[154.292,59.444],[154.344,59.486],[154.42,59.423],[154.501,59.433],[154.432,59.486],[154.419,59.541],[154.447,59.548],[154.69,59.517],[154.848,59.463],[154.967,59.492],[155.083,59.393],[155.183,59.36],[155.138,59.205],[154.827,59.189],[154.743,59.162],[154.736,59.129],[154.446,59.22],[154.331,59.203],[154.344,59.137],[154.29,59.095],[154.154,59.096],[154.022,59.047],[153.915,59.078],[153.795,59.175],[153.362,59.242],[153.269,59.092],[152.994,59.075],[152.875,58.918],[152.567,58.955],[152.355,59.023],[152.125,58.989],[152.12,58.924],[152.06,58.896],[151.621,58.852],[151.454,58.875],[151.312,58.841],[151.273,58.92],[151.215,58.946],[151.089,59.101],[151.166,59.09],[151.609,59.167],[152.046,59.153],[152.284,59.22],[152.143,59.292],[151.98,59.265],[151.75,59.296],[151.605,59.473],[151.387,59.571],[151.098,59.592],[150.903,59.567],[150.87,59.553],[150.928,59.471],[150.714,59.443],[150.688,59.457],[150.729,59.494],[150.686,59.51],[150.535,59.504],[150.728,59.556],[150.707,59.575],[150.526,59.555],[150.416,59.622],[150.3,59.647],[149.642,59.769],[149.478,59.767],[149.369,59.759],[149.034,59.632],[149.085,59.551],[149.207,59.506],[149.205,59.471],[149.086,59.493],[148.903,59.463],[148.844,59.5],[148.861,59.552],[148.695,59.449],[148.722,59.37],[148.861,59.402],[148.959,59.38],[148.948,59.262],[148.906,59.242],[148.8,59.281],[148.543,59.246],[148.416,59.262],[148.365,59.394],[148.21,59.419],[147.843,59.383],[147.782,59.349],[147.816,59.282],[147.605,59.299],[147.49,59.24],[147.298,59.326],[147.164,59.319],[147.0,59.373],[146.748,59.374],[146.513,59.461],[146.325,59.391],[146.341,59.205],[146.319,59.185],[145.999,59.149],[145.803,59.264],[145.911,59.35],[145.908,59.413],[145.318,59.394],[145.248,59.423],[145.058,59.385],[144.596,59.372],[143.924,59.413],[143.474,59.338],[143.21,59.377],[142.587,59.238],[142.303,59.138],[141.979,58.968],[141.839,58.814],[141.615,58.646],[141.333,58.517],[141.088,58.461],[140.902,58.376],[140.684,58.229],[140.516,57.942],[140.498,57.826],[140.315,57.754],[140.067,57.722],[139.945,57.651],[139.839,57.51],[139.597,57.445],[139.564,57.38],[139.47,57.318],[139.179,57.264],[138.909,57.027],[138.653,56.986],[138.587,56.876],[138.479,56.846],[138.401,56.738],[138.306,56.717],[138.261,56.646],[138.136,56.592],[138.116,56.566],[138.14,56.457],[137.917,56.346],[137.843,56.252],[137.731,56.178],[136.733,55.664],[136.417,55.569],[136.122,55.3],[135.745,55.146],[135.557,55.124],[135.219,54.931],[135.157,54.861],[135.262,54.72],[135.672,54.64],[135.731,54.572],[135.976,54.574],[136.213,54.617],[136.537,54.59],[136.814,54.648],[136.877,54.582],[136.748,54.428],[136.766,54.216],[136.804,54.132],[136.688,54.006],[136.654,53.92],[136.681,53.811],[136.76,53.769],[136.937,53.851],[137.112,53.804],[137.176,53.839],[137.282,54.038],[137.178,54.036],[137.068,54.136],[137.186,54.214],[137.39,54.305],[137.724,54.306],[137.515,54.153],[137.357,54.135],[137.293,54.075],[137.595,53.954],[137.845,53.956],[137.78,53.897],[137.598,53.827],[137.563,53.73],[137.487,53.666],[137.336,53.661],[137.212,53.582],[137.344,53.525],[137.9,53.573],[138.291,53.742],[138.343,53.886],[138.551,53.986],[138.589,53.856],[138.571,53.816],[138.24,53.559],[138.249,53.52],[138.466,53.521],[138.551,53.58],[138.649,53.72],[138.77,54.004],[138.741,54.249],[138.666,54.288],[138.702,54.312],[138.993,54.229],[139.333,54.183],[139.727,54.306],[139.798,54.293],[139.816,54.211],[140.238,54.05],[140.256,53.863],[140.361,53.78],[140.536,53.71],[140.556,53.647],[140.957,53.501],[140.927,53.435],[141.241,53.308],[141.414,53.291],[141.433,53.153],[141.353,53.096],[141.236,53.078],[141.19,53.041],[141.241,53.021],[141.179,52.983],[140.842,53.12],[140.714,53.116],[140.937,52.991],[140.96,52.94],[141.201,52.842],[141.311,52.657],[141.221,52.509],[141.128,52.461],[141.131,52.409],[141.395,52.226],[141.504,52.205],[141.483,52.16],[141.344,52.104],[141.31,52.034],[141.306,52.008],[141.422,51.924],[141.277,51.875],[141.082,51.679],[140.909,51.613],[140.901,51.495],[140.796,51.455],[140.814,51.413],[140.882,51.419],[140.867,51.364],[140.69,51.317],[140.676,51.172],[140.71,51.051],[140.678,50.95],[140.528,50.865],[140.462,50.703],[140.485,50.61],[140.439,50.536],[140.527,50.366],[140.516,50.171],[140.592,50.074],[140.66,50.077],[140.487,49.98],[140.411,49.866],[140.528,49.728],[140.553,49.558],[140.434,49.355],[140.34,49.272],[140.388,48.968],[140.245,48.839],[140.213,48.764],[140.174,48.45],[139.285,47.815],[139.046,47.471],[139.041,47.403],[138.554,47.018],[138.384,46.735],[138.343,46.55],[138.199,46.446],[138.061,46.18],[137.777,45.936],[137.663,45.788],[137.378,45.611],[137.176,45.416],[136.859,45.214],[136.441,44.79],[136.374,44.788],[136.243,44.663],[136.183,44.514],[135.892,44.402],[135.802,44.266],[135.647,44.156],[135.629,44.041],[135.46,43.944],[135.501,43.849],[135.423,43.758],[135.275,43.688],[135.129,43.503],[134.862,43.395],[134.35,43.12],[134.186,43.078],[133.905,42.876],[133.57,42.82],[133.217,42.728],[133.154,42.683],[133.037,42.684],[133.003,42.717],[133.039,42.771],[132.994,42.819],[132.916,42.818],[132.843,42.742],[132.799,42.765],[132.772,42.87],[132.59,42.843],[132.461,42.934],[132.352,42.897],[132.35,42.853],[132.312,42.849],[132.285,42.962],[132.369,43.212],[132.35,43.293],[132.302,43.317],[132.23,43.232],[131.946,43.065],[131.849,43.089],[131.909,43.194],[131.991,43.235],[132.051,43.313],[131.811,43.325],[131.75,43.218],[131.525,43.005],[131.471,42.872],[131.278,42.763],[131.219,42.652],[131.22,42.562],[131.167,42.576],[131.114,42.662],[130.968,42.628],[130.806,42.688],[130.714,42.686],[130.679,42.654],[130.866,42.523],[130.701,42.299],[130.581,42.481],[130.605,42.62],[130.536,42.682],[130.415,42.708],[130.436,42.746],[130.619,42.823],[130.735,42.825],[130.793,42.869],[130.992,42.849],[131.128,42.916],[131.108,43.04],[131.184,43.121],[131.31,43.389],[131.301,43.457],[131.192,43.542],[131.231,43.973],[131.298,44.053],[131.096,44.691],[130.959,44.839],[131.109,44.919],[131.177,44.903],[131.334,44.967],[131.47,44.974],[131.645,45.107],[131.699,45.206],[131.856,45.334],[131.968,45.234],[132.93,45.021],[133.117,45.124],[133.103,45.289],[133.156,45.458],[133.195,45.505],[133.414,45.573],[133.477,45.628],[133.474,45.736],[133.511,45.779],[133.477,45.817],[133.505,45.862],[133.58,45.871],[133.659,45.934],[133.745,46.155],[133.902,46.254],[133.934,46.391],[133.848,46.476],[133.91,46.579],[134.019,46.667],[134.04,46.86],[134.114,47.054],[134.227,47.117],[134.155,47.256],[134.183,47.322],[134.315,47.42],[134.487,47.43],[134.554,47.469],[134.773,47.711],[134.562,48.002],[134.583,48.057],[134.683,48.135],[134.718,48.265],[134.413,48.391],[133.737,48.251],[133.508,48.094],[133.227,48.126],[133.092,48.107],[132.779,47.936],[132.675,47.951],[132.667,47.881],[132.576,47.794],[132.573,47.739],[132.521,47.711],[132.339,47.742],[131.917,47.671],[131.703,47.696],[131.62,47.664],[131.421,47.743],[131.091,47.676],[130.965,47.705],[130.908,47.884],[130.675,48.065],[130.666,48.114],[130.831,48.294],[130.743,48.413],[130.759,48.486],[130.655,48.484],[130.609,48.576],[130.531,48.615],[130.674,48.871],[130.54,48.854],[130.442,48.896],[130.201,48.883],[129.916,49.037],[129.921,49.082],[129.845,49.117],[129.841,49.168],[129.746,49.193],[129.711,49.274],[129.552,49.291],[129.528,49.385],[129.481,49.422],[129.402,49.431],[129.111,49.349],[128.999,49.441],[128.872,49.482],[128.797,49.573],[128.672,49.611],[128.636,49.583],[128.383,49.579],[128.198,49.539],[128.055,49.555],[127.971,49.603],[127.854,49.585],[127.702,49.664],[127.645,49.767],[127.535,49.794],[127.507,49.842],[127.534,49.923],[127.488,50.019],[127.575,50.137],[127.591,50.209],[127.332,50.327],[127.358,50.415],[127.295,50.464],[127.367,50.578],[127.289,50.676],[127.288,50.75],[126.932,51.066],[126.904,51.19],[126.973,51.323],[126.898,51.316],[126.868,51.252],[126.82,51.271],[126.822,51.327],[126.909,51.391],[126.797,51.424],[126.83,51.508],[126.761,51.552],[126.726,51.708],[126.609,51.788],[126.445,51.991],[126.514,52.043],[126.556,52.131],[126.324,52.198],[126.336,52.238],[126.439,52.275],[126.349,52.304],[126.344,52.391],[126.276,52.463],[126.208,52.468],[126.212,52.533],[126.083,52.594],[125.992,52.586],[125.977,52.64],[126.069,52.68],[126.052,52.712],[126.104,52.754],[126.088,52.776],[125.975,52.767],[125.838,52.907],[125.662,52.881],[125.662,52.919],[125.734,52.982],[125.621,53.062],[125.49,53.069],[125.078,53.212],[124.918,53.194],[124.838,53.135],[124.753,53.15],[124.652,53.209],[124.389,53.244],[124.253,53.376],[124.121,53.354],[123.97,53.456],[123.614,53.563],[123.555,53.536],[123.495,53.56],[123.461,53.525],[123.252,53.568],[123.157,53.514],[122.856,53.474],[122.396,53.456],[122.314,53.496],[122.08,53.43],[121.886,53.431],[121.641,53.385],[121.208,53.278],[120.846,53.274],[120.27,52.86],[120.031,52.768],[120.026,52.641],[120.082,52.588],[120.187,52.58],[120.44,52.637],[120.707,52.544],[120.626,52.344],[120.75,52.212],[120.775,52.117],[120.697,52.049],[120.708,52.006],[120.651,51.915],[120.492,51.879],[120.1,51.659],[119.977,51.487],[119.953,51.399],[119.895,51.384],[119.909,51.344],[119.762,51.215],[119.741,51.073],[119.518,50.905],[119.503,50.748],[119.294,50.6],[119.237,50.442],[119.137,50.393],[119.198,50.345],[119.355,50.328],[119.32,50.098],[119.149,49.999],[118.644,49.955],[117.874,49.521],[117.791,49.52],[117.495,49.623],[117.259,49.632],[116.987,49.708],[116.717,49.827],[116.617,49.929],[116.248,50.027],[116.052,49.998],[115.727,49.881],[115.418,49.898],[115.213,49.994],[115.033,50.146],[114.849,50.23],[114.668,50.264],[114.447,50.245],[114.321,50.284],[114.119,50.225],[113.86,50.088],[113.578,50.02],[113.184,49.803],[113.087,49.687],[113.058,49.595],[112.83,49.519],[112.708,49.499],[112.49,49.541],[111.972,49.41],[111.338,49.365],[110.885,49.179],[110.699,49.143],[110.453,49.195],[110.373,49.242],[110.2,49.169],[109.73,49.266],[109.517,49.256],[109.452,49.306],[109.203,49.36],[108.563,49.336],[108.28,49.482],[108.236,49.533],[108.077,49.588],[107.954,49.686],[107.984,49.929],[107.747,49.98],[107.466,49.982],[107.178,50.027],[107.082,50.083],[107.006,50.2],[106.788,50.311],[106.664,50.339],[106.248,50.3],[106.078,50.345],[105.99,50.411],[105.335,50.484],[105.131,50.399],[104.966,50.405],[104.618,50.318],[104.418,50.309],[104.206,50.177],[104.117,50.154],[103.825,50.201],[103.65,50.138],[103.319,50.199],[103.224,50.309],[102.944,50.31],[102.78,50.387],[102.636,50.409],[102.541,50.509],[102.355,50.553],[102.299,50.622],[102.355,50.721],[102.237,50.821],[102.255,50.987],[102.168,51.124],[102.163,51.25],[102.223,51.327],[102.082,51.389],[101.602,51.484],[101.385,51.453],[101.245,51.529],[100.559,51.735],[99.95,51.752],[99.729,51.891],[99.347,51.942],[99.018,52.067],[98.983,52.1],[98.971,52.223],[98.871,52.247],[98.835,52.311],[98.728,52.344],[98.721,52.4],[98.862,52.5],[98.866,52.581],[98.98,52.645],[98.989,52.799],[98.939,52.852],[98.956,52.875],[99.191,52.803],[99.265,52.839],[99.294,52.978],[99.102,53.053],[99.114,53.107],[99.083,53.146],[98.945,53.199],[98.847,53.178],[98.682,53.205],[98.592,53.155],[98.353,53.144],[98.326,53.26],[98.051,53.301],[97.986,53.402],[97.645,53.42],[97.616,53.478],[97.485,53.509],[97.355,53.64],[97.137,53.667],[96.903,53.775],[96.802,53.775],[96.686,53.737],[96.619,53.595],[96.452,53.582],[96.39,53.646],[96.245,53.666],[96.186,53.63],[96.159,53.56],[96.059,53.503],[95.75,53.57],[95.39,53.422],[95.347,53.429],[95.309,53.493],[95.238,53.506],[95.043,53.427],[94.98,53.455],[94.731,53.432],[94.573,53.361],[94.537,53.289],[94.595,53.231],[94.556,53.189],[94.54,53.052],[94.468,52.947],[94.297,52.954],[94.12,52.883],[94.034,52.704],[93.954,52.674],[93.925,52.603],[93.724,52.469],[93.711,52.384],[93.619,52.251],[93.343,52.177],[93.203,52.08],[93.108,52.056],[93.05,51.989],[92.878,51.94],[92.835,51.892],[92.665,51.89],[92.501,51.833],[92.21,51.856],[92.1,51.834],[91.97,51.849],[91.893,51.905],[91.636,51.917],[91.563,51.95],[91.235,51.933],[91.103,51.993],[90.87,51.965],[90.747,52.12],[90.587,52.164],[90.508,52.229],[90.346,52.242],[90.096,52.173],[90.074,52.075],[89.978,51.994],[90.019,51.799],[89.919,51.794],[89.707,51.628],[89.588,51.603],[89.419,51.655],[89.286,51.625],[89.271,51.681],[89.203,51.709],[88.712,51.604],[88.698,51.526],[88.909,51.399],[88.896,51.218],[88.997,51.145],[89.022,51.023],[89.355,50.815],[89.636,50.542],[89.817,50.484],[89.661,50.444],[89.559,50.511],[89.494,50.516],[89.445,50.395],[89.358,50.359],[89.287,50.223],[89.328,50.157],[89.405,50.136],[89.464,50.155],[89.543,49.973],[89.54,49.911],[89.614,49.86],[89.643,49.817],[89.627,49.788],[89.701,49.752],[89.701,49.719],[89.442,49.644],[89.373,49.584],[89.216,49.634],[89.178,49.599],[89.214,49.548],[89.196,49.522],[89.012,49.464],[88.924,49.547],[88.859,49.527],[88.851,49.442],[88.679,49.458],[88.619,49.493],[88.221,49.462],[88.116,49.357],[88.142,49.27],[87.977,49.179],[87.704,49.163],[87.501,49.12],[87.446,49.078],[87.116,49.13],[86.838,49.094],[86.709,48.954],[86.788,48.84],[86.739,48.784],[86.751,48.715],[86.564,48.527],[86.308,48.483],[86.192,48.418],[85.784,48.408],[85.719,48.359],[85.586,48.141],[85.515,47.92],[85.595,47.624],[85.585,47.493],[85.671,47.383],[85.679,47.275],[85.658,47.206],[85.557,47.179],[85.497,47.052],[85.226,47.042],[84.917,46.851],[84.74,46.815],[84.716,46.835],[84.752,46.918],[84.664,46.984],[84.266,47.0],[84.07,46.964],[83.905,46.974],[83.525,47.067],[83.15,47.212],[83.021,47.206],[82.986,46.943],[82.839,46.732],[82.675,46.332],[82.568,46.197],[82.489,45.901],[82.372,45.734],[82.292,45.533],[82.362,45.481],[82.513,45.466],[82.631,45.416],[82.614,45.248],[82.539,45.124],[82.475,45.116],[82.245,45.232],[81.949,45.145],[81.795,45.195],[81.765,45.308],[81.665,45.348],[81.542,45.293],[80.865,45.13],[80.697,45.144],[80.445,45.104],[80.389,45.046],[80.103,45.032],[79.858,44.904],[79.843,44.873],[79.869,44.849],[79.992,44.794],[80.244,44.816],[80.493,44.727],[80.49,44.701],[80.356,44.653],[80.383,44.601],[80.33,44.453],[80.373,44.232],[80.339,44.121],[80.404,44.049],[80.712,43.46],[80.643,43.326],[80.748,43.276],[80.793,43.15],[80.753,43.104],[80.618,43.134],[80.368,43.028],[80.374,42.975],[80.542,42.917],[80.549,42.88],[80.248,42.816],[80.144,42.645],[80.268,42.239],[80.21,42.19],[80.257,42.083],[80.232,42.035],[79.843,42.002],[79.747,41.88],[79.611,41.868],[79.391,41.773],[79.282,41.783],[78.658,41.533],[78.619,41.478],[78.36,41.378],[78.35,41.271],[78.074,41.039],[77.831,41.063],[77.651,40.997],[77.503,40.981],[77.008,41.044],[76.861,41.013],[76.767,40.945],[76.762,40.847],[76.648,40.765],[76.61,40.598],[76.556,40.566],[76.476,40.436],[76.317,40.344],[76.244,40.441],[76.153,40.369],[76.052,40.39],[75.901,40.299],[75.682,40.292],[75.638,40.384],[75.667,40.45],[75.618,40.494],[75.56,40.633],[75.196,40.442],[75.138,40.464],[75.003,40.447],[74.835,40.512],[74.787,40.421],[74.858,40.326],[74.706,40.331],[74.335,40.094],[74.168,40.106],[74.004,40.061],[73.832,39.824],[73.82,39.767],[73.893,39.711],[73.926,39.591],[73.837,39.475],[73.633,39.448],[73.644,39.35],[73.602,39.236],[73.709,39.066],[73.826,38.976],[73.81,38.933],[73.717,38.919],[73.681,38.873],[73.736,38.8],[73.736,38.722],[73.797,38.603],[73.933,38.53],[74.046,38.53],[74.038,38.598],[74.123,38.669],[74.314,38.669],[74.761,38.52],[74.832,38.464],[74.838,38.38],[74.771,38.292],[74.791,38.082],[74.881,38.02],[74.913,37.879],[74.886,37.831],[74.965,37.768],[74.882,37.634],[74.915,37.571],[75.154,37.406],[75.092,37.378],[75.068,37.312],[74.951,37.281],[74.891,37.232],[74.789,37.331],[74.66,37.394],[74.521,37.376],[74.316,37.427],[74.301,37.4],[74.224,37.403],[74.186,37.338],[73.71,37.217],[73.598,37.262],[73.739,37.338],[73.753,37.428],[73.485,37.481],[73.296,37.465],[73.132,37.384],[73.068,37.316],[72.791,37.22],[72.658,37.029],[72.26,36.967],[71.837,36.699],[71.653,36.687],[71.553,36.769],[71.431,37.067],[71.494,37.308],[71.53,37.761],[71.59,37.816],[71.598,37.898],[71.537,37.944],[71.341,37.894],[71.258,37.927],[71.364,38.207],[71.334,38.281],[71.048,38.41],[70.987,38.471],[70.951,38.473],[70.935,38.434],[70.777,38.446],[70.6,38.347],[70.584,38.277],[70.547,38.263],[70.471,38.121],[70.254,37.973],[70.254,37.938],[70.172,37.946],[70.165,37.89],[70.247,37.82],[70.283,37.705],[70.249,37.624],[70.159,37.542],[70.009,37.548],[69.919,37.617],[69.803,37.582],[69.509,37.579],[69.378,37.437],[69.41,37.246],[69.442,37.223],[69.391,37.165],[69.266,37.105],[69.123,37.169],[68.985,37.32],[68.888,37.338],[68.915,37.279],[68.836,37.329],[68.802,37.257],[68.669,37.278],[68.626,37.206],[68.404,37.152],[68.392,37.106],[68.288,37.103],[68.278,37.011],[68.186,37.018],[68.021,36.926],[67.878,37.064],[67.775,37.108],[67.781,37.189],[67.747,37.229],[67.633,37.254],[67.561,37.221],[67.503,37.282],[67.259,37.185],[67.123,37.282],[67.097,37.341],[67.006,37.384],[66.295,37.331],[66.143,37.385],[66.08,37.441],[65.855,37.508],[65.761,37.578],[65.741,37.53],[65.659,37.51],[65.621,37.431],[65.624,37.345],[65.536,37.257],[65.089,37.245],[64.779,37.118],[64.756,37.054],[64.778,36.937],[64.605,36.661],[64.595,36.425],[64.477,36.271],[64.304,36.212],[64.267,36.153],[64.123,36.146],[64.045,36.092],[64.031,36.004],[63.89,36.03],[63.765,35.977],[63.582,35.959],[63.43,35.871],[63.104,35.856],[63.084,35.826],[63.112,35.77],[63.214,35.697],[63.077,35.625],[63.1,35.525],[63.079,35.436],[62.918,35.388],[62.621,35.223],[62.535,35.228],[62.432,35.281],[62.288,35.142],[62.234,35.294],[62.008,35.439],[61.604,35.431],[61.393,35.554],[61.352,35.628],[61.271,35.62],[61.246,35.649],[61.247,35.876],[61.148,35.983],[61.225,36.124],[61.147,36.358],[61.188,36.565],[61.166,36.636],[60.341,36.638],[60.019,37.026],[59.899,37.051],[59.651,37.17],[59.462,37.208],[59.469,37.241],[59.37,37.32],[59.356,37.481],[59.312,37.53],[59.212,37.516],[59.035,37.624],[58.801,37.695],[58.779,37.66],[58.681,37.643],[58.53,37.7],[58.478,37.643],[58.359,37.633],[58.223,37.668],[58.181,37.775],[58.07,37.819],[57.799,37.868],[57.691,37.92],[57.496,37.922],[57.354,37.967],[57.328,37.995],[57.338,38.114],[57.291,38.195],[57.262,38.188],[57.186,38.276],[57.038,38.187],[56.73,38.271],[56.586,38.235],[56.436,38.255],[56.303,38.179],[56.315,38.089],[56.215,38.069],[55.963,38.067],[55.738,38.119],[55.447,38.084],[55.13,37.952],[54.857,37.761],[54.787,37.652],[54.809,37.603],[54.788,37.524],[54.654,37.439],[54.533,37.441],[54.206,37.325],[53.914,37.345],[53.772,37.801],[53.757,38.029],[53.817,38.279],[53.787,38.615],[53.919,38.903],[53.841,38.97],[53.875,39.022],[53.765,39.033],[53.722,39.111],[53.732,39.057],[53.702,39.078],[53.722,39.236],[53.66,39.201],[53.684,39.083],[53.602,39.193],[53.609,39.236],[53.568,39.193],[53.588,39.303],[53.561,39.283],[53.562,39.353],[53.39,39.311],[53.403,39.338],[53.293,39.331],[53.239,39.365],[53.15,39.344],[53.198,39.324],[53.169,39.178],[53.137,39.321],[53.086,39.399],[53.275,39.664],[53.314,39.659],[53.249,39.608],[53.217,39.525],[53.396,39.537],[53.303,39.572],[53.417,39.593],[53.371,39.631],[53.336,39.787],[53.399,39.836],[53.451,39.821],[53.499,39.866],[53.485,39.885],[53.536,39.896],[53.419,40.006],[53.282,39.94],[53.172,39.997],[52.973,39.975],[52.914,40.022],[52.896,39.998],[52.93,39.896],[53.054,39.769],[53.008,39.782],[53.04,39.742],[52.915,39.861],[52.884,39.945],[52.739,40.053],[52.768,40.154],[52.699,40.273],[52.721,40.409],[52.684,40.474],[52.806,40.663],[52.783,40.754],[52.88,40.974],[52.823,41.034],[52.843,41.185],[52.761,41.378],[52.563,41.519],[52.596,41.64],[52.568,41.681],[52.558,41.65],[52.513,41.644],[52.398,41.802],[52.44,41.906],[52.352,42.091],[52.396,42.208],[52.551,42.361],[52.619,42.518],[52.618,42.592],[52.531,42.676],[52.518,42.762],[52.406,42.781],[52.407,42.83],[52.296,42.792],[52.146,42.888],[51.931,42.835],[51.672,43.118],[51.461,43.169],[51.274,43.156],[51.283,43.226],[51.239,43.246],[51.269,43.439],[51.226,43.532],[51.077,43.629],[50.941,43.887],[50.818,44.001],[50.804,44.162],[50.686,44.215],[50.289,44.277],[50.219,44.317],[50.181,44.387],[50.179,44.586],[50.305,44.712],[50.498,44.676],[50.882,44.678],[51.125,44.537],[51.241,44.573],[51.199,44.683],[50.933,44.815],[50.901,44.973],[50.947,45.028],[51.196,45.116],[51.209,45.202],[51.394,45.434],[51.501,45.385],[51.577,45.392],[51.755,45.507],[51.94,45.419],[52.006,45.445],[52.449,45.451],[52.506,45.458],[52.51,45.505],[52.577,45.572],[52.683,45.563],[52.706,45.669],[53.0,45.967],[53.107,46.279],[53.089,46.362],[52.964,46.449],[52.947,46.506],[53.004,46.608],[53.124,46.682],[53.063,46.712],[53.029,46.845],[52.972,46.85],[52.906,46.907],[52.612,46.9],[52.473,46.949],[52.398,46.86],[52.293,46.826],[52.264,46.764],[52.106,46.763],[51.984,46.841],[51.741,46.872],[51.626,47.024],[51.593,46.988],[51.527,47.053],[51.212,47.121],[50.907,47.019],[50.847,47.037],[50.745,46.909],[50.752,46.975],[50.616,46.936],[50.57,46.83],[50.578,46.878],[50.501,46.864],[50.43,46.897],[50.383,46.817],[50.374,46.854],[50.232,46.727],[50.213,46.766],[50.169,46.749],[50.034,46.635],[49.84,46.581],[49.816,46.542],[49.703,46.56],[49.697,46.526],[49.623,46.583],[49.627,46.519],[49.579,46.499],[49.535,46.541],[49.506,46.481],[49.406,46.476],[49.278,46.525],[49.371,46.4],[49.224,46.471],[49.292,46.396],[49.168,46.409],[49.259,46.297],[49.236,46.277],[49.175,46.286],[49.15,46.336],[49.081,46.322],[48.915,46.403],[48.849,46.295],[48.581,46.267],[48.716,46.015],[48.71,45.969],[48.628,45.949],[48.54,46.035],[48.46,46.049],[48.259,45.981],[48.228,45.949],[48.226,45.868],[48.19,45.849],[47.913,45.876],[47.71,45.786],[47.579,45.858],[47.525,45.763],[47.358,45.693],[47.37,45.626],[47.31,45.396],[47.197,45.342],[47.133,45.198],[47.13,45.145],[47.198,45.127],[47.178,45.084],[47.085,45.033],[46.968,45.038],[46.916,44.936],[46.785,44.942],[46.723,44.889],[46.727,44.779],[46.681,44.69],[46.706,44.62],[46.77,44.565],[46.748,44.467],[46.956,44.427],[47.088,44.363],[47.138,44.273],[47.219,44.279],[47.314,44.179],[47.252,43.795],[47.323,43.835],[47.42,43.991],[47.507,43.887],[47.41,43.639],[47.459,43.598],[47.467,43.544],[47.379,43.33],[47.532,43.16],[47.509,43.046],[47.744,42.888],[47.771,42.689],[47.901,42.622],[48.026,42.457],[48.133,42.383],[48.344,42.133],[48.425,41.971],[48.576,41.919],[48.901,41.611],[49.05,41.265],[49.226,41.133],[49.275,41.038],[49.45,40.856],[49.575,40.823],[49.575,40.689],[49.823,40.615],[50.06,40.633],[50.134,40.571],[50.223,40.549],[50.216,40.456],[50.077,40.541],[49.914,40.544],[49.652,40.45],[49.326,40.253],[49.304,40.006],[49.201,39.809],[49.271,39.606],[49.2,39.243],[49.115,39.16],[49.017,39.339],[48.896,39.358],[48.817,39.307],[48.815,39.226],[48.895,39.03],[48.832,38.997],[48.745,39.088],[48.72,39.049],[48.784,38.855],[48.797,38.452],[48.592,38.438],[48.433,38.625],[48.323,38.61],[48.246,38.671],[48.246,38.717],[48.017,38.866],[48.075,38.95],[48.309,39.004],[48.327,39.055],[48.295,39.111],[48.136,39.21],[48.125,39.276],[48.196,39.333],[48.358,39.39],[48.169,39.564],[48.222,39.602],[48.079,39.762],[47.826,39.884],[47.786,39.89],[47.455,39.527],[46.905,39.172],[46.448,39.016],[45.961,38.979],[45.786,39.053],[45.682,39.146],[45.547,39.171],[45.33,39.302],[45.211,39.453],[45.211,39.535],[45.147,39.644],[44.91,39.775],[44.773,40.009],[44.607,40.148],[43.667,40.264],[43.584,40.453],[43.594,40.5],[43.654,40.532],[43.741,40.666],[43.75,40.746],[43.673,40.926],[43.533,41.011],[43.476,41.129],[43.469,41.271],[42.75,41.863],[42.667,41.879],[42.547,41.801],[42.555,41.745],[42.524,41.733],[42.623,41.638],[42.643,41.572],[42.58,41.453],[42.479,41.375],[42.376,41.387],[42.32,41.433],[41.948,41.442],[41.806,41.363],[41.49,41.462],[41.719,41.725],[41.665,41.734],[41.774,41.858],[41.765,41.957],[41.799,41.961],[41.82,42.066],[41.683,42.393],[41.746,42.411],[41.678,42.407],[41.553,42.884],[41.488,42.993],[41.306,43.086],[40.709,43.289],[40.131,43.583],[39.768,43.945],[39.058,44.509],[38.593,44.589],[38.381,44.698],[38.099,44.906],[37.848,44.901],[37.616,44.981],[37.461,45.218],[37.18,45.366],[37.406,45.369],[37.539,45.415],[37.539,45.571],[37.817,45.751],[37.873,45.865],[38.135,46.158],[38.256,46.191],[38.176,46.276],[38.197,46.324],[38.332,46.339],[38.433,46.285],[38.454,46.392],[38.698,46.428],[38.397,46.635],[38.098,46.729],[38.266,46.782],[38.318,46.758],[38.366,46.854],[38.442,46.905],[38.785,46.941],[39.068,47.082],[39.226,47.065],[39.2,47.143],[39.216,47.221],[39.471,47.343],[39.481,47.386],[39.36,47.481],[39.134,47.489],[38.89,47.404],[38.579,47.393],[38.362,47.338],[38.13,47.342],[37.851,47.296],[37.573,47.182],[37.409,47.185],[37.194,47.067],[36.826,46.977],[36.362,46.792],[36.333,46.798],[36.336,46.85],[36.299,46.886],[35.965,46.846],[35.797,46.71],[35.573,46.718],[35.544,46.589],[35.322,46.635],[35.18,46.518],[35.085,46.485],[34.648,46.46],[34.503,46.563],[34.338,46.456],[34.068,46.448],[34.075,46.42],[34.305,46.315],[34.368,46.231],[34.49,46.281],[34.8,46.21],[34.92,45.948],[35.083,45.702],[35.363,45.412],[35.493,45.347],[35.69,45.383],[35.833,45.521],[35.886,45.51],[35.907,45.443],[35.987,45.414],[36.135,45.512],[36.285,45.526],[36.591,45.477],[36.65,45.442],[36.66,45.367],[36.611,45.306],[36.187,45.26],[35.779,45.302],[35.758,45.283],[35.824,45.218],[35.805,45.189],[35.624,45.163],[35.39,45.05],[35.187,45.048],[34.831,44.959],[34.739,44.882],[34.683,44.755],[34.524,44.698],[34.389,44.606],[34.25,44.604],[34.06,44.649],[33.821,44.776],[33.975,45.083],[33.896,45.346],[33.578,45.407],[33.326,45.541],[32.951,45.575],[32.881,45.62],[32.891,45.652],[33.392,45.873],[33.531,45.893],[33.578,45.923],[33.575,45.962],[33.971,46.113],[34.002,46.149],[33.86,46.245],[33.841,46.366],[33.71,46.334],[33.507,46.372],[32.701,46.263],[32.384,46.383],[32.128,46.411],[32.114,46.446],[32.26,46.529],[32.32,46.515],[32.274,46.549],[32.014,46.58],[31.896,46.658],[32.46,46.7],[32.61,46.739],[32.312,46.8],[32.226,46.929],[32.079,46.783],[31.517,46.767],[31.296,46.708],[31.199,46.578],[30.817,46.509],[30.846,46.433],[30.763,46.33],[30.623,46.377],[30.364,46.577],[29.694,46.864],[29.612,47.034],[29.447,47.042],[29.341,47.322],[29.051,47.558],[28.961,47.809],[28.867,47.908],[28.63,47.943],[28.405,48.049],[27.974,48.139],[27.482,48.316],[27.274,48.264],[26.921,48.321],[26.903,48.208],[26.705,48.264],[26.595,48.241],[26.403,48.605],[26.378,49.279],[26.335,49.374],[26.374,49.517],[26.479,49.719],[27.278,50.23],[27.387,50.331],[27.411,50.396],[27.353,50.786],[27.605,51.114],[27.71,51.384],[27.541,51.5],[27.569,52.07],[27.541,52.27],[27.503,52.321],[27.295,52.428],[27.096,52.616],[26.974,52.817],[26.9,53.046],[26.962,53.382],[26.933,53.695],[27.357,54.226],[27.387,54.432],[27.517,54.75],[27.578,55.021],[27.86,55.138],[27.934,55.256],[27.882,55.758],[27.638,55.854],[27.647,55.919],[27.924,56.105]],[[53.15,40.818],[53.375,40.885],[53.424,40.859],[53.429,40.803],[53.474,40.788],[53.51,40.804],[53.551,40.926],[53.625,40.94],[53.7,40.891],[53.71,40.779],[53.774,40.678],[53.942,40.723],[54.005,40.709],[54.045,40.764],[54.239,40.778],[54.198,40.901],[54.3,40.972],[54.46,40.925],[54.517,40.867],[54.612,40.885],[54.707,40.964],[54.571,41.151],[54.167,41.363],[54.023,41.47],[53.981,41.559],[53.962,41.745],[53.85,41.894],[53.861,42.041],[53.768,42.085],[53.301,42.029],[53.162,42.05],[52.994,41.946],[52.87,41.749],[52.935,41.728],[52.967,41.675],[52.876,41.356],[52.893,41.253],[53.006,41.083],[53.011,41.025],[53.077,40.923],[53.167,40.894],[53.15,40.818]],[[53.104,45.35],[52.827,45.448],[52.748,45.453],[52.752,45.396],[53.104,45.35]],[[46.13,42.669],[46.203,42.691],[46.229,42.737],[46.204,42.816],[46.376,42.791],[46.559,42.877],[46.583,42.916],[46.549,42.976],[46.575,43.06],[46.536,43.126],[46.474,43.142],[46.486,43.205],[46.428,43.251],[46.194,43.186],[46.149,43.124],[46.055,43.155],[45.946,43.08],[45.789,43.045],[45.754,43.107],[45.693,43.115],[45.647,43.054],[45.494,43.043],[45.424,42.962],[45.416,42.887],[45.141,42.88],[45.038,42.7],[45.194,42.611],[45.324,42.475],[45.552,42.488],[45.754,42.43],[46.024,42.548],[46.13,42.669]]],[[[30.084,69.389],[30.386,69.581],[30.511,69.536],[30.754,69.522],[30.898,69.544],[30.955,69.599],[31.845,69.572],[32.176,69.51],[32.219,69.518],[32.236,69.58],[32.292,69.594],[32.602,69.537],[33.124,69.499],[33.134,69.468],[33.252,69.486],[33.566,69.449],[33.568,69.406],[33.495,69.317],[33.515,69.301],[33.611,69.376],[33.809,69.365],[33.979,69.403],[34.784,69.15],[35.244,69.104],[36.006,68.79],[36.285,68.812],[36.705,68.776],[36.715,68.717],[36.762,68.693],[37.125,68.694],[37.352,68.663],[37.503,68.684],[37.478,68.772],[37.536,68.784],[37.713,68.736],[37.883,68.638],[37.991,68.63],[38.097,68.551],[38.341,68.491],[38.44,68.409],[38.655,68.432],[38.94,68.359],[38.997,68.309],[39.344,68.202],[39.389,68.064],[39.568,68.034],[39.68,67.862],[39.67,67.821],[39.6,67.78],[39.714,67.714],[39.732,67.671],[39.326,67.468],[37.582,66.958],[36.947,66.862],[36.537,66.845],[34.862,66.945],[34.038,66.93],[32.755,67.026],[32.629,67.083],[32.496,67.084],[32.538,67.053],[32.041,67.214],[31.487,67.148],[31.457,67.17],[31.506,67.246],[30.899,67.271],[30.558,67.379],[30.508,67.309],[30.419,67.301],[29.835,67.451],[29.96,67.539],[30.028,67.695],[29.691,67.816],[29.357,68.083],[28.695,68.197],[28.463,68.535],[28.737,68.733],[28.817,68.847],[28.443,68.89],[28.457,68.917],[28.915,69.04],[29.1,69.037],[29.254,69.12],[29.334,69.275],[29.377,69.301],[30.084,69.389]]],[[[54.145,73.461],[54.143,73.518],[54.206,73.558],[53.934,73.584],[53.621,73.701],[53.593,73.729],[53.614,73.742],[54.331,73.656],[54.86,73.687],[54.051,73.75],[53.786,73.822],[54.016,73.868],[54.104,73.922],[54.431,73.941],[54.265,73.966],[54.542,74.0],[54.565,74.062],[54.811,74.159],[55.028,74.169],[54.929,74.194],[55.045,74.226],[55.038,74.298],[55.19,74.348],[55.208,74.418],[55.377,74.494],[55.607,74.514],[55.464,74.532],[55.476,74.653],[55.732,74.673],[56.218,74.651],[56.232,74.678],[56.063,74.768],[56.534,74.822],[56.388,74.908],[56.85,74.969],[57.201,75.055],[58.41,75.177],[58.817,75.26],[58.89,75.255],[58.897,75.194],[58.95,75.179],[59.2,75.266],[59.218,75.296],[59.179,75.338],[59.208,75.37],[59.859,75.439],[60.707,75.369],[60.792,75.305],[61.136,75.384],[62.396,75.422],[62.228,75.386],[62.041,75.4],[61.86,75.314],[61.747,75.324],[61.681,75.238],[61.52,75.18],[61.387,75.19],[61.331,75.248],[61.122,75.15],[60.85,75.105],[60.801,75.008],[60.697,74.978],[60.737,74.929],[60.711,74.88],[60.572,74.818],[60.42,74.809],[60.406,74.757],[60.292,74.702],[59.924,74.676],[59.91,74.593],[59.767,74.539],[59.589,74.549],[59.338,74.628],[59.196,74.527],[59.188,74.443],[58.923,74.404],[58.673,74.46],[58.675,74.39],[58.787,74.291],[58.774,74.219],[58.496,74.084],[57.82,74.167],[57.949,74.105],[58.053,74.006],[57.712,74.004],[57.212,74.073],[57.173,74.051],[57.518,73.964],[57.622,73.778],[57.349,73.704],[57.233,73.615],[57.154,73.596],[56.632,73.673],[56.626,73.626],[56.723,73.519],[56.69,73.492],[56.19,73.548],[55.924,73.522],[55.903,73.511],[56.371,73.494],[56.513,73.407],[56.384,73.348],[56.029,73.318],[56.197,73.274],[56.057,73.208],[56.056,73.151],[55.864,73.11],[55.837,73.061],[55.774,73.044],[54.919,73.138],[53.134,73.197],[53.311,73.269],[53.539,73.281],[53.747,73.348],[54.005,73.333],[53.997,73.409],[54.145,73.461]]],[[[137.141,75.419],[137.287,75.592],[137.148,75.646],[137.148,75.695],[137.083,75.722],[137.208,75.784],[137.74,75.746],[137.721,75.78],[137.433,75.878],[137.419,75.939],[137.71,76.008],[138.004,76.019],[138.17,76.121],[138.333,76.145],[138.389,76.071],[138.446,76.059],[138.461,76.124],[138.525,76.18],[138.866,76.22],[138.954,76.198],[138.982,76.148],[139.095,76.095],[139.857,75.939],[139.794,75.884],[139.934,75.836],[140.157,75.801],[140.388,75.816],[140.529,75.778],[140.538,75.75],[140.458,75.703],[140.431,75.651],[140.454,75.64],[140.912,75.609],[141.055,75.642],[140.872,75.741],[140.91,75.841],[140.88,75.9],[140.951,76.026],[141.189,76.058],[141.577,76.0],[141.612,76.017],[141.323,76.169],[141.355,76.18],[141.768,76.098],[142.559,75.858],[143.086,75.806],[143.576,75.867],[143.903,75.837],[144.474,75.71],[144.721,75.689],[144.825,75.638],[145.199,75.597],[145.365,75.519],[144.746,75.433],[144.688,75.4],[144.674,75.328],[144.909,75.263],[144.726,75.232],[144.684,75.157],[144.35,75.045],[143.952,75.027],[143.759,75.075],[143.369,75.067],[142.898,75.137],[142.834,75.218],[142.713,75.231],[142.661,75.306],[142.501,75.362],[142.509,75.454],[142.73,75.546],[143.015,75.595],[143.042,75.664],[142.927,75.717],[142.448,75.711],[142.423,75.673],[142.23,75.655],[142.14,75.59],[142.114,75.499],[142.153,75.379],[142.213,75.333],[142.418,75.256],[142.635,75.094],[143.388,75.002],[143.577,75.012],[143.686,74.937],[143.427,74.888],[142.689,74.893],[142.637,74.834],[142.488,74.812],[142.075,74.889],[141.986,74.935],[142.073,74.963],[142.355,74.93],[142.168,75.004],[140.063,74.832],[139.979,74.896],[139.646,74.979],[139.463,74.929],[139.473,74.871],[139.561,74.849],[139.496,74.761],[139.344,74.686],[139.097,74.648],[138.744,74.723],[138.021,74.806],[137.875,74.854],[137.767,74.986],[137.136,75.135],[136.913,75.271],[136.867,75.353],[137.023,75.388],[137.172,75.332],[137.406,75.353],[137.426,75.379],[137.394,75.411],[137.141,75.419]]],[[[52.32,72.172],[52.377,72.32],[52.556,72.328],[52.536,72.396],[52.615,72.417],[52.692,72.602],[52.379,72.672],[52.331,72.709],[52.337,72.761],[52.605,72.912],[53.091,72.965],[53.109,73.049],[53.081,73.087],[53.593,73.149],[55.359,72.999],[55.089,72.986],[55.059,72.92],[54.82,72.87],[55.14,72.859],[55.143,72.727],[55.077,72.684],[54.721,72.729],[54.921,72.613],[54.748,72.51],[54.712,72.445],[54.433,72.437],[54.628,72.371],[54.711,72.247],[54.839,72.155],[54.656,72.026],[54.907,71.923],[54.929,71.816],[55.026,71.73],[55.389,71.603],[55.641,71.447],[55.87,71.4],[56.12,71.241],[56.374,71.199],[57.059,70.91],[56.865,70.915],[56.777,70.861],[56.287,70.912],[56.231,70.989],[55.934,70.912],[56.034,70.88],[56.021,70.855],[55.331,70.901],[54.965,70.996],[54.932,70.941],[54.731,70.906],[54.768,70.867],[54.287,70.9],[54.073,71.0],[53.989,70.892],[53.838,70.955],[53.472,71.027],[53.442,71.074],[53.476,71.137],[53.662,71.149],[53.564,71.151],[53.412,71.233],[53.267,71.251],[53.263,71.147],[53.154,71.042],[53.167,71.025],[52.981,71.026],[52.757,71.07],[52.725,71.131],[52.638,71.162],[52.731,71.176],[52.568,71.305],[53.058,71.267],[52.994,71.343],[53.065,71.304],[53.127,71.319],[53.119,71.346],[53.38,71.351],[53.202,71.448],[53.189,71.416],[52.756,71.391],[52.569,71.487],[52.58,71.521],[52.502,71.517],[52.487,71.589],[52.401,71.661],[52.211,71.614],[51.996,71.661],[51.77,71.615],[51.679,71.659],[51.703,71.748],[51.625,71.858],[51.431,71.752],[51.36,71.765],[51.352,71.877],[51.408,71.981],[51.569,72.124],[51.832,72.206],[52.085,72.146],[52.216,72.177],[52.333,72.121],[52.32,72.172]]],[[[142.217,53.517],[142.252,53.479],[142.249,53.384],[142.353,53.356],[142.472,53.386],[142.555,53.465],[142.681,53.517],[142.609,53.57],[142.511,53.552],[142.504,53.662],[142.64,53.678],[142.732,53.637],[142.799,53.704],[142.77,53.838],[142.675,53.718],[142.618,53.701],[142.721,53.928],[142.395,54.239],[142.405,54.265],[142.471,54.273],[142.574,54.231],[142.639,54.262],[142.629,54.327],[142.717,54.42],[143.008,54.131],[142.997,54.058],[142.879,53.896],[142.881,53.808],[143.103,53.554],[143.131,53.476],[143.093,53.385],[143.176,53.397],[143.226,53.32],[143.329,52.914],[143.306,52.479],[143.201,52.358],[143.196,52.417],[143.291,52.586],[143.256,52.593],[143.153,52.382],[143.18,52.312],[143.125,51.96],[143.169,51.862],[143.233,51.87],[143.313,51.731],[143.261,51.677],[143.22,51.526],[143.311,51.513],[143.332,51.616],[143.365,51.636],[143.446,51.506],[143.456,51.361],[143.381,51.345],[143.47,51.268],[143.5,51.297],[143.523,51.267],[143.794,50.294],[144.0,50.002],[142.156,50.002],[142.174,50.098],[142.147,50.352],[142.044,50.545],[142.129,50.889],[142.22,50.975],[142.264,51.13],[142.087,51.396],[142.074,51.473],[141.801,51.675],[141.819,51.785],[141.649,51.888],[141.643,52.085],[141.694,52.18],[141.641,52.32],[141.838,52.58],[141.859,52.85],[141.923,53.013],[141.833,53.155],[141.774,53.368],[142.217,53.517]]],[[[123.182,72.917],[123.315,72.972],[123.379,73.162],[123.491,73.186],[123.536,73.159],[123.659,73.168],[123.666,73.201],[123.532,73.214],[123.224,73.402],[123.242,73.55],[123.371,73.618],[123.376,73.659],[123.543,73.696],[123.602,73.609],[123.966,73.62],[123.991,73.64],[123.91,73.669],[123.89,73.765],[123.968,73.763],[124.046,73.718],[124.0,73.692],[124.058,73.681],[124.359,73.803],[124.698,73.705],[124.838,73.699],[124.989,73.624],[125.059,73.68],[125.134,73.684],[125.185,73.624],[125.173,73.561],[125.229,73.541],[125.416,73.553],[125.623,73.522],[125.618,73.493],[125.518,73.451],[125.566,73.403],[125.687,73.459],[126.239,73.551],[126.39,73.511],[126.317,73.449],[126.199,73.454],[126.157,73.377],[126.421,73.406],[126.526,73.359],[126.587,73.293],[126.563,73.23],[126.678,73.154],[126.709,73.084],[126.574,72.99],[126.324,72.924],[126.278,72.874],[126.379,72.795],[126.246,72.527],[126.332,72.438],[126.346,72.383],[126.118,72.302],[125.345,72.466],[125.242,72.535],[124.901,72.599],[124.719,72.676],[124.385,72.673],[124.122,72.762],[122.923,72.895],[122.439,72.983],[122.467,73.012],[122.615,73.023],[122.853,72.994],[122.892,72.955],[123.087,72.914],[123.182,72.917]]],[[[65.908,76.626],[65.771,76.68],[65.925,76.743],[66.154,76.759],[66.684,76.902],[67.572,77.013],[68.507,76.954],[68.929,76.781],[68.887,76.67],[68.79,76.585],[68.862,76.574],[68.859,76.542],[68.403,76.366],[68.213,76.327],[68.296,76.281],[67.995,76.266],[67.042,76.085],[65.264,75.854],[65.944,75.891],[65.228,75.805],[65.081,75.758],[64.889,75.759],[64.333,75.676],[64.277,75.701],[65.0,75.829],[65.004,76.491],[65.163,76.468],[65.55,76.582],[66.019,76.541],[65.908,76.626]]],[[[40.233,67.173],[40.463,67.34],[40.606,67.355],[41.166,67.263],[41.362,67.268],[41.44,67.133],[41.393,67.058],[41.403,66.988],[41.199,66.764],[40.775,66.557],[40.735,66.489],[40.589,66.411],[40.098,66.241],[39.352,66.086],[38.551,66.005],[38.312,66.018],[38.041,66.088],[37.945,66.175],[37.908,66.276],[37.921,66.328],[38.137,66.458],[38.647,66.637],[39.123,66.847],[39.684,66.976],[40.233,67.173]]],[[[146.635,75.425],[146.835,75.357],[147.109,75.33],[147.334,75.349],[147.191,75.367],[147.335,75.429],[148.408,75.414],[148.56,75.375],[148.447,75.282],[148.6,75.211],[148.89,75.219],[149.332,75.284],[150.103,75.225],[150.472,75.091],[150.635,75.115],[150.688,75.156],[150.92,75.136],[150.645,74.993],[150.685,74.941],[150.601,74.885],[150.041,74.838],[149.693,74.761],[148.699,74.76],[148.235,74.792],[147.66,74.951],[147.142,74.994],[146.087,75.231],[146.156,75.274],[146.246,75.423],[146.422,75.586],[146.625,75.56],[146.755,75.508],[146.635,75.425]]],[[[126.613,73.325],[126.698,73.438],[126.829,73.382],[126.922,73.492],[126.866,73.521],[127.191,73.535],[127.464,73.48],[127.974,73.47],[128.083,73.358],[128.341,73.351],[128.258,73.268],[128.662,73.257],[128.892,73.211],[128.959,73.17],[128.782,73.073],[129.045,73.129],[129.117,73.099],[129.08,73.04],[128.95,72.988],[128.299,72.908],[128.213,72.864],[128.23,72.825],[128.176,72.808],[127.646,72.717],[127.391,72.721],[126.925,72.573],[126.589,72.536],[126.494,72.467],[126.574,72.424],[126.555,72.405],[126.428,72.428],[126.306,72.502],[126.342,72.686],[126.446,72.79],[126.341,72.892],[126.659,72.992],[126.772,73.076],[126.765,73.171],[126.608,73.252],[126.613,73.325]]],[[[142.044,73.917],[142.52,73.837],[143.43,73.523],[143.523,73.441],[143.436,73.403],[143.5,73.231],[143.192,73.203],[141.587,73.311],[140.748,73.451],[140.422,73.433],[139.88,73.346],[139.742,73.354],[139.717,73.421],[140.417,73.483],[140.645,73.567],[140.924,73.81],[141.13,73.877],[141.359,73.86],[141.7,73.909],[142.044,73.917]]],[[[129.261,72.412],[129.484,72.35],[129.478,72.316],[129.325,72.293],[129.356,72.255],[129.535,72.22],[129.249,72.135],[129.42,72.117],[129.23,72.083],[128.821,72.075],[128.518,72.147],[128.543,72.17],[128.449,72.188],[128.444,72.222],[128.202,72.234],[127.597,72.425],[126.681,72.429],[126.654,72.475],[127.24,72.603],[127.777,72.642],[128.705,72.464],[129.237,72.467],[129.271,72.445],[129.261,72.412]]],[[[179.805,70.958],[179.678,70.896],[179.27,70.889],[178.791,70.802],[178.623,71.052],[178.867,71.214],[179.211,71.308],[179.531,71.438],[179.999,71.529],[179.995,70.997],[179.805,70.958]]],[[[113.413,74.432],[113.428,74.393],[113.175,74.219],[112.97,74.193],[112.784,74.092],[112.161,74.135],[111.964,74.211],[111.593,74.254],[111.47,74.322],[111.676,74.373],[111.88,74.346],[111.982,74.391],[111.975,74.487],[112.083,74.548],[113.286,74.476],[113.413,74.432]]],[[[169.275,69.754],[169.299,69.651],[169.213,69.579],[168.872,69.568],[168.146,69.702],[168.045,69.765],[167.77,69.837],[167.95,69.941],[168.253,70.02],[169.431,69.855],[169.45,69.816],[169.411,69.764],[169.275,69.754]]],[[[163.796,59.024],[164.032,59.05],[164.556,59.235],[164.703,59.026],[164.676,58.903],[164.644,58.881],[164.184,58.823],[163.58,58.581],[163.461,58.471],[163.39,58.56],[163.585,58.647],[163.692,58.745],[163.751,58.893],[163.834,58.968],[163.842,58.995],[163.796,59.024]]],[[[141.115,74.165],[141.05,74.015],[140.969,73.975],[140.453,73.902],[140.298,73.939],[140.115,74.074],[140.148,74.21],[140.32,74.263],[140.738,74.281],[140.984,74.253],[141.082,74.213],[141.115,74.165]]],[[[138.062,54.964],[137.919,54.768],[137.713,54.621],[137.646,54.647],[137.508,54.846],[137.442,54.87],[137.231,54.785],[137.279,54.894],[137.452,55.016],[137.567,55.187],[137.634,55.196],[137.699,55.148],[138.19,55.044],[138.062,54.964]]],[[[135.962,75.508],[135.959,75.475],[136.02,75.438],[135.973,75.415],[135.584,75.378],[135.461,75.376],[135.454,75.45],[135.594,75.568],[135.545,75.673],[135.704,75.844],[135.89,75.686],[136.163,75.609],[135.962,75.508]]],[[[166.641,54.847],[166.661,54.684],[166.336,54.845],[166.079,55.061],[166.083,55.105],[165.989,55.216],[165.841,55.264],[165.836,55.305],[165.953,55.362],[166.248,55.327],[166.223,55.231],[166.248,55.148],[166.389,55.002],[166.641,54.847]]],[[[129.191,72.656],[128.48,72.725],[128.358,72.672],[127.356,72.662],[127.469,72.701],[127.688,72.7],[127.92,72.763],[128.274,72.787],[129.279,72.703],[129.191,72.656]]],[[[161.319,69.242],[161.406,69.076],[161.513,68.986],[161.493,68.913],[161.426,68.903],[161.477,68.975],[161.422,69.022],[161.139,69.09],[161.122,69.174],[161.169,69.326],[161.07,69.431],[161.115,69.476],[161.369,69.536],[161.386,69.46],[161.29,69.416],[161.359,69.358],[161.319,69.242]]],[[[135.439,74.162],[135.392,74.247],[135.898,74.131],[136.257,73.987],[136.267,73.931],[136.143,73.88],[135.727,74.044],[135.659,74.111],[135.439,74.162]]],[[[137.489,71.483],[137.267,71.49],[137.382,71.458],[137.322,71.434],[137.029,71.527],[137.262,71.578],[137.734,71.594],[137.887,71.57],[137.956,71.508],[137.695,71.42],[137.489,71.483]]],[[[128.682,72.672],[128.899,72.639],[128.956,72.599],[128.651,72.528],[128.145,72.633],[128.682,72.672]]],[[[34.775,65.598],[34.737,65.583],[34.735,65.54],[34.63,65.488],[34.454,65.559],[34.381,65.639],[34.377,65.693],[34.598,65.706],[34.682,65.76],[34.689,65.727],[34.754,65.714],[34.695,65.686],[34.775,65.598]]],[[[128.748,72.886],[129.264,72.802],[129.138,72.782],[128.32,72.822],[128.421,72.869],[128.748,72.886]]],[[[119.94,73.166],[120.265,73.092],[120.203,73.042],[119.801,73.04],[119.651,73.122],[119.94,73.166]]],[[[136.947,54.923],[136.895,54.96],[136.749,54.931],[136.75,54.89],[136.679,54.915],[136.811,55.018],[137.04,55.104],[137.088,55.085],[137.171,55.109],[137.07,55.008],[137.052,54.925],[136.947,54.923]]],[[[161.405,69.592],[161.496,69.636],[161.631,69.57],[161.61,69.448],[161.391,69.414],[161.422,69.454],[161.405,69.592]]],[[[168.098,54.512],[167.501,54.785],[167.445,54.858],[167.734,54.756],[168.098,54.512]]],[[[34.896,65.827],[34.87,65.775],[34.958,65.725],[34.9,65.707],[34.734,65.798],[34.77,65.822],[34.768,65.896],[34.844,65.905],[34.863,65.879],[34.826,65.843],[34.896,65.827]]],[[[42.586,66.77],[42.646,66.742],[42.679,66.681],[42.485,66.707],[42.432,66.755],[42.586,66.77]]],[[[152.801,76.157],[152.782,76.12],[152.662,76.108],[152.567,76.15],[152.773,76.191],[152.801,76.157]]],[[[115.896,74.304],[115.927,74.353],[116.073,74.366],[116.12,74.315],[115.896,74.304]]],[[[161.748,69.558],[161.671,69.624],[161.836,69.647],[161.855,69.605],[161.748,69.558]]],[[[50.182,44.853],[50.141,44.818],[50.081,44.838],[50.099,44.853],[50.182,44.853]]],[[[34.999,65.737],[34.948,65.741],[34.923,65.773],[34.974,65.778],[34.999,65.737]]]]}}]}