{"type":"FeatureCollection","features":[{"type":"Feature","properties":{"lite":true,"src":"data/years/1943-11-01.geojson"},"geometry":{"type":"MultiPolygon","coordinates":[[[[29.494,60.472],[29.646,60.476],[29.701,60.524],[30.437,60.525],[30.5,60.574],[30.746,60.576],[30.81,60.625],[30.949,60.624],[31.046,60.576],[31.113,60.674],[31.163,60.664],[31.181,60.591],[31.213,60.575],[31.302,60.624],[31.596,60.626],[31.66,60.675],[31.899,60.674],[31.963,60.625],[32.249,60.624],[32.313,60.575],[32.846,60.576],[32.99,60.67],[33.059,60.681],[33.484,61.066],[33.553,61.078],[33.701,61.174],[34.098,61.174],[34.147,61.128],[34.499,61.074],[34.554,61.026],[34.749,61.024],[34.804,60.976],[35.137,60.975],[35.359,61.081],[35.386,61.163],[35.472,61.197],[35.475,61.99],[35.522,62.047],[35.528,62.155],[35.572,62.197],[35.583,62.264],[35.719,62.391],[35.739,62.471],[35.793,62.522],[35.859,62.531],[36.069,62.741],[36.084,62.817],[36.174,62.904],[36.169,63.109],[36.059,63.219],[35.993,63.228],[35.953,63.272],[35.843,63.279],[35.796,63.324],[35.552,63.326],[35.496,63.374],[34.713,63.375],[34.64,63.325],[33.81,63.325],[33.684,63.384],[33.584,63.484],[33.526,63.602],[33.526,63.8],[33.575,63.863],[33.572,64.103],[33.529,64.141],[33.464,64.314],[33.403,64.372],[33.333,64.384],[32.929,64.793],[32.822,65.253],[32.778,65.293],[32.769,65.359],[32.629,65.492],[32.572,65.653],[32.529,65.693],[32.469,65.859],[32.429,65.894],[32.424,65.996],[32.328,66.143],[32.319,66.259],[32.233,66.336],[32.209,66.419],[32.134,66.434],[32.053,66.522],[31.687,66.682],[31.589,66.779],[31.478,66.995],[31.474,67.146],[31.425,67.21],[31.426,67.601],[31.572,67.847],[31.63,68.108],[31.869,68.341],[32.082,68.814],[32.219,68.941],[32.238,69.02],[32.569,69.341],[32.575,69.381],[32.574,69.382],[32.652,69.472],[32.901,69.464],[32.843,69.446],[32.804,69.415],[32.805,69.373],[32.91,69.444],[33.074,69.452],[32.815,69.326],[32.884,69.276],[33.049,69.381],[33.501,69.4],[33.358,69.298],[33.399,69.286],[33.255,69.286],[33.305,69.274],[33.21,69.253],[33.246,69.242],[33.344,69.259],[33.353,69.274],[33.454,69.264],[33.267,69.222],[33.42,69.221],[33.365,69.189],[33.383,69.182],[33.5,69.202],[33.479,69.155],[33.048,69.066],[33.009,68.885],[33.073,69.049],[33.584,69.132],[33.573,69.194],[33.64,69.176],[33.556,69.231],[33.599,69.302],[34.312,69.303],[34.366,69.265],[34.978,69.216],[34.937,69.166],[35.127,69.203],[35.118,69.165],[35.166,69.114],[35.129,69.169],[35.289,69.203],[35.182,69.233],[35.156,69.253],[35.864,69.184],[36.042,69.084],[36.046,69.139],[36.075,69.133],[36.061,69.12],[36.098,69.109],[36.288,69.097],[36.247,69.078],[37.805,68.645],[37.743,68.626],[38.334,68.416],[38.313,68.414],[38.365,68.362],[38.287,68.352],[38.37,68.359],[38.377,68.382],[38.387,68.386],[38.44,68.288],[38.434,68.341],[38.456,68.352],[38.444,68.339],[38.785,68.245],[38.494,68.348],[38.6,68.328],[38.648,68.375],[39.084,68.167],[39.706,68.0],[39.635,68.035],[39.87,68.033],[39.741,68.158],[40.006,67.986],[40.376,67.887],[40.273,67.84],[40.419,67.757],[40.643,67.802],[40.911,67.727],[41.037,67.634],[40.948,67.44],[41.119,67.41],[41.081,67.25],[41.315,67.218],[41.278,67.138],[41.393,67.113],[41.211,66.822],[40.47,66.41],[39.113,66.102],[38.32,66.056],[35.554,66.384],[34.898,66.594],[34.462,66.541],[34.367,66.619],[34.505,66.632],[34.352,66.699],[34.093,66.674],[34.141,66.695],[34.184,66.746],[34.172,66.777],[34.151,66.786],[34.13,66.703],[34.064,66.681],[34.054,66.76],[34.025,66.685],[33.925,66.686],[33.772,66.765],[33.607,66.852],[33.625,66.787],[33.542,66.798],[33.643,66.734],[33.519,66.766],[33.543,66.745],[33.631,66.714],[33.632,66.705],[33.503,66.717],[32.789,67.03],[32.998,67.084],[32.323,67.167],[31.87,67.139],[32.046,67.097],[32.255,67.122],[32.354,67.07],[32.311,67.039],[32.566,66.977],[32.417,66.947],[32.504,66.897],[32.387,66.869],[32.956,66.729],[32.859,66.712],[32.805,66.753],[32.684,66.749],[32.855,66.691],[33.319,66.638],[33.118,66.642],[33.099,66.582],[32.821,66.593],[33.196,66.538],[32.931,66.519],[33.718,66.415],[33.463,66.378],[33.666,66.335],[33.414,66.325],[33.215,66.28],[33.077,66.276],[32.982,66.249],[33.573,66.315],[33.632,66.306],[33.58,66.295],[33.563,66.276],[33.911,66.234],[33.879,66.2],[34.109,66.227],[34.141,66.167],[34.698,65.983],[34.634,65.92],[34.683,65.876],[34.857,65.866],[34.775,65.81],[34.842,65.813],[34.849,65.818],[34.853,65.813],[34.92,65.815],[34.837,65.754],[34.976,65.716],[34.931,65.675],[34.688,65.797],[34.66,65.794],[34.683,65.694],[34.773,65.686],[34.686,65.668],[34.797,65.581],[34.737,65.583],[34.754,65.529],[34.633,65.487],[34.689,65.436],[34.456,65.43],[34.531,65.406],[34.474,65.407],[34.509,65.39],[34.501,65.388],[34.353,65.406],[34.443,65.367],[34.362,65.381],[34.307,65.38],[34.271,65.371],[34.5,65.328],[34.446,65.317],[34.457,65.269],[34.66,65.194],[34.599,65.196],[34.691,65.157],[34.637,65.141],[34.686,65.079],[34.783,65.079],[34.774,64.995],[34.831,65.022],[34.782,64.981],[34.608,64.951],[34.769,64.953],[34.921,64.834],[34.961,64.836],[34.78,64.732],[34.913,64.633],[34.99,64.611],[34.859,64.538],[34.781,64.526],[34.759,64.534],[34.731,64.531],[34.7,64.524],[34.683,64.509],[34.809,64.511],[34.812,64.509],[34.889,64.48],[35.011,64.506],[34.964,64.418],[35.332,64.297],[35.593,64.315],[35.604,64.383],[35.832,64.321],[35.955,64.191],[36.241,64.128],[36.176,64.074],[36.3,63.971],[37.543,63.795],[38.067,63.992],[37.891,64.212],[38.01,64.288],[37.788,64.368],[37.791,64.438],[37.615,64.355],[37.11,64.401],[36.738,64.689],[36.534,64.717],[36.5,64.822],[36.571,64.812],[36.438,64.922],[36.811,64.957],[36.827,65.138],[37.046,65.168],[37.677,65.029],[37.872,64.896],[38.37,64.843],[38.368,64.763],[38.007,64.757],[38.125,64.673],[37.994,64.614],[38.013,64.584],[38.15,64.656],[38.158,64.711],[38.516,64.781],[39.527,64.55],[39.756,64.539],[39.864,64.666],[39.893,64.66],[39.892,64.659],[40.059,64.621],[40.164,64.562],[40.524,64.541],[40.417,64.719],[40.447,64.735],[40.448,64.736],[40.399,64.863],[40.413,64.857],[40.376,64.923],[40.279,65.012],[40.236,65.029],[40.236,65.013],[40.238,65.01],[39.724,65.336],[39.765,65.566],[40.486,65.812],[40.743,65.984],[41.523,66.121],[42.206,66.51],[42.632,66.393],[43.259,66.411],[43.349,66.32],[43.6,66.294],[44.072,66.066],[44.019,65.983],[44.194,65.812],[44.214,65.832],[44.18,65.869],[44.234,65.846],[44.222,65.861],[44.191,65.87],[44.189,65.876],[44.188,65.876],[44.185,65.88],[44.167,65.885],[44.166,65.929],[44.113,65.973],[44.109,65.977],[44.101,65.979],[44.084,65.986],[44.182,66.041],[44.074,66.228],[44.435,66.63],[44.582,66.656],[44.361,66.772],[44.535,66.905],[44.179,67.131],[43.771,67.236],[44.137,67.746],[44.096,67.838],[44.223,68.268],[43.284,68.665],[44.051,68.533],[45.672,68.494],[46.032,68.429],[45.805,68.468],[45.995,68.312],[46.525,68.128],[46.409,68.1],[46.528,68.098],[46.706,67.89],[46.693,67.808],[45.471,67.743],[45.236,67.678],[45.339,67.666],[45.307,67.575],[44.975,67.505],[44.918,67.408],[44.929,67.308],[45.577,67.158],[45.812,66.888],[46.017,66.816],[47.594,66.896],[47.75,67.005],[47.767,67.131],[47.678,67.189],[47.941,67.452],[47.833,67.578],[48.742,67.696],[48.781,67.825],[48.592,67.914],[49.076,67.812],[50.06,68.096],[49.81,68.007],[49.9,67.991],[49.904,68.01],[49.974,68.009],[50.039,68.052],[50.027,68.037],[50.071,67.997],[50.191,67.996],[50.054,68.016],[50.049,68.082],[50.808,68.373],[50.786,68.353],[50.828,68.335],[51.09,68.342],[52.228,68.578],[52.308,68.569],[51.987,68.509],[52.304,68.458],[52.306,68.457],[52.149,68.362],[52.211,68.331],[52.283,68.312],[52.417,68.329],[52.708,68.421],[52.764,68.483],[52.486,68.575],[52.549,68.624],[52.303,68.601],[53.352,68.878],[53.897,68.963],[54.408,68.989],[54.589,68.971],[53.793,68.926],[53.707,68.902],[53.603,68.902],[53.57,68.89],[54.0,68.832],[53.719,68.631],[53.918,68.504],[53.939,68.398],[53.802,68.36],[53.826,68.326],[53.679,68.384],[53.555,68.39],[53.656,68.318],[53.453,68.378],[53.194,68.259],[54.023,68.206],[54.197,68.301],[54.173,68.262],[54.188,68.237],[54.203,68.21],[54.328,68.254],[54.355,68.25],[54.518,68.294],[54.634,68.182],[54.867,68.146],[54.958,68.248],[54.861,68.314],[55.387,68.547],[56.006,68.642],[57.301,68.526],[57.656,68.73],[57.972,68.734],[58.001,68.812],[59.053,68.983],[59.207,68.982],[59.327,68.969],[59.122,68.964],[59.133,68.954],[58.966,68.945],[58.876,68.914],[59.165,68.884],[59.477,68.683],[59.189,68.668],[59.028,68.563],[59.17,68.519],[59.122,68.405],[59.689,68.314],[59.987,68.45],[59.839,68.658],[60.524,68.707],[60.957,68.906],[60.969,69.063],[60.89,69.133],[60.658,69.124],[60.638,69.254],[60.191,69.557],[60.328,69.66],[60.714,69.675],[60.778,69.725],[60.724,69.811],[60.852,69.856],[63.112,69.684],[64.263,69.506],[64.994,69.278],[64.939,69.256],[65.981,69.091],[65.552,69.135],[65.788,69.05],[66.089,69.027],[66.352,68.934],[67.178,68.816],[67.064,68.763],[67.228,68.681],[67.38,68.66],[67.849,68.469],[67.72,68.484],[67.799,68.45],[68.195,68.379],[68.265,68.315],[68.172,68.23],[68.316,68.172],[68.654,68.3],[68.58,68.353],[69.125,68.811],[68.975,68.884],[69.159,68.908],[69.165,68.946],[69.114,68.956],[69.094,68.952],[68.784,68.902],[68.486,68.97],[68.073,69.266],[68.14,69.286],[68.032,69.34],[68.181,69.425],[68.124,69.538],[67.962,69.475],[67.032,69.693],[66.847,69.606],[66.954,69.526],[66.917,69.468],[66.826,69.582],[66.847,69.895],[66.944,70.012],[67.018,70.05],[66.971,69.96],[67.384,70.011],[67.284,70.175],[67.128,70.215],[67.35,70.448],[67.233,70.518],[67.277,70.603],[67.528,70.699],[67.248,70.831],[66.694,70.748],[66.721,70.81],[66.629,70.854],[66.964,71.068],[66.819,71.098],[66.75,71.103],[66.937,71.272],[68.026,71.504],[68.465,71.797],[68.992,72.662],[69.421,72.947],[69.836,72.918],[69.576,72.877],[69.668,72.853],[71.609,72.89],[72.022,72.819],[71.86,72.815],[71.857,72.802],[71.868,72.796],[71.899,72.794],[71.907,72.789],[72.013,72.779],[72.105,72.814],[72.066,72.823],[72.846,72.691],[72.711,72.688],[72.722,72.657],[72.817,72.626],[72.714,72.59],[72.823,72.496],[72.775,72.412],[72.839,72.26],[72.708,72.205],[72.701,72.111],[72.583,72.069],[72.469,71.892],[72.324,71.855],[72.32,71.703],[72.175,71.67],[71.818,71.483],[72.053,71.282],[72.577,71.131],[72.633,71.078],[72.578,70.985],[72.802,70.847],[72.674,70.605],[72.739,70.397],[72.403,70.249],[72.588,70.134],[72.484,70.018],[72.678,69.77],[72.521,69.626],[72.641,69.48],[72.52,69.387],[72.615,69.289],[72.477,69.155],[72.524,68.997],[72.738,68.823],[73.484,68.572],[73.584,68.51],[73.603,68.449],[73.495,68.466],[73.076,68.205],[73.034,68.064],[73.193,67.916],[73.05,67.795],[73.109,67.718],[73.107,67.696],[73.098,67.725],[73.068,67.731],[73.033,67.73],[73.025,67.726],[73.006,67.731],[73.005,67.723],[73.068,67.717],[72.526,67.586],[72.552,67.52],[72.412,67.464],[72.393,67.314],[72.035,67.294],[72.025,67.252],[72.194,67.243],[72.206,67.14],[72.189,67.138],[72.198,67.157],[72.117,67.208],[72.165,67.153],[71.928,67.123],[72.033,67.043],[71.952,67.034],[71.744,66.904],[71.394,66.969],[71.066,66.811],[70.867,66.819],[70.724,66.761],[70.322,66.76],[70.19,66.734],[69.916,66.858],[69.659,66.806],[69.489,66.848],[69.329,66.85],[69.193,66.91],[68.843,66.907],[68.752,66.875],[68.84,66.87],[68.81,66.821],[68.812,66.82],[68.831,66.82],[68.839,66.822],[68.857,66.87],[68.924,66.837],[68.851,66.805],[68.831,66.812],[68.804,66.805],[68.804,66.801],[68.797,66.804],[68.795,66.804],[68.797,66.791],[68.756,66.792],[68.755,66.791],[68.723,66.782],[68.729,66.775],[69.144,66.77],[69.128,66.613],[69.203,66.573],[70.163,66.356],[71.397,66.34],[72.003,66.227],[72.315,66.289],[72.38,66.323],[72.412,66.35],[72.41,66.356],[72.424,66.354],[72.398,66.488],[72.31,66.504],[73.86,66.991],[73.955,67.196],[73.923,67.294],[74.755,67.699],[74.808,68.008],[74.598,68.233],[74.315,68.36],[74.472,68.507],[74.475,68.699],[76.206,68.976],[76.595,68.964],[76.698,68.848],[76.652,68.744],[77.039,68.555],[77.291,68.492],[77.225,68.457],[77.289,68.365],[77.12,68.268],[77.336,68.228],[77.18,67.989],[77.284,67.894],[77.294,67.885],[77.077,67.77],[77.95,67.531],[78.691,67.503],[78.763,67.523],[78.752,67.582],[79.18,67.499],[79.175,67.527],[79.102,67.532],[79.142,67.546],[78.835,67.635],[78.689,67.643],[78.597,67.584],[78.426,67.611],[78.641,67.634],[78.463,67.644],[78.443,67.705],[78.384,67.621],[78.094,67.636],[77.809,67.659],[77.986,67.703],[77.755,67.767],[77.648,67.706],[77.459,67.763],[77.46,67.883],[77.611,67.924],[77.479,67.97],[77.537,68.125],[78.168,68.253],[77.863,68.458],[77.939,68.506],[77.779,68.518],[77.631,68.898],[76.019,69.245],[75.487,69.247],[74.834,69.076],[74.33,69.132],[73.875,69.078],[73.775,69.185],[73.903,69.408],[73.531,69.739],[73.754,69.954],[73.783,70.075],[73.676,70.114],[74.246,70.443],[74.299,70.596],[73.919,70.84],[73.911,70.955],[73.581,71.202],[73.003,71.398],[73.483,71.641],[73.526,71.706],[73.46,71.766],[73.535,71.809],[74.627,72.021],[74.995,72.163],[75.076,72.277],[75.064,72.463],[74.943,72.681],[74.767,72.807],[74.995,72.871],[75.472,72.732],[75.305,72.684],[75.638,72.541],[75.49,72.494],[75.706,72.276],[75.527,72.193],[75.388,71.952],[75.243,71.934],[75.218,71.774],[75.476,71.65],[75.412,71.579],[75.507,71.523],[75.216,71.423],[75.299,71.331],[75.412,71.296],[75.894,71.218],[77.764,71.132],[77.926,70.973],[78.154,70.947],[78.149,70.931],[78.112,70.929],[78.06,70.916],[78.05,70.905],[78.114,70.906],[78.183,70.95],[78.253,70.924],[78.239,70.919],[78.22,70.897],[78.232,70.881],[78.236,70.881],[78.224,70.895],[78.256,70.925],[78.254,70.931],[78.33,70.927],[78.34,70.888],[78.374,70.879],[78.543,71.04],[78.465,71.099],[78.372,71.093],[78.338,71.078],[78.45,71.047],[78.529,71.039],[78.415,71.027],[78.276,71.072],[78.266,71.251],[77.915,71.241],[78.0,71.368],[77.697,71.265],[77.076,71.422],[76.651,71.467],[76.279,71.574],[76.078,71.876],[75.992,71.886],[76.892,72.053],[77.481,71.842],[77.827,71.813],[78.24,71.966],[78.006,72.098],[77.433,72.065],[77.398,72.101],[77.52,72.175],[77.464,72.208],[77.797,72.184],[77.708,72.198],[78.092,72.356],[78.296,72.349],[78.345,72.324],[78.456,72.314],[78.607,72.376],[79.503,72.347],[80.828,72.074],[80.851,72.0],[80.78,72.077],[80.68,72.048],[81.373,71.75],[81.685,71.694],[82.909,71.771],[83.295,71.704],[83.247,71.653],[83.265,71.648],[83.288,71.648],[83.176,71.577],[83.026,71.55],[82.987,71.459],[83.027,71.414],[82.259,71.258],[82.355,71.089],[82.204,71.012],[82.208,70.987],[82.416,70.776],[82.216,70.682],[82.16,70.635],[82.193,70.652],[82.188,70.622],[82.082,70.565],[82.153,70.518],[82.24,70.277],[82.346,70.199],[82.161,70.574],[82.433,70.609],[82.522,70.773],[82.482,70.806],[82.579,70.911],[82.69,70.962],[82.895,70.944],[82.876,70.995],[82.901,71.001],[82.967,70.934],[83.133,70.882],[83.136,70.766],[83.029,70.618],[83.063,70.633],[83.058,70.598],[82.998,70.571],[83.052,70.502],[83.018,70.426],[82.656,70.253],[82.672,70.193],[82.645,70.181],[83.103,70.07],[83.179,70.086],[83.158,70.099],[83.184,70.137],[83.132,70.205],[82.952,70.325],[83.335,70.311],[83.532,70.339],[83.746,70.46],[83.723,70.586],[83.599,70.701],[83.477,70.911],[83.327,71.062],[83.208,71.079],[83.189,71.112],[83.255,71.116],[83.15,71.242],[83.373,71.368],[83.384,71.466],[83.51,71.485],[83.619,71.557],[83.619,71.631],[83.496,71.708],[83.498,71.716],[83.502,71.72],[83.505,71.731],[83.396,71.827],[82.709,71.873],[82.544,72.017],[82.277,72.09],[82.374,72.168],[82.247,72.28],[82.355,72.3],[82.36,72.304],[82.355,72.31],[82.3,72.316],[82.124,72.284],[82.223,72.261],[81.236,72.356],[80.837,72.459],[80.768,72.508],[80.886,72.615],[80.717,72.628],[80.693,72.728],[80.837,72.788],[80.88,72.948],[80.798,73.032],[80.509,73.082],[80.632,73.13],[80.321,73.166],[80.393,73.189],[80.586,73.182],[80.581,73.204],[80.664,73.189],[80.702,73.195],[80.749,73.202],[80.633,73.26],[80.354,73.292],[80.775,73.433],[80.659,73.414],[80.644,73.458],[80.719,73.47],[80.708,73.511],[80.569,73.464],[80.53,73.555],[83.876,73.648],[84.778,73.755],[85.38,73.703],[85.518,73.718],[85.562,73.798],[86.12,73.861],[87.213,73.866],[87.197,73.933],[86.942,74.024],[87.05,74.072],[86.725,74.128],[86.798,74.175],[86.749,74.222],[85.908,74.36],[86.119,74.402],[86.315,74.323],[86.286,74.41],[86.065,74.432],[86.443,74.48],[86.791,74.385],[86.983,74.412],[86.694,74.318],[87.005,74.361],[86.993,74.279],[87.101,74.299],[87.037,74.393],[87.239,74.359],[87.32,74.354],[87.413,74.362],[87.408,74.384],[87.386,74.391],[87.333,74.398],[87.317,74.397],[87.24,74.362],[87.192,74.382],[87.163,74.382],[87.114,74.403],[87.042,74.418],[87.108,74.431],[87.148,74.478],[87.11,74.49],[86.813,74.43],[86.573,74.514],[86.832,74.563],[85.75,74.652],[86.171,74.774],[86.039,74.793],[85.905,74.85],[86.411,74.778],[86.267,74.759],[86.356,74.701],[86.659,74.716],[86.585,74.66],[86.746,74.656],[86.704,74.614],[86.98,74.601],[86.868,74.646],[86.978,74.671],[86.745,74.701],[87.067,74.717],[87.124,74.768],[87.033,74.766],[87.078,74.855],[87.391,74.945],[87.193,74.983],[87.428,75.002],[87.478,74.975],[87.4,74.954],[87.617,74.91],[87.666,74.921],[87.561,74.952],[87.831,75.014],[86.923,75.113],[87.902,75.106],[88.331,75.151],[88.28,75.201],[88.499,75.281],[88.613,75.241],[88.691,75.241],[88.571,75.275],[88.597,75.318],[89.095,75.393],[88.747,75.399],[89.287,75.511],[89.498,75.503],[89.284,75.494],[89.467,75.457],[89.412,75.43],[89.773,75.43],[89.68,75.476],[90.141,75.496],[89.94,75.544],[90.192,75.597],[90.924,75.665],[90.904,75.64],[90.994,75.596],[91.141,75.655],[91.248,75.669],[91.204,75.636],[91.73,75.614],[91.638,75.689],[93.888,75.868],[93.864,75.879],[94.182,75.92],[94.2,75.938],[93.678,75.885],[93.591,75.947],[93.512,75.871],[93.279,75.937],[93.376,75.986],[92.944,75.922],[93.171,75.901],[93.09,75.885],[92.868,75.888],[92.942,75.919],[92.831,75.961],[92.998,75.997],[92.934,76.053],[93.096,76.067],[93.044,76.036],[93.118,76.006],[93.338,76.073],[93.178,76.096],[93.274,76.117],[93.507,76.099],[93.361,76.071],[93.48,76.041],[93.419,76.008],[94.051,76.053],[93.725,76.122],[94.828,76.109],[94.547,76.149],[94.624,76.157],[95.074,76.091],[95.46,76.163],[96.274,76.096],[95.61,75.878],[95.747,75.828],[96.433,76.007],[96.709,75.97],[96.542,75.873],[97.365,76.026],[97.183,75.986],[97.273,75.954],[97.173,75.925],[97.871,75.97],[97.562,76.038],[98.226,76.07],[98.284,76.09],[97.953,76.116],[98.83,76.257],[98.774,76.206],[99.34,76.205],[99.191,76.143],[99.615,76.153],[99.448,76.095],[99.525,76.091],[99.535,76.079],[99.561,76.071],[99.584,76.069],[99.667,76.088],[99.798,76.053],[99.862,76.055],[99.617,76.26],[99.104,76.333],[98.863,76.472],[100.295,76.437],[101.075,76.537],[101.189,76.677],[101.43,76.681],[100.93,76.855],[101.063,76.957],[101.331,76.966],[101.36,77.038],[101.278,77.046],[101.431,77.122],[103.038,77.551],[102.983,77.572],[103.793,77.608],[104.248,77.723],[104.412,77.648],[104.839,77.668],[104.812,77.612],[104.96,77.578],[105.929,77.552],[106.025,77.411],[106.311,77.365],[105.795,77.364],[105.371,77.195],[104.668,77.157],[104.136,77.076],[105.081,77.055],[105.935,77.133],[105.764,77.044],[105.815,77.025],[105.402,76.995],[106.868,77.047],[107.315,77.009],[107.221,76.993],[107.531,76.913],[107.24,76.894],[107.398,76.866],[106.768,76.724],[106.845,76.671],[106.661,76.544],[106.406,76.578],[106.59,76.482],[107.892,76.53],[108.01,76.589],[107.952,76.725],[108.024,76.735],[109.427,76.752],[109.947,76.679],[110.601,76.749],[110.68,76.722],[110.873,76.71],[110.968,76.72],[111.01,76.711],[111.002,76.732],[110.813,76.716],[111.061,76.746],[111.096,76.758],[111.238,76.741],[111.135,76.702],[111.199,76.685],[111.581,76.685],[111.509,76.698],[111.683,76.672],[111.701,76.669],[111.719,76.664],[111.523,76.623],[112.24,76.444],[112.021,76.356],[112.337,76.446],[112.492,76.387],[112.806,76.32],[112.728,76.202],[112.557,76.236],[112.483,76.229],[112.88,76.125],[112.708,76.048],[113.041,76.08],[112.992,76.117],[113.072,76.146],[113.362,76.107],[112.95,76.235],[113.277,76.256],[113.481,76.147],[113.443,76.06],[113.593,75.951],[113.543,75.938],[113.474,75.944],[113.398,75.946],[113.383,75.943],[113.61,75.925],[113.515,75.909],[113.618,75.859],[113.48,75.849],[113.456,75.828],[113.559,75.823],[113.513,75.845],[113.663,75.851],[113.611,75.876],[113.697,75.885],[113.626,75.895],[113.578,75.916],[113.906,75.901],[113.851,75.886],[113.921,75.843],[113.89,75.767],[113.724,75.611],[113.67,75.58],[113.584,75.551],[113.56,75.532],[113.553,75.53],[113.542,75.528],[113.397,75.55],[113.594,75.649],[113.333,75.686],[113.005,75.667],[113.164,75.698],[112.663,75.823],[112.341,75.843],[112.858,75.738],[112.9,75.705],[112.756,75.681],[112.894,75.629],[112.796,75.548],[113.0,75.545],[112.994,75.61],[113.287,75.661],[113.362,75.525],[113.693,75.505],[113.752,75.425],[113.523,75.389],[113.709,75.379],[113.538,75.222],[112.75,74.938],[112.161,74.86],[111.807,74.65],[111.426,74.681],[110.984,74.517],[111.042,74.556],[110.4,74.501],[110.421,74.437],[110.273,74.395],[110.218,74.37],[110.168,74.353],[110.139,74.346],[110.047,74.345],[110.198,74.373],[110.002,74.378],[109.788,74.299],[109.576,74.344],[109.48,74.306],[109.659,74.284],[109.787,74.29],[109.912,74.319],[109.951,74.263],[109.531,74.078],[108.993,74.015],[108.127,73.634],[108.158,73.66],[107.787,73.616],[107.033,73.632],[106.947,73.63],[106.856,73.601],[106.847,73.595],[106.923,73.571],[107.209,73.537],[106.355,73.188],[106.693,73.138],[108.362,73.207],[108.414,73.242],[108.2,73.259],[109.318,73.394],[109.252,73.472],[109.397,73.406],[109.457,73.416],[109.208,73.491],[109.225,73.553],[109.554,73.451],[109.577,73.439],[109.567,73.429],[109.58,73.426],[109.585,73.441],[109.698,73.432],[109.775,73.434],[109.939,73.459],[110.183,73.535],[110.106,73.559],[110.953,73.698],[110.967,73.7],[110.667,73.793],[110.296,73.68],[109.776,73.651],[109.581,73.727],[109.548,73.818],[109.841,73.87],[109.974,73.999],[110.462,74.005],[110.983,73.899],[111.147,74.022],[111.444,74.051],[111.599,74.014],[111.212,73.958],[111.428,73.813],[111.879,73.728],[112.891,73.733],[112.998,73.795],[112.891,73.963],[113.176,73.868],[113.465,73.62],[113.182,73.445],[113.555,73.34],[113.48,73.227],[113.589,73.134],[113.669,73.162],[113.583,73.232],[113.77,73.322],[113.833,73.324],[113.872,73.347],[113.509,73.505],[114.211,73.595],[114.921,73.599],[115.063,73.633],[115.079,73.653],[115.15,73.639],[115.259,73.633],[115.187,73.666],[115.456,73.711],[118.664,73.559],[119.025,73.481],[118.471,73.48],[118.347,73.41],[118.389,73.239],[118.535,73.173],[119.697,72.99],[121.074,72.924],[121.704,72.968],[122.101,72.897],[122.665,72.841],[122.584,72.913],[122.817,72.863],[123.001,72.889],[122.961,72.908],[122.844,72.937],[122.535,73.001],[122.743,73.033],[122.755,73.015],[122.992,72.968],[122.81,72.969],[123.202,72.895],[123.434,72.968],[123.389,73.045],[123.489,73.113],[123.724,73.097],[123.459,73.157],[123.629,73.191],[123.545,73.162],[123.615,73.142],[123.744,73.168],[123.368,73.343],[123.531,73.378],[123.425,73.372],[123.267,73.396],[123.345,73.389],[123.38,73.399],[123.354,73.453],[123.393,73.419],[123.517,73.393],[123.327,73.472],[123.386,73.499],[123.324,73.544],[123.432,73.533],[123.458,73.541],[123.363,73.576],[123.514,73.555],[123.428,73.65],[123.526,73.605],[123.592,73.692],[123.704,73.695],[123.611,73.611],[123.766,73.563],[124.003,73.595],[124.046,73.665],[124.297,73.706],[124.224,73.737],[124.292,73.731],[124.356,73.797],[124.513,73.731],[124.747,73.742],[124.748,73.687],[124.917,73.719],[124.845,73.678],[124.944,73.647],[125.032,73.698],[125.011,73.597],[125.164,73.704],[125.129,73.629],[125.264,73.607],[125.196,73.509],[125.24,73.562],[125.296,73.571],[125.331,73.5],[125.38,73.586],[125.432,73.525],[125.427,73.561],[125.451,73.582],[125.475,73.58],[125.462,73.517],[125.5,73.493],[125.68,73.527],[125.673,73.446],[125.547,73.447],[125.574,73.371],[125.709,73.464],[125.897,73.429],[125.803,73.453],[125.928,73.524],[125.982,73.478],[126.089,73.477],[126.303,73.55],[126.445,73.507],[126.383,73.479],[126.455,73.435],[126.129,73.443],[126.365,73.389],[126.253,73.391],[126.131,73.358],[126.342,73.345],[126.457,73.386],[126.533,73.362],[126.704,73.367],[126.821,73.446],[126.868,73.375],[126.952,73.37],[126.895,73.412],[127.034,73.408],[127.039,73.521],[127.354,73.505],[127.345,73.458],[127.38,73.41],[127.558,73.443],[127.566,73.459],[127.526,73.473],[127.54,73.486],[127.593,73.462],[127.843,73.469],[127.724,73.398],[127.721,73.379],[127.75,73.381],[127.864,73.389],[127.925,73.406],[127.989,73.406],[127.936,73.403],[127.878,73.383],[128.101,73.411],[128.088,73.39],[127.988,73.36],[127.944,73.324],[128.47,73.344],[128.421,73.34],[128.396,73.334],[128.365,73.323],[128.282,73.25],[128.249,73.245],[128.165,73.224],[128.177,73.196],[128.314,73.199],[128.451,73.237],[128.756,73.246],[128.704,73.221],[128.743,73.213],[128.902,73.208],[128.896,73.194],[128.932,73.205],[128.8,73.14],[128.922,73.094],[128.962,73.088],[129.085,73.127],[129.163,73.123],[129.207,73.111],[129.131,73.115],[129.197,73.094],[129.159,73.055],[129.021,73.039],[129.126,73.034],[129.073,73.01],[129.085,72.993],[128.363,72.92],[128.41,72.898],[128.271,72.862],[128.272,72.794],[128.171,72.77],[128.006,72.781],[127.853,72.761],[127.684,72.689],[127.588,72.704],[127.403,72.699],[126.582,72.522],[126.56,72.441],[127.796,72.324],[127.9,72.255],[127.787,72.242],[128.259,72.11],[128.613,71.89],[128.637,71.823],[128.646,71.798],[128.66,71.794],[128.967,71.715],[129.271,71.814],[129.12,72.006],[129.603,71.706],[129.406,71.757],[128.982,71.707],[128.846,71.648],[128.918,71.59],[129.239,71.599],[129.465,71.303],[129.84,71.117],[130.167,71.07],[130.361,70.902],[130.711,70.848],[130.856,70.965],[130.935,70.765],[131.077,70.706],[131.332,70.726],[131.623,70.86],[131.864,71.067],[131.784,71.117],[131.955,71.149],[131.85,71.162],[131.929,71.202],[132.205,71.212],[132.154,71.226],[132.143,71.229],[132.052,71.231],[132.054,71.243],[132.002,71.24],[131.987,71.259],[132.294,71.676],[132.722,71.94],[132.72,71.875],[132.729,71.878],[132.73,71.866],[132.719,71.858],[132.719,71.857],[132.716,71.768],[132.934,71.679],[132.943,71.679],[132.951,71.675],[132.952,71.672],[133.368,71.502],[134.006,71.383],[134.725,71.399],[134.821,71.367],[134.749,71.317],[134.758,71.266],[134.869,71.363],[134.769,71.415],[134.891,71.394],[134.886,71.399],[134.983,71.387],[135.015,71.385],[135.05,71.389],[135.024,71.404],[134.885,71.419],[134.835,71.469],[134.97,71.47],[134.975,71.471],[134.924,71.492],[135.846,71.65],[136.342,71.6],[136.276,71.589],[136.29,71.585],[136.584,71.58],[136.615,71.518],[136.875,71.534],[136.965,71.469],[137.126,71.418],[137.389,71.392],[137.324,71.353],[137.384,71.363],[137.406,71.378],[137.414,71.382],[137.49,71.372],[137.424,71.372],[137.473,71.356],[137.425,71.348],[137.417,71.335],[137.383,71.332],[137.401,71.329],[137.407,71.329],[137.418,71.333],[137.431,71.348],[137.502,71.348],[137.526,71.367],[137.587,71.362],[137.548,71.263],[137.743,71.22],[137.735,71.195],[137.851,71.15],[137.846,71.109],[137.978,71.155],[138.072,71.09],[138.17,71.135],[137.819,71.234],[138.29,71.234],[138.358,71.278],[138.033,71.3],[138.49,71.304],[137.863,71.388],[138.08,71.464],[138.122,71.569],[138.196,71.557],[138.153,71.574],[138.127,71.573],[138.105,71.565],[138.136,71.6],[138.2,71.576],[138.252,71.577],[138.344,71.589],[138.38,71.584],[138.464,71.587],[138.517,71.526],[138.662,71.548],[138.611,71.61],[138.85,71.634],[139.15,71.579],[139.236,71.403],[139.409,71.406],[139.483,71.493],[139.793,71.442],[140.019,71.472],[140.022,71.474],[140.04,71.481],[139.992,71.503],[139.96,71.531],[140.035,71.492],[140.087,71.519],[139.786,71.688],[139.78,71.829],[139.856,71.852],[139.762,71.889],[139.841,71.891],[139.624,71.94],[139.382,71.918],[139.377,71.976],[139.502,72.047],[139.452,71.971],[139.632,71.952],[139.958,72.091],[139.891,72.101],[139.952,72.163],[140.121,72.132],[140.542,72.187],[140.606,72.256],[140.3,72.179],[140.058,72.274],[139.415,72.148],[139.198,72.176],[139.156,72.264],[139.589,72.488],[140.54,72.469],[141.301,72.585],[140.711,72.863],[140.865,72.876],[141.94,72.719],[144.454,72.628],[146.869,72.338],[145.392,72.337],[145.24,72.43],[144.956,72.431],[144.495,72.229],[144.26,72.255],[144.415,72.157],[145.211,72.262],[146.955,72.305],[145.983,71.863],[146.004,72.044],[146.305,72.131],[146.045,72.158],[146.098,72.115],[146.0,72.104],[146.0,72.06],[145.957,72.093],[146.071,72.211],[145.878,72.146],[145.851,72.202],[145.93,72.179],[145.948,72.187],[145.743,72.254],[145.49,72.25],[145.675,72.207],[145.81,72.216],[145.627,72.087],[145.802,72.029],[145.84,71.938],[145.337,71.863],[145.028,71.938],[145.229,71.837],[144.91,71.766],[144.992,71.73],[144.944,71.725],[144.945,71.7],[145.006,71.688],[145.07,71.688],[145.044,71.646],[145.107,71.686],[145.191,71.659],[145.329,71.68],[145.336,71.651],[145.416,71.655],[146.058,71.772],[147.14,72.305],[148.384,72.319],[149.414,72.178],[149.929,72.019],[150.104,71.846],[149.702,71.747],[149.52,71.878],[149.357,71.882],[149.413,71.875],[148.858,71.682],[149.554,71.641],[149.763,71.641],[149.892,71.662],[149.982,71.654],[150.012,71.643],[149.982,71.634],[150.023,71.543],[149.993,71.529],[149.989,71.521],[150.0,71.513],[150.069,71.51],[150.249,71.544],[150.074,71.503],[150.085,71.494],[150.662,71.498],[150.704,71.445],[150.985,71.375],[151.561,71.314],[152.071,70.989],[151.919,70.965],[151.609,70.991],[151.601,70.992],[151.449,70.969],[151.525,70.955],[151.526,70.954],[151.547,70.959],[151.603,70.959],[151.678,70.967],[151.99,70.935],[152.534,70.81],[152.985,70.806],[153.0,70.818],[153.175,70.82],[153.268,70.838],[153.3,70.827],[153.594,70.865],[153.675,70.844],[154.496,70.958],[155.561,71.014],[155.949,71.074],[157.146,71.07],[158.626,70.928],[159.792,70.583],[160.096,70.253],[159.865,69.98],[159.701,69.895],[159.686,69.883],[159.688,69.868],[159.677,69.874],[159.791,69.805],[159.6,69.859],[160.107,69.673],[160.038,69.729],[160.199,69.678],[160.23,69.68],[160.266,69.649],[160.291,69.64],[160.302,69.646],[160.316,69.633],[160.332,69.63],[160.315,69.647],[160.267,69.652],[160.228,69.685],[160.124,69.709],[160.346,69.685],[160.54,69.585],[160.578,69.587],[160.548,69.595],[160.619,69.605],[160.625,69.623],[160.531,69.591],[160.467,69.631],[160.498,69.649],[160.478,69.666],[160.873,69.609],[160.843,69.6],[160.82,69.58],[160.786,69.588],[160.684,69.549],[161.883,69.651],[161.876,69.618],[162.182,69.586],[162.363,69.636],[162.361,69.678],[163.786,69.678],[164.018,69.754],[164.637,69.575],[165.763,69.572],[166.716,69.513],[166.579,69.497],[166.56,69.475],[166.564,69.466],[166.569,69.465],[166.661,69.466],[166.695,69.483],[166.736,69.472],[166.792,69.466],[166.873,69.462],[166.906,69.464],[166.921,69.476],[166.985,69.481],[167.211,69.55],[167.735,69.764],[167.91,69.771],[168.103,69.676],[167.938,69.642],[168.282,69.546],[168.212,69.418],[168.259,69.243],[169.332,69.08],[169.421,69.016],[169.457,68.814],[169.743,68.766],[170.452,68.861],[171.03,69.093],[170.889,69.165],[170.933,69.275],[170.763,69.368],[170.649,69.565],[170.154,69.595],[170.249,69.705],[170.609,69.763],[170.524,69.907],[170.582,70.067],[170.427,70.103],[170.544,70.124],[172.75,69.965],[173.299,69.799],[173.193,69.784],[173.246,69.76],[173.527,69.802],[173.287,69.908],[173.181,69.846],[173.276,69.911],[173.481,69.933],[173.757,69.808],[173.773,69.866],[173.816,69.848],[173.885,69.846],[174.125,69.876],[174.83,69.836],[176.105,69.876],[176.881,69.646],[178.764,69.404],[180.0,68.977],[180.0,65.039],[179.511,64.796],[179.14,64.761],[178.787,64.629],[178.609,64.574],[178.551,64.561],[178.517,64.583],[178.649,64.588],[178.817,64.641],[178.82,64.652],[177.631,64.697],[177.681,64.707],[177.496,64.82],[177.517,64.905],[177.25,64.922],[177.218,65.009],[176.98,65.065],[176.604,65.006],[176.453,65.075],[176.413,65.059],[176.612,64.977],[177.009,65.036],[177.041,64.982],[177.279,64.911],[177.282,64.825],[177.056,64.772],[176.684,64.855],[176.448,64.795],[176.221,64.88],[176.436,64.684],[176.24,64.625],[176.298,64.592],[176.537,64.668],[176.772,64.539],[177.087,64.705],[177.507,64.741],[177.415,64.496],[177.618,64.337],[178.125,64.185],[178.325,64.316],[178.478,64.122],[178.467,64.106],[178.48,64.093],[178.482,64.067],[178.398,64.032],[178.377,63.972],[178.629,63.947],[178.664,63.943],[178.755,63.649],[178.738,63.647],[178.737,63.652],[178.609,63.675],[178.354,63.626],[178.261,63.575],[178.37,63.516],[178.507,63.579],[178.702,63.572],[178.722,63.476],[178.595,63.412],[178.68,63.384],[178.774,63.4],[178.808,63.442],[178.797,63.46],[178.791,63.471],[178.747,63.546],[178.76,63.563],[178.776,63.586],[179.002,63.32],[178.856,63.399],[178.853,63.393],[178.85,63.397],[178.804,63.381],[178.822,63.339],[178.948,63.306],[178.971,63.287],[179.446,63.121],[179.467,63.059],[179.332,63.052],[179.284,62.959],[179.573,62.831],[179.589,62.62],[179.362,62.477],[179.142,62.46],[179.184,62.321],[179.095,62.274],[178.092,62.531],[177.06,62.533],[173.835,61.644],[173.52,61.723],[173.507,61.556],[173.319,61.523],[173.27,61.432],[173.081,61.382],[172.884,61.463],[172.739,61.403],[172.946,61.337],[172.937,61.267],[172.65,61.166],[172.374,61.22],[172.431,61.122],[172.241,61.131],[172.472,61.072],[172.423,61.012],[172.01,61.087],[172.217,60.97],[172.074,60.838],[172.007,60.887],[171.71,60.833],[171.634,60.719],[171.395,60.614],[170.643,60.41],[170.691,60.313],[170.525,60.255],[170.427,59.971],[170.295,59.926],[169.957,60.073],[169.668,60.425],[169.231,60.548],[168.476,60.597],[167.797,60.531],[167.787,60.47],[167.228,60.339],[167.067,60.404],[167.118,60.409],[167.003,60.415],[167.074,60.307],[166.787,60.227],[166.861,60.214],[166.286,59.81],[166.09,59.812],[166.209,60.128],[166.314,60.196],[166.285,60.244],[166.291,60.321],[166.253,60.368],[166.259,60.396],[166.389,60.408],[166.268,60.473],[165.228,60.087],[165.171,60.143],[165.027,60.101],[165.166,60.079],[165.215,59.986],[164.836,59.782],[164.716,59.996],[164.49,60.1],[164.342,60.089],[164.344,59.994],[164.143,59.935],[164.2,59.853],[164.067,59.894],[164.214,59.991],[163.647,60.01],[163.696,59.956],[163.835,59.992],[163.691,59.877],[163.434,59.837],[163.37,59.731],[163.416,59.622],[163.361,59.592],[163.278,59.591],[163.192,59.561],[163.214,59.567],[163.205,59.559],[163.19,59.528],[163.189,59.514],[163.194,59.51],[163.212,59.532],[163.275,59.555],[163.206,59.486],[163.348,59.303],[163.342,59.273],[163.296,59.23],[163.272,59.216],[163.338,59.285],[163.078,59.253],[163.196,59.096],[162.904,59.113],[163.072,58.992],[162.411,58.657],[162.133,58.37],[161.989,58.087],[162.056,57.909],[162.319,57.79],[162.355,57.662],[162.53,57.751],[162.552,57.929],[162.698,57.95],[163.212,57.819],[163.322,57.725],[163.097,57.484],[162.782,57.351],[162.853,57.031],[162.777,56.781],[162.933,56.693],[163.232,56.742],[163.25,56.443],[163.362,56.184],[163.054,56.006],[162.817,56.062],[162.619,56.227],[162.077,56.08],[161.788,55.638],[161.741,55.385],[161.863,55.085],[162.155,54.853],[162.14,54.753],[161.715,54.505],[161.288,54.48],[161.071,54.593],[160.719,54.528],[159.985,54.109],[160.037,54.163],[159.993,54.161],[159.841,53.76],[159.956,53.495],[159.838,53.434],[159.974,53.327],[159.903,53.256],[159.947,53.211],[159.963,53.252],[160.022,53.263],[160.036,53.098],[159.743,53.205],[159.814,53.276],[159.711,53.218],[159.576,53.252],[159.091,53.108],[158.713,52.887],[158.611,53.051],[158.42,53.017],[158.43,52.894],[158.646,52.898],[158.481,52.77],[158.602,52.694],[158.549,52.627],[158.388,52.65],[158.526,52.528],[158.397,52.408],[158.561,52.418],[158.483,52.344],[158.549,52.291],[158.393,52.227],[158.273,51.963],[157.911,51.629],[157.563,51.501],[157.472,51.359],[156.669,50.866],[156.76,51.074],[156.715,51.199],[156.534,51.322],[156.443,52.225],[156.147,52.848],[155.558,55.199],[155.651,55.966],[155.99,56.682],[156.472,56.957],[156.553,57.102],[156.737,57.076],[157.0,57.436],[156.907,57.67],[156.773,57.725],[156.855,57.802],[157.006,57.855],[157.349,57.771],[157.526,57.822],[157.678,58.016],[157.984,57.98],[158.332,58.075],[159.084,58.432],[159.713,58.851],[159.719,58.978],[159.858,59.127],[160.394,59.387],[160.496,59.556],[160.897,59.628],[161.493,60.043],[161.919,60.208],[161.951,60.423],[162.705,60.608],[162.891,60.752],[163.73,60.872],[163.768,60.92],[163.487,61.007],[163.937,61.223],[164.029,61.35],[163.751,61.469],[163.872,61.652],[164.054,61.684],[164.136,62.254],[164.531,62.44],[165.021,62.402],[165.091,62.487],[164.72,62.575],[164.616,62.68],[164.44,62.694],[163.257,62.543],[163.172,62.429],[163.373,62.334],[163.086,62.22],[163.137,62.046],[162.966,61.809],[163.336,61.71],[163.325,61.659],[163.121,61.619],[163.019,61.513],[162.834,61.715],[162.616,61.665],[162.749,61.628],[162.754,61.591],[162.389,61.663],[162.008,61.383],[161.876,61.429],[161.897,61.339],[161.815,61.373],[161.784,61.301],[161.543,61.253],[161.581,61.188],[160.911,60.898],[160.79,60.717],[160.686,60.772],[160.407,60.702],[160.44,60.747],[160.426,60.759],[160.168,60.575],[160.145,60.655],[160.255,60.713],[160.175,60.827],[160.387,60.906],[160.336,60.93],[160.443,61.036],[159.788,60.933],[160.005,61.107],[159.938,61.245],[159.768,61.239],[159.966,61.264],[159.881,61.321],[160.084,61.378],[160.107,61.441],[160.035,61.454],[160.279,61.554],[160.323,61.664],[160.254,61.692],[160.41,61.762],[160.365,61.939],[160.03,61.846],[159.896,61.711],[159.696,61.73],[159.576,61.652],[159.512,61.708],[159.572,61.817],[159.471,61.764],[159.351,61.817],[159.396,61.877],[159.03,61.923],[158.886,61.905],[158.844,61.819],[158.272,61.826],[158.08,61.731],[157.487,61.803],[157.027,61.65],[156.958,61.561],[156.672,61.519],[156.657,61.203],[155.929,60.929],[155.988,60.909],[155.906,60.709],[155.811,60.728],[155.435,60.512],[154.935,60.353],[154.638,60.153],[154.485,59.932],[154.585,60.105],[154.411,60.066],[154.48,59.886],[154.209,59.878],[154.229,59.733],[154.374,59.577],[154.228,59.665],[154.072,59.519],[154.126,59.458],[154.303,59.439],[154.393,59.536],[154.414,59.421],[154.534,59.42],[154.413,59.551],[154.972,59.496],[155.21,59.347],[155.155,59.292],[155.202,59.237],[155.133,59.223],[155.182,59.174],[154.834,59.197],[154.807,59.128],[154.334,59.209],[154.355,59.109],[154.041,59.047],[153.685,59.185],[153.785,59.246],[153.638,59.19],[153.388,59.248],[153.267,59.092],[152.998,59.056],[152.907,58.907],[152.548,58.952],[152.354,59.061],[152.395,59.008],[152.172,58.987],[152.067,58.887],[151.345,58.837],[151.102,59.106],[152.081,59.145],[152.322,59.23],[152.141,59.305],[151.738,59.3],[151.771,59.356],[151.668,59.454],[151.409,59.605],[150.915,59.566],[150.939,59.455],[150.761,59.433],[150.754,59.488],[150.5,59.485],[150.772,59.563],[150.576,59.543],[150.458,59.617],[149.552,59.758],[149.045,59.616],[149.227,59.463],[148.934,59.452],[148.875,59.551],[148.716,59.458],[148.74,59.36],[148.984,59.377],[148.929,59.234],[148.417,59.254],[148.402,59.376],[148.242,59.409],[147.878,59.385],[147.786,59.343],[147.848,59.302],[147.796,59.262],[147.638,59.308],[147.543,59.236],[146.507,59.465],[146.304,59.391],[146.351,59.205],[146.047,59.141],[145.827,59.246],[145.948,59.348],[145.928,59.422],[145.803,59.366],[145.698,59.427],[143.219,59.357],[142.283,59.132],[141.563,58.612],[140.796,58.316],[140.489,57.843],[140.006,57.704],[139.793,57.486],[138.927,57.143],[138.87,57.013],[138.627,56.967],[138.272,56.62],[138.126,56.594],[138.141,56.455],[137.918,56.365],[137.724,56.136],[137.553,56.107],[137.395,55.947],[137.292,55.962],[136.757,55.644],[136.42,55.568],[136.136,55.29],[135.468,55.059],[135.174,54.849],[135.257,54.74],[135.666,54.659],[135.763,54.563],[136.831,54.645],[136.882,54.564],[136.74,54.413],[136.815,54.135],[136.673,53.917],[136.796,53.762],[136.944,53.853],[137.196,53.849],[137.304,54.034],[137.158,54.036],[137.082,54.127],[137.189,54.21],[137.394,54.305],[137.736,54.319],[137.297,54.06],[137.601,53.953],[137.855,53.965],[137.608,53.834],[137.497,53.654],[137.218,53.595],[137.313,53.533],[137.952,53.582],[138.305,53.742],[138.369,53.901],[138.581,53.995],[138.585,53.805],[138.259,53.533],[138.469,53.527],[138.659,53.707],[138.768,53.982],[138.741,54.249],[138.659,54.287],[139.317,54.177],[139.785,54.292],[139.789,54.205],[140.207,54.047],[140.28,53.839],[140.54,53.652],[140.732,53.563],[141.108,53.461],[141.131,53.447],[140.945,53.497],[140.912,53.426],[141.418,53.294],[141.328,53.226],[141.443,53.164],[141.219,53.069],[141.198,53.012],[141.239,52.866],[141.163,52.792],[141.268,52.593],[141.104,52.472],[141.253,52.297],[141.504,52.206],[141.353,52.099],[141.391,51.916],[141.19,51.846],[141.107,51.682],[140.876,51.628],[140.887,51.496],[140.727,51.465],[140.859,51.371],[140.67,51.327],[140.651,50.961],[140.526,50.902],[140.432,50.722],[140.492,50.629],[140.417,50.528],[140.53,50.342],[140.502,50.165],[140.687,50.09],[140.399,49.879],[140.529,49.786],[140.547,49.565],[140.311,49.217],[140.351,49.104],[140.281,49.093],[140.26,49.078],[140.332,49.044],[140.2,49.014],[140.286,49.017],[140.215,48.97],[140.251,48.95],[140.333,49.023],[140.391,48.977],[140.193,48.759],[140.174,48.447],[139.264,47.802],[138.991,47.317],[138.837,47.275],[138.561,47.03],[138.348,46.692],[138.343,46.54],[138.177,46.448],[138.101,46.236],[137.655,45.783],[136.802,45.199],[136.45,44.772],[136.304,44.749],[136.15,44.497],[135.874,44.406],[135.648,44.176],[135.632,44.035],[135.527,44.005],[135.521,43.922],[135.452,43.947],[135.46,43.877],[135.527,43.897],[135.436,43.765],[135.22,43.721],[135.141,43.505],[134.979,43.468],[134.778,43.309],[134.187,43.072],[133.95,42.881],[133.866,42.908],[133.748,42.846],[133.725,42.807],[133.611,42.859],[133.04,42.672],[133.0,42.716],[133.097,42.748],[133.005,42.841],[132.905,42.833],[132.912,42.787],[132.873,42.739],[132.849,42.734],[132.76,42.91],[132.57,42.838],[132.406,42.948],[132.318,42.843],[132.284,43.071],[132.39,43.189],[132.306,43.228],[132.35,43.296],[131.956,43.058],[131.84,43.076],[132.071,43.317],[131.969,43.259],[131.992,43.283],[131.973,43.312],[131.823,43.293],[131.789,43.364],[131.756,43.348],[131.761,43.234],[131.695,43.204],[131.778,43.18],[131.686,43.202],[131.572,43.0],[131.376,42.943],[131.384,42.868],[131.471,42.884],[131.47,42.878],[131.363,42.764],[131.257,42.77],[131.218,42.554],[131.108,42.672],[130.923,42.593],[130.808,42.634],[130.923,42.611],[130.946,42.655],[130.779,42.658],[130.833,42.673],[130.841,42.706],[130.652,42.658],[130.739,42.627],[130.685,42.575],[130.796,42.633],[130.774,42.578],[130.871,42.528],[130.698,42.294],[130.664,42.348],[130.661,42.344],[130.657,42.343],[130.659,42.375],[130.581,42.479],[130.604,42.615],[130.605,42.62],[130.599,42.623],[130.597,42.627],[130.536,42.682],[130.414,42.706],[130.435,42.746],[130.638,42.832],[130.818,42.876],[131.021,42.857],[131.128,42.916],[131.106,43.039],[131.264,43.27],[131.31,43.39],[131.301,43.457],[131.191,43.539],[131.231,43.975],[131.298,44.052],[131.096,44.691],[130.958,44.839],[131.124,44.927],[131.212,44.911],[131.343,44.971],[131.469,44.974],[131.646,45.108],[131.702,45.215],[131.868,45.345],[131.992,45.241],[132.931,45.021],[133.117,45.125],[133.102,45.295],[133.15,45.452],[133.194,45.505],[133.47,45.625],[133.478,45.827],[133.521,45.881],[133.579,45.871],[133.66,45.935],[133.745,46.155],[133.902,46.254],[133.93,46.382],[133.847,46.478],[133.908,46.576],[134.019,46.667],[134.039,46.862],[134.112,47.053],[134.215,47.1],[134.15,47.249],[134.18,47.32],[134.297,47.414],[134.486,47.43],[134.555,47.469],[134.761,47.7],[134.768,47.737],[134.595,47.91],[134.559,47.992],[134.582,48.059],[134.661,48.101],[134.717,48.266],[134.415,48.391],[133.751,48.25],[133.596,48.174],[133.484,48.069],[133.083,48.099],[132.662,47.872],[132.579,47.735],[132.52,47.71],[132.341,47.742],[131.916,47.67],[131.62,47.664],[131.535,47.719],[131.417,47.739],[131.268,47.73],[131.087,47.672],[130.992,47.687],[130.941,47.72],[130.946,47.798],[130.884,47.906],[130.682,48.047],[130.661,48.105],[130.832,48.294],[130.737,48.429],[130.526,48.604],[130.674,48.86],[130.512,48.852],[130.418,48.896],[130.225,48.866],[129.912,49.04],[129.913,49.072],[129.748,49.181],[129.726,49.262],[129.552,49.289],[129.49,49.416],[129.391,49.428],[129.111,49.348],[129.052,49.365],[129.002,49.436],[128.874,49.479],[128.79,49.568],[128.712,49.584],[128.398,49.577],[128.186,49.534],[127.84,49.587],[127.691,49.67],[127.672,49.746],[127.537,49.786],[127.506,49.829],[127.486,50.02],[127.574,50.137],[127.581,50.21],[127.333,50.318],[127.292,50.458],[127.367,50.576],[127.281,50.684],[127.292,50.741],[127.133,50.91],[126.933,51.059],[126.899,51.182],[126.969,51.319],[126.894,51.303],[126.889,51.241],[126.817,51.268],[126.819,51.325],[126.914,51.381],[126.794,51.425],[126.718,51.71],[126.608,51.788],[126.442,51.991],[126.509,52.037],[126.555,52.127],[126.319,52.193],[126.349,52.292],[126.334,52.396],[126.276,52.453],[126.207,52.463],[126.18,52.544],[126.087,52.589],[125.993,52.579],[125.976,52.641],[126.097,52.757],[126.065,52.782],[125.974,52.765],[125.856,52.863],[125.658,52.877],[125.659,52.921],[125.722,52.946],[125.727,52.982],[125.62,53.05],[125.485,53.069],[125.165,53.193],[124.964,53.183],[124.818,53.128],[124.644,53.188],[124.492,53.188],[124.34,53.255],[124.269,53.347],[124.103,53.342],[123.911,53.465],[123.615,53.544],[123.441,53.522],[123.255,53.554],[123.152,53.501],[122.816,53.45],[122.246,53.457],[122.062,53.413],[121.83,53.413],[121.212,53.272],[121.066,53.291],[120.831,53.264],[120.27,52.858],[120.031,52.768],[120.026,52.641],[120.082,52.588],[120.186,52.58],[120.441,52.637],[120.709,52.544],[120.683,52.429],[120.626,52.344],[120.725,52.248],[120.781,52.16],[120.777,52.113],[120.653,51.916],[120.492,51.879],[120.064,51.621],[119.956,51.389],[119.776,51.214],[119.747,51.076],[119.521,50.902],[119.504,50.746],[119.294,50.597],[119.237,50.441],[119.139,50.39],[119.198,50.345],[119.357,50.335],[119.322,50.098],[119.173,50.001],[118.575,49.923],[118.478,49.841],[117.874,49.521],[117.793,49.518],[117.494,49.623],[117.258,49.631],[116.984,49.709],[116.716,49.829],[116.617,49.929],[116.246,50.027],[116.07,50.003],[115.728,49.881],[115.417,49.898],[115.213,49.994],[115.034,50.145],[114.847,50.23],[114.666,50.264],[114.443,50.245],[114.322,50.284],[114.176,50.248],[113.871,50.087],[113.785,50.087],[113.557,50.002],[113.187,49.794],[113.098,49.67],[113.093,49.604],[112.831,49.518],[112.71,49.499],[112.492,49.541],[111.965,49.407],[111.692,49.407],[111.128,49.288],[110.957,49.191],[110.661,49.146],[110.352,49.214],[110.206,49.169],[109.554,49.232],[109.344,49.339],[109.198,49.36],[109.076,49.334],[108.959,49.357],[108.563,49.335],[108.072,49.591],[107.953,49.687],[107.984,49.929],[107.746,49.98],[107.462,49.982],[107.175,50.027],[107.079,50.085],[107.007,50.199],[106.788,50.311],[106.663,50.339],[106.244,50.3],[106.078,50.345],[105.989,50.411],[105.336,50.484],[105.131,50.398],[104.967,50.405],[104.62,50.318],[104.418,50.309],[104.253,50.188],[104.114,50.152],[103.826,50.201],[103.648,50.137],[103.317,50.199],[103.224,50.309],[102.919,50.315],[102.78,50.387],[102.636,50.408],[102.541,50.509],[102.334,50.566],[102.297,50.642],[102.355,50.721],[102.237,50.822],[102.255,50.987],[102.168,51.122],[102.163,51.25],[102.224,51.327],[102.082,51.389],[101.601,51.484],[101.384,51.453],[101.245,51.529],[100.557,51.735],[99.948,51.751],[99.729,51.891],[99.344,51.942],[99.019,52.066],[98.983,52.1],[98.997,52.161],[98.969,52.226],[98.871,52.247],[98.833,52.313],[98.727,52.344],[98.721,52.4],[98.861,52.499],[98.865,52.581],[98.98,52.645],[98.989,52.799],[98.938,52.851],[98.957,52.876],[99.194,52.803],[99.264,52.838],[99.294,52.978],[99.101,53.053],[99.114,53.106],[99.082,53.147],[98.945,53.199],[98.848,53.178],[98.685,53.205],[98.593,53.155],[98.354,53.143],[98.323,53.262],[98.052,53.3],[97.984,53.403],[97.645,53.42],[97.618,53.477],[97.484,53.509],[97.355,53.64],[97.136,53.667],[96.902,53.775],[96.801,53.775],[96.684,53.735],[96.62,53.595],[96.452,53.582],[96.394,53.644],[96.247,53.666],[96.188,53.632],[96.158,53.559],[96.06,53.503],[95.751,53.57],[95.391,53.422],[95.346,53.429],[95.309,53.492],[95.241,53.506],[95.043,53.427],[94.977,53.455],[94.727,53.431],[94.573,53.361],[94.538,53.287],[94.597,53.232],[94.556,53.19],[94.541,53.052],[94.469,52.947],[94.299,52.954],[94.121,52.883],[94.034,52.704],[93.953,52.673],[93.925,52.603],[93.725,52.47],[93.711,52.384],[93.62,52.25],[93.34,52.175],[93.204,52.08],[93.108,52.055],[93.052,51.99],[92.877,51.939],[92.836,51.891],[92.662,51.889],[92.501,51.832],[92.21,51.856],[92.101,51.834],[91.964,51.85],[91.899,51.904],[91.634,51.917],[91.561,51.95],[91.236,51.933],[91.1,51.993],[90.87,51.964],[90.748,52.12],[90.584,52.165],[90.508,52.229],[90.349,52.242],[90.095,52.171],[90.075,52.075],[89.978,51.992],[90.021,51.798],[89.92,51.795],[89.708,51.628],[89.587,51.603],[89.422,51.655],[89.286,51.623],[89.269,51.683],[89.205,51.709],[88.71,51.603],[88.698,51.526],[88.91,51.4],[88.896,51.218],[88.997,51.146],[89.024,51.021],[89.356,50.815],[89.64,50.54],[89.818,50.484],[89.661,50.444],[89.559,50.511],[89.49,50.514],[89.446,50.394],[89.357,50.357],[89.287,50.223],[89.328,50.158],[89.406,50.136],[89.464,50.156],[89.544,49.973],[89.541,49.91],[89.638,49.856],[89.659,49.788],[89.732,49.75],[89.72,49.721],[89.457,49.648],[89.376,49.583],[89.223,49.637],[89.201,49.601],[89.233,49.544],[89.01,49.463],[88.925,49.547],[88.886,49.534],[88.895,49.451],[88.853,49.442],[88.408,49.484],[88.221,49.462],[88.134,49.369],[88.17,49.286],[87.991,49.18],[87.705,49.163],[87.465,49.08],[87.175,49.132],[86.876,49.11],[86.731,48.972],[86.807,48.824],[86.78,48.724],[86.597,48.543],[86.47,48.494],[86.322,48.488],[86.233,48.427],[85.804,48.414],[85.739,48.356],[85.618,48.165],[85.537,47.937],[85.622,47.622],[85.609,47.499],[85.703,47.376],[85.701,47.26],[85.521,47.059],[85.219,47.039],[84.97,46.871],[84.802,46.828],[84.748,46.837],[84.774,46.936],[84.678,46.994],[84.295,47.008],[84.111,46.972],[83.9,46.977],[83.557,47.063],[83.155,47.225],[83.062,47.22],[83.034,47.201],[83.01,46.953],[82.874,46.764],[82.708,46.352],[82.571,46.168],[82.511,45.9],[82.322,45.583],[82.317,45.537],[82.354,45.499],[82.646,45.434],[82.632,45.232],[82.547,45.124],[82.481,45.128],[82.297,45.238],[81.947,45.157],[81.825,45.196],[81.783,45.321],[81.679,45.35],[81.557,45.296],[80.918,45.15],[80.525,45.109],[80.4,45.05],[80.113,45.037],[79.871,44.903],[79.874,44.868],[79.999,44.799],[80.263,44.824],[80.515,44.732],[80.385,44.636],[80.349,44.447],[80.4,44.263],[80.369,44.114],[80.74,43.466],[80.815,43.167],[80.778,43.11],[80.655,43.142],[80.384,43.029],[80.388,42.995],[80.551,42.93],[80.571,42.887],[80.258,42.816],[80.158,42.632],[80.293,42.253],[80.284,42.216],[80.234,42.196],[80.269,42.055],[79.873,42.013],[79.79,41.896],[79.341,41.792],[78.671,41.532],[78.371,41.373],[78.372,41.278],[78.291,41.23],[78.191,41.102],[78.081,41.042],[77.861,41.07],[77.687,41.002],[77.508,40.986],[77.382,41.025],[77.273,41.006],[77.021,41.05],[76.871,41.013],[76.791,40.951],[76.648,40.741],[76.641,40.616],[76.57,40.562],[76.512,40.457],[76.339,40.355],[76.224,40.404],[76.068,40.396],[75.901,40.301],[75.706,40.299],[75.624,40.595],[75.583,40.645],[75.233,40.45],[75.065,40.448],[74.859,40.517],[74.826,40.408],[74.881,40.33],[74.734,40.341],[74.355,40.098],[74.226,40.117],[74.025,40.067],[73.848,39.817],[73.843,39.769],[73.908,39.727],[73.954,39.599],[73.863,39.485],[73.656,39.455],[73.669,39.344],[73.62,39.236],[73.728,39.076],[73.851,38.975],[73.843,38.946],[73.723,38.912],[73.709,38.858],[73.814,38.613],[73.939,38.54],[74.079,38.545],[74.064,38.596],[74.146,38.676],[74.356,38.674],[74.792,38.524],[74.852,38.475],[74.862,38.387],[74.794,38.301],[74.792,38.195],[74.818,38.074],[74.916,38.006],[74.906,37.842],[74.985,37.785],[74.904,37.652],[74.954,37.56],[75.182,37.41],[75.097,37.322],[74.916,37.239],[74.823,37.332],[74.67,37.392],[74.254,37.409],[74.146,37.336],[73.738,37.222],[73.623,37.264],[73.77,37.343],[73.776,37.433],[73.456,37.476],[73.299,37.46],[72.8,37.229],[72.661,37.026],[72.306,36.978],[71.843,36.692],[71.676,36.676],[71.554,36.763],[71.457,36.943],[71.431,37.066],[71.448,37.209],[71.489,37.278],[71.504,37.61],[71.589,37.816],[71.585,37.912],[71.507,37.948],[71.329,37.891],[71.259,37.924],[71.356,38.155],[71.362,38.248],[70.988,38.467],[70.779,38.442],[70.599,38.311],[70.342,38.019],[70.245,37.944],[70.163,37.929],[70.166,37.872],[70.235,37.823],[70.282,37.731],[70.253,37.615],[70.129,37.529],[70.012,37.547],[69.912,37.613],[69.794,37.583],[69.522,37.582],[69.382,37.453],[69.412,37.178],[69.256,37.097],[69.123,37.165],[69.006,37.301],[68.891,37.338],[68.662,37.273],[68.624,37.205],[68.334,37.109],[68.283,37.032],[68.182,37.018],[68.058,36.933],[68.003,36.936],[67.785,37.095],[67.75,37.223],[67.526,37.269],[67.247,37.186],[67.092,37.343],[67.013,37.38],[66.538,37.366],[66.449,37.322],[66.414,37.344],[66.288,37.327],[65.772,37.538],[65.698,37.533],[65.646,37.454],[65.648,37.351],[65.563,37.262],[65.067,37.243],[64.794,37.122],[64.793,36.919],[64.617,36.636],[64.615,36.425],[64.467,36.252],[64.165,36.165],[63.978,36.039],[63.613,35.967],[63.522,35.903],[63.318,35.852],[63.123,35.863],[63.105,35.832],[63.184,35.678],[63.105,35.634],[63.123,35.536],[63.087,35.433],[62.986,35.416],[62.631,35.226],[62.47,35.288],[62.312,35.15],[62.27,35.256],[62.043,35.441],[61.966,35.459],[61.797,35.412],[61.597,35.444],[61.439,35.552],[61.375,35.636],[61.277,35.611],[61.255,35.632],[61.23,35.694],[61.262,35.817],[61.212,35.936],[61.201,36.067],[61.221,36.179],[61.163,36.419],[61.19,36.569],[61.154,36.65],[60.335,36.656],[60.016,37.044],[59.479,37.234],[59.394,37.323],[59.376,37.496],[59.343,37.536],[59.238,37.519],[58.934,37.669],[58.405,37.641],[58.236,37.679],[58.174,37.796],[57.7,37.926],[57.454,37.938],[57.354,37.993],[57.372,38.091],[57.242,38.272],[57.182,38.282],[57.06,38.195],[56.865,38.226],[56.756,38.286],[56.443,38.26],[56.323,38.183],[56.349,38.133],[56.332,38.088],[56.292,38.081],[56.367,38.021],[56.356,37.937],[56.294,37.875],[56.232,37.864],[56.224,37.808],[56.07,37.607],[55.996,37.368],[55.745,37.285],[55.72,37.2],[55.621,37.099],[55.548,36.92],[55.568,36.833],[55.516,36.784],[55.553,36.709],[55.636,36.647],[55.653,36.496],[55.497,36.418],[55.362,36.437],[55.321,36.283],[55.389,36.22],[55.502,36.192],[55.644,36.223],[55.812,36.361],[55.97,36.357],[56.106,36.306],[56.437,36.284],[56.417,36.201],[56.442,36.139],[56.502,36.182],[56.755,36.158],[56.754,35.853],[56.911,35.741],[56.985,35.585],[57.048,35.545],[56.981,35.438],[57.051,35.32],[57.009,35.224],[56.844,35.198],[56.675,35.061],[56.537,35.048],[56.255,34.82],[56.226,34.707],[55.902,34.244],[55.654,34.242],[55.521,34.272],[55.399,34.239],[53.523,34.247],[53.483,35.206],[53.448,35.396],[53.326,35.465],[53.337,35.598],[53.072,35.732],[53.153,35.792],[53.14,35.818],[52.926,35.826],[52.859,35.892],[52.701,35.862],[52.646,35.936],[52.52,35.911],[52.479,35.93],[52.238,35.77],[52.075,35.763],[51.88,35.859],[51.761,36.007],[51.553,36.102],[51.376,35.923],[51.152,35.998],[51.181,35.923],[51.108,35.843],[51.118,35.784],[51.089,35.735],[50.966,35.792],[50.894,35.719],[50.764,35.699],[50.731,35.714],[50.741,35.757],[50.847,35.763],[50.886,35.838],[50.856,35.858],[50.886,35.923],[50.937,35.923],[51.08,36.02],[51.087,36.126],[51.179,36.15],[51.249,36.21],[51.006,36.246],[50.922,36.285],[50.882,36.351],[50.816,36.303],[50.699,36.322],[50.658,36.287],[50.53,36.296],[50.409,36.341],[50.407,36.387],[50.299,36.349],[50.258,36.295],[50.222,36.306],[50.152,36.229],[50.002,36.225],[50.018,36.098],[49.867,36.172],[49.883,36.23],[49.833,36.238],[49.823,36.28],[49.654,36.297],[49.523,36.361],[49.483,36.326],[49.417,36.324],[49.341,36.388],[49.11,36.434],[48.979,36.542],[49.026,36.673],[48.99,36.719],[48.846,36.668],[48.781,36.57],[48.555,36.466],[48.254,36.564],[48.184,36.519],[48.182,36.478],[48.058,36.455],[47.952,36.483],[47.93,36.577],[47.965,36.601],[47.966,36.667],[47.867,36.658],[47.836,36.725],[47.687,36.791],[47.686,36.866],[47.622,36.935],[47.506,36.919],[47.428,36.957],[47.257,36.866],[47.189,36.796],[47.096,36.831],[46.997,36.747],[46.873,36.79],[46.833,36.735],[46.755,36.877],[46.704,36.91],[46.663,36.899],[46.651,36.931],[46.496,36.874],[46.375,36.908],[46.247,36.884],[46.319,36.856],[46.32,36.829],[46.139,36.843],[45.89,36.966],[45.738,36.986],[45.732,37.055],[45.671,37.074],[45.616,37.053],[45.636,37.229],[45.688,37.29],[45.557,37.329],[45.387,37.156],[45.279,37.152],[45.199,37.19],[45.165,37.259],[45.067,37.279],[45.015,37.257],[44.999,37.203],[44.908,37.118],[44.79,37.142],[44.759,37.227],[44.815,37.278],[44.799,37.31],[44.58,37.452],[44.614,37.602],[44.569,37.649],[44.621,37.727],[44.555,37.781],[44.449,37.773],[44.388,37.863],[44.226,37.89],[44.244,37.969],[44.33,38.096],[44.364,38.104],[44.356,38.135],[44.393,38.146],[44.405,38.253],[44.512,38.341],[44.449,38.385],[44.38,38.36],[44.304,38.39],[44.322,38.624],[44.275,38.646],[44.257,38.716],[44.315,38.809],[44.214,38.891],[44.177,38.992],[44.212,39.021],[44.193,39.073],[44.226,39.095],[44.214,39.13],[44.099,39.205],[44.108,39.284],[44.035,39.373],[44.073,39.412],[44.13,39.39],[44.225,39.417],[44.295,39.377],[44.422,39.412],[44.411,39.473],[44.44,39.505],[44.418,39.555],[44.48,39.61],[44.47,39.684],[44.611,39.779],[44.822,39.611],[44.889,39.606],[44.815,39.639],[44.787,39.709],[44.595,39.83],[44.488,39.963],[44.283,40.046],[43.933,40.014],[43.666,40.105],[43.654,40.13],[43.715,40.157],[43.583,40.452],[43.594,40.5],[43.718,40.621],[43.75,40.745],[43.672,40.927],[43.595,40.993],[43.484,41.025],[43.455,41.168],[43.378,41.202],[43.232,41.193],[42.831,41.582],[42.598,41.582],[42.522,41.473],[42.526,41.408],[42.482,41.377],[42.0,41.457],[41.907,41.447],[41.872,41.388],[41.824,41.372],[41.704,41.434],[41.578,41.459],[41.573,41.451],[41.51,41.472],[41.777,41.863],[41.438,42.74],[41.15,42.797],[41.054,42.987],[40.862,43.076],[40.342,43.146],[40.24,43.319],[39.925,43.414],[38.791,44.282],[38.205,44.415],[38.065,44.577],[38.028,44.56],[37.985,44.568],[37.806,44.732],[37.736,44.65],[37.483,44.694],[37.254,44.978],[36.796,45.118],[36.86,45.174],[36.853,45.175],[36.867,45.189],[36.88,45.191],[36.992,45.29],[36.929,45.409],[37.09,45.342],[37.098,45.298],[37.081,45.302],[37.068,45.251],[37.11,45.234],[37.291,45.27],[37.223,45.276],[37.567,45.405],[37.616,45.664],[37.83,45.752],[37.972,46.035],[38.116,46.054],[38.079,46.04],[38.065,45.968],[38.107,45.949],[38.27,46.26],[38.262,46.153],[38.581,46.039],[38.568,46.114],[38.128,46.384],[37.924,46.402],[37.735,46.683],[38.008,46.636],[38.291,46.743],[38.333,46.664],[38.593,46.662],[38.507,46.751],[38.397,46.724],[38.447,46.851],[38.837,46.906],[39.103,47.043],[39.293,47.02],[39.243,47.262],[38.953,47.268],[38.865,47.173],[38.572,47.115],[38.482,47.141],[38.606,47.244],[38.828,47.269],[38.655,47.262],[38.597,47.246],[38.524,47.21],[38.477,47.144],[38.088,47.024],[38.136,47.06],[38.064,47.112],[37.574,47.1],[37.521,47.072],[37.518,47.061],[37.524,47.053],[37.517,47.061],[37.515,47.066],[37.498,47.041],[37.477,47.031],[37.335,46.89],[37.304,46.869],[37.236,46.951],[36.776,46.757],[36.774,46.756],[36.409,46.725],[36.329,46.674],[36.272,46.606],[36.28,46.62],[36.283,46.622],[36.284,46.626],[36.295,46.638],[36.296,46.642],[35.864,46.644],[35.445,46.435],[35.247,46.23],[35.357,46.364],[35.2,46.381],[35.068,46.275],[34.957,46.309],[35.0,46.315],[35.0,46.317],[35.008,46.318],[35.003,46.322],[34.894,46.328],[34.853,46.372],[34.685,46.433],[34.584,46.533],[34.572,46.603],[34.528,46.645],[34.526,46.798],[34.572,46.847],[34.585,46.967],[34.833,47.216],[34.909,47.231],[34.969,47.291],[34.964,47.514],[34.538,47.93],[34.519,48.009],[34.364,48.164],[34.284,48.184],[34.09,48.378],[34.059,48.469],[33.99,48.48],[33.846,48.574],[33.651,48.576],[33.603,48.622],[33.451,48.626],[33.403,48.672],[33.343,48.679],[33.109,48.869],[33.033,48.884],[32.84,49.078],[32.826,49.299],[32.872,49.347],[32.879,49.457],[32.924,49.504],[32.924,49.646],[32.764,49.814],[32.646,49.874],[32.544,49.879],[32.503,49.922],[32.393,49.929],[32.346,49.974],[32.201,49.976],[32.146,50.024],[31.851,50.026],[31.803,50.072],[31.701,50.076],[31.653,50.122],[31.584,50.134],[31.429,50.394],[31.369,50.659],[31.164,50.864],[31.046,50.924],[30.942,50.929],[30.853,51.022],[30.751,51.026],[30.703,51.072],[30.643,51.079],[30.559,51.169],[30.493,51.179],[30.429,51.242],[30.375,51.361],[30.424,51.454],[30.429,51.558],[30.583,51.716],[30.659,51.731],[30.741,51.82],[31.003,51.878],[31.051,51.924],[31.246,51.926],[31.302,51.974],[31.546,51.976],[31.593,52.021],[31.703,52.028],[31.744,52.071],[31.846,52.076],[31.964,52.136],[32.214,52.386],[32.229,52.457],[32.272,52.497],[32.276,52.599],[32.325,52.663],[32.324,52.796],[32.275,52.89],[32.324,52.996],[32.209,53.119],[32.135,53.134],[32.009,53.269],[31.932,53.292],[31.919,53.409],[31.734,53.585],[31.719,53.659],[31.629,53.743],[31.622,53.803],[31.576,53.851],[31.572,53.953],[31.526,54.001],[31.522,54.103],[31.328,54.444],[31.322,54.553],[31.225,54.709],[31.226,54.998],[31.272,55.047],[31.279,55.157],[31.324,55.204],[31.314,55.464],[31.103,55.672],[30.995,55.678],[30.946,55.724],[30.751,55.726],[30.696,55.774],[30.013,55.775],[29.949,55.726],[29.71,55.725],[29.646,55.774],[29.501,55.776],[29.378,55.895],[29.376,56.099],[29.569,56.341],[29.584,56.416],[29.669,56.491],[29.678,56.557],[29.724,56.604],[29.734,56.716],[29.833,56.816],[29.903,56.828],[29.944,56.872],[30.053,56.878],[30.101,56.924],[30.24,56.925],[30.304,56.876],[30.499,56.874],[30.554,56.826],[30.749,56.824],[30.804,56.776],[31.237,56.775],[31.294,56.822],[31.446,56.826],[31.493,56.871],[31.603,56.878],[31.644,56.921],[31.746,56.926],[31.864,56.986],[31.924,57.104],[31.924,57.196],[31.878,57.243],[31.869,57.359],[31.778,57.444],[31.779,57.607],[31.822,57.647],[31.834,57.716],[32.019,57.891],[32.033,57.966],[32.219,58.141],[32.234,58.217],[32.514,58.486],[32.534,58.566],[32.719,58.741],[32.779,58.907],[32.822,58.947],[32.824,59.046],[32.509,59.369],[32.443,59.378],[32.396,59.424],[32.294,59.428],[32.246,59.474],[32.144,59.478],[32.103,59.522],[31.994,59.528],[31.953,59.572],[31.884,59.584],[31.659,59.819],[31.543,59.828],[31.496,59.874],[31.397,59.872],[31.34,59.825],[31.101,59.826],[31.037,59.875],[30.563,59.875],[30.499,59.826],[30.214,59.825],[30.215,59.827],[30.164,59.825],[30.235,59.928],[30.212,59.976],[29.962,60.01],[29.921,60.147],[28.99,60.214],[29.054,60.242],[29.053,60.244],[29.459,60.431],[29.494,60.472]],[[127.241,71.835],[127.326,71.895],[127.081,72.0],[126.83,72.0],[127.129,71.845],[127.089,71.767],[127.204,71.594],[127.215,71.395],[127.276,71.389],[127.306,71.411],[127.311,71.491],[127.189,71.748],[127.241,71.835]],[[125.647,72.342],[126.0,72.298],[126.0,72.332],[125.723,72.365],[125.316,72.473],[125.242,72.535],[124.863,72.608],[124.779,72.662],[124.382,72.673],[124.0,72.781],[124.0,72.726],[124.343,72.641],[124.737,72.624],[125.137,72.532],[125.256,72.452],[125.454,72.424],[125.647,72.342]],[[49.412,39.941],[49.422,39.7],[49.321,39.635],[49.31,39.452],[49.275,39.515],[49.299,39.453],[49.398,39.379],[49.389,39.346],[49.249,39.342],[49.225,39.148],[49.202,39.119],[49.188,39.196],[49.15,39.129],[49.048,39.179],[49.1,39.226],[49.029,39.206],[49.008,39.281],[48.866,39.198],[49.02,39.208],[48.945,39.159],[48.942,38.941],[48.847,38.851],[48.885,38.99],[48.81,38.884],[48.933,37.901],[49.034,37.695],[49.467,37.465],[49.927,37.472],[50.2,37.379],[50.312,37.14],[50.71,36.896],[51.675,36.597],[52.019,36.581],[53.278,36.862],[53.988,36.94],[54.023,36.902],[53.642,36.842],[54.014,36.815],[54.044,36.948],[53.992,37.281],[53.913,37.345],[53.97,37.34],[53.967,37.374],[53.814,37.908],[53.836,38.565],[54.02,38.962],[53.716,39.078],[53.715,39.231],[53.653,39.115],[53.552,39.366],[53.168,39.377],[53.22,39.358],[53.179,39.216],[53.097,39.43],[53.298,39.702],[53.233,39.546],[53.442,39.566],[53.568,39.491],[53.594,39.563],[53.641,39.509],[53.737,39.548],[53.653,39.648],[53.572,39.626],[53.557,39.697],[53.435,39.713],[53.419,39.799],[53.605,39.943],[53.764,39.907],[53.762,39.81],[54.139,39.795],[53.632,40.023],[53.427,40.035],[53.297,39.961],[52.926,40.006],[52.938,39.862],[52.761,40.012],[52.713,40.34],[52.862,40.674],[52.923,41.076],[53.0,40.95],[53.005,40.972],[53.111,40.769],[53.386,40.769],[53.494,40.736],[53.556,40.768],[53.555,40.836],[53.592,40.891],[53.656,40.856],[53.653,40.781],[53.737,40.617],[54.031,40.654],[54.1,40.716],[54.222,40.725],[54.219,40.693],[54.35,40.673],[54.422,40.71],[54.308,40.753],[54.251,40.881],[54.336,40.924],[54.469,40.862],[54.48,40.799],[54.707,40.875],[54.76,40.965],[54.732,41.104],[54.076,41.475],[54.019,41.605],[54.025,41.715],[53.936,41.876],[53.898,42.069],[53.811,42.122],[53.66,42.143],[53.283,42.072],[53.15,42.095],[52.949,41.975],[52.82,41.697],[52.916,41.666],[52.826,41.414],[52.821,41.401],[52.908,41.108],[52.866,41.053],[52.776,41.381],[52.553,41.539],[52.588,41.685],[52.442,41.774],[52.496,41.899],[52.436,42.146],[52.752,42.625],[52.737,42.733],[52.472,42.836],[52.289,42.784],[52.185,42.875],[51.905,42.833],[51.656,43.184],[51.271,43.153],[51.281,43.601],[51.163,43.627],[51.03,43.799],[50.841,44.197],[50.268,44.357],[50.222,44.586],[50.267,44.544],[50.311,44.646],[50.821,44.635],[51.099,44.475],[51.363,44.551],[51.543,44.518],[51.267,44.589],[50.985,44.923],[51.25,45.029],[51.254,45.199],[51.359,45.304],[51.726,45.403],[52.366,45.375],[52.385,45.387],[52.403,45.387],[52.422,45.376],[52.449,45.373],[52.48,45.379],[52.529,45.403],[52.766,45.339],[53.105,45.298],[53.228,45.338],[52.929,45.451],[52.751,45.518],[52.708,45.603],[52.735,45.674],[52.871,45.629],[52.766,45.706],[52.988,45.932],[52.827,46.067],[52.832,46.147],[52.917,46.144],[52.984,46.35],[53.128,46.403],[53.002,46.486],[53.033,46.553],[53.132,46.604],[53.14,46.593],[53.14,46.591],[53.206,46.643],[53.194,46.715],[53.102,46.778],[53.059,46.889],[52.866,46.952],[52.692,46.95],[52.69,46.954],[52.507,46.987],[52.503,46.98],[52.454,46.996],[52.342,46.895],[52.32,46.875],[52.253,46.814],[52.24,46.803],[52.09,46.815],[51.789,46.901],[51.778,46.905],[51.686,46.958],[51.635,47.042],[51.194,47.115],[50.844,47.008],[50.834,46.997],[50.837,46.995],[50.848,47.0],[50.851,47.0],[50.888,47.007],[50.908,47.008],[50.935,47.004],[50.784,46.94],[50.582,46.918],[50.555,46.886],[50.532,46.877],[50.527,46.886],[50.501,46.909],[50.433,46.901],[50.402,46.884],[50.392,46.87],[50.382,46.862],[50.372,46.867],[49.987,46.651],[49.986,46.65],[49.854,46.576],[49.852,46.574],[49.827,46.56],[49.62,46.575],[49.562,46.53],[49.455,46.511],[49.324,46.565],[49.386,46.493],[49.37,46.403],[49.281,46.439],[49.232,46.393],[49.241,46.389],[49.197,46.335],[49.336,46.2],[49.326,46.137],[49.267,46.17],[49.24,46.157],[49.318,46.066],[49.252,46.102],[49.216,45.991],[49.028,46.118],[49.02,45.964],[49.047,45.893],[48.947,45.983],[48.857,45.841],[48.77,45.902],[48.713,45.832],[48.681,45.862],[48.571,45.964],[48.453,45.934],[48.227,45.748],[48.231,45.749],[48.223,45.744],[48.217,45.744],[48.142,45.738],[47.854,45.717],[47.828,45.659],[47.739,45.694],[47.556,45.768],[47.554,45.739],[47.624,45.71],[47.624,45.708],[47.613,45.709],[47.603,45.7],[47.678,45.592],[47.648,45.46],[47.457,45.354],[47.43,45.124],[47.388,45.187],[47.262,44.927],[47.201,44.937],[47.262,44.926],[47.244,44.81],[47.162,44.707],[47.052,44.798],[46.99,44.761],[47.073,44.66],[46.871,44.665],[46.829,44.616],[46.912,44.492],[46.738,44.503],[46.903,44.468],[47.114,44.222],[47.234,44.218],[47.472,43.833],[47.767,43.907],[47.501,43.463],[47.486,43.31],[47.554,43.303],[47.495,43.0],[47.698,42.872],[47.734,42.669],[47.888,42.582],[48.362,41.956],[48.65,41.805],[49.009,41.443],[49.224,41.009],[49.553,40.784],[49.552,40.634],[49.809,40.567],[50.067,40.597],[50.367,40.359],[50.37,40.225],[50.241,40.345],[50.024,40.304],[49.872,40.375],[49.482,40.18],[49.498,40.106],[49.417,40.078],[49.483,39.997],[49.412,39.941]],[[47.753,39.606],[47.808,39.659],[47.917,39.661],[48.009,39.701],[47.813,39.679],[47.544,39.516],[47.392,39.471],[47.287,39.375],[47.1,39.304],[47.043,39.238],[47.032,39.196],[46.929,39.163],[46.963,39.141],[47.054,39.194],[47.099,39.277],[47.315,39.369],[47.396,39.468],[47.563,39.514],[47.753,39.606]]],[[[-172.9,64.337],[-173.186,64.255],[-173.372,64.296],[-173.155,64.439],[-173.255,64.418],[-173.216,64.522],[-173.342,64.604],[-173.3,64.437],[-173.654,64.326],[-173.993,64.416],[-174.04,64.53],[-174.236,64.608],[-174.785,64.765],[-175.429,64.775],[-175.356,64.833],[-175.893,65.002],[-175.734,65.142],[-176.04,65.393],[-175.858,65.283],[-176.0,65.437],[-177.068,65.61],[-177.499,65.486],[-178.541,65.51],[-178.405,65.703],[-178.882,65.909],[-178.82,65.941],[-178.85,65.981],[-178.879,65.997],[-178.899,66.015],[-178.923,66.042],[-178.74,65.975],[-178.658,66.086],[-178.566,66.091],[-178.476,66.136],[-178.477,66.388],[-178.844,66.157],[-178.965,66.162],[-179.032,66.188],[-179.105,66.248],[-179.06,66.369],[-179.161,66.264],[-179.327,66.317],[-179.397,66.318],[-179.196,66.194],[-179.301,66.126],[-179.637,66.111],[-179.531,66.123],[-179.681,66.167],[-179.762,66.083],[-179.761,65.864],[-179.599,65.727],[-179.274,65.63],[-179.389,65.541],[-179.386,65.536],[-179.429,65.511],[-179.538,65.428],[-179.571,65.264],[-179.698,65.207],[-179.699,65.207],[-179.703,65.201],[-179.705,65.202],[-179.71,65.202],[-179.997,65.074],[-179.997,65.102],[-180.0,68.914],[-180.0,68.974],[-180.0,68.977],[-179.432,68.919],[-177.601,68.306],[-175.462,67.706],[-175.192,67.513],[-175.225,67.483],[-175.208,67.475],[-175.219,67.449],[-175.376,67.343],[-175.099,67.371],[-175.07,67.407],[-175.041,67.443],[-174.833,67.384],[-174.785,67.306],[-174.865,67.31],[-174.893,67.29],[-174.955,67.104],[-174.827,66.898],[-174.823,66.897],[-174.82,66.894],[-174.816,66.88],[-174.745,66.767],[-174.979,66.658],[-174.89,66.59],[-174.443,66.532],[-174.323,66.429],[-174.466,66.461],[-174.408,66.276],[-174.387,66.281],[-174.305,66.298],[-174.296,66.317],[-174.386,66.337],[-174.146,66.421],[-174.209,66.469],[-173.925,66.463],[-173.985,66.418],[-173.93,66.366],[-173.928,66.328],[-174.019,66.319],[-174.081,66.249],[-174.059,66.218],[-173.974,66.21],[-173.689,66.431],[-174.217,66.573],[-174.262,66.567],[-174.237,66.526],[-174.263,66.501],[-174.264,66.569],[-173.923,66.674],[-174.001,66.978],[-174.265,66.976],[-174.194,67.023],[-174.212,67.032],[-174.286,67.038],[-174.294,67.039],[-174.296,67.04],[-174.295,67.041],[-174.21,67.055],[-174.472,67.025],[-174.542,67.026],[-174.56,67.03],[-174.561,67.034],[-174.155,67.081],[-174.618,67.058],[-173.646,67.114],[-171.717,66.951],[-171.7,66.851],[-171.416,66.771],[-171.343,66.651],[-169.661,66.104],[-169.721,66.006],[-170.187,66.011],[-170.594,65.847],[-170.475,65.805],[-170.584,65.605],[-171.18,65.704],[-171.237,65.767],[-171.426,65.835],[-171.476,65.827],[-171.028,65.581],[-171.046,65.543],[-171.052,65.531],[-171.076,65.483],[-172.258,65.544],[-172.209,65.585],[-172.312,65.681],[-172.625,65.686],[-172.647,65.62],[-172.422,65.577],[-172.458,65.461],[-172.459,65.46],[-172.342,65.419],[-172.2,65.434],[-172.25,65.248],[-172.261,65.248],[-172.261,65.249],[-172.68,65.269],[-172.699,65.244],[-172.604,65.213],[-172.306,65.217],[-172.254,65.176],[-172.135,65.081],[-172.463,64.92],[-173.045,64.863],[-173.195,64.778],[-172.913,64.838],[-172.748,64.772],[-173.084,64.649],[-172.828,64.656],[-172.955,64.563],[-172.776,64.612],[-172.445,64.54],[-172.36,64.427],[-172.632,64.389],[-172.761,64.508],[-172.963,64.491],[-173.027,64.439],[-172.886,64.451],[-172.892,64.397],[-172.898,64.35],[-172.9,64.337]]],[[[55.378,74.41],[55.505,74.403],[56.259,74.46],[55.567,74.544],[55.824,74.671],[55.95,74.63],[56.409,74.702],[56.568,74.643],[56.654,74.671],[56.736,74.645],[56.946,74.672],[56.593,74.672],[56.429,74.72],[56.464,74.769],[55.838,74.775],[56.449,74.896],[56.294,74.897],[56.392,74.971],[56.294,75.001],[55.832,74.962],[55.932,75.047],[55.747,75.054],[55.951,75.177],[56.292,75.158],[56.394,75.037],[56.587,75.058],[56.75,75.194],[57.076,75.216],[56.704,75.298],[57.035,75.38],[57.996,75.296],[57.719,75.349],[57.73,75.423],[57.554,75.475],[58.491,75.595],[57.98,75.626],[58.834,75.722],[58.734,75.8],[58.876,75.846],[60.004,75.897],[60.048,75.962],[60.43,75.965],[60.039,76.034],[60.263,76.089],[60.782,76.1],[60.467,76.004],[60.562,75.988],[61.081,76.017],[61.082,76.085],[61.225,76.125],[60.905,76.146],[61.1,76.266],[62.307,76.257],[62.347,76.176],[62.544,76.155],[62.77,76.261],[62.937,76.215],[62.887,76.195],[63.13,76.191],[63.72,76.329],[63.978,76.333],[64.119,76.254],[64.535,76.38],[64.843,76.339],[64.699,76.39],[64.969,76.476],[65.261,76.434],[65.486,76.551],[66.118,76.48],[66.006,76.603],[65.822,76.651],[66.04,76.738],[66.379,76.706],[66.227,76.763],[67.571,76.991],[68.58,76.955],[68.501,76.93],[68.833,76.868],[68.759,76.841],[68.929,76.78],[68.894,76.73],[68.895,76.725],[68.898,76.72],[68.882,76.714],[68.789,76.585],[68.957,76.537],[68.195,76.294],[68.306,76.249],[65.991,75.984],[63.792,75.612],[63.811,75.652],[63.705,75.704],[63.587,75.715],[63.686,75.69],[62.311,75.419],[61.904,75.466],[61.854,75.432],[61.949,75.387],[61.817,75.32],[61.734,75.36],[61.463,75.207],[61.382,75.212],[61.412,75.313],[61.29,75.309],[61.349,75.281],[61.091,75.172],[60.79,75.141],[60.741,75.014],[60.503,75.103],[60.307,75.084],[60.485,75.048],[60.386,75.044],[60.411,75.0],[59.908,74.983],[60.629,74.913],[60.527,74.843],[60.155,74.843],[60.305,74.78],[60.247,74.734],[59.656,74.719],[59.626,74.749],[59.492,74.788],[59.45,74.785],[59.575,74.719],[59.837,74.663],[59.862,74.607],[59.762,74.572],[59.14,74.735],[59.09,74.699],[59.269,74.618],[59.138,74.614],[59.122,74.526],[58.785,74.584],[59.113,74.52],[59.061,74.468],[59.123,74.45],[59.134,74.424],[58.211,74.554],[58.591,74.448],[58.531,74.412],[58.413,74.439],[58.354,74.439],[58.315,74.427],[58.611,74.381],[58.721,74.249],[58.634,74.235],[58.731,74.214],[58.531,74.221],[58.638,74.201],[58.471,74.199],[58.584,74.161],[58.506,74.144],[58.277,74.184],[58.279,74.15],[58.537,74.119],[58.141,74.117],[58.192,74.077],[58.115,74.034],[58.249,74.002],[58.16,74.0],[58.144,73.973],[57.71,74.044],[57.546,74.179],[57.338,74.204],[57.542,74.08],[57.251,74.067],[57.521,74.066],[57.865,73.906],[57.76,73.882],[57.884,73.77],[57.724,73.723],[57.43,73.829],[56.705,73.878],[56.625,73.864],[57.293,73.811],[57.619,73.629],[57.234,73.552],[56.951,73.591],[56.792,73.679],[56.684,73.688],[56.888,73.599],[56.75,73.579],[57.24,73.454],[56.904,73.301],[56.765,73.341],[56.807,73.308],[56.728,73.234],[56.12,73.259],[56.025,73.308],[56.046,73.374],[55.933,73.426],[55.963,73.295],[54.955,73.44],[54.287,73.316],[54.079,73.365],[54.487,73.462],[54.233,73.482],[54.389,73.557],[55.406,73.706],[54.562,73.691],[54.236,73.596],[53.682,73.73],[53.705,73.79],[53.952,73.767],[54.261,73.902],[54.846,73.953],[54.577,73.997],[55.034,74.158],[56.078,74.035],[55.61,74.176],[55.109,74.249],[55.754,74.276],[55.677,74.341],[55.297,74.35],[55.378,74.41]]],[[[54.431,70.735],[54.791,70.636],[54.306,70.763],[54.003,70.732],[53.906,70.815],[53.881,70.803],[53.851,70.802],[53.846,70.797],[53.899,70.76],[53.486,70.8],[53.35,70.86],[53.752,70.811],[53.683,70.878],[53.778,70.93],[53.51,71.087],[53.963,71.015],[53.906,71.073],[54.175,71.07],[54.266,71.095],[54.011,71.137],[54.225,71.147],[54.103,71.212],[53.805,71.19],[53.838,71.134],[53.516,71.217],[53.464,71.257],[53.547,71.254],[53.552,71.277],[53.341,71.325],[53.287,71.438],[53.496,71.528],[53.46,71.537],[53.493,71.554],[53.472,71.573],[53.238,71.499],[53.16,71.408],[53.096,71.484],[53.042,71.491],[53.009,71.51],[52.999,71.511],[53.055,71.465],[52.935,71.472],[53.029,71.4],[52.953,71.371],[52.882,71.46],[52.78,71.464],[52.856,71.41],[52.621,71.461],[52.717,71.524],[52.583,71.598],[52.635,71.591],[52.554,71.652],[52.571,71.74],[52.531,71.764],[52.504,71.68],[52.536,71.565],[52.399,71.539],[52.458,71.462],[52.331,71.514],[52.309,71.53],[52.309,71.533],[52.313,71.533],[52.315,71.529],[52.318,71.529],[52.314,71.563],[52.297,71.571],[52.274,71.566],[52.141,71.537],[52.201,71.49],[51.858,71.477],[51.62,71.536],[51.434,71.84],[51.564,72.061],[51.822,72.151],[52.046,72.049],[52.224,72.13],[52.175,72.069],[52.527,72.026],[52.504,72.035],[52.464,72.04],[52.463,72.046],[52.453,72.046],[52.467,72.07],[52.398,72.098],[52.442,72.123],[52.441,72.168],[52.467,72.118],[52.562,72.131],[52.526,72.175],[52.431,72.212],[52.551,72.186],[52.456,72.275],[52.628,72.24],[52.599,72.29],[52.725,72.314],[52.575,72.364],[52.761,72.325],[52.705,72.427],[52.849,72.431],[52.71,72.443],[52.719,72.474],[52.901,72.496],[52.98,72.573],[53.32,72.549],[53.117,72.591],[52.98,72.588],[52.727,72.54],[52.846,72.611],[52.748,72.629],[52.976,72.662],[52.403,72.717],[52.614,72.852],[52.954,72.908],[53.298,72.865],[53.524,72.854],[53.628,72.889],[53.085,72.949],[53.415,72.996],[53.154,73.09],[53.423,73.23],[54.248,73.258],[54.916,73.424],[55.435,73.313],[56.409,73.222],[56.551,73.11],[55.819,73.057],[56.42,73.018],[55.546,72.942],[56.275,72.947],[56.12,72.779],[55.342,72.762],[55.843,72.738],[55.922,72.65],[55.668,72.655],[55.695,72.595],[55.598,72.523],[55.494,72.559],[55.298,72.569],[55.563,72.508],[55.302,72.441],[55.479,72.435],[55.469,72.334],[55.362,72.287],[55.576,72.173],[55.408,72.098],[55.46,72.056],[55.363,71.98],[55.433,71.934],[55.275,71.943],[55.524,71.882],[55.655,71.626],[56.214,71.185],[57.613,70.708],[57.468,70.659],[57.476,70.592],[57.358,70.607],[57.433,70.587],[57.037,70.655],[56.763,70.672],[57.321,70.542],[56.547,70.655],[56.691,70.612],[56.608,70.618],[56.505,70.66],[56.623,70.718],[56.516,70.741],[56.22,70.738],[56.325,70.691],[56.193,70.699],[56.321,70.652],[56.159,70.651],[56.226,70.633],[55.794,70.665],[56.032,70.557],[55.884,70.567],[55.83,70.606],[55.745,70.593],[55.61,70.635],[55.746,70.6],[55.568,70.677],[55.763,70.611],[55.861,70.613],[55.611,70.724],[55.81,70.616],[55.436,70.733],[55.354,70.685],[55.099,70.765],[54.906,70.762],[55.358,70.679],[55.401,70.687],[55.481,70.633],[55.27,70.681],[55.206,70.657],[55.293,70.562],[55.168,70.545],[54.54,70.782],[54.431,70.735]]],[[[137.438,75.887],[137.504,75.945],[138.103,75.999],[138.199,76.072],[138.047,76.026],[138.225,76.108],[138.854,76.201],[139.138,76.203],[139.031,76.177],[139.228,76.072],[140.004,75.946],[139.833,75.877],[140.183,75.791],[140.111,75.77],[140.468,75.789],[140.38,75.752],[140.436,75.74],[140.391,75.636],[140.57,75.613],[140.851,75.589],[141.12,75.633],[141.153,75.638],[141.144,75.66],[140.919,75.719],[141.004,76.032],[141.203,76.059],[141.726,75.973],[141.748,75.988],[141.349,76.156],[141.407,76.172],[142.645,75.85],[143.935,75.817],[145.392,75.498],[144.849,75.432],[144.775,75.372],[144.919,75.271],[144.381,75.051],[143.388,75.048],[142.929,75.144],[142.743,75.301],[142.528,75.343],[142.613,75.439],[142.565,75.461],[143.057,75.557],[143.036,75.562],[142.981,75.568],[142.957,75.568],[142.95,75.571],[143.13,75.643],[143.055,75.705],[142.734,75.747],[142.277,75.727],[142.458,75.689],[141.967,75.619],[142.187,75.591],[142.084,75.537],[142.269,75.307],[142.747,75.074],[143.696,74.945],[142.689,74.893],[142.485,74.812],[141.992,74.93],[142.442,74.907],[142.238,75.009],[141.889,75.004],[141.576,74.932],[140.841,74.883],[140.187,74.805],[140.048,74.795],[140.0,74.794],[139.901,74.793],[139.839,74.802],[140.104,74.803],[139.68,74.969],[139.511,74.914],[139.541,74.848],[139.696,74.858],[139.512,74.74],[139.141,74.634],[138.175,74.757],[137.865,74.941],[137.239,75.109],[136.955,75.26],[136.931,75.344],[137.478,75.352],[137.185,75.371],[137.171,75.432],[137.298,75.471],[137.278,75.493],[137.21,75.522],[137.266,75.525],[137.288,75.519],[137.313,75.521],[137.189,75.549],[137.327,75.573],[137.276,75.617],[137.026,75.588],[137.216,75.518],[136.99,75.586],[137.226,75.651],[137.149,75.702],[137.206,75.749],[137.597,75.781],[137.438,75.887]]],[[[141.829,52.555],[141.921,53.033],[141.763,53.374],[141.869,53.428],[141.856,53.43],[142.178,53.528],[142.26,53.538],[142.241,53.386],[142.41,53.374],[142.671,53.509],[142.56,53.6],[142.514,53.547],[142.479,53.66],[142.729,53.639],[142.786,53.714],[142.743,53.831],[142.582,53.705],[142.721,53.928],[142.395,54.24],[142.608,54.267],[142.705,54.425],[142.988,54.115],[142.892,53.873],[142.894,53.873],[142.869,53.801],[143.014,53.634],[142.948,53.62],[143.014,53.633],[143.062,53.561],[143.028,53.589],[142.968,53.559],[143.062,53.56],[143.129,53.452],[143.056,53.448],[143.131,53.449],[143.148,53.424],[143.083,53.391],[143.149,53.422],[143.189,53.351],[143.265,53.154],[143.331,52.842],[143.254,53.146],[143.136,53.211],[143.198,53.283],[143.128,53.366],[143.032,53.259],[143.099,53.037],[143.241,52.846],[143.267,52.865],[143.267,52.933],[143.287,52.958],[143.314,52.713],[143.316,52.837],[143.333,52.821],[143.316,52.583],[143.279,52.445],[143.175,52.316],[143.274,52.453],[143.272,52.479],[143.229,52.479],[143.271,52.543],[143.301,52.588],[143.289,52.642],[143.118,52.361],[143.131,52.282],[143.175,52.356],[143.14,52.112],[143.126,52.157],[143.13,52.163],[143.139,52.239],[143.146,52.251],[143.147,52.257],[143.146,52.261],[143.076,52.171],[143.088,52.049],[143.151,51.974],[143.099,51.929],[143.212,51.85],[143.183,51.969],[143.329,51.692],[143.284,51.715],[143.254,51.685],[143.208,51.513],[143.35,51.513],[143.335,51.613],[143.348,51.633],[143.357,51.634],[143.381,51.598],[143.401,51.524],[143.419,51.495],[143.424,51.467],[143.437,51.44],[143.441,51.439],[143.412,51.546],[143.435,51.5],[143.479,51.331],[143.376,51.332],[143.488,51.269],[143.465,51.214],[143.523,51.226],[143.496,51.278],[143.474,51.285],[143.482,51.321],[143.535,51.203],[143.671,50.804],[143.758,50.397],[144.028,49.897],[143.964,49.897],[142.203,49.893],[142.138,49.893],[142.153,50.367],[142.044,50.537],[142.093,50.809],[142.239,51.012],[142.244,51.167],[142.082,51.468],[141.8,51.682],[141.816,51.797],[141.627,51.886],[141.694,52.158],[141.63,52.326],[141.829,52.555]]],[[[148.622,75.2],[149.394,75.262],[149.742,75.212],[150.121,75.206],[150.248,75.184],[150.312,75.15],[150.309,75.149],[150.248,75.132],[150.639,75.109],[150.525,75.081],[150.545,75.078],[150.962,75.126],[150.665,74.992],[150.637,74.864],[149.564,74.746],[148.262,74.773],[146.117,75.244],[146.259,75.288],[146.232,75.388],[146.325,75.394],[146.246,75.399],[146.489,75.589],[146.743,75.516],[146.643,75.438],[146.907,75.33],[147.448,75.328],[147.121,75.351],[147.513,75.387],[147.441,75.387],[147.465,75.4],[147.328,75.413],[147.618,75.441],[148.568,75.371],[148.509,75.299],[148.622,75.2]]],[[[143.408,73.547],[143.564,73.452],[143.47,73.357],[143.61,73.211],[142.488,73.219],[140.656,73.428],[139.91,73.343],[139.815,73.42],[140.573,73.497],[140.983,73.702],[140.871,73.706],[141.079,73.844],[142.071,73.908],[143.408,73.547]]],[[[-180.0,70.975],[-180.0,70.976],[-179.998,71.036],[-180.0,71.036],[-180.0,71.462],[-179.98,71.456],[-179.978,71.514],[-179.576,71.583],[-179.302,71.523],[-179.119,71.569],[-179.08,71.566],[-179.067,71.552],[-179.057,71.551],[-179.003,71.573],[-179.051,71.598],[-178.603,71.567],[-178.147,71.5],[-177.434,71.225],[-177.585,71.102],[-177.904,71.025],[-179.455,70.902],[-179.398,70.884],[-179.51,70.865],[-179.578,70.863],[-179.453,70.881],[-180.0,70.975]]],[[[50.311,69.118],[50.307,69.096],[50.295,69.082],[50.275,69.066],[50.308,69.122],[50.224,69.194],[49.758,68.994],[49.902,68.996],[49.607,68.83],[48.65,68.73],[48.723,68.692],[48.658,68.698],[48.221,68.901],[48.221,68.853],[48.229,68.818],[48.218,68.843],[48.211,68.92],[48.263,68.93],[48.237,69.099],[48.359,69.285],[48.739,69.459],[49.337,69.491],[50.13,69.258],[50.172,69.238],[50.269,69.178],[50.299,69.147],[50.311,69.118]]],[[[60.05,36.487],[60.245,36.39],[60.403,36.263],[60.309,36.194],[60.316,36.119],[60.371,36.079],[60.454,36.09],[60.529,35.973],[60.569,35.97],[60.54,35.885],[60.588,35.805],[60.585,35.743],[60.543,35.722],[60.332,35.774],[60.239,35.852],[60.002,35.795],[59.858,35.922],[59.873,35.998],[59.804,36.02],[59.673,36.015],[59.489,35.796],[59.487,35.708],[59.24,35.749],[59.213,35.808],[59.091,35.832],[59.068,35.866],[59.087,35.942],[59.312,36.082],[59.309,36.134],[59.069,36.323],[59.111,36.402],[59.278,36.45],[59.313,36.523],[59.267,36.566],[59.368,36.573],[59.345,36.592],[59.399,36.746],[59.308,36.814],[59.333,36.878],[59.263,36.926],[59.27,36.966],[59.304,36.987],[59.396,36.938],[59.504,36.965],[59.975,36.631],[60.05,36.487]]],[[[58.663,70.313],[58.796,70.425],[59.073,70.465],[59.773,70.114],[60.454,69.929],[60.566,69.797],[60.499,69.705],[60.379,69.742],[60.215,69.665],[59.573,69.758],[59.743,69.781],[59.676,69.83],[59.406,69.902],[59.131,69.908],[58.949,69.967],[58.99,69.92],[59.183,69.853],[59.068,69.857],[58.604,70.069],[58.66,70.098],[58.566,70.124],[58.662,70.126],[58.604,70.181],[58.468,70.183],[58.574,70.202],[58.405,70.236],[58.884,70.184],[58.816,70.235],[58.513,70.334],[58.663,70.313]]],[[[178.761,70.783],[178.626,71.067],[179.494,71.411],[179.787,71.442],[180.0,71.531],[180.0,70.975],[178.761,70.783]]],[[[111.849,74.324],[112.057,74.363],[112.113,74.443],[112.019,74.447],[112.02,74.546],[113.187,74.497],[113.409,74.448],[113.469,74.381],[113.438,74.399],[113.358,74.395],[113.429,74.379],[113.399,74.325],[113.218,74.296],[113.311,74.288],[113.216,74.213],[112.834,74.079],[111.513,74.296],[111.618,74.362],[111.849,74.324]]],[[[69.976,73.006],[70.049,73.285],[70.594,73.446],[70.535,73.453],[70.91,73.472],[71.264,73.409],[71.098,73.425],[71.136,73.364],[71.032,73.332],[71.148,73.288],[70.967,73.246],[71.282,73.206],[71.484,73.292],[71.679,73.156],[71.372,73.155],[71.084,73.096],[70.953,73.114],[70.411,73.012],[70.086,73.08],[70.027,73.037],[70.139,73.004],[69.976,73.006]]],[[[169.302,69.652],[169.219,69.572],[168.922,69.556],[167.776,69.806],[168.0,69.942],[168.352,70.007],[169.457,69.807],[169.267,69.754],[169.302,69.652]]],[[[163.951,59.012],[163.86,59.015],[163.786,59.017],[164.589,59.24],[164.733,59.045],[164.641,58.871],[164.139,58.8],[163.464,58.466],[163.413,58.554],[163.578,58.583],[163.951,59.012]]],[[[77.562,72.588],[78.161,72.561],[78.357,72.456],[77.805,72.288],[76.859,72.3],[77.562,72.588]]],[[[137.986,54.772],[137.722,54.621],[137.491,54.868],[137.235,54.762],[137.559,55.183],[138.217,55.035],[137.998,54.921],[137.986,54.772]]],[[[140.181,74.064],[140.198,74.199],[140.899,74.266],[141.104,74.189],[141.041,74.011],[140.47,73.914],[140.687,73.908],[140.556,73.896],[140.466,73.91],[140.361,73.939],[140.181,74.064]]],[[[29.358,59.625],[29.064,59.797],[29.004,59.832],[29.066,59.886],[29.054,59.897],[29.001,59.904],[28.988,59.914],[29.208,59.993],[29.637,59.929],[29.779,59.931],[29.801,59.85],[29.824,59.845],[29.818,59.788],[29.712,59.682],[29.597,59.672],[29.548,59.626],[29.358,59.625]]],[[[78.608,72.824],[79.168,73.083],[79.52,72.924],[79.51,72.774],[79.577,72.745],[78.876,72.741],[78.608,72.824]]],[[[136.237,75.623],[135.873,75.376],[135.529,75.371],[135.494,75.443],[135.617,75.532],[135.602,75.673],[135.721,75.871],[135.895,75.713],[136.237,75.623]]],[[[165.834,55.303],[165.966,55.365],[166.3,55.3],[166.248,55.179],[166.644,54.865],[166.67,54.679],[166.178,54.956],[166.045,55.167],[165.834,55.303]]],[[[52.728,71.398],[52.903,71.369],[53.083,71.253],[52.899,71.337],[52.767,71.365],[52.905,71.328],[52.928,71.314],[52.842,71.297],[53.26,71.188],[53.052,71.032],[53.183,70.952],[53.059,70.94],[52.67,71.215],[52.241,71.313],[52.586,71.386],[52.79,71.334],[52.728,71.398]]],[[[96.462,76.116],[95.794,76.146],[95.655,76.167],[95.733,76.19],[95.331,76.234],[95.88,76.317],[95.928,76.305],[95.891,76.268],[95.923,76.257],[96.164,76.287],[96.127,76.237],[96.129,76.226],[96.139,76.223],[96.485,76.286],[96.399,76.257],[96.492,76.201],[96.235,76.217],[96.477,76.173],[96.384,76.141],[96.462,76.116]]],[[[128.034,72.389],[127.627,72.465],[128.182,72.553],[128.893,72.427],[128.989,72.433],[129.009,72.417],[129.02,72.414],[129.034,72.384],[128.719,72.406],[128.713,72.407],[128.305,72.397],[128.252,72.424],[128.034,72.389]]],[[[96.129,76.992],[95.693,76.913],[96.02,76.993],[95.288,76.97],[96.463,77.178],[96.576,77.125],[96.229,76.973],[96.129,76.992]]],[[[74.228,73.009],[74.146,73.045],[74.339,73.106],[74.747,73.077],[74.624,72.942],[74.657,72.831],[74.387,72.916],[74.318,72.929],[74.331,72.915],[74.148,72.975],[74.11,72.999],[74.18,72.974],[74.228,73.009]]],[[[136.299,73.917],[136.067,73.919],[135.466,74.146],[135.441,74.242],[136.044,74.08],[136.299,73.917]]],[[[82.326,75.311],[82.047,75.315],[82.101,75.263],[82.022,75.232],[82.044,75.152],[81.922,75.292],[81.598,75.313],[81.664,75.39],[81.774,75.435],[81.867,75.463],[81.715,75.399],[81.936,75.361],[81.997,75.395],[81.887,75.446],[82.104,75.491],[81.885,75.467],[82.061,75.501],[82.249,75.513],[82.296,75.504],[82.162,75.481],[82.207,75.417],[82.096,75.444],[82.044,75.436],[82.218,75.413],[82.326,75.311]]],[[[83.308,70.442],[83.193,70.379],[83.065,70.365],[83.098,70.392],[83.07,70.411],[83.126,70.665],[83.169,70.725],[83.148,70.713],[83.286,70.853],[83.467,70.736],[83.442,70.69],[83.305,70.645],[83.259,70.549],[83.308,70.442]]],[[[137.768,71.409],[137.618,71.475],[137.193,71.553],[137.175,71.554],[137.715,71.569],[137.778,71.599],[138.032,71.532],[137.768,71.409]]],[[[112.715,76.513],[112.736,76.496],[112.609,76.496],[112.618,76.418],[111.969,76.579],[112.051,76.577],[111.974,76.595],[112.177,76.62],[112.35,76.587],[112.475,76.611],[112.602,76.539],[112.527,76.505],[112.715,76.513]]],[[[70.677,66.559],[70.663,66.559],[70.654,66.557],[70.644,66.558],[70.65,66.554],[70.684,66.555],[70.719,66.542],[70.803,66.532],[70.94,66.547],[70.809,66.526],[70.732,66.533],[70.646,66.531],[70.638,66.531],[70.59,66.511],[70.288,66.627],[70.462,66.616],[70.416,66.651],[70.603,66.676],[70.712,66.655],[70.749,66.657],[70.997,66.584],[71.014,66.569],[70.897,66.585],[71.012,66.552],[70.984,66.545],[70.916,66.555],[70.834,66.55],[70.823,66.549],[70.81,66.543],[70.798,66.534],[70.773,66.542],[70.759,66.544],[70.718,66.544],[70.696,66.554],[70.677,66.559]]],[[[86.709,74.904],[86.97,74.814],[86.225,74.887],[86.666,74.896],[86.527,74.977],[87.183,74.944],[86.967,74.867],[86.709,74.904]]],[[[71.369,66.844],[71.536,66.766],[71.428,66.762],[71.272,66.726],[71.239,66.754],[71.239,66.766],[71.23,66.757],[71.198,66.762],[71.173,66.758],[71.169,66.755],[71.112,66.764],[71.006,66.764],[70.944,66.762],[70.729,66.734],[70.839,66.785],[70.865,66.779],[70.892,66.784],[70.904,66.796],[70.931,66.8],[71.074,66.799],[71.238,66.862],[71.415,66.866],[71.369,66.844]]],[[[89.734,77.241],[89.269,77.145],[89.203,77.211],[89.337,77.289],[89.553,77.302],[89.762,77.265],[89.566,77.275],[89.734,77.241]]],[[[136.673,54.898],[137.014,55.106],[137.196,55.111],[137.062,54.916],[136.909,54.961],[136.673,54.898]]],[[[32.734,69.641],[32.788,69.719],[32.829,69.778],[33.114,69.721],[33.003,69.611],[32.712,69.609],[32.734,69.641]]],[[[85.174,74.484],[85.204,74.557],[85.478,74.574],[85.67,74.531],[85.366,74.45],[85.174,74.484]]],[[[167.934,54.654],[168.102,54.5],[167.527,54.769],[167.438,54.867],[167.934,54.654]]],[[[36.024,65.04],[35.726,64.977],[35.505,65.122],[35.658,65.13],[35.762,65.172],[35.84,65.138],[35.825,65.096],[35.84,65.049],[35.85,65.041],[35.864,65.039],[35.856,65.037],[35.814,65.052],[35.812,65.088],[35.799,65.093],[35.767,65.087],[35.769,65.065],[35.751,65.062],[35.743,65.039],[35.88,65.019],[35.926,65.052],[36.024,65.04]]],[[[71.459,66.708],[71.449,66.706],[71.431,66.698],[71.407,66.674],[71.354,66.678],[71.359,66.665],[71.587,66.651],[71.346,66.626],[71.337,66.647],[71.102,66.701],[70.842,66.742],[71.156,66.756],[71.189,66.734],[71.22,66.725],[71.459,66.708]]],[[[129.048,72.31],[129.05,72.306],[129.096,72.281],[129.078,72.279],[129.123,72.265],[129.197,72.262],[129.241,72.265],[129.0,72.203],[128.883,72.295],[128.803,72.308],[128.861,72.311],[128.867,72.312],[128.887,72.314],[129.011,72.337],[129.012,72.337],[129.013,72.337],[129.086,72.34],[129.087,72.331],[129.089,72.331],[129.259,72.274],[129.12,72.267],[129.046,72.328],[129.041,72.33],[129.016,72.335],[129.016,72.334],[129.044,72.328],[129.04,72.318],[129.043,72.313],[129.048,72.31]]],[[[107.731,77.264],[107.465,77.214],[107.22,77.217],[107.488,77.254],[107.3,77.271],[107.428,77.339],[107.731,77.264]]],[[[60.267,76.091],[59.944,76.085],[60.087,76.155],[60.496,76.171],[60.267,76.091]]],[[[-172.17,64.79],[-172.441,64.718],[-172.616,64.712],[-172.397,64.837],[-172.17,64.79]]],[[[67.299,69.579],[67.376,69.509],[67.266,69.434],[67.029,69.475],[67.299,69.579]]],[[[71.088,66.699],[71.131,66.679],[71.167,66.678],[71.225,66.652],[71.259,66.645],[71.296,66.644],[71.312,66.64],[71.321,66.634],[71.269,66.64],[71.23,66.634],[71.195,66.598],[71.18,66.617],[71.169,66.621],[71.113,66.616],[70.942,66.669],[70.796,66.684],[70.716,66.724],[70.805,66.726],[71.033,66.694],[71.088,66.699]]],[[[70.048,66.607],[69.831,66.62],[69.574,66.736],[69.77,66.747],[69.984,66.616],[70.048,66.607]]],[[[56.649,70.564],[56.46,70.568],[56.405,70.569],[56.411,70.565],[56.356,70.572],[56.408,70.572],[56.162,70.631],[56.382,70.623],[56.445,70.633],[56.339,70.659],[56.432,70.666],[56.649,70.564]]],[[[86.47,74.783],[86.503,74.829],[86.824,74.785],[86.626,74.74],[86.47,74.783]]],[[[150.706,59.145],[150.774,59.116],[150.605,59.005],[150.468,59.002],[150.706,59.145]]],[[[129.0,72.463],[129.236,72.47],[129.173,72.463],[129.342,72.442],[129.036,72.388],[129.0,72.463]]],[[[124.721,73.918],[124.749,73.926],[124.803,73.907],[124.546,73.82],[124.307,73.863],[124.702,73.885],[124.721,73.918]]],[[[69.472,66.756],[69.614,66.693],[69.553,66.68],[70.032,66.541],[69.671,66.624],[69.72,66.574],[69.628,66.585],[69.472,66.756]]],[[[137.546,54.396],[137.572,54.534],[137.624,54.559],[137.657,54.379],[137.546,54.396]]],[[[82.461,74.114],[82.638,74.144],[82.74,74.101],[82.489,74.058],[82.461,74.114]]],[[[66.931,69.447],[66.928,69.457],[66.96,69.442],[66.978,69.461],[67.191,69.416],[67.081,69.366],[67.0,69.394],[66.931,69.447]]],[[[69.624,66.805],[69.055,66.823],[69.394,66.848],[69.554,66.831],[69.624,66.805]]],[[[96.672,76.292],[96.357,76.336],[96.65,76.348],[96.772,76.329],[96.672,76.292]]],[[[120.319,73.048],[120.231,73.058],[119.929,73.034],[120.294,73.119],[120.319,73.048]]],[[[129.178,72.838],[128.63,72.821],[128.551,72.8],[128.339,72.792],[128.51,72.811],[128.537,72.814],[128.626,72.856],[128.725,72.848],[129.078,72.836],[129.131,72.837],[129.178,72.838]]],[[[97.462,76.647],[97.31,76.681],[97.452,76.715],[97.483,76.612],[97.64,76.59],[97.335,76.599],[97.462,76.647]]],[[[128.124,72.638],[127.874,72.664],[128.32,72.695],[128.279,72.681],[128.241,72.666],[128.241,72.656],[128.124,72.638]]],[[[127.86,72.533],[127.889,72.546],[128.034,72.559],[128.103,72.577],[128.224,72.558],[128.102,72.558],[128.057,72.537],[127.862,72.53],[127.782,72.535],[128.062,72.597],[128.099,72.591],[128.032,72.56],[127.981,72.563],[127.889,72.548],[127.86,72.533]]],[[[65.999,69.072],[65.95,69.084],[66.08,69.09],[66.241,69.06],[66.417,68.996],[66.559,68.909],[66.141,69.072],[66.027,69.083],[66.025,69.082],[65.999,69.072]]],[[[42.432,66.746],[42.609,66.757],[42.673,66.674],[42.529,66.695],[42.432,66.746]]],[[[57.94,68.801],[57.966,68.786],[57.229,68.708],[57.373,68.737],[57.94,68.801]]],[[[83.035,70.194],[82.995,70.238],[83.108,70.206],[83.113,70.148],[83.035,70.194]]]]}}]}