{"type": "FeatureCollection", "features": [{"type": "Feature", "geometry": {"type": "Polygon", "coordinates": [[[58.1304365, 38.0560246], [58.1310467, 38.0527582], [58.1326974, 38.0521176], [58.137658, 38.0501927], [58.1413734, 38.0413279], [58.1406195, 38.0136039], [58.1406916, 38.0100732], [58.1406026, 38.0082003], [58.1395375, 38.0086367], [58.1347652, 38.0105729], [58.1315111, 38.011978], [58.1292835, 38.0128255], [58.1263577, 38.0139051], [58.1237366, 38.0150554], [58.1227603, 38.0155999], [58.1214139, 38.0164575], [58.1198964, 38.0175544], [58.1186738, 38.0186744], [58.1173858, 38.0200874], [58.1110988, 38.0268233], [58.1093074, 38.0284687], [58.1079384, 38.0295548], [58.1060878, 38.030961], [58.1048383, 38.0317022], [58.1041595, 38.0321154], [58.1026627, 38.0329256], [58.1017967, 38.0333581], [58.1008048, 38.0338259], [58.0996095, 38.0343193], [58.0974004, 38.0351907], [58.0934021, 38.0366111], [58.0911716, 38.0374078], [58.0906258, 38.0375883], [58.0891809, 38.038039], [58.0870954, 38.0385627], [58.0853036, 38.038938], [58.0819136, 38.0395029], [58.0766825, 38.0403742], [58.0720277, 38.0411544], [58.0699797, 38.0414638], [58.0677212, 38.0416486], [58.0662411, 38.0417136], [58.0641869, 38.0417259], [58.055909, 38.0414502], [58.0421563, 38.0409833], [58.0402919, 38.040953], [58.0394737, 38.0409967], [58.0390521, 38.0410418], [58.038712, 38.0410963], [58.0381887, 38.0411919], [58.0375537, 38.0413521], [58.0373969, 38.0413917], [58.0365296, 38.041688], [58.0357827, 38.0420003], [58.0350771, 38.0423842], [58.0346415, 38.0426949], [58.0337806, 38.0433365], [58.0327898, 38.043986], [58.0318374, 38.0444736], [58.0306658, 38.0448973], [58.0293714, 38.0452335], [58.0281177, 38.0455098], [58.0269253, 38.0457004], [58.0264852, 38.0457237], [58.0260044, 38.045715], [58.0255204, 38.0456315], [58.0253874, 38.0456086], [58.0247145, 38.0453959], [58.0234465, 38.0449408], [58.0227979, 38.0446444], [58.022202, 38.0442659], [58.0201789, 38.0449952], [58.0178102, 38.0437065], [58.0162591, 38.0433164], [58.0149481, 38.043384], [58.0138154, 38.0428916], [58.0131856, 38.0420003], [58.0105197, 38.0407239], [58.0102284, 38.0393212], [58.009137, 38.0373777], [58.0075371, 38.0354345], [58.0075731, 38.0335197], [58.0085382, 38.0325259], [58.0063955, 38.0309693], [58.0079959, 38.0303348], [58.0079439, 38.0293569], [58.0077816, 38.0289787], [58.0057683, 38.0275578], [58.0063018, 38.0263851], [58.0062653, 38.0254617], [58.0045866, 38.0252854], [58.0047012, 38.0228441], [58.0045565, 38.0224909], [58.0050496, 38.0209301], [58.0055144, 38.0206478], [58.0065103, 38.0208278], [58.0068392, 38.0206493], [58.0070656, 38.020388], [58.0072184, 38.0199465], [58.0071284, 38.0194286], [58.0067023, 38.0187976], [58.0053837, 38.017548], [58.0051368, 38.0170167], [58.0051221, 38.0166873], [58.0051794, 38.0164554], [58.0046965, 38.0139717], [58.006373, 38.010523], [58.0058968, 38.0065594], [58.0059144, 38.0020672], [57.9936761, 38.0021698], [57.9927204, 37.9940454], [57.9922699, 37.9807793], [58.0051887, 37.9724329], [58.0049008, 37.9643957], [58.0045551, 37.9541027], [58.0283279, 37.9411595], [58.0389146, 37.9303924], [58.0553771, 37.913028], [58.0717843, 37.8957178], [58.0813734, 37.8849115], [58.0855566, 37.8800862], [58.0988628, 37.8862092], [58.1171081, 37.877186], [58.1281133, 37.886897], [58.1369551, 37.8951354], [58.1586972, 37.8971248], [58.1723054, 37.8923597], [58.1852121, 37.8884889], [58.2056013, 37.8814745], [58.2316249, 37.8725658], [58.2259621, 37.8652044], [58.2249398, 37.8574021], [58.2244541, 37.8510546], [58.2308871, 37.8461606], [58.2414923, 37.8454853], [58.2604475, 37.843588], [58.2709043, 37.8490122], [58.2762305, 37.8466164], [58.2856582, 37.8417559], [58.28988, 37.8415013], [58.2966171, 37.8325735], [58.2977588, 37.8302258], [58.2998796, 37.8278713], [58.3068314, 37.8255423], [58.3128697, 37.8269943], [58.3148423, 37.8234093], [58.3170103, 37.8187783], [58.3216646, 37.8107253], [58.3249369, 37.8065444], [58.3252647, 37.801819], [58.3242238, 37.7958818], [58.327087, 37.7888641], [58.3330602, 37.7905715], [58.3342412, 37.7863943], [58.3451744, 37.7831301], [58.3495899, 37.7791097], [58.3538595, 37.775907], [58.3620041, 37.7737762], [58.3661943, 37.774162], [58.3712647, 37.7785454], [58.3781599, 37.7773867], [58.3793094, 37.7722442], [58.3912342, 37.7671059], [58.4001377, 37.7607187], [58.4027012, 37.7562129], [58.4007786, 37.7496438], [58.3995884, 37.743961], [58.400893, 37.7390379], [58.4056309, 37.7310553], [58.4069813, 37.7296253], [58.416045, 37.718075], [58.4210575, 37.7155402], [58.422385, 37.7137839], [58.4230259, 37.7125165], [58.4251545, 37.7101626], [58.4287708, 37.7040783], [58.4296406, 37.7019234], [58.4329365, 37.6999132], [58.436301, 37.6969613], [58.4380176, 37.695603], [58.4402378, 37.6925965], [58.4423206, 37.6894994], [58.4461658, 37.6819462], [58.4472187, 37.6811854], [58.4488666, 37.6799718], [58.4498737, 37.6783052], [58.4545887, 37.6750444], [58.4567631, 37.6739756], [58.4597385, 37.6719466], [58.4633777, 37.6677615], [58.4648197, 37.6621268], [58.4671314, 37.6589921], [58.4707477, 37.65535], [58.4726475, 37.6514721], [58.4740207, 37.6492612], [58.4793766, 37.6477389], [58.4829471, 37.6458361], [58.4896025, 37.6443967], [58.486944, 37.643333], [58.480556, 37.641944], [58.474167, 37.640556], [58.467222, 37.64], [58.460278, 37.640556], [58.451667, 37.641389], [58.4406358, 37.6383426], [58.4369193, 37.6403328], [58.432246, 37.6414589], [58.426976, 37.6411584], [58.4221653, 37.6406504], [58.4179744, 37.6392897], [58.4118479, 37.633934], [58.4076392, 37.6297397], [58.4072962, 37.6296532], [58.4062459, 37.6294737], [58.4056656, 37.6293745], [58.4052221, 37.6292612], [58.404247, 37.6291591], [58.4032943, 37.6289658], [58.4016235, 37.62849], [58.400195, 37.6279969], [58.3998687, 37.6279806], [58.394565, 37.6288596], [58.3921227, 37.6289025], [58.3918038, 37.6286715], [58.3903027, 37.6272769], [58.3901323, 37.6272011], [58.3887507, 37.6269846], [58.3884341, 37.6269846], [58.386803, 37.6273721], [58.3857285, 37.6277748], [58.3845824, 37.6283563], [58.3838397, 37.6289559], [58.3821193, 37.6306773], [58.3815693, 37.6316008], [58.3815824, 37.6322591], [58.3816386, 37.6328399], [58.3811408, 37.633285], [58.3806346, 37.6337115], [58.3807929, 37.6350232], [58.381023, 37.6355997], [58.3809882, 37.6357968], [58.3808705, 37.6360024], [58.3806671, 37.6364285], [58.3805586, 37.6365004], [58.3804387, 37.6365163], [58.3779896, 37.6363297], [58.3768681, 37.6365523], [58.3759206, 37.6366116], [58.3752487, 37.6365464], [58.3739587, 37.6359185], [58.3722591, 37.6363467], [58.3715762, 37.6364015], [58.3697024, 37.6363476], [58.3683798, 37.6361797], [58.3669427, 37.6367737], [58.3666521, 37.6369806], [58.3663087, 37.6372465], [58.36192, 37.6436415], [58.36369, 37.648621], [58.3583903, 37.6539636], [58.3581775, 37.6595492], [58.3596512, 37.6611066], [58.351667, 37.661944], [58.343889, 37.663333], [58.336111, 37.663333], [58.328333, 37.663333], [58.321389, 37.662778], [58.314167, 37.662222], [58.3112048, 37.662222], [58.306389, 37.662222], [58.298889, 37.663611], [58.288205, 37.6662374], [58.2864885, 37.6681187], [58.2816889, 37.669368], [58.2803236, 37.6708576], [58.273254, 37.6717923], [58.2628287, 37.6737524], [58.2578763, 37.6756835], [58.2516721, 37.6772477], [58.2460889, 37.6790518], [58.2421005, 37.680074], [58.2357033, 37.6817136], [58.2270467, 37.6840365], [58.2260609, 37.692836], [58.2289739, 37.6987164], [58.2282752, 37.7017188], [58.229662, 37.7030492], [58.2325767, 37.7043333], [58.2334292, 37.7057947], [58.2335495, 37.7071523], [58.2293223, 37.7129683], [58.2259509, 37.7185256], [58.2267899, 37.7201613], [58.228102, 37.7225863], [58.2287711, 37.7296962], [58.2274148, 37.7311403], [58.2253696, 37.7351602], [58.2258517, 37.7386947], [58.2180938, 37.7396469], [58.2170606, 37.7431816], [58.2146781, 37.7482462], [58.2136596, 37.7517234], [58.2140344, 37.7535816], [58.2139126, 37.7558181], [58.2127702, 37.759957], [58.211462, 37.7654375], [58.2097123, 37.7683171], [58.2083033, 37.7710958], [58.2054052, 37.7743691], [58.2032544, 37.7753637], [58.1989895, 37.7752189], [58.1954123, 37.7768741], [58.1820063, 37.7817419], [58.1775325, 37.7815368], [58.1550621, 37.7936174], [58.1463198, 37.7889232], [58.1421838, 37.7846371], [58.1261454, 37.7831656], [58.1230803, 37.7926737], [58.1215501, 37.7956545], [58.1161703, 37.7959202], [58.107316, 37.7914032], [58.1024581, 37.7877417], [58.1001226, 37.7878662], [58.0989485, 37.7923791], [58.0948496, 37.8014331], [58.0920192, 37.7986351], [58.0870532, 37.7981657], [58.0860092, 37.799462], [58.0833259, 37.8030595], [58.075505, 37.8060273], [58.0721339, 37.8063972], [58.0675392, 37.8049196], [58.0625138, 37.8033804], [58.0460684, 37.803356], [58.0436056, 37.8048871], [58.0406872, 37.8037589], [58.0369354, 37.8039146], [58.0325029, 37.8061893], [58.0278554, 37.8059025], [58.0242014, 37.8140511], [58.0167791, 37.8138063], [58.0102879, 37.8173707], [58.0076724, 37.8161911], [57.9989296, 37.8213264], [57.9851468, 37.8296463], [57.973007, 37.8376826], [57.9682194, 37.8416038], [57.9601478, 37.8446278], [57.952452, 37.8404965], [57.946365, 37.8507964], [57.9345845, 37.8468654], [57.9311036, 37.8543445], [57.9240285, 37.851289], [57.919698, 37.852731], [57.9165941, 37.8620278], [57.9124927, 37.8623268], [57.9096491, 37.863098], [57.9043628, 37.8625267], [57.901414, 37.8637426], [57.8984642, 37.8609923], [57.8934808, 37.8613126], [57.8904904, 37.8660239], [57.8915765, 37.8707624], [57.8769117, 37.8720147], [57.8659642, 37.8726801], [57.8592552, 37.8739652], [57.8539917, 37.8720091], [57.8511433, 37.8723076], [57.8488963, 37.8703316], [57.830253, 37.8634927], [57.8254738, 37.8632465], [57.819142, 37.868518], [57.8102291, 37.8730303], [57.8065511, 37.8797415], [57.8045346, 37.8853088], [57.8060473, 37.8923401], [57.8009965, 37.8909821], [57.7971539, 37.893472], [57.7958352, 37.899553], [57.7891254, 37.8979745], [57.7859965, 37.9011983], [57.781413, 37.8982246], [57.7718544, 37.899318], [57.7646001, 37.8968444], [57.7596075, 37.8977141], [57.7541404, 37.8974949], [57.7504987, 37.902627], [57.745, 37.906667], [57.7436599, 37.9118129], [57.7383007, 37.9156219], [57.7331372, 37.9184216], [57.726944, 37.92], [57.7203676, 37.9218564], [57.7135944, 37.92246], [57.707525, 37.9217241], [57.70058, 37.9221383], [57.6949174, 37.9196836], [57.6938263, 37.9189108], [57.689698, 37.9159867], [57.6801062, 37.9178701], [57.6733903, 37.9189593], [57.6678759, 37.9220725], [57.6640192, 37.9244888], [57.6575406, 37.9234301], [57.6530633, 37.9256169], [57.643889, 37.923889], [57.6399427, 37.9245945], [57.6371816, 37.9228343], [57.6286443, 37.9222182], [57.622222, 37.923889], [57.6152936, 37.9266184], [57.607778, 37.927222], [57.6014463, 37.9291136], [57.5981779, 37.9320639], [57.5966337, 37.9328471], [57.5919896, 37.9328615], [57.5908736, 37.9334481], [57.5857355, 37.9362122], [57.5796241, 37.9380422], [57.5742482, 37.9375884], [57.5673183, 37.9357969], [57.5622414, 37.9334778], [57.5562652, 37.9319685], [57.5504361, 37.929432], [57.5429743, 37.9247811], [57.53406, 37.9265863], [57.5289782, 37.9245717], [57.52423, 37.9219859], [57.5220304, 37.9200284], [57.5121923, 37.919263], [57.5087742, 37.9205996], [57.5057939, 37.9251374], [57.4997377, 37.927688], [57.4987611, 37.9328253], [57.4938512, 37.9371132], [57.4879178, 37.9381628], [57.480556, 37.939167], [57.472778, 37.939167], [57.465833, 37.938611], [57.457778, 37.937778], [57.450278, 37.939167], [57.445556, 37.9425], [57.439722, 37.945], [57.435, 37.948333], [57.430278, 37.951389], [57.426389, 37.955278], [57.421667, 37.958333], [57.416944, 37.961667], [57.412222, 37.964722], [57.4075, 37.968056], [57.401667, 37.970556], [57.395, 37.9725], [57.386389, 37.973333], [57.378889, 37.974722], [57.375, 37.978611], [57.370278, 37.981667], [57.3625, 37.983056], [57.3588133, 37.9848987], [57.356944, 37.985833], [57.353056, 37.989444], [57.350278, 37.993889], [57.348333, 37.998889], [57.350278, 38.005], [57.351944, 38.010833], [57.353611, 38.016944], [57.356111, 38.022222], [57.358056, 38.028333], [57.359722, 38.034167], [57.361389, 38.040278], [57.363333, 38.046389], [57.365, 38.052222], [57.366944, 38.058333], [57.369444, 38.063611], [57.371111, 38.069722], [57.373056, 38.075556], [57.373889, 38.0825], [57.373056, 38.088056], [57.371111, 38.093056], [57.367222, 38.096667], [57.3625, 38.1], [57.357778, 38.103056], [57.353056, 38.106389], [57.349167, 38.11], [57.345556, 38.113889], [57.341667, 38.1175], [57.339722, 38.1225], [57.339722, 38.128889], [57.338056, 38.133889], [57.335, 38.138056], [57.332222, 38.1425], [57.328333, 38.146389], [57.324722, 38.15], [57.318889, 38.152778], [57.311389, 38.154167], [57.304444, 38.156111], [57.299722, 38.159167], [57.2963749, 38.1615295], [57.295, 38.1625], [57.292222, 38.166944], [57.288333, 38.170556], [57.2875, 38.176111], [57.288611, 38.183056], [57.288611, 38.189167], [57.288611, 38.195278], [57.286667, 38.200278], [57.284722, 38.205278], [57.281944, 38.209722], [57.28, 38.214722], [57.278333, 38.219722], [57.274444, 38.223333], [57.271667, 38.227778], [57.266667, 38.230833], [57.261944, 38.232778], [57.255278, 38.234722], [57.251389, 38.238611], [57.249444, 38.243611], [57.2475, 38.248611], [57.245556, 38.253333], [57.246667, 38.260278], [57.246667, 38.266389], [57.243889, 38.270833], [57.2420302, 38.2717653], [57.2318957, 38.2705747], [57.2228202, 38.2726488], [57.2185059, 38.2740329], [57.2164884, 38.2774018], [57.2127887, 38.2762933], [57.2030116, 38.2764888], [57.1916779, 38.276843], [57.1848766, 38.2763114], [57.163951, 38.2726824], [57.1637002, 38.2726551], [57.1634632, 38.2725218], [57.1629922, 38.2721874], [57.1625912, 38.2720567], [57.1617978, 38.2715595], [57.1609746, 38.2711702], [57.1583413, 38.2707729], [57.156797, 38.2702281], [57.1553031, 38.2674302], [57.1149031, 38.2850543], [56.9869223, 38.3204985], [56.9643204, 38.3309991], [56.9484203, 38.3405804], [56.9420803, 38.3428904], [56.9028003, 38.3518148], [56.9025816, 38.360874], [56.9034352, 38.3778685], [56.9006217, 38.3905354], [56.8962242, 38.3988874], [56.8949527, 38.4023075], [56.8937631, 38.408472], [56.8977633, 38.4155505], [56.8976817, 38.4186059], [56.8960832, 38.4223129], [56.8761808, 38.4352841], [56.8725623, 38.4354813], [56.8658555, 38.4316512], [56.8548491, 38.4178936], [56.8505046, 38.4133721], [56.8441585, 38.4129159], [56.8157386, 38.4161627], [56.8119718, 38.4183768], [56.8063416, 38.4202191], [56.7927503, 38.419389], [56.7813342, 38.4178765], [56.7582172, 38.4076049], [56.7546748, 38.4067717], [56.7531395, 38.4072877], [56.7525601, 38.408813], [56.7501796, 38.4092422], [56.7483976, 38.407353], [56.7474937, 38.4070695], [56.746434, 38.4052026], [56.743783, 38.4074654], [56.7424446, 38.40948], [56.7408362, 38.4094641], [56.7385829, 38.4103891], [56.7324901, 38.4152233], [56.722591, 38.4138492], [56.7185449, 38.4123499], [56.7140321, 38.4138429], [56.709147, 38.4134337], [56.7065042, 38.4121606], [56.7025698, 38.4130527], [56.6993025, 38.4155681], [56.6975449, 38.4171445], [56.6970246, 38.4183034], [56.6969527, 38.4193055], [56.6961149, 38.4201982], [56.6963012, 38.4209065], [56.6977842, 38.4220212], [56.6958241, 38.4227169], [56.6841941, 38.4233111], [56.6747663, 38.4222362], [56.6732104, 38.4216303], [56.6717414, 38.4214575], [56.6708533, 38.4220043], [56.670216, 38.4233059], [56.6695521, 38.4237702], [56.668312, 38.423678], [56.6664434, 38.4227965], [56.6623728, 38.4217068], [56.6613864, 38.4222516], [56.6607068, 38.4231926], [56.6589549, 38.4237102], [56.6561728, 38.4237751], [56.6542736, 38.4242232], [56.649795, 38.4300133], [56.6486178, 38.4313753], [56.6471521, 38.4317065], [56.6452601, 38.431375], [56.642556, 38.4297913], [56.6403115, 38.4271584], [56.6384557, 38.4244079], [56.6377221, 38.4222659], [56.6358693, 38.4206558], [56.6339329, 38.4206205], [56.6318542, 38.4213703], [56.629984, 38.4206545], [56.6272307, 38.4212539], [56.6261613, 38.4210089], [56.6251724, 38.4222099], [56.6239021, 38.4227102], [56.6230812, 38.4226863], [56.6220675, 38.4217032], [56.6211677, 38.4217309], [56.6191191, 38.4220225], [56.6131936, 38.4253685], [56.6137848, 38.4321007], [56.6128637, 38.4324704], [56.6115664, 38.4320237], [56.6072277, 38.4283556], [56.603918, 38.4265143], [56.5997944, 38.4296499], [56.599357, 38.4310848], [56.5982218, 38.4314074], [56.5973918, 38.4333535], [56.5965476, 38.4334145], [56.5946506, 38.4313555], [56.5928098, 38.430789], [56.5921541, 38.4322607], [56.5925498, 38.4358618], [56.5833306, 38.4366018], [56.5708104, 38.4343506], [56.5684425, 38.4356097], [56.5666325, 38.4372821], [56.5660825, 38.4393094], [56.5669505, 38.4444335], [56.5656215, 38.4490901], [56.5624847, 38.4512509], [56.558549, 38.4523336], [56.5526201, 38.4524926], [56.5490731, 38.4531436], [56.5466127, 38.4545472], [56.5391072, 38.4563882], [56.5431589, 38.4642247], [56.5503826, 38.4701455], [56.5527596, 38.4738884], [56.5551703, 38.4777353], [56.5574042, 38.481836], [56.559034, 38.4849571], [56.5611361, 38.4886883], [56.5624389, 38.4918294], [56.5636959, 38.4952035], [56.5640688, 38.4987404], [56.5651544, 38.5054098], [56.5667036, 38.5111912], [56.5691363, 38.5165556], [56.5706112, 38.5195631], [56.5714578, 38.5218628], [56.5720077, 38.5240797], [56.5733317, 38.5274155], [56.5742243, 38.5307255], [56.5741428, 38.5316741], [56.5737916, 38.5336435], [56.5731715, 38.5349596], [56.5725974, 38.5357122], [56.5721511, 38.5373095], [56.5722113, 38.5391493], [56.5732706, 38.5409705], [56.5734962, 38.54251], [56.5732549, 38.5441999], [56.5732151, 38.5462817], [56.5739247, 38.5484637], [56.5764797, 38.5506458], [56.5788914, 38.5519912], [56.5801985, 38.5526258], [56.5813623, 38.5530105], [56.5868088, 38.5542677], [56.5960762, 38.554591], [56.6199342, 38.5523523], [56.6343083, 38.5471168], [56.6372093, 38.546739], [56.6398208, 38.5475996], [56.6406725, 38.5494194], [56.6394806, 38.5632946], [56.6367236, 38.5946955], [56.6345965, 38.6220939], [56.6355374, 38.6235201], [56.6857829, 38.6569243], [56.6876776, 38.6592763], [56.6880811, 38.6680143], [56.6886099, 38.6716225], [56.6937602, 38.6854134], [56.7033237, 38.7128764], [56.7183744, 38.7588291], [56.7219654, 38.7696806], [56.8291389, 38.9989992], [57.0876902, 39.5441051], [57.1204697, 39.5547112], [57.2442937, 39.5997578], [57.1746898, 40.0865561], [57.1786067, 40.0911135], [57.1882204, 40.085684], [57.2092169, 40.069575], [57.2141746, 40.0670471], [57.2176592, 40.0645836], [57.2231095, 40.0579572], [57.2274182, 40.0557291], [57.2337277, 40.0471735], [57.2385754, 40.0454274], [57.2509799, 40.0439733], [57.2529969, 40.0423306], [57.2563658, 40.0392751], [57.2608075, 40.0377472], [57.2647986, 40.0377472], [57.270706, 40.0410132], [57.2775587, 40.0488676], [57.2811947, 40.0495402], [57.2851788, 40.049509], [57.2892524, 40.0492165], [57.2975421, 40.0481746], [57.3040313, 40.0472856], [57.3106679, 40.0465911], [57.3119295, 40.0461624], [57.3130345, 40.0455053], [57.3138821, 40.044684], [57.3152017, 40.0428935], [57.3166716, 40.0411521], [57.3177338, 40.0400022], [57.318876, 40.0390505], [57.3200834, 40.0385072], [57.3215961, 40.0382115], [57.3234093, 40.0381869], [57.3248899, 40.0384333], [57.3256971, 40.0387006], [57.3263368, 40.0386619], [57.3470348, 40.0388427], [57.4230247, 40.0974407], [57.425034, 40.0978213], [57.4928022, 40.0956698], [57.582431, 40.1027179], [57.8119156, 40.0959453], [57.9177852, 40.0953839], [58.2751189, 40.1557788], [58.3875427, 40.1387972], [58.3777185, 40.1633177], [58.3775454, 40.1800156], [58.3803221, 40.1843716], [58.3843717, 40.1859835], [58.3961504, 40.1874443], [58.408372, 40.187877], [58.4130933, 40.1884185], [58.4157374, 40.1892163], [58.4161916, 40.1881518], [58.4165534, 40.1870166], [58.417611, 40.1817614], [58.4180019, 40.1789662], [58.4180193, 40.1788584], [58.4175844, 40.1759554], [58.4153642, 40.1695545], [58.4104662, 40.1608265], [58.4093218, 40.1538644], [58.4093218, 40.1501906], [58.4093904, 40.1480037], [58.4125948, 40.1345135], [58.4157991, 40.1211606], [58.4176073, 40.1145794], [58.4176073, 40.1130391], [58.4175157, 40.1101683], [58.4165544, 40.1051092], [58.4154558, 40.1027983], [58.4180879, 40.0909451], [58.418683, 40.0863047], [58.4220934, 40.074904], [58.4240617, 40.0649377], [58.4277467, 40.0533758], [58.4302644, 40.0460171], [58.4323702, 40.0373083], [58.4343614, 40.0285809], [58.4381151, 40.0212722], [58.4390535, 40.0188884], [58.4390306, 40.0126654], [58.4388246, 40.0104917], [58.4402666, 40.0043381], [58.4412279, 39.9998497], [58.4412965, 39.9979035], [58.4390306, 39.9910825], [58.4379091, 39.9882241], [58.4378944, 39.9861669], [58.4378862, 39.9850149], [58.4382066, 39.979508], [58.4382295, 39.9769297], [58.4380006, 39.9748601], [58.4353227, 39.9652651], [58.4346361, 39.9619846], [58.4347505, 39.9572303], [58.4352769, 39.9541599], [58.4348192, 39.9523352], [58.4295091, 39.9419825], [58.4260988, 39.9343837], [58.4241533, 39.9260118], [58.4222765, 39.919991], [58.4217958, 39.9107571], [58.4214525, 39.9054373], [58.422162, 39.9018379], [58.4250459, 39.8947439], [58.4261217, 39.8903888], [58.4262132, 39.8885272], [58.4261903, 39.8873506], [58.424016, 39.8782176], [58.4233293, 39.8738439], [58.4240846, 39.8699442], [58.4276781, 39.8566449], [58.4290514, 39.8523576], [58.4292116, 39.8507059], [58.4234666, 39.8352235], [58.4225053, 39.831392], [58.4223909, 39.8299155], [58.4265566, 39.8114221], [58.4299669, 39.7953857], [58.4339952, 39.7782022], [58.4373827, 39.7629146], [58.4430589, 39.7408305], [58.4466753, 39.726098], [58.4480714, 39.7209047], [58.4474306, 39.7127532], [58.4473161, 39.6916569], [58.4470186, 39.6796091], [58.4473161, 39.6666077], [58.4473848, 39.6568286], [58.4472017, 39.6541678], [58.4435396, 39.6391523], [58.4423952, 39.6351865], [58.442235, 39.6328597], [58.4480028, 39.6164996], [58.4491014, 39.6130614], [58.4501085, 39.6079655], [58.4509325, 39.6015818], [58.454709, 39.5911763], [58.4597902, 39.5784758], [58.4625368, 39.5715072], [58.465558, 39.558115], [58.4680757, 39.5453731], [58.4695863, 39.5388602], [58.4711427, 39.5341824], [58.4746217, 39.5250909], [58.4761781, 39.5163512], [58.4773912, 39.5121487], [58.4850359, 39.5018357], [58.4875078, 39.4990276], [58.4948549, 39.4922807], [58.4992952, 39.4886596], [58.5015611, 39.4855684], [58.5065965, 39.4793501], [58.5101671, 39.4747567], [58.513051, 39.4709934], [58.5154314, 39.465516], [58.5182695, 39.4603915], [58.5221376, 39.4534111], [58.5256166, 39.4480206], [58.5267381, 39.4453694], [58.5272188, 39.4417813], [58.5278596, 39.4372031], [58.5297136, 39.4333671], [58.5312013, 39.4311573], [58.5333528, 39.4260834], [58.5338335, 39.4247574], [58.5343141, 39.4192763], [58.5350923, 39.4156161], [58.5336504, 39.4122564], [58.5336732, 39.410771], [58.5371294, 39.4045106], [58.5390977, 39.4002837], [58.5396928, 39.3990457], [58.545186, 39.3929612], [58.5485277, 39.3894942], [58.5533571, 39.3831789], [58.5546159, 39.3809852], [58.5569505, 39.3760315], [58.5580721, 39.3733067], [58.5594682, 39.370865], [58.5625581, 39.3678039], [58.56709, 39.3638933], [58.5695848, 39.3600356], [58.5723085, 39.3554697], [58.5791521, 39.3486734], [58.5895204, 39.3386902], [58.5909166, 39.337274], [58.5919008, 39.3348665], [58.5924272, 39.3332732], [58.5924272, 39.3302458], [58.5901842, 39.3207735], [58.5875062, 39.3078288], [58.5864992, 39.3042336], [58.5860185, 39.3021614], [58.5838899, 39.2980346], [58.5739107, 39.2815956], [58.5678453, 39.2720813], [58.5662202, 39.2692816], [58.5656023, 39.2666591], [58.5653276, 39.2617858], [58.5652132, 39.2598896], [58.5641832, 39.2573553], [58.5606813, 39.2509749], [58.5533571, 39.2388683], [58.551526, 39.2350391], [58.5472917, 39.2135669], [58.5435381, 39.1954053], [58.5410204, 39.1826681], [58.5395326, 39.1753937], [58.5381136, 39.1686687], [58.5376787, 39.1652261], [58.5382509, 39.1619075], [58.5388918, 39.1574885], [58.5403795, 39.1543293], [58.5409059, 39.1518799], [58.540471, 39.146058], [58.540471, 39.1443716], [58.5409517, 39.1420994], [58.5416841, 39.1389396], [58.5416383, 39.1335249], [58.5414781, 39.1303113], [58.5415697, 39.1269201], [58.542325, 39.1226409], [58.5429201, 39.1199063], [58.5431947, 39.1166389], [58.5429887, 39.1072087], [58.5425996, 39.1008502], [58.5421877, 39.0963207], [58.5412492, 39.0930345], [58.5405168, 39.089446], [58.5401048, 39.0818778], [58.5382738, 39.0582083], [58.5379533, 39.0534095], [58.5375414, 39.0511877], [58.5297594, 39.0352954], [58.5247926, 39.0254632], [58.5230989, 39.0218002], [58.5218172, 39.0189195], [58.5209245, 39.0159497], [58.5173082, 38.9956915], [58.5134401, 38.9739149], [58.5116777, 38.9638072], [58.5087938, 38.9492481], [58.506711, 38.9353982], [58.5049715, 38.9253028], [58.5020876, 38.9091329], [58.5002565, 38.8974128], [58.4989748, 38.89059], [58.4984941, 38.8879889], [58.4984483, 38.8860292], [58.4989976, 38.8843545], [58.5014009, 38.880506], [58.5020876, 38.878849], [58.5020647, 38.8774413], [58.5008058, 38.8738063], [58.4993867, 38.8721669], [58.4961137, 38.8692267], [58.4950609, 38.8671773], [58.4925661, 38.8548442], [58.4865007, 38.8207211], [58.483777, 38.8036177], [58.4828386, 38.7979811], [58.4825868, 38.7913629], [58.4827013, 38.788223], [58.4828844, 38.7846726], [58.4842806, 38.7770718], [58.4855394, 38.7701482], [58.4857446, 38.7681596], [58.485745, 38.7663333], [58.4857797, 38.763871], [58.4856962, 38.762064], [58.4856961, 38.7608324], [58.4859641, 38.7600267], [58.4866544, 38.7586716], [58.4894007, 38.7532531], [58.4895998, 38.7528844], [58.4911768, 38.7489841], [58.4938089, 38.7411652], [58.4947016, 38.739005], [58.4947474, 38.7367734], [58.4944956, 38.7329883], [58.4945185, 38.7288281], [58.4953882, 38.7153817], [58.4966013, 38.7024508], [58.4975855, 38.6902321], [58.498707, 38.6770643], [58.4992106, 38.6730081], [58.4986841, 38.6657349], [58.4983408, 38.6618746], [58.4972422, 38.6539747], [58.49667, 38.6501317], [58.4966929, 38.6474146], [58.4970591, 38.6434461], [58.4978373, 38.6382974], [58.4985239, 38.6339529], [58.4998285, 38.6177347], [58.5014307, 38.5989191], [58.5022089, 38.5885076], [58.5025522, 38.5848579], [58.5065577, 38.5672506], [58.5087778, 38.5573894], [58.5108835, 38.5473299], [58.5116617, 38.5441793], [58.5117075, 38.5412971], [58.5110895, 38.5371616], [58.5090754, 38.522766], [58.5071985, 38.5101585], [58.5059168, 38.5012746], [58.5056192, 38.4987131], [58.5060999, 38.4817835], [58.5059397, 38.4742759], [58.5059626, 38.4719822], [58.5055506, 38.4693122], [58.5027124, 38.4576094], [58.4990732, 38.4440763], [58.4978602, 38.4395766], [58.4977457, 38.435991], [58.4979517, 38.4330148], [58.5011789, 38.4132542], [58.5045435, 38.3926092], [58.5069925, 38.3773234], [58.5087549, 38.3662338], [58.5095102, 38.3609935], [58.5100596, 38.3569374], [58.5099451, 38.3537605], [58.509556, 38.3509604], [58.5064203, 38.3259345], [58.5059168, 38.3209427], [58.5050928, 38.3173871], [58.5037882, 38.3140828], [58.4962122, 38.2977207], [58.4887736, 38.2812111], [58.4873316, 38.277995], [58.4859354, 38.2757849], [58.4811747, 38.2699091], [58.4668924, 38.2523328], [58.4644434, 38.2492232], [58.462887, 38.2476774], [58.4571192, 38.2432913], [58.450001, 38.2377545], [58.4415552, 38.2308148], [58.4295618, 38.221501], [58.4207041, 38.2145778], [58.413563, 38.2089308], [58.4082529, 38.2044705], [58.4048197, 38.2008013], [58.3970606, 38.1914297], [58.3921396, 38.1854211], [58.3891871, 38.1814991], [58.386326, 38.1755437], [58.385113, 38.1734385], [58.3762323, 38.1626597], [58.3718836, 38.1573506], [58.3704645, 38.1549749], [58.3695719, 38.1530131], [58.3689539, 38.1503853], [58.3675806, 38.1402331], [58.3657724, 38.1306376], [58.3648111, 38.1261365], [58.3644449, 38.1237778], [58.3644907, 38.121401], [58.3652231, 38.1066885], [58.365246, 38.1011592], [58.3657499, 38.0998696], [58.3617272, 38.099778], [58.357951, 38.1032837], [58.3578414, 38.1033569], [58.3573639, 38.1035641], [58.356946, 38.1037034], [58.3562989, 38.103814], [58.3559533, 38.1038393], [58.355681, 38.1038567], [58.3517959, 38.1034205], [58.3508702, 38.1036123], [58.3492309, 38.1041248], [58.3478762, 38.1044494], [58.3461179, 38.1048137], [58.344031, 38.1051163], [58.3426415, 38.1052365], [58.3412782, 38.105326], [58.3392825, 38.1053831], [58.3344923, 38.1051446], [58.3321798, 38.1050295], [58.3300028, 38.1047596], [58.3283822, 38.1045485], [58.3241063, 38.1039936], [58.3181393, 38.1032518], [58.3158218, 38.1030415], [58.3146737, 38.1029374], [58.3073112, 38.1028421], [58.2963014, 38.1026996], [58.2846363, 38.1025696], [58.2817912, 38.1025601], [58.2800495, 38.1025204], [58.2738088, 38.1023603], [58.2730531, 38.1023038], [58.2719455, 38.1021534], [58.2708193, 38.1019046], [58.269935, 38.1016349], [58.2686485, 38.1011268], [58.2676977, 38.1006182], [58.2669209, 38.1001038], [58.2664106, 38.0997658], [58.2656523, 38.0991248], [58.256423, 38.09041], [58.2564065, 38.0903944], [58.2557703, 38.0897952], [58.2440175, 38.0787185], [58.2434444, 38.0781891], [58.2398316, 38.0747881], [58.2390073, 38.0735394], [58.2389541, 38.07347], [58.2350979, 38.0751901], [58.2223589, 38.0818374], [58.2204986, 38.0828233], [58.2192195, 38.0835355], [58.2176839, 38.0843445], [58.2146319, 38.0859863], [58.2127213, 38.0869997], [58.2102146, 38.0883511], [58.2085021, 38.0892849], [58.2067387, 38.0902175], [58.2051962, 38.0910302], [58.2040817, 38.0916346], [58.2014717, 38.0929254], [58.1986762, 38.0940226], [58.1955384, 38.094969], [58.192334, 38.0959391], [58.1907618, 38.0965573], [58.1884153, 38.0975676], [58.1863479, 38.0986643], [58.1842094, 38.0999203], [58.1819275, 38.1012833], [58.1811679, 38.1016472], [58.180311, 38.102], [58.1788882, 38.1025268], [58.1772193, 38.1029657], [58.1763273, 38.1031621], [58.1747718, 38.1034112], [58.1737393, 38.103532], [58.1689348, 38.1037797], [58.1567624, 38.1044099], [58.1547026, 38.1045021], [58.1531204, 38.1045066], [58.1494925, 38.1043283], [58.1437887, 38.1040198], [58.1381057, 38.1036956], [58.1352638, 38.1037008], [58.1330612, 38.1037741], [58.1330538, 38.1036728], [58.1247851, 38.0852041], [58.1234121, 38.0830808], [58.1304365, 38.0560246]]]}, "properties": {"units": ["Гёкдепинский этрап", "Бахерденский этрап", "Аркадаг"], "source": "OpenStreetMap (Geofabrik turkmenistan-latest.osm.pbf, этрапы admin_level=5; Ашхабад - admin_level=4), 30.09.2026"}}]}