{"type": "FeatureCollection", "features": [{"type": "Feature", "geometry": {"type": "Polygon", "coordinates": [[[57.9927204, 37.9940454], [57.9936761, 38.0021698], [58.0059144, 38.0020672], [58.0058968, 38.0065594], [58.006373, 38.010523], [58.0046965, 38.0139717], [58.0051794, 38.0164554], [58.0051221, 38.0166873], [58.0051368, 38.0170167], [58.0053837, 38.017548], [58.0067023, 38.0187976], [58.0071284, 38.0194286], [58.0072184, 38.0199465], [58.0070656, 38.020388], [58.0068392, 38.0206493], [58.0065103, 38.0208278], [58.0055144, 38.0206478], [58.0050496, 38.0209301], [58.0045565, 38.0224909], [58.0047012, 38.0228441], [58.0045866, 38.0252854], [58.0062653, 38.0254617], [58.0063018, 38.0263851], [58.0057683, 38.0275578], [58.0077816, 38.0289787], [58.0079439, 38.0293569], [58.0079959, 38.0303348], [58.0063955, 38.0309693], [58.0085382, 38.0325259], [58.0075731, 38.0335197], [58.0075371, 38.0354345], [58.009137, 38.0373777], [58.0102284, 38.0393212], [58.0105197, 38.0407239], [58.0131856, 38.0420003], [58.0138154, 38.0428916], [58.0149481, 38.043384], [58.0162591, 38.0433164], [58.0178102, 38.0437065], [58.0201789, 38.0449952], [58.022202, 38.0442659], [58.0227979, 38.0446444], [58.0234465, 38.0449408], [58.0247145, 38.0453959], [58.0253874, 38.0456086], [58.0255204, 38.0456315], [58.0260044, 38.045715], [58.0264852, 38.0457237], [58.0269253, 38.0457004], [58.0281177, 38.0455098], [58.0293714, 38.0452335], [58.0306658, 38.0448973], [58.0318374, 38.0444736], [58.0327898, 38.043986], [58.0337806, 38.0433365], [58.0346415, 38.0426949], [58.0350771, 38.0423842], [58.0357827, 38.0420003], [58.0365296, 38.041688], [58.0373969, 38.0413917], [58.0375537, 38.0413521], [58.0381887, 38.0411919], [58.038712, 38.0410963], [58.0390521, 38.0410418], [58.0394737, 38.0409967], [58.0402919, 38.040953], [58.0421563, 38.0409833], [58.055909, 38.0414502], [58.0641869, 38.0417259], [58.0662411, 38.0417136], [58.0677212, 38.0416486], [58.0699797, 38.0414638], [58.0720277, 38.0411544], [58.0766825, 38.0403742], [58.0819136, 38.0395029], [58.0853036, 38.038938], [58.0870954, 38.0385627], [58.0891809, 38.038039], [58.0906258, 38.0375883], [58.0911716, 38.0374078], [58.0934021, 38.0366111], [58.0974004, 38.0351907], [58.0996095, 38.0343193], [58.1008048, 38.0338259], [58.1017967, 38.0333581], [58.1026627, 38.0329256], [58.1041595, 38.0321154], [58.1048383, 38.0317022], [58.1060878, 38.030961], [58.1079384, 38.0295548], [58.1093074, 38.0284687], [58.1110988, 38.0268233], [58.1173858, 38.0200874], [58.1186738, 38.0186744], [58.1198964, 38.0175544], [58.1214139, 38.0164575], [58.1227603, 38.0155999], [58.1237366, 38.0150554], [58.1263577, 38.0139051], [58.1292835, 38.0128255], [58.1315111, 38.011978], [58.1347652, 38.0105729], [58.1395375, 38.0086367], [58.1406026, 38.0082003], [58.1406916, 38.0100732], [58.1406195, 38.0136039], [58.1413734, 38.0413279], [58.137658, 38.0501927], [58.1326974, 38.0521176], [58.1310467, 38.0527582], [58.1304365, 38.0560246], [58.1234121, 38.0830808], [58.1247851, 38.0852041], [58.1330538, 38.1036728], [58.1330612, 38.1037741], [58.1352638, 38.1037008], [58.1381057, 38.1036956], [58.1437887, 38.1040198], [58.1494925, 38.1043283], [58.1531204, 38.1045066], [58.1547026, 38.1045021], [58.1567624, 38.1044099], [58.1689348, 38.1037797], [58.1737393, 38.103532], [58.1747718, 38.1034112], [58.1763273, 38.1031621], [58.1772193, 38.1029657], [58.1788882, 38.1025268], [58.180311, 38.102], [58.1811679, 38.1016472], [58.1819275, 38.1012833], [58.1842094, 38.0999203], [58.1863479, 38.0986643], [58.1884153, 38.0975676], [58.1907618, 38.0965573], [58.192334, 38.0959391], [58.1955384, 38.094969], [58.1986762, 38.0940226], [58.2014717, 38.0929254], [58.2040817, 38.0916346], [58.2051962, 38.0910302], [58.2067387, 38.0902175], [58.2085021, 38.0892849], [58.2102146, 38.0883511], [58.2127213, 38.0869997], [58.2146319, 38.0859863], [58.2176839, 38.0843445], [58.2192195, 38.0835355], [58.2204986, 38.0828233], [58.2223589, 38.0818374], [58.2350979, 38.0751901], [58.2389541, 38.07347], [58.2390073, 38.0735394], [58.2398316, 38.0747881], [58.2434444, 38.0781891], [58.2440175, 38.0787185], [58.2557703, 38.0897952], [58.2564065, 38.0903944], [58.256423, 38.09041], [58.2656523, 38.0991248], [58.2664106, 38.0997658], [58.2669209, 38.1001038], [58.2676977, 38.1006182], [58.2686485, 38.1011268], [58.269935, 38.1016349], [58.2708193, 38.1019046], [58.2719455, 38.1021534], [58.2730531, 38.1023038], [58.2738088, 38.1023603], [58.2800495, 38.1025204], [58.2817912, 38.1025601], [58.2846363, 38.1025696], [58.2963014, 38.1026996], [58.3073112, 38.1028421], [58.3146737, 38.1029374], [58.3158218, 38.1030415], [58.3181393, 38.1032518], [58.3241063, 38.1039936], [58.3283822, 38.1045485], [58.3300028, 38.1047596], [58.3321798, 38.1050295], [58.3344923, 38.1051446], [58.3392825, 38.1053831], [58.3412782, 38.105326], [58.3426415, 38.1052365], [58.344031, 38.1051163], [58.3461179, 38.1048137], [58.3478762, 38.1044494], [58.3492309, 38.1041248], [58.3508702, 38.1036123], [58.3517959, 38.1034205], [58.355681, 38.1038567], [58.3559533, 38.1038393], [58.3562989, 38.103814], [58.356946, 38.1037034], [58.3573639, 38.1035641], [58.3578414, 38.1033569], [58.357951, 38.1032837], [58.3617272, 38.099778], [58.3657499, 38.0998696], [58.365246, 38.1011592], [58.3652231, 38.1066885], [58.3644907, 38.121401], [58.3644449, 38.1237778], [58.3648111, 38.1261365], [58.3657724, 38.1306376], [58.3675806, 38.1402331], [58.3689539, 38.1503853], [58.3695719, 38.1530131], [58.3704645, 38.1549749], [58.3718836, 38.1573506], [58.3762323, 38.1626597], [58.385113, 38.1734385], [58.386326, 38.1755437], [58.3891871, 38.1814991], [58.3921396, 38.1854211], [58.3970606, 38.1914297], [58.4048197, 38.2008013], [58.4082529, 38.2044705], [58.413563, 38.2089308], [58.4207041, 38.2145778], [58.4295618, 38.221501], [58.4415552, 38.2308148], [58.450001, 38.2377545], [58.4571192, 38.2432913], [58.462887, 38.2476774], [58.4644434, 38.2492232], [58.4668924, 38.2523328], [58.4811747, 38.2699091], [58.4859354, 38.2757849], [58.4873316, 38.277995], [58.4887736, 38.2812111], [58.4962122, 38.2977207], [58.5037882, 38.3140828], [58.5050928, 38.3173871], [58.5059168, 38.3209427], [58.5064203, 38.3259345], [58.509556, 38.3509604], [58.5099451, 38.3537605], [58.5100596, 38.3569374], [58.5095102, 38.3609935], [58.5087549, 38.3662338], [58.5069925, 38.3773234], [58.5045435, 38.3926092], [58.5011789, 38.4132542], [58.4979517, 38.4330148], [58.4977457, 38.435991], [58.4978602, 38.4395766], [58.4990732, 38.4440763], [58.5027124, 38.4576094], [58.5055506, 38.4693122], [58.5059626, 38.4719822], [58.5059397, 38.4742759], [58.5060999, 38.4817835], [58.5056192, 38.4987131], [58.5059168, 38.5012746], [58.5071985, 38.5101585], [58.5090754, 38.522766], [58.5110895, 38.5371616], [58.5117075, 38.5412971], [58.5116617, 38.5441793], [58.5108835, 38.5473299], [58.5087778, 38.5573894], [58.5065577, 38.5672506], [58.5025522, 38.5848579], [58.5022089, 38.5885076], [58.5014307, 38.5989191], [58.4998285, 38.6177347], [58.4985239, 38.6339529], [58.4978373, 38.6382974], [58.4970591, 38.6434461], [58.4966929, 38.6474146], [58.49667, 38.6501317], [58.4972422, 38.6539747], [58.4983408, 38.6618746], [58.4986841, 38.6657349], [58.4992106, 38.6730081], [58.498707, 38.6770643], [58.4975855, 38.6902321], [58.4966013, 38.7024508], [58.4953882, 38.7153817], [58.4945185, 38.7288281], [58.4944956, 38.7329883], [58.4947474, 38.7367734], [58.4947016, 38.739005], [58.4938089, 38.7411652], [58.4911768, 38.7489841], [58.4895998, 38.7528844], [58.4894007, 38.7532531], [58.4866544, 38.7586716], [58.4859641, 38.7600267], [58.4856961, 38.7608324], [58.4856962, 38.762064], [58.4857797, 38.763871], [58.485745, 38.7663333], [58.4857446, 38.7681596], [58.4855394, 38.7701482], [58.4842806, 38.7770718], [58.4828844, 38.7846726], [58.4827013, 38.788223], [58.4825868, 38.7913629], [58.4828386, 38.7979811], [58.483777, 38.8036177], [58.4865007, 38.8207211], [58.4925661, 38.8548442], [58.4950609, 38.8671773], [58.4961137, 38.8692267], [58.4993867, 38.8721669], [58.5008058, 38.8738063], [58.5020647, 38.8774413], [58.5020876, 38.878849], [58.5014009, 38.880506], [58.4989976, 38.8843545], [58.4984483, 38.8860292], [58.4984941, 38.8879889], [58.4989748, 38.89059], [58.5002565, 38.8974128], [58.5020876, 38.9091329], [58.5049715, 38.9253028], [58.506711, 38.9353982], [58.5087938, 38.9492481], [58.5116777, 38.9638072], [58.5134401, 38.9739149], [58.5173082, 38.9956915], [58.5209245, 39.0159497], [58.5218172, 39.0189195], [58.5230989, 39.0218002], [58.5247926, 39.0254632], [58.5297594, 39.0352954], [58.5375414, 39.0511877], [58.5379533, 39.0534095], [58.5382738, 39.0582083], [58.5401048, 39.0818778], [58.5405168, 39.089446], [58.5412492, 39.0930345], [58.5421877, 39.0963207], [58.5425996, 39.1008502], [58.5429887, 39.1072087], [58.5431947, 39.1166389], [58.5429201, 39.1199063], [58.542325, 39.1226409], [58.5415697, 39.1269201], [58.5414781, 39.1303113], [58.5416383, 39.1335249], [58.5416841, 39.1389396], [58.5409517, 39.1420994], [58.540471, 39.1443716], [58.540471, 39.146058], [58.5409059, 39.1518799], [58.5403795, 39.1543293], [58.5388918, 39.1574885], [58.5382509, 39.1619075], [58.5376787, 39.1652261], [58.5381136, 39.1686687], [58.5395326, 39.1753937], [58.5410204, 39.1826681], [58.5435381, 39.1954053], [58.5472917, 39.2135669], [58.551526, 39.2350391], [58.5533571, 39.2388683], [58.5606813, 39.2509749], [58.5641832, 39.2573553], [58.5652132, 39.2598896], [58.5653276, 39.2617858], [58.5656023, 39.2666591], [58.5662202, 39.2692816], [58.5678453, 39.2720813], [58.5739107, 39.2815956], [58.5838899, 39.2980346], [58.5860185, 39.3021614], [58.5864992, 39.3042336], [58.5875062, 39.3078288], [58.5901842, 39.3207735], [58.5924272, 39.3302458], [58.5924272, 39.3332732], [58.5919008, 39.3348665], [58.5909166, 39.337274], [58.5895204, 39.3386902], [58.5791521, 39.3486734], [58.5723085, 39.3554697], [58.5695848, 39.3600356], [58.56709, 39.3638933], [58.5625581, 39.3678039], [58.5594682, 39.370865], [58.5580721, 39.3733067], [58.5569505, 39.3760315], [58.5546159, 39.3809852], [58.5533571, 39.3831789], [58.5485277, 39.3894942], [58.545186, 39.3929612], [58.5396928, 39.3990457], [58.5390977, 39.4002837], [58.5371294, 39.4045106], [58.5336732, 39.410771], [58.5336504, 39.4122564], [58.5350923, 39.4156161], [58.5343141, 39.4192763], [58.5338335, 39.4247574], [58.5333528, 39.4260834], [58.5312013, 39.4311573], [58.5297136, 39.4333671], [58.5278596, 39.4372031], [58.5272188, 39.4417813], [58.5267381, 39.4453694], [58.5256166, 39.4480206], [58.5221376, 39.4534111], [58.5182695, 39.4603915], [58.5154314, 39.465516], [58.513051, 39.4709934], [58.5101671, 39.4747567], [58.5065965, 39.4793501], [58.5015611, 39.4855684], [58.4992952, 39.4886596], [58.4948549, 39.4922807], [58.4875078, 39.4990276], [58.4850359, 39.5018357], [58.4773912, 39.5121487], [58.4761781, 39.5163512], [58.4746217, 39.5250909], [58.4711427, 39.5341824], [58.4695863, 39.5388602], [58.4680757, 39.5453731], [58.465558, 39.558115], [58.4625368, 39.5715072], [58.4597902, 39.5784758], [58.454709, 39.5911763], [58.4509325, 39.6015818], [58.4501085, 39.6079655], [58.4491014, 39.6130614], [58.4480028, 39.6164996], [58.442235, 39.6328597], [58.4423952, 39.6351865], [58.4435396, 39.6391523], [58.4472017, 39.6541678], [58.4473848, 39.6568286], [58.4473161, 39.6666077], [58.4470186, 39.6796091], [58.4473161, 39.6916569], [58.4474306, 39.7127532], [58.4480714, 39.7209047], [58.4466753, 39.726098], [58.4430589, 39.7408305], [58.4373827, 39.7629146], [58.4339952, 39.7782022], [58.4299669, 39.7953857], [58.4265566, 39.8114221], [58.4223909, 39.8299155], [58.4225053, 39.831392], [58.4234666, 39.8352235], [58.4292116, 39.8507059], [58.4290514, 39.8523576], [58.4276781, 39.8566449], [58.4240846, 39.8699442], [58.4233293, 39.8738439], [58.424016, 39.8782176], [58.4261903, 39.8873506], [58.4262132, 39.8885272], [58.4261217, 39.8903888], [58.4250459, 39.8947439], [58.422162, 39.9018379], [58.4214525, 39.9054373], [58.4217958, 39.9107571], [58.4222765, 39.919991], [58.4241533, 39.9260118], [58.4260988, 39.9343837], [58.4295091, 39.9419825], [58.4348192, 39.9523352], [58.4352769, 39.9541599], [58.4347505, 39.9572303], [58.4346361, 39.9619846], [58.4353227, 39.9652651], [58.4380006, 39.9748601], [58.4382295, 39.9769297], [58.4382066, 39.979508], [58.4378862, 39.9850149], [58.4378944, 39.9861669], [58.4379091, 39.9882241], [58.4390306, 39.9910825], [58.4412965, 39.9979035], [58.4412279, 39.9998497], [58.4402666, 40.0043381], [58.4388246, 40.0104917], [58.4390306, 40.0126654], [58.4390535, 40.0188884], [58.4381151, 40.0212722], [58.4343614, 40.0285809], [58.4323702, 40.0373083], [58.4302644, 40.0460171], [58.4277467, 40.0533758], [58.4240617, 40.0649377], [58.4220934, 40.074904], [58.418683, 40.0863047], [58.4180879, 40.0909451], [58.4154558, 40.1027983], [58.4165544, 40.1051092], [58.4175157, 40.1101683], [58.4176073, 40.1130391], [58.4176073, 40.1145794], [58.4157991, 40.1211606], [58.4125948, 40.1345135], [58.4093904, 40.1480037], [58.4093218, 40.1501906], [58.4093218, 40.1538644], [58.4104662, 40.1608265], [58.4153642, 40.1695545], [58.4175844, 40.1759554], [58.4180193, 40.1788584], [58.4180019, 40.1789662], [58.417611, 40.1817614], [58.4165534, 40.1870166], [58.4161916, 40.1881518], [58.4157374, 40.1892163], [58.4400045, 40.1973866], [58.4997449, 40.1854178], [58.6511187, 40.1662715], [59.0016262, 40.1168827], [59.0029467, 40.1154704], [59.0308552, 40.0292905], [59.1170226, 39.9999184], [59.204419, 39.9997465], [59.2633513, 39.9998997], [59.5096029, 39.9984902], [59.567165, 39.9987047], [59.5270067, 39.7542534], [59.5348992, 39.6876032], [59.660712, 39.2543174], [59.6199023, 38.911797], [59.6414973, 38.8075109], [59.2622987, 38.8116037], [59.3907576, 38.3023375], [59.2666545, 38.3061206], [59.1889494, 37.6327621], [59.1929548, 37.6308589], [59.2036436, 37.6261458], [59.2164839, 37.6210518], [59.2252749, 37.6171733], [59.2225512, 37.6143087], [59.2162569, 37.6078358], [59.2059801, 37.6029762], [59.2007388, 37.6015074], [59.1938952, 37.5996215], [59.1840075, 37.5981345], [59.178583, 37.5981345], [59.1686495, 37.5995308], [59.1658572, 37.5989324], [59.162813, 37.5989142], [59.1536806, 37.6003831], [59.1480273, 37.6004194], [59.1358279, 37.6031757], [59.1240633, 37.6069654], [59.1139696, 37.6070742], [59.0976961, 37.6074732], [59.0898627, 37.6060057], [59.086389, 37.608611], [59.081667, 37.611944], [59.077778, 37.615556], [59.073333, 37.618889], [59.068611, 37.622778], [59.0663705, 37.625191], [59.065, 37.626667], [59.060278, 37.63], [59.052778, 37.631389], [59.045556, 37.630833], [59.038611, 37.63], [59.030833, 37.630278], [59.024167, 37.632222], [59.018333, 37.635], [59.012778, 37.6375], [59.008056, 37.640833], [59.003611, 37.644167], [58.997778, 37.646667], [58.992222, 37.649444], [58.986667, 37.652222], [58.980833, 37.654722], [58.974167, 37.656667], [58.9675, 37.658889], [58.961111, 37.660833], [58.954444, 37.663056], [58.947778, 37.665], [58.941111, 37.667222], [58.933611, 37.668611], [58.926111, 37.67], [58.918889, 37.669444], [58.9125, 37.668056], [58.905556, 37.6675], [58.898611, 37.666667], [58.890833, 37.666944], [58.883889, 37.6675], [58.876389, 37.669167], [58.870556, 37.671667], [58.865, 37.674444], [58.860278, 37.6775], [58.855556, 37.680833], [58.851944, 37.684722], [58.848056, 37.688611], [58.843333, 37.691667], [58.839722, 37.695556], [58.836111, 37.699444], [58.830278, 37.701944], [58.822778, 37.703611], [58.815556, 37.702778], [58.813056, 37.6975], [58.813889, 37.691944], [58.814722, 37.686389], [58.814722, 37.680278], [58.812778, 37.674167], [58.808611, 37.670556], [58.804444, 37.666944], [58.798889, 37.664722], [58.793333, 37.6625], [58.786389, 37.661667], [58.778611, 37.661944], [58.770833, 37.663333], [58.763333, 37.664722], [58.755833, 37.666389], [58.748889, 37.666944], [58.743333, 37.664722], [58.738611, 37.661944], [58.735, 37.6575], [58.731667, 37.653056], [58.726111, 37.650833], [58.72, 37.649444], [58.712778, 37.648611], [58.704444, 37.649444], [58.696389, 37.649722], [58.688056, 37.650556], [58.680278, 37.651944], [58.672778, 37.653611], [58.665278, 37.655], [58.659444, 37.6575], [58.652778, 37.659722], [58.646389, 37.661667], [58.640556, 37.664444], [58.635, 37.666944], [58.629167, 37.669722], [58.623611, 37.672222], [58.618056, 37.675], [58.613333, 37.678056], [58.608611, 37.681389], [58.603889, 37.685278], [58.5974623, 37.6898565], [58.5964395, 37.6892126], [58.5959665, 37.6887156], [58.5956028, 37.6887759], [58.5923108, 37.6901517], [58.5867908, 37.6933769], [58.5821818, 37.6949411], [58.5761695, 37.6965679], [58.570377, 37.6985383], [58.5662713, 37.6998946], [58.5566505, 37.7055032], [58.55, 37.705833], [58.544444, 37.703611], [58.539444, 37.700833], [58.534722, 37.697778], [58.531389, 37.693333], [58.527222, 37.689722], [58.524722, 37.684444], [58.522222, 37.679167], [58.518889, 37.674722], [58.516111, 37.669444], [58.513611, 37.664167], [58.510278, 37.659722], [58.506944, 37.655278], [58.502778, 37.651389], [58.498056, 37.647778], [58.4925, 37.645556], [58.4896025, 37.6443967], [58.4829471, 37.6458361], [58.4793766, 37.6477389], [58.4740207, 37.6492612], [58.4726475, 37.6514721], [58.4707477, 37.65535], [58.4671314, 37.6589921], [58.4648197, 37.6621268], [58.4633777, 37.6677615], [58.4597385, 37.6719466], [58.4567631, 37.6739756], [58.4545887, 37.6750444], [58.4498737, 37.6783052], [58.4488666, 37.6799718], [58.4472187, 37.6811854], [58.4461658, 37.6819462], [58.4423206, 37.6894994], [58.4402378, 37.6925965], [58.4380176, 37.695603], [58.436301, 37.6969613], [58.4329365, 37.6999132], [58.4296406, 37.7019234], [58.4287708, 37.7040783], [58.4251545, 37.7101626], [58.4230259, 37.7125165], [58.422385, 37.7137839], [58.4210575, 37.7155402], [58.416045, 37.718075], [58.4069813, 37.7296253], [58.4056309, 37.7310553], [58.400893, 37.7390379], [58.3995884, 37.743961], [58.4007786, 37.7496438], [58.4027012, 37.7562129], [58.4001377, 37.7607187], [58.3912342, 37.7671059], [58.3793094, 37.7722442], [58.3781599, 37.7773867], [58.3712647, 37.7785454], [58.3661943, 37.774162], [58.3620041, 37.7737762], [58.3538595, 37.775907], [58.3495899, 37.7791097], [58.3451744, 37.7831301], [58.3342412, 37.7863943], [58.3330602, 37.7905715], [58.327087, 37.7888641], [58.3242238, 37.7958818], [58.3252647, 37.801819], [58.3249369, 37.8065444], [58.3216646, 37.8107253], [58.3170103, 37.8187783], [58.3148423, 37.8234093], [58.3128697, 37.8269943], [58.3068314, 37.8255423], [58.2998796, 37.8278713], [58.2977588, 37.8302258], [58.2966171, 37.8325735], [58.28988, 37.8415013], [58.2856582, 37.8417559], [58.2762305, 37.8466164], [58.2709043, 37.8490122], [58.2604475, 37.843588], [58.2414923, 37.8454853], [58.2308871, 37.8461606], [58.2244541, 37.8510546], [58.2249398, 37.8574021], [58.2259621, 37.8652044], [58.2316249, 37.8725658], [58.2056013, 37.8814745], [58.1852121, 37.8884889], [58.1723054, 37.8923597], [58.1586972, 37.8971248], [58.1369551, 37.8951354], [58.1281133, 37.886897], [58.1171081, 37.877186], [58.0988628, 37.8862092], [58.0855566, 37.8800862], [58.0813734, 37.8849115], [58.0717843, 37.8957178], [58.0553771, 37.913028], [58.0389146, 37.9303924], [58.0283279, 37.9411595], [58.0045551, 37.9541027], [58.0049008, 37.9643957], [58.0051887, 37.9724329], [57.9922699, 37.9807793], [57.9927204, 37.9940454]]]}, "properties": {"units": ["Ашхабад", "Ак-Бугдайский этрап"], "source": "OpenStreetMap (Geofabrik turkmenistan-latest.osm.pbf, этрапы admin_level=5; Ашхабад - admin_level=4), 30.09.2026"}}]}