{"type": "FeatureCollection", "features": [{"type": "Feature", "geometry": {"type": "Polygon", "coordinates": [[[60.6437576, 37.2208955], [60.6451258, 37.2222364], [60.6456067, 37.2238287], [60.6456665, 37.2254279], [60.6458126, 37.2259279], [60.6460432, 37.2261725], [60.6475463, 37.225617], [60.6479157, 37.2253559], [60.6484545, 37.2242575], [60.6484508, 37.224042], [60.648279, 37.2239194], [60.6482156, 37.2236445], [60.6483577, 37.2234589], [60.6486996, 37.2233103], [60.6494338, 37.2231692], [60.6501649, 37.2230409], [60.6509148, 37.2231729], [60.6513544, 37.2233626], [60.6515735, 37.2234664], [60.6518392, 37.2236744], [60.6518477, 37.2238971], [60.6516398, 37.2244427], [60.6513464, 37.2246585], [60.6498136, 37.225349], [60.6492749, 37.2259449], [60.6486956, 37.22645], [60.64842, 37.2268207], [60.6483032, 37.2271766], [60.6483046, 37.2273229], [60.6484741, 37.2275435], [60.6488395, 37.2276292], [60.6492296, 37.2274124], [60.649461, 37.2273889], [60.6498474, 37.2276845], [60.6499904, 37.2280756], [60.6500306, 37.2284593], [60.6499577, 37.2287559], [60.6497074, 37.2290674], [60.6492072, 37.2296973], [60.6489032, 37.2302305], [60.6488711, 37.231046], [60.6488971, 37.2316227], [60.648811, 37.2323185], [60.6484384, 37.2327966], [60.6476037, 37.2338299], [60.6500121, 37.234398], [60.6537726, 37.2341366], [60.6547053, 37.2340876], [60.6554961, 37.2342384], [60.6573995, 37.2345249], [60.6596014, 37.2348725], [60.6607531, 37.2348938], [60.6614397, 37.2347694], [60.6619132, 37.2347279], [60.6625808, 37.2349541], [60.6636982, 37.2347995], [60.6649956, 37.2350634], [60.6657295, 37.2350634], [60.6669883, 37.2348818], [60.6677249, 37.2350204], [60.6684347, 37.2354149], [60.6690307, 37.2360493], [60.6701356, 37.2367424], [60.6722047, 37.2379525], [60.6729917, 37.2384781], [60.673226, 37.2386811], [60.6755673, 37.2399586], [60.6775173, 37.2407284], [60.6795664, 37.2412135], [60.6814279, 37.2412402], [60.6834301, 37.2411389], [60.6858206, 37.2408403], [60.6894968, 37.2404512], [60.6929521, 37.240062], [60.6955837, 37.2396995], [60.6990523, 37.2392784], [60.702916, 37.2388732], [60.7116591, 37.2378716], [60.7153294, 37.2374667], [60.7178133, 37.2371449], [60.7192997, 37.2367505], [60.7215162, 37.2359512], [60.7240327, 37.2350532], [60.7243977, 37.2349391], [60.7275857, 37.2338802], [60.7307606, 37.2328525], [60.7336095, 37.2319026], [60.7368626, 37.2306932], [60.7394508, 37.2298679], [60.7415565, 37.2291152], [60.7437665, 37.228238], [60.74509, 37.227885], [60.7463482, 37.2277396], [60.7474369, 37.2277552], [60.7489363, 37.2280926], [60.7519482, 37.2287934], [60.7551166, 37.2296187], [60.7590021, 37.2305271], [60.7619945, 37.2312901], [60.7650716, 37.2320947], [60.7684029, 37.2329823], [60.7699936, 37.2333923], [60.7709259, 37.2334494], [60.7720276, 37.2333041], [60.774518, 37.232676], [60.7770149, 37.2319753], [60.7798769, 37.23115], [60.7822564, 37.2305115], [60.785001, 37.2297848], [60.7873414, 37.22911], [60.7904642, 37.2282535], [60.7930719, 37.2275164], [60.7971612, 37.2263641], [60.8006739, 37.2254317], [60.8030469, 37.2247569], [60.8053417, 37.2241495], [60.8074027, 37.2234953], [60.808361, 37.2233395], [60.8100718, 37.2233736], [60.8144562, 37.2239618], [60.8194975, 37.2246923], [60.824597, 37.2253594], [60.8313588, 37.2262884], [60.8364146, 37.2268988], [60.8396876, 37.2274384], [60.8406372, 37.2276513], [60.8437712, 37.228642], [60.8469266, 37.2296387], [60.8492409, 37.2304328], [60.8497941, 37.2305723], [60.8516242, 37.231211], [60.8532041, 37.231711], [60.8553229, 37.2325], [60.8564507, 37.2328011], [60.857044, 37.2330917], [60.8579241, 37.2337198], [60.8592931, 37.2348928], [60.8608186, 37.2363565], [60.8624028, 37.2376593], [60.8643717, 37.2394914], [60.8666078, 37.2415051], [60.8690981, 37.2437264], [60.8707997, 37.2452625], [60.871934, 37.2463264], [60.8727098, 37.2469284], [60.8747047, 37.2478418], [60.8773776, 37.2491339], [60.880709, 37.2507427], [60.8829907, 37.2518428], [60.8868762, 37.2536953], [60.8898229, 37.2551171], [60.8924633, 37.2563832], [60.8956251, 37.2579036], [60.898122, 37.2591177], [60.9003255, 37.2601088], [60.9021966, 37.2609234], [60.904726, 37.2620338], [60.9068513, 37.263004], [60.9099741, 37.2643737], [60.9126796, 37.2655411], [60.9152156, 37.2666981], [60.9172887, 37.267523], [60.9191663, 37.268405], [60.9212524, 37.2693077], [60.9227453, 37.2699095], [60.9238732, 37.2705684], [60.9245447, 37.2711546], [60.9254639, 37.2723064], [60.9267808, 37.2740235], [60.9284328, 37.2763457], [60.9295723, 37.2780365], [60.9305697, 37.2793334], [60.9314647, 37.2807474], [60.9318754, 37.2813517], [60.931983, 37.2814788], [60.9330913, 37.2830324], [60.9334629, 37.2835874], [60.934871, 37.2853924], [60.9361488, 37.2871197], [60.9376743, 37.289267], [60.9387565, 37.2907037], [60.9461053, 37.298845], [61.0213863, 37.2979376], [61.1543482, 37.1329698], [61.1822897, 37.0982566], [61.2076334, 37.0657285], [61.4992442, 36.6864252], [61.497945, 36.6633966], [61.498618, 36.655243], [61.5013849, 36.652697], [61.5003693, 36.5912944], [61.5009435, 36.4679611], [61.5013086, 36.3823718], [61.5033353, 36.0021841], [61.5790589, 36.0017278], [61.5804715, 35.9842788], [61.6257158, 35.9857553], [61.6264241, 35.9032752], [61.5822004, 35.90303], [61.5836982, 35.8746035], [61.5636859, 35.8785534], [61.5445341, 35.8783624], [61.5087247, 35.8597279], [61.4993432, 35.858394], [61.456633, 35.8467762], [61.4395083, 35.8600406], [61.401353, 35.8647755], [61.3473698, 35.8367319], [61.3799271, 35.8160917], [61.4056732, 35.8045609], [61.4337137, 35.7894669], [61.4366876, 35.7870202], [61.4431816, 35.7782389], [61.4451366, 35.7745632], [61.4468935, 35.7725704], [61.4571755, 35.763816], [61.4497424, 35.7476729], [61.4541239, 35.7429222], [61.4630761, 35.7436203], [61.4682452, 35.7497989], [61.4717742, 35.7502792], [61.4721249, 35.7561083], [61.4730772, 35.7567326], [61.4870075, 35.7629899], [61.4950119, 35.7598364], [61.5226655, 35.7584306], [61.5359178, 35.7534143], [61.5583838, 35.7408079], [61.5589417, 35.739641], [61.5678256, 35.6910786], [61.5691285, 35.6714157], [61.5444382, 35.6696201], [61.5445487, 35.5653416], [61.5214037, 35.5451791], [61.4749355, 35.5056001], [61.450065, 35.520456], [61.450438, 35.524388], [61.448703, 35.52463], [61.447888, 35.524626], [61.446967, 35.524956], [61.446757, 35.525707], [61.446853, 35.526293], [61.447456, 35.527299], [61.446841, 35.527714], [61.445409, 35.528208], [61.4451, 35.528625], [61.445298, 35.529211], [61.4458, 35.53005], [61.445899, 35.530385], [61.445175, 35.531552], [61.444354, 35.532216], [61.443738, 35.532631], [61.442514, 35.532792], [61.441392, 35.532786], [61.439353, 35.532859], [61.439035, 35.534195], [61.438827, 35.534696], [61.438108, 35.535277], [61.437289, 35.535607], [61.435961, 35.535935], [61.435246, 35.536014], [61.434629, 35.536596], [61.434111, 35.537597], [61.433697, 35.538264], [61.432878, 35.538594], [61.432063, 35.538506], [61.431448, 35.538921], [61.430835, 35.539084], [61.429916, 35.539163], [61.4250102, 35.5388855], [61.4241039, 35.5400211], [61.4233776, 35.5406102], [61.4208786, 35.5433144], [61.4196949, 35.5446722], [61.4176726, 35.5469108], [61.4163768, 35.5482593], [61.4146608, 35.5501398], [61.4137132, 35.5508713], [61.412959, 35.551596], [61.4121328, 35.552213], [61.4109235, 35.5532481], [61.4098873, 35.5541706], [61.4094011, 35.5545196], [61.4081504, 35.5546133], [61.4078552, 35.5544874], [61.4075555, 35.5543369], [61.4067337, 35.5543426], [61.4046277, 35.5538932], [61.4039607, 35.5539345], [61.4033885, 35.5538106], [61.4026462, 35.553356], [61.4015891, 35.5532575], [61.4012498, 35.5534132], [61.4004085, 35.5547761], [61.3986412, 35.5566926], [61.3985137, 35.5570307], [61.3981983, 35.5572241], [61.3979253, 35.5575552], [61.3974236, 35.5578802], [61.3966257, 35.5582051], [61.3959187, 35.5588378], [61.395283, 35.5596488], [61.3946603, 35.5602754], [61.3939635, 35.5608762], [61.3934218, 35.5618385], [61.3924402, 35.5626185], [61.3901858, 35.563759], [61.3891213, 35.5646706], [61.388689, 35.565087], [61.388268, 35.565688], [61.3879167, 35.5662018], [61.38765, 35.566354], [61.3871394, 35.5664638], [61.3867558, 35.5667113], [61.3859855, 35.56773], [61.3857447, 35.5685088], [61.3857437, 35.5692462], [61.3860418, 35.5698983], [61.3863273, 35.5704264], [61.3875518, 35.5716644], [61.3882029, 35.5725519], [61.3888133, 35.5738506], [61.3890428, 35.5740476], [61.3895653, 35.5736155], [61.3900514, 35.5733027], [61.3904528, 35.57336], [61.3910441, 35.5737671], [61.3920571, 35.5747833], [61.3933213, 35.5758373], [61.3942055, 35.5757515], [61.3956709, 35.5766291], [61.3959088, 35.5766462], [61.3963636, 35.5761725], [61.3974614, 35.5767834], [61.3978886, 35.5774574], [61.3982281, 35.5775742], [61.3984082, 35.5777605], [61.3984403, 35.5781448], [61.3985489, 35.5785089], [61.398139, 35.5789849], [61.3978532, 35.5791054], [61.3978373, 35.5793206], [61.3986891, 35.5797681], [61.3992035, 35.5802117], [61.3996902, 35.5811886], [61.3997114, 35.5817352], [61.4006738, 35.5826646], [61.4008353, 35.5830037], [61.4009102, 35.5836552], [61.4002572, 35.586417], [61.3995184, 35.5869215], [61.3991342, 35.5872793], [61.3985221, 35.5873693], [61.3981573, 35.5871799], [61.3978226, 35.5868584], [61.3978023, 35.5865479], [61.3976373, 35.5862852], [61.3969193, 35.5856266], [61.3964828, 35.5853017], [61.3962279, 35.5849105], [61.3959382, 35.5843874], [61.3957086, 35.5841381], [61.3954177, 35.5839718], [61.3952049, 35.5837028], [61.3947078, 35.5832432], [61.3944932, 35.58316], [61.3942999, 35.5831947], [61.3939924, 35.5836009], [61.3936178, 35.5838463], [61.393213, 35.5842159], [61.3926458, 35.5845464], [61.3924491, 35.5847871], [61.392392, 35.5851959], [61.392359, 35.5855704], [61.392461, 35.5860265], [61.3926531, 35.5864631], [61.3928091, 35.5866323], [61.3930728, 35.5867655], [61.3934875, 35.5870368], [61.3937098, 35.5872789], [61.3939982, 35.5875772], [61.3941545, 35.5879145], [61.3941717, 35.5881076], [61.394147, 35.588413], [61.3940012, 35.5886525], [61.3936261, 35.5889058], [61.3934432, 35.5890613], [61.3933563, 35.5892457], [61.3934256, 35.5894203], [61.3937687, 35.5897012], [61.3941785, 35.5899758], [61.3946965, 35.5902944], [61.394819, 35.5905504], [61.3947956, 35.5908181], [61.3946279, 35.5909881], [61.3938579, 35.5913976], [61.3926731, 35.5915421], [61.3907776, 35.5914458], [61.3892967, 35.5909881], [61.3877565, 35.5897116], [61.3857041, 35.5896775], [61.3841961, 35.5894732], [61.3828139, 35.5898819], [61.3792535, 35.5912103], [61.3773267, 35.5913466], [61.3764052, 35.5902566], [61.3754653, 35.5907992], [61.3736145, 35.598991], [61.3701312, 35.6015985], [61.369174, 35.6039631], [61.3693932, 35.6070274], [61.3685686, 35.6127732], [61.3686549, 35.6140929], [61.3688897, 35.6149013], [61.3695384, 35.6158468], [61.3708411, 35.6167852], [61.3730658, 35.6177304], [61.3742258, 35.6187468], [61.3750984, 35.6198032], [61.3752783, 35.6205457], [61.3742791, 35.6224728], [61.3733027, 35.6236636], [61.3707871, 35.6246479], [61.3674946, 35.6253568], [61.3666372, 35.6252676], [61.3658905, 35.6256024], [61.3358142, 35.6223472], [61.3235754, 35.6216611], [61.312068, 35.6209765], [61.2959486, 35.6174352], [61.2876924, 35.614946], [61.2865731, 35.6142311], [61.2825, 35.609167], [61.2740947, 35.604842], [61.2737591, 35.6094121], [61.2717758, 35.6107744], [61.2715311, 35.6109425], [61.271017, 35.6112956], [61.270837, 35.6144662], [61.2684923, 35.6157625], [61.2610925, 35.6184856], [61.2548746, 35.6220921], [61.2510636, 35.6243025], [61.2471275, 35.6265853], [61.2462837, 35.6286053], [61.2503748, 35.633426], [61.2510641, 35.6350874], [61.2496683, 35.6383565], [61.2473786, 35.6404601], [61.2467931, 35.645202], [61.2416299, 35.6476809], [61.239147, 35.6478863], [61.2384175, 35.6479466], [61.2340469, 35.6483081], [61.2278523, 35.6501944], [61.2270803, 35.6504295], [61.226226, 35.6506896], [61.2250065, 35.6529994], [61.2254286, 35.6539141], [61.2289462, 35.6554766], [61.2288524, 35.6571152], [61.2226941, 35.6610901], [61.2189635, 35.6683383], [61.2245995, 35.6729036], [61.2229325, 35.6753891], [61.2166545, 35.675801], [61.2162359, 35.6832534], [61.21909, 35.688781], [61.2207853, 35.6931578], [61.2233256, 35.6962406], [61.2248658, 35.6981095], [61.2261321, 35.697881], [61.2284488, 35.696996], [61.2294621, 35.6975763], [61.2302521, 35.7005941], [61.2315258, 35.7024135], [61.236389, 35.704167], [61.239722, 35.708611], [61.243889, 35.712222], [61.246389, 35.7175], [61.248333, 35.723611], [61.249722, 35.730278], [61.248889, 35.735833], [61.249444, 35.742222], [61.248611, 35.747778], [61.248889, 35.753889], [61.251111, 35.76], [61.253611, 35.765278], [61.255556, 35.771111], [61.255, 35.776944], [61.2525, 35.781389], [61.250833, 35.786389], [61.252222, 35.793056], [61.253056, 35.798611], [61.255833, 35.803889], [61.258611, 35.808889], [61.261944, 35.813333], [61.262222, 35.819722], [61.260556, 35.824722], [61.258889, 35.829722], [61.256389, 35.834167], [61.253889, 35.838611], [61.252222, 35.843611], [61.249444, 35.848333], [61.248056, 35.853333], [61.246389, 35.858333], [61.243611, 35.862778], [61.243056, 35.868333], [61.241389, 35.873611], [61.240833, 35.879167], [61.241111, 35.885278], [61.243889, 35.890556], [61.245, 35.897222], [61.239444, 35.898611], [61.233056, 35.8975], [61.2275, 35.898889], [61.225833, 35.903889], [61.226111, 35.91], [61.2225305, 35.9144264], [61.2106711, 35.9218235], [61.205404, 35.9271198], [61.1836284, 35.9430414], [61.1722681, 35.9474458], [61.1602844, 35.9507704], [61.1592799, 35.9505163], [61.1586791, 35.9503079], [61.1544304, 35.9467469], [61.1540333, 35.9465719], [61.1534648, 35.9464342], [61.1530357, 35.9463994], [61.1527782, 35.9463473], [61.1521559, 35.9465037], [61.1518341, 35.94666], [61.1513405, 35.946799], [61.1478858, 35.9475286], [61.14677, 35.9476154], [61.1457615, 35.9477023], [61.1448389, 35.9478934], [61.1440235, 35.9481365], [61.1435943, 35.948345], [61.142972, 35.948484], [61.1424141, 35.9485187], [61.1418133, 35.948484], [61.1413842, 35.9486056], [61.1405688, 35.9489356], [61.1401825, 35.9492135], [61.139968, 35.9496131], [61.1397534, 35.9501168], [61.1392384, 35.9509853], [61.1390667, 35.9514196], [61.1391311, 35.9516107], [61.1393671, 35.9521318], [61.1393886, 35.9524097], [61.1392599, 35.9526008], [61.1391097, 35.952705], [61.1358695, 35.9527745], [61.135376, 35.9528787], [61.1339169, 35.9533651], [61.1334448, 35.9537472], [61.1332088, 35.9540251], [61.1330095, 35.9543825], [61.1327889, 35.954586], [61.1325405, 35.95471], [61.1323781, 35.954792], [61.132136, 35.9550448], [61.1319179, 35.9553812], [61.1317834, 35.9555884], [61.131578, 35.9558836], [61.1313849, 35.9560052], [61.1311887, 35.956092], [61.1310108, 35.9562757], [61.1304131, 35.9574716], [61.1301648, 35.9580027], [61.1300116, 35.9582632], [61.1294752, 35.958628], [61.1282092, 35.9590969], [61.1269646, 35.9593227], [61.1265324, 35.9592607], [61.1262351, 35.9591316], [61.1257844, 35.9587669], [61.1255913, 35.9584543], [61.125248, 35.9582632], [61.1248188, 35.9579853], [61.1246686, 35.9577769], [61.1247545, 35.9575511], [61.1248832, 35.9573427], [61.1250334, 35.9568563], [61.1250763, 35.9562658], [61.1249905, 35.9559358], [61.1247974, 35.9557621], [61.1245828, 35.9556405], [61.1241107, 35.9555884], [61.1236601, 35.9555015], [61.1229949, 35.9555189], [61.1215144, 35.9556057], [61.1206131, 35.9558489], [61.1202913, 35.9560921], [61.1200982, 35.9561616], [61.1194973, 35.9565263], [61.1192613, 35.9568042], [61.1191111, 35.9571863], [61.1188288, 35.957488], [61.118612, 35.9577766], [61.1185687, 35.9578889], [61.1186111, 35.9580816], [61.1185062, 35.9582497], [61.1182662, 35.9585713], [61.1181378, 35.9589154], [61.117864, 35.9595572], [61.1176073, 35.9599867], [61.1174994, 35.9602125], [61.1173844, 35.9605586], [61.1174086, 35.9607072], [61.1174444, 35.9608474], [61.1174752, 35.9609684], [61.1175236, 35.9612149], [61.1174631, 35.9613798], [61.1172817, 35.9615897], [61.1172049, 35.9617209], [61.1172277, 35.9618918], [61.1171678, 35.9621307], [61.117048, 35.9624793], [61.1169839, 35.9628107], [61.1169824, 35.9629353], [61.1170252, 35.9630392], [61.1170908, 35.9631281], [61.1172976, 35.9631904], [61.1175558, 35.9632135], [61.1179955, 35.9631564], [61.1183343, 35.9631646], [61.1185643, 35.9632462], [61.1187049, 35.9633385], [61.1188345, 35.9634649], [61.1190685, 35.9637294], [61.1192763, 35.9640233], [61.1195223, 35.9643955], [61.1196837, 35.9647905], [61.1198226, 35.9649043], [61.1199622, 35.9649964], [61.1201564, 35.9651694], [61.1204166, 35.9654779], [61.1207282, 35.966054], [61.1214848, 35.9672104], [61.1221635, 35.9678233], [61.1226745, 35.968095], [61.1232304, 35.9682309], [61.1240082, 35.9682958], [61.1244855, 35.9682566], [61.1268965, 35.967853], [61.1274293, 35.9676665], [61.1277785, 35.9674652], [61.128143, 35.9673085], [61.1292371, 35.9670129], [61.1295802, 35.9670299], [61.1300307, 35.9670905], [61.1310573, 35.9677167], [61.1316035, 35.967986], [61.1321243, 35.9683116], [61.1325533, 35.9686371], [61.1328785, 35.9689903], [61.1331039, 35.9692627], [61.1342505, 35.9701215], [61.1347583, 35.9704978], [61.1354828, 35.9709272], [61.1361446, 35.9712758], [61.1374653, 35.9721184], [61.1381042, 35.9725685], [61.1387261, 35.9729817], [61.139365, 35.9734434], [61.1395875, 35.973635], [61.1398385, 35.9738774], [61.1402321, 35.9741844], [61.1404518, 35.9744361], [61.1410223, 35.9754171], [61.1412761, 35.975925], [61.1415871, 35.976569], [61.1419237, 35.9773493], [61.1420748, 35.9778709], [61.1422831, 35.978268], [61.1425369, 35.9790089], [61.1429145, 35.97974], [61.1431061, 35.9800224], [61.1432271, 35.9802689], [61.143334, 35.9805088], [61.1434086, 35.9807585], [61.143531, 35.9809532], [61.1436944, 35.9810936], [61.1438538, 35.9812878], [61.1442995, 35.9817611], [61.144592, 35.9819766], [61.1449268, 35.9822002], [61.1452173, 35.9824548], [61.1456065, 35.9826882], [61.1461491, 35.9829983], [61.1468248, 35.9833198], [61.1471657, 35.9834455], [61.1477062, 35.983625], [61.1481769, 35.9837727], [61.1487522, 35.9838998], [61.1493997, 35.9840417], [61.1499181, 35.9841446], [61.1514385, 35.9844679], [61.152511, 35.984768], [61.1532584, 35.9849573], [61.1540755, 35.9852524], [61.1546242, 35.9855511], [61.1552696, 35.9858155], [61.1557892, 35.9861236], [61.1571225, 35.9869308], [61.1578849, 35.9874302], [61.1585707, 35.9878219], [61.1591009, 35.988083], [61.159906, 35.9884896], [61.160299, 35.988771], [61.1612118, 35.9892072], [61.1620789, 35.9896549], [61.1628348, 35.9898811], [61.1632855, 35.9899757], [61.1639673, 35.9900819], [61.1647973, 35.9901004], [61.1658214, 35.9901465], [61.1663434, 35.9901604], [61.1669937, 35.9899919], [61.1674016, 35.989925], [61.1679008, 35.9898973], [61.1683087, 35.9899342], [61.1685141, 35.9900057], [61.1687851, 35.9902458], [61.1690275, 35.9903658], [61.1691844, 35.9906427], [61.1693641, 35.9910559], [61.1696494, 35.9915221], [61.1699945, 35.9922906], [61.1703111, 35.9932645], [61.1704395, 35.9935], [61.1707789, 35.9938577], [61.1708897, 35.9940946], [61.1709764, 35.9944487], [61.1710491, 35.9949138], [61.1710491, 35.9952173], [61.171043, 35.9953822], [61.1709643, 35.9956302], [61.1707969, 35.9960317], [61.1705408, 35.9963711], [61.1701454, 35.9967236], [61.1694181, 35.9974944], [61.1691095, 35.997756], [61.1688251, 35.9979078], [61.1681797, 35.9979682], [61.1676802, 35.9981311], [61.1674227, 35.9983915], [61.1669292, 35.9992074], [61.1666717, 35.9999713], [61.1665859, 36.0002664], [61.166307, 36.0007004], [61.1658778, 36.0015683], [61.1656632, 36.00228], [61.1655619, 36.0030545], [61.1655189, 36.0049293], [61.1655833, 36.0057625], [61.1659052, 36.0071859], [61.1661841, 36.0080885], [61.1663558, 36.0083836], [61.1668279, 36.0086613], [61.1672141, 36.0087307], [61.1691024, 36.0089043], [61.1707761, 36.0092514], [61.1725141, 36.0093382], [61.1731793, 36.0094771], [61.1735012, 36.0096854], [61.1736277, 36.009991], [61.1736277, 36.0131499], [61.1735418, 36.0138616], [61.1733273, 36.0145038], [61.1729196, 36.0153889], [61.1712673, 36.017975], [61.1706021, 36.0189122], [61.1692932, 36.0203353], [61.1667397, 36.0227303], [61.1652592, 36.0238236], [61.1644652, 36.024726], [61.1641005, 36.0252119], [61.1639503, 36.0257499], [61.1638, 36.0264614], [61.1638644, 36.0273638], [61.1638644, 36.0277282], [61.1636498, 36.0285786], [61.1630919, 36.0301403], [61.1629847, 36.0308171], [61.1629203, 36.0316153], [61.1630276, 36.0322053], [61.1635426, 36.0343223], [61.163843, 36.0350164], [61.1649373, 36.0364566], [61.1657098, 36.0372027], [61.1669972, 36.0383132], [61.1686924, 36.039441], [61.1703446, 36.0403432], [61.1726406, 36.0413322], [61.1745074, 36.0419221], [61.1782411, 36.0427897], [61.1793139, 36.0430326], [61.1796573, 36.0432234], [61.1802581, 36.0434663], [61.180433, 36.0437643], [61.1807334, 36.0446144], [61.180948, 36.045291], [61.1822355, 36.0482578], [61.1827719, 36.0497845], [61.1829436, 36.0503049], [61.1838019, 36.051901], [61.1841667, 36.0530286], [61.1842954, 36.0537919], [61.1844456, 36.0553011], [61.1844027, 36.0560644], [61.1842954, 36.0568277], [61.1840594, 36.0578859], [61.1837804, 36.0589093], [61.1837804, 36.0594818], [61.183716, 36.0598113], [61.1829221, 36.0609562], [61.1826646, 36.0616674], [61.1825725, 36.0623681], [61.1825939, 36.0638078], [61.1825081, 36.0646924], [61.1825725, 36.0650567], [61.1828514, 36.0659239], [61.1831089, 36.0664096], [61.1831304, 36.0666524], [61.1831089, 36.0668779], [61.1831733, 36.0671381], [61.1837097, 36.0677798], [61.1842676, 36.0684216], [61.1849972, 36.0691154], [61.1857053, 36.069601], [61.1867782, 36.0701387], [61.1884304, 36.0710752], [61.1904045, 36.0722893], [61.1921211, 36.0732085], [61.1927863, 36.0734513], [61.1932584, 36.0737635], [61.1936017, 36.0742144], [61.1940309, 36.0746133], [61.1944327, 36.0754346], [61.1952696, 36.0767006], [61.1959348, 36.0776718], [61.1961493, 36.0782615], [61.1962352, 36.0786777], [61.1962352, 36.0794928], [61.1964068, 36.0799263], [61.1964283, 36.0803599], [61.1962995, 36.0805333], [61.1961064, 36.0806547], [61.1961493, 36.0808454], [61.196321, 36.0810362], [61.1964283, 36.0816778], [61.1966214, 36.0821287], [61.1969004, 36.0831519], [61.1974797, 36.0843484], [61.1977587, 36.0847126], [61.1985955, 36.0851287], [61.1988101, 36.0852848], [61.1996255, 36.0862212], [61.2013803, 36.0878846], [61.2020241, 36.0884048], [61.2029682, 36.0890464], [61.2049209, 36.0898787], [61.2054788, 36.0902949], [61.2058221, 36.0907284], [61.2066589, 36.0915433], [61.2072812, 36.0920115], [61.2074314, 36.092393], [61.2073885, 36.0926704], [61.2065516, 36.0948551], [61.2062083, 36.0957394], [61.2059079, 36.0971958], [61.2057362, 36.0978546], [61.2055002, 36.0987735], [61.2055002, 36.0993977], [61.2056719, 36.1001952], [61.2059903, 36.1009515], [61.2072563, 36.1036734], [61.2075567, 36.1043495], [61.207664, 36.1046443], [61.2080931, 36.1049737], [61.2085008, 36.1052684], [61.2092089, 36.1060832], [61.2095308, 36.1064126], [61.2107324, 36.1070367], [61.2112525, 36.1074873], [61.2122954, 36.1084296], [61.2128833, 36.1089608], [61.2131408, 36.1093249], [61.2133553, 36.1094636], [61.2139347, 36.1097063], [61.2148145, 36.1103477], [61.2160161, 36.1107637], [61.2164238, 36.110729], [61.2166598, 36.1106597], [61.2168744, 36.1105383], [61.2173465, 36.1105383], [61.2181404, 36.1107117], [61.2197497, 36.1114051], [61.2202432, 36.1115611], [61.2206724, 36.1115785], [61.221402, 36.1114224], [61.2222174, 36.1111624], [61.2229684, 36.1106944], [61.2238481, 36.110365], [61.2243202, 36.1102783], [61.2250069, 36.1103477], [61.2261024, 36.1105576], [61.2264992, 36.1106977], [61.2272566, 36.1111425], [61.2281711, 36.1119938], [61.22845, 36.1123245], [61.2291587, 36.1134784], [61.229585, 36.1140126], [61.229821, 36.1145563], [61.2301039, 36.1154203], [61.2304885, 36.11605], [61.2306475, 36.1163528], [61.2309142, 36.1173118], [61.230984, 36.1179704], [61.2308504, 36.11873], [61.2308104, 36.1191354], [61.2306936, 36.1196586], [61.2306185, 36.119891], [61.2301284, 36.120725], [61.2298471, 36.121155], [61.2295658, 36.1214754], [61.229246, 36.1217464], [61.2290723, 36.1218741], [61.2286217, 36.1220647], [61.2282355, 36.1221514], [61.2279136, 36.1221167], [61.2274844, 36.1217701], [61.2265618, 36.1214407], [61.225846, 36.1212826], [61.2242014, 36.1209728], [61.2224097, 36.1206366], [61.2220359, 36.1205156], [61.2215896, 36.120233], [61.2213905, 36.1201234], [61.2207896, 36.1200714], [61.2203063, 36.1199677], [61.2198944, 36.1199541], [61.2197585, 36.1199815], [61.2197361, 36.1200524], [61.2194381, 36.1202089], [61.2190998, 36.1204218], [61.2190178, 36.1205221], [61.2188995, 36.1206313], [61.2188446, 36.1207084], [61.2187793, 36.1212318], [61.2187229, 36.1213761], [61.2186031, 36.1214727], [61.2182147, 36.1215967], [61.2181244, 36.1216555], [61.2180431, 36.1217874], [61.2179572, 36.1219954], [61.2177355, 36.1222501], [61.2170636, 36.1230219], [61.2168677, 36.123101], [61.2162518, 36.123173], [61.2153096, 36.1234186], [61.2147386, 36.1236246], [61.2142094, 36.1237428], [61.2137618, 36.1238756], [61.2133009, 36.12411], [61.2126549, 36.1245244], [61.2125435, 36.1246389], [61.2120578, 36.1252995], [61.2113559, 36.1260589], [61.211241, 36.1262245], [61.2107358, 36.1275945], [61.2104933, 36.1283499], [61.2104845, 36.1285286], [61.2105047, 36.1292232], [61.2108635, 36.130781], [61.2109413, 36.1312193], [61.2110868, 36.1316383], [61.2113045, 36.1319559], [61.211929, 36.1327928], [61.2123134, 36.1331907], [61.2142432, 36.1347526], [61.2150426, 36.1352752], [61.216605, 36.1359203], [61.2182639, 36.1364326], [61.2188606, 36.1365363], [61.2196113, 36.1366803], [61.2204999, 36.1368952], [61.2209644, 36.1372805], [61.2219408, 36.1376952], [61.2230034, 36.1382732], [61.2233897, 36.1384811], [61.224248, 36.1385851], [61.2245269, 36.1388624], [61.2246771, 36.1392089], [61.2251492, 36.1399714], [61.2253852, 36.1405952], [61.2251921, 36.1413404], [61.2248059, 36.1419469], [61.2244411, 36.1422414], [61.2236686, 36.1427266], [61.2229176, 36.1429866], [61.2220164, 36.1432291], [61.2200637, 36.1442688], [61.2191304, 36.1448975], [61.2189158, 36.1450881], [61.2187012, 36.145452], [61.2184652, 36.1457985], [61.2182935, 36.1460064], [61.2174137, 36.1463877], [61.2169846, 36.1467862], [61.2157615, 36.1482763], [61.2154825, 36.1487788], [61.2154825, 36.149056], [61.2155469, 36.1494372], [61.2156113, 36.1496624], [61.2158259, 36.1505461], [61.2160619, 36.1510139], [61.2167271, 36.1517936], [61.2174352, 36.1522961], [61.2192591, 36.1532317], [61.219817, 36.1534049], [61.2200101, 36.1535955], [61.2222444, 36.1553792], [61.2231885, 36.1564533], [61.2242185, 36.1579953], [61.224476, 36.1584804], [61.2245833, 36.1588788], [61.2250339, 36.1595718], [61.2253772, 36.1602301], [61.2261926, 36.1609577], [61.2264715, 36.1614948], [61.2265359, 36.1621358], [61.2266003, 36.1628461], [61.226729, 36.1644918], [61.2265359, 36.1657564], [61.2260638, 36.1685107], [61.2257634, 36.1697926], [61.2255059, 36.1704854], [61.2249051, 36.1709878], [61.2245273, 36.1714118], [61.2242913, 36.1719488], [61.2241411, 36.1724511], [61.2241196, 36.1734384], [61.2241196, 36.1741659], [61.2236261, 36.1764523], [61.2230682, 36.1783922], [61.2220168, 36.1806092], [61.2219739, 36.1809555], [61.2220597, 36.181198], [61.2220597, 36.1814232], [61.2218666, 36.182064], [61.2217593, 36.1824623], [61.2216683, 36.1826037], [61.2214554, 36.182755], [61.2213538, 36.1829511], [61.2210636, 36.1839572], [61.2208937, 36.1841917], [61.2204373, 36.1845099], [61.220107, 36.1846099], [61.2199354, 36.1847138], [61.2197298, 36.1851045], [61.2194694, 36.1853525], [61.2192238, 36.1861391], [61.2183059, 36.1873011], [61.2179184, 36.1880044], [61.2178023, 36.1884948], [61.2178453, 36.1889404], [61.2180016, 36.1893952], [61.2181982, 36.1896025], [61.2184855, 36.1898636], [61.2187057, 36.1901738], [61.2189483, 36.1906886], [61.2193457, 36.1917947], [61.2194567, 36.1921384], [61.2194045, 36.1925391], [61.2192972, 36.1926677], [61.2184946, 36.1928782], [61.2183046, 36.1930438], [61.2181758, 36.1933035], [61.2181174, 36.1937518], [61.2179672, 36.1939353], [61.2170171, 36.1947408], [61.2165021, 36.1949313], [61.2162322, 36.1951094], [61.2160834, 36.1951835], [61.2146986, 36.1950859], [61.2142035, 36.1949489], [61.2135576, 36.1950376], [61.2131762, 36.1951391], [61.2127814, 36.1951766], [61.2124719, 36.1951158], [61.2122063, 36.1950039], [61.2118956, 36.1950151], [61.2115669, 36.1950698], [61.2108908, 36.1952982], [61.2100209, 36.1957454], [61.2098214, 36.1960107], [61.2092744, 36.1964152], [61.2089477, 36.1963822], [61.2083683, 36.1966246], [61.2079264, 36.1969266], [61.207816, 36.1970808], [61.2077659, 36.1973745], [61.2078195, 36.1976732], [61.2078843, 36.1979955], [61.2078638, 36.1981556], [61.2076527, 36.1984922], [61.2072297, 36.1994267], [61.2071529, 36.1997191], [61.2071526, 36.2013488], [61.2071866, 36.2015695], [61.2072737, 36.2016844], [61.2077394, 36.2021791], [61.2079309, 36.2024869], [61.2080234, 36.2028084], [61.2080402, 36.2031837], [61.2080388, 36.203672], [61.2079309, 36.2043575], [61.2075513, 36.205452], [61.2074584, 36.2058559], [61.2074692, 36.206073], [61.2075275, 36.2067685], [61.2074945, 36.2069593], [61.2073213, 36.2076665], [61.2066861, 36.2087487], [61.2064436, 36.2090865], [61.2064082, 36.2092965], [61.2062212, 36.2105594], [61.2061293, 36.2109067], [61.2056396, 36.2117019], [61.2053327, 36.2121135], [61.2050476, 36.2130319], [61.2049276, 36.2132439], [61.2044563, 36.2138732], [61.2041862, 36.214178], [61.2039931, 36.2145334], [61.2038977, 36.2150098], [61.2038475, 36.2161592], [61.2037739, 36.216471], [61.2036053, 36.2167845], [61.2033636, 36.2170096], [61.2027731, 36.2174882], [61.2025267, 36.2176848], [61.2022048, 36.2181868], [61.2020115, 36.2183042], [61.2017328, 36.2184118], [61.2013895, 36.2184811], [61.2000805, 36.2185503], [61.1994368, 36.2186888], [61.1986, 36.2191562], [61.1977846, 36.2199525], [61.1975056, 36.2205584], [61.1971838, 36.2208873], [61.1967975, 36.2209912], [61.1963254, 36.2211816], [61.195789, 36.2217875], [61.1951238, 36.2221683], [61.1943728, 36.2224799], [61.1937505, 36.2229646], [61.1930853, 36.2239686], [61.1929566, 36.2242109], [61.1929995, 36.2245571], [61.1932141, 36.2248687], [61.1932141, 36.2251457], [61.1930424, 36.2255784], [61.1926991, 36.2259073], [61.1920232, 36.2265391], [61.1916906, 36.2269978], [61.1911971, 36.228573], [61.1911971, 36.2289884], [61.1912829, 36.2294038], [61.192227, 36.2305116], [61.1923558, 36.2309097], [61.1923558, 36.2314636], [61.1922485, 36.231879], [61.1918837, 36.2323117], [61.1911327, 36.233229], [61.1905533, 36.2341809], [61.1903388, 36.2353579], [61.1903388, 36.2358425], [61.1907035, 36.2372098], [61.1906821, 36.2376425], [61.190489, 36.2378848], [61.1901242, 36.2381963], [61.1893088, 36.2384386], [61.1888153, 36.238629], [61.1885363, 36.2388539], [61.1883646, 36.2392347], [61.1883646, 36.2398058], [61.188193, 36.2407404], [61.1881501, 36.2414846], [61.1879999, 36.241848], [61.1879999, 36.242073], [61.1880642, 36.2424537], [61.1878926, 36.2430421], [61.1878926, 36.2432671], [61.1884076, 36.2436651], [61.1890981, 36.2444313], [61.1895272, 36.2447428], [61.1902997, 36.2450197], [61.1905786, 36.2452446], [61.1907288, 36.2457292], [61.1906001, 36.2463349], [61.1905357, 36.2467675], [61.1902782, 36.2470098], [61.1897632, 36.247304], [61.1891195, 36.2478923], [61.1887118, 36.2484807], [61.1885831, 36.2489652], [61.1882398, 36.2499862], [61.1882612, 36.250315], [61.1882398, 36.2506611], [61.188111, 36.2509552], [61.1876175, 36.2513532], [61.1874458, 36.2517166], [61.1873814, 36.2520281], [61.1875102, 36.2527375], [61.1874673, 36.2533259], [61.1875102, 36.2544852], [61.1874887, 36.2548659], [61.1873385, 36.2550908], [61.1869523, 36.2553504], [61.186609, 36.2557137], [61.1863944, 36.2561982], [61.1863515, 36.2569942], [61.1862871, 36.2573575], [61.1861584, 36.2576517], [61.185815, 36.2578766], [61.1846134, 36.2583265], [61.1842486, 36.2586206], [61.1840341, 36.2589494], [61.1838409, 36.2595896], [61.1838195, 36.2598664], [61.1836907, 36.2601086], [61.1831757, 36.2604028], [61.1829397, 36.2606623], [61.1828539, 36.2609737], [61.1827037, 36.2619599], [61.1827251, 36.2631365], [61.1825749, 36.2634133], [61.1822316, 36.2636901], [61.1820599, 36.2639323], [61.1812446, 36.2647974], [61.1811587, 36.2650915], [61.1813304, 36.2655932], [61.1813733, 36.2658527], [61.1812231, 36.2661642], [61.1801931, 36.2671157], [61.1799142, 36.2673752], [61.1793348, 36.2683094], [61.1786696, 36.269728], [61.1782834, 36.2704892], [61.1774251, 36.2711985], [61.1766741, 36.2722365], [61.176481, 36.2727555], [61.1762235, 36.2730669], [61.1751935, 36.2738281], [61.1748073, 36.2742951], [61.1744425, 36.2750736], [61.1742064, 36.2753677], [61.1733267, 36.2761288], [61.1731121, 36.2767343], [61.1730263, 36.277184], [61.1731336, 36.2777549], [61.1733696, 36.2782219], [61.1738631, 36.2787409], [61.1740289, 36.2789982], [61.1740289, 36.2793614], [61.1739431, 36.2798112], [61.1739646, 36.2804166], [61.1737285, 36.2811258], [61.1737285, 36.2817312], [61.1733852, 36.2824058], [61.1731492, 36.2827345], [61.1726771, 36.2831669], [61.1725269, 36.2834955], [61.1724411, 36.2838242], [61.1725055, 36.284395], [61.1721621, 36.2855884], [61.1721836, 36.2861246], [61.1720548, 36.2866435], [61.1717544, 36.2870586], [61.1712394, 36.2874564], [61.1702524, 36.288131], [61.169716, 36.2887363], [61.1696087, 36.2892379], [61.1696516, 36.2897222], [61.1698876, 36.2901892], [61.1699305, 36.2904486], [61.1698876, 36.2909675], [61.169716, 36.2913653], [61.1694155, 36.2915209], [61.1687718, 36.2916247], [61.1671839, 36.2912442], [61.1667763, 36.2912961], [61.1644803, 36.2920571], [61.1636434, 36.2924895], [61.1632787, 36.2928526], [61.1619483, 36.2943919], [61.1612616, 36.2947897], [61.1604248, 36.2951183], [61.1596094, 36.2953085], [61.1590515, 36.2953777], [61.1585794, 36.2956544], [61.1583434, 36.2958273], [61.1574636, 36.2960348], [61.1567126, 36.2964845], [61.156498, 36.296692], [61.1563907, 36.2971244], [61.1565624, 36.298456], [61.1566911, 36.299044], [61.1569272, 36.2994417], [61.1576567, 36.3001681], [61.1593519, 36.3014132], [61.1597811, 36.3020184], [61.1611329, 36.30335], [61.1614333, 36.303886], [61.1615406, 36.3044048], [61.1614679, 36.3048336], [61.1612646, 36.3052227], [61.1604133, 36.3062671], [61.1603879, 36.306564], [61.1604387, 36.3067893], [61.1605531, 36.3071886], [61.1606674, 36.3081511], [61.1607818, 36.3085914], [61.1611375, 36.3094719], [61.1613154, 36.3100146], [61.1613154, 36.3103729], [61.1612011, 36.3109053], [61.1609724, 36.3113251], [61.1606253, 36.311627], [61.1596597, 36.3122516], [61.1580842, 36.3131014], [61.1576694, 36.3132173], [61.1571312, 36.3133676], [61.1564451, 36.313644], [61.1555557, 36.3141764], [61.1551237, 36.3143402], [61.1547171, 36.3144631], [61.153942, 36.3145654], [61.1531984, 36.3147279], [61.1520874, 36.3151272], [61.1512641, 36.3155577], [61.1503204, 36.3161328], [61.1497802, 36.3166284], [61.1495607, 36.3169049], [61.1493831, 36.3172169], [61.149279, 36.317514], [61.1492409, 36.3179337], [61.1493157, 36.3182352], [61.1494837, 36.3185206], [61.149698, 36.3187679], [61.1502155, 36.3191189], [61.1517185, 36.3197765], [61.1526079, 36.3202678], [61.1538785, 36.3212199], [61.1541842, 36.3213978], [61.1545267, 36.3215461], [61.1548485, 36.321632], [61.1552255, 36.3216587], [61.1560768, 36.3216792], [61.1564819, 36.3216207], [61.1569789, 36.3214437], [61.158097, 36.3209319], [61.1594368, 36.3199809], [61.1598454, 36.3199081], [61.1601155, 36.3199228], [61.160257, 36.3200412], [61.1604603, 36.3202357], [61.1609431, 36.3204712], [61.1611464, 36.3206964], [61.1611973, 36.3209728], [61.161121, 36.3213721], [61.1606382, 36.322406], [61.160562, 36.3228155], [61.1605747, 36.3231124], [61.1607271, 36.3236652], [61.1607907, 36.3240132], [61.160689, 36.3244636], [61.160041, 36.3266543], [61.1599648, 36.3271354], [61.1599902, 36.327422], [61.1602951, 36.3281897], [61.1604095, 36.3289882], [61.1603968, 36.3305031], [61.160346, 36.3309433], [61.1602189, 36.3312299], [61.159914, 36.3315267], [61.1595201, 36.3317724], [61.1590246, 36.3319054], [61.1585671, 36.3319976], [61.1571568, 36.332059], [61.1547808, 36.3322535], [61.1541963, 36.3324786], [61.1539854, 36.3326123], [61.1529465, 36.3330421], [61.1525113, 36.3333588], [61.1522585, 36.3337094], [61.1520901, 36.3339243], [61.1518093, 36.3341731], [61.1513881, 36.3344332], [61.1510371, 36.3348178], [61.1492962, 36.3370118], [61.1488891, 36.3374868], [61.1481169, 36.3384481], [61.1478782, 36.3390475], [61.1478221, 36.3394207], [61.1478782, 36.3399522], [61.1479765, 36.3403254], [61.1483134, 36.3412754], [61.1484117, 36.3418408], [61.1483939, 36.3425993], [61.1481272, 36.3437641], [61.1481412, 36.3440694], [61.1482114, 36.3443295], [61.1484501, 36.3445105], [61.1485343, 36.3446236], [61.1485905, 36.3449176], [61.1488292, 36.3453812], [61.1495873, 36.3461162], [61.1500927, 36.346512], [61.1504016, 36.3469078], [61.1506824, 36.3473601], [61.150907, 36.3476202], [61.1512299, 36.3479029], [61.1514826, 36.3485022], [61.1517634, 36.3488188], [61.1521284, 36.3492825], [61.1522267, 36.3497235], [61.1521986, 36.3500288], [61.1517915, 36.3506281], [61.1517213, 36.350956], [61.1517213, 36.3511369], [61.1524794, 36.3519737], [61.1528585, 36.3522903], [61.1529989, 36.3526408], [61.1532095, 36.3529122], [61.153757, 36.3533757], [61.1551469, 36.3540655], [61.1556383, 36.3544273], [61.1562841, 36.3551622], [61.1564105, 36.3554223], [61.1563965, 36.3559085], [61.1563965, 36.3564625], [61.1564947, 36.3569939], [61.1565509, 36.3576271], [61.1565509, 36.3581133], [61.1564386, 36.3584072], [61.1561157, 36.3587351], [61.1557787, 36.3590291], [61.1554418, 36.3595379], [61.1553575, 36.3598771], [61.1551048, 36.3607702], [61.15481, 36.3616521], [61.1545011, 36.3623757], [61.1539957, 36.3632462], [61.1539676, 36.3635515], [61.154094, 36.3639246], [61.154094, 36.3642863], [61.1540378, 36.364682], [61.1537711, 36.3656091], [61.1535745, 36.3663439], [61.1535043, 36.3672822], [61.1535745, 36.3675196], [61.1538272, 36.3677683], [61.1545994, 36.3680284], [61.1547679, 36.368164], [61.1548381, 36.3683675], [61.1548381, 36.3685258], [61.1552171, 36.369611], [61.1552171, 36.3699163], [61.1550196, 36.3706553], [61.1547107, 36.3710736], [61.1543878, 36.3713223], [61.1541211, 36.3715031], [61.1535735, 36.3716614], [61.1529137, 36.371797], [61.1514676, 36.3720005], [61.1508779, 36.3721701], [61.1503304, 36.3723962], [61.149488, 36.3728597], [61.1490809, 36.3731875], [61.1485614, 36.3738431], [61.1483087, 36.3741596], [61.1478875, 36.3746796], [61.1475225, 36.3750413], [61.1472698, 36.3756065], [61.1472698, 36.3759683], [61.1473821, 36.3763413], [61.1474944, 36.3764317], [61.1477331, 36.3765448], [61.1478875, 36.3767482], [61.1478875, 36.376963], [61.1479998, 36.3774943], [61.1481543, 36.3783194], [61.1482104, 36.3792463], [61.1481122, 36.3797323], [61.1479296, 36.3802975], [61.1474663, 36.3809757], [61.1471434, 36.3813035], [61.1466661, 36.3815182], [61.1464555, 36.3816991], [61.1458237, 36.3825129], [61.1454446, 36.3831006], [61.1449954, 36.3840614], [61.1440828, 36.3856211], [61.1439143, 36.3863897], [61.1439284, 36.3871243], [61.1440547, 36.3876103], [61.1442934, 36.3881189], [61.1444759, 36.3891022], [61.1444478, 36.3897577], [61.1442513, 36.3900515], [61.1440547, 36.3902098], [61.1435072, 36.3905488], [61.1432124, 36.390854], [61.1430018, 36.3912721], [61.1427771, 36.3918259], [61.1425525, 36.3921084], [61.1422577, 36.3923571], [61.1419348, 36.3927978], [61.1414995, 36.3934533], [61.1413451, 36.3935663], [61.1410924, 36.3936228], [61.1405589, 36.3935663], [61.1404185, 36.3936115], [61.1403343, 36.3937358], [61.1404045, 36.3939506], [61.1411064, 36.3949903], [61.1418646, 36.3966063], [61.1421454, 36.3970583], [61.1434472, 36.3983579], [61.1445704, 36.3991941], [61.1450617, 36.3995218], [61.1462691, 36.4006067], [61.146578, 36.4008666], [61.14728, 36.401296], [61.1483049, 36.4016124], [61.1489366, 36.4017819], [61.1508179, 36.4026294], [61.1511268, 36.402765], [61.1526431, 36.4029797], [61.1531625, 36.4030701], [61.1537522, 36.4032961], [61.1546928, 36.4038385], [61.1557177, 36.4045842], [61.1566443, 36.4055899], [61.1570655, 36.4062679], [61.1579079, 36.4069119], [61.158315, 36.4071944], [61.1589889, 36.408087], [61.1593259, 36.4087085], [61.1595084, 36.4090927], [61.1596207, 36.4093525], [61.1606175, 36.4102339], [61.1614459, 36.4107762], [61.163285, 36.4118835], [61.1651242, 36.4127309], [61.1662474, 36.4132054], [61.1663878, 36.4133749], [61.1669915, 36.4145951], [61.1673565, 36.4155893], [61.1674829, 36.4163463], [61.1674407, 36.4173857], [61.1673565, 36.4178263], [61.167174, 36.4182217], [61.1669774, 36.4186058], [61.1665703, 36.4192272], [61.1663737, 36.4196791], [61.1660929, 36.4206507], [61.16577, 36.4216335], [61.1655454, 36.4222775], [61.1653067, 36.4227181], [61.1648294, 36.4232716], [61.1632289, 36.4249887], [61.1629481, 36.4254632], [61.1627515, 36.4259715], [61.1625269, 36.4268753], [61.162204, 36.4281066], [61.1618951, 36.4287843], [61.1617968, 36.4291458], [61.1617968, 36.4294847], [61.1618138, 36.430086], [61.1617997, 36.4308654], [61.1619121, 36.4329777], [61.1620665, 36.4337006], [61.1625579, 36.4348302], [61.1630633, 36.4357564], [61.1642426, 36.4373377], [61.1645936, 36.4379024], [61.1648744, 36.438806], [61.1649165, 36.4392804], [61.1648884, 36.4397322], [61.1646076, 36.4403759], [61.1643128, 36.44076], [61.164032, 36.4409858], [61.1634704, 36.4413134], [61.1617015, 36.4423863], [61.1609433, 36.4431092], [61.1605502, 36.443832], [61.1604519, 36.4443515], [61.1604941, 36.4446677], [61.1605502, 36.4451646], [61.1604519, 36.4456842], [61.1602133, 36.4461133], [61.1598763, 36.447796], [61.1598061, 36.4487221], [61.1599044, 36.4489367], [61.1599044, 36.4492529], [61.15975, 36.4495465], [61.1596938, 36.4498175], [61.1595675, 36.4502692], [61.1594271, 36.4504499], [61.1588795, 36.4508226], [61.158711, 36.4510485], [61.1584864, 36.4520761], [61.1585707, 36.4523358], [61.1587672, 36.4526182], [61.1589216, 36.453499], [61.1588795, 36.4541652], [61.1589638, 36.4544814], [61.1591182, 36.4548315], [61.1593709, 36.4551251], [61.1599184, 36.4554074], [61.1613364, 36.455972], [61.1634283, 36.456706], [61.1642988, 36.4570561], [61.1674296, 36.4577336], [61.1687212, 36.4578465], [61.1704762, 36.4578013], [61.1710377, 36.4578917], [61.1716836, 36.4581288], [61.1720626, 36.4583885], [61.1724557, 36.4587047], [61.1727646, 36.459066], [61.1741124, 36.4603081], [61.1742809, 36.4605226], [61.1744353, 36.4609743], [61.1747863, 36.4627019], [61.1747863, 36.4630406], [61.1747021, 36.4633342], [61.1738597, 36.4646778], [61.1736351, 36.4652423], [61.1735508, 36.4657165], [61.1735087, 36.4661682], [61.1734378, 36.4666324], [61.1734037, 36.4668555], [61.1733756, 36.4672281], [61.1732072, 36.4676684], [61.1729123, 36.4682216], [61.1724069, 36.4689217], [61.1713961, 36.4703442], [61.1711995, 36.4707055], [61.1710872, 36.4711797], [61.1709187, 36.4715748], [61.1696692, 36.4730877], [61.1691076, 36.4738441], [61.1687286, 36.4744311], [61.1684337, 36.4747134], [61.1678862, 36.4750633], [61.1677177, 36.4751762], [61.1675633, 36.4754472], [61.167451, 36.4758649], [61.1674229, 36.4764971], [61.1675633, 36.4779646], [61.1677739, 36.4792629], [61.1677037, 36.4794999], [61.1675212, 36.4797596], [61.1673246, 36.4800418], [61.1669596, 36.480911], [61.1666928, 36.4812835], [61.1664261, 36.4814754], [61.1658083, 36.4817577], [61.164278, 36.4821527], [61.1636182, 36.4822318], [61.1628179, 36.4821753], [61.1609366, 36.4821527], [61.1604733, 36.4821979], [61.1600521, 36.4823785], [61.1597152, 36.4826043], [61.1593642, 36.482751], [61.1591396, 36.4829091], [61.1587605, 36.4833606], [61.1586341, 36.4836541], [61.1582551, 36.4840717], [61.1575952, 36.4846249], [61.1572302, 36.485099], [61.1570336, 36.4857311], [61.1569211, 36.4865636], [61.1569211, 36.486812], [61.1569772, 36.4870603], [61.1572299, 36.4875344], [61.1578758, 36.4887083], [61.1587322, 36.4906948], [61.1590551, 36.4912931], [61.1605994, 36.4935843], [61.1607258, 36.4938326], [61.160796, 36.4940696], [61.1609785, 36.4946678], [61.1614278, 36.4957739], [61.1620174, 36.497591], [61.1620455, 36.4977828], [61.1620034, 36.4980198], [61.1619753, 36.4983471], [61.1620034, 36.4988776], [61.161863, 36.4994419], [61.1617928, 36.5000964], [61.1618349, 36.500672], [61.1619191, 36.501146], [61.1621438, 36.5015523], [61.1621578, 36.5017329], [61.1620876, 36.5020601], [61.161863, 36.5023874], [61.1613856, 36.5026583], [61.1612312, 36.5027034], [61.1603467, 36.5033128], [61.1598694, 36.5036062], [61.1593647, 36.5037837], [61.1590839, 36.5038739], [61.158747, 36.5040884], [61.1581292, 36.5045623], [61.1576098, 36.5051604], [61.1568657, 36.5059955], [61.1567253, 36.5062664], [61.1566972, 36.5065146], [61.1567674, 36.5067968], [61.1571465, 36.5078688], [61.1575536, 36.5083089], [61.1578484, 36.5085233], [61.1581713, 36.5086474], [61.1587189, 36.5086587], [61.1591681, 36.508591], [61.1599403, 36.5086361], [61.1606563, 36.508828], [61.16126, 36.508986], [61.1619339, 36.5093471], [61.1624815, 36.5097646], [61.1628044, 36.5101257], [61.1631694, 36.510656], [61.1633519, 36.51113], [61.1636327, 36.5121343], [61.1640118, 36.5132062], [61.1642645, 36.5140864], [61.1643206, 36.5145941], [61.164447, 36.5154517], [61.1645593, 36.5156548], [61.1653034, 36.5166252], [61.1656544, 36.5171442], [61.1667916, 36.5189382], [61.1671508, 36.51933], [61.1674597, 36.5196347], [61.1677966, 36.5198942], [61.1699728, 36.5214625], [61.1705624, 36.5217558], [61.1709836, 36.5220266], [61.1721208, 36.5223764], [61.1728087, 36.5226133], [61.1733984, 36.5226359], [61.1754482, 36.5229631], [61.1777647, 36.5234482], [61.1792669, 36.5238318], [61.1798425, 36.5240349], [61.1806147, 36.5244185], [61.1813058, 36.5248746], [61.1816287, 36.5251002], [61.1819235, 36.525371], [61.1825974, 36.5259915], [61.1831881, 36.5267233], [61.1833846, 36.5270956], [61.1835952, 36.5275808], [61.1835952, 36.5280659], [61.1835391, 36.5283705], [61.1833706, 36.5287653], [61.182809, 36.5294197], [61.1824018, 36.5299048], [61.1816297, 36.5308975], [61.1813208, 36.5312247], [61.1810962, 36.5313601], [61.1806329, 36.531518], [61.1801976, 36.5316534], [61.1797624, 36.5318677], [61.1790885, 36.5323641], [61.1779373, 36.5333342], [61.1771791, 36.5340675], [61.1766176, 36.534812], [61.1763368, 36.5353986], [61.1761262, 36.5359739], [61.1760279, 36.5366846], [61.1758594, 36.5371471], [61.1757892, 36.5376434], [61.1758735, 36.5379818], [61.176056, 36.5382413], [61.1768013, 36.539244], [61.1775314, 36.5401464], [61.1778543, 36.5407329], [61.1786545, 36.5416691], [61.1798339, 36.542876], [61.1808728, 36.5438686], [61.1819258, 36.5446131], [61.18413, 36.5463613], [61.1847056, 36.5468125], [61.185562, 36.5480081], [61.1857585, 36.5483239], [61.1858849, 36.5490683], [61.1858989, 36.5494517], [61.1858007, 36.5497675], [61.1856603, 36.549948], [61.1854637, 36.5500044], [61.1852812, 36.550151], [61.1851689, 36.550354], [61.1851408, 36.5505796], [61.1848881, 36.5511886], [61.1845371, 36.551933], [61.1842844, 36.5525758], [61.184158, 36.5527675], [61.1835684, 36.5532525], [61.1833718, 36.5535119], [61.1829506, 36.5538164], [61.1825856, 36.5540758], [61.1819538, 36.5548652], [61.1817994, 36.5552374], [61.1817994, 36.5556321], [61.1818556, 36.5562524], [61.1820662, 36.5570644], [61.1825718, 36.5583315], [61.1832598, 36.5598878], [61.183695, 36.5608125], [61.1841723, 36.5613312], [61.1843548, 36.5616921], [61.1845654, 36.5623687], [61.1849164, 36.5639136], [61.1849585, 36.5641616], [61.1852955, 36.5645676], [61.1856605, 36.5652442], [61.185843, 36.5657741], [61.185829, 36.5661237], [61.1857588, 36.5666311], [61.1853236, 36.5678151], [61.1848883, 36.5686157], [61.1844391, 36.569202], [61.183709, 36.5698335], [61.1827543, 36.5707242], [61.1818558, 36.5717954], [61.1813644, 36.5724381], [61.1800026, 36.5744563], [61.1793781, 36.5756603], [61.1789148, 36.5767652], [61.1788165, 36.5772049], [61.1788305, 36.5775544], [61.1790131, 36.5781858], [61.1790131, 36.5784338], [61.1785497, 36.5800911], [61.1784374, 36.5803391], [61.1782549, 36.5805646], [61.1778618, 36.5807901], [61.1776933, 36.5809479], [61.1776231, 36.5811847], [61.177567, 36.5815229], [61.1774547, 36.582064], [61.1769914, 36.5839918], [61.1769352, 36.5843864], [61.1769071, 36.5846795], [61.1767948, 36.584905], [61.1766404, 36.5855814], [61.1763596, 36.5865283], [61.1762192, 36.5874866], [61.1762052, 36.5878924], [61.1762473, 36.5881066], [61.1764579, 36.5884448], [61.1771177, 36.5894255], [61.1773002, 36.5897073], [61.1773424, 36.5899553], [61.1773424, 36.5901131], [61.177216, 36.5904851], [61.1770054, 36.5907331], [61.1765842, 36.5911727], [61.1764298, 36.5914658], [61.1764017, 36.5916462], [61.1763455, 36.5919618], [61.1762718, 36.5920569], [61.1759208, 36.5922372], [61.1751767, 36.5928797], [61.174924, 36.5930263], [61.1744326, 36.5931841], [61.1741939, 36.5932855], [61.1738008, 36.5936237], [61.172088, 36.5949989], [61.1719897, 36.5952243], [61.1716388, 36.5957541], [61.171021, 36.5968587], [61.1709087, 36.5971292], [61.1709368, 36.5975012], [61.1709368, 36.5979295], [61.1708385, 36.5983466], [61.1708666, 36.5987411], [61.1711053, 36.599237], [61.1712737, 36.5994399], [61.171386, 36.6003416], [61.1714843, 36.6006346], [61.1716528, 36.6008037], [61.1722565, 36.6010967], [61.172453, 36.6012658], [61.1725654, 36.601525], [61.1734077, 36.6027085], [61.1735341, 36.6032269], [61.1736043, 36.6034862], [61.1736324, 36.6037679], [61.173857, 36.6042187], [61.1739412, 36.604523], [61.1739553, 36.6053232], [61.1739132, 36.6055825], [61.1737868, 36.6058191], [61.1731691, 36.6061009], [61.1724671, 36.60627], [61.1721161, 36.6062812], [61.1718072, 36.6062023], [61.1705016, 36.6054923], [61.1702208, 36.605481], [61.1699961, 36.6055261], [61.1697013, 36.6057177], [61.1695609, 36.6058755], [61.1694486, 36.6061009], [61.1694345, 36.6064277], [61.1695188, 36.6068898], [61.169603, 36.6074308], [61.1695328, 36.6081408], [61.169603, 36.6085803], [61.169603, 36.6088283], [61.1693363, 36.6092565], [61.1689291, 36.609651], [61.1684398, 36.6098469], [61.1681169, 36.6098807], [61.1673447, 36.6098357], [61.1671902, 36.6098695], [61.1670358, 36.6099822], [61.1667691, 36.6102414], [61.1665865, 36.6105795], [61.1661934, 36.6115486], [61.1657985, 36.612317], [61.1655037, 36.6128354], [61.1654476, 36.6131172], [61.1654897, 36.6133876], [61.1655318, 36.6137257], [61.1652931, 36.6144807], [61.1651387, 36.6148301], [61.164886, 36.6151005], [61.1645069, 36.6153372], [61.1640576, 36.6155062], [61.1633697, 36.6156076], [61.1630468, 36.6156076], [61.1625273, 36.615664], [61.1610532, 36.6155513], [61.160646, 36.6155964], [61.1603091, 36.6157203], [61.1592983, 36.6163514], [61.1589332, 36.6165317], [61.1584418, 36.6166556], [61.1580487, 36.6167683], [61.1576135, 36.6170388], [61.1571221, 36.617512], [61.1568694, 36.6176247], [61.1565465, 36.6177036], [61.1559568, 36.6176698], [61.1555216, 36.6177374], [61.1551987, 36.6178501], [61.154595, 36.6182107], [61.1535842, 36.6192249], [61.1534578, 36.6194615], [61.1534578, 36.6199122], [61.153514, 36.6202277], [61.1537246, 36.6206897], [61.1538228, 36.6210616], [61.1536965, 36.6215461], [61.1536263, 36.6218278], [61.1533174, 36.6223349], [61.1529524, 36.6228419], [61.1526154, 36.6235856], [61.1524329, 36.6242617], [61.1520679, 36.6250955], [61.1519837, 36.6253433], [61.1519837, 36.6256025], [61.15211, 36.6259518], [61.1522925, 36.6263574], [61.1525312, 36.6266616], [61.1529664, 36.627056], [61.1530787, 36.6271686], [61.1531068, 36.6273264], [61.1531068, 36.6274841], [61.1530507, 36.6277095], [61.1529103, 36.6279573], [61.1525611, 36.6286053], [61.1522522, 36.6288757], [61.1519574, 36.6290334], [61.151466, 36.6293038], [61.1512133, 36.6294165], [61.1502165, 36.6295404], [61.1497532, 36.6296531], [61.1490091, 36.6301263], [61.1482369, 36.6305995], [61.1474788, 36.6311853], [61.1470716, 36.6315459], [61.1467347, 36.6319515], [61.146496, 36.6324923], [61.1463275, 36.632988], [61.1462714, 36.6334386], [61.1462012, 36.6336865], [61.1460608, 36.6342498], [61.1459344, 36.6344639], [61.1457519, 36.6346441], [61.1454571, 36.63523], [61.1454009, 36.6355003], [61.1453027, 36.6362101], [61.1452044, 36.6369536], [61.1451201, 36.6371339], [61.144713, 36.6376296], [61.1441655, 36.6385534], [61.1438847, 36.6389815], [61.143646, 36.639218], [61.1434354, 36.6395222], [61.1433652, 36.6397475], [61.1434055, 36.6401656], [61.143524, 36.6407426], [61.143705, 36.6412655], [61.1440107, 36.6418158], [61.1440606, 36.6423081], [61.1442821, 36.6430218], [61.1444193, 36.6435552], [61.1444528, 36.6440585], [61.1446662, 36.6449297], [61.1448795, 36.6453278], [61.1450308, 36.6458838], [61.1454174, 36.6464182], [61.1387816, 36.6457884], [61.1288645, 36.6442951], [61.1012954, 36.6438284], [61.076954, 36.6426837], [61.0625952, 36.6419809], [61.0370811, 36.6407337], [61.0159768, 36.6397418], [61.0071691, 36.6392999], [60.9968859, 36.6389012], [60.979364, 36.6380015], [60.9528391, 36.6368252], [60.928845, 36.6356881], [60.9044014, 36.6345934], [60.8804153, 36.6333557], [60.9814781, 36.8303395], [60.9719694, 36.8303105], [60.8529048, 36.8665688], [60.7585453, 36.9976316], [60.7761191, 37.0197014], [60.7833637, 37.0704496], [60.7349975, 37.1228464], [60.7348792, 37.1229653], [60.7347608, 37.1231296], [60.7347206, 37.1234354], [60.7349005, 37.123879], [60.735078, 37.1240791], [60.7351751, 37.1243075], [60.7353692, 37.1244774], [60.735587, 37.1247548], [60.7357693, 37.1249002], [60.735954, 37.125138], [60.7364819, 37.1255741], [60.7369389, 37.1259195], [60.7371827, 37.1261271], [60.7374171, 37.1264744], [60.737687, 37.1267595], [60.7378125, 37.127003], [60.7380752, 37.1274711], [60.7382102, 37.1277807], [60.7383025, 37.1280185], [60.7384777, 37.1283715], [60.7387263, 37.1287584], [60.7389006, 37.1289743], [60.7391417, 37.1290878], [60.7392505, 37.1292119], [60.7393241, 37.129344], [60.7393626, 37.129635], [60.7394765, 37.1300661], [60.7395908, 37.1302491], [60.7396863, 37.1303131], [60.7397281, 37.1303892], [60.7397264, 37.1305093], [60.7396829, 37.1306148], [60.7396829, 37.1308016], [60.7396461, 37.1309991], [60.7397064, 37.1311913], [60.7397649, 37.1313542], [60.7397097, 37.1315116], [60.7395875, 37.1316224], [60.7394937, 37.1316411], [60.7392477, 37.131581], [60.7390016, 37.1316184], [60.7383738, 37.1316371], [60.7378465, 37.1317519], [60.7373192, 37.1317706], [60.7368906, 37.1316891], [60.7361875, 37.1316064], [60.7355497, 37.1315904], [60.7351312, 37.1316611], [60.7345268, 37.1316264], [60.734115, 37.1314823], [60.7338489, 37.1314583], [60.733345, 37.1314996], [60.7328126, 37.1314462], [60.7322886, 37.1314369], [60.7319019, 37.131489], [60.7315002, 37.1314916], [60.7313681, 37.1316147], [60.7311254, 37.1317908], [60.7309998, 37.1318923], [60.7308743, 37.1319203], [60.730727, 37.131947], [60.7306299, 37.1320725], [60.7305696, 37.1322246], [60.730573, 37.1323661], [60.7306583, 37.1324742], [60.7306737, 37.1327743], [60.730749, 37.1330879], [60.7309616, 37.1333762], [60.7312211, 37.1336992], [60.7313801, 37.1339754], [60.7316212, 37.1341409], [60.7320581, 37.1343278], [60.7326524, 37.1345026], [60.7330843, 37.134624], [60.7337673, 37.1349203], [60.7341758, 37.1349764], [60.7348253, 37.1350524], [60.7351267, 37.1351552], [60.7358365, 37.1354208], [60.7363549, 37.1356869], [60.7369326, 37.1358851], [60.7375055, 37.1361531], [60.7379553, 37.1364267], [60.7382655, 37.136506], [60.7385709, 37.1367514], [60.7387413, 37.137093], [60.7388384, 37.1373553], [60.7388313, 37.1374723], [60.7386253, 37.1377101], [60.7383507, 37.1381706], [60.7379435, 37.1385424], [60.7374298, 37.138818], [60.7367645, 37.1390275], [60.7363194, 37.1390897], [60.7358885, 37.139269], [60.735389, 37.1393917], [60.735022, 37.1393162], [60.7346314, 37.1394011], [60.7341934, 37.13932], [60.733772, 37.1393955], [60.7333719, 37.1396672], [60.7332938, 37.1398956], [60.7333506, 37.1401825], [60.7333743, 37.1405448], [60.7334737, 37.1406694], [60.7334406, 37.1411374], [60.7336229, 37.1416337], [60.7336347, 37.1418508], [60.7334808, 37.1421433], [60.733121, 37.1423811], [60.7330428, 37.1425321], [60.7330476, 37.1432284], [60.732986, 37.1433115], [60.7328534, 37.1433624], [60.7323658, 37.1433681], [60.7320242, 37.1432831], [60.7316559, 37.1431896], [60.7312491, 37.1429494], [60.7308809, 37.1428133], [60.7303334, 37.1427613], [60.7300505, 37.1426812], [60.7297559, 37.1424317], [60.729632, 37.1422182], [60.729632, 37.1421208], [60.7297375, 37.1419112], [60.7296538, 37.1414388], [60.7294546, 37.1408557], [60.729329, 37.1405034], [60.7292202, 37.1397748], [60.7290494, 37.1392636], [60.7289205, 37.1390221], [60.7288117, 37.1384696], [60.728641, 37.1378851], [60.7285556, 37.1375541], [60.7284903, 37.1375128], [60.7282794, 37.1374887], [60.7280065, 37.1374007], [60.7274792, 37.1373166], [60.7270473, 37.1373553], [60.7266556, 37.1375541], [60.7264798, 37.1376649], [60.7261132, 37.137797], [60.7258487, 37.1380092], [60.725405, 37.1381707], [60.725169, 37.1383068], [60.7246383, 37.1384736], [60.7242684, 37.1385564], [60.7239754, 37.1386511], [60.7236205, 37.1387018], [60.7229459, 37.1387165], [60.7226127, 37.1387992], [60.7220302, 37.1390341], [60.7216468, 37.1392023], [60.7214493, 37.1393557], [60.7213053, 37.1395399], [60.7212266, 37.139692], [60.7212316, 37.1397854], [60.7213271, 37.1398815], [60.7215095, 37.1399616], [60.7216635, 37.140051], [60.7217841, 37.1400857], [60.7218259, 37.1402018], [60.7220854, 37.1404006], [60.7222947, 37.1405341], [60.7223248, 37.1405968], [60.7222963, 37.1407009], [60.7224018, 37.141248], [60.7225039, 37.1414469], [60.7228638, 37.1415896], [60.7230764, 37.1418459], [60.7232489, 37.1420327], [60.7234481, 37.1421928], [60.7238934, 37.1424757], [60.7241261, 37.1425958], [60.7244358, 37.1428574], [60.7246383, 37.1430188], [60.7247756, 37.143227], [60.7249162, 37.1435032], [60.7249229, 37.1436874], [60.7248576, 37.1438622], [60.7248057, 37.1442492], [60.7247639, 37.14438], [60.7246969, 37.1444507], [60.7245312, 37.144807], [60.7244224, 37.144899], [60.7243336, 37.1449137], [60.7242165, 37.1448897], [60.7239453, 37.1447683], [60.7235502, 37.1447536], [60.7228555, 37.1447096], [60.7222511, 37.1446602], [60.7217874, 37.1446775], [60.7215095, 37.1446989], [60.7211898, 37.1445588], [60.7207579, 37.144464], [60.7205051, 37.1443626], [60.7201016, 37.1442732], [60.7194956, 37.144061], [60.7188377, 37.1438168], [60.7187557, 37.1438275], [60.7186436, 37.1439356], [60.7183958, 37.1442038], [60.7182753, 37.1443533], [60.7182384, 37.1445801], [60.718287, 37.1448337], [60.7182133, 37.1451099], [60.7182133, 37.1452954], [60.7183472, 37.1455169], [60.7183405, 37.1458812], [60.7182987, 37.1460746], [60.7181079, 37.1461801], [60.7179555, 37.1463549], [60.7177329, 37.1466297], [60.7175136, 37.1468966], [60.717306, 37.1470594], [60.7171721, 37.1471048], [60.7170432, 37.1471008], [60.7169327, 37.1470127], [60.7166464, 37.146962], [60.7162112, 37.146974], [60.7158429, 37.14693], [60.7156554, 37.147022], [60.7154428, 37.1471822], [60.7152804, 37.1474037], [60.7151833, 37.1476278], [60.7150644, 37.1478654], [60.7149724, 37.1479721], [60.7148351, 37.1483404], [60.7148351, 37.1486219], [60.7147731, 37.1489835], [60.7147514, 37.1491757], [60.7147648, 37.1493024], [60.7148317, 37.1494119], [60.7149289, 37.1495114], [60.7150545, 37.1495235], [60.7154646, 37.1495608], [60.7159719, 37.1496169], [60.7162732, 37.1495888], [60.7167704, 37.1494207], [60.7171956, 37.1492032], [60.7174819, 37.1490898], [60.7179807, 37.1487175], [60.7184947, 37.1484266], [60.7189232, 37.1480997], [60.7193886, 37.1477114], [60.7196581, 37.1475286], [60.7199812, 37.1473712], [60.720455, 37.1472297], [60.7209204, 37.1469602], [60.7211263, 37.1468948], [60.721369, 37.1468481], [60.7214611, 37.1467066], [60.7215866, 37.1466546], [60.7218243, 37.146708], [60.7221357, 37.1466973], [60.7224555, 37.1468361], [60.7227601, 37.1469562], [60.7230046, 37.147111], [60.7231, 37.1472551], [60.7231368, 37.1474339], [60.7231335, 37.1478555], [60.7229861, 37.1482118], [60.7229091, 37.1484893], [60.7226179, 37.1491029], [60.7224522, 37.1494218], [60.722407, 37.1496687], [60.7224037, 37.1499636], [60.7224438, 37.1500459], [60.7224935, 37.1500619], [60.7226332, 37.150044], [60.72287, 37.1501516], [60.7230582, 37.1503006], [60.7233103, 37.1504365], [60.7236435, 37.1506753], [60.7238393, 37.1508595], [60.7240988, 37.1510863], [60.7243951, 37.1513131], [60.7246897, 37.1514212], [60.7249593, 37.1515747], [60.7259418, 37.1520388], [60.7264721, 37.1523521], [60.7267206, 37.1527832], [60.7267776, 37.1530834], [60.7267558, 37.1533489], [60.7265315, 37.1535891], [60.7261432, 37.1539948], [60.7258331, 37.1541835], [60.725253, 37.1543439], [60.7249821, 37.1543383], [60.7248348, 37.1542716], [60.7245753, 37.1540808], [60.7237919, 37.1538673], [60.7232733, 37.1537684], [60.722987, 37.153755], [60.7226974, 37.1538057], [60.7223308, 37.1539125], [60.7218708, 37.1541321], [60.7214322, 37.1543643], [60.7212665, 37.154413], [60.7211434, 37.1544111], [60.7209871, 37.1543469], [60.7208095, 37.1542847], [60.7207527, 37.154195], [60.7207504, 37.1541026], [60.7207752, 37.1540167], [60.7207434, 37.1536605], [60.7206707, 37.1534988], [60.7202405, 37.1533694], [60.7197667, 37.1532119], [60.7191875, 37.1530758], [60.718553, 37.1529237], [60.7177003, 37.1528462], [60.7171084, 37.1527003], [60.7168587, 37.1526786], [60.7167403, 37.152705], [60.7166598, 37.1527569], [60.7165485, 37.152873], [60.7162763, 37.1529834], [60.7160549, 37.1531428], [60.7158087, 37.1532853], [60.7156738, 37.153407], [60.7156453, 37.1536108], [60.7155447, 37.1540749], [60.7154784, 37.1543023], [60.7154477, 37.1548835], [60.7153897, 37.1553646], [60.7153257, 37.1556505], [60.7151634, 37.1563043], [60.7152203, 37.1565671], [60.7152086, 37.1567939], [60.71516, 37.1570314], [60.7151734, 37.1573916], [60.7152236, 37.1575037], [60.7153241, 37.1575691], [60.715468, 37.1577425], [60.7156371, 37.1578012], [60.7159602, 37.1577478], [60.7164775, 37.1575731], [60.716891, 37.1573449], [60.7169764, 37.1572142], [60.7169429, 37.1571088], [60.7168541, 37.156942], [60.7168709, 37.1567992], [60.7169362, 37.1566832], [60.7171404, 37.1565978], [60.7173882, 37.1565217], [60.7175824, 37.156403], [60.7179473, 37.1563269], [60.7184144, 37.1562495], [60.7188262, 37.1562549], [60.7198755, 37.1563966], [60.7202875, 37.1564646], [60.7208793, 37.1564929], [60.7213126, 37.156574], [60.7214452, 37.1566551], [60.7216298, 37.1566778], [60.7219222, 37.1568942], [60.7219672, 37.1569772], [60.7219755, 37.1570716], [60.7219115, 37.1571319], [60.7217245, 37.157165], [60.7216391, 37.1573584], [60.721527, 37.15772], [60.7214834, 37.1580962], [60.7214299, 37.1583137], [60.7212441, 37.1588407], [60.7210949, 37.1592218], [60.720915, 37.1593596], [60.7206185, 37.1595342], [60.7201364, 37.1597464], [60.7195354, 37.1600759], [60.718882, 37.1602702], [60.7185506, 37.1604474], [60.7182476, 37.1605422], [60.7180735, 37.1606636], [60.7179412, 37.1609371], [60.7178083, 37.1612885], [60.717824, 37.1614428], [60.7177197, 37.1618623], [60.7175075, 37.162417], [60.7173766, 37.1629651], [60.7172815, 37.1638487], [60.7171547, 37.164257], [60.7168571, 37.1645993], [60.7162957, 37.1647498], [60.7160602, 37.1647127], [60.7159334, 37.1646281], [60.7154469, 37.1640446], [60.7147742, 37.1632837], [60.7143576, 37.1628053], [60.7139715, 37.1626041], [60.7136367, 37.1623824], [60.7133421, 37.1623037], [60.7128971, 37.162315], [60.7126396, 37.1623418], [60.7124417, 37.1624357], [60.7121234, 37.1626934], [60.711822, 37.1629079], [60.7116978, 37.1630295], [60.7115917, 37.163277], [60.7114054, 37.1635244], [60.7114067, 37.1637007], [60.7114558, 37.1637781], [60.7116758, 37.1638307], [60.7119048, 37.1639822], [60.7120525, 37.1642173], [60.7121776, 37.1645665], [60.7125787, 37.1651129], [60.7126025, 37.1656961], [60.712747, 37.1660257], [60.7128001, 37.1662298], [60.712736, 37.1665054], [60.7126338, 37.1667497], [60.7125898, 37.1668363], [60.71252, 37.1668786], [60.7122948, 37.1668942], [60.7120039, 37.1668942], [60.7117668, 37.1668237], [60.7112907, 37.1666546], [60.7105808, 37.1664724], [60.7102651, 37.1664342], [60.7099947, 37.1664219], [60.7097773, 37.1664951], [60.7094837, 37.1666068], [60.7092422, 37.1667264], [60.7088911, 37.166858], [60.7087152, 37.1669735], [60.7086155, 37.1670364], [60.708382, 37.1670571], [60.7073211, 37.1674881], [60.7068049, 37.167706], [60.7066722, 37.1677432], [60.7065167, 37.1678838], [60.7063951, 37.1682177], [60.7062267, 37.1685997], [60.70617, 37.1689015], [60.7061609, 37.1692748], [60.7061407, 37.1693375], [60.7059157, 37.1694453], [60.7057748, 37.1695197], [60.7056284, 37.1695503], [60.7054546, 37.1695066], [60.7047301, 37.1695707], [60.7042342, 37.1697136], [60.704022, 37.1698492], [60.7036287, 37.1701292], [60.7030957, 37.1704529], [60.7027846, 37.1707124], [60.7025237, 37.1709382], [60.7022145, 37.1710918], [60.7019092, 37.1711835], [60.7016836, 37.1713507], [60.7013744, 37.1716743], [60.7012786, 37.1717661], [60.7012324, 37.1718948], [60.7009186, 37.1722534], [60.7006224, 37.1722813], [60.7005072, 37.1723421], [60.7004813, 37.1724545], [60.7003817, 37.1725648], [60.7002536, 37.1726503], [60.7002187, 37.1727431], [60.7002278, 37.1728338], [60.7002216, 37.172959], [60.6997895, 37.1738023], [60.699523, 37.1743259], [60.6994117, 37.1748228], [60.6994117, 37.1750723], [60.6995902, 37.1758743], [60.6997507, 37.1765423], [60.6998878, 37.1771113], [60.6998231, 37.1772886], [60.6997067, 37.1774474], [60.699479, 37.1775504], [60.698977, 37.1779133], [60.6984352, 37.178581], [60.6981315, 37.1790839], [60.6978497, 37.1794469], [60.6977493, 37.1797913], [60.6973586, 37.1801665], [60.6970028, 37.1804417], [60.6969537, 37.1805355], [60.6967079, 37.1807159], [60.6964853, 37.1809653], [60.6961735, 37.1813848], [60.6959588, 37.1817642], [60.6958203, 37.1819373], [60.6956017, 37.1820847], [60.6952084, 37.1822435], [60.694819, 37.1824517], [60.6943403, 37.1827888], [60.6939405, 37.1830238], [60.6936158, 37.183332], [60.6934683, 37.1835051], [60.6932432, 37.1836092], [60.6928343, 37.1837597], [60.692573, 37.1839112], [60.6924177, 37.1841566], [60.6923466, 37.1845513], [60.6922741, 37.1847832], [60.6922922, 37.1848873], [60.6923543, 37.1849461], [60.6924889, 37.1849873], [60.6926105, 37.1850925], [60.6927316, 37.18539], [60.6928588, 37.1856742], [60.6929548, 37.1859198], [60.6930463, 37.1860007], [60.6931177, 37.1860394], [60.6932742, 37.1860623], [60.693357, 37.1861004], [60.6935931, 37.186365], [60.6937651, 37.1866033], [60.6939729, 37.1869875], [60.6940976, 37.1873395], [60.6941299, 37.1875374], [60.6940497, 37.1876467], [60.6938789, 37.1878085], [60.6936538, 37.1879157], [60.6935218, 37.1879157], [60.6933808, 37.1878539], [60.6932294, 37.1878209], [60.693157, 37.1877436], [60.6930703, 37.1876982], [60.6929539, 37.1876302], [60.6927943, 37.187633], [60.692551, 37.1875338], [60.692293, 37.187512], [60.6920021, 37.1875528], [60.6917789, 37.1876344], [60.6914715, 37.1876403], [60.6912794, 37.1875615], [60.6911604, 37.1874391], [60.6910562, 37.1873531], [60.69095, 37.1873414], [60.6905018, 37.1873764], [60.6902474, 37.1873575], [60.6898285, 37.1872015], [60.6894351, 37.1870674], [60.6892539, 37.1869552], [60.6888368, 37.1868021], [60.6885971, 37.1867715], [60.6883739, 37.1868007], [60.687986, 37.1868429], [60.6877262, 37.1870106], [60.6874444, 37.1874027], [60.6872761, 37.1875411], [60.6872249, 37.1876665], [60.6872651, 37.187942], [60.6871919, 37.1882087], [60.6870455, 37.1886664], [60.6868589, 37.188783], [60.6865845, 37.1889331], [60.6863466, 37.188955], [60.6861856, 37.1890177], [60.6856129, 37.1891066], [60.6852141, 37.1893107], [60.6850073, 37.1894899], [60.6849634, 37.1898704], [60.6849963, 37.1900365], [60.6851226, 37.1901342], [60.6851244, 37.1903762], [60.6851848, 37.1907697], [60.6853165, 37.1911414], [60.6855434, 37.1914008], [60.6856806, 37.1914285], [60.6859575, 37.1914017], [60.6861762, 37.1914731], [60.6866756, 37.1917101], [60.687325, 37.1918029], [60.6879383, 37.1919596], [60.6881427, 37.1918977], [60.6886343, 37.1917472], [60.6890328, 37.1918792], [60.6898246, 37.1920873], [60.6902127, 37.1923017], [60.6906526, 37.1925944], [60.691271, 37.1931633], [60.6916187, 37.1936079], [60.6918419, 37.1938702], [60.6920724, 37.194016], [60.6921346, 37.1941355], [60.6921054, 37.1942069], [60.6918363, 37.1942748], [60.6906279, 37.1945531], [60.6898491, 37.1947736], [60.6894649, 37.1948596], [60.6893167, 37.1949587], [60.6893057, 37.1950637], [60.6893092, 37.1951808], [60.6889728, 37.1955683], [60.68852, 37.1962361], [60.6880232, 37.1966875], [60.6875419, 37.1969637], [60.6866277, 37.1973308], [60.6860584, 37.1975228], [60.6856229, 37.1975855], [60.6852186, 37.1975841], [60.6848563, 37.1975593], [60.6846185, 37.1975709], [60.6843221, 37.19767], [60.6838372, 37.1978901], [60.6835499, 37.1980329], [60.6833267, 37.198355], [60.6830504, 37.1986523], [60.6829901, 37.1989205], [60.6830047, 37.1991551], [60.6830742, 37.1992703], [60.6833231, 37.1993781], [60.6835005, 37.1995792], [60.6837164, 37.1998299], [60.6841958, 37.1999888], [60.6847099, 37.2001185], [60.6850064, 37.2003006], [60.6850686, 37.2005192], [60.6851674, 37.2006198], [60.685612, 37.2008093], [60.6860657, 37.2009987], [60.6862542, 37.2011182], [60.6862999, 37.2012232], [60.6862578, 37.2013135], [60.686228, 37.2014149], [60.6862616, 37.2016251], [60.6861167, 37.2020641], [60.6859718, 37.2023794], [60.6857571, 37.2026577], [60.6852421, 37.2031853], [60.6847453, 37.2035707], [60.6843158, 37.2039849], [60.6835525, 37.2043209], [60.6832782, 37.2043724], [60.6829367, 37.2043394], [60.6825537, 37.2042405], [60.6820183, 37.204166], [60.681656, 37.2040815], [60.6814291, 37.203911], [60.6812023, 37.2037434], [60.6809058, 37.2035889], [60.6806954, 37.2035248], [60.6804009, 37.2035146], [60.6801996, 37.2035729], [60.680088, 37.2036604], [60.6799782, 37.2038294], [60.6799032, 37.2039212], [60.6797404, 37.2039868], [60.6793452, 37.2040801], [60.6790634, 37.2042243], [60.6788457, 37.2044852], [60.6787853, 37.2045959], [60.6787701, 37.2047648], [60.6788597, 37.2049877], [60.6789329, 37.2051961], [60.679114, 37.2053812], [60.6793464, 37.2055691], [60.6795291, 37.2056367], [60.6796588, 37.2056481], [60.6798088, 37.2054936], [60.6800237, 37.2053752], [60.6802773, 37.205303], [60.6808284, 37.2053772], [60.6812942, 37.2054823], [60.6817729, 37.2056431], [60.6821067, 37.2058409], [60.6821713, 37.2059914], [60.6822878, 37.2061933], [60.6826423, 37.2066199], [60.6829683, 37.2070857], [60.6832426, 37.2073907], [60.683478, 37.2077864], [60.6835246, 37.2078523], [60.6842077, 37.2082604], [60.6846657, 37.2086292], [60.6850797, 37.2090105], [60.6852246, 37.2094597], [60.6852505, 37.2096225], [60.685191, 37.2098307], [60.6848753, 37.2102964], [60.6846735, 37.2104819], [60.6841094, 37.2106426], [60.683786, 37.2106612], [60.6834755, 37.2106158], [60.6833176, 37.2104901], [60.6832012, 37.210385], [60.6829631, 37.2103603], [60.6826345, 37.210383], [60.682293, 37.2103665], [60.6818608, 37.2102387], [60.6813537, 37.2100285], [60.6810044, 37.2098822], [60.680505, 37.2099646], [60.6801634, 37.2099688], [60.6799849, 37.2099399], [60.6796252, 37.2098266], [60.6793898, 37.2096349], [60.6792449, 37.2092516], [60.6791336, 37.2090826], [60.6788826, 37.2089878], [60.6786153, 37.2087507], [60.6781432, 37.2084345], [60.677823, 37.2082567], [60.6774223, 37.2081532], [60.6771552, 37.2078851], [60.6769106, 37.2077108], [60.6765629, 37.2075462], [60.6764074, 37.2075374], [60.6762354, 37.2077094], [60.6760689, 37.2077633], [60.6756902, 37.2078507], [60.6755383, 37.2078988], [60.6754066, 37.2080576], [60.6753682, 37.208419], [60.6753297, 37.208811], [60.67522, 37.2092161], [60.6751175, 37.2096169], [60.6749675, 37.2098267], [60.6748321, 37.2102609], [60.674693, 37.2105378], [60.6743783, 37.2108773], [60.6740709, 37.2111046], [60.6739794, 37.2112212], [60.6738935, 37.2112693], [60.6736556, 37.2112868], [60.6732988, 37.2114296], [60.6728469, 37.2116205], [60.672362, 37.2117618], [60.6720254, 37.211791], [60.671696, 37.2117356], [60.6709843, 37.2115345], [60.6705031, 37.2113188], [60.6702232, 37.2111644], [60.6699835, 37.2108205], [60.669795, 37.2105393], [60.6698572, 37.2103455], [60.6697914, 37.2102449], [60.6694547, 37.2101269], [60.6691748, 37.2099491], [60.6689698, 37.2096781], [60.6686881, 37.2094216], [60.6684923, 37.2093517], [60.6681209, 37.2094129], [60.6677238, 37.2095396], [60.6676525, 37.2096154], [60.6676616, 37.2098005], [60.667217, 37.2102711], [60.6669609, 37.2107199], [60.6668694, 37.2110988], [60.6666315, 37.2115403], [60.6666041, 37.211721], [60.6666517, 37.2120736], [60.6667669, 37.212658], [60.6668127, 37.2132423], [60.6667473, 37.2135075], [60.6666759, 37.2136022], [60.6662606, 37.2137348], [60.6657922, 37.2138543], [60.6655159, 37.2138893], [60.6652817, 37.2139534], [60.6646231, 37.2141195], [60.6639735, 37.2142623], [60.6634795, 37.2143133], [60.663249, 37.2143075], [60.662938, 37.2142317], [60.6627696, 37.2141385], [60.6627221, 37.2140627], [60.6625025, 37.2134274], [60.6623909, 37.2130048], [60.6621786, 37.2126274], [60.6621786, 37.2124904], [60.662239, 37.2123375], [60.6622939, 37.2121743], [60.6623031, 37.2119003], [60.6622939, 37.211638], [60.6621969, 37.2113335], [60.6620872, 37.2111528], [60.661853, 37.2110231], [60.6616499, 37.2109065], [60.6615438, 37.2107156], [60.6615072, 37.2104708], [60.661445, 37.2102493], [60.6613114, 37.2100832], [60.660982, 37.2099419], [60.6606399, 37.2098005], [60.6604295, 37.2098136], [60.6600873, 37.2099084], [60.6595348, 37.2099666], [60.6592914, 37.2099084], [60.6590207, 37.2099025], [60.6588121, 37.2099317], [60.658426, 37.2100366], [60.6582412, 37.2100308], [60.657954, 37.2099448], [60.6576923, 37.2098792], [60.657169, 37.2099623], [60.6566842, 37.2101197], [60.6565689, 37.2102406], [60.6563475, 37.2104344], [60.6562231, 37.2107783], [60.65617, 37.2111236], [60.6562304, 37.2115258], [60.6563219, 37.2118304], [60.6565305, 37.2121509], [60.6565927, 37.2124467], [60.6565793, 37.2126952], [60.6567238, 37.2130944], [60.6567677, 37.2133218], [60.6567311, 37.2134893], [60.6566598, 37.213568], [60.6565225, 37.2136103], [60.6561584, 37.2136744], [60.6558712, 37.2136875], [60.6556772, 37.2136438], [60.6553022, 37.2135141], [60.6551009, 37.2134879], [60.6547734, 37.2133378], [60.6541952, 37.2131644], [60.6537445, 37.2130355], [60.6531563, 37.2127157], [60.6518616, 37.2138552], [60.6528088, 37.2156153], [60.6521773, 37.2181297], [60.6504934, 37.2188002], [60.6496514, 37.2172078], [60.6474412, 37.2169563], [60.645652, 37.218884], [60.6437576, 37.2208955]]]}, "properties": {"units": ["Сарахский этрап"], "source": "OpenStreetMap (Geofabrik turkmenistan-latest.osm.pbf, этрапы admin_level=5; Ашхабад - admin_level=4), 30.09.2026"}}]}