{"type": "FeatureCollection", "note": "Моздокский район (Северная Осетия): крепость Моздок заложена 17(28).07.1763; OSM ODbL", "features": [{"type": "Feature", "geometry": {"type": "Polygon", "coordinates": [[[44.2674355, 43.7453232], [44.2725365, 43.7416091], [44.2733893, 43.7368386], [44.2750775, 43.7349937], [44.274326, 43.7260405], [44.2777148, 43.7218559], [44.2816173, 43.7110734], [44.2841634, 43.7090618], [44.2893569, 43.7097163], [44.2916811, 43.7031664], [44.2934905, 43.697191], [44.2946593, 43.6961835], [44.2971782, 43.6894595], [44.3025667, 43.6881737], [44.3103712, 43.6857092], [44.3189973, 43.6791371], [44.3203344, 43.679115], [44.3264734, 43.6812225], [44.3308067, 43.677905], [44.3332713, 43.6766727], [44.3345036, 43.6778023], [44.3362493, 43.6802669], [44.3385458, 43.6834964], [44.345286, 43.6814993], [44.3585844, 43.6804726], [44.3622812, 43.6818076], [44.3648484, 43.684991], [44.3704962, 43.6914606], [44.374193, 43.693001], [44.3800464, 43.6916661], [44.3961688, 43.6910502], [44.4017141, 43.6909475], [44.4044868, 43.6889965], [44.408081, 43.6849916], [44.410751, 43.6839647], [44.4163785, 43.6837247], [44.4268856, 43.6858411], [44.4293408, 43.6851545], [44.4296616, 43.684659], [44.4302108, 43.6838109], [44.4301789, 43.683157], [44.4300055, 43.6796006], [44.4298002, 43.678471], [44.4312379, 43.6770333], [44.4308272, 43.6748768], [44.4311354, 43.6694342], [44.4310328, 43.6648131], [44.4308274, 43.6629647], [44.4282602, 43.6623485], [44.4274387, 43.6616297], [44.4279522, 43.6610135], [44.4266172, 43.6602947], [44.4262065, 43.6591651], [44.4269253, 43.6592678], [44.4274388, 43.658549], [44.4264119, 43.6573167], [44.4277469, 43.6561871], [44.4278496, 43.6550575], [44.4283045, 43.6546026], [44.4287738, 43.6541333], [44.4295954, 43.6530037], [44.430725, 43.6520795], [44.4312385, 43.651566], [44.4305196, 43.651258], [44.4293901, 43.6511553], [44.4288766, 43.6501283], [44.4295955, 43.6497176], [44.4302116, 43.6492041], [44.4308278, 43.6484853], [44.4319574, 43.6476638], [44.4338058, 43.6475611], [44.4339873, 43.646879], [44.4347301, 43.64561], [44.4337032, 43.6445831], [44.4344221, 43.6428374], [44.4357571, 43.6400648], [44.4357572, 43.6377029], [44.434833, 43.636984], [44.4345249, 43.6362652], [44.4353465, 43.6350329], [44.4352438, 43.6343141], [44.4357573, 43.6311307], [44.4364762, 43.6292822], [44.4374004, 43.6286661], [44.4374004, 43.6277419], [44.4362709, 43.6268177], [44.4369897, 43.6260988], [44.4375032, 43.62538], [44.436579, 43.6249692], [44.4361682, 43.6241477], [44.4360656, 43.6230181], [44.4369265, 43.6229103], [44.4373235, 43.6228793], [44.437691, 43.6229298], [44.4388255, 43.6234618], [44.4392815, 43.6230773], [44.439649, 43.6226443], [44.4410545, 43.622357], [44.4414192, 43.6216618], [44.4412583, 43.6212075], [44.4409579, 43.6212075], [44.4407487, 43.6209434], [44.4412851, 43.6192231], [44.4404912, 43.615153], [44.4399333, 43.6137859], [44.4398654, 43.612364], [44.43966, 43.6104129], [44.4376063, 43.6086671], [44.4356552, 43.6084617], [44.4350358, 43.6068788], [44.4361667, 43.6064827], [44.440074, 43.6045478], [44.4615694, 43.5939019], [44.474682, 43.583488], [44.4753684, 43.5829428], [44.4663477, 43.5725251], [44.4445153, 43.5427231], [44.4448467, 43.5415191], [44.444917, 43.5410502], [44.4457852, 43.5352575], [44.4448458, 43.5302004], [44.4437671, 43.5220022], [44.4405866, 43.5077993], [44.4433594, 43.5023567], [44.4479805, 43.497633], [44.441386, 43.493121], [44.4411431, 43.4929548], [44.435234, 43.4903544], [44.4304209, 43.4808942], [44.4138794, 43.4527146], [44.4185748, 43.4466665], [44.4210457, 43.4466699], [44.4217866, 43.4451], [44.4235973, 43.4441866], [44.4267128, 43.444392], [44.4293949, 43.4406651], [44.4308326, 43.4371737], [44.4331662, 43.4343215], [44.4360774, 43.4322153], [44.4383292, 43.4303962], [44.4422421, 43.427733], [44.4431792, 43.423503], [44.449025, 43.4212468], [44.4523778, 43.4179056], [44.4651209, 43.41587], [44.4703872, 43.4117424], [44.4734892, 43.4101133], [44.4770394, 43.4069099], [44.4842764, 43.4021503], [44.4920068, 43.3968408], [44.4941414, 43.394794], [44.4973758, 43.3958173], [44.4992686, 43.4005226], [44.5124704, 43.4057541], [44.4934815, 43.4305253], [44.4895964, 43.4344709], [44.4887446, 43.4362924], [44.4922453, 43.4379686], [44.4912315, 43.4388602], [44.4916038, 43.4407625], [44.4933138, 43.4428782], [44.4905402, 43.4443559], [44.4901495, 43.4448268], [44.4916091, 43.4482981], [44.486262, 43.4482472], [44.483186, 43.4518695], [44.4816813, 43.4526985], [44.4828596, 43.4535382], [44.4819271, 43.4560172], [44.4814983, 43.4581644], [44.482216, 43.4603294], [44.4848152, 43.4613639], [44.4822616, 43.4617051], [44.4804976, 43.4634506], [44.4809877, 43.4657035], [44.4793366, 43.4650294], [44.478436, 43.4676932], [44.4817051, 43.4705378], [44.4824118, 43.4755184], [44.4842198, 43.4752914], [44.4878981, 43.4743467], [44.494609, 43.4732694], [44.4970598, 43.4757922], [44.4916337, 43.4773662], [44.493923, 43.4798315], [44.4925819, 43.4812565], [44.491166, 43.482219], [44.4901491, 43.4829103], [44.4888446, 43.4840641], [44.4880728, 43.4849531], [44.4888787, 43.4859624], [44.4903388, 43.486619], [44.4911311, 43.4884177], [44.4921944, 43.4894159], [44.4917779, 43.492094], [44.4908972, 43.4939384], [44.4895521, 43.4953494], [44.4900656, 43.4963438], [44.4905163, 43.4980036], [44.4891346, 43.4993311], [44.4856315, 43.499342], [44.4848427, 43.500325], [44.4834953, 43.5017224], [44.4840636, 43.5028136], [44.4849295, 43.5044044], [44.4850043, 43.5045418], [44.4842072, 43.5061959], [44.4834658, 43.5077344], [44.4825789, 43.5091553], [44.4829047, 43.5101308], [44.4830101, 43.5104462], [44.482275, 43.5112939], [44.4820789, 43.5115201], [44.4813579, 43.5123316], [44.4808172, 43.5129402], [44.4808802, 43.5146904], [44.4807386, 43.5158439], [44.4826972, 43.517597], [44.4945361, 43.525162], [44.5002312, 43.5288008], [44.5009011, 43.5300022], [44.5021955, 43.5323236], [44.5022933, 43.5324991], [44.5025217, 43.5329087], [44.5042654, 43.5363127], [44.5074918, 43.5426105], [44.5000611, 43.5614939], [44.5033457, 43.5879191], [44.526109, 43.5923605], [44.5297942, 43.5930636], [44.5371509, 43.5944671], [44.5449662, 43.5962341], [44.5468702, 43.5966646], [44.5480191, 43.5969244], [44.5483575, 43.5970009], [44.5571468, 43.598582], [44.5572905, 43.5986079], [44.5661585, 43.60052], [44.5688604, 43.6011288], [44.5693342, 43.6012356], [44.571695, 43.6017676], [44.5723132, 43.6018893], [44.5728286, 43.602023], [44.5742893, 43.6023521], [44.5829497, 43.6043036], [44.5833406, 43.6043849], [44.5842948, 43.6045832], [44.5881032, 43.6053749], [44.5900088, 43.6057711], [44.5936729, 43.6065328], [44.5966179, 43.6071288], [44.6072594, 43.6092823], [44.6074691, 43.6093246], [44.6094864, 43.609732], [44.6138266, 43.6106083], [44.6249924, 43.6128627], [44.6310674, 43.6140893], [44.6310505, 43.6137648], [44.6307356, 43.6077081], [44.6305588, 43.6043061], [44.6303704, 43.6030934], [44.6301241, 43.6015079], [44.6278712, 43.5870039], [44.6278557, 43.5869043], [44.6278439, 43.5868284], [44.6273584, 43.5837023], [44.6258505, 43.5714202], [44.6218703, 43.5473202], [44.6281144, 43.5480162], [44.6313273, 43.547181], [44.6338039, 43.546608], [44.6373895, 43.5449821], [44.6407607, 43.5435093], [44.6432802, 43.5428343], [44.6487055, 43.5416634], [44.6518091, 43.5416883], [44.6546809, 43.5421445], [44.6633534, 43.5485431], [44.6690852, 43.5509383], [44.6755871, 43.5508346], [44.6843921, 43.5479646], [44.6887822, 43.547795], [44.6924302, 43.547829], [44.6986089, 43.5479195], [44.7059252, 43.5517004], [44.7025048, 43.5598702], [44.7017724, 43.570388], [44.6955016, 43.5949647], [44.6993168, 43.5950242], [44.704709, 43.5951083], [44.7066187, 43.5951381], [44.7162944, 43.595289], [44.7458466, 43.5957498], [44.7475673, 43.5957844], [44.7513757, 43.595861], [44.7529287, 43.5958922], [44.7952148, 43.5967423], [44.7989568, 43.5927144], [44.7995448, 43.5902451], [44.7981949, 43.5870647], [44.802416, 43.587057], [44.8024608, 43.5819219], [44.8016295, 43.5818141], [44.7976114, 43.5812931], [44.7989454, 43.569757], [44.7893157, 43.5571222], [44.7927687, 43.555693], [44.8011292, 43.555762], [44.8001543, 43.5582367], [44.8119918, 43.5582854], [44.8156266, 43.5547903], [44.817925, 43.5543944], [44.8272493, 43.5532356], [44.8277321, 43.5531756], [44.8474013, 43.5646615], [44.8476391, 43.5697593], [44.8456075, 43.5719276], [44.8448711, 43.5725988], [44.8440245, 43.5735185], [44.8483361, 43.5787404], [44.8473299, 43.5813342], [44.8455934, 43.591897], [44.8454169, 43.5935938], [44.8445794, 43.5991054], [44.8440631, 43.6025266], [44.8433527, 43.6072161], [44.8428055, 43.6111083], [44.8423004, 43.6146299], [44.8420028, 43.6170534], [44.8418895, 43.6178103], [44.8406658, 43.6252284], [44.8394574, 43.6328758], [44.8386262, 43.6388358], [44.8377407, 43.644739], [44.8365766, 43.6524767], [44.836326, 43.6541652], [44.8360923, 43.6557395], [44.8356867, 43.6584715], [44.8350768, 43.6626584], [44.8343142, 43.6680286], [44.8322725, 43.6821383], [44.8270126, 43.6834729], [44.8248786, 43.6859483], [44.8251654, 43.6872898], [44.8278662, 43.6879117], [44.8364876, 43.6908994], [44.8384795, 43.6940168], [44.8385933, 43.697641], [44.8405847, 43.6997771], [44.8448527, 43.7022526], [44.8474989, 43.7047281], [44.8485231, 43.7076304], [44.8478402, 43.7101059], [44.8455354, 43.7124107], [44.844814, 43.7133844], [44.8423629, 43.7141683], [44.8394457, 43.7144394], [44.8355499, 43.7135682], [44.8330727, 43.7105326], [44.8309974, 43.7072147], [44.8284633, 43.7066059], [44.8275021, 43.7066455], [44.826273, 43.7067566], [44.824314, 43.7072842], [44.8221439, 43.7081032], [44.8204346, 43.7089223], [44.8176222, 43.7120689], [44.8160857, 43.7130932], [44.8111347, 43.7144589], [44.8029399, 43.7194098], [44.8034133, 43.7312113], [44.8034809, 43.7431241], [44.8034849, 43.7438239], [44.8035396, 43.7742713], [44.8033927, 43.8070486], [44.800236, 43.8078172], [44.7963351, 43.8088257], [44.7943712, 43.8119966], [44.7937279, 43.816997], [44.7084236, 43.8174612], [44.7022966, 43.817425], [44.702622, 43.8247052], [44.7027737, 43.8280981], [44.702934, 43.831685], [44.7029678, 43.8324406], [44.7030645, 43.834604], [44.6663591, 43.8351158], [44.6663891, 43.8321232], [44.6663927, 43.8317669], [44.6664447, 43.8265796], [44.6591873, 43.8266822], [44.6167558, 43.8272819], [44.616471, 43.8272859], [44.6164437, 43.8257408], [44.6159988, 43.8249886], [44.6099238, 43.8249293], [44.603541, 43.8249151], [44.6034494, 43.8275701], [44.6009366, 43.8275843], [44.5986279, 43.8277624], [44.5973272, 43.8284742], [44.596925, 43.8286943], [44.5909733, 43.8263417], [44.5842884, 43.8220986], [44.581696, 43.821507], [44.5760515, 43.8208165], [44.5707997, 43.8198945], [44.5700453, 43.819762], [44.5672869, 43.8192777], [44.5666896, 43.8192589], [44.5660961, 43.8192403], [44.5658064, 43.819252], [44.5600162, 43.8194849], [44.5536307, 43.8197418], [44.5536234, 43.8193596], [44.5535237, 43.8141513], [44.5404532, 43.8142489], [44.5399717, 43.8142525], [44.525988, 43.8143569], [44.5046155, 43.8145164], [44.5046132, 43.8142991], [44.5045386, 43.8072987], [44.4954447, 43.8073241], [44.4914256, 43.8073354], [44.4910814, 43.8073364], [44.4728011, 43.8073875], [44.4726783, 43.8030744], [44.472547, 43.8011845], [44.4097019, 43.8014708], [44.4020826, 43.8014688], [44.3796052, 43.8014629], [44.3797325, 43.8134427], [44.3594288, 43.8118587], [44.3593723, 43.8114807], [44.3593363, 43.8112398], [44.3541932, 43.8105905], [44.3538397, 43.8105459], [44.3534144, 43.8104922], [44.3547703, 43.8083987], [44.3548304, 43.808306], [44.3514768, 43.807887], [44.3485947, 43.8077728], [44.3428941, 43.807547], [44.3330927, 43.8071588], [44.3231087, 43.8070007], [44.3229432, 43.8069927], [44.3210656, 43.8069022], [44.3146222, 43.8065916], [44.3112352, 43.8070828], [44.3106808, 43.8071632], [44.3056997, 43.8070444], [44.3049114, 43.8070256], [44.3046245, 43.8070188], [44.300843, 43.8078711], [44.2986882, 43.8083378], [44.2970132, 43.8087005], [44.2940696, 43.8093381], [44.292523, 43.809673], [44.2895179, 43.8100848], [44.2831471, 43.8109577], [44.2787565, 43.8109402], [44.2692477, 43.8109023], [44.2680325, 43.8108975], [44.2676706, 43.7987793], [44.2675253, 43.7745825], [44.2675178, 43.7733393], [44.2675161, 43.7730617], [44.2675139, 43.7726878], [44.2675076, 43.7716288], [44.2674609, 43.754574], [44.2674355, 43.7453232]]]}, "properties": {"name": "Моздокский район", "osm_type": "relation", "osm_id": 1060634, "display_name": "Моздокский район, Северная Осетия — Алания, Северо-Кавказский федеральный округ, Россия", "fetched": "2026-09-03"}}]}