{"type": "FeatureCollection", "note": "Терская полоса районами: Шелковской (гребенские городки 1614-1651, терско-кизлярское войско под Кизляром 1735), Наурский (станицы Моздокского полка 1770), Моздокский (крепость Моздок 1763); разбор F1_chechnya_shagi.md — единицы OpenStreetMap (ODbL) через Nominatim, ПРИБЛИЖЕНИЕ исторической земли современными границами", "features": [{"type": "Feature", "geometry": {"type": "Polygon", "coordinates": [[[45.7187231, 43.952168], [45.7188488, 43.9519493], [45.7463948, 43.9039902], [45.7466416, 43.903624], [45.7513314, 43.8969667], [45.754357, 43.8910213], [45.7564063, 43.8863395], [45.7622644, 43.8780033], [45.7648927, 43.8743988], [45.7725486, 43.8744811], [45.7721555, 43.8701596], [45.7717791, 43.8647781], [45.7719633, 43.8636951], [45.7719689, 43.8632957], [45.7704188, 43.8631336], [45.7703849, 43.8628781], [45.7701427, 43.8612158], [45.7710817, 43.8546943], [45.7711018, 43.8375752], [45.7715088, 43.8375686], [45.8214801, 43.8367835], [45.8243961, 43.8367387], [45.8296417, 43.8368133], [45.829218, 43.8315569], [45.8276517, 43.8191178], [45.8270198, 43.8137425], [45.8263119, 43.8077213], [45.8251741, 43.7986749], [45.8225745, 43.7782306], [45.8214412, 43.7689757], [45.8194355, 43.753976], [45.8179022, 43.7421613], [45.8189321, 43.7355441], [45.8113037, 43.6916572], [45.8061806, 43.6834612], [45.7953995, 43.6673892], [45.7936906, 43.6646142], [45.7922397, 43.6624443], [45.7812598, 43.646035], [45.7796204, 43.6435959], [45.7682148, 43.6267121], [45.7663875, 43.6240177], [45.7601003, 43.6072175], [45.7631184, 43.6015732], [45.7703768, 43.5904154], [45.7856115, 43.5665911], [45.7951535, 43.5523781], [45.7958032, 43.5492389], [45.7973557, 43.5416026], [45.7976109, 43.5409989], [45.7989264, 43.533987], [45.8029563, 43.533186], [45.8029379, 43.5331367], [45.8034156, 43.5330426], [45.8030069, 43.5319053], [45.8020045, 43.5301459], [45.8016198, 43.529654], [45.8002463, 43.5266875], [45.8017364, 43.5234366], [45.801782, 43.5209588], [45.8028388, 43.5184867], [45.8029623, 43.5152191], [45.8018875, 43.5126762], [45.8005139, 43.5106005], [45.8039011, 43.5088862], [45.8088929, 43.5079509], [45.8200518, 43.5056318], [45.8263731, 43.5040297], [45.830824, 43.502265], [45.8332468, 43.4999281], [45.8394915, 43.4934494], [45.8395621, 43.4933566], [45.8461664, 43.4846689], [45.8547257, 43.4769519], [45.8608017, 43.4733812], [45.8676011, 43.4698845], [45.8761244, 43.4666285], [45.8861159, 43.465139], [45.8945818, 43.4649644], [45.8987645, 43.46336], [45.9013766, 43.4611274], [45.9069289, 43.4593248], [45.9107562, 43.4587197], [45.9139783, 43.4582102], [45.9188291, 43.4587702], [45.9218116, 43.4576097], [45.9347098, 43.4543859], [45.9435427, 43.4513898], [45.9493111, 43.4411236], [45.9573422, 43.4328732], [45.9665435, 43.4299256], [45.9710196, 43.4260946], [45.9765708, 43.42269], [45.980786, 43.4220764], [45.988009, 43.4207422], [45.9953106, 43.4224192], [45.9985397, 43.4221289], [46.010936, 43.4210134], [46.0178625, 43.4235562], [46.0262924, 43.4263294], [46.0329934, 43.4293925], [46.0355625, 43.4342688], [46.0377915, 43.4370469], [46.0411504, 43.4403191], [46.0438953, 43.4429928], [46.0454324, 43.4452552], [46.046439, 43.4464844], [46.0484202, 43.4473085], [46.0507386, 43.447467], [46.0543125, 43.4478041], [46.0564353, 43.449376], [46.0573632, 43.4499606], [46.0596957, 43.4509563], [46.0624529, 43.4511522], [46.0658247, 43.4508329], [46.0720672, 43.4517823], [46.0773048, 43.4544061], [46.0938687, 43.4529806], [46.0984144, 43.4547249], [46.1040722, 43.4552494], [46.1126367, 43.4553193], [46.1250586, 43.4523585], [46.1383749, 43.4447302], [46.1390509, 43.4419041], [46.1387407, 43.4405443], [46.1466727, 43.4392337], [46.1494027, 43.4394196], [46.1548497, 43.4407867], [46.1579045, 43.4422194], [46.1606171, 43.4437326], [46.1640608, 43.4459144], [46.1677956, 43.4476424], [46.1710286, 43.448578], [46.1743807, 43.449141], [46.1764307, 43.4491139], [46.1789494, 43.448136], [46.1845074, 43.44552], [46.1892028, 43.4425146], [46.1915168, 43.441158], [46.1975649, 43.4403919], [46.1983488, 43.4402925], [46.2027722, 43.4388053], [46.2037988, 43.4381195], [46.2069097, 43.4360414], [46.2102938, 43.4329298], [46.2159968, 43.4292865], [46.2214222, 43.4259036], [46.2241209, 43.4230075], [46.2263896, 43.4210769], [46.2298001, 43.4195342], [46.2339218, 43.4192709], [46.2378347, 43.4195238], [46.2445466, 43.4218043], [46.2498166, 43.424769], [46.2564563, 43.4301119], [46.2590065, 43.4351433], [46.2657001, 43.4405234], [46.2697466, 43.4394678], [46.2690852, 43.4368564], [46.2687621, 43.4336139], [46.2663367, 43.4275334], [46.2645663, 43.4252623], [46.2644335, 43.4240498], [46.2657106, 43.4226891], [46.2669044, 43.4219917], [46.2687031, 43.4213601], [46.2701741, 43.4209382], [46.2715517, 43.4205856], [46.2723986, 43.4206585], [46.274759, 43.4208618], [46.2774374, 43.4215535], [46.279241, 43.4225946], [46.2801595, 43.4231836], [46.2810181, 43.4240249], [46.2825153, 43.4256631], [46.2839477, 43.4271416], [46.2842357, 43.4275518], [46.2860829, 43.429531], [46.2867899, 43.4307625], [46.2873035, 43.4316291], [46.2878176, 43.4325184], [46.2884073, 43.4342237], [46.2902958, 43.4360771], [46.2926309, 43.4358121], [46.2955931, 43.4347943], [46.3020542, 43.4309357], [46.306262, 43.4296889], [46.3113209, 43.4328573], [46.3125478, 43.436454], [46.3096827, 43.44095], [46.3090574, 43.4432947], [46.3096935, 43.4475301], [46.3109158, 43.4502755], [46.3115034, 43.4537639], [46.3113741, 43.4551735], [46.3102745, 43.4567851], [46.3074557, 43.4592988], [46.3062309, 43.4618639], [46.3066165, 43.4630277], [46.308709, 43.4643675], [46.3117515, 43.4650417], [46.3153991, 43.464293], [46.3205978, 43.4605375], [46.3256936, 43.458078], [46.3266872, 43.457738], [46.333485, 43.4565807], [46.3348202, 43.4567525], [46.3391894, 43.4577462], [46.3535124, 43.4674791], [46.3554361, 43.4684943], [46.358643, 43.4697603], [46.3639909, 43.4708403], [46.3679216, 43.4713407], [46.3714383, 43.4715701], [46.3734946, 43.4720252], [46.3770828, 43.4732887], [46.3846845, 43.4766004], [46.3878509, 43.4786307], [46.3890083, 43.4801433], [46.3897241, 43.4827587], [46.3897791, 43.4863026], [46.3889856, 43.4889001], [46.3844761, 43.4936757], [46.3843128, 43.4949552], [46.3850098, 43.4960716], [46.386596, 43.496956], [46.388312, 43.4973724], [46.3901835, 43.497571], [46.391134, 43.4976313], [46.3974552, 43.4980318], [46.3998151, 43.4982252], [46.404463, 43.4998806], [46.4081702, 43.5016109], [46.4094138, 43.5023376], [46.4110081, 43.5052014], [46.4124205, 43.5063222], [46.413284, 43.5072781], [46.4135915, 43.5086749], [46.4137121, 43.5098477], [46.4126404, 43.5135662], [46.4128213, 43.5172298], [46.4131731, 43.5191349], [46.4138279, 43.5219585], [46.4156402, 43.5254992], [46.4177482, 43.5277301], [46.4204773, 43.5299045], [46.4233777, 43.5311537], [46.4277086, 43.5322144], [46.4302906, 43.5327817], [46.4330465, 43.533961], [46.4350864, 43.535384], [46.4361846, 43.5365132], [46.4368942, 43.5375949], [46.4371245, 43.5384721], [46.437222, 43.5398379], [46.4371635, 43.5419611], [46.4367725, 43.5430932], [46.4359703, 43.5439082], [46.43088, 43.5472281], [46.4291625, 43.5486768], [46.4278306, 43.5504853], [46.4266033, 43.5529038], [46.4263747, 43.5538772], [46.4263263, 43.5542929], [46.4265186, 43.5549512], [46.426953, 43.5557604], [46.4289335, 43.5577447], [46.430021, 43.5597158], [46.4326351, 43.5651418], [46.433566, 43.5691113], [46.4332912, 43.5763775], [46.4330885, 43.5778553], [46.4327455, 43.5788073], [46.4315916, 43.5799965], [46.4285957, 43.5820217], [46.4242344, 43.5846463], [46.4202657, 43.5865036], [46.4180119, 43.5878805], [46.4170786, 43.5887349], [46.4161652, 43.5900644], [46.415491, 43.5921654], [46.4151132, 43.5935829], [46.4151161, 43.5947035], [46.4159887, 43.5958156], [46.4175557, 43.5966301], [46.4194181, 43.5972406], [46.4253107, 43.5990017], [46.4274216, 43.5999602], [46.4312265, 43.6030935], [46.4323791, 43.6045048], [46.4326706, 43.605254], [46.4326182, 43.6063386], [46.4315085, 43.6082502], [46.4299253, 43.6095635], [46.4287266, 43.6108388], [46.4282917, 43.6119874], [46.4282887, 43.6130275], [46.4288142, 43.6148065], [46.4292976, 43.6157113], [46.4301105, 43.6163967], [46.4313918, 43.6171501], [46.4328694, 43.6172776], [46.4391756, 43.6170018], [46.4416133, 43.6170998], [46.443398, 43.6177427], [46.4448453, 43.6186968], [46.4459754, 43.6197434], [46.4464403, 43.6204864], [46.4467784, 43.6214447], [46.4465824, 43.6228169], [46.4461685, 43.6250584], [46.446313, 43.6258018], [46.4467029, 43.6267646], [46.4474896, 43.6276205], [46.4482399, 43.6283253], [46.4493195, 43.6288374], [46.4513051, 43.6294458], [46.4548821, 43.6302634], [46.4555621, 43.6305562], [46.4561631, 43.6310084], [46.4564924, 43.632031], [46.4562422, 43.6332155], [46.4556148, 43.6341486], [46.4504952, 43.6381436], [46.4498741, 43.6392704], [46.449155, 43.6411907], [46.4491858, 43.6434694], [46.4494921, 43.6467945], [46.4503021, 43.6495294], [46.4517774, 43.6535358], [46.452457, 43.6546836], [46.4555134, 43.6590844], [46.4584958, 43.6635722], [46.4602869, 43.6652522], [46.4656665, 43.6692426], [46.4673997, 43.670897], [46.469167, 43.6716369], [46.4739985, 43.6726093], [46.475613, 43.6731005], [46.4773296, 43.6739654], [46.4785191, 43.6752041], [46.4791546, 43.676658], [46.4798684, 43.6806396], [46.480272, 43.6822576], [46.4813993, 43.684065], [46.4828776, 43.6858779], [46.4851166, 43.6877463], [46.490187, 43.6900583], [46.494431, 43.6906982], [46.4990326, 43.6934694], [46.5000127, 43.6943605], [46.5016222, 43.6959854], [46.5023332, 43.6970719], [46.5027679, 43.6986212], [46.5041304, 43.6996562], [46.5065526, 43.7005942], [46.5083419, 43.7010914], [46.5124156, 43.7021414], [46.5144041, 43.7027639], [46.516344, 43.7036209], [46.5176067, 43.7045324], [46.5186088, 43.7055116], [46.5191179, 43.7065272], [46.5191735, 43.7078958], [46.5188506, 43.7119597], [46.5195173, 43.7133176], [46.5212321, 43.7144493], [46.5233037, 43.7155615], [46.52617, 43.7174046], [46.5279487, 43.7210141], [46.5339585, 43.7252838], [46.5383238, 43.7294531], [46.5383174, 43.731259], [46.5385904, 43.7330822], [46.5395808, 43.7358902], [46.5400109, 43.7368093], [46.5406906, 43.7382619], [46.5429974, 43.7430086], [46.5449318, 43.747187], [46.5451915, 43.7476956], [46.546428, 43.7493654], [46.5478592, 43.7511367], [46.5508601, 43.7547911], [46.5511276, 43.7550919], [46.5513607, 43.7553089], [46.5516977, 43.7555829], [46.554659, 43.7576491], [46.5573267, 43.7598782], [46.5577374, 43.7601766], [46.558166, 43.7603762], [46.5587503, 43.7605621], [46.5594921, 43.760662], [46.5606037, 43.7604352], [46.5616439, 43.7600141], [46.5625957, 43.7598607], [46.5634007, 43.7599463], [46.565856, 43.7610148], [46.5667851, 43.7612836], [46.5691523, 43.7613724], [46.5715965, 43.7627584], [46.5730818, 43.7638796], [46.5739565, 43.7645083], [46.5747178, 43.7647383], [46.5766737, 43.7648008], [46.5784044, 43.7649322], [46.58085, 43.7653291], [46.5821022, 43.7656143], [46.5833309, 43.7660966], [46.5842347, 43.7665985], [46.5854653, 43.7674682], [46.5863107, 43.7679025], [46.5870722, 43.7680686], [46.5892627, 43.7677153], [46.5906493, 43.7676531], [46.5919366, 43.7677274], [46.5939816, 43.7679603], [46.5956946, 43.7683043], [46.6023087, 43.7682311], [46.6045235, 43.7683415], [46.6065433, 43.7681108], [46.6081064, 43.7677229], [46.6090032, 43.7671909], [46.6107024, 43.7663492], [46.6128977, 43.7654055], [46.6139814, 43.7653238], [46.615084, 43.7653853], [46.6161902, 43.7655895], [46.6174553, 43.7660387], [46.6202419, 43.7670114], [46.6216467, 43.7678674], [46.6233993, 43.7683899], [46.6252737, 43.7683548], [46.6271449, 43.7685106], [46.6289243, 43.7689], [46.6302406, 43.7695461], [46.6311115, 43.7702482], [46.6317533, 43.7709142], [46.6322024, 43.7716602], [46.6325123, 43.7723619], [46.632535, 43.7730226], [46.6325054, 43.7741498], [46.6327335, 43.7756704], [46.6328838, 43.7762644], [46.6330455, 43.7766785], [46.6334456, 43.7771525], [46.6344555, 43.7778954], [46.6356264, 43.778474], [46.6385613, 43.7794756], [46.6408493, 43.7805264], [46.6433527, 43.7823598], [46.6437279, 43.7826488], [46.6453428, 43.7832008], [46.6466028, 43.7836232], [46.6471044, 43.7838832], [46.647612, 43.7842689], [46.6477843, 43.7848334], [46.6477521, 43.785906], [46.6480373, 43.7871522], [46.6487732, 43.788018], [46.6504141, 43.7890101], [46.6523585, 43.7901287], [46.6535032, 43.7909488], [46.6543568, 43.7919304], [46.6552506, 43.7930425], [46.6554997, 43.7937304], [46.6555318, 43.7940792], [46.6554166, 43.7945243], [46.6550024, 43.7952387], [46.6536061, 43.7968999], [46.6516904, 43.7984591], [46.6503603, 43.7993847], [46.6499453, 43.8000427], [46.6498637, 43.8005387], [46.6501956, 43.8019996], [46.6501216, 43.8034973], [46.6500522, 43.8051053], [46.6500179, 43.8057313], [46.6500447, 43.8066133], [46.6499499, 43.8071561], [46.6495917, 43.8079779], [46.6490903, 43.8092261], [46.6488451, 43.8099937], [46.6484509, 43.8110548], [46.6479948, 43.8122761], [46.647869, 43.8154743], [46.6479706, 43.8161065], [46.6481594, 43.8166994], [46.6488765, 43.8179581], [46.6492935, 43.8185236], [46.650184, 43.8197039], [46.6515005, 43.8205718], [46.653474, 43.8215181], [46.6558572, 43.821884], [46.65678, 43.822027], [46.6576916, 43.8222993], [46.6590438, 43.8228576], [46.6606136, 43.8237348], [46.6619049, 43.8246388], [46.6625475, 43.8256666], [46.6627047, 43.8262544], [46.662633, 43.826829], [46.6622779, 43.8274694], [46.6615409, 43.8285091], [46.6604213, 43.8297466], [46.6591165, 43.8314618], [46.6587951, 43.8331421], [46.6587542, 43.8338874], [46.6592637, 43.8345084], [46.6598522, 43.8348396], [46.6609847, 43.8353117], [46.6613432, 43.8354611], [46.6619043, 43.8357744], [46.6620886, 43.835899], [46.6615595, 43.836296], [46.6612931, 43.8364775], [46.6610211, 43.8365855], [46.6607969, 43.8366526], [46.6605509, 43.8366921], [46.6603595, 43.8366801], [46.6601782, 43.8366401], [46.6599126, 43.8365537], [46.6595573, 43.8363316], [46.6592478, 43.8359715], [46.658716, 43.8353361], [46.6581757, 43.8346479], [46.6580643, 43.8345223], [46.657958, 43.8344182], [46.6578629, 43.8343437], [46.6577588, 43.834272], [46.6576547, 43.8342142], [46.6573682, 43.8340847], [46.6571208, 43.8339812], [46.6569174, 43.8338858], [46.6565774, 43.833726], [46.6501401, 43.8310113], [46.6491422, 43.8307939], [46.6481424, 43.8306114], [46.6470571, 43.8304408], [46.6466613, 43.8304007], [46.6462607, 43.8303876], [46.6453572, 43.8304372], [46.6448887, 43.8304806], [46.6441973, 43.8305575], [46.6439637, 43.8305931], [46.6436659, 43.8306505], [46.6434069, 43.8307057], [46.6431187, 43.8307792], [46.6430176, 43.8308078], [46.6424991, 43.8309757], [46.6421386, 43.8311152], [46.6418937, 43.8312289], [46.640926, 43.8317191], [46.6406207, 43.8318693], [46.6402601, 43.8320419], [46.6398741, 43.8322128], [46.6394219, 43.8323763], [46.6390312, 43.8325124], [46.6386466, 43.8326258], [46.638179, 43.8327537], [46.6380259, 43.8327909], [46.6378102, 43.8328305], [46.6374752, 43.8328759], [46.6371477, 43.8329074], [46.6369368, 43.8329209], [46.6367574, 43.8329275], [46.6363951, 43.832924], [46.6360327, 43.8329075], [46.6358666, 43.8328933], [46.6356308, 43.8328648], [46.6351302, 43.8327887], [46.6287216, 43.8313543], [46.6279807, 43.8311818], [46.6274875, 43.8310804], [46.6264721, 43.8309003], [46.619329, 43.8300277], [46.6191099, 43.8302584], [46.6187559, 43.8307854], [46.6186378, 43.831064], [46.6186032, 43.8312365], [46.6185979, 43.8315112], [46.6187017, 43.8316843], [46.6188254, 43.8318141], [46.6194252, 43.8322696], [46.6199871, 43.8326528], [46.6203497, 43.8328416], [46.6207645, 43.8330771], [46.6211892, 43.8333591], [46.6214443, 43.8335583], [46.6215623, 43.8337589], [46.6215882, 43.8338033], [46.6216806, 43.8341456], [46.6217255, 43.8344606], [46.6217114, 43.8346188], [46.621495, 43.8351607], [46.6213534, 43.8354006], [46.6211758, 43.8355556], [46.6208639, 43.8357586], [46.6204402, 43.8358914], [46.6201498, 43.8359925], [46.6198597, 43.8361266], [46.6195122, 43.8365222], [46.6193264, 43.8367541], [46.6190956, 43.8370683], [46.6190291, 43.8372539], [46.61893, 43.8376009], [46.6188994, 43.8378403], [46.6189577, 43.8380284], [46.6190755, 43.838255], [46.6192085, 43.8384448], [46.6193001, 43.8386413], [46.6193328, 43.8388293], [46.619266, 43.8389693], [46.6191442, 43.8391048], [46.6189618, 43.8392111], [46.6188752, 43.8393385], [46.6187933, 43.8396546], [46.6187207, 43.839963], [46.6185448, 43.8403255], [46.6182095, 43.8410842], [46.617951, 43.8416637], [46.6177186, 43.8420644], [46.6173631, 43.8426021], [46.6172789, 43.842752], [46.617213, 43.8429251], [46.6171825, 43.8430977], [46.6171643, 43.8432763], [46.6171781, 43.8434306], [46.617219, 43.8436589], [46.6172528, 43.8439011], [46.6172677, 43.8441586], [46.6173243, 43.8445814], [46.6172899, 43.8447448], [46.6172045, 43.8449781], [46.6170667, 43.8451822], [46.6169938, 43.8453489], [46.6169706, 43.8455302], [46.6169724, 43.8457421], [46.6170614, 43.8459687], [46.6172054, 43.8462182], [46.6172791, 43.8466519], [46.6173901, 43.8470961], [46.6174382, 43.8478624], [46.6173716, 43.848412], [46.6173188, 43.8488039], [46.6172215, 43.8492152], [46.6170933, 43.8494717], [46.6168816, 43.8498488], [46.6167542, 43.8500537], [46.616583, 43.8502182], [46.6163767, 43.8503447], [46.6160737, 43.8504518], [46.615808, 43.8504832], [46.6155308, 43.8504871], [46.6151856, 43.8504653], [46.6147394, 43.8504362], [46.6143325, 43.8503629], [46.6136704, 43.850145], [46.6127032, 43.8497871], [46.6121544, 43.849513], [46.6117363, 43.8493567], [46.6112917, 43.8493027], [46.6109265, 43.8492822], [46.6106689, 43.8492204], [46.6101713, 43.8490436], [46.6098319, 43.8489204], [46.6095639, 43.8489061], [46.6092731, 43.8489378], [46.6091139, 43.8489789], [46.6089291, 43.8491491], [46.6084849, 43.8494701], [46.607956, 43.8497948], [46.6076936, 43.8499057], [46.6051639, 43.8479136], [46.5887855, 43.8703386], [46.5896885, 43.8721522], [46.5886542, 43.8723627], [46.5706053, 43.8735629], [46.5684927, 43.8719799], [46.5668391, 43.8716178], [46.5650573, 43.8710915], [46.5636712, 43.8706287], [46.5622114, 43.8703538], [46.5609755, 43.8699352], [46.5587351, 43.8691648], [46.5571244, 43.8685367], [46.5553002, 43.8675962], [46.5540009, 43.8669875], [46.5507925, 43.8654221], [46.5459327, 43.8628134], [46.5442962, 43.8616417], [46.5391062, 43.8583403], [46.5335066, 43.85833], [46.5292902, 43.858471], [46.5140518, 43.8593336], [46.5126717, 43.8592403], [46.511025, 43.8591756], [46.5094157, 43.8591141], [46.508232, 43.8590617], [46.5070194, 43.8590241], [46.5058582, 43.8589777], [46.5030401, 43.858871], [46.5015327, 43.8587994], [46.5006586, 43.8587809], [46.4981723, 43.8586844], [46.4956163, 43.8585905], [46.4945717, 43.8585924], [46.4990365, 43.8622362], [46.4973513, 43.866074], [46.4930414, 43.8676345], [46.4940594, 43.8733043], [46.4954458, 43.8738122], [46.4950196, 43.8760516], [46.4955261, 43.8771844], [46.4950524, 43.8784245], [46.4948145, 43.8784426], [46.4922844, 43.8787142], [46.4901504, 43.8784818], [46.4869747, 43.8781296], [46.4824138, 43.8777545], [46.4771574, 43.8773713], [46.4721759, 43.8766676], [46.4649343, 43.8762265], [46.464075, 43.8761741], [46.4621328, 43.8760229], [46.4556768, 43.8754452], [46.4510911, 43.8750608], [46.448136, 43.87663], [46.4478807, 43.8770513], [46.4479285, 43.8780538], [46.4479789, 43.8789434], [46.4486109, 43.879763], [46.4489622, 43.8801344], [46.4503685, 43.8811043], [46.4514768, 43.8820007], [46.4549655, 43.8878925], [46.4545934, 43.8901606], [46.4541671, 43.8905648], [46.4497268, 43.8938201], [46.449309, 43.8942528], [46.4492616, 43.8945239], [46.449307, 43.8953017], [46.4496781, 43.8961707], [46.4517753, 43.8982138], [46.4522007, 43.8997993], [46.4528079, 43.9056084], [46.4531647, 43.9123612], [46.4502385, 43.9152148], [46.4495622, 43.916503], [46.4493019, 43.9174471], [46.4493027, 43.9183002], [46.4494919, 43.9191948], [46.4504064, 43.9208398], [46.4511981, 43.9215921], [46.4518623, 43.9217575], [46.45266, 43.9219268], [46.4536366, 43.9219926], [46.4563056, 43.9224777], [46.4572801, 43.9225445], [46.4587093, 43.9246405], [46.4610801, 43.9279896], [46.4623204, 43.9297186], [46.4620945, 43.9325368], [46.4610288, 43.9334208], [46.4592808, 43.934831], [46.4550784, 43.9362706], [46.4544356, 43.937543], [46.4561845, 43.9400298], [46.4567143, 43.9426415], [46.4568465, 43.9435846], [46.4568545, 43.9438676], [46.4568026, 43.9441665], [46.4566642, 43.9445572], [46.4564315, 43.9449907], [46.4560695, 43.9455463], [46.4557457, 43.9459865], [46.455393, 43.9464237], [46.4549787, 43.9468606], [46.4544084, 43.9473145], [46.4537349, 43.9478391], [46.4531817, 43.9482101], [46.4526233, 43.9484832], [46.4523471, 43.9486153], [46.4516889, 43.9488109], [46.4512029, 43.9490073], [46.4508898, 43.9491392], [46.4502097, 43.949464], [46.4481663, 43.950798], [46.4462417, 43.9523052], [46.4436843, 43.954183], [46.4418875, 43.955362], [46.4413408, 43.9556543], [46.4403487, 43.9558116], [46.4397955, 43.9558014], [46.4391964, 43.9555293], [46.4386101, 43.9551081], [46.437782, 43.953309], [46.4375051, 43.9527023], [46.437002, 43.9522852], [46.4360849, 43.9519066], [46.4353543, 43.9517306], [46.4349827, 43.9517226], [46.4346042, 43.9517765], [46.4343254, 43.9518578], [46.4340914, 43.9519677], [46.4335209, 43.9522716], [46.4332378, 43.9524969], [46.432931, 43.9528502], [46.4327696, 43.953134], [46.4325796, 43.953564], [46.4324893, 43.9540052], [46.4324559, 43.9546702], [46.4324421, 43.9551848], [46.4324974, 43.9555259], [46.4326289, 43.9559142], [46.4330146, 43.9567015], [46.4336044, 43.9572256], [46.4341489, 43.9576699], [46.4348627, 43.9579229], [46.43591, 43.9581193], [46.436468, 43.9594795], [46.4369288, 43.9605757], [46.4365182, 43.9612492], [46.436238, 43.9616703], [46.4358315, 43.9623191], [46.435183, 43.9627964], [46.4348947, 43.963119], [46.4346272, 43.9635625], [46.4345975, 43.9640349], [46.434735, 43.9643281], [46.4352361, 43.9646693], [46.4358385, 43.9650051], [46.4363765, 43.9652363], [46.4368489, 43.965336], [46.4375292, 43.965179], [46.4384225, 43.9649118], [46.4396413, 43.9645828], [46.4408779, 43.9645114], [46.4415453, 43.9645326], [46.4422716, 43.9646518], [46.4427041, 43.9647426], [46.4432504, 43.9648978], [46.4436283, 43.9649931], [46.4439131, 43.9650782], [46.4443539, 43.9653649], [46.4446594, 43.9656213], [46.4448828, 43.9658743], [46.4450032, 43.9661833], [46.445107, 43.9665217], [46.4451291, 43.9667946], [46.4451048, 43.9672155], [46.4450415, 43.967393], [46.4448709, 43.9676561], [46.4446522, 43.9678923], [46.4444577, 43.9680603], [46.4436306, 43.9687529], [46.4428223, 43.9692665], [46.4417532, 43.9697933], [46.4408707, 43.970027], [46.4395673, 43.9701257], [46.4385048, 43.9699218], [46.4374583, 43.9698051], [46.4367432, 43.9698873], [46.4360031, 43.9700734], [46.435072, 43.9704826], [46.4343651, 43.9708334], [46.4335019, 43.9714666], [46.4332755, 43.9721287], [46.4332562, 43.9726118], [46.4334522, 43.9733355], [46.4336494, 43.9737489], [46.4342581, 43.9741708], [46.4346936, 43.9744439], [46.4353864, 43.9745688], [46.4362088, 43.9746935], [46.4365677, 43.9746837], [46.4373682, 43.974662], [46.4381091, 43.9746466], [46.4386972, 43.9747399], [46.4390661, 43.9748099], [46.4396142, 43.9750289], [46.4401209, 43.9752952], [46.4403735, 43.975498], [46.4406377, 43.9757838], [46.4408319, 43.9760961], [46.4408996, 43.9763276], [46.4408933, 43.9765766], [46.4408458, 43.9768195], [46.4407737, 43.9770771], [46.4406491, 43.9772455], [46.4399441, 43.9777482], [46.4378012, 43.9789474], [46.437661, 43.9796465], [46.4379819, 43.9812282], [46.4376048, 43.9834913], [46.4374424, 43.9841196], [46.4371302, 43.9845522], [46.4368838, 43.9847964], [46.4365082, 43.9849767], [46.4359934, 43.9851214], [46.4353127, 43.9852271], [46.4345663, 43.9852572], [46.433949, 43.9852122], [46.4334494, 43.9850904], [46.4327114, 43.9848372], [46.4319101, 43.9847051], [46.4309204, 43.9847763], [46.4295934, 43.9853922], [46.4286878, 43.9861901], [46.4279455, 43.9872783], [46.4280525, 43.9876955], [46.428284, 43.9880632], [46.4286478, 43.9884916], [46.4290563, 43.9889456], [46.430027, 43.9895693], [46.4309801, 43.9900643], [46.4356143, 43.9924747], [46.4372302, 43.994346], [46.440632, 44.0028903], [46.407796, 44.0051617], [46.3947575, 44.0060636], [46.3804094, 44.0068793], [46.3713315, 44.0071827], [46.3603889, 44.008152], [46.3511119, 44.00864], [46.3414508, 44.0090838], [46.3323383, 44.0096853], [46.3214161, 44.0105126], [46.3212536, 44.0100533], [46.3211578, 44.0098607], [46.3211496, 44.0093648], [46.321136, 44.0091285], [46.321192, 44.0089923], [46.3219461, 44.0080963], [46.3221439, 44.0077866], [46.3222062, 44.0075836], [46.3222455, 44.0074178], [46.3223808, 44.0069884], [46.3222912, 44.0066988], [46.3219815, 44.0062879], [46.3217989, 44.0059094], [46.3215306, 44.0054077], [46.3214341, 44.0050875], [46.3214341, 44.0050065], [46.3214796, 44.0046412], [46.3216916, 44.0040842], [46.321933, 44.0037756], [46.3220593, 44.0036527], [46.3221719, 44.0034549], [46.3222871, 44.0030617], [46.3224091, 44.0028615], [46.3225325, 44.0027687], [46.322744, 44.0026999], [46.3231454, 44.0026218], [46.323655, 44.0025138], [46.3239327, 44.0024412], [46.3241695, 44.0023423], [46.3243037, 44.0022361], [46.324508, 44.0020341], [46.3246206, 44.0016726], [46.3246904, 44.0013871], [46.3247279, 44.0011324], [46.3247369, 44.0009244], [46.324705, 44.0006299], [46.324787, 44.0004262], [46.3249308, 44.0002949], [46.3250445, 44.0001291], [46.3251839, 43.9999632], [46.3254607, 43.9999173], [46.3264154, 44.0000618], [46.3267537, 44.000012], [46.3271256, 43.9998548], [46.3273673, 43.999778], [46.3278447, 43.9997162], [46.3281794, 43.9997159], [46.3283684, 43.9996892], [46.3284991, 43.9995232], [46.3285152, 43.9993921], [46.3285044, 43.9992339], [46.3284026, 43.9990564], [46.3283791, 43.9989623], [46.3284491, 43.9988429], [46.3288553, 43.9984478], [46.3290356, 43.9983926], [46.3293725, 43.998427], [46.3297203, 43.9985498], [46.3301236, 43.998716], [46.3304093, 43.9988543], [46.3306822, 43.9989168], [46.3309682, 43.9989293], [46.331265, 43.9988457], [46.332265, 43.9986512], [46.3336014, 43.9984621], [46.3351135, 43.9982884], [46.3358039, 43.9982582], [46.3361107, 43.9981735], [46.3362762, 43.998082], [46.336357, 43.9979742], [46.3364063, 43.9978254], [46.3363044, 43.9976711], [46.3362776, 43.9975977], [46.3362906, 43.9973927], [46.3364782, 43.9969577], [46.3367791, 43.9964058], [46.3369239, 43.9961626], [46.3372138, 43.9956719], [46.3372887, 43.9953831], [46.3373048, 43.995082], [46.3372514, 43.9947672], [46.3373994, 43.9946287], [46.3377286, 43.9946074], [46.3380559, 43.9945572], [46.3381954, 43.9943836], [46.3381836, 43.9942368], [46.3380997, 43.9940705], [46.3380638, 43.9939124], [46.3381565, 43.993723], [46.3381691, 43.9936159], [46.3379902, 43.9933682], [46.3378738, 43.9931274], [46.3379064, 43.9927841], [46.3380447, 43.9924977], [46.3381108, 43.9922916], [46.3384791, 43.9919497], [46.3387367, 43.9917297], [46.3391284, 43.9913619], [46.339301, 43.9911629], [46.3394644, 43.9910707], [46.3397629, 43.9909794], [46.3401043, 43.990936], [46.3405928, 43.9908536], [46.3409012, 43.9907668], [46.3412204, 43.990622], [46.3414898, 43.9904446], [46.3417491, 43.9903292], [46.342237, 43.9901802], [46.3426098, 43.9900528], [46.342715, 43.9899844], [46.3428009, 43.9898474], [46.3429055, 43.989637], [46.343002, 43.9894151], [46.3430639, 43.9892873], [46.3431517, 43.9891949], [46.3434553, 43.9891527], [46.3437879, 43.9891276], [46.3439515, 43.9890967], [46.3440668, 43.9889906], [46.3440562, 43.9888883], [46.3440775, 43.9887841], [46.3441447, 43.9886818], [46.3442922, 43.9885603], [46.3444853, 43.988485], [46.3446301, 43.9884078], [46.3447535, 43.9883171], [46.3448018, 43.9881936], [46.3447614, 43.9880746], [46.3446989, 43.9879303], [46.3447973, 43.9878174], [46.3451129, 43.9877594], [46.3453409, 43.9877304], [46.34548, 43.9876466], [46.3456144, 43.9875182], [46.345703, 43.9873001], [46.3456843, 43.9870241], [46.3456574, 43.9867173], [46.345585, 43.9866324], [46.3454878, 43.9865436], [46.3453734, 43.9865108], [46.3452079, 43.9865003], [46.3450463, 43.9864906], [46.3449161, 43.9864468], [46.3446297, 43.9862478], [46.3444562, 43.9861687], [46.3442144, 43.9861557], [46.3439328, 43.9862194], [46.3436458, 43.9862734], [46.3433239, 43.986312], [46.3430982, 43.9863093], [46.3427024, 43.9861719], [46.3425221, 43.9861508], [46.3420692, 43.9862072], [46.3418117, 43.9861648], [46.3415408, 43.9860027], [46.3412619, 43.9859313], [46.3411119, 43.9859198], [46.3409496, 43.9858626], [46.3403394, 43.985542], [46.3402043, 43.9854009], [46.3401691, 43.9853073], [46.3402327, 43.9851704], [46.3404545, 43.985111], [46.3407468, 43.985084], [46.3409078, 43.9850338], [46.3410265, 43.9849548], [46.3410706, 43.9848185], [46.3409896, 43.984632], [46.3408059, 43.9845725], [46.3406476, 43.9845687], [46.3405698, 43.9844857], [46.3406369, 43.9843294], [46.3406932, 43.984175], [46.340653, 43.9840361], [46.3405403, 43.9839725], [46.3405108, 43.9838662], [46.3406601, 43.9838011], [46.3408464, 43.9837709], [46.3409588, 43.9836694], [46.3409454, 43.9834513], [46.3409481, 43.9833336], [46.3410976, 43.9832101], [46.3412755, 43.9830539], [46.3413532, 43.9828011], [46.3414176, 43.9826737], [46.341651, 43.9824288], [46.343074, 43.981478], [46.3443947, 43.9811442], [46.3446656, 43.9810759], [46.3449894, 43.9809594], [46.3457487, 43.9807096], [46.3459739, 43.9805977], [46.3462799, 43.9803976], [46.3465401, 43.9802259], [46.3466259, 43.9800618], [46.3466338, 43.979892], [46.3466097, 43.9797627], [46.346583, 43.9796353], [46.346701, 43.9795272], [46.346768, 43.9793361], [46.3467412, 43.9791161], [46.3467867, 43.9788362], [46.3467734, 43.9787301], [46.346717, 43.9784792], [46.3467198, 43.97807], [46.346709, 43.9777727], [46.3467734, 43.9776396], [46.3469424, 43.9775488], [46.3469522, 43.9774565], [46.346825, 43.9772723], [46.3466152, 43.9771126], [46.3464702, 43.9768462], [46.3464542, 43.9767537], [46.3465051, 43.9765876], [46.3465749, 43.9764888], [46.3464824, 43.9763037], [46.3458991, 43.9758789], [46.3453041, 43.9754444], [46.3449388, 43.9750392], [46.3447323, 43.9746513], [46.3445848, 43.9742555], [46.3443408, 43.9738773], [46.34419, 43.9736273], [46.3440403, 43.973329], [46.343224, 43.9727032], [46.3430587, 43.9724488], [46.3431176, 43.9720897], [46.3432008, 43.9719006], [46.3433161, 43.9716844], [46.3434449, 43.9714971], [46.3436996, 43.971252], [46.3439733, 43.9710011], [46.3441673, 43.9707122], [46.344334, 43.9703736], [46.3444668, 43.9702553], [46.3447579, 43.9700938], [46.3451393, 43.9698674], [46.345402, 43.9697458], [46.3456747, 43.9696552], [46.3459626, 43.9696042], [46.3463726, 43.9696092], [46.3466703, 43.9696112], [46.3468365, 43.9695397], [46.3469492, 43.9693757], [46.3469734, 43.9692502], [46.3470056, 43.9691093], [46.3470106, 43.9689107], [46.3469412, 43.9686865], [46.3469385, 43.9684164], [46.3469124, 43.9680289], [46.3469274, 43.9677508], [46.3468526, 43.9676636], [46.3465683, 43.9676055], [46.3463215, 43.9675205], [46.3461767, 43.9673699], [46.3460936, 43.9671556], [46.3461178, 43.9669336], [46.3461821, 43.9666865], [46.3462036, 43.9665147], [46.3462787, 43.9664047], [46.3464101, 43.9662869], [46.3467239, 43.9661556], [46.3469945, 43.9660443], [46.3473328, 43.965841], [46.347536, 43.9656972], [46.347778, 43.9655823], [46.348183, 43.9654704], [46.3484104, 43.9653737], [46.3486668, 43.9652238], [46.3490663, 43.9650581], [46.3493474, 43.9649167], [46.3495738, 43.9647968], [46.3497132, 43.9647056], [46.3498313, 43.9645948], [46.349923, 43.9643827], [46.3500146, 43.9640815], [46.3501284, 43.9638121], [46.3502893, 43.9635702], [46.3503432, 43.9633993], [46.3503658, 43.9631978], [46.3503803, 43.9629341], [46.3503718, 43.9627891], [46.3505473, 43.96246], [46.3505307, 43.9623563], [46.3505358, 43.9622346], [46.3506165, 43.9620246], [46.3507326, 43.9619158], [46.3509306, 43.9617827], [46.3510597, 43.9615992], [46.3511638, 43.9613149], [46.3512819, 43.9611537], [46.3514525, 43.9609517], [46.3516047, 43.9606766], [46.3516059, 43.9604398], [46.3516379, 43.9603775], [46.3518025, 43.9602652], [46.3519013, 43.9601387], [46.3519081, 43.9599701], [46.3519031, 43.9597463], [46.3520493, 43.9597235], [46.3522242, 43.9596358], [46.3525003, 43.9592118], [46.3525747, 43.9589673], [46.3523376, 43.9587643], [46.3521788, 43.9586657], [46.3516847, 43.9585005], [46.3514934, 43.9584081], [46.3513648, 43.9582508], [46.3513004, 43.957996], [46.3512809, 43.9577066], [46.351324, 43.9574668], [46.351378, 43.9573562], [46.3516396, 43.9572084], [46.3516578, 43.9570079], [46.3516681, 43.9568714], [46.3517069, 43.9566946], [46.3518474, 43.9565736], [46.3521136, 43.9563365], [46.352424, 43.9560975], [46.3528417, 43.9559827], [46.3530718, 43.955891], [46.3533141, 43.9557439], [46.3535118, 43.9556032], [46.3536429, 43.9553761], [46.3536729, 43.9550632], [46.3537003, 43.9549484], [46.3538633, 43.9547674], [46.3540054, 43.9545263], [46.3539962, 43.9543636], [46.3538541, 43.954166], [46.353697, 43.9540469], [46.3535169, 43.9539282], [46.3534633, 43.9538313], [46.3534982, 43.9536335], [46.3536659, 43.9534711], [46.3537625, 43.9532624], [46.3538152, 43.9530701], [46.3539489, 43.9529295], [46.3541217, 43.9527753], [46.3544516, 43.9524649], [46.3546067, 43.9522671], [46.3549629, 43.9521454], [46.3555642, 43.9520443], [46.3559559, 43.9519586], [46.3562972, 43.9519665], [46.3568308, 43.9519196], [46.3570729, 43.9520117], [46.3573421, 43.9521068], [46.3574891, 43.9521085], [46.3578832, 43.9520062], [46.3581514, 43.9519731], [46.3586298, 43.9518974], [46.3589384, 43.9517374], [46.3591323, 43.9516712], [46.3592185, 43.9515679], [46.3592236, 43.9513195], [46.3592623, 43.9512583], [46.359406, 43.9512938], [46.3594849, 43.9513993], [46.3596079, 43.9514174], [46.3597859, 43.9513955], [46.359841, 43.951287], [46.3597808, 43.9511253], [46.3596409, 43.9509867], [46.3593546, 43.9506607], [46.3591776, 43.9504891], [46.3587749, 43.9502483], [46.3584554, 43.9501259], [46.3584304, 43.949994], [46.3582883, 43.9499067], [46.3579288, 43.9498647], [46.3577462, 43.9497703], [46.3574846, 43.9495382], [46.3572305, 43.9494412], [46.3570631, 43.9495001], [46.3570111, 43.9495881], [46.3568116, 43.9495664], [46.3566042, 43.9494474], [46.3560026, 43.9489806], [46.3558158, 43.9489257], [46.3557145, 43.9487733], [46.3555178, 43.9486074], [46.3555042, 43.9484907], [46.3554957, 43.9482805], [46.35559, 43.9480918], [46.3554746, 43.9477749], [46.3555579, 43.9473717], [46.3557815, 43.9471567], [46.3559073, 43.9469559], [46.3559978, 43.946603], [46.3560604, 43.9465188], [46.3563618, 43.9463535], [46.3566747, 43.9462706], [46.3571148, 43.9462181], [46.3574153, 43.9461412], [46.3578315, 43.9459414], [46.3581368, 43.9457324], [46.3582834, 43.9457206], [46.3587955, 43.9456053], [46.3590834, 43.9456116], [46.3593118, 43.9456252], [46.3595211, 43.9456931], [46.3596193, 43.945777], [46.3596999, 43.945766], [46.3599136, 43.9456959], [46.3601405, 43.9454888], [46.360318, 43.9452646], [46.360436, 43.9451593], [46.3606511, 43.9450112], [46.3607508, 43.944901], [46.3606838, 43.9448042], [46.360481, 43.9447434], [46.3603844, 43.9446515], [46.3604083, 43.9445238], [46.3604152, 43.9444458], [46.3595377, 43.9444398], [46.3589611, 43.944428], [46.2511331, 43.9458787], [46.2504726, 43.8814873], [46.2181815, 43.8597338], [46.0956745, 43.8606982], [46.0953968, 43.8403377], [46.079883, 43.84233], [46.0803418, 43.8164693], [46.0791, 43.8166021], [46.0446467, 43.82028], [46.0035788, 43.8813818], [46.0353196, 43.8876081], [46.0592932, 43.8852351], [46.0720803, 43.9302987], [46.0472729, 43.9335759], [46.0193479, 43.9372593], [46.0019125, 43.9396068], [45.9885541, 43.940757], [45.9664742, 43.942959], [45.9614499, 43.9433461], [45.9344526, 43.9459826], [45.9178686, 43.9476602], [45.8953261, 43.9497346], [45.8882671, 43.950432], [45.8838265, 43.9536937], [45.8763169, 43.9591879], [45.8682267, 43.9651326], [45.8601121, 43.9709906], [45.8514564, 43.970977], [45.8390919, 43.9710215], [45.8187616, 43.9707302], [45.796003, 43.9706054], [45.7956262, 43.9522262], [45.7772297, 43.9522984], [45.7195923, 43.9526755], [45.7187231, 43.952168]]]}, "properties": {"name": "Шелковской район", "osm_type": "relation", "osm_id": 1749743, "display_name": "Шелковской район, Чечня, Северо-Кавказский федеральный округ, Россия", "fetched": "2026-09-03"}}, {"type": "Feature", "geometry": {"type": "Polygon", "coordinates": [[[45.0524071, 43.8918857], [45.0524586, 43.8884241], [45.0586746, 43.8883656], [45.0595712, 43.8883573], [45.05974, 43.8883557], [45.0631242, 43.8883243], [45.0632592, 43.8883228], [45.0641027, 43.8883153], [45.0641396, 43.888315], [45.0649021, 43.8883077], [45.0648897, 43.8848505], [45.0648673, 43.8789444], [45.0647482, 43.8703798], [45.0647472, 43.870311], [45.0647004, 43.8669272], [45.0647, 43.8668995], [45.064697, 43.8667005], [45.0646712, 43.8509389], [45.0646513, 43.8480866], [45.0646513, 43.8480596], [45.0645969, 43.8401458], [45.0645794, 43.8371109], [45.064552, 43.8323459], [45.064505, 43.8250635], [45.0644637, 43.8169233], [45.0643741, 43.8083643], [45.0643738, 43.8083342], [45.0643524, 43.8063294], [45.0643298, 43.8024507], [45.0643038, 43.7980469], [45.0642318, 43.7909366], [45.064228, 43.7853467], [45.0641948, 43.7784185], [45.0641457, 43.7698788], [45.0640818, 43.7638294], [45.0640816, 43.7638016], [45.0640759, 43.7633012], [45.0640612, 43.7617624], [45.0640587, 43.7615248], [45.064058, 43.7614895], [45.0637226, 43.7456415], [45.0637624, 43.7367939], [45.0637299, 43.733387], [45.0637241, 43.7333434], [45.0637135, 43.7323708], [45.0637109, 43.7322384], [45.0637095, 43.7320434], [45.0636581, 43.7262945], [45.0636726, 43.7199967], [45.0635638, 43.7197184], [45.0635334, 43.7196965], [45.0637478, 43.7192649], [45.0655931, 43.7196991], [45.0668806, 43.7197533], [45.0679857, 43.719482], [45.0689727, 43.7184739], [45.0699276, 43.7166129], [45.0711078, 43.7149845], [45.0721378, 43.7141237], [45.0723309, 43.7138523], [45.0721807, 43.7133482], [45.0710328, 43.7107658], [45.069563, 43.7091217], [45.0681896, 43.706764], [45.0671275, 43.7052438], [45.0655611, 43.7036306], [45.0650891, 43.7013967], [45.0653896, 43.7000626], [45.067192, 43.6972547], [45.0691282, 43.6945748], [45.0711725, 43.6922151], [45.0747345, 43.6899807], [45.0755714, 43.6891866], [45.0785861, 43.6867974], [45.0825452, 43.6844403], [45.0875447, 43.6830827], [45.0902269, 43.6825472], [45.0929521, 43.6826779], [45.0946687, 43.6833007], [45.0975869, 43.6852629], [45.099333, 43.6872187], [45.1007948, 43.6892139], [45.1006446, 43.6915723], [45.1003442, 43.6934496], [45.1004515, 43.6947839], [45.1003656, 43.695389], [45.0994429, 43.6964361], [45.0978014, 43.6975919], [45.0957951, 43.698833], [45.0951084, 43.6997406], [45.0942715, 43.70116], [45.0936814, 43.7026104], [45.0936706, 43.7044564], [45.0936922, 43.7054725], [45.0941427, 43.7071011], [45.094486, 43.7075897], [45.095355, 43.7081947], [45.0972755, 43.7092572], [45.098563, 43.7098078], [45.1001294, 43.7101724], [45.1022322, 43.7102964], [45.1041205, 43.7099785], [45.1060517, 43.7098234], [45.1076611, 43.7094511], [45.1085837, 43.7088927], [45.1095922, 43.7079156], [45.1107294, 43.7070702], [45.1125855, 43.7059767], [45.1136531, 43.7053291], [45.1148118, 43.7042905], [45.1157185, 43.7037223], [45.1164909, 43.7032708], [45.1174699, 43.7028642], [45.1179796, 43.702584], [45.1193475, 43.7015686], [45.1202272, 43.7006457], [45.1206618, 43.6999747], [45.1210587, 43.6991521], [45.1215415, 43.6980731], [45.1220243, 43.697112], [45.1227754, 43.6967009], [45.1241701, 43.6960881], [45.1248461, 43.6959873], [45.1256883, 43.695933], [45.1273781, 43.6954792], [45.1284993, 43.6955296], [45.1291966, 43.6954831], [45.1304948, 43.695134], [45.1324367, 43.6944282], [45.1357788, 43.6933151], [45.1397163, 43.6923959], [45.1428599, 43.6914726], [45.1456363, 43.6910885], [45.1496298, 43.6909607], [45.1548976, 43.6908909], [45.1559704, 43.6906427], [45.1579232, 43.6905884], [45.1603371, 43.690922], [45.162279, 43.6912246], [45.1644462, 43.6914806], [45.1691241, 43.6931253], [45.1716256, 43.693415], [45.1748358, 43.6928952], [45.1761835, 43.692784], [45.1777447, 43.6929042], [45.1788604, 43.6931757], [45.1803035, 43.6930904], [45.1810551, 43.6926325], [45.1822132, 43.6919271], [45.1848847, 43.6911019], [45.1868374, 43.6903078], [45.1873417, 43.6898718], [45.1882321, 43.6887819], [45.188672, 43.6879323], [45.18923, 43.6868151], [45.1897664, 43.6856358], [45.1900561, 43.6847669], [45.1900561, 43.6838902], [45.1895196, 43.6824159], [45.1890048, 43.6813763], [45.1877602, 43.6799021], [45.1871057, 43.6787537], [45.1863226, 43.6765733], [45.1863547, 43.6756731], [45.1867088, 43.6748739], [45.1872989, 43.6741832], [45.1880178, 43.6735935], [45.1888976, 43.6731745], [45.1900455, 43.6729727], [45.1911291, 43.6729416], [45.1923951, 43.6731512], [45.1932856, 43.6733142], [45.1943049, 43.6733297], [45.1957747, 43.6730659], [45.1967296, 43.6728485], [45.1976629, 43.6723752], [45.1986501, 43.6718185], [45.199283, 43.6711644], [45.1996801, 43.6707516], [45.1998195, 43.6702221], [45.1997551, 43.6697289], [45.1998732, 43.6690771], [45.1997552, 43.6683165], [45.1994654, 43.667781], [45.1988861, 43.6666092], [45.1981351, 43.6658718], [45.1971802, 43.6652354], [45.1955388, 43.6643119], [45.191891, 43.6631786], [45.1887152, 43.6620688], [45.186473, 43.6611839], [45.184177, 43.6604621], [45.1829754, 43.6599576], [45.1822566, 43.6591736], [45.1812802, 43.6581257], [45.1807224, 43.6572797], [45.180304, 43.6563482], [45.1799392, 43.655277], [45.1799607, 43.6545939], [45.1803468, 43.6538798], [45.1812911, 43.6529172], [45.1824122, 43.6518788], [45.1835978, 43.6510375], [45.1842576, 43.6508895], [45.1854109, 43.6508912], [45.1868949, 43.6505695], [45.188474, 43.6502274], [45.1902657, 43.6500481], [45.192508, 43.6500949], [45.1934737, 43.650313], [45.1943803, 43.6503866], [45.1964831, 43.6502469], [45.1977465, 43.6503213], [45.198637, 43.6503136], [45.200096, 43.6499474], [45.2008149, 43.6495267], [45.2010831, 43.649293], [45.2013621, 43.64881], [45.2013674, 43.6483971], [45.2019763, 43.6475997], [45.2025771, 43.646769], [45.2030063, 43.6455035], [45.2036716, 43.6439586], [45.2042267, 43.6428694], [45.2046237, 43.642176], [45.2057717, 43.6411786], [45.206217, 43.6407696], [45.2067374, 43.6404423], [45.2074078, 43.6401501], [45.2080355, 43.6400333], [45.2088402, 43.6400527], [45.209575, 43.6401969], [45.2103047, 43.6404579], [45.2107768, 43.6406815], [45.211415, 43.6412055], [45.2120158, 43.6418655], [45.2124343, 43.6426535], [45.2130833, 43.6447109], [45.213137, 43.6458212], [45.2128259, 43.6469313], [45.212858, 43.6476301], [45.2132227, 43.648453], [45.2137807, 43.6492293], [45.2141669, 43.6496097], [45.2151218, 43.6501958], [45.2166936, 43.6505218], [45.217906, 43.6506228], [45.2193704, 43.6505374], [45.2205077, 43.6502269], [45.2213766, 43.6497961], [45.2226159, 43.6491246], [45.2231255, 43.6486937], [45.2238819, 43.6479329], [45.224472, 43.6473934], [45.2255341, 43.6467607], [45.2258886, 43.6464493], [45.2259901, 43.64619], [45.2260062, 43.64527], [45.226253, 43.6433679], [45.2264997, 43.6425449], [45.2271328, 43.6416103], [45.2278301, 43.6406987], [45.2292571, 43.6392263], [45.2299653, 43.637883], [45.2306412, 43.6375258], [45.2318374, 43.6372424], [45.2340905, 43.6367338], [45.2353458, 43.6365862], [45.2359359, 43.6364309], [45.2368478, 43.6359417], [45.2382426, 43.6351419], [45.2400826, 43.6344081], [45.2411394, 43.6339151], [45.2418258, 43.6335183], [45.2427541, 43.6328164], [45.2433711, 43.6321097], [45.2440952, 43.6310109], [45.2450234, 43.6299045], [45.2458799, 43.6292705], [45.2470619, 43.6283848], [45.2483921, 43.6274106], [45.2497547, 43.6266858], [45.2522975, 43.6261714], [45.2543685, 43.6257323], [45.2555751, 43.6254519], [45.2565086, 43.6248306], [45.2571749, 43.6240981], [45.2586222, 43.6230599], [45.2596629, 43.6224847], [45.2609557, 43.6219041], [45.2612947, 43.6218002], [45.2623934, 43.6214637], [45.2644962, 43.6211169], [45.2661217, 43.6211792], [45.2678811, 43.6213819], [45.2693457, 43.62153], [45.27044, 43.6215339], [45.2709926, 43.6214092], [45.2721996, 43.6208987], [45.2735407, 43.6201193], [45.2739859, 43.6200375], [45.2750802, 43.619944], [45.2758259, 43.6199439], [45.2765447, 43.6200491], [45.2770705, 43.6202409], [45.2778429, 43.6209632], [45.278374, 43.6216311], [45.2794414, 43.6232894], [45.2795434, 43.6238097], [45.2795004, 43.6252698], [45.279361, 43.6269084], [45.2795219, 43.6280268], [45.2798437, 43.6288965], [45.2804338, 43.6298362], [45.2816891, 43.6310087], [45.2827941, 43.6320804], [45.2837919, 43.6331482], [45.2845911, 43.6339324], [45.2851706, 43.6344721], [45.2855139, 43.6347517], [45.2859376, 43.6350041], [45.2865116, 43.6352797], [45.2875631, 43.6356175], [45.2889202, 43.6358039], [45.2906476, 43.635831], [45.2920531, 43.635602], [45.2933727, 43.635272], [45.295379, 43.6352371], [45.2964358, 43.6351865], [45.29738, 43.6350624], [45.2985441, 43.6347518], [45.2992093, 43.6343674], [45.3000944, 43.6335831], [45.3008078, 43.6326086], [45.3011726, 43.6320689], [45.3017145, 43.6315797], [45.3025567, 43.6310944], [45.3031522, 43.6304498], [45.3035008, 43.6296189], [45.3038531, 43.629333], [45.3048473, 43.628687], [45.3064835, 43.6282172], [45.3084629, 43.6278561], [45.3110593, 43.6274445], [45.3120786, 43.6274833], [45.3125935, 43.6277629], [45.313763, 43.6288035], [45.3156834, 43.6302402], [45.3164934, 43.6307373], [45.3172874, 43.6310556], [45.3183764, 43.6314323], [45.3197282, 43.6317429], [45.3207635, 43.6321389], [45.3221207, 43.6327873], [45.3236173, 43.6336998], [45.324615, 43.6343636], [45.3264251, 43.6353082], [45.3273188, 43.6357071], [45.3286491, 43.6361109], [45.330827, 43.6364991], [45.3326161, 43.6363144], [45.3339599, 43.6360954], [45.3355853, 43.6356139], [45.336787, 43.6353694], [45.3375808, 43.6353111], [45.3379403, 43.6352723], [45.3396461, 43.6344298], [45.3409122, 43.6339833], [45.3417705, 43.6339367], [45.3436052, 43.634193], [45.3452841, 43.6345657], [45.3462229, 43.6348957], [45.3471886, 43.6353383], [45.348004, 43.6358508], [45.3485672, 43.6363983], [45.3492377, 43.6372757], [45.3494201, 43.637858], [45.3496025, 43.63865], [45.3497902, 43.6394498], [45.3506808, 43.6403659], [45.3520647, 43.6418257], [45.3530625, 43.6427263], [45.3541568, 43.6433085], [45.3555516, 43.6436502], [45.3566459, 43.6439918], [45.3583624, 43.644838], [45.3592262, 43.6451659], [45.3626165, 43.6461153], [45.3632333, 43.6461851], [45.3639254, 43.6461308], [45.3647246, 43.6459134], [45.3652826, 43.6456766], [45.365744, 43.6453273], [45.3660443, 43.6450089], [45.3662482, 43.6446246], [45.3664413, 43.64412], [45.3665701, 43.6436076], [45.3664628, 43.6429399], [45.3662912, 43.6422954], [45.3661892, 43.641818], [45.3662482, 43.6413832], [45.3665058, 43.6408591], [45.3669618, 43.6404204], [45.367627, 43.6400322], [45.3685442, 43.639644], [45.3696063, 43.6394732], [45.3705934, 43.6395431], [45.3717682, 43.6397372], [45.3726962, 43.6399468], [45.3734741, 43.640009], [45.3746061, 43.6398692], [45.3756307, 43.6395703], [45.3763012, 43.6391976], [45.3769503, 43.6385493], [45.3781037, 43.6373419], [45.3796165, 43.6356802], [45.3802495, 43.6353774], [45.3810112, 43.6351988], [45.3823094, 43.6350978], [45.3834145, 43.6351833], [45.3848736, 43.6354473], [45.3860913, 43.6359346], [45.3866974, 43.6360976], [45.3877811, 43.6361908], [45.3886662, 43.6362918], [45.3896693, 43.6364354], [45.3903829, 43.6364393], [45.3912733, 43.6362879], [45.3927807, 43.6357948], [45.3932756, 43.6354455], [45.3936444, 43.6351853], [45.3942613, 43.6346883], [45.3952483, 43.6342418], [45.3966485, 43.6334964], [45.397421, 43.6324326], [45.3982257, 43.6317104], [45.3990947, 43.63126], [45.3999744, 43.6309494], [45.40116, 43.6306932], [45.4021256, 43.6306699], [45.403413, 43.6307243], [45.4045932, 43.6306155], [45.4056661, 43.6304369], [45.4069482, 43.6303709], [45.40977, 43.6302312], [45.4136859, 43.6282043], [45.4144209, 43.6276724], [45.415086, 43.6268763], [45.4157406, 43.6259561], [45.4171246, 43.6247911], [45.4183799, 43.6236106], [45.4192275, 43.6226166], [45.4199127, 43.6214482], [45.4213035, 43.6202321], [45.4222315, 43.6193934], [45.424018, 43.6178438], [45.4249031, 43.6174594], [45.4263139, 43.616904], [45.4272473, 43.6162709], [45.4283203, 43.6154515], [45.4295701, 43.6148806], [45.4306645, 43.6144301], [45.4322577, 43.6139136], [45.4338831, 43.6135174], [45.4362919, 43.6126207], [45.4369087, 43.6123911], [45.4383464, 43.6119483], [45.4393495, 43.6116376], [45.4413451, 43.6103248], [45.4438986, 43.6083905], [45.4464188, 43.6060814], [45.448552, 43.6032571], [45.4492523, 43.6011655], [45.4499898, 43.5995946], [45.4507223, 43.5980343], [45.4513553, 43.5954314], [45.4516236, 43.5934033], [45.4517094, 43.5918493], [45.4513446, 43.5909324], [45.4510013, 43.5898367], [45.4510657, 43.5887954], [45.4514735, 43.5874665], [45.4524177, 43.5853372], [45.45363, 43.5832855], [45.4558104, 43.5812122], [45.4581683, 43.5804333], [45.4587692, 43.5799358], [45.4590374, 43.5788089], [45.4595256, 43.5778713], [45.4616545, 43.5760094], [45.4644769, 43.5741376], [45.4664725, 43.5721011], [45.4678137, 43.5707563], [45.4686613, 43.57022], [45.4703564, 43.5693261], [45.4714468, 43.5689542], [45.4730742, 43.5683526], [45.4836839, 43.5681481], [45.4859374, 43.5675358], [45.487392, 43.566507], [45.4957416, 43.5602223], [45.4982509, 43.5570892], [45.4996995, 43.5559477], [45.5032884, 43.5567553], [45.5065958, 43.5570348], [45.5127824, 43.5594261], [45.5200262, 43.5632296], [45.5236174, 43.5629013], [45.531007, 43.5597201], [45.5373424, 43.5591807], [45.5400675, 43.5597406], [45.5417304, 43.5607668], [45.5435865, 43.5609145], [45.5468266, 43.5609612], [45.5504638, 43.5608446], [45.552792, 43.5599506], [45.5538961, 43.5598491], [45.5543154, 43.5598106], [45.5594117, 43.5593364], [45.5620402, 43.5587455], [45.5644112, 43.5587903], [45.5680698, 43.5587359], [45.5746573, 43.5589381], [45.5823285, 43.5584794], [45.5845238, 43.5586593], [45.5900814, 43.5575941], [45.5921199, 43.5569722], [45.5963256, 43.5570655], [45.5992331, 43.5568089], [45.6041576, 43.555254], [45.609801, 43.5536444], [45.6135776, 43.5528358], [45.6173756, 43.5525085], [45.6235232, 43.5513536], [45.6321707, 43.5502994], [45.6355288, 43.549693], [45.6375536, 43.5488512], [45.6384471, 43.5484799], [45.6429103, 43.5459604], [45.6449488, 43.5449262], [45.6485752, 43.5442807], [45.6517187, 43.5435419], [45.6547121, 43.5435575], [45.6572413, 43.5438083], [45.6585611, 43.5441116], [45.6596339, 43.5446016], [45.6621873, 43.5450526], [45.6633783, 43.5448038], [45.6645477, 43.5443605], [45.6655845, 43.5442469], [45.6709314, 43.5436606], [45.6756628, 43.5436529], [45.6775296, 43.543894], [45.6791926, 43.5443528], [45.680539, 43.5444776], [45.6820518, 43.5441421], [45.6867617, 43.5430262], [45.6893903, 43.543112], [45.6918795, 43.5424643], [45.6928987, 43.5421911], [45.6937678, 43.5415668], [45.6945187, 43.5412623], [45.6953878, 43.5411297], [45.6961389, 43.5411531], [45.696804, 43.5410672], [45.6980808, 43.5407434], [45.7017554, 43.5387765], [45.7049955, 43.5379805], [45.7062051, 43.5375994], [45.7083644, 43.536919], [45.7097377, 43.5367161], [45.7116153, 43.5366381], [45.7137288, 43.5366849], [45.7167865, 43.5361519], [45.7192542, 43.5354052], [45.722269, 43.5343708], [45.7240285, 43.5344253], [45.7254876, 43.5343786], [45.7270541, 43.5341453], [45.7283093, 43.5336552], [45.7297497, 43.5325488], [45.730608, 43.5318916], [45.7315079, 43.5315737], [45.7324091, 43.5315737], [45.7329885, 43.5314336], [45.7337609, 43.5304458], [45.7422154, 43.5270854], [45.748202, 43.5255919], [45.7549827, 43.5237094], [45.7566457, 43.5240673], [45.7580866, 43.5238555], [45.7628899, 43.5231494], [45.7654112, 43.522457], [45.7669882, 43.5220836], [45.7682865, 43.5216168], [45.7694881, 43.5207299], [45.7707219, 43.5199597], [45.7715695, 43.5196719], [45.7724868, 43.5194579], [45.7739031, 43.5193646], [45.77474, 43.5191662], [45.77555, 43.5188239], [45.7784628, 43.5180732], [45.7825613, 43.5172018], [45.7847929, 43.5161982], [45.7861554, 43.5156752], [45.7876682, 43.5156128], [45.7899749, 43.5154645], [45.7932473, 43.5138013], [45.8005139, 43.5106005], [45.8018875, 43.5126762], [45.8029623, 43.5152191], [45.8028388, 43.5184867], [45.801782, 43.5209588], [45.8017364, 43.5234366], [45.8002463, 43.5266875], [45.8016198, 43.529654], [45.8020045, 43.5301459], [45.8030069, 43.5319053], [45.8034156, 43.5330426], [45.8029379, 43.5331367], [45.8029563, 43.533186], [45.7989264, 43.533987], [45.7976109, 43.5409989], [45.7973557, 43.5416026], [45.7958032, 43.5492389], [45.7951535, 43.5523781], [45.7856115, 43.5665911], [45.7703768, 43.5904154], [45.7631184, 43.6015732], [45.7601003, 43.6072175], [45.7663875, 43.6240177], [45.7682148, 43.6267121], [45.7796204, 43.6435959], [45.7812598, 43.646035], [45.7922397, 43.6624443], [45.7936906, 43.6646142], [45.7953995, 43.6673892], [45.8061806, 43.6834612], [45.8113037, 43.6916572], [45.8189321, 43.7355441], [45.8179022, 43.7421613], [45.8194355, 43.753976], [45.8214412, 43.7689757], [45.8225745, 43.7782306], [45.8251741, 43.7986749], [45.8263119, 43.8077213], [45.8270198, 43.8137425], [45.8276517, 43.8191178], [45.829218, 43.8315569], [45.8296417, 43.8368133], [45.8243961, 43.8367387], [45.8214801, 43.8367835], [45.7715088, 43.8375686], [45.7711018, 43.8375752], [45.7710817, 43.8546943], [45.7701427, 43.8612158], [45.7703849, 43.8628781], [45.7704188, 43.8631336], [45.7719689, 43.8632957], [45.7719633, 43.8636951], [45.7717791, 43.8647781], [45.7721555, 43.8701596], [45.7725486, 43.8744811], [45.7648927, 43.8743988], [45.7622644, 43.8780033], [45.7564063, 43.8863395], [45.754357, 43.8910213], [45.7513314, 43.8969667], [45.7466416, 43.903624], [45.7463948, 43.9039902], [45.7188488, 43.9519493], [45.7187231, 43.952168], [45.7195923, 43.9526755], [45.7127483, 43.9624946], [45.6432401, 43.9783355], [45.6264897, 43.9823452], [45.6106016, 43.9860188], [45.5886052, 43.9910065], [45.5700832, 43.9955418], [45.5215483, 44.0068773], [45.5212801, 44.0097337], [45.4891956, 44.0100224], [45.4888873, 44.0100226], [45.4398415, 44.0093028], [45.4394432, 43.9899289], [45.4394196, 43.9885591], [45.4391565, 43.9745525], [45.4391555, 43.9744986], [45.4387206, 43.950883], [45.4387194, 43.9508384], [45.4385733, 43.9428896], [45.4385543, 43.9414949], [45.4385049, 43.9376401], [45.4384407, 43.930026], [45.4383618, 43.9233071], [45.4389126, 43.9142238], [45.4387544, 43.9088347], [45.438407, 43.9049961], [45.4384013, 43.9046467], [45.4381978, 43.8920469], [45.4379707, 43.8756515], [45.426895, 43.8755668], [45.3878273, 43.8760742], [45.3823227, 43.8761449], [45.3758984, 43.8762264], [45.3344955, 43.8764092], [45.2263829, 43.8768162], [45.2175195, 43.8768847], [45.2148509, 43.8769051], [45.2020305, 43.8769389], [45.2017638, 43.8807444], [45.2020231, 43.8873206], [45.202077, 43.9003163], [45.2022101, 43.9141387], [45.2020985, 43.9220778], [45.2021599, 43.9305731], [45.2021456, 43.9384036], [45.2025813, 43.9567558], [45.2026108, 43.9574856], [45.1660666, 43.9572974], [45.1460524, 43.9573668], [45.1360537, 43.9573891], [45.1240317, 43.957452], [45.1023475, 43.9575933], [45.0739617, 43.9579098], [45.0581735, 43.9579077], [45.0532986, 43.9579447], [45.0532258, 43.953329], [45.0532023, 43.9518865], [45.0532052, 43.9503016], [45.0531645, 43.9454094], [45.0531584, 43.9417178], [45.0531469, 43.9364912], [45.0531377, 43.9352787], [45.0529012, 43.9321556], [45.0528776, 43.9302106], [45.0528336, 43.9272013], [45.0527549, 43.9217049], [45.0527058, 43.9184537], [45.052681, 43.9165261], [45.052629, 43.9130679], [45.0525835, 43.9097319], [45.0525699, 43.9087404], [45.0525693, 43.9087133], [45.0525261, 43.9054927], [45.052518, 43.9032931], [45.0524636, 43.8991572], [45.0524071, 43.8918857]]]}, "properties": {"name": "Наурский район", "osm_type": "relation", "osm_id": 1749736, "display_name": "Наурский район, Чечня, Северо-Кавказский федеральный округ, Россия", "fetched": "2026-09-03"}}, {"type": "Feature", "geometry": {"type": "Polygon", "coordinates": [[[44.2674355, 43.7453232], [44.2725365, 43.7416091], [44.2733893, 43.7368386], [44.2750775, 43.7349937], [44.274326, 43.7260405], [44.2777148, 43.7218559], [44.2816173, 43.7110734], [44.2841634, 43.7090618], [44.2893569, 43.7097163], [44.2916811, 43.7031664], [44.2934905, 43.697191], [44.2946593, 43.6961835], [44.2971782, 43.6894595], [44.3025667, 43.6881737], [44.3103712, 43.6857092], [44.3189973, 43.6791371], [44.3203344, 43.679115], [44.3264734, 43.6812225], [44.3308067, 43.677905], [44.3332713, 43.6766727], [44.3345036, 43.6778023], [44.3362493, 43.6802669], [44.3385458, 43.6834964], [44.345286, 43.6814993], [44.3585844, 43.6804726], [44.3622812, 43.6818076], [44.3648484, 43.684991], [44.3704962, 43.6914606], [44.374193, 43.693001], [44.3800464, 43.6916661], [44.3961688, 43.6910502], [44.4017141, 43.6909475], [44.4044868, 43.6889965], [44.408081, 43.6849916], [44.410751, 43.6839647], [44.4163785, 43.6837247], [44.4268856, 43.6858411], [44.4293408, 43.6851545], [44.4296616, 43.684659], [44.4302108, 43.6838109], [44.4301789, 43.683157], [44.4300055, 43.6796006], [44.4298002, 43.678471], [44.4312379, 43.6770333], [44.4308272, 43.6748768], [44.4311354, 43.6694342], [44.4310328, 43.6648131], [44.4308274, 43.6629647], [44.4282602, 43.6623485], [44.4274387, 43.6616297], [44.4279522, 43.6610135], [44.4266172, 43.6602947], [44.4262065, 43.6591651], [44.4269253, 43.6592678], [44.4274388, 43.658549], [44.4264119, 43.6573167], [44.4277469, 43.6561871], [44.4278496, 43.6550575], [44.4283045, 43.6546026], [44.4287738, 43.6541333], [44.4295954, 43.6530037], [44.430725, 43.6520795], [44.4312385, 43.651566], [44.4305196, 43.651258], [44.4293901, 43.6511553], [44.4288766, 43.6501283], [44.4295955, 43.6497176], [44.4302116, 43.6492041], [44.4308278, 43.6484853], [44.4319574, 43.6476638], [44.4338058, 43.6475611], [44.4339873, 43.646879], [44.4347301, 43.64561], [44.4337032, 43.6445831], [44.4344221, 43.6428374], [44.4357571, 43.6400648], [44.4357572, 43.6377029], [44.434833, 43.636984], [44.4345249, 43.6362652], [44.4353465, 43.6350329], [44.4352438, 43.6343141], [44.4357573, 43.6311307], [44.4364762, 43.6292822], [44.4374004, 43.6286661], [44.4374004, 43.6277419], [44.4362709, 43.6268177], [44.4369897, 43.6260988], [44.4375032, 43.62538], [44.436579, 43.6249692], [44.4361682, 43.6241477], [44.4360656, 43.6230181], [44.4369265, 43.6229103], [44.4373235, 43.6228793], [44.437691, 43.6229298], [44.4388255, 43.6234618], [44.4392815, 43.6230773], [44.439649, 43.6226443], [44.4410545, 43.622357], [44.4414192, 43.6216618], [44.4412583, 43.6212075], [44.4409579, 43.6212075], [44.4407487, 43.6209434], [44.4412851, 43.6192231], [44.4404912, 43.615153], [44.4399333, 43.6137859], [44.4398654, 43.612364], [44.43966, 43.6104129], [44.4376063, 43.6086671], [44.4356552, 43.6084617], [44.4350358, 43.6068788], [44.4361667, 43.6064827], [44.440074, 43.6045478], [44.4615694, 43.5939019], [44.474682, 43.583488], [44.4753684, 43.5829428], [44.4663477, 43.5725251], [44.4445153, 43.5427231], [44.4448467, 43.5415191], [44.444917, 43.5410502], [44.4457852, 43.5352575], [44.4448458, 43.5302004], [44.4437671, 43.5220022], [44.4405866, 43.5077993], [44.4433594, 43.5023567], [44.4479805, 43.497633], [44.441386, 43.493121], [44.4411431, 43.4929548], [44.435234, 43.4903544], [44.4304209, 43.4808942], [44.4138794, 43.4527146], [44.4185748, 43.4466665], [44.4210457, 43.4466699], [44.4217866, 43.4451], [44.4235973, 43.4441866], [44.4267128, 43.444392], [44.4293949, 43.4406651], [44.4308326, 43.4371737], [44.4331662, 43.4343215], [44.4360774, 43.4322153], [44.4383292, 43.4303962], [44.4422421, 43.427733], [44.4431792, 43.423503], [44.449025, 43.4212468], [44.4523778, 43.4179056], [44.4651209, 43.41587], [44.4703872, 43.4117424], [44.4734892, 43.4101133], [44.4770394, 43.4069099], [44.4842764, 43.4021503], [44.4920068, 43.3968408], [44.4941414, 43.394794], [44.4973758, 43.3958173], [44.4992686, 43.4005226], [44.5124704, 43.4057541], [44.4934815, 43.4305253], [44.4895964, 43.4344709], [44.4887446, 43.4362924], [44.4922453, 43.4379686], [44.4912315, 43.4388602], [44.4916038, 43.4407625], [44.4933138, 43.4428782], [44.4905402, 43.4443559], [44.4901495, 43.4448268], [44.4916091, 43.4482981], [44.486262, 43.4482472], [44.483186, 43.4518695], [44.4816813, 43.4526985], [44.4828596, 43.4535382], [44.4819271, 43.4560172], [44.4814983, 43.4581644], [44.482216, 43.4603294], [44.4848152, 43.4613639], [44.4822616, 43.4617051], [44.4804976, 43.4634506], [44.4809877, 43.4657035], [44.4793366, 43.4650294], [44.478436, 43.4676932], [44.4817051, 43.4705378], [44.4824118, 43.4755184], [44.4842198, 43.4752914], [44.4878981, 43.4743467], [44.494609, 43.4732694], [44.4970598, 43.4757922], [44.4916337, 43.4773662], [44.493923, 43.4798315], [44.4925819, 43.4812565], [44.491166, 43.482219], [44.4901491, 43.4829103], [44.4888446, 43.4840641], [44.4880728, 43.4849531], [44.4888787, 43.4859624], [44.4903388, 43.486619], [44.4911311, 43.4884177], [44.4921944, 43.4894159], [44.4917779, 43.492094], [44.4908972, 43.4939384], [44.4895521, 43.4953494], [44.4900656, 43.4963438], [44.4905163, 43.4980036], [44.4891346, 43.4993311], [44.4856315, 43.499342], [44.4848427, 43.500325], [44.4834953, 43.5017224], [44.4840636, 43.5028136], [44.4849295, 43.5044044], [44.4850043, 43.5045418], [44.4842072, 43.5061959], [44.4834658, 43.5077344], [44.4825789, 43.5091553], [44.4829047, 43.5101308], [44.4830101, 43.5104462], [44.482275, 43.5112939], [44.4820789, 43.5115201], [44.4813579, 43.5123316], [44.4808172, 43.5129402], [44.4808802, 43.5146904], [44.4807386, 43.5158439], [44.4826972, 43.517597], [44.4945361, 43.525162], [44.5002312, 43.5288008], [44.5009011, 43.5300022], [44.5021955, 43.5323236], [44.5022933, 43.5324991], [44.5025217, 43.5329087], [44.5042654, 43.5363127], [44.5074918, 43.5426105], [44.5000611, 43.5614939], [44.5033457, 43.5879191], [44.526109, 43.5923605], [44.5297942, 43.5930636], [44.5371509, 43.5944671], [44.5449662, 43.5962341], [44.5468702, 43.5966646], [44.5480191, 43.5969244], [44.5483575, 43.5970009], [44.5571468, 43.598582], [44.5572905, 43.5986079], [44.5661585, 43.60052], [44.5688604, 43.6011288], [44.5693342, 43.6012356], [44.571695, 43.6017676], [44.5723132, 43.6018893], [44.5728286, 43.602023], [44.5742893, 43.6023521], [44.5829497, 43.6043036], [44.5833406, 43.6043849], [44.5842948, 43.6045832], [44.5881032, 43.6053749], [44.5900088, 43.6057711], [44.5936729, 43.6065328], [44.5966179, 43.6071288], [44.6072594, 43.6092823], [44.6074691, 43.6093246], [44.6094864, 43.609732], [44.6138266, 43.6106083], [44.6249924, 43.6128627], [44.6310674, 43.6140893], [44.6310505, 43.6137648], [44.6307356, 43.6077081], [44.6305588, 43.6043061], [44.6303704, 43.6030934], [44.6301241, 43.6015079], [44.6278712, 43.5870039], [44.6278557, 43.5869043], [44.6278439, 43.5868284], [44.6273584, 43.5837023], [44.6258505, 43.5714202], [44.6218703, 43.5473202], [44.6281144, 43.5480162], [44.6313273, 43.547181], [44.6338039, 43.546608], [44.6373895, 43.5449821], [44.6407607, 43.5435093], [44.6432802, 43.5428343], [44.6487055, 43.5416634], [44.6518091, 43.5416883], [44.6546809, 43.5421445], [44.6633534, 43.5485431], [44.6690852, 43.5509383], [44.6755871, 43.5508346], [44.6843921, 43.5479646], [44.6887822, 43.547795], [44.6924302, 43.547829], [44.6986089, 43.5479195], [44.7059252, 43.5517004], [44.7025048, 43.5598702], [44.7017724, 43.570388], [44.6955016, 43.5949647], [44.6993168, 43.5950242], [44.704709, 43.5951083], [44.7066187, 43.5951381], [44.7162944, 43.595289], [44.7458466, 43.5957498], [44.7475673, 43.5957844], [44.7513757, 43.595861], [44.7529287, 43.5958922], [44.7952148, 43.5967423], [44.7989568, 43.5927144], [44.7995448, 43.5902451], [44.7981949, 43.5870647], [44.802416, 43.587057], [44.8024608, 43.5819219], [44.8016295, 43.5818141], [44.7976114, 43.5812931], [44.7989454, 43.569757], [44.7893157, 43.5571222], [44.7927687, 43.555693], [44.8011292, 43.555762], [44.8001543, 43.5582367], [44.8119918, 43.5582854], [44.8156266, 43.5547903], [44.817925, 43.5543944], [44.8272493, 43.5532356], [44.8277321, 43.5531756], [44.8474013, 43.5646615], [44.8476391, 43.5697593], [44.8456075, 43.5719276], [44.8448711, 43.5725988], [44.8440245, 43.5735185], [44.8483361, 43.5787404], [44.8473299, 43.5813342], [44.8455934, 43.591897], [44.8454169, 43.5935938], [44.8445794, 43.5991054], [44.8440631, 43.6025266], [44.8433527, 43.6072161], [44.8428055, 43.6111083], [44.8423004, 43.6146299], [44.8420028, 43.6170534], [44.8418895, 43.6178103], [44.8406658, 43.6252284], [44.8394574, 43.6328758], [44.8386262, 43.6388358], [44.8377407, 43.644739], [44.8365766, 43.6524767], [44.836326, 43.6541652], [44.8360923, 43.6557395], [44.8356867, 43.6584715], [44.8350768, 43.6626584], [44.8343142, 43.6680286], [44.8322725, 43.6821383], [44.8270126, 43.6834729], [44.8248786, 43.6859483], [44.8251654, 43.6872898], [44.8278662, 43.6879117], [44.8364876, 43.6908994], [44.8384795, 43.6940168], [44.8385933, 43.697641], [44.8405847, 43.6997771], [44.8448527, 43.7022526], [44.8474989, 43.7047281], [44.8485231, 43.7076304], [44.8478402, 43.7101059], [44.8455354, 43.7124107], [44.844814, 43.7133844], [44.8423629, 43.7141683], [44.8394457, 43.7144394], [44.8355499, 43.7135682], [44.8330727, 43.7105326], [44.8309974, 43.7072147], [44.8284633, 43.7066059], [44.8275021, 43.7066455], [44.826273, 43.7067566], [44.824314, 43.7072842], [44.8221439, 43.7081032], [44.8204346, 43.7089223], [44.8176222, 43.7120689], [44.8160857, 43.7130932], [44.8111347, 43.7144589], [44.8029399, 43.7194098], [44.8034133, 43.7312113], [44.8034809, 43.7431241], [44.8034849, 43.7438239], [44.8035396, 43.7742713], [44.8033927, 43.8070486], [44.800236, 43.8078172], [44.7963351, 43.8088257], [44.7943712, 43.8119966], [44.7937279, 43.816997], [44.7084236, 43.8174612], [44.7022966, 43.817425], [44.702622, 43.8247052], [44.7027737, 43.8280981], [44.702934, 43.831685], [44.7029678, 43.8324406], [44.7030645, 43.834604], [44.6663591, 43.8351158], [44.6663891, 43.8321232], [44.6663927, 43.8317669], [44.6664447, 43.8265796], [44.6591873, 43.8266822], [44.6167558, 43.8272819], [44.616471, 43.8272859], [44.6164437, 43.8257408], [44.6159988, 43.8249886], [44.6099238, 43.8249293], [44.603541, 43.8249151], [44.6034494, 43.8275701], [44.6009366, 43.8275843], [44.5986279, 43.8277624], [44.5973272, 43.8284742], [44.596925, 43.8286943], [44.5909733, 43.8263417], [44.5842884, 43.8220986], [44.581696, 43.821507], [44.5760515, 43.8208165], [44.5707997, 43.8198945], [44.5700453, 43.819762], [44.5672869, 43.8192777], [44.5666896, 43.8192589], [44.5660961, 43.8192403], [44.5658064, 43.819252], [44.5600162, 43.8194849], [44.5536307, 43.8197418], [44.5536234, 43.8193596], [44.5535237, 43.8141513], [44.5404532, 43.8142489], [44.5399717, 43.8142525], [44.525988, 43.8143569], [44.5046155, 43.8145164], [44.5046132, 43.8142991], [44.5045386, 43.8072987], [44.4954447, 43.8073241], [44.4914256, 43.8073354], [44.4910814, 43.8073364], [44.4728011, 43.8073875], [44.4726783, 43.8030744], [44.472547, 43.8011845], [44.4097019, 43.8014708], [44.4020826, 43.8014688], [44.3796052, 43.8014629], [44.3797325, 43.8134427], [44.3594288, 43.8118587], [44.3593723, 43.8114807], [44.3593363, 43.8112398], [44.3541932, 43.8105905], [44.3538397, 43.8105459], [44.3534144, 43.8104922], [44.3547703, 43.8083987], [44.3548304, 43.808306], [44.3514768, 43.807887], [44.3485947, 43.8077728], [44.3428941, 43.807547], [44.3330927, 43.8071588], [44.3231087, 43.8070007], [44.3229432, 43.8069927], [44.3210656, 43.8069022], [44.3146222, 43.8065916], [44.3112352, 43.8070828], [44.3106808, 43.8071632], [44.3056997, 43.8070444], [44.3049114, 43.8070256], [44.3046245, 43.8070188], [44.300843, 43.8078711], [44.2986882, 43.8083378], [44.2970132, 43.8087005], [44.2940696, 43.8093381], [44.292523, 43.809673], [44.2895179, 43.8100848], [44.2831471, 43.8109577], [44.2787565, 43.8109402], [44.2692477, 43.8109023], [44.2680325, 43.8108975], [44.2676706, 43.7987793], [44.2675253, 43.7745825], [44.2675178, 43.7733393], [44.2675161, 43.7730617], [44.2675139, 43.7726878], [44.2675076, 43.7716288], [44.2674609, 43.754574], [44.2674355, 43.7453232]]]}, "properties": {"name": "Моздокский район", "osm_type": "relation", "osm_id": 1060634, "display_name": "Моздокский район, Северная Осетия — Алания, Северо-Кавказский федеральный округ, Россия", "fetched": "2026-09-03"}}]}