{"type": "FeatureCollection", "features": [{"type": "Feature", "geometry": {"type": "MultiPolygon", "coordinates": [[[[50.064, 44.844], [50.042, 44.895], [50.004, 44.922], [49.986, 44.947], [49.986, 44.968], [50.052, 45.066], [50.113, 45.08], [50.112, 45.062], [50.054, 45.039], [50.018, 44.96], [50.03, 44.931], [50.043, 44.924], [50.058, 44.929], [50.062, 44.88], [50.073, 44.862], [50.141, 44.84], [50.189, 44.861], [50.17, 44.83], [50.143, 44.818], [50.112, 44.82], [50.079, 44.833], [50.064, 44.844]]], [[[50.282, 44.956], [50.264, 44.964], [50.257, 44.986], [50.277, 45.072], [50.344, 45.086], [50.354, 45.073], [50.326, 45.033], [50.333, 44.995], [50.325, 44.973], [50.304, 44.959], [50.282, 44.956]]], [[[49.782, 46.224], [49.767, 46.248], [49.721, 46.338], [49.72, 46.357], [49.75, 46.357], [49.812, 46.326], [49.838, 46.286], [49.841, 46.263], [49.822, 46.218], [49.805, 46.211], [49.782, 46.224]]], [[[23.938, 58.137], [23.955, 58.152], [24.013, 58.154], [24.022, 58.13], [24.002, 58.109], [23.971, 58.1], [23.943, 58.113], [23.938, 58.137]]], [[[22.723, 58.225], [22.669, 58.222], [22.655, 58.245], [22.621, 58.253], [22.586, 58.248], [22.565, 58.235], [22.535, 58.254], [22.504, 58.224], [22.497, 58.223], [22.491, 58.245], [22.477, 58.245], [22.422, 58.222], [22.388, 58.227], [22.323, 58.207], [22.272, 58.174], [22.265, 58.115], [22.229, 58.052], [22.2, 58.026], [22.203, 57.994], [22.048, 57.915], [22.017, 57.914], [21.99, 57.936], [21.991, 57.958], [21.964, 57.971], [21.963, 57.984], [21.998, 57.984], [22.021, 58.021], [22.086, 58.083], [22.148, 58.08], [22.165, 58.117], [22.203, 58.148], [22.142, 58.17], [22.072, 58.176], [22.053, 58.187], [22.017, 58.234], [21.994, 58.245], [21.929, 58.245], [21.868, 58.265], [21.843, 58.302], [21.856, 58.307], [21.908, 58.299], [21.873, 58.342], [21.895, 58.347], [21.945, 58.319], [21.963, 58.327], [21.955, 58.344], [21.968, 58.355], [22.011, 58.354], [21.946, 58.432], [21.832, 58.511], [21.901, 58.498], [21.916, 58.501], [21.928, 58.518], [21.996, 58.513], [22.021, 58.499], [22.064, 58.457], [22.074, 58.427], [22.089, 58.422], [22.098, 58.426], [22.093, 58.45], [22.104, 58.487], [22.114, 58.498], [22.172, 58.522], [22.195, 58.546], [22.216, 58.544], [22.229, 58.511], [22.273, 58.502], [22.283, 58.522], [22.288, 58.569], [22.322, 58.585], [22.463, 58.593], [22.55, 58.63], [22.583, 58.635], [22.613, 58.606], [22.648, 58.587], [22.682, 58.6], [22.736, 58.588], [22.811, 58.623], [22.846, 58.613], [22.9, 58.62], [22.99, 58.602], [23.091, 58.571], [23.148, 58.522], [23.255, 58.5], [23.318, 58.472], [23.333, 58.456], [23.325, 58.442], [23.261, 58.466], [23.238, 58.456], [23.262, 58.452], [23.278, 58.437], [23.235, 58.44], [23.196, 58.456], [23.182, 58.475], [23.157, 58.478], [23.13, 58.44], [23.109, 58.429], [23.084, 58.43], [23.087, 58.395], [23.022, 58.363], [22.978, 58.382], [22.955, 58.381], [22.948, 58.373], [22.969, 58.36], [22.903, 58.312], [22.854, 58.299], [22.811, 58.273], [22.721, 58.27], [22.71, 58.258], [22.757, 58.242], [22.723, 58.225]]], [[[23.063, 58.625], [23.121, 58.628], [23.135, 58.662], [23.176, 58.681], [23.288, 58.666], [23.344, 58.645], [23.348, 58.607], [23.4, 58.555], [23.362, 58.532], [23.279, 58.546], [23.224, 58.535], [23.135, 58.58], [23.083, 58.591], [23.059, 58.603], [23.063, 58.625]]], [[[23.034, 58.83], [22.957, 58.847], [22.942, 58.834], [22.929, 58.84], [22.88, 58.833], [22.867, 58.82], [22.887, 58.812], [22.887, 58.79], [22.845, 58.777], [22.79, 58.781], [22.778, 58.792], [22.827, 58.819], [22.819, 58.83], [22.778, 58.824], [22.737, 58.806], [22.681, 58.724], [22.655, 58.703], [22.611, 58.69], [22.556, 58.687], [22.502, 58.695], [22.463, 58.716], [22.497, 58.738], [22.449, 58.787], [22.44, 58.841], [22.382, 58.882], [22.325, 58.897], [22.195, 58.888], [22.045, 58.936], [22.056, 58.953], [22.094, 58.956], [22.168, 58.95], [22.463, 58.971], [22.444, 58.978], [22.442, 58.985], [22.488, 58.981], [22.488, 59.016], [22.559, 59.038], [22.573, 59.053], [22.578, 59.078], [22.598, 59.09], [22.667, 59.085], [22.714, 59.07], [22.692, 59.041], [22.701, 59.025], [22.737, 59.005], [22.837, 59.009], [22.934, 58.984], [22.95, 58.971], [22.95, 58.936], [23.015, 58.892], [23.022, 58.864], [23.039, 58.861], [23.041, 58.841], [23.034, 58.83]]], [[[23.17, 59.046], [23.278, 59.032], [23.344, 59.039], [23.39, 59.008], [23.394, 58.996], [23.374, 58.976], [23.34, 58.984], [23.299, 58.971], [23.223, 58.984], [23.174, 58.968], [23.148, 58.974], [23.114, 59.022], [23.119, 59.034], [23.17, 59.046]]], [[[24.531, 59.584], [24.55, 59.558], [24.543, 59.548], [24.516, 59.544], [24.489, 59.56], [24.487, 59.579], [24.5, 59.596], [24.516, 59.598], [24.531, 59.584]]], [[[29.801, 59.986], [29.787, 59.975], [29.657, 60.025], [29.714, 60.022], [29.787, 59.997], [29.801, 59.986]]], [[[27.82, 59.983], [27.805, 59.989], [27.81, 60.02], [27.82, 60.031], [27.892, 60.004], [27.892, 59.995], [27.82, 59.983]]], [[[26.964, 60.099], [27.018, 60.048], [27.027, 60.027], [27.021, 60.018], [26.996, 60.014], [26.977, 60.026], [26.945, 60.091], [26.95, 60.1], [26.964, 60.099]]], [[[28.703, 60.28], [28.695, 60.261], [28.624, 60.27], [28.551, 60.303], [28.541, 60.347], [28.569, 60.343], [28.576, 60.349], [28.721, 60.288], [28.703, 60.28]]], [[[28.518, 60.313], [28.504, 60.311], [28.442, 60.344], [28.428, 60.366], [28.465, 60.366], [28.503, 60.354], [28.524, 60.331], [28.518, 60.313]]], [[[28.561, 60.629], [28.589, 60.646], [28.618, 60.639], [28.635, 60.601], [28.599, 60.577], [28.576, 60.58], [28.557, 60.612], [28.561, 60.629]]], [[[50.689, 44.889], [50.693, 44.899], [50.687, 44.912], [50.641, 44.933], [50.626, 44.951], [50.628, 44.967], [50.636, 44.967], [50.66, 44.939], [50.678, 44.936], [50.714, 44.954], [50.735, 44.93], [50.737, 44.896], [50.761, 44.865], [50.74, 44.868], [50.698, 44.858], [50.694, 44.864], [50.702, 44.881], [50.689, 44.889]]], [[[52.628, 45.41], [52.561, 45.457], [52.552, 45.478], [52.594, 45.509], [52.6, 45.527], [52.655, 45.521], [52.673, 45.504], [52.699, 45.441], [52.702, 45.405], [52.677, 45.397], [52.628, 45.41]]], [[[151.706, 46.847], [151.745, 46.862], [151.839, 46.855], [151.869, 46.866], [152.02, 46.989], [152.12, 47.091], [152.217, 47.172], [152.226, 47.175], [152.207, 47.125], [152.26, 47.161], [152.293, 47.148], [152.27, 47.124], [152.174, 47.063], [152.03, 46.92], [152.013, 46.889], [151.832, 46.783], [151.772, 46.772], [151.712, 46.801], [151.706, 46.847]]], [[[152.427, 47.38], [152.504, 47.377], [152.542, 47.335], [152.534, 47.319], [152.508, 47.303], [152.423, 47.303], [152.394, 47.324], [152.388, 47.344], [152.402, 47.364], [152.427, 47.38]]], [[[153.098, 47.772], [153.08, 47.714], [152.997, 47.693], [152.981, 47.723], [153.026, 47.796], [153.046, 47.813], [153.074, 47.808], [153.098, 47.772]]], [[[153.214, 48.135], [153.283, 48.099], [153.291, 48.054], [153.28, 48.043], [153.206, 48.053], [153.14, 48.094], [153.138, 48.101], [153.156, 48.125], [153.175, 48.135], [153.214, 48.135]]], [[[154.009, 48.722], [153.975, 48.736], [153.977, 48.762], [153.988, 48.78], [154.112, 48.895], [154.141, 48.91], [154.221, 48.909], [154.231, 48.896], [154.189, 48.835], [154.054, 48.737], [154.009, 48.722]]], [[[153.898, 48.957], [153.902, 48.97], [153.919, 48.98], [154.005, 48.964], [154.011, 48.937], [154.004, 48.932], [153.941, 48.923], [153.921, 48.926], [153.898, 48.957]]], [[[154.501, 49.074], [154.471, 49.098], [154.44, 49.155], [154.446, 49.168], [154.583, 49.146], [154.601, 49.125], [154.599, 49.112], [154.521, 49.076], [154.501, 49.074]]], [[[154.602, 49.374], [154.638, 49.423], [154.703, 49.481], [154.751, 49.572], [154.743, 49.586], [154.814, 49.636], [154.904, 49.624], [154.882, 49.547], [154.818, 49.506], [154.794, 49.456], [154.79, 49.43], [154.827, 49.385], [154.835, 49.346], [154.811, 49.303], [154.792, 49.292], [154.707, 49.262], [154.594, 49.291], [154.602, 49.374]]], [[[154.462, 49.807], [154.432, 49.738], [154.414, 49.732], [154.376, 49.742], [154.355, 49.767], [154.367, 49.819], [154.398, 49.834], [154.439, 49.831], [154.456, 49.821], [154.462, 49.807]]], [[[155.659, 50.825], [155.644, 50.814], [155.588, 50.803], [155.547, 50.806], [155.481, 50.828], [155.449, 50.872], [155.448, 50.898], [155.494, 50.93], [155.601, 50.931], [155.647, 50.913], [155.67, 50.857], [155.659, 50.825]]], [[[52.474, 41.963], [52.434, 42.0], [52.437, 42.058], [52.402, 42.093], [52.422, 42.125], [52.436, 42.18], [52.485, 42.202], [52.534, 42.272], [52.594, 42.335], [52.601, 42.389], [52.643, 42.428], [52.676, 42.538], [52.677, 42.575], [52.663, 42.613], [52.618, 42.678], [52.576, 42.699], [52.564, 42.721], [52.564, 42.742], [52.574, 42.75], [52.6, 42.698], [52.663, 42.668], [52.71, 42.585], [52.721, 42.593], [52.741, 42.638], [52.736, 42.701], [52.713, 42.731], [52.677, 42.747], [52.629, 42.75], [52.625, 42.775], [52.574, 42.799], [52.471, 42.826], [52.357, 42.832], [52.321, 42.819], [52.3, 42.791], [52.273, 42.799], [52.206, 42.866], [52.169, 42.887], [52.058, 42.878], [51.933, 42.835], [51.912, 42.842], [51.854, 42.894], [51.803, 42.959], [51.772, 43.031], [51.724, 43.071], [51.711, 43.091], [51.676, 43.1], [51.671, 43.113], [51.683, 43.141], [51.679, 43.16], [51.651, 43.191], [51.612, 43.177], [51.54, 43.175], [51.509, 43.154], [51.46, 43.169], [51.368, 43.154], [51.276, 43.154], [51.263, 43.165], [51.266, 43.188], [51.302, 43.269], [51.313, 43.311], [51.32, 43.443], [51.315, 43.462], [51.279, 43.518], [51.273, 43.559], [51.218, 43.593], [51.207, 43.624], [51.156, 43.625], [51.115, 43.661], [51.023, 43.801], [51.009, 43.846], [50.991, 43.867], [50.991, 43.908], [50.953, 43.939], [50.902, 44.011], [50.861, 44.025], [50.853, 44.039], [50.861, 44.069], [50.857, 44.153], [50.847, 44.189], [50.822, 44.215], [50.781, 44.236], [50.696, 44.264], [50.345, 44.311], [50.278, 44.336], [50.237, 44.369], [50.23, 44.391], [50.238, 44.458], [50.23, 44.477], [50.238, 44.484], [50.222, 44.535], [50.225, 44.568], [50.238, 44.586], [50.254, 44.558], [50.268, 44.571], [50.282, 44.614], [50.293, 44.619], [50.299, 44.655], [50.311, 44.662], [50.34, 44.648], [50.498, 44.626], [50.617, 44.64], [50.627, 44.624], [50.73, 44.621], [50.757, 44.605], [50.784, 44.633], [50.873, 44.629], [50.93, 44.597], [50.96, 44.57], [51.005, 44.566], [51.009, 44.551], [50.991, 44.545], [51.007, 44.529], [51.115, 44.488], [51.143, 44.485], [51.225, 44.5], [51.292, 44.552], [51.366, 44.56], [51.382, 44.56], [51.374, 44.528], [51.403, 44.521], [51.471, 44.532], [51.538, 44.509], [51.56, 44.511], [51.574, 44.524], [51.554, 44.55], [51.48, 44.583], [51.439, 44.61], [51.319, 44.596], [51.292, 44.614], [51.258, 44.689], [51.234, 44.719], [51.096, 44.797], [51.05, 44.803], [51.034, 44.818], [50.971, 44.847], [50.962, 44.864], [50.966, 44.907], [50.99, 44.919], [50.994, 44.936], [50.98, 44.949], [50.954, 44.952], [50.95, 44.964], [50.959, 44.979], [51.009, 44.996], [51.065, 44.997], [51.107, 45.032], [51.197, 45.066], [51.251, 45.026], [51.273, 45.025], [51.282, 45.038], [51.275, 45.057], [51.243, 45.101], [51.258, 45.135], [51.244, 45.162], [51.309, 45.257], [51.397, 45.333], [51.416, 45.39], [51.457, 45.347], [51.494, 45.335], [51.544, 45.335], [51.593, 45.345], [51.668, 45.39], [51.7, 45.392], [51.74, 45.447], [51.758, 45.457], [51.781, 45.434], [51.792, 45.405], [51.878, 45.395], [51.94, 45.367], [52.009, 45.395], [52.094, 45.382], [52.403, 45.409], [52.446, 45.401], [52.519, 45.409], [52.567, 45.401], [52.735, 45.348], [52.835, 45.337], [52.91, 45.313], [53.002, 45.32], [53.108, 45.3], [53.2, 45.328], [53.218, 45.341], [53.245, 45.334], [53.261, 45.343], [53.266, 45.361], [53.248, 45.37], [53.143, 45.384], [53.112, 45.406], [53.036, 45.419], [52.876, 45.471], [52.85, 45.494], [52.755, 45.517], [52.738, 45.526], [52.743, 45.538], [52.732, 45.554], [52.743, 45.573], [52.738, 45.597], [52.746, 45.639], [52.757, 45.651], [52.792, 45.663], [52.82, 45.717], [52.859, 45.765], [52.92, 45.796], [52.954, 45.83], [52.987, 45.886], [53.04, 45.936], [53.082, 46.005], [53.087, 46.02], [53.077, 46.048], [53.114, 46.098], [53.128, 46.183], [53.157, 46.272], [53.157, 46.342], [53.128, 46.394], [53.033, 46.471], [53.053, 46.469], [53.102, 46.444], [53.075, 46.476], [53.082, 46.512], [53.018, 46.479], [52.998, 46.485], [52.997, 46.505], [53.04, 46.574], [53.042, 46.555], [53.054, 46.546], [53.088, 46.553], [53.108, 46.622], [53.118, 46.602], [53.142, 46.635], [53.184, 46.635], [53.201, 46.643], [53.208, 46.695], [53.188, 46.718], [53.106, 46.737], [53.084, 46.853], [53.06, 46.892], [53.052, 46.898], [52.992, 46.895], [52.92, 46.957], [52.783, 46.944], [52.615, 46.95], [52.572, 46.962], [52.519, 46.994], [52.437, 46.999], [52.423, 46.979], [52.419, 46.944], [52.357, 46.894], [52.262, 46.87], [52.235, 46.869], [52.202, 46.885], [52.189, 46.884], [52.181, 46.876], [52.183, 46.862], [52.224, 46.848], [52.245, 46.81], [52.113, 46.813], [52.072, 46.83], [52.067, 46.851], [52.0, 46.891], [51.998, 46.903], [52.022, 46.926], [52.019, 46.937], [51.999, 46.941], [51.961, 46.886], [51.941, 46.88], [51.854, 46.895], [51.896, 46.931], [51.874, 46.936], [51.806, 46.909], [51.785, 46.909], [51.744, 46.927], [51.689, 46.961], [51.676, 46.979], [51.696, 47.021], [51.694, 47.042], [51.68, 47.057], [51.655, 47.06], [51.636, 47.049], [51.611, 46.989], [51.592, 46.987], [51.527, 47.053], [51.382, 47.084], [51.352, 47.088], [51.117, 47.063], [50.82, 46.919], [50.758, 46.916], [50.741, 46.906], [50.735, 46.915], [50.632, 46.91], [50.609, 46.896], [50.607, 46.868], [50.585, 46.837], [50.569, 46.829], [50.552, 46.835], [50.581, 46.868], [50.578, 46.877], [50.272, 46.685], [49.948, 46.56], [49.757, 46.532], [49.703, 46.533], [49.703, 46.519], [49.686, 46.534], [49.624, 46.537], [49.627, 46.519], [49.608, 46.527], [49.579, 46.499], [49.558, 46.534], [49.535, 46.542], [49.497, 46.509], [49.504, 46.499], [49.488, 46.501], [49.372, 46.402], [49.367, 46.389], [49.36, 46.392], [49.313, 46.353], [49.238, 46.263], [49.058, 46.137], [48.887, 46.083], [48.833, 46.083], [48.833, 45.921], [48.77, 45.885], [48.635, 45.975], [48.303, 45.768], [48.015, 45.714], [47.871, 45.678], [47.754, 45.714], [47.673, 45.75], [47.628, 45.732], [47.601, 45.66], [47.655, 45.543], [47.556, 45.453], [47.394, 45.175], [47.251, 44.986], [47.17, 44.86], [47.026, 44.788], [46.873, 44.68], [44.755, 44.439], [43.88, 44.814], [43.381, 46.188], [42.257, 46.813], [40.633, 46.688], [40.508, 47.437], [39.259, 48.437], [37.885, 49.186], [37.385, 48.811], [33.388, 47.313], [31.991, 47.403], [31.427, 47.62], [31.08, 47.793], [31.08, 48.184], [31.167, 48.27], [31.167, 48.618], [32.381, 48.487], [33.553, 48.878], [33.391, 48.943], [33.379, 48.94], [33.342, 48.963], [31.514, 49.702], [31.514, 49.864], [31.502, 49.842], [31.492, 49.842], [31.441, 49.905], [31.354, 49.9], [31.177, 49.962], [30.516, 49.962], [30.472, 50.093], [30.461, 50.21], [30.197, 50.301], [30.407, 50.743], [30.342, 51.394], [30.559, 51.828], [30.707, 51.859], [30.735, 51.874], [30.742, 51.898], [30.779, 51.898], [30.797, 51.907], [30.811, 51.918], [30.803, 51.939], [30.858, 51.958], [30.879, 51.974], [30.889, 51.994], [30.903, 52.0], [30.915, 51.993], [30.941, 51.994], [30.95, 52.007], [30.941, 52.02], [30.911, 52.023], [30.925, 52.042], [30.919, 52.059], [30.934, 52.07], [31.135, 52.077], [31.229, 52.038], [31.252, 52.044], [31.304, 52.097], [31.373, 52.115], [31.297, 52.956], [31.305, 52.986], [31.247, 53.014], [31.319, 53.076], [31.332, 53.08], [31.383, 53.26], [32.222, 53.125], [32.268, 53.125], [32.353, 53.18], [32.406, 53.193], [32.442, 53.223], [32.343, 53.731], [32.29, 53.761], [32.165, 53.782], [32.084, 53.81], [31.873, 53.777], [31.787, 53.794], [31.745, 53.795], [31.754, 53.82], [31.81, 53.883], [31.838, 53.962], [31.847, 53.992], [31.823, 54.053], [31.771, 54.049], [31.737, 54.094], [31.667, 54.102], [31.583, 54.13], [31.506, 54.144], [31.325, 54.229], [31.31, 54.244], [31.299, 54.273], [31.285, 54.347], [31.249, 54.377], [31.209, 54.448], [31.179, 54.453], [31.168, 54.467], [31.094, 54.479], [31.065, 54.492], [31.09, 54.536], [31.139, 54.583], [31.168, 54.622], [31.129, 54.64], [31.105, 54.668], [30.999, 54.671], [30.996, 54.69], [30.981, 54.706], [30.827, 54.771], [30.771, 54.786], [30.763, 54.802], [30.768, 54.83], [30.826, 54.877], [30.827, 54.903], [30.815, 54.928], [30.917, 54.954], [30.936, 54.973], [30.907, 55.013], [30.913, 55.025], [31.006, 55.023], [31.006, 55.042], [30.97, 55.101], [30.984, 55.131], [30.959, 55.144], [30.96, 55.163], [30.887, 55.205], [30.857, 55.253], [30.804, 55.273], [30.794, 55.286], [30.797, 55.304], [30.811, 55.323], [30.846, 55.351], [30.918, 55.388], [30.919, 55.408], [30.889, 55.433], [30.881, 55.451], [30.887, 55.468], [30.913, 55.48], [30.919, 55.492], [30.899, 55.499], [30.92, 55.534], [30.913, 55.572], [30.886, 55.6], [30.848, 55.611], [30.771, 55.592], [30.742, 55.594], [30.694, 55.652], [30.617, 55.657], [30.596, 55.665], [30.584, 55.679], [30.592, 55.706], [30.587, 55.718], [30.481, 55.754], [30.469, 55.763], [30.478, 55.779], [30.469, 55.794], [30.271, 55.831], [30.218, 55.855], [30.177, 55.851], [30.132, 55.827], [30.106, 55.822], [29.988, 55.847], [29.908, 55.843], [29.869, 55.831], [29.806, 55.771], [29.78, 55.764], [29.711, 55.774], [29.684, 55.771], [29.585, 55.738], [29.508, 55.685], [29.481, 55.681], [29.461, 55.687], [29.413, 55.728], [29.363, 55.751], [29.351, 55.766], [29.344, 55.787], [29.348, 55.803], [29.372, 55.836], [29.384, 55.88], [29.444, 55.907], [29.413, 55.938], [29.377, 55.954], [29.224, 55.978], [29.145, 56.012], [29.089, 56.023], [29.031, 56.024], [28.86, 55.976], [28.833, 55.961], [28.831, 55.938], [28.809, 55.935], [28.732, 55.947], [28.706, 55.96], [28.681, 56.027], [28.621, 56.083], [28.538, 56.098], [28.39, 56.089], [28.367, 56.079], [28.333, 56.05], [28.311, 56.043], [28.29, 56.047], [28.149, 56.142], [28.169, 56.162], [28.193, 56.231], [28.215, 56.256], [28.217, 56.271], [28.167, 56.37], [28.164, 56.438], [28.105, 56.483], [28.093, 56.502], [28.132, 56.536], [28.126, 56.548], [28.022, 56.581], [28.017, 56.567], [27.823, 56.725], [27.879, 56.838], [27.852, 56.854], [27.786, 56.871], [27.661, 56.839], [27.628, 56.844], [27.649, 56.879], [27.715, 56.957], [27.723, 56.999], [27.748, 57.036], [27.633, 57.096], [27.773, 57.211], [27.782, 57.323], [27.708, 57.348], [27.641, 57.389], [27.555, 57.411], [27.532, 57.406], [27.531, 57.419], [27.511, 57.43], [27.526, 57.468], [27.519, 57.528], [27.353, 57.528], [27.32, 57.516], [27.166, 57.547], [27.085, 57.549], [27.062, 57.556], [26.981, 57.609], [26.896, 57.615], [26.873, 57.627], [26.854, 57.623], [26.816, 57.581], [26.796, 57.571], [26.667, 57.565], [26.605, 57.54], [26.59, 57.52], [26.542, 57.528], [26.5, 57.516], [26.431, 57.562], [26.297, 57.599], [26.169, 57.704], [26.2, 57.676], [26.2, 55.831], [26.179, 55.85], [26.018, 55.937], [25.871, 55.992], [25.766, 56.059], [25.697, 56.088], [25.662, 56.141], [25.573, 56.143], [25.523, 56.157], [25.455, 56.15], [25.109, 56.183], [25.073, 56.198], [25.044, 56.228], [25.026, 56.26], [24.973, 56.301], [24.936, 56.38], [24.892, 56.439], [24.871, 56.443], [24.857, 56.435], [24.846, 56.405], [24.806, 56.409], [24.679, 56.377], [24.639, 56.36], [24.539, 56.288], [24.447, 56.261], [24.319, 56.299], [24.139, 56.257], [24.075, 56.271], [24.0, 56.304], [24.0, 57.038], [24.036, 57.069], [24.075, 57.075], [24.211, 57.124], [24.219, 57.138], [24.279, 57.161], [24.279, 57.172], [24.289, 57.179], [24.379, 57.23], [24.401, 57.258], [24.409, 57.298], [24.406, 57.344], [24.375, 57.529], [24.359, 57.55], [24.375, 57.613], [24.363, 57.672], [24.3, 57.744], [24.286, 57.833], [24.296, 57.857], [24.324, 57.887], [24.334, 57.921], [24.381, 57.984], [24.398, 58.023], [24.464, 58.072], [24.464, 58.121], [24.473, 58.155], [24.455, 58.196], [24.468, 58.218], [24.471, 58.251], [24.549, 58.289], [24.56, 58.312], [24.551, 58.334], [24.529, 58.351], [24.444, 58.386], [24.362, 58.397], [24.316, 58.38], [24.296, 58.355], [24.287, 58.319], [24.243, 58.28], [24.211, 58.271], [24.156, 58.277], [24.112, 58.241], [24.084, 58.251], [24.053, 58.278], [23.98, 58.318], [23.855, 58.34], [23.834, 58.354], [23.806, 58.347], [23.777, 58.355], [23.756, 58.34], [23.741, 58.343], [23.719, 58.4], [23.683, 58.422], [23.677, 58.435], [23.684, 58.5], [23.679, 58.524], [23.664, 58.536], [23.622, 58.529], [23.584, 58.545], [23.573, 58.552], [23.561, 58.583], [23.546, 58.58], [23.516, 58.555], [23.501, 58.562], [23.498, 58.572], [23.518, 58.604], [23.493, 58.673], [23.498, 58.697], [23.507, 58.705], [23.536, 58.703], [23.547, 58.71], [23.53, 58.723], [23.533, 58.747], [23.584, 58.738], [23.697, 58.751], [23.755, 58.734], [23.803, 58.731], [23.805, 58.748], [23.783, 58.756], [23.78, 58.766], [23.785, 58.778], [23.816, 58.785], [23.874, 58.772], [23.816, 58.8], [23.784, 58.801], [23.758, 58.785], [23.74, 58.798], [23.603, 58.795], [23.543, 58.775], [23.486, 58.777], [23.429, 58.765], [23.467, 58.801], [23.526, 58.82], [23.464, 58.864], [23.455, 58.883], [23.422, 58.909], [23.422, 58.929], [23.444, 58.944], [23.51, 58.942], [23.532, 58.957], [23.584, 58.954], [23.628, 58.979], [23.622, 59.015], [23.605, 59.033], [23.56, 59.053], [23.614, 59.011], [23.58, 59.005], [23.56, 58.991], [23.553, 58.971], [23.543, 58.97], [23.526, 58.984], [23.461, 58.992], [23.408, 59.026], [23.436, 59.026], [23.429, 59.044], [23.435, 59.056], [23.491, 59.088], [23.518, 59.073], [23.519, 59.125], [23.486, 59.174], [23.471, 59.212], [23.526, 59.23], [23.578, 59.226], [23.642, 59.257], [23.662, 59.258], [23.73, 59.23], [23.742, 59.239], [23.743, 59.25], [23.724, 59.265], [23.735, 59.278], [23.757, 59.284], [23.889, 59.279], [24.039, 59.293], [24.081, 59.271], [24.1, 59.295], [24.092, 59.313], [24.019, 59.367], [24.035, 59.389], [24.081, 59.395], [24.165, 59.354], [24.194, 59.348], [24.222, 59.355], [24.213, 59.372], [24.163, 59.402], [24.306, 59.419], [24.334, 59.471], [24.423, 59.477], [24.498, 59.444], [24.548, 59.463], [24.643, 59.436], [24.66, 59.441], [24.657, 59.45], [24.622, 59.463], [24.622, 59.471], [24.659, 59.472], [24.675, 59.496], [24.698, 59.491], [24.744, 59.447], [24.773, 59.45], [24.79, 59.459], [24.816, 59.489], [24.807, 59.505], [24.784, 59.52], [24.773, 59.56], [24.803, 59.571], [24.909, 59.512], [24.934, 59.508], [25.012, 59.518], [25.098, 59.498], [25.116, 59.503], [25.108, 59.529], [25.122, 59.539], [25.146, 59.539], [25.194, 59.523], [25.409, 59.491], [25.402, 59.514], [25.416, 59.527], [25.544, 59.535], [25.536, 59.549], [25.497, 59.571], [25.482, 59.611], [25.479, 59.652], [25.485, 59.67], [25.502, 59.662], [25.535, 59.629], [25.575, 59.617], [25.622, 59.58], [25.677, 59.566], [25.706, 59.569], [25.719, 59.588], [25.685, 59.629], [25.691, 59.649], [25.671, 59.656], [25.695, 59.671], [25.725, 59.666], [25.781, 59.636], [25.773, 59.628], [25.794, 59.591], [25.826, 59.575], [25.861, 59.586], [25.876, 59.601], [25.869, 59.608], [25.883, 59.631], [25.945, 59.595], [25.965, 59.597], [25.964, 59.621], [25.989, 59.634], [26.036, 59.623], [26.074, 59.604], [26.082, 59.587], [26.091, 59.586], [26.28, 59.587], [26.498, 59.54], [26.536, 59.543], [26.585, 59.56], [26.665, 59.552], [26.739, 59.526], [26.827, 59.477], [26.938, 59.45], [27.116, 59.442], [27.409, 59.452], [27.563, 59.432], [27.717, 59.427], [27.873, 59.408], [27.953, 59.428], [27.983, 59.447], [28.055, 59.528], [28.073, 59.578], [28.052, 59.625], [28.016, 59.66], [27.993, 59.703], [28.007, 59.758], [28.087, 59.799], [28.124, 59.792], [28.185, 59.759], [28.224, 59.691], [28.375, 59.666], [28.405, 59.683], [28.418, 59.708], [28.419, 59.79], [28.428, 59.813], [28.476, 59.852], [28.5, 59.861], [28.536, 59.86], [28.582, 59.834], [28.679, 59.813], [28.699, 59.793], [28.718, 59.787], [28.767, 59.8], [28.833, 59.787], [28.884, 59.817], [28.919, 59.814], [28.976, 59.831], [29.034, 59.887], [29.031, 59.901], [28.98, 59.93], [29.014, 59.93], [29.089, 59.98], [29.161, 60.003], [29.266, 59.998], [29.804, 59.94], [29.863, 59.918], [30.115, 59.871], [30.162, 59.868], [30.193, 59.881], [30.216, 59.907], [30.224, 59.933], [30.207, 59.944], [30.246, 59.975], [30.235, 59.991], [30.21, 60.001], [30.001, 60.012], [29.948, 60.03], [29.932, 60.066], [29.91, 60.075], [29.891, 60.101], [29.9, 60.134], [29.885, 60.15], [29.849, 60.167], [29.701, 60.201], [29.525, 60.201], [29.418, 60.169], [29.052, 60.184], [29.015, 60.197], [28.987, 60.217], [28.947, 60.264], [28.922, 60.28], [28.86, 60.295], [28.816, 60.361], [28.799, 60.369], [28.788, 60.341], [28.746, 60.342], [28.617, 60.382], [28.518, 60.489], [28.454, 60.54], [28.439, 60.56], [28.473, 60.566], [28.507, 60.56], [28.524, 60.522], [28.544, 60.51], [28.617, 60.489], [28.684, 60.456], [28.703, 60.461], [28.707, 60.478], [28.699, 60.5], [28.661, 60.535], [28.658, 60.594], [28.664, 60.614], [28.685, 60.615], [28.645, 60.67], [28.655, 60.682], [28.713, 60.67], [28.735, 60.693], [28.722, 60.721], [28.69, 60.738], [28.655, 60.728], [28.574, 60.683], [28.521, 60.684], [28.476, 60.67], [28.424, 60.672], [28.401, 60.665], [28.383, 60.624], [28.342, 60.628], [28.322, 60.621], [28.338, 60.61], [28.343, 60.594], [28.307, 60.603], [28.286, 60.598], [28.216, 60.548], [28.158, 60.553], [28.137, 60.533], [28.096, 60.539], [28.034, 60.526], [27.9, 60.528], [27.871, 60.54], [27.863, 60.567], [27.816, 60.528], [27.794, 60.533], [27.808, 60.553], [27.981, 60.649], [28.148, 60.758], [28.244, 60.792], [28.336, 60.859], [28.526, 60.95], [28.615, 60.962], [28.689, 61.027], [28.798, 61.097], [28.855, 61.113], [28.981, 61.168], [29.13, 61.213], [29.203, 61.246], [29.277, 61.305], [29.361, 61.287], [29.407, 61.258], [29.491, 61.239], [29.553, 61.177], [29.576, 61.171], [29.87, 61.176], [32.703, 60.646], [32.795, 60.655], [32.839, 60.669], [32.885, 60.699], [32.844, 60.712], [32.812, 60.756], [32.808, 60.826], [32.765, 60.886], [32.641, 60.969], [32.633, 60.987], [32.593, 60.998], [32.581, 61.014], [32.581, 61.045], [32.563, 61.079], [32.527, 61.118], [32.36, 61.181], [31.899, 61.324], [31.871, 61.347], [31.762, 61.384], [31.698, 61.415], [31.637, 61.463], [31.62, 61.461], [31.62, 61.427], [31.604, 61.423], [31.576, 61.437], [31.486, 61.551], [31.365, 61.627], [31.334, 61.627], [31.308, 61.605], [31.258, 61.641], [31.194, 61.634], [31.123, 62.804], [30.559, 63.108], [30.603, 65.147], [30.993, 65.754], [30.603, 66.665], [30.733, 68.574], [31.331, 69.663], [31.782, 69.777], [32.072, 69.883], [32.076, 69.815], [32.191, 69.642], [32.352, 69.514], [32.596, 69.424], [33.01, 69.387], [33.281, 69.342], [33.316, 69.071], [33.628, 69.215], [33.818, 69.192], [34.305, 69.171], [34.699, 69.164], [34.934, 69.149], [35.437, 69.15], [36.018, 69.024], [37.246, 68.793], [37.689, 68.63], [38.406, 68.243], [38.668, 68.146], [39.918, 67.94], [40.826, 67.66], [40.973, 67.534], [40.951, 67.335], [41.017, 67.202], [41.209, 67.069], [41.255, 66.937], [41.147, 66.782], [40.836, 66.561], [40.345, 66.319], [39.978, 66.201], [39.19, 66.039], [38.782, 66.001], [38.048, 66.007], [37.422, 66.094], [36.505, 66.172], [35.772, 66.259], [35.168, 66.412], [34.153, 66.63], [33.437, 66.702], [33.158, 66.914], [32.991, 66.988], [32.644, 67.046], [32.219, 66.994], [32.425, 66.891], [32.754, 66.649], [32.971, 66.583], [33.47, 66.313], [33.844, 66.182], [34.258, 66.11], [34.544, 66.001], [34.726, 65.797], [34.726, 65.615], [34.601, 65.484], [34.293, 65.396], [34.332, 65.346], [34.426, 65.107], [34.773, 64.682], [34.815, 64.46], [34.885, 64.367], [35.082, 64.288], [35.623, 64.254], [36.015, 64.197], [36.24, 63.919], [36.421, 63.876], [36.988, 63.841], [37.411, 63.749], [37.591, 63.807], [37.945, 63.85], [38.054, 63.986], [38.054, 64.129], [37.88, 64.308], [37.668, 64.343], [37.463, 64.3], [37.262, 64.314], [36.997, 64.407], [36.569, 64.765], [36.884, 65.068], [37.102, 65.068], [37.604, 64.853], [38.253, 64.703], [39.193, 64.511], [39.622, 64.476], [39.997, 64.541], [40.322, 64.463], [40.44, 64.564], [40.462, 64.75], [40.366, 64.858], [39.979, 65.153], [39.823, 65.436], [39.951, 65.581], [40.681, 65.794], [41.354, 65.955], [41.623, 66.065], [42.133, 66.388], [42.211, 66.41], [43.241, 66.251], [43.876, 66.011], [44.029, 66.011], [44.053, 66.041], [44.122, 66.267], [44.384, 66.612], [44.362, 66.906], [44.219, 67.09], [43.838, 67.163], [43.704, 67.266], [44.216, 67.718], [44.261, 67.83], [44.169, 68.097], [43.822, 68.327], [43.853, 68.469], [44.012, 68.492], [44.668, 68.389], [45.58, 68.443], [45.863, 68.383], [46.162, 68.108], [46.439, 67.908], [46.634, 67.701], [45.463, 67.639], [45.093, 67.542], [44.871, 67.312], [44.957, 67.231], [45.386, 67.099], [45.715, 66.85], [46.077, 66.762], [46.402, 66.719], [46.973, 66.778], [47.571, 66.816], [47.706, 66.89], [47.953, 67.377], [48.081, 67.562], [48.635, 67.652], [49.186, 67.839], [49.63, 67.936], [50.496, 68.153], [51.139, 68.266], [51.831, 68.409], [52.245, 68.545], [52.337, 68.336], [52.463, 68.299], [52.72, 68.351], [52.939, 68.471], [53.006, 68.681], [53.179, 68.756], [53.502, 68.816], [53.889, 68.787], [53.808, 68.607], [53.782, 68.338], [53.396, 68.3], [53.316, 68.233], [53.317, 68.136], [53.626, 68.048], [54.38, 68.161], [54.576, 68.161], [54.648, 68.072], [54.752, 68.05], [54.877, 68.11], [54.996, 68.207], [55.126, 68.401], [55.335, 68.483], [55.723, 68.536], [56.195, 68.567], [56.54, 68.553], [57.024, 68.449], [57.364, 68.457], [57.526, 68.495], [57.959, 68.705], [58.409, 68.833], [58.77, 68.856], [59.199, 68.774], [59.346, 68.7], [59.062, 68.497], [59.12, 68.393], [59.218, 68.349], [59.502, 68.289], [59.762, 68.297], [59.892, 68.402], [59.925, 68.581], [60.079, 68.619], [60.512, 68.59], [60.756, 68.673], [60.934, 68.815], [60.986, 69.003], [60.369, 69.468], [60.552, 69.543], [60.849, 69.71], [61.03, 69.741], [62.281, 69.705], [62.854, 69.616], [63.412, 69.549], [63.923, 69.459], [64.873, 69.228], [65.355, 69.183], [66.584, 68.886], [67.172, 68.647], [68.215, 68.201], [68.385, 68.179], [68.488, 68.224], [69.003, 68.695], [69.109, 68.83], [68.692, 68.815], [68.512, 68.837], [68.258, 68.941], [68.094, 69.136], [68.106, 69.429], [67.779, 69.557], [66.884, 69.623], [66.799, 69.744], [66.828, 69.819], [66.965, 69.956], [67.277, 70.071], [67.383, 70.139], [67.422, 70.223], [67.398, 70.599], [67.285, 70.706], [66.775, 70.736], [66.67, 70.866], [66.818, 71.105], [66.98, 71.214], [67.155, 71.23], [67.823, 71.417], [68.316, 71.635], [68.551, 71.822], [68.812, 72.095], [69.057, 72.645], [69.343, 72.834], [69.512, 72.803], [70.214, 72.733], [70.94, 72.79], [71.663, 72.831], [71.976, 72.8], [72.455, 72.824], [72.714, 72.77], [72.853, 72.644], [72.845, 72.495], [72.655, 72.118], [72.498, 71.962], [71.898, 71.587], [71.798, 71.432], [72.136, 71.278], [72.555, 70.977], [72.68, 70.824], [72.774, 70.455], [72.696, 70.356], [72.437, 70.187], [72.551, 69.656], [72.526, 69.069], [72.643, 68.807], [72.846, 68.635], [73.309, 68.517], [73.394, 68.442], [73.394, 68.382], [73.175, 68.166], [72.988, 67.794], [72.838, 67.646], [72.485, 67.438], [71.93, 67.156], [71.647, 67.067], [71.4, 66.949], [71.544, 66.714], [71.35, 66.662], [70.84, 66.551], [70.121, 66.719], [69.792, 66.755], [69.355, 66.739], [69.085, 66.688], [69.173, 66.548], [69.435, 66.424], [69.767, 66.33], [70.474, 66.236], [70.983, 66.2], [71.26, 66.223], [71.794, 66.158], [72.209, 66.173], [72.421, 66.335], [72.557, 66.496], [73.165, 66.644], [73.69, 66.865], [73.811, 66.99], [73.985, 67.263], [74.353, 67.404], [74.742, 67.686], [74.771, 67.849], [74.669, 68.102], [74.395, 68.347], [74.505, 68.593], [74.612, 68.639], [74.916, 68.706], [75.537, 68.775], [76.328, 68.776], [76.661, 68.672], [77.04, 68.464], [77.108, 68.114], [76.955, 67.653], [77.091, 67.528], [77.505, 67.432], [78.089, 67.411], [78.478, 67.479], [78.536, 67.612], [78.305, 67.693], [77.946, 67.774], [77.689, 67.758], [77.483, 67.803], [77.514, 67.973], [77.978, 68.145], [78.007, 68.257], [77.909, 68.324], [77.834, 68.473], [77.636, 68.816], [77.406, 68.936], [77.03, 68.98], [76.538, 69.084], [75.598, 69.21], [75.189, 69.127], [74.902, 69.081], [74.318, 69.163], [73.915, 69.154], [73.908, 69.275], [73.654, 69.756], [73.791, 70.052], [74.122, 70.366], [74.25, 70.573], [74.189, 70.673], [73.698, 71.141], [73.271, 71.373], [73.217, 71.458], [73.591, 71.707], [74.137, 71.755], [74.587, 71.872], [74.921, 72.029], [74.999, 72.13], [75.075, 72.42], [75.016, 72.719], [75.12, 72.687], [75.408, 72.664], [75.617, 72.625], [75.666, 72.414], [75.583, 72.171], [75.297, 71.897], [75.221, 71.648], [75.284, 71.446], [75.452, 71.322], [75.671, 71.199], [77.002, 71.063], [77.736, 71.025], [78.105, 70.841], [78.249, 70.834], [78.609, 70.85], [78.372, 71.251], [78.137, 71.374], [77.285, 71.419], [76.866, 71.449], [76.607, 71.518], [76.333, 71.72], [76.457, 71.868], [77.075, 71.892], [77.275, 71.815], [77.79, 71.777], [78.126, 71.848], [78.086, 72.175], [78.27, 72.215], [78.647, 72.262], [79.223, 72.271], [79.703, 72.178], [80.339, 72.008], [80.828, 71.767], [81.425, 71.613], [81.671, 71.574], [82.491, 71.568], [82.818, 71.646], [82.88, 71.491], [82.529, 71.32], [82.215, 71.204], [82.104, 70.856], [82.046, 70.419], [82.196, 70.358], [82.502, 70.711], [82.675, 70.842], [82.804, 70.819], [83.076, 70.582], [83.036, 70.245], [83.371, 70.337], [83.677, 70.46], [83.657, 70.598], [83.571, 70.652], [83.505, 70.813], [83.168, 71.182], [83.561, 71.624], [83.202, 71.826], [82.855, 71.942], [82.436, 72.051], [82.321, 72.222], [82.026, 72.245], [81.585, 72.354], [80.982, 72.447], [80.844, 72.58], [80.872, 72.84], [80.829, 73.014], [80.464, 73.314], [80.501, 73.425], [80.62, 73.496], [80.838, 73.553], [81.877, 73.602], [83.02, 73.612], [83.977, 73.67], [84.616, 73.743], [84.829, 73.6], [85.001, 73.576], [85.381, 73.696], [85.856, 73.825], [86.492, 73.874], [86.757, 73.787], [86.326, 73.634], [86.124, 73.451], [86.905, 73.556], [87.14, 73.604], [87.57, 73.772], [87.691, 73.9], [87.541, 74.1], [87.394, 74.179], [86.978, 74.299], [86.814, 74.435], [86.813, 74.54], [86.958, 74.782], [87.487, 74.961], [87.922, 75.06], [89.285, 75.466], [89.685, 75.508], [90.0, 75.559], [90.0, 75.602], [91.635, 75.653], [92.671, 75.763], [93.592, 75.881], [94.694, 76.184], [95.488, 76.168], [95.967, 76.169], [96.139, 76.086], [95.982, 75.902], [96.658, 75.853], [97.116, 75.871], [97.684, 75.955], [98.289, 76.057], [98.716, 76.074], [99.159, 76.0], [99.467, 75.967], [99.779, 76.059], [99.833, 76.21], [99.774, 76.285], [99.983, 76.437], [100.407, 76.471], [100.83, 76.455], [101.389, 76.625], [101.112, 76.853], [101.166, 77.006], [101.69, 77.203], [102.39, 77.375], [103.393, 77.558], [103.947, 77.592], [104.394, 77.567], [105.063, 77.569], [105.45, 77.449], [105.47, 77.329], [104.782, 77.149], [104.485, 76.995], [104.705, 76.928], [105.528, 76.98], [106.243, 76.913], [107.16, 76.949], [107.24, 76.898], [107.071, 76.771], [106.537, 76.567], [106.404, 76.432], [107.291, 76.434], [107.666, 76.443], [107.771, 76.401], [108.244, 76.646], [108.86, 76.648], [109.656, 76.691], [109.94, 76.633], [110.548, 76.642], [111.427, 76.568], [112.057, 76.451], [112.589, 76.259], [112.822, 76.059], [113.149, 76.059], [113.533, 76.094], [113.723, 75.869], [113.113, 75.494], [113.222, 75.437], [113.625, 75.273], [112.577, 74.886], [112.111, 74.78], [111.587, 74.731], [110.055, 74.254], [108.697, 73.819], [108.34, 73.691], [107.266, 73.522], [106.208, 73.259], [105.279, 72.752], [105.6, 72.744], [106.087, 72.855], [106.502, 73.061], [107.25, 73.134], [107.804, 73.143], [108.75, 73.263], [109.595, 73.392], [109.991, 73.44], [110.442, 73.568], [110.4, 73.743], [110.178, 73.798], [110.163, 73.83], [110.29, 73.942], [110.551, 74.038], [110.944, 73.943], [111.215, 73.768], [111.495, 73.745], [111.762, 73.658], [112.093, 73.635], [112.477, 73.659], [112.997, 73.78], [113.222, 73.748], [113.308, 73.613], [113.312, 73.383], [113.547, 73.201], [114.187, 73.551], [114.934, 73.56], [115.611, 73.625], [116.671, 73.619], [117.535, 73.549], [118.46, 73.519], [118.338, 73.186], [118.498, 73.036], [119.417, 72.967], [119.799, 72.912], [120.579, 72.835], [121.7, 72.9], [122.243, 72.909], [122.882, 72.753], [123.515, 73.172], [123.442, 73.33], [123.41, 73.481], [124.222, 73.697], [124.457, 73.705], [124.818, 73.658], [125.335, 73.524], [125.717, 73.398], [126.487, 73.383], [127.097, 73.416], [127.72, 73.402], [128.315, 73.208], [128.499, 73.126], [128.525, 72.952], [128.171, 72.897], [127.314, 72.714], [126.216, 72.382], [126.111, 72.28], [126.225, 72.249], [126.69, 72.219], [127.121, 72.212], [127.418, 72.142], [127.714, 72.01], [128.17, 71.832], [128.432, 71.755], [129.355, 71.176], [130.172, 70.815], [130.779, 70.678], [131.055, 70.687], [131.413, 70.864], [131.792, 71.188], [132.284, 71.661], [132.554, 71.809], [132.684, 71.801], [132.791, 71.592], [133.138, 71.453], [133.744, 71.323], [134.241, 71.262], [134.623, 71.301], [135.511, 71.512], [135.861, 71.543], [136.227, 71.513], [136.765, 71.406], [137.63, 71.075], [137.771, 71.099], [137.855, 71.13], [138.076, 71.246], [138.175, 71.362], [138.114, 71.385], [138.119, 71.47], [138.446, 71.61], [138.675, 71.618], [138.9, 71.503], [139.159, 71.418], [139.744, 71.404], [139.826, 71.628], [139.739, 71.838], [139.806, 72.001], [139.848, 72.236], [139.339, 72.164], [139.05, 72.164], [138.969, 72.211], [139.168, 72.344], [139.312, 72.383], [139.756, 72.423], [140.215, 72.432], [140.589, 72.495], [141.294, 72.787], [141.408, 72.787], [142.2, 72.679], [143.819, 72.533], [144.267, 72.502], [144.562, 72.456], [145.6, 72.426], [144.82, 72.143], [145.21, 72.121], [145.665, 72.161], [145.815, 72.098], [145.678, 71.927], [145.261, 71.84], [144.881, 71.723], [144.801, 71.591], [145.1, 71.576], [145.334, 71.631], [145.746, 71.694], [146.186, 71.842], [146.915, 72.202], [148.159, 72.196], [148.698, 72.166], [149.104, 72.089], [149.53, 72.027], [149.623, 71.942], [149.722, 71.895], [148.711, 71.629], [148.962, 71.568], [149.715, 71.438], [150.694, 71.347], [151.119, 71.255], [151.48, 71.086], [151.645, 70.894], [151.899, 70.733], [152.134, 70.664], [152.791, 70.681], [153.404, 70.728], [155.049, 70.939], [156.043, 70.987], [157.396, 70.928], [158.078, 70.867], [158.409, 70.814], [158.934, 70.623], [159.229, 70.547], [159.466, 70.395], [159.628, 70.22], [159.573, 69.999], [159.444, 69.765], [159.673, 69.652], [160.017, 69.622], [160.392, 69.616], [160.682, 69.578], [160.674, 69.27], [160.862, 69.083], [161.171, 69.159], [161.416, 69.354], [161.961, 69.528], [162.118, 69.559], [162.291, 69.536], [162.315, 69.499], [162.387, 69.457], [162.349, 69.433], [162.347, 69.418], [162.356, 69.401], [162.486, 69.37], [162.503, 69.315], [162.529, 69.29], [162.64, 69.251], [162.746, 69.196], [162.653, 69.161], [162.592, 69.159], [162.515, 69.136], [162.486, 69.112], [162.478, 69.071], [162.49, 69.054], [162.526, 69.041], [162.512, 69.009], [162.525, 68.984], [162.696, 68.924], [162.754, 68.913], [162.761, 68.88], [162.809, 68.862], [162.736, 68.817], [162.691, 68.812], [162.6, 68.825], [162.58, 68.813], [162.575, 68.763], [162.593, 68.694], [162.612, 68.677], [162.671, 68.659], [162.681, 68.634], [162.703, 68.61], [162.621, 68.564], [162.566, 68.518], [162.561, 68.5], [162.572, 68.457], [162.519, 68.412], [162.51, 68.391], [162.513, 68.367], [162.45, 68.35], [162.416, 68.329], [162.226, 68.361], [162.181, 68.374], [161.713, 68.393], [161.654, 68.41], [161.406, 68.432], [161.22, 68.403], [161.105, 68.355], [161.04, 68.341], [160.993, 68.321], [159.848, 68.297], [159.794, 68.275], [159.778, 68.229], [159.751, 68.231], [159.695, 68.259], [159.55, 68.259], [159.458, 68.242], [159.107, 68.21], [159.007, 68.191], [158.932, 68.164], [158.632, 68.162], [158.415, 68.13], [158.248, 68.086], [158.222, 68.062], [158.213, 68.012], [158.179, 67.971], [158.054, 67.937], [158.032, 67.884], [158.035, 67.854], [158.055, 67.831], [158.092, 67.82], [158.203, 67.821], [158.25, 67.813], [158.296, 67.758], [158.139, 67.74], [158.064, 67.756], [157.922, 67.756], [157.799, 67.724], [157.782, 67.711], [157.774, 67.689], [157.735, 67.676], [157.716, 67.657], [157.698, 67.624], [157.709, 67.596], [157.674, 67.555], [157.672, 67.533], [157.685, 67.516], [157.735, 67.497], [157.731, 67.477], [157.744, 67.457], [157.865, 67.431], [157.773, 67.368], [157.763, 67.347], [157.771, 67.325], [157.86, 67.25], [157.953, 67.239], [158.059, 67.2], [158.159, 67.175], [158.203, 67.147], [158.293, 67.128], [158.347, 67.097], [158.464, 67.096], [158.695, 67.036], [158.734, 66.999], [158.781, 66.971], [158.763, 66.946], [158.77, 66.909], [158.795, 66.885], [158.843, 66.864], [158.85, 66.829], [158.882, 66.803], [158.799, 66.766], [158.705, 66.748], [158.669, 66.712], [158.617, 66.628], [158.591, 66.611], [158.52, 66.586], [158.461, 66.532], [158.453, 66.5], [158.358, 66.477], [158.344, 66.464], [158.339, 66.445], [158.355, 66.424], [158.405, 66.408], [158.52, 66.341], [158.634, 66.331], [158.771, 66.264], [158.885, 66.244], [158.99, 66.241], [159.162, 66.215], [159.176, 66.206], [159.185, 66.19], [159.179, 66.164], [159.115, 66.11], [159.038, 66.062], [158.988, 65.991], [158.974, 65.946], [158.923, 65.919], [158.912, 65.906], [158.906, 65.843], [158.914, 65.821], [158.882, 65.806], [158.87, 65.784], [158.894, 65.738], [158.911, 65.726], [159.246, 65.649], [159.373, 65.638], [159.732, 65.544], [159.831, 65.509], [159.994, 65.504], [160.02, 65.496], [160.157, 65.435], [160.166, 65.427], [160.15, 65.4], [160.151, 65.375], [160.198, 65.331], [160.278, 65.303], [160.408, 65.234], [160.422, 65.205], [160.473, 65.181], [160.514, 65.146], [160.687, 65.129], [161.01, 65.15], [161.277, 65.121], [161.357, 65.097], [161.383, 65.066], [161.411, 65.05], [161.639, 64.994], [161.68, 64.977], [161.699, 64.956], [161.695, 64.929], [161.705, 64.905], [161.755, 64.864], [161.759, 64.841], [161.771, 64.823], [161.803, 64.808], [161.865, 64.793], [162.208, 64.751], [162.29, 64.723], [162.51, 64.732], [162.551, 64.727], [162.618, 64.709], [162.657, 64.668], [162.733, 64.641], [162.996, 64.629], [163.051, 64.636], [163.11, 64.661], [163.134, 64.682], [163.157, 64.768], [163.142, 64.79], [163.203, 64.804], [163.252, 64.791], [163.352, 64.8], [163.44, 64.854], [163.485, 64.872], [163.511, 64.909], [163.583, 64.912], [163.659, 64.875], [163.787, 64.874], [163.828, 64.85], [163.872, 64.845], [164.026, 64.856], [164.064, 64.881], [164.143, 64.882], [164.159, 64.907], [164.186, 64.914], [164.455, 64.857], [164.506, 64.82], [164.657, 64.79], [164.702, 64.766], [164.79, 64.752], [164.8, 64.737], [164.829, 64.723], [164.825, 64.7], [164.832, 64.686], [164.879, 64.666], [165.005, 64.67], [165.033, 64.68], [165.05, 64.739], [165.043, 64.761], [165.024, 64.777], [165.038, 64.825], [165.125, 64.837], [165.26, 64.831], [165.315, 64.801], [165.305, 64.785], [165.308, 64.771], [165.326, 64.753], [165.355, 64.742], [165.408, 64.741], [165.458, 64.722], [165.489, 64.725], [165.521, 64.751], [165.57, 64.733], [165.644, 64.74], [165.676, 64.736], [165.724, 64.711], [165.719, 64.68], [165.731, 64.663], [165.832, 64.614], [165.805, 64.603], [165.8, 64.575], [165.817, 64.558], [165.868, 64.535], [166.061, 64.542], [166.102, 64.561], [166.142, 64.569], [166.169, 64.588], [166.197, 64.589], [166.29, 64.575], [166.348, 64.585], [166.403, 64.581], [166.609, 64.533], [166.72, 64.533], [166.807, 64.513], [166.861, 64.527], [167.012, 64.531], [167.072, 64.554], [167.107, 64.581], [167.161, 64.599], [167.234, 64.603], [167.263, 64.579], [167.274, 64.556], [167.326, 64.529], [167.362, 64.477], [167.398, 64.463], [167.493, 64.461], [167.507, 64.441], [167.586, 64.407], [167.608, 64.373], [167.663, 64.339], [167.71, 64.321], [167.81, 64.33], [167.868, 64.3], [168.025, 64.266], [168.158, 64.272], [168.182, 64.288], [168.202, 64.318], [168.226, 64.326], [168.257, 64.326], [168.342, 64.302], [168.407, 64.306], [168.494, 64.298], [168.513, 64.289], [168.582, 64.218], [168.616, 64.197], [168.754, 64.175], [168.747, 64.154], [168.752, 64.138], [168.791, 64.109], [168.824, 64.068], [168.834, 64.024], [168.852, 64.008], [169.108, 63.933], [169.322, 63.931], [169.323, 63.913], [169.344, 63.894], [169.346, 63.871], [169.36, 63.857], [169.391, 63.843], [169.479, 63.831], [169.53, 63.804], [169.522, 63.762], [169.543, 63.729], [169.534, 63.695], [169.542, 63.678], [169.566, 63.661], [169.525, 63.657], [169.499, 63.643], [169.479, 63.612], [169.484, 63.587], [169.404, 63.578], [169.339, 63.554], [169.258, 63.554], [169.198, 63.534], [169.134, 63.499], [169.088, 63.457], [168.998, 63.411], [168.927, 63.387], [168.873, 63.345], [168.778, 63.317], [168.763, 63.292], [168.773, 63.261], [168.713, 63.268], [168.676, 63.257], [168.662, 63.234], [168.677, 63.206], [168.613, 63.21], [168.587, 63.202], [168.549, 63.153], [168.45, 63.108], [168.44, 63.089], [168.449, 63.065], [168.505, 63.035], [168.612, 63.005], [168.661, 63.003], [168.79, 62.956], [168.922, 62.924], [169.007, 62.939], [169.048, 62.955], [169.12, 62.953], [169.221, 62.896], [169.3, 62.88], [169.369, 62.856], [169.392, 62.825], [169.506, 62.795], [169.57, 62.759], [169.584, 62.729], [169.648, 62.691], [169.71, 62.681], [169.838, 62.636], [169.865, 62.635], [169.895, 62.645], [169.957, 62.638], [170.004, 62.656], [170.023, 62.656], [170.014, 62.639], [170.021, 62.619], [169.975, 62.572], [169.966, 62.546], [169.989, 62.514], [170.03, 62.505], [170.063, 62.484], [170.025, 62.472], [170.017, 62.456], [170.02, 62.442], [170.052, 62.415], [170.1, 62.402], [170.104, 62.37], [170.137, 62.345], [170.148, 62.326], [170.204, 62.315], [170.255, 62.267], [170.308, 62.259], [170.386, 62.292], [170.422, 62.294], [170.48, 62.279], [170.569, 62.283], [170.74, 62.262], [170.849, 62.228], [170.877, 62.235], [170.907, 62.26], [171.084, 62.27], [171.1, 62.281], [171.103, 62.301], [171.072, 62.326], [171.161, 62.322], [171.22, 62.349], [171.228, 62.319], [171.255, 62.306], [171.298, 62.31], [171.35, 62.334], [171.358, 62.316], [171.374, 62.305], [171.487, 62.292], [171.536, 62.309], [171.621, 62.32], [171.657, 62.342], [171.699, 62.35], [171.862, 62.362], [171.882, 62.374], [171.883, 62.396], [171.972, 62.411], [171.998, 62.435], [172.054, 62.446], [172.203, 62.431], [172.255, 62.394], [172.293, 62.383], [172.485, 62.42], [172.535, 62.401], [172.699, 62.383], [172.779, 62.327], [172.854, 62.312], [172.892, 62.329], [172.899, 62.37], [172.908, 62.373], [173.013, 62.354], [173.043, 62.359], [173.088, 62.381], [173.175, 62.376], [173.201, 62.388], [173.222, 62.418], [173.426, 62.472], [173.506, 62.514], [173.603, 62.495], [173.686, 62.515], [173.78, 62.5], [173.79, 62.474], [173.841, 62.45], [173.848, 62.431], [173.868, 62.421], [174.066, 62.43], [174.075, 62.351], [174.047, 62.348], [174.024, 62.335], [173.998, 62.303], [173.99, 62.278], [174.002, 62.255], [174.063, 62.195], [174.089, 62.181], [174.078, 62.144], [174.103, 62.109], [174.089, 62.089], [174.091, 62.067], [174.113, 62.054], [174.227, 62.046], [174.298, 62.076], [174.32, 62.075], [174.323, 62.048], [174.335, 62.03], [174.439, 61.976], [174.421, 61.943], [174.438, 61.896], [174.488, 61.879], [174.437, 61.873], [174.426, 61.858], [174.428, 61.837], [174.349, 61.799], [174.25, 61.715], [173.927, 61.616], [173.481, 61.601], [173.343, 61.552], [173.126, 61.369], [172.918, 61.278], [172.492, 61.263], [172.108, 60.983], [172.0, 60.858], [171.248, 60.654], [171.072, 60.452], [170.52, 60.34], [170.337, 60.277], [170.268, 60.145], [170.273, 60.013], [170.06, 59.882], [169.877, 59.875], [169.614, 60.012], [169.532, 60.13], [169.456, 60.296], [169.154, 60.435], [168.671, 60.455], [168.211, 60.433], [167.104, 60.271], [166.868, 60.173], [166.269, 59.833], [166.027, 59.709], [165.945, 59.771], [166.203, 60.353], [165.956, 60.311], [165.78, 60.354], [165.415, 60.115], [165.114, 60.031], [164.933, 59.962], [164.882, 59.734], [164.585, 59.665], [164.442, 59.74], [164.328, 59.961], [164.111, 60.078], [163.65, 59.792], [163.767, 59.884], [163.516, 59.856], [163.389, 59.814], [163.106, 59.579], [163.043, 59.462], [163.1, 59.359], [163.255, 59.29], [162.835, 59.056], [162.753, 58.966], [162.907, 58.891], [162.616, 58.733], [162.22, 58.486], [161.938, 58.259], [161.804, 58.102], [161.8, 57.863], [161.989, 57.72], [162.204, 57.679], [162.826, 57.701], [163.078, 57.626], [163.128, 57.552], [162.932, 57.374], [162.593, 57.17], [162.512, 57.033], [162.613, 56.803], [162.744, 56.6], [163.098, 56.56], [163.172, 56.384], [163.166, 56.106], [163.009, 55.944], [162.771, 55.917], [162.555, 56.011], [162.547, 56.105], [162.722, 56.342], [162.522, 56.349], [162.318, 56.24], [161.861, 55.861], [161.609, 55.557], [161.503, 55.287], [161.647, 54.985], [161.939, 54.845], [162.008, 54.738], [161.876, 54.564], [161.567, 54.423], [161.136, 54.409], [160.838, 54.449], [160.683, 54.448], [160.404, 54.368], [160.027, 54.153], [159.931, 54.086], [159.695, 53.859], [159.633, 53.706], [159.683, 53.579], [159.905, 53.4], [159.922, 53.3], [159.897, 53.241], [159.592, 53.134], [159.32, 53.126], [158.788, 52.959], [158.461, 52.826], [158.432, 52.713], [158.462, 52.587], [158.39, 52.203], [158.258, 52.017], [157.898, 51.666], [157.21, 51.229], [156.825, 51.004], [156.696, 50.958], [156.564, 51.234], [156.475, 51.604], [156.362, 51.914], [156.333, 52.272], [156.175, 52.609], [156.038, 52.781], [155.942, 53.193], [155.711, 53.805], [155.707, 54.065], [155.638, 54.318], [155.63, 54.465], [155.583, 54.552], [155.465, 54.92], [155.453, 55.276], [155.506, 55.64], [155.628, 56.268], [155.703, 56.37], [156.236, 56.757], [156.558, 56.947], [156.815, 57.261], [156.878, 57.363], [156.839, 57.506], [156.777, 57.58], [157.511, 57.745], [157.962, 57.883], [158.326, 58.027], [159.104, 58.425], [159.393, 58.61], [159.586, 58.803], [159.649, 58.954], [160.844, 59.554], [161.535, 59.942], [161.701, 60.074], [161.818, 60.268], [162.381, 60.464], [163.329, 60.695], [163.445, 60.89], [163.793, 61.128], [163.831, 61.233], [163.576, 61.33], [163.942, 61.737], [163.926, 61.955], [164.008, 62.131], [164.277, 62.223], [165.055, 62.26], [165.286, 62.288], [165.067, 62.436], [164.138, 62.533], [163.818, 62.49], [163.34, 62.411], [162.99, 62.326], [163.009, 62.178], [162.711, 61.763], [162.767, 61.672], [162.749, 61.609], [162.451, 61.559], [162.235, 61.51], [161.536, 61.187], [160.645, 60.718], [160.119, 60.564], [160.007, 60.591], [160.077, 60.738], [160.236, 60.947], [159.816, 60.981], [159.744, 61.1], [159.857, 61.302], [160.056, 61.513], [160.149, 61.66], [160.118, 61.751], [159.966, 61.765], [159.455, 61.561], [159.231, 61.546], [159.106, 61.707], [158.841, 61.784], [157.098, 61.633], [156.825, 61.563], [156.423, 61.401], [156.381, 61.205], [156.418, 61.121], [155.851, 60.883], [155.667, 60.778], [155.734, 60.555], [155.152, 60.394], [154.693, 60.199], [154.316, 59.983], [154.092, 59.776], [153.943, 59.569], [153.944, 59.397], [154.182, 59.301], [154.753, 59.281], [154.878, 59.158], [154.906, 59.103], [154.387, 59.04], [153.924, 58.922], [153.454, 58.949], [153.14, 59.01], [152.968, 58.996], [152.828, 58.948], [152.504, 58.769], [152.191, 58.926], [151.691, 58.753], [151.354, 58.691], [151.135, 58.732], [151.007, 58.793], [151.056, 58.924], [151.783, 59.035], [151.857, 59.056], [151.524, 59.344], [151.14, 59.44], [150.663, 59.432], [150.279, 59.362], [150.12, 59.389], [149.73, 59.595], [149.38, 59.608], [149.045, 59.587], [148.728, 59.476], [148.747, 59.297], [148.63, 59.194], [148.416, 59.097], [148.103, 59.207], [147.919, 59.261], [147.352, 59.233], [147.0, 59.191], [146.706, 59.225], [146.307, 59.286], [146.054, 59.251], [146.023, 59.196], [145.957, 58.983], [145.653, 58.975], [145.513, 59.037], [145.496, 59.209], [145.404, 59.326], [144.846, 59.283], [144.39, 59.31], [143.824, 59.295], [143.303, 59.267], [142.927, 59.28], [142.846, 59.273], [142.358, 59.141], [141.924, 58.941], [141.591, 58.728], [141.35, 58.501], [140.994, 58.391], [140.587, 58.239], [140.5, 58.171], [140.029, 57.644], [139.294, 57.336], [138.867, 57.124], [138.346, 56.804], [137.602, 56.24], [137.229, 55.983], [136.521, 55.59], [136.119, 55.421], [135.27, 55.029], [134.985, 54.854], [134.894, 54.72], [134.902, 54.559], [135.095, 54.433], [135.313, 54.413], [135.726, 54.407], [136.196, 54.475], [136.492, 54.455], [136.344, 53.888], [136.351, 53.701], [136.487, 53.655], [136.77, 53.695], [137.041, 53.862], [137.383, 53.81], [137.326, 53.743], [137.122, 53.589], [137.071, 53.489], [137.239, 53.457], [136.161, 53.021], [135.273, 53.021], [134.707, 52.95], [134.81, 53.043], [134.869, 53.053], [134.882, 53.063], [134.892, 53.08], [134.889, 53.097], [134.856, 53.128], [134.876, 53.173], [134.941, 53.196], [134.967, 53.225], [134.976, 53.254], [134.966, 53.285], [134.925, 53.297], [134.906, 53.333], [134.836, 53.347], [134.843, 53.362], [134.903, 53.352], [134.922, 53.357], [134.943, 53.391], [134.945, 53.414], [134.927, 53.443], [134.854, 53.468], [134.849, 53.487], [134.834, 53.498], [134.766, 53.495], [134.776, 53.532], [134.759, 53.556], [134.695, 53.581], [134.644, 53.614], [134.556, 53.641], [134.538, 53.637], [134.509, 53.616], [134.431, 53.608], [134.417, 53.585], [134.43, 53.542], [134.424, 53.539], [134.363, 53.551], [134.26, 53.536], [134.222, 53.538], [134.204, 53.522], [134.202, 53.491], [134.151, 53.5], [134.095, 53.466], [134.008, 53.453], [133.891, 53.485], [133.831, 53.483], [133.813, 53.502], [133.798, 53.507], [133.755, 53.488], [133.731, 53.487], [133.652, 53.558], [133.622, 53.566], [133.561, 53.564], [133.539, 53.549], [133.519, 53.515], [133.498, 53.512], [133.477, 53.528], [133.453, 53.527], [133.396, 53.496], [133.309, 53.489], [133.205, 53.443], [133.172, 53.405], [133.162, 53.369], [133.144, 53.35], [133.143, 53.332], [133.156, 53.312], [133.097, 53.324], [133.018, 53.303], [132.938, 53.307], [132.915, 53.296], [132.89, 53.256], [132.873, 53.251], [132.791, 53.265], [132.706, 53.261], [132.652, 53.277], [132.627, 53.272], [132.592, 53.25], [132.45, 53.249], [132.385, 53.265], [132.212, 53.241], [132.097, 53.242], [132.059, 53.224], [132.012, 53.157], [131.994, 53.154], [131.944, 53.164], [131.894, 53.148], [131.861, 53.169], [131.885, 53.225], [131.878, 53.243], [131.858, 53.253], [131.781, 53.261], [131.739, 53.247], [131.67, 53.245], [131.623, 53.234], [131.535, 53.234], [131.529, 53.244], [131.553, 53.318], [131.521, 53.428], [131.5, 53.45], [131.502, 53.483], [131.484, 53.504], [131.516, 53.546], [131.52, 53.572], [131.493, 53.619], [131.466, 53.637], [131.469, 53.67], [131.447, 53.71], [131.454, 53.739], [131.445, 53.759], [131.334, 53.798], [131.264, 53.801], [131.186, 53.816], [131.13, 53.908], [130.539, 53.912], [130.609, 54.164], [130.673, 54.196], [130.692, 54.225], [130.732, 54.238], [130.753, 54.263], [130.835, 54.262], [130.87, 54.287], [130.924, 54.305], [131.029, 54.264], [131.06, 54.265], [131.13, 54.311], [131.239, 54.519], [131.241, 54.557], [131.213, 54.597], [131.286, 54.625], [131.324, 54.659], [131.363, 54.673], [131.396, 54.698], [131.538, 54.703], [131.572, 54.719], [131.618, 54.759], [131.635, 54.748], [131.661, 54.747], [131.711, 54.768], [131.771, 54.778], [131.786, 54.79], [131.8, 54.822], [131.832, 54.835], [131.885, 54.837], [131.986, 54.875], [132.008, 54.893], [132.015, 54.917], [132.008, 54.945], [131.984, 54.982], [132.07, 55.026], [132.255, 55.02], [132.384, 55.041], [132.413, 55.059], [132.423, 55.086], [132.414, 55.106], [132.389, 55.124], [132.39, 55.143], [132.377, 55.159], [132.382, 55.18], [132.401, 55.185], [132.461, 55.175], [132.582, 55.176], [132.613, 55.183], [132.649, 55.205], [132.705, 55.263], [132.706, 55.288], [132.677, 55.331], [132.686, 55.347], [132.741, 55.327], [132.82, 55.339], [132.911, 55.339], [132.96, 55.36], [132.966, 55.374], [132.961, 55.39], [132.869, 55.435], [132.764, 55.439], [132.73, 55.471], [132.64, 55.517], [132.679, 55.549], [132.681, 55.569], [132.566, 55.658], [132.551, 55.691], [132.523, 55.701], [132.471, 55.7], [132.403, 55.723], [132.305, 55.716], [132.221, 55.723], [132.202, 55.714], [132.192, 55.695], [132.139, 55.683], [132.116, 55.664], [131.95, 55.677], [131.921, 55.668], [131.889, 55.646], [131.803, 55.634], [131.756, 55.652], [131.618, 55.673], [131.586, 55.667], [131.567, 55.633], [131.492, 55.646], [131.473, 55.659], [131.437, 55.666], [131.412, 55.663], [131.371, 55.641], [131.338, 55.637], [131.304, 55.637], [131.19, 55.661], [131.105, 55.635], [131.003, 55.661], [130.973, 55.682], [130.929, 55.698], [130.844, 55.707], [130.746, 55.739], [130.588, 55.743], [130.39, 56.054], [129.207, 56.868], [128.837, 56.646], [128.171, 56.72], [126.913, 56.498], [126.544, 56.498], [124.916, 56.202], [124.546, 56.276], [124.102, 56.276], [124.023, 56.299], [124.005, 56.32], [124.003, 56.339], [123.99, 56.356], [123.892, 56.406], [123.829, 56.418], [123.782, 56.411], [123.757, 56.421], [123.631, 56.416], [123.527, 56.431], [123.467, 56.425], [123.292, 56.443], [123.138, 56.477], [123.053, 56.51], [123.017, 56.542], [122.931, 56.567], [122.917, 56.6], [122.89, 56.615], [122.795, 56.596], [122.784, 56.583], [122.786, 56.557], [122.771, 56.54], [122.77, 56.515], [122.7, 56.52], [122.659, 56.503], [122.594, 56.509], [122.586, 56.518], [122.581, 56.55], [122.496, 56.584], [122.489, 56.607], [122.477, 56.619], [122.391, 56.649], [122.291, 56.669], [122.205, 56.716], [122.192, 56.743], [122.166, 56.757], [122.006, 56.772], [121.933, 56.757], [121.694, 56.769], [121.63, 56.763], [121.636, 56.786], [121.619, 56.823], [121.6, 56.841], [121.542, 56.868], [121.531, 56.928], [121.52, 56.943], [121.443, 56.986], [121.411, 56.995], [121.126, 57.013], [121.078, 57.001], [121.065, 57.006], [121.025, 57.05], [120.89, 57.061], [120.84, 57.056], [120.802, 57.041], [120.655, 57.052], [120.604, 57.03], [120.476, 57.039], [120.282, 57.02], [120.239, 57.004], [120.175, 56.964], [120.026, 56.918], [119.892, 56.908], [119.853, 56.873], [119.692, 56.822], [119.65, 56.773], [119.659, 56.746], [119.697, 56.72], [119.729, 56.71], [119.759, 56.711], [119.767, 56.691], [119.788, 56.678], [119.848, 56.674], [119.804, 56.644], [119.789, 56.616], [119.791, 56.589], [119.817, 56.562], [119.905, 56.527], [119.951, 56.475], [119.997, 56.465], [120.082, 56.463], [120.185, 56.439], [120.247, 56.438], [120.251, 56.421], [120.236, 56.401], [120.25, 56.378], [120.328, 56.349], [120.377, 56.342], [120.373, 56.313], [120.397, 56.29], [120.484, 56.265], [120.515, 56.264], [120.509, 56.252], [120.449, 56.237], [120.351, 56.241], [120.288, 56.214], [120.245, 56.22], [120.198, 56.21], [120.139, 56.166], [120.074, 56.164], [120.049, 56.153], [120.032, 56.123], [120.038, 56.069], [120.128, 56.003], [120.146, 55.97], [120.115, 55.931], [120.112, 55.912], [120.121, 55.894], [120.18, 55.854], [120.202, 55.858], [120.267, 55.897], [120.315, 55.892], [120.336, 55.884], [120.355, 55.855], [120.404, 55.845], [120.472, 55.852], [120.502, 55.866], [120.514, 55.888], [120.799, 55.953], [120.842, 55.977], [120.891, 55.99], [120.986, 56.0], [121.078, 55.977], [121.204, 55.996], [121.258, 55.937], [121.267, 55.897], [121.256, 55.87], [121.261, 55.853], [121.323, 55.801], [121.282, 55.73], [121.304, 55.697], [121.313, 55.627], [121.338, 55.592], [121.318, 55.558], [121.318, 55.54], [121.327, 55.514], [121.351, 55.491], [121.397, 55.471], [121.442, 55.461], [121.47, 55.484], [121.551, 55.484], [121.583, 55.505], [121.636, 55.514], [121.667, 55.54], [121.698, 55.58], [121.769, 55.595], [121.82, 55.586], [121.735, 55.388], [121.291, 55.092], [121.217, 54.722], [120.921, 54.5], [121.069, 54.278], [120.921, 53.834], [121.661, 53.76], [121.675, 53.357], [121.188, 53.32], [120.917, 53.259], [120.702, 53.185], [120.165, 52.831], [119.997, 52.704], [119.943, 52.591], [120.313, 52.626], [120.564, 52.614], [120.773, 52.476], [120.821, 52.364], [120.746, 52.007], [120.129, 51.733], [119.86, 51.488], [119.559, 51.138], [119.372, 50.893], [119.182, 50.702], [119.137, 50.59], [119.164, 50.524], [119.322, 50.368], [119.346, 50.23], [119.291, 50.125], [118.94, 49.972], [117.842, 49.634], [117.645, 49.594], [117.491, 49.586], [116.984, 49.845], [116.566, 50.006], [116.286, 49.998], [115.734, 49.864], [115.347, 49.94], [115.194, 49.998], [114.856, 50.226], [114.523, 50.296], [114.248, 50.275], [114.098, 50.274], [113.574, 50.055], [113.235, 49.831], [113.033, 49.654], [112.761, 49.535], [112.524, 49.462], [111.378, 49.319], [110.2, 49.241], [109.867, 49.259], [109.424, 49.296], [109.017, 49.404], [108.424, 49.518], [108.058, 49.686], [107.549, 49.827], [107.268, 49.976], [106.668, 50.314], [106.323, 50.417], [105.155, 50.443], [104.797, 50.409], [103.681, 50.166], [103.378, 50.217], [102.639, 50.456], [102.45, 50.606], [102.266, 50.809], [102.184, 51.026], [102.182, 51.269], [102.117, 51.361], [101.772, 51.425], [101.011, 51.672], [99.758, 51.903], [99.295, 51.946], [98.918, 52.037], [98.867, 52.041], [98.872, 52.094], [98.893, 52.109], [98.94, 52.105], [98.955, 52.114], [98.968, 52.152], [98.955, 52.195], [98.937, 52.212], [98.913, 52.22], [98.83, 52.207], [98.835, 52.26], [98.822, 52.283], [98.805, 52.294], [98.712, 52.313], [98.69, 52.306], [98.661, 52.28], [98.697, 52.369], [98.692, 52.388], [98.666, 52.411], [98.737, 52.451], [98.743, 52.467], [98.74, 52.486], [98.798, 52.488], [98.838, 52.518], [98.845, 52.546], [98.813, 52.575], [98.818, 52.596], [98.857, 52.611], [98.883, 52.632], [98.902, 52.625], [98.922, 52.629], [98.951, 52.656], [98.96, 52.705], [98.95, 52.75], [98.956, 52.805], [98.933, 52.819], [98.879, 52.812], [98.873, 52.835], [98.941, 52.903], [98.972, 52.906], [99.038, 52.87], [99.147, 52.854], [99.184, 52.836], [99.212, 52.834], [99.238, 52.854], [99.234, 52.899], [99.264, 52.933], [99.27, 52.954], [99.262, 52.969], [99.01, 53.049], [99.074, 53.077], [99.084, 53.093], [99.081, 53.108], [99.064, 53.122], [98.94, 53.169], [98.888, 53.167], [98.863, 53.145], [98.686, 53.175], [98.656, 53.166], [98.603, 53.124], [98.545, 53.13], [98.391, 53.123], [98.359, 53.111], [98.313, 53.122], [98.306, 53.133], [98.312, 53.161], [98.303, 53.186], [98.32, 53.214], [98.311, 53.233], [98.296, 53.242], [98.223, 53.245], [98.181, 53.265], [98.04, 53.271], [97.989, 53.304], [97.99, 53.359], [97.963, 53.377], [97.906, 53.372], [97.732, 53.398], [97.614, 53.392], [97.606, 53.396], [97.61, 53.43], [97.599, 53.453], [97.565, 53.468], [97.458, 53.479], [97.447, 53.514], [97.412, 53.533], [97.399, 53.564], [97.36, 53.587], [97.342, 53.613], [97.247, 53.62], [97.19, 53.644], [97.132, 53.633], [97.069, 53.668], [97.012, 53.68], [96.994, 53.703], [96.944, 53.713], [96.902, 53.742], [96.878, 53.749], [96.805, 53.745], [96.715, 53.721], [96.695, 53.7], [96.684, 53.66], [96.665, 53.646], [96.676, 53.615], [96.637, 53.567], [96.563, 53.554], [96.476, 53.556], [96.446, 53.539], [96.428, 53.56], [96.389, 53.571], [96.399, 53.594], [96.381, 53.617], [96.354, 53.623], [96.318, 53.613], [96.299, 53.634], [96.25, 53.636], [96.231, 53.631], [96.209, 53.61], [96.198, 53.586], [96.2, 53.561], [96.174, 53.532], [96.102, 53.506], [96.09, 53.49], [96.089, 53.47], [95.963, 53.492], [95.924, 53.513], [95.865, 53.506], [95.8, 53.514], [95.778, 53.537], [95.755, 53.54], [95.654, 53.507], [95.615, 53.467], [95.522, 53.443], [95.48, 53.42], [95.394, 53.392], [95.356, 53.395], [95.314, 53.412], [95.314, 53.441], [95.302, 53.46], [95.274, 53.474], [95.244, 53.476], [95.177, 53.458], [95.133, 53.42], [95.049, 53.397], [95.014, 53.4], [94.998, 53.418], [94.976, 53.425], [94.924, 53.406], [94.883, 53.414], [94.737, 53.402], [94.67, 53.363], [94.586, 53.334], [94.566, 53.31], [94.577, 53.278], [94.593, 53.269], [94.662, 53.264], [94.679, 53.241], [94.587, 53.186], [94.59, 53.147], [94.57, 53.122], [94.564, 53.097], [94.568, 53.071], [94.581, 53.05], [94.55, 53.003], [94.509, 52.968], [94.5, 52.927], [94.467, 52.913], [94.439, 52.911], [94.396, 52.934], [94.303, 52.924], [94.138, 52.858], [94.122, 52.836], [94.128, 52.816], [94.12, 52.767], [94.082, 52.729], [94.055, 52.679], [93.971, 52.649], [93.956, 52.622], [93.967, 52.593], [93.84, 52.52], [93.808, 52.486], [93.749, 52.452], [93.736, 52.416], [93.748, 52.375], [93.671, 52.307], [93.654, 52.266], [93.656, 52.233], [93.542, 52.19], [93.453, 52.186], [93.417, 52.177], [93.352, 52.148], [93.219, 52.054], [93.149, 52.043], [93.123, 52.029], [93.065, 51.963], [92.994, 51.936], [92.934, 51.934], [92.891, 51.913], [92.868, 51.885], [92.866, 51.864], [92.848, 51.853], [92.783, 51.87], [92.671, 51.86], [92.621, 51.832], [92.543, 51.822], [92.503, 51.801], [92.432, 51.822], [92.209, 51.826], [92.104, 51.803], [91.953, 51.823], [91.937, 51.831], [91.907, 51.868], [91.887, 51.876], [91.779, 51.892], [91.723, 51.883], [91.629, 51.887], [91.559, 51.92], [91.283, 51.916], [91.239, 51.902], [91.186, 51.91], [91.1, 51.963], [90.905, 51.942], [90.855, 51.927], [90.84, 51.942], [90.83, 51.976], [90.78, 52.016], [90.777, 52.047], [90.748, 52.085], [90.569, 52.139], [90.507, 52.195], [90.543, 52.244], [90.621, 52.32], [90.644, 52.369], [90.714, 52.443], [90.809, 52.511], [90.906, 52.558], [91.004, 52.583], [91.051, 52.644], [91.25, 52.729], [91.341, 52.785], [91.414, 52.858], [91.428, 52.944], [91.378, 53.068], [91.425, 53.088], [91.517, 53.087], [91.582, 53.104], [91.668, 53.14], [91.798, 53.221], [91.861, 53.283], [91.863, 53.363], [91.833, 53.401], [91.755, 53.464], [91.658, 53.5], [91.554, 53.5], [91.488, 53.528], [91.492, 53.57], [91.472, 53.616], [91.428, 53.681], [91.352, 53.766], [91.347, 53.81], [91.375, 53.84], [91.437, 53.88], [91.483, 53.957], [91.48, 54.068], [91.326, 54.237], [91.267, 54.288], [91.228, 54.346], [91.206, 54.445], [91.173, 54.502], [91.102, 54.542], [90.881, 54.637], [90.935, 54.794], [90.928, 54.807], [90.849, 54.857], [90.74, 54.853], [90.739, 54.884], [90.686, 54.925], [90.477, 54.895], [90.499, 54.916], [90.502, 54.931], [90.45, 55.03], [90.37, 55.067], [90.267, 55.07], [90.252, 55.077], [90.254, 55.116], [90.198, 55.171], [90.136, 55.154], [90.116, 55.123], [90.055, 55.109], [90.007, 55.118], [89.9, 55.106], [89.82, 55.068], [89.725, 55.053], [89.662, 55.027], [89.637, 55.049], [89.568, 55.078], [89.543, 55.066], [89.438, 55.056], [89.41, 55.002], [89.394, 54.996], [89.349, 55.02], [89.211, 55.011], [89.161, 55.091], [89.072, 55.102], [89.086, 55.127], [89.082, 55.145], [88.987, 55.196], [88.989, 55.236], [88.962, 55.305], [88.886, 55.328], [88.829, 55.366], [88.767, 55.365], [88.702, 55.428], [88.645, 55.443], [88.608, 55.466], [88.594, 55.459], [88.548, 55.403], [88.491, 55.357], [88.402, 55.316], [88.378, 55.288], [88.374, 55.258], [88.396, 55.225], [88.469, 55.176], [88.487, 55.112], [88.532, 55.072], [88.527, 55.023], [88.533, 55.004], [88.576, 54.982], [88.601, 54.953], [88.658, 54.949], [88.64, 54.906], [88.647, 54.871], [88.66, 54.859], [88.682, 54.855], [88.729, 54.876], [88.736, 54.82], [88.708, 54.782], [88.647, 54.782], [88.613, 54.756], [88.614, 54.722], [88.593, 54.699], [88.591, 54.615], [88.561, 54.58], [88.564, 54.559], [88.583, 54.531], [88.55, 54.508], [88.546, 54.472], [88.515, 54.436], [88.376, 54.415], [88.36, 54.404], [88.357, 54.39], [88.368, 54.37], [88.388, 54.36], [88.529, 54.324], [88.536, 54.286], [88.559, 54.268], [88.591, 54.27], [88.64, 54.302], [88.678, 54.307], [88.723, 54.347], [88.784, 54.366], [88.812, 54.391], [88.843, 54.395], [88.94, 54.354], [88.931, 54.327], [88.936, 54.308], [88.999, 54.271], [89.027, 54.271], [89.065, 54.312], [89.132, 54.33], [89.17, 54.314], [89.157, 54.289], [89.159, 54.27], [89.194, 54.245], [89.16, 54.201], [89.168, 54.164], [89.008, 54.125], [88.973, 54.097], [88.962, 54.063], [88.98, 54.031], [89.031, 53.979], [89.052, 53.94], [89.073, 53.933], [89.143, 53.939], [89.186, 53.93], [89.157, 53.894], [89.164, 53.863], [89.194, 53.842], [89.233, 53.844], [89.191, 53.822], [89.171, 53.8], [89.091, 53.8], [89.021, 53.77], [88.994, 53.736], [88.99, 53.683], [88.902, 53.642], [88.878, 53.616], [88.852, 53.616], [88.824, 53.603], [88.815, 53.59], [88.816, 53.575], [88.856, 53.542], [88.843, 53.484], [88.779, 53.444], [88.771, 53.407], [88.741, 53.366], [88.756, 53.338], [88.8, 53.328], [88.825, 53.333], [88.841, 53.353], [88.889, 53.367], [88.954, 53.332], [88.965, 53.309], [89.031, 53.241], [88.993, 53.214], [88.986, 53.194], [88.99, 53.173], [89.023, 53.137], [89.005, 53.123], [88.992, 53.095], [88.963, 53.086], [88.894, 53.047], [88.886, 53.031], [88.89, 53.016], [88.875, 52.986], [88.888, 52.965], [88.942, 52.942], [88.985, 52.931], [89.058, 52.935], [89.104, 52.906], [89.09, 52.874], [89.099, 52.851], [89.123, 52.842], [89.171, 52.849], [89.209, 52.809], [89.166, 52.781], [89.136, 52.749], [89.049, 52.733], [89.024, 52.716], [89.018, 52.693], [89.024, 52.671], [89.098, 52.615], [89.06, 52.602], [89.018, 52.56], [88.965, 52.538], [88.936, 52.506], [88.743, 52.424], [88.713, 52.393], [88.657, 52.364], [88.642, 52.342], [88.647, 52.323], [88.694, 52.303], [88.67, 52.268], [88.622, 52.262], [88.594, 52.241], [88.528, 52.235], [88.462, 52.195], [88.389, 52.189], [88.384, 52.302], [88.432, 52.336], [88.445, 52.359], [88.429, 52.389], [88.448, 52.448], [88.441, 52.465], [88.426, 52.473], [88.313, 52.466], [88.21, 52.434], [88.065, 52.515], [87.992, 52.536], [87.924, 52.568], [87.86, 52.561], [87.819, 52.526], [87.729, 52.509], [87.663, 52.472], [87.64, 52.469], [87.61, 52.496], [87.583, 52.507], [87.39, 52.527], [87.377, 52.591], [87.355, 52.614], [87.192, 52.604], [87.188, 52.625], [87.121, 52.687], [86.95, 52.655], [86.896, 52.657], [86.844, 52.67], [86.787, 52.634], [86.771, 52.603], [86.775, 52.567], [86.723, 52.55], [86.697, 52.527], [86.597, 52.388], [86.601, 52.361], [86.626, 52.34], [86.789, 52.278], [86.766, 52.255], [86.76, 52.231], [86.769, 52.21], [86.804, 52.185], [86.804, 52.174], [86.799, 52.157], [86.766, 52.131], [86.494, 52.138], [86.469, 52.118], [86.467, 52.093], [86.448, 52.077], [86.439, 52.045], [86.368, 52.03], [86.267, 52.032], [86.226, 52.04], [86.188, 52.056], [86.176, 52.083], [86.152, 52.09], [85.914, 52.091], [85.903, 52.082], [85.893, 52.051], [85.841, 52.016], [85.818, 51.99], [85.816, 51.963], [85.845, 51.928], [85.799, 51.905], [85.749, 51.892], [85.723, 51.871], [85.724, 51.849], [85.746, 51.838], [85.736, 51.826], [85.738, 51.808], [85.721, 51.784], [85.72, 51.755], [85.691, 51.772], [85.666, 51.774], [85.595, 51.73], [85.525, 51.716], [85.498, 51.666], [85.464, 51.639], [85.461, 51.618], [85.472, 51.598], [85.459, 51.585], [85.428, 51.58], [85.314, 51.589], [85.286, 51.584], [85.266, 51.554], [85.283, 51.519], [85.228, 51.488], [85.155, 51.516], [85.003, 51.509], [84.977, 51.496], [84.92, 51.444], [84.862, 51.446], [84.71, 51.419], [84.649, 51.38], [84.501, 51.334], [84.48, 51.308], [84.391, 51.286], [84.344, 51.31], [84.273, 51.302], [84.255, 51.288], [84.157, 51.157], [84.134, 51.137], [84.069, 51.162], [84.007, 51.156], [83.986, 51.132], [83.988, 51.069], [84.001, 51.049], [84.248, 50.983], [84.3, 50.992], [84.35, 50.971], [84.466, 50.954], [84.511, 50.931], [84.508, 50.879], [84.518, 50.862], [84.578, 50.849], [84.588, 50.838], [84.581, 50.809], [84.544, 50.77], [84.544, 50.722], [84.535, 50.71], [84.441, 50.721], [84.358, 50.691], [84.155, 50.677], [84.099, 50.662], [84.071, 50.645], [84.073, 50.623], [84.117, 50.588], [84.135, 50.541], [84.176, 50.505], [84.157, 50.434], [84.175, 50.397], [84.22, 50.338], [84.22, 50.274], [84.235, 50.247], [84.294, 50.226], [84.327, 50.194], [84.374, 50.193], [84.44, 50.223], [84.531, 50.172], [84.636, 50.165], [84.714, 50.118], [84.781, 50.115], [84.812, 50.073], [84.834, 50.061], [84.89, 50.077], [84.967, 50.057], [85.006, 50.018], [84.949, 50.01], [84.938, 50.001], [84.931, 49.933], [84.936, 49.898], [84.969, 49.875], [85.042, 49.858], [85.066, 49.788], [85.149, 49.72], [85.166, 49.697], [85.176, 49.619], [85.213, 49.578], [85.265, 49.562], [85.382, 49.595], [85.477, 49.563], [85.535, 49.57], [85.607, 49.598], [85.629, 49.563], [85.648, 49.547], [85.67, 49.541], [85.744, 49.553], [85.784, 49.525], [85.81, 49.517], [85.884, 49.543], [85.919, 49.542], [85.912, 49.488], [85.941, 49.462], [85.987, 49.464], [86.036, 49.497], [86.071, 49.506], [86.102, 49.501], [86.125, 49.477], [86.18, 49.444], [86.229, 49.483], [86.285, 49.568], [86.336, 49.591], [86.4, 49.607], [86.486, 49.654], [86.501, 49.671], [86.5, 49.698], [86.549, 49.722], [86.575, 49.726], [86.618, 49.775], [86.682, 49.758], [86.732, 49.762], [86.718, 49.732], [86.723, 49.713], [86.739, 49.696], [86.663, 49.684], [86.635, 49.669], [86.579, 49.613], [86.574, 49.578], [86.606, 49.542], [86.636, 49.528], [86.727, 49.531], [86.803, 49.498], [86.794, 49.475], [86.798, 49.438], [86.82, 49.415], [86.902, 49.384], [86.885, 49.353], [86.897, 49.327], [86.98, 49.277], [85.601, 48.231], [85.383, 48.148], [83.116, 48.283], [84.267, 49.205], [81.479, 50.291], [78.65, 50.806], [74.921, 54.149], [72.992, 55.307], [64.687, 54.272], [64.457, 53.581], [63.038, 51.176], [62.248, 51.063], [62.294, 51.04], [62.26, 51.012], [62.239, 50.946], [62.375, 50.851], [62.304, 50.754], [62.314, 50.696], [62.349, 50.673], [62.446, 50.675], [62.534, 50.439], [62.693, 50.222], [62.89, 50.024], [62.913, 49.897], [62.82, 49.874], [62.714, 49.908], [62.611, 49.855], [62.558, 49.751], [62.459, 49.687], [62.413, 49.601], [62.453, 49.52], [62.322, 49.524], [62.279, 49.488], [62.294, 49.444], [62.485, 49.228], [62.384, 49.219], [62.278, 49.186], [62.373, 49.167], [62.447, 49.051], [62.665, 48.878], [62.817, 48.851], [62.906, 48.883], [63.031, 48.863], [63.056, 48.789], [63.03, 48.692], [63.661, 48.47], [63.97, 48.151], [64.162, 47.937], [64.204, 47.879], [64.106, 47.806], [62.842, 47.184], [62.753, 47.181], [62.637, 47.219], [62.45, 47.248], [62.467, 47.292], [62.32, 47.446], [62.17, 47.544], [62.048, 47.571], [61.859, 47.776], [61.574, 47.776], [61.327, 47.733], [61.108, 47.528], [61.017, 47.361], [60.765, 47.1], [60.538, 47.112], [60.441, 47.046], [60.411, 46.924], [60.169, 46.885], [59.921, 46.76], [59.668, 46.58], [59.113, 46.066], [59.027, 45.818], [59.055, 45.324], [58.582, 45.549], [58.531, 45.559], [57.478, 45.337], [55.977, 44.996], [55.978, 41.322], [55.877, 41.325], [55.787, 41.292], [55.694, 41.282], [55.635, 41.264], [55.509, 41.259], [55.45, 41.279], [55.413, 41.308], [55.373, 41.376], [55.259, 41.445], [55.228, 41.473], [55.1, 41.644], [54.951, 41.796], [54.935, 41.834], [54.941, 41.89], [54.907, 41.932], [54.738, 42.048], [54.195, 42.318], [54.123, 42.338], [54.047, 42.345], [53.412, 42.258], [53.192, 42.193], [53.135, 42.168], [52.979, 42.127], [52.765, 41.994], [52.438, 41.749], [52.436, 41.769], [52.482, 41.864], [52.491, 41.902], [52.474, 41.963]]], [[[56.272, 72.857], [56.136, 72.786], [55.822, 72.754], [55.623, 72.651], [55.518, 72.478], [55.52, 72.11], [55.721, 71.642], [56.151, 71.271], [56.379, 71.132], [56.727, 70.994], [57.251, 70.818], [57.238, 70.691], [56.059, 70.731], [55.679, 70.707], [55.266, 70.561], [54.998, 70.522], [54.694, 70.744], [54.522, 70.759], [54.032, 70.719], [53.729, 70.765], [53.715, 70.927], [54.321, 71.09], [54.353, 71.198], [54.308, 71.206], [53.234, 71.514], [52.55, 71.59], [52.402, 71.52], [52.121, 71.465], [51.815, 71.48], [51.534, 71.658], [51.482, 71.845], [51.585, 71.985], [51.76, 72.079], [51.915, 72.095], [52.058, 72.049], [52.351, 72.041], [52.584, 72.128], [53.089, 72.473], [53.198, 72.631], [53.053, 72.631], [52.611, 72.74], [53.08, 72.907], [53.31, 73.041], [53.502, 73.137], [54.144, 73.146], [54.736, 73.258], [55.181, 73.266], [55.816, 73.307], [56.064, 73.276], [56.509, 73.174], [56.48, 73.095], [56.272, 72.857]]], [[[61.303, 76.238], [61.426, 76.23], [61.819, 76.289], [62.593, 76.165], [62.805, 76.182], [63.673, 76.326], [64.105, 76.344], [65.087, 76.455], [65.926, 76.507], [66.273, 76.762], [66.442, 76.83], [67.572, 76.891], [68.457, 76.927], [68.668, 76.868], [68.867, 76.766], [68.937, 76.606], [68.571, 76.394], [68.328, 76.318], [67.722, 76.175], [66.548, 75.98], [64.6, 75.76], [63.616, 75.633], [62.661, 75.499], [61.833, 75.357], [60.887, 75.247], [60.463, 75.156], [60.334, 75.033], [60.623, 74.935], [60.434, 74.838], [60.009, 74.675], [59.772, 74.659], [58.851, 74.689], [58.656, 74.608], [58.603, 74.504], [58.882, 74.391], [58.733, 74.287], [58.191, 74.085], [58.009, 74.149], [57.671, 74.188], [57.405, 74.052], [57.799, 73.924], [57.823, 73.781], [57.33, 73.485], [56.96, 73.357], [56.265, 73.515], [55.757, 73.577], [55.425, 73.553], [54.994, 73.536], [54.664, 73.472], [54.479, 73.519], [54.018, 73.734], [54.349, 73.87], [54.894, 74.063], [55.188, 74.104], [55.885, 74.105], [55.946, 74.265], [55.619, 74.417], [55.776, 74.539], [55.965, 74.603], [56.269, 74.612], [56.652, 74.693], [56.539, 74.766], [56.303, 74.871], [56.995, 75.273], [57.226, 75.331], [57.327, 75.298], [57.729, 75.291], [58.17, 75.532], [58.559, 75.682], [59.018, 75.799], [59.456, 75.866], [60.043, 75.918], [60.617, 75.894], [60.949, 75.961], [61.303, 76.238]]], [[[156.153, 50.525], [155.893, 50.264], [155.795, 50.189], [155.742, 50.179], [155.596, 50.178], [155.526, 50.147], [155.471, 50.108], [155.357, 50.053], [155.298, 50.06], [155.224, 50.053], [155.209, 50.081], [155.222, 50.234], [155.248, 50.301], [155.438, 50.367], [155.638, 50.378], [155.661, 50.385], [155.761, 50.458], [155.852, 50.592], [155.864, 50.657], [155.889, 50.693], [156.01, 50.762], [156.067, 50.776], [156.104, 50.761], [156.116, 50.747], [156.153, 50.525]]], [[[156.164, 50.729], [156.192, 50.771], [156.341, 50.851], [156.454, 50.871], [156.473, 50.866], [156.494, 50.842], [156.49, 50.756], [156.414, 50.674], [156.401, 50.626], [156.198, 50.67], [156.167, 50.695], [156.164, 50.729]]], [[[175.288, 62.081], [175.289, 62.065], [175.309, 62.055], [175.481, 62.122], [175.561, 62.14], [175.639, 62.172], [176.255, 62.292], [175.173, 61.969], [174.797, 61.913], [174.823, 61.928], [175.179, 62.002], [175.24, 62.026], [175.267, 62.053], [175.275, 62.116], [175.301, 62.095], [175.288, 62.081]]], [[[176.404, 62.378], [176.584, 62.432], [176.549, 62.38], [176.308, 62.308], [176.404, 62.378]]], [[[177.286, 62.59], [177.29, 62.571], [177.305, 62.562], [177.679, 62.555], [177.892, 62.54], [178.058, 62.521], [178.297, 62.455], [178.372, 62.452], [178.485, 62.417], [178.734, 62.384], [178.812, 62.362], [178.908, 62.35], [178.738, 62.299], [178.452, 62.32], [178.25, 62.383], [177.691, 62.452], [177.291, 62.487], [177.154, 62.542], [177.245, 62.551], [177.28, 62.574], [177.286, 62.59]]], [[[177.008, 62.846], [177.022, 62.824], [177.094, 62.803], [177.131, 62.782], [177.11, 62.753], [177.111, 62.736], [177.145, 62.703], [177.185, 62.69], [177.276, 62.695], [177.286, 62.711], [177.277, 62.733], [177.287, 62.746], [177.322, 62.776], [177.302, 62.756], [177.298, 62.737], [177.313, 62.697], [177.25, 62.627], [177.247, 62.61], [177.165, 62.614], [177.19, 62.67], [176.959, 62.69], [177.048, 62.74], [177.062, 62.765], [177.058, 62.781], [177.026, 62.802], [176.998, 62.849], [177.008, 62.846]]], [[[177.582, 64.723], [177.597, 64.706], [177.672, 64.702], [177.742, 64.686], [177.925, 64.687], [177.939, 64.683], [177.957, 64.659], [177.976, 64.652], [178.086, 64.669], [178.201, 64.669], [178.201, 64.648], [178.219, 64.638], [178.569, 64.659], [178.668, 64.679], [178.723, 64.676], [178.698, 64.664], [178.537, 64.644], [178.477, 64.629], [178.467, 64.617], [178.467, 64.603], [178.495, 64.58], [178.004, 64.548], [177.844, 64.583], [177.429, 64.607], [177.473, 64.643], [177.471, 64.678], [177.512, 64.767], [177.548, 64.762], [177.593, 64.744], [177.582, 64.723]]], [[[176.416, 64.805], [176.434, 64.791], [176.542, 64.804], [176.627, 64.848], [176.85, 64.829], [176.712, 64.782], [176.353, 64.773], [176.329, 64.783], [176.287, 64.839], [176.228, 64.885], [176.389, 64.841], [176.411, 64.826], [176.416, 64.805]]], [[[177.399, 64.916], [177.424, 64.911], [177.443, 64.869], [177.379, 64.853], [177.37, 64.842], [177.372, 64.827], [177.406, 64.805], [177.477, 64.802], [177.472, 64.789], [177.325, 64.799], [177.316, 64.811], [177.314, 64.85], [177.263, 64.874], [177.264, 64.892], [177.239, 64.925], [177.318, 64.913], [177.399, 64.916]]], [[[179.724, 64.937], [179.79, 65.001], [179.901, 65.036], [180.0, 65.046], [180.0, 64.953], [179.566, 64.849], [179.724, 64.937]]], [[[176.997, 65.039], [177.159, 65.01], [177.21, 64.939], [177.177, 64.964], [177.093, 64.99], [177.06, 65.016], [177.004, 65.028], [176.997, 65.039]]], [[[170.672, 69.463], [170.724, 69.433], [170.723, 69.399], [170.735, 69.376], [170.849, 69.329], [170.895, 69.294], [170.91, 69.237], [170.88, 69.204], [170.874, 69.176], [170.89, 69.154], [170.967, 69.129], [170.986, 69.099], [170.991, 69.074], [170.95, 69.067], [170.926, 69.037], [170.892, 69.015], [170.905, 69.034], [170.793, 69.184], [170.431, 69.559], [170.374, 69.567], [170.511, 69.582], [170.58, 69.58], [170.626, 69.551], [170.66, 69.516], [170.658, 69.484], [170.672, 69.463]]], [[[170.263, 69.793], [170.452, 70.019], [170.513, 70.016], [170.518, 70.004], [170.503, 69.935], [170.538, 69.888], [170.537, 69.849], [170.526, 69.817], [170.533, 69.793], [170.554, 69.773], [170.351, 69.744], [170.223, 69.707], [170.144, 69.624], [170.147, 69.598], [170.056, 69.611], [170.138, 69.679], [170.234, 69.722], [170.256, 69.744], [170.287, 69.751], [170.293, 69.783], [170.281, 69.793], [170.263, 69.793]]]]}, "properties": {"name": "Российская империя", "year": "1756-01-01", "role": "core", "reconstruction": true, "approximate": true, "expansion": true, "base": "контур источника 1715 (historical-basemaps)", "added": [{"name": "Псковская земля", "from": "1510-01-13", "to": null, "act": "упразднение Псковской республики 13.01.1510: вечевой колокол снят, 300 семей выведены в московские уезды", "source": "ПСРЛ т. 5 (Псковские летописи); геометрия - контур Пскова из файла источника 1500 г., не приближение", "kind": "территория", "region": "PSKOV_LAND", "approximate": true, "geometry_source": "Natural Earth admin-1 (современная нарезка - приближение)"}, {"name": "Великое княжество Рязанское", "from": "1521-06-01", "to": null, "act": "присоединение Рязани 1521 (месяц условный): князь Иван Иванович бежал в Литву, княжество обращено в уезд", "source": "ПСРЛ т. 8; ПСРЛ т. 13; геометрия - контур Рязани из файла источника 1500 г., не приближение", "kind": "территория", "region": "RYAZAN_LAND", "approximate": true, "geometry_source": "Natural Earth admin-1 (современная нарезка - приближение)"}, {"name": "Северщина: Брянск, Стародуб, Новгород-Северский, Чернигов, Путивль, Рыльск", "from": "1503-03-25", "to": null, "act": "Благовещенское перемирие 25.03.1503 на шесть лет по итогам войны 1500-1503 гг. (битва на Ведроши 14.07.1500): Литва уступила Москве северские и черниговские земли", "source": "Сборник Русского исторического общества т. 35 (посольские книги по связям с Великим княжеством Литовским); ПСРЛ т. 8; Атлас російського імперіалізму і колоніалізму (УІФ, 2026), розд. 6 - «253 000 км²». Приближено Брянской, Черниговской и Сумской областями (~91 тыс. км²) - это МЕНЬШЕ атласной цифры: Рыльск с Курским Посемьем, Вязьма (1494) и Дорогобуж в выборку не вошли", "kind": "территория", "region": "SEVERSK_1503", "approximate": true, "geometry_source": "Natural Earth admin-1 (современная нарезка - приближение)"}, {"name": "Смоленск и Смоленская земля", "from": "1514-07-31", "to": null, "act": "капитуляция смоленского гарнизона 31.07.1514 после третьей осады; 01.08.1514 Василий III въехал в город", "source": "ПСРЛ т. 8; ПСРЛ т. 13; Атлас УІФ, розд. 7. Приближено современной Смоленской областью", "kind": "территория", "region": "SMOLENSK_LAND", "approximate": true, "geometry_source": "Natural Earth admin-1 (современная нарезка - приближение)"}, {"name": "Казанское ханство", "from": "1552-10-02", "to": null, "act": "взятие Казани 02.10.1552", "source": "ПСРЛ т. 13 (Никоновская летопись)", "kind": "территория", "region": "VOLGA_KAZAN", "approximate": true, "geometry_source": "Natural Earth admin-1 (современная нарезка - приближение); обрезано контуром источника 1600 г."}, {"name": "Астраханское ханство и Волжский путь", "from": "1556-08-01", "to": null, "act": "взятие Астрахани 1556 (месяц условный)", "source": "ПСРЛ т. 13; Зайцев И.В. Астраханское ханство", "kind": "территория", "region": "VOLGA_LOWER", "approximate": true, "geometry_source": "Natural Earth admin-1 (современная нарезка - приближение); обрезано контуром источника 1600 г."}, {"name": "Башкирские земли", "from": "1556-08-01", "to": null, "act": "принятие башкирами подданства 1554-1557 (дата условная)", "source": "Материалы по истории Башкирской АССР т. 1", "kind": "территория", "region": "BASHKIRIA", "approximate": true, "geometry_source": "Natural Earth admin-1 (современная нарезка - приближение); обрезано контуром источника 1600 г."}, {"name": "Сибирское ханство", "from": "1587-06-01", "to": null, "act": "основание Тобольска 1587 после похода Ермака (месяц условный)", "source": "Сибирские летописи; Миллер Г.Ф. История Сибири", "kind": "территория", "region": "SIB_WEST", "approximate": true, "geometry_source": "Natural Earth admin-1 (современная нарезка - приближение); обрезано контуром источника 1600 г."}, {"name": "Ленский край и Восточная Сибирь", "from": "1632-09-25", "to": null, "act": "Якутский острог 25.09.1632", "source": "Миллер Г.Ф. История Сибири; ДАИ т. 2", "kind": "территория", "region": "SIB_LENA", "approximate": true, "geometry_source": "Natural Earth admin-1 (современная нарезка - приближение); обрезано контуром источника 1650 г."}, {"name": "Охотское побережье", "from": "1647-06-01", "to": null, "act": "Косой острожек (Охотск) 1647 (месяц условный)", "source": "Миллер Г.Ф. История Сибири; отписки С. Шелковникова", "kind": "территория", "region": "OKHOTSK", "approximate": true, "geometry_source": "Natural Earth admin-1 (современная нарезка - приближение); обрезано контуром источника 1650 г."}, {"name": "Левобережная Украина", "from": "1654-01-08", "to": null, "act": "Переяславская рада 08.01.1654; закреплено Андрусовским перемирием 30.01.1667", "source": "Акты ЮЗР т. 10; ПСЗРИ т. 1 № 398", "kind": "территория", "region": "UA_LEFT", "approximate": true, "geometry_source": "Natural Earth admin-1 (современная нарезка - приближение); обрезано контуром источника 1700 г."}, {"name": "Киев", "from": "1686-05-06", "to": null, "act": "Вечный мир с Речью Посполитой 06.05.1686", "source": "ПСЗРИ т. 2 № 1186", "kind": "территория", "region": "UA_KYIV", "approximate": true, "geometry_source": "Natural Earth admin-1 (современная нарезка - приближение); обрезано контуром источника 1700 г."}, {"name": "Эстляндия, Лифляндия, Ингрия", "from": "1721-08-30", "to": null, "act": "Ништадтский мир 30.08.1721", "source": "ПСЗРИ т. 6 № 3819", "kind": "территория", "region": "BALT_1721", "approximate": true, "geometry_source": "Natural Earth admin-1 (современная нарезка - приближение)"}, {"name": "Младший жуз", "from": "1731-02-19", "to": null, "act": "грамота Анны Иоанновны 19.02.1731, присяга Абулхаир-хана", "source": "Материалы по истории Казахской ССР т. 4", "kind": "территория", "region": "KZ_YOUNGER", "approximate": true, "geometry_source": "Natural Earth admin-1 (современная нарезка - приближение)"}], "removed": [{"name": "Урянхайский край", "from": null, "to": "1914-04-04", "why": "источник рисует Урянхай внутри Московского царства в срезах 1650 и 1700 - шум обзорного контура; протекторат объявлен 04.04.1914", "region": "TUVA"}, {"name": "Западная Грузия", "from": null, "to": "1813-10-12", "why": "источник держит Имеретию, Мегрелию и побережье внутри империи с 1783 года, хотя Георгиевский трактат 1783 касался только Картли-Кахети: Мегрелия 1803, Имеретия и Абхазия 1810", "region": "GEO_WEST"}, {"name": "Аджария (Батум)", "from": null, "to": "1878-07-01", "why": "источник держит Батум внутри империи с 1783 года, хотя Батумская область получена по Берлинскому трактату 01.07.1878", "region": "GEO_AJARIA"}, {"name": "Приамурье", "from": null, "to": "1858-05-16", "why": "источник держит левобережье Амура внутри империи с 1815 года, хотя граница по Амуру установлена Айгунским договором 16.05.1858. СЕВЕРНЫЙ КРАЙ ВЫЧИТАНИЯ - ПРЯМАЯ ПО 51,5 ГРАДУСА С. Ш.: она отделяет охотское побережье, которое у России было с XVII века, от амурского бассейна, цинского до 1858 года. Настоящей линии здесь не существует - Нерчинский договор 1689 года оставил зону между Удой и Становым хребтом неразграниченной. Линия приближает эту зону, а не рисует границу (решение куратора 28.08.2026: оставить как есть и подписать)", "region": "AMUR_LEFT"}, {"name": "Приморье", "from": null, "to": "1860-11-02", "why": "источник держит Приморье внутри империи с 1815 года, хотя Уссурийский край получен по Пекинскому трактату 02.11.1860", "region": "PRIMORYE"}, {"name": "Хакасия (Хонгорай)", "from": null, "to": "1757-01-01", "why": "Полтора века войны за Средний Енисей. 1608 - первые ясачные сборщики; 1667 - кыргызы с ойратами осадили Красноярский острог; 1687 - Еренак Ишеев погиб в бою у Телецкого озера; 1692 - красноярские казаки ударили по тубинцам, погибло около 500 воинов. ПЕРЕЛОМ НЕ ЗА ИМПЕРИЕЙ: в 1703 году джунгарский хунтайджи Цэван-Рабдан увёл кыргызов Хонгорая на Эмель - около 15 тысяч человек, осталось 600 «луков». Только после этого поставлены Абаканский острог (1707) и Саянский (1718). Год фактического закрепления источник называет прямо: 1757, клятва хонгорцев о «вечном подданстве Белого царя». Разбор - data/crosscheck/siberia_control_vs_act.md", "region": "KHAKASSIA"}, {"name": "Горный Алтай", "from": null, "to": "1756-09-30", "why": "Алтай держали телеуты и Джунгария. В 1755 году Джунгарию захватили Цины и их войска вторглись в Горный Алтай; с осени 1755 года алтайские зайсаны просят принять их в подданство, спасаясь от разорения. 02.05.1756 Елизавета Петровна подписала указ о принятии; с 01.06.1756 в крепостях Колывано-Кузнецкой линии шёл приём, 21.06.1756 в Бийскую крепость приехали зайсаны Буктуш, Бурут, Черен, Номык и демичи Менгош Сергеков; к концу сентября 1756 года присягнуло большинство кочевого населения. Разбор - data/crosscheck/siberia_control_vs_act.md", "region": "ALTAI_MTN"}, {"name": "Чукотка", "from": null, "to": "1889-08-03", "why": "ЗАВОЕВАНИЯ НЕ БЫЛО (решение куратора 28.08.2026). Сенатский указ 1742 года велел непокорных чукчей «искоренить вовсе»; 14.03.1747 отряд майора Павлуцкого разбит на реке Орловой; указом 04.05.1764 Анадырская партия и острог ликвидированы, с 1765 года людей вывели, в 1771-м укрепления срыли. В докладе Сената Екатерине: приводить чукчей в подданство «нужды и пользы нет». Протокол 1778 года в Гижигинской крепости подписал ОДИН тойон из четырёх - Амулят Хергынтов; указом 11.10.1779 чукчи получили десять лет без ясака и независимость во внутренних делах, а империя - право выставить деревянные доски со своим гербом. Красное приходит только 03.08.1889, когда начальник Анадырской округи Гриневецкий основал ПОГРАНИЧНЫЙ пост Ново-Мариинск; саму округу учредили указом 09.07.1888 как форпост против американской экспансии после продажи Аляски. До этой даты на Чукотке красятся только остроги точками (data/ostrogs/registry.csv). Разбор - data/crosscheck/siberia_control_vs_act.md", "region": "CHUKOTKA"}, {"name": "Чечня южнее Терека", "from": null, "to": "1859-08-19", "why": "война сопротивления: завоевание Чечни Евдокимовым: просеки, голод, взятие Ведено в апреле 1859 г.. Пруф: кампания «Просеки и голод: завоевание Чечни Евдокимовым (1857-1859)» (C1168), последняя дата окна - 19.08.1859; падение Ведено датировано в кампании «Подавление восстаний 1860-1861 годов, казнь Байсангура и расстрел зикристов у Шали (1860-1864)» (C1169). Территория покрашена как контур источника 1783 г. (плюс Гюлистанский мир 12.10.1813 де-юре)", "region": "CHECHNYA_WAR"}, {"name": "Горный Дагестан (ядро имамата)", "from": null, "to": "1859-08-25", "why": "война сопротивления: сдача имама Шамиля у аула Гуниб 25.08.1859. Пруф: кампания «Подавление восстаний 1860-1861 годов, казнь Байсангура и расстрел зикристов у Шали (1860-1864)» (C1169): «Двадцать пять лет чеченцы и дагестанцы держали против империи собственное государство - имамат... В 1859 году имамат пал: в апреле войска взяли его столицу Ведено, в августе у дагестанского аула Гуниб сдался сам Шамиль». Территория покрашена как контур источника 1783 г. (плюс Гюлистанский мир 12.10.1813, ПСЗРИ т. 32 № 25466)", "region": "DAGESTAN_MTN"}, {"name": "Черкесия: левобережье Кубани", "from": null, "to": "1864-05-21", "why": "война сопротивления: окончание Кавказской войны, парад в Кбаадэ 21.05.1864. Пруф: дата уже курируется в таблице приобретений выше (A CIRCASSIA 1864-05-21): АКАК т. 12; Берже А.П. Выселение горцев с Кавказа. Территория покрашена как контур источника 1783 г.", "region": "CIRCASSIA_LEFT"}], "source": "КУРИРУЕМЫЙ СРЕЗ РАСПОЛЗАНИЯ (19.08.2026): контур источника 1715 плюс приобретения по актам, действующие на 1756-01-01, минус территории, которых на эту дату у империи ещё или уже нет. Приобретения приближены современными административными единицами (Natural Earth admin-1), кроме Русской Америки - её контур берём из среза источника 1815 г. Даты актов по старому стилю, как в ПСЗРИ. Собрано tools/build_expansion.py, проверка - tools/check_expansion.py по data/crosscheck/expansion.csv"}}]}