{"type": "FeatureCollection", "features": [{"type": "Feature", "properties": {"label": "Северные и средние Курилы: от Шумшу до Урупа", "units": ["Северо-Курильский муниципальный округ", "Курильский муниципальный округ (Уруп и севернее)"], "note": "граница по Симодскому трактату 1855 года: Уруп и севернее - русские, Итуруп и южнее - японские. Разрез Курильского округа по 45,62 с.ш., между Итурупом и Урупом Геометрия обрезана по суше Natural Earth с припуском 0.01° (около 1,1 км), tools/build_kurils.py, 30.08.2026: муниципальные округа OpenStreetMap включают морскую акваторию, а прежний припуск 0,05° оставлял вокруг каждого острова ленту моря в пять километров - гряда красила воду.", "source": "OpenStreetMap, admin_level=6 (Overpass, 28.08.2026)", "license": "ODbL"}, "geometry": {"type": "MultiPolygon", "coordinates": [[[[156.05146639748065, 50.435500727465836], [156.05268639748064, 50.423171727465835], [156.05273499989713, 50.42218556574131], [156.05268611460045, 50.42119941799904], [156.05254021816216, 50.42022289796795], [156.05229873289332, 50.419265525518625], [156.05196401297857, 50.418336633856214], [156.04683701297859, 50.40604763385621], [156.04640829212642, 50.4051488044376], [156.04589229913867, 50.40429707259633], [156.0452941510966, 50.40350088492208], [156.0446197798098, 50.402768137175315], [156.04387587299064, 50.40210609598535], [156.04306980793243, 50.401521326787474], [156.03102580793242, 50.39366832678748], [156.03033294191118, 50.39325539289572], [156.0296090502163, 50.39289964222965], [156.01541319602342, 50.38662072515333], [156.00373959078067, 50.3794513394092], [155.99575267053942, 50.371708925511435], [155.9491429192134, 50.31187468034644], [155.9482249490418, 50.310850211338064], [155.90544617225754, 50.2692578176018], [155.90083982209788, 50.25983585467981], [155.9002063627782, 50.258726051120526], [155.8932893627782, 50.24822805112052], [155.89271107727154, 50.24743755890888], [155.89205823484443, 50.24670742958525], [155.8913370981624, 50.246044667222286], [155.8905545850325, 50.24545562964674], [155.88971820204102, 50.24494596744934], [155.88883597254366, 50.24452056977908], [155.88791635969795, 50.24418351744206], [155.87147735969796, 50.239056517442066], [155.87010276143988, 50.238732277849785], [155.84022237475898, 50.23388044119062], [155.82749590709867, 50.22691112598988], [155.82015572931985, 50.219914018072785], [155.78968347900562, 50.183251088496846], [155.78907418072407, 50.182582059584384], [155.7884068986133, 50.181970848764614], [155.7876870966733, 50.181422460901175], [155.78692066895968, 50.18094138643561], [155.78611389132044, 50.18053156461773], [155.7852733700065, 50.18019635124923], [155.7764843700065, 50.17714435124923], [155.77556904988265, 50.176874697253965], [155.7746321954071, 50.17669351254716], [155.77368233686667, 50.176602446859434], [155.62408383430648, 50.16943839837622], [155.56479964200526, 50.15703766114296], [155.5070169529143, 50.128851053935094], [155.48782222767443, 50.11235073903466], [155.4316685843709, 50.03062668811212], [155.42164386871136, 50.007129817133695], [155.42117377777325, 50.00617282236128], [155.42060446732043, 50.0052713180114], [155.41994240941355, 50.00443555260623], [155.41919513048902, 50.003675027331525], [155.40251213048901, 49.988416027331525], [155.40176339742405, 49.98779529808346], [155.40095790623968, 49.98725023849597], [155.4001032761254, 49.9867860043204], [155.39920759107878, 49.986406986775684], [155.39827932343837, 49.98611677101152], [155.39732725374353, 49.985918102196244], [155.39636038767864, 49.98581285955011], [155.39538787088784, 49.98580203856962], [155.39441890246584, 49.985885741611064], [155.36292390246587, 49.990157741611064], [155.36193935571407, 49.99034190792899], [155.36097817107532, 49.990623641188314], [155.36004999163012, 49.99100011490138], [155.35916412933443, 49.991467552097426], [155.3583294715977, 49.992021263214916], [155.35755439211977, 49.99265569314963], [155.35684666688198, 49.99336447698616], [155.35621339613448, 49.99414050385394], [155.35566093316314, 49.99497598826699], [155.35519482055017, 49.99586254823179], [155.35481973456825, 49.99679128933958], [155.3545394382657, 49.997752893999476], [155.35435674371394, 49.998737714917155], [155.35427348379517, 49.9997358718813], [155.35429049381418, 50.00073735088677], [155.354407603118, 50.00173210460006], [155.3546236368081, 50.00271015315913], [155.3549364275275, 50.0036616842963], [155.3553428372047, 50.00457715177984], [155.35583878853652, 50.005447371186435], [155.36995257345234, 50.02755887120815], [155.3730772944636, 50.035619705375254], [155.37096145443564, 50.03815454239801], [155.34828308910184, 50.04500762266999], [155.29385116678077, 50.05450185652224], [155.26711153636703, 50.05391097059559], [155.2450581674296, 50.045422458376315], [155.24418696785716, 50.045132301110385], [155.24329282562977, 50.04492328051059], [155.24238327997523, 50.0447971589967], [155.241466, 50.044755], [155.227794, 50.044755], [155.22675591244902, 50.04480902723528], [155.22572904189812, 50.04497052515269], [155.22472448414268, 50.045237748695044], [155.22375309387832, 50.04560781039249], [155.2228253674111, 50.046076711562954], [155.22195132924026, 50.04663938551966], [155.221140423739, 50.04728975231897], [155.22040141310376, 50.04802078445685], [155.20917041310378, 50.060349784456854], [155.20853991818078, 50.061114899722575], [155.20798828415224, 50.061938686780195], [155.2075209331681, 50.062813048418995], [155.20714245893907, 50.06372939031792], [155.20685658158376, 50.06467870552136], [155.20335758158376, 50.07879870552136], [155.20317297804232, 50.079731694110365], [155.20307784336163, 50.08067800038597], [155.20307303807883, 50.08162906457097], [155.2031586056599, 50.08257628385065], [155.2051936056599, 50.097265283850646], [155.20534421029427, 50.09809392657693], [155.20556400862958, 50.0989069574592], [155.2058514415691, 50.09969860942123], [155.2116284415691, 50.11373660942124], [155.21203601235447, 50.114605892343896], [155.2125250672062, 50.11543208366357], [155.21309109817932, 50.11620756782344], [155.22155509817932, 50.126705567823436], [155.2220933517183, 50.12732001506903], [155.2226799594086, 50.12788848116968], [155.2336882465091, 50.13771699836325], [155.24191232177182, 50.14674376308966], [155.24469528281548, 50.15519782188733], [155.24265212161828, 50.164331867427364], [155.23355705105794, 50.19073963077905], [155.23329892082447, 50.19161774582306], [155.23312215873057, 50.19251578391251], [155.23302824554278, 50.19342622202743], [155.23301796798808, 50.19434143327071], [155.23309141216328, 50.195253750759896], [155.2332479628139, 50.19615553185403], [155.2351199628139, 50.204619531854036], [155.2355147606724, 50.20595533323478], [155.23835157724977, 50.2135594189275], [155.23366316240785, 50.21873205413038], [155.18793036341145, 50.244797002814515], [155.18716802416643, 50.24527826616897], [155.1864521267194, 50.2458262318487], [155.1857884897097, 50.2464364461227], [155.1851825070166, 50.24710394931859], [155.18463910391927, 50.24782331613368], [155.17910510391926, 50.255880316133684], [155.17861508555333, 50.25667001834289], [155.17820049752444, 50.25750180217566], [155.17786492082664, 50.2583684831193], [155.17761125399554, 50.25926257523814], [155.17744168807226, 50.26017635583315], [155.17735768767832, 50.26110193214659], [155.17678768767834, 50.27404193214659], [155.1767949408924, 50.27506383404335], [155.17690645079617, 50.27607965963718], [155.17712105285148, 50.27707880029474], [155.17743650589162, 50.278050821629485], [155.17784951552662, 50.27898557247176], [155.17835576854776, 50.27987329088111], [155.17894997797202, 50.28070470609377], [155.19408697797203, 50.29974670609377], [155.1947010471776, 50.30044923535167], [155.19537792310143, 50.30109147154747], [155.19611171266982, 50.3016678231908], [155.19689602730278, 50.302173272400864], [155.1977240385348, 50.302603418593556], [155.19858853746535, 50.30295451679419], [155.23008253746534, 50.31406351679419], [155.2309723743763, 50.31433160070165], [155.23188325590402, 50.31451591985972], [155.23280731495868, 50.31461488234308], [155.26723131495868, 50.31668988234308], [155.26820204559348, 50.316701187947295], [155.26916929817367, 50.31661831317321], [155.27012395686808, 50.31644203907064], [155.2710570245361, 50.31617402692742], [155.3194201840363, 50.29970206735373], [155.34061924756907, 50.31033356152274], [155.37748879734866, 50.34956711488795], [155.3782624779262, 50.35030675528034], [155.37911078063982, 50.350959466588805], [155.40450178063983, 50.3684154665888], [155.40530835633416, 50.36891534219744], [155.4061586811983, 50.369336516271], [155.4070450985672, 50.36967519638976], [155.4386200985672, 50.38005119638976], [155.43946118078426, 50.380287419449935], [155.44031967068412, 50.38044933214825], [155.47515067068412, 50.38545433214826], [155.47655385407066, 50.38555598167166], [155.53959942747554, 50.3856766885023], [155.5455185279204, 50.38649148237413], [155.54793895697682, 50.38811054750101], [155.55642769738714, 50.399573288962465], [155.55700302527748, 50.400280367381725], [155.55764035103797, 50.40093211729341], [155.55833437873332, 50.40152312290293], [155.55907934125656, 50.40204847317784], [155.56493834125658, 50.40579247317784], [155.56587610922526, 50.40632285002875], [155.56686549262724, 50.406749263971946], [155.56789500760658, 50.40706676558512], [155.56895270449678, 50.407271669600476], [155.57002630652156, 50.40736159767997], [155.58784830652155, 50.40789059767997], [155.58882831752038, 50.40787162654239], [155.58980176333117, 50.407756801826466], [155.590759291267, 50.40754722674678], [155.59169170157696, 50.407244914861856], [155.61935048634524, 50.39675311285043], [155.63201416584405, 50.39390602854467], [155.65577664106732, 50.39843684921993], [155.68458476172697, 50.412382683901704], [155.71153583147765, 50.43092147465392], [155.75974936899166, 50.47523714182023], [155.7671088153158, 50.484539031552245], [155.77055378290137, 50.49224208450731], [155.77579265289154, 50.5131216527422], [155.77601256020012, 50.513872371379136], [155.7762904757742, 50.51460360364722], [155.7803594757742, 50.52416560364721], [155.7807945624314, 50.52506140024899], [155.78131659040423, 50.525909479694924], [155.81142759040424, 50.56977347969492], [155.81192133486746, 50.57043279656288], [155.81246766622385, 50.57104924151287], [155.84610227519002, 50.60598889703504], [155.85254081970757, 50.617961029352244], [155.8609598329144, 50.661628134370574], [155.861176364982, 50.66252594978647], [155.86147480355626, 50.66339995955454], [155.86887980355627, 50.68219895955454], [155.86925491311752, 50.683036377976705], [155.8697052035185, 50.68383588742101], [155.87022688341847, 50.68459075620344], [155.87081556039377, 50.685294628504], [155.88212756039377, 50.697623628504005], [155.88273797189936, 50.69823382466152], [155.8833987267647, 50.69878911248305], [155.8841049027522, 50.69928535539885], [155.97240290275218, 50.75580435539885], [155.97324820610086, 50.756289062244456], [155.97413667078422, 50.75668919845107], [155.97505986102135, 50.75700096481154], [156.00559417400788, 50.76568017894297], [156.03660829973035, 50.78166216109875], [156.037557189574, 50.78209018589647], [156.03854543361234, 50.782417249932166], [156.07060943361233, 50.791206249932166], [156.07157603612848, 50.79142038689511], [156.07255907582632, 50.79153789440808], [156.07354891719584, 50.79155762069174], [156.07453585805882, 50.79147937239398], [156.075510224667, 50.7913039164851], [156.0764624665219, 50.791032972740155], [156.07738324998627, 50.79066919688218], [156.10887724998628, 50.77638619688218], [156.10968592683312, 50.77597422867653], [156.11045392292274, 50.7754906399552], [156.11117491245534, 50.77493941392266], [156.11184295681286, 50.77432509089568], [156.11245255347393, 50.77365273090587], [156.1129986813369, 50.77292787202143], [156.1254496813369, 50.754739872021425], [156.12600411162379, 50.75382939614946], [156.12645847284614, 50.75286507507425], [156.1268076018281, 50.75185786694759], [156.1328296018281, 50.730942866947586], [156.13308879172757, 50.729790605164766], [156.13321032317165, 50.72861582147054], [156.13524532317166, 50.682391821470546], [156.13524467844394, 50.681497770337025], [156.1351641834348, 50.68060734998768], [156.13361818343478, 50.669214349987676], [156.13333613821402, 50.66785378100558], [156.13086662571018, 50.659065458047365], [156.1304735366651, 50.65190985816728], [156.13401076807898, 50.64262525955344], [156.1431271271457, 50.63162296054856], [156.16178082041694, 50.616676988520865], [156.1625127044549, 50.616029389011075], [156.16317788181544, 50.61531344316876], [156.16376999979286, 50.614535988558565], [156.1642834034274, 50.61370445017812], [156.16471318951218, 50.612826769546324], [156.16505525342092, 50.61191132885876], [156.16896125342092, 50.59966332885876], [156.16919812820842, 50.59878412026753], [156.16935404690884, 50.597887010034235], [156.16942771677307, 50.596979436256], [156.16941852699145, 50.59606892378505], [156.16932655375808, 50.59516302183882], [156.169152559639, 50.594269241408085], [156.167199559639, 50.586212241408084], [156.16680772155343, 50.58496074826706], [156.15763639949225, 50.56124785727028], [156.1560434838905, 50.55227909714579], [156.1621181284993, 50.53340468937953], [156.16238926800935, 50.532378314974466], [156.16255007501195, 50.53132898082311], [156.16259873727478, 50.53026851251266], [156.16251673727476, 50.518956512512666], [156.16246431586217, 50.51800386238105], [156.16232134500044, 50.517060543977514], [156.16208912613934, 50.51613514423778], [156.1617697731446, 50.515236086985695], [156.16136619305553, 50.51437155625202], [156.16088205962242, 50.513549421775984], [156.16032177986483, 50.51277716736777], [156.15969045395494, 50.512061822784204], [156.1589938287911, 50.51140989973746], [156.15823824568446, 50.51082733261966], [156.15743058263462, 50.51031942448264], [156.15657819171975, 50.50989079876478], [156.14033166955278, 50.50267053302531], [156.1259769364663, 50.49039260358094], [156.12520341275678, 50.4897939394404], [156.1243751022986, 50.48927370923447], [156.1164811022986, 50.48483870923447], [156.11556107001755, 50.48438230878256], [156.1145990786145, 50.48402267937443], [156.11360527479744, 50.48376361424003], [156.11259014081912, 50.48360784589674], [156.10575414081913, 50.48291584589674], [156.10482380879083, 50.48286529498387], [156.1038928100061, 50.48290154881809], [156.09046339896167, 50.48405288366469], [156.08514401030388, 50.483641245777044], [156.070600868968, 50.48041793219408], [156.06212619856822, 50.47749919616125], [156.0574347484402, 50.47318526890951], [156.05212994394202, 50.462674642157296], [156.0493731458837, 50.45233705271503], [156.049683738764, 50.4450705529452], [156.05133824842062, 50.436387841464125], [156.05146639748065, 50.435500727465836]]], [[[149.58200170822008, 45.602830336800096], [149.57842070822005, 45.5975813368001], [149.5778469094557, 45.596820796202465], [149.57720333914915, 45.59611831183741], [149.57649583877586, 45.595480259923846], [149.57573083008342, 45.59491243184857], [149.5749152568034, 45.594419981599785], [149.57405652162552, 45.594007378985985], [149.56780103741355, 45.59136073050034], [149.55601873821158, 45.58242971635218], [149.5550995172931, 45.581810050086496], [149.55411735531484, 45.58129593801089], [149.55308432258963, 45.580893698323074], [149.53216932258962, 45.57405869832308], [149.53131985441766, 45.57382199773468], [149.5304528364189, 45.57366105323004], [149.5295750107277, 45.5735771163512], [149.52869320352158, 45.57357083981093], [149.43632720352159, 45.57698883981092], [149.43535156246853, 45.57707292346135], [149.43438882342843, 45.57725202975778], [149.4334482185443, 45.57752444116841], [149.43253876770453, 45.577887545416196], [149.43166919204728, 45.57833786052922], [149.43084783032936, 45.57887106823084], [149.43008255896225, 45.57948205534967], [149.42938071648143, 45.58016496285209], [149.42874903317403, 45.58091324202716], [149.42819356653877, 45.5817197172852], [149.42771964319817, 45.582576654967845], [149.42733180781883, 45.58347583750952], [149.4270337795308, 45.58440864223949], [149.42682841626302, 45.585366124068535], [149.42671768733732, 45.58633910126751], [149.4267026545838, 45.58731824351511], [149.42678346215837, 45.58829416137057], [149.4269593351604, 45.58925749631329], [149.42722858706367, 45.59019901048595], [149.427588635889, 45.591109675280514], [149.42803602896439, 45.59198075791771], [149.4285664760339, 45.59280390518956], [149.4291748903991, 45.59357122356215], [149.4298554376977, 45.59427535487027], [149.4377494376977, 45.60168035487027], [149.43843312176983, 45.602266120236564], [149.4391667182145, 45.60278802178972], [149.44533839602235, 45.60677288462629], [149.45665905809696, 45.628363193222604], [149.4729175435603, 45.6728121922714], [149.47329406436663, 45.67370492508324], [149.47375521196085, 45.6745570299402], [149.47429665736703, 45.675360507794935], [149.4749133178217, 45.6761078160811], [149.47559940448778, 45.67679193951846], [149.47634847679674, 45.67740645596809], [149.47715350290875, 45.67794559671955], [149.4780069257234, 45.67840430064408], [149.4789007338211, 45.67877826170542], [149.4798265366696, 45.679063969382284], [149.4807756433892, 45.679258741623016], [149.5070935329403, 45.68334250655687], [149.5220320545405, 45.70038469327913], [149.52275515165718, 45.70112804278138], [149.52355134465847, 45.7017925084519], [149.5294103446585, 45.706187508451904], [149.5302785159986, 45.70677040106119], [149.54222067331108, 45.713912100792044], [149.54587852873334, 45.716735801255346], [149.55860405229333, 45.73696055999107], [149.55938650171612, 45.73803770131385], [149.58589345344487, 45.76983882621954], [149.58635261932446, 45.77154761282401], [149.58557575524645, 45.782567798672474], [149.58555391681165, 45.78351251133495], [149.58562134822407, 45.78445506740039], [149.58577744734893, 45.78538705023021], [149.58602082028517, 45.786300137600506], [149.58634929381236, 45.78718617601604], [149.58879029381237, 45.792923176016046], [149.58921353222468, 45.79379741578042], [149.58971958897732, 45.79462647095494], [149.59030368979967, 45.79540252001821], [149.5909603241332, 45.79611824152221], [149.59168329711943, 45.79676688316477], [149.5924657880438, 45.79734232549251], [149.5933004146841, 45.797839139633346], [149.5998114146841, 45.801298139633346], [149.60066413744104, 45.80170080388863], [149.6015509982278, 45.802021354271055], [149.60246411041655, 45.802256940207506], [149.60339535393254, 45.802405466692065], [149.6043364474637, 45.802465612916436], [149.6166344377481, 45.80267046747879], [149.61972556014916, 45.80427323695191], [149.6445780785435, 45.82957328409076], [149.65835170691398, 45.8576245120458], [149.65885343426078, 45.85852564724122], [149.6594453119168, 45.859370310376], [149.66012104363574, 45.8601495161351], [149.6608734411526, 45.86085497552271], [149.66169450065098, 45.861479184038416], [149.66257548790543, 45.86201550150827], [149.66350703119403, 45.86245822272125], [149.66447922099243, 45.86280263811992], [149.69076522099243, 45.870614638119925], [149.69171594882968, 45.87084721785025], [149.6926848595559, 45.870985741336156], [149.69366267123155, 45.871028881554864], [149.7504128385101, 45.870752668229976], [149.80584072677442, 45.88865542019755], [149.84332049310424, 45.92379370388279], [149.87602412357893, 45.96647695017441], [149.87652018260064, 45.96707477198671], [149.87706115042084, 45.967632283681446], [149.91644915042085, 46.005189283681446], [149.91722238269966, 46.00585467715528], [150.01404138269967, 46.080926677155276], [150.01481000439244, 46.08146681742536], [150.01562592087296, 46.08193244722976], [150.01648193142688, 46.08231945724196], [150.01737048149724, 46.08262443197932], [150.09177548149722, 46.10431343197932], [150.0929139994, 46.1045742574253], [150.09407516390954, 46.10470055037809], [150.10791016390954, 46.105391550378094], [150.1093348380663, 46.10536104895413], [150.134956425671, 46.102978672284785], [150.14748288809636, 46.10451027347292], [150.17646523272637, 46.11453905503753], [150.18878438457543, 46.12177952233945], [150.19935517251662, 46.13072863267339], [150.1996714661038, 46.131605861451895], [150.17544659750945, 46.152098274250505], [150.1747349042907, 46.15276236677773], [150.1740911496018, 46.153492507875626], [150.17352143318655, 46.15428177926657], [150.1730311532569, 46.15512270239794], [150.17262495534314, 46.15600730930341], [150.17230668827668, 46.15692721810147], [150.17207936772112, 46.15787371241595], [150.17194514759808, 46.15883782396598], [150.1719052996783, 46.15981041754278], [150.1719602015312, 46.16078227756813], [150.17210933294743, 46.16174419541443], [150.17235128086782, 46.162687056658804], [150.17268375277266, 46.16360192744467], [150.17310359840377, 46.164480139132344], [150.17360683961414, 46.16531337043667], [150.17418870806185, 46.166093726273395], [150.17484369039133, 46.166813812567106], [150.17556558047394, 46.16746680631206], [150.17634753821255, 46.16804652022198], [150.20549853821257, 46.187533520221976], [150.20623966003936, 46.187983724629596], [150.20701699812116, 46.18836803059804], [150.2078247072987, 46.188683548355584], [150.2418447072987, 46.20029954835558], [150.2428322194798, 46.20058102175355], [150.24384339025283, 46.200759742903315], [150.28633081705772, 46.20603702758535], [150.33119057449048, 46.22036602948959], [150.39435187661437, 46.24062420196937], [150.39526235134744, 46.240869536560176], [150.39619188640327, 46.241028022777236], [150.39713221679023, 46.24109825143512], [150.39807498152965, 46.24107959809338], [150.3990117979977, 46.24097222860883], [150.39993433645984, 46.24077709766079], [150.4783373268629, 46.22028850455853], [150.56702556067629, 46.24148409797557], [150.56797821468427, 46.241663463393884], [150.56894375965538, 46.241749745031896], [150.5699131221548, 46.2417421320824], [150.57087719287358, 46.24164069608593], [150.5718269122309, 46.24144639025847], [150.57275335550867, 46.24116104053387], [150.5736478167192, 46.24078732840516], [150.5745018904171, 46.24032876572599], [150.57530755068737, 46.23978966170896], [150.57605722656626, 46.239175082431025], [150.57674387318752, 46.23849080322649], [150.57736103798445, 46.23774325441493], [150.57790292132609, 46.236939460874076], [150.57836443101752, 46.23608697602556], [150.57874123015247, 46.23519381085375], [150.57902977786804, 46.23426835862478], [150.57922736261895, 46.23331931601328], [150.57933212765863, 46.23235560137776], [150.57934308848732, 46.23138627095294], [150.57926014210375, 46.23042043374632], [150.57908406797304, 46.22946716593886], [150.57881652070185, 46.22853542559417], [150.57846001448968, 46.22763396847764], [150.5780178995025, 46.22677126577663], [150.57749433039032, 46.225955424494856], [150.57689422724533, 46.22519411126917], [150.5762232293664, 46.224494480324495], [150.5754876422657, 46.22386310624401], [150.52156564226573, 46.18194310624401], [150.52116355396478, 46.181646332238344], [150.47921655396476, 46.152276332238344], [150.4788208974309, 46.152013090454204], [150.4499578495668, 46.13378395218815], [150.39964935002718, 46.09266613322255], [150.39864365075425, 46.09194322248413], [150.36861465075427, 46.07306322248414], [150.36783164380947, 46.072618801681045], [150.36701183807045, 46.07224660781212], [150.36616187896223, 46.07194965791706], [150.32654541521995, 46.060080945549565], [150.29167249889005, 46.03717210421587], [150.29086390166236, 46.03669372268295], [150.29001397830154, 46.03629333705841], [150.28913023089717, 46.03597448145955], [150.28822046009645, 46.035739970355756], [150.2517597068159, 46.02814818633159], [150.23732277078182, 46.00344440765746], [150.23680552016103, 46.00264858745888], [150.23621514959632, 46.00190539126037], [150.23555697760614, 46.001221514352935], [150.23483693351713, 46.000603117633126], [150.23406150404804, 46.00005577210091], [150.1985055997876, 45.97740707895957], [150.19082925744425, 45.95138515257933], [150.20487604429564, 45.93649509003036], [150.20552904669353, 45.935729058621625], [150.2061017309661, 45.93490126095628], [150.20658829458327, 45.93402008441478], [150.20698380760336, 45.93309445722106], [150.2072842626242, 45.93213375798025], [150.20748661538667, 45.9311477206532], [150.20758881561972, 45.93014633593034], [150.20758982781396, 45.9291397500044], [150.20748964171372, 45.928138161767585], [150.20728927242078, 45.92715171947466], [150.2069907501094, 45.926190417919244], [150.2065970994562, 45.925263997164926], [150.2061123089935, 45.924381843857326], [150.2055412906971, 45.923552896117116], [150.20488983021716, 45.922785552977516], [150.2041645282571, 45.92208758928392], [150.20337273369432, 45.92146607691789], [150.2025224691199, 45.920927313143714], [150.2016223495528, 45.92047675680351], [150.19494934955281, 45.91754675680351], [150.1941252578752, 45.91722756145632], [150.1932762030157, 45.91698237049348], [150.19240881620107, 45.9168130988877], [150.1613400933802, 45.91216431637164], [150.15474138509904, 45.906398793250005], [150.15204786594344, 45.895597414811675], [150.1517791923608, 45.89470097610091], [150.15142789526715, 45.89383357872475], [150.15099705127975, 45.893002819244096], [150.1504904336779, 45.89221597334959], [150.1499124793571, 45.89147993214202], [150.14926824997107, 45.890801141780905], [150.14856338760254, 45.89018554702979], [150.14780406535053, 45.88963853919275], [150.11907606535053, 45.87092053919275], [150.1182953926784, 45.87046086433987], [150.11747632206132, 45.87007372855537], [150.11662557602787, 45.86976230925926], [150.09031254656784, 45.861461237975114], [150.04484171996515, 45.83538050410086], [150.03079873448974, 45.817599172688844], [150.0301295018705, 45.81683502392311], [150.02938620178236, 45.816142708522634], [150.02857650356313, 45.815529369767496], [150.02770876164368, 45.81500133606019], [150.0267919293473, 45.814564055629475], [150.02583546650956, 45.814222040315734], [150.0248492418723, 45.81397881901805], [149.9976742418723, 45.808724819018046], [149.9964805935317, 45.808567853487034], [149.9952767325691, 45.808555471174884], [149.9723717325691, 45.809700471174885], [149.9718153529418, 45.80974387563993], [149.9493619831818, 45.812127477541466], [149.93233671966271, 45.804113687859505], [149.9313592181113, 45.79290054717875], [149.931224672939, 45.79192052911733], [149.93099396027173, 45.790958599042284], [149.93066933772013, 45.790024169803054], [149.93025398183863, 45.78912638514301], [149.92975195704153, 45.788274030224436], [149.92916817583128, 45.787475445662444], [149.92850835072767, 45.78673844590887], [149.92777893836882, 45.78607024278491], [149.9269870763304, 45.78547737491075], [149.92614051328178, 45.78496564372266], [149.92524753316246, 45.784540056703776], [149.9243168741205, 45.78420477838397], [149.87482988417332, 45.769096828458785], [149.84812531597993, 45.752157902308106], [149.76120965510265, 45.67660196053912], [149.76031422190943, 45.675908535163785], [149.70758022190944, 45.639654535163785], [149.7069061384727, 45.6392296357984], [149.6427571384727, 45.6022806357984], [149.64195815682015, 45.60186713326482], [149.6411252456938, 45.601527111086284], [149.64026514630993, 45.601263321252794], [149.6393848199348, 45.60107789876325], [149.6053638199348, 45.59549689876325], [149.60438624555476, 45.59538558097189], [149.60340246363998, 45.59537086827973], [149.60242199762556, 45.59545290311199], [149.60145433884722, 45.59563089133597], [149.60050885466114, 45.595903109948544], [149.59959469776382, 45.596266923755636], [149.59872071759, 45.59671881088198], [149.59789537464638, 45.59725439686444], [149.59712665861022, 45.59786849699871], [149.59642201098572, 45.598555166529444], [149.59578825306713, 45.59930775819814], [149.58403121052152, 45.61475172019839], [149.58373107386547, 45.608020551728], [149.5836474167069, 45.60710111611138], [149.58347932117792, 45.60619331422416], [149.5832282200582, 45.60530488380991], [149.5828962536342, 45.604443397497405], [149.58248625145612, 45.60361619825462], [149.58200170822008, 45.602830336800096]]], [[[154.83676593709362, 49.39689018008949], [154.83920793709362, 49.390380180089494], [154.8394912065376, 49.38950441791727], [154.83969275322713, 49.38860631998715], [154.8398108696568, 49.38769349499339], [154.83984455514303, 49.38677367639813], [154.83979352430208, 49.38585465691333], [154.8396582094677, 49.38494422248089], [154.83943975702852, 49.38405008631006], [154.8377307570285, 49.37823108631006], [154.8374117892198, 49.37731272721156], [154.83700515371058, 49.37642968052004], [154.8365146937102, 49.37559029212079], [154.83594504467334, 49.37480249527415], [154.83442281468865, 49.37289948511486], [154.84327530759901, 49.357782221780376], [154.84375133172216, 49.35686336019588], [154.84412984634008, 49.355900223517466], [154.8444067979186, 49.35490312602954], [154.8445792205678, 49.3538827457047], [154.84464526780397, 49.352850009852766], [154.84460423232352, 49.351815978099566], [154.84445655357771, 49.350791723948824], [154.8442038130665, 49.34978821619536], [154.8414368130665, 49.34079521619536], [154.84113238915987, 49.339944590096586], [154.8407524355122, 49.33912491095176], [154.84030005345207, 49.338342869299076], [154.83977893549684, 49.33760484846496], [154.8391933352128, 49.33691687246089], [154.83854803249594, 49.33628455681308], [154.824449594722, 49.3236664723296], [154.82396883029125, 49.32194354849406], [154.82485567424865, 49.31812557932048], [154.82504995703277, 49.317001696077405], [154.82511499999998, 49.315863], [154.82511499999998, 49.310207], [154.82506834099019, 49.30924211496396], [154.82492879937342, 49.30828623404399], [154.82469767732445, 49.30734827733153], [154.82437713162844, 49.306436997652874], [154.82397015355434, 49.3055608988895], [154.82348054094095, 49.304728156621586], [154.82291286275623, 49.303946541835046], [154.82227241646052, 49.30322334840427], [154.8215651785719, 49.302565325027146], [154.8152991785719, 49.29727632502715], [154.81449920615015, 49.296667232129], [154.81364211296736, 49.29614155037147], [154.81273656380742, 49.295704594134456], [154.78901122356214, 49.28569377127459], [154.78402015306628, 49.28252145843178], [154.78287827668524, 49.281896101788035], [154.77457827668522, 49.27803010178803], [154.773634173119, 49.277647588661345], [154.7726560536604, 49.27736310639396], [154.77165406774475, 49.27717960690996], [154.77063861245722, 49.27709899428777], [154.76962022464767, 49.27712210500251], [154.75066805884214, 49.27852034858941], [154.74468169780383, 49.27787541965128], [154.7416230127035, 49.27573881921932], [154.72967432493644, 49.263458424859195], [154.72819058829313, 49.26132512609095], [154.727592576286, 49.26054933068666], [154.726921532965, 49.259835763779286], [154.72618389683552, 49.259191271878265], [154.72538674534565, 49.25862203873432], [154.72453772697955, 49.258133526007796], [154.72364498787204, 49.257730420865315], [154.72271709364836, 49.257416591007484], [154.721762947239, 49.25719504755919], [154.72079170345805, 49.257067916178585], [154.70028470345807, 49.25539991617858], [154.6990638548697, 49.255375414491574], [154.69784912183894, 49.25549989449931], [154.67758512183894, 49.25883689449931], [154.67624794156046, 49.25915275872985], [154.60959694156045, 49.27982275872985], [154.60882925274305, 49.28009558497375], [154.60808632125244, 49.28042999950688], [154.60149532125243, 49.28372599950688], [154.60064670314424, 49.284203371404566], [154.59984853287904, 49.28476101004202], [154.5991083774032, 49.28539362880072], [154.59843325366174, 49.28609523022316], [154.59782956207496, 49.28685916287092], [154.5973030258602, 49.28767818438272], [154.59437302586022, 49.29276418438272], [154.59393482503197, 49.29361689315174], [154.59358029441702, 49.294507645785046], [154.5933126926205, 49.295428255088254], [154.59313447925666, 49.29637025944473], [154.593047292342, 49.297325000589], [154.59280329234198, 49.302981000589], [154.59281165048213, 49.30400588391423], [154.5929248687807, 49.30502452875209], [154.59314175792957, 49.30602623468995], [154.59611365904252, 49.316999047904325], [154.5971324394449, 49.32620731962322], [154.59390233847566, 49.358277884462126], [154.59385225113937, 49.359209128817305], [154.59388913409788, 49.36014098955673], [154.594012666571, 49.36106536205654], [154.59422177416613, 49.36197420681995], [154.59861577416615, 49.37768020681995], [154.5989613256445, 49.37870013813856], [154.5994145483085, 49.379676997870426], [154.59997018629022, 49.38059945770811], [154.60062179604648, 49.38145682020111], [154.60136182108235, 49.382239142810505], [154.6188170135889, 49.398806398053765], [154.62892207499792, 49.42757593877502], [154.62932702294063, 49.4285584536896], [154.6298339480752, 49.42949244796238], [154.6304371256029, 49.430367373824254], [154.6311297437289, 49.43117335057652], [154.63190398058933, 49.43190127617548], [154.6473659805893, 49.44496227617548], [154.64831518302398, 49.4456721316132], [154.67976555072454, 49.46640447548697], [154.68850981928787, 49.47705723566768], [154.69466277634228, 49.48793472045449], [154.70454532429224, 49.51064861745213], [154.70495362132303, 49.511479606152626], [154.7054370251574, 49.51226927027024], [154.7059913918223, 49.513010840419696], [154.71616439182228, 49.5253808404197], [154.71693775061323, 49.52621885628936], [154.74666757904015, 49.55495791775], [154.75016628810644, 49.560248972161645], [154.749670712574, 49.5620846543114], [154.7416299393634, 49.572417715207045], [154.74111608488784, 49.5731423044089], [154.74066855946538, 49.573909635452054], [154.7402908944115, 49.574713653511914], [154.73998606979018, 49.575548014275476], [154.73778906979015, 49.58250601427548], [154.73755015794003, 49.583406914053185], [154.73739616007265, 49.584326144132355], [154.7373284139664, 49.58525571916789], [154.73734750813122, 49.58618756394814], [154.73745327669621, 49.58711358354418], [154.73764480085063, 49.588025733630445], [154.7379204168255, 49.58891609036569], [154.7415824168255, 49.59904809036569], [154.74194171407026, 49.599913129741125], [154.74238037353496, 49.600740756169635], [154.7428945464757, 49.601523708159306], [154.74347972160274, 49.60225511618622], [154.74413076466186, 49.602928562966824], [154.7448419634818, 49.60353813976235], [154.7456070780921, 49.604078498221405], [154.74641939547175, 49.60454489730569], [154.75545239547174, 49.60918289730569], [154.7565354978759, 49.60966027290476], [154.75766741809488, 49.610006329111606], [154.76699222711025, 49.61226341668486], [154.77318839312994, 49.61509094412764], [154.81653046314517, 49.652757011410294], [154.81726220085469, 49.65333530033421], [154.81804463215033, 49.65384290197197], [154.8188709509897, 49.65427540090932], [154.8197339695709, 49.654629035018985], [154.8333249695709, 49.65947103501898], [154.8342466647942, 49.659750175846725], [154.83519093705698, 49.65993936247443], [154.83614902878463, 49.660036840306454], [154.83711205423512, 49.660041705292734], [154.83807108190894, 49.65995391231338], [154.83901721738366, 49.65977427559705], [154.83994168580446, 49.65950446116956], [154.85751968580448, 49.653441461169564], [154.85836200818875, 49.65310750238792], [154.85917064342058, 49.652698669257255], [154.85993895231792, 49.652218318442586], [154.86066062679222, 49.65167039379446], [154.87366867507666, 49.64083097672732], [154.88448334476206, 49.63548054631692], [154.90236711051423, 49.64044116426784], [154.9033477939923, 49.6406607819998], [154.9043455682778, 49.640780859089986], [154.90535035612945, 49.64080018279338], [154.906352009471, 49.640718557945966], [154.90734041188384, 49.6405368089359], [154.90830558078, 49.64025677137734], [154.90923776822362, 49.6398812735713], [154.91012755938218, 49.63941410794061], [154.91096596761383, 49.63885999272749], [154.91174452522998, 49.63822452434061], [154.91245536901639, 49.63751412083296], [154.91309131964962, 49.63673595708128], [154.91364595420617, 49.63589789232182], [154.9141136710321, 49.63500839077428], [154.91448974631834, 49.63407643615551], [154.9147703818096, 49.633111440946514], [154.91495274316594, 49.63212315132901], [154.9150349885887, 49.63112154875174], [154.91501628742205, 49.63011674912061], [154.91489682854257, 49.62911890063088], [154.91172282854257, 49.61056390063088], [154.9114974692025, 49.6095602414603], [154.91117019749888, 49.60858504312413], [154.89788459157452, 49.57485697875699], [154.89488392523845, 49.556853926129975], [154.89468500808675, 49.55593136432598], [154.89440000583733, 49.555031663246034], [154.8940314569719, 49.55416283642253], [154.8935826441122, 49.55333262239446], [154.8845496441122, 49.538358622394455], [154.8840076793766, 49.537551671949885], [154.88338992765904, 49.53680115372218], [154.88270222606337, 49.536114159319006], [154.88195107264622, 49.53549718011472], [154.88114356501706, 49.5349560459137], [154.83835263191847, 49.509202613245805], [154.83015098747202, 49.50059485294197], [154.83017831231024, 49.50056943894749], [154.8308410724727, 49.499815607319725], [154.83142492347466, 49.49899913248023], [154.8319239829404, 49.49812824052042], [154.83233322278014, 49.49721170579138], [154.83264851984868, 49.496258762501064], [154.8328666974866, 49.495279011678505], [154.83298555752543, 49.494282324442125], [154.83300390243468, 49.49327874254697], [154.832921547387, 49.49227837721265], [154.8327393221203, 49.49129130725152], [154.8324590625781, 49.4903274775233], [154.83208359241218, 49.489396598739305], [154.83161669453384, 49.48850804962575], [154.83106307300065, 49.48767078243184], [154.8304283056224, 49.48689323273472], [154.82971878776394, 49.486183234449875], [154.82894166791098, 49.48554794090344], [154.8115358622605, 49.47272035002386], [154.80735131611277, 49.45655823919454], [154.81095383705548, 49.43575302969227], [154.81884241463433, 49.41606793656913], [154.82211461938206, 49.41179128699261], [154.8341602199908, 49.400749565505116], [154.83482227018823, 49.40008280647552], [154.8354188172764, 49.399356852180084], [154.83594459447193, 49.39857811191006], [154.83639495980324, 49.397753460992504], [154.83676593709362, 49.39689018008949]]], [[[156.41211593284166, 50.62238289546637], [156.4113277023302, 50.62179830387698], [156.41048596736826, 50.62129378735652], [156.40959883432367, 50.62087420467489], [156.40867484677256, 50.620543596642676], [156.40772290322016, 50.62030514719597], [156.4067521714033, 50.62016115273328], [156.405772, 50.620113], [156.385265, 50.620113], [156.38428957961386, 50.62016068594395], [156.3833234619961, 50.62030328898594], [156.35285185021016, 50.626334230390604], [156.32141560798934, 50.62749881826498], [156.30493560663905, 50.62569910173952], [156.30455951374483, 50.625665202245365], [156.27315251374483, 50.623431202245364], [156.27219187031298, 50.62340915380331], [156.27123354561664, 50.623479408435195], [156.27028638807792, 50.62364131746458], [156.26935914301018, 50.62389338594989], [156.26846037187053, 50.62423328648751], [156.26759837321006, 50.62465788070119], [156.26678110605152, 50.62516324821944], [156.26601611640183, 50.62574472287307], [156.26531046757827, 50.62639693577908], [156.26467067499124, 50.6271138649126], [156.25185130851986, 50.642948916328066], [156.23332477374987, 50.65198319619865], [156.20299300836436, 50.661774547541725], [156.20215127147924, 50.66208867806117], [156.20134112617032, 50.66247708962824], [156.20056911192216, 50.66293664698879], [156.17452811192217, 50.680067646988796], [156.17374593812698, 50.68063830299161], [156.17302261765363, 50.68128192680432], [156.17236493122735, 50.681992484813314], [156.1717790442909, 50.68276331593434], [156.1712704492069, 50.68358719405637], [156.1575164492069, 50.70848919405637], [156.15707841176902, 50.7093851288683], [156.15673179166026, 50.710320238746554], [156.15648003628095, 50.71128522331286], [156.1563256495297, 50.71227048506247], [156.15627016689996, 50.71326622481864], [156.15631414020874, 50.71426253919288], [156.15851214020873, 50.73757853919288], [156.1586403124645, 50.738488393276555], [156.1588514562087, 50.73938264206745], [156.1591437888337, 50.74025373575765], [156.1595148422845, 50.74109432002907], [156.1717218422845, 50.76563032002907], [156.17222492793343, 50.76652354916479], [156.17281681990704, 50.76736057804758], [156.17349129769616, 50.76813260989346], [156.19220829769614, 50.787460609893465], [156.1928653091027, 50.78808043094942], [156.1935755680033, 50.78863844028976], [156.19433327980653, 50.7891300854392], [156.19513226278036, 50.789551355349474], [156.19596599848504, 50.78989881312318], [156.21761299848504, 50.79779281312318], [156.21860086935854, 50.79809622246472], [156.21961477815293, 50.79829606001853], [156.2514426388085, 50.80287573870364], [156.27555632367987, 50.81456082049532], [156.3253317409154, 50.85167200529097], [156.32613353366426, 50.852211550017834], [156.32698366424006, 50.85267117826819], [156.35310666424004, 50.86520317826819], [156.354361249424, 50.865703852993505], [156.392447249424, 50.87799285299351], [156.39360715350992, 50.878291735616415], [156.4318561535099, 50.885737735616416], [156.43276066314522, 50.885871235454786], [156.433673585353, 50.88592156367567], [156.43458728846974, 50.885888299555326], [156.46128028846977, 50.88369129955532], [156.4621835117345, 50.88357535569414], [156.46307244268777, 50.88337772724172], [156.46393970982305, 50.883100053042384], [156.4647781212821, 50.882744635723974], [156.46558072449395, 50.88231442260325], [156.46634086382934, 50.88181298124508], [156.48945286382934, 50.865007981245085], [156.49027126038814, 50.864344278433094], [156.4910152767772, 50.863598145761976], [156.4916766523734, 50.8627778673514], [156.49224804409312, 50.86189255054216], [156.49272310792068, 50.8609520247797], [156.50102410792067, 50.842112024779695], [156.5013561203954, 50.84125339369862], [156.50160776535773, 50.8403678687528], [156.50741676535773, 50.815650868752805], [156.50759639292846, 50.81466868482418], [156.50978517724337, 50.798048695580235], [156.51169230329236, 50.784256025288], [156.51958900238165, 50.770953621243585], [156.52006414947374, 50.770051357829644], [156.5204449395645, 50.76910539644881], [156.5207274130309, 50.768125573624], [156.5209086325895, 50.76712207798433], [156.52098671383956, 50.766105344319286], [156.5209608448578, 50.765085945073146], [156.52083129464134, 50.76407448040809], [156.52059941031035, 50.76308146797902], [156.5202676031002, 50.76211723356637], [156.51983932328832, 50.761191803704094], [156.5193190243168, 50.76031480141934], [156.5083410243168, 50.74379280141934], [156.50772180887745, 50.742958417184866], [156.50701935642857, 50.74219278975059], [156.48941635642856, 50.72490278975059], [156.4893793380407, 50.72486661733251], [156.47641203419286, 50.71226108489616], [156.4646679767701, 50.69640992110719], [156.46444371048324, 50.69611857834966], [156.44004871048324, 50.665604578349665], [156.43936691730013, 50.664836258872036], [156.43860990286393, 50.66414193480678], [156.43778565486366, 50.66352893236123], [156.415772, 50.64885066713872], [156.415772, 50.630113], [156.41572384726675, 50.6291328285967], [156.41557985280406, 50.62816209677984], [156.41534140335733, 50.62721015322746], [156.41501079532512, 50.62628616567635], [156.4145912126435, 50.62539903263174], [156.41408669612304, 50.6245572976698], [156.41350210453365, 50.623769067158364], [156.41284306781188, 50.62304193218814], [156.41211593284166, 50.62238289546637]]], [[[151.95673761515113, 46.85114899059651], [151.95588560650594, 46.850715967903994], [151.95499615093232, 46.85036625921632], [151.95407737296102, 46.8501030588684], [151.95313766496164, 46.849928771004286], [151.92632275647082, 46.84627072350939], [151.91659075420276, 46.83029786650597], [151.91613034360793, 46.82960827508999], [151.91561438637555, 46.82895919699669], [151.91504642978506, 46.828355094730384], [151.89590842978507, 46.809620094730384], [151.89526378564355, 46.809041524502625], [151.89457149094912, 46.80852091175435], [151.85625949094913, 46.78222791175435], [151.85505098249448, 46.78151768561138], [151.80586498249446, 46.75707668561138], [151.80493101557644, 46.756670502552154], [151.80396057777142, 46.756361424328944], [151.80296373522572, 46.75615265694489], [151.8019508279766, 46.756046365899984], [151.80093236269707, 46.75604365372878], [151.79991890371232, 46.756144548564066], [151.79892096341842, 46.75634800384501], [151.7979488932393, 46.756651909172966], [151.76087450162336, 46.77035154191621], [151.74919165572905, 46.772887595051166], [151.74825262056552, 46.773139806844554], [151.7473425181627, 46.77348202233716], [151.73163551816268, 46.78027702233716], [151.7304324136839, 46.780897313126204], [151.71602841368392, 46.78960531312621], [151.7151634737476, 46.79019204016452], [151.71436449684302, 46.790865839553746], [151.705331496843, 46.79932983955374], [151.70463791759602, 46.80004803368115], [151.70401941231876, 46.8008318105617], [151.70348214661183, 46.80167335707656], [151.70303147623525, 46.80256428422742], [151.702671893719, 46.80349571076265], [151.70240698357938, 46.80445835171046], [151.70223938658623, 46.805442610936666], [151.70118138658623, 46.81431261093667], [151.70111289337035, 46.815302413714804], [151.70114282160213, 46.81629413200201], [151.70127087666782, 46.817278003314925], [151.70149579799224, 46.818244342415895], [151.70390928599113, 46.82669111429197], [151.70404957794938, 46.83296112988465], [151.6972176439758, 46.84244997025504], [151.69668252512827, 46.843276100111275], [151.6962312157768, 46.84415083583687], [151.6958680883992, 46.84506570261843], [151.69559666112863, 46.84601183683573], [151.69541956366845, 46.84698007193629], [151.6953385118145, 46.847961027244814], [151.69535429083177, 46.84894519884721], [151.69546674784644, 46.849923051668554], [151.69567479332682, 46.85088511185297], [151.6959764116395, 46.8518220585504], [151.69636868057736, 46.852724814220956], [151.6968477996714, 46.85358463258206], [151.69740912701113, 46.854393183346104], [151.69804722421745, 46.85514263292787], [151.6987559091321, 46.855825720339645], [151.6995283157128, 46.85643582753876], [151.70035696055467, 46.85696704354604], [151.70123381539247, 46.85741422171387], [151.70215038488195, 46.85777302958911], [151.74227038488195, 46.87124202958911], [151.74319226150223, 46.87150310165457], [151.74413489204386, 46.871674748933366], [151.74508962301593, 46.87175539567752], [151.74604768984366, 46.87174430153771], [151.83585801281677, 46.866393903462885], [151.8672422525805, 46.88007899923081], [151.91467266359135, 46.93449465325441], [151.91567596287916, 46.935493233107074], [151.94367096287917, 46.95966323310708], [151.9442503699037, 46.96012708596718], [151.94486258482544, 46.96054668680789], [152.04318845466614, 47.0227039578508], [152.15158384466017, 47.140624471370636], [152.15218820530137, 47.141228038652145], [152.15284186711267, 47.14177783087144], [152.15354006133538, 47.14226983704552], [152.2200280613354, 47.18499383704552], [152.22087145065757, 47.18547949107984], [152.22175805486802, 47.18588086168643], [152.2226794763585, 47.186194147221826], [152.2236269877436, 47.18641638035386], [152.22459161452335, 47.18654545616723], [152.2255642200868, 47.186580152100504], [152.22653559225066, 47.1865201395258], [152.22749653051397, 47.18636598686146], [152.2284379332021, 47.18611915418818], [152.2293508836746, 47.18578197941959], [152.2302267347806, 47.185357656158416], [152.2310571907615, 47.18485020344772], [152.23183438582572, 47.184264427703965], [152.2325509586506, 47.183605877192235], [152.2332001221063, 47.18288078947507], [152.23377572754129, 47.18209603233236], [152.2342723230201, 47.18125903871216], [152.23468520496223, 47.18037773632837], [152.2350104626928, 47.17946047257212], [152.23524501548317, 47.17851593544826], [152.2353866417305, 47.17755307128552], [152.235434, 47.176581], [152.235434, 47.169745], [152.23538681284938, 47.168774682327765], [152.23524569672298, 47.16781352196076], [152.2350119833944, 47.16687058978278], [152.23468787851678, 47.165954784650374], [152.23427644080732, 47.16507474941047], [152.23378155318065, 47.16423878933416], [152.2332078861041, 47.16345479373626], [152.2325608535207, 47.162730161520415], [152.2318465617552, 47.16207173135255], [152.23107175188622, 47.161485717121344], [152.23024373612776, 47.16097764929518], [152.22007998431246, 47.15540185268962], [152.21411720973967, 47.14857448313085], [152.2110479994999, 47.14158360402418], [152.22563972299105, 47.14712192587322], [152.24985374727345, 47.16318597196633], [152.25066535591202, 47.163670781384646], [152.25151911949837, 47.16407678199169], [152.25240740753108, 47.164400345162086], [152.27486840753107, 47.17139834516208], [152.27579549571178, 47.17163914212145], [152.27674136924614, 47.17179013525827], [152.2776973499747, 47.171849939247245], [152.27865466700675, 47.17181800540133], [152.27960453719152, 47.171694626705786], [152.2805382457011, 47.171480935130134], [152.28144722598716, 47.17117889124258], [152.28232313837665, 47.17079126622232], [152.28315794658656, 47.17032161643459], [152.2839439914546, 47.16977425080195], [152.28467406121044, 47.16915419127089], [152.2853414576416, 47.16846712673676], [152.3024304576416, 47.14909912673676], [152.30302837222496, 47.14835230632996], [152.30355218536315, 47.14755176753312], [152.30399710289538, 47.1467048372181], [152.30435905274697, 47.14581926685167], [152.30463472219884, 47.14490316155079], [152.30482158820678, 47.14396490590117], [152.30491794049357, 47.1430130872179], [152.30492289720206, 47.142056416950766], [152.3048364129663, 47.14110365095328], [152.3046592793269, 47.140163509345456], [152.30439311748626, 47.139244596703485], [152.3040403634709, 47.13835532330703], [152.30360424583571, 47.13750382816479], [152.30308875611496, 47.13669790452276], [152.30249861229, 47.1359449285372], [152.3018392156083, 47.13525179176486], [152.30111660114906, 47.134624838088534], [152.30033738258737, 47.13406980565516], [152.19138206378915, 47.06406724076792], [152.1822330395907, 47.05160678158443], [152.16623963857612, 47.01494911646931], [152.16575941791007, 47.013991840627334], [152.16517957646246, 47.0130914113845], [152.16450676495043, 47.01225815656451], [152.16374870044757, 47.01150163350788], [152.1460897004476, 46.99567263350788], [152.14539606277145, 46.99510483203793], [152.14465436535784, 46.994601426950865], [152.14387056798085, 46.99416646326631], [152.09178981205898, 46.968246508352266], [152.08406072307812, 46.96222566503929], [152.08180862342147, 46.95330755427477], [152.08154576324966, 46.95243591303186], [152.0812047192493, 46.951591790460135], [152.08078831817699, 46.95078218310268], [152.08030001138934, 46.95001380142187], [152.07974384623637, 46.94929301417942], [152.07912443251473, 46.9486257956487], [152.07180043251472, 46.9414237956487], [152.0711711442614, 46.94085541346568], [152.07049596443318, 46.94034238889387], [152.06977974799167, 46.939888410898064], [152.06117701585248, 46.93493386393748], [152.05422392444547, 46.92975272647246], [152.02784966111878, 46.89666579055485], [152.0271005098218, 46.89582737424209], [152.0262619752905, 46.89507835527093], [152.02534465802344, 46.894428202511335], [152.00500692775685, 46.881668119238824], [151.9907458584251, 46.870644219181244], [151.98958161515114, 46.86986799059652], [151.95673761515113, 46.85114899059651]]], [[[155.45988282556968, 50.84614991312928], [155.45923235772202, 50.84704059291145], [155.438399357722, 50.87914559291145], [155.4378943729925, 50.880016976525475], [155.43747959800976, 50.880934735041365], [155.4371592399151, 50.881889559460305], [155.4369365481615, 50.88287176481699], [155.4368137815537, 50.88387138841607], [155.43679218533669, 50.88487829088564], [155.43687197856497, 50.88588225902285], [155.43705235188074, 50.88687310938833], [155.43733147572317, 50.88784079159877], [155.4377065188862, 50.88877549026984], [155.4381736772358, 50.88966772457552], [155.43872821229616, 50.89050844441389], [155.46607221229615, 50.92773944441389], [155.46672269903357, 50.92853582155726], [155.4674515279814, 50.92926118899162], [155.46825099287008, 50.929907877047654], [155.46911264056118, 50.93046904797212], [155.47002736042674, 50.93093876822677], [155.47098548068033, 50.9313120712266], [155.4719768706418, 50.93158500985403], [155.47299104785384, 50.93175469819371], [155.54265004785384, 50.93975469819371], [155.5436882016842, 50.93981947161135], [155.54472746775016, 50.93977605484883], [155.54575660161927, 50.939624917657696], [155.6332306016193, 50.922088917657696], [155.63418704532896, 50.921847558495436], [155.63511505640335, 50.92151314219693], [155.63600560493455, 50.92108892276255], [155.6368500255397, 50.92057902801207], [155.6376401016785, 50.91998841941932], [155.6383681456035, 50.919322843835154], [155.6799651456035, 50.87734584383515], [155.6806566001078, 50.87657151986664], [155.68126405322474, 50.87572968398568], [155.6817809585114, 50.874829408547626], [155.68220174534704, 50.873880395703296], [155.68252187896687, 50.87289287284016], [155.68273790933267, 50.871877482363146], [155.68284750831342, 50.87084516700282], [155.68284949477518, 50.86980705188699], [155.67992849477517, 50.81145405188699], [155.67982682069237, 50.810447165822566], [155.67962390026852, 50.809455712108345], [155.67932181172773, 50.808489844788596], [155.6789236489314, 50.80755945586267], [155.67843348969237, 50.806674073975444], [155.6778563540116, 50.805842766828945], [155.6771981526655, 50.80507404831489], [155.67646562667036, 50.804375791319025], [155.67566627824363, 50.80375514709041], [155.67480829396948, 50.80321847200138], [155.67390046095537, 50.80277126244833], [155.67295207683816, 50.80241809855993], [155.67197285456174, 50.80216259728946], [155.64740585456175, 50.79706459728946], [155.64655880008243, 50.7969264356206], [155.6457030184849, 50.79686141412381], [155.64484481337033, 50.7968700117409], [155.5996583831922, 50.79926457240661], [155.56376736142676, 50.79825793089908], [155.56298815798806, 50.79826644991766], [155.56221198367055, 50.79833561639381], [155.52200998367053, 50.80350361639381], [155.52095444982479, 50.80369736448596], [155.51992575669288, 50.80400311023508], [155.518935751631, 50.80441733239786], [155.48784875163102, 50.81943233239786], [155.48690193940882, 50.81995456271968], [155.48601704755626, 50.820575967822975], [155.48520442203326, 50.821289282376654], [155.46062742203327, 50.84533628237665], [155.45988282556968, 50.84614991312928]]], [[[153.9676984368112, 48.73121633090804], [153.9669048786854, 48.73181519901184], [153.966174706408, 48.73248990335459], [153.9655151368376, 48.733233775310346], [153.96493268901142, 48.73403946261603], [153.96443311971274, 48.73489900203956], [153.96402136657215, 48.73580389808662], [153.96370149926508, 48.73674520696825], [153.963476679288, 48.73771362499921], [153.96334912871103, 48.73869958055352], [153.96332010821533, 48.739693328668295], [153.963389904633, 48.74068504736069], [153.966156904633, 48.76363404736069], [153.96632113004887, 48.76459728784586], [153.96657858111172, 48.76553990185473], [153.9669267996731, 48.76645288928782], [153.96736246093448, 48.767327532920866], [153.96788140519243, 48.76815548163703], [153.9684786775557, 48.76892883016361], [153.96914857525448, 48.769640194551705], [153.98672657525447, 48.78656719455171], [153.9874628522803, 48.78720990136656], [153.98825835162341, 48.78777766602175], [153.9891054748658, 48.788265065366076], [153.98999613049028, 48.78866744387841], [154.06107899552586, 48.816684121774074], [154.07163214976583, 48.82435324860809], [154.09161641966998, 48.84422867368607], [154.09395669081843, 48.85124835956162], [154.0908747419518, 48.86040214119896], [154.09058546844014, 48.86144477717859], [154.09041053844751, 48.86251256388401], [154.090352, 48.863593], [154.090352, 48.872992], [154.09039905902185, 48.87396100252089], [154.09053979317707, 48.87492088497962], [154.0907728779034, 48.875862613150275], [154.0910961194529, 48.87677732367153], [154.0915064755394, 48.877656407466915], [154.0920000839717, 48.87849159077171], [154.09257229900373, 48.87927501300405], [154.09321773505962, 48.87999930074714], [154.09393031742147, 48.880657637146435], [154.09470333940345, 48.88124382606853], [154.09552952547395, 48.88175235041797], [154.09640109973122, 48.88217842406306], [154.09730985908897, 48.88251803688201], [154.0982472504818, 48.88276799250541], [154.10807743263845, 48.8848844089354], [154.10951923551116, 48.90052211022476], [154.10965477710408, 48.90148121532677], [154.10988247610803, 48.902422707378626], [154.11020019612766, 48.90333775279237], [154.11060495614188, 48.90421776611671], [154.1110929584731, 48.90505449059036], [154.11165962441942, 48.90584007561148], [154.11229963721416, 48.90656715039625], [154.113006991911, 48.90722889313553], [154.11377505172527, 48.90781909500082], [154.11459661030418, 48.90833221839878], [154.1421026103042, 48.923712218398784], [154.14311213966994, 48.92420443601491], [154.14417049714098, 48.92458034449506], [154.14526433230276, 48.924835202025456], [154.18188533230276, 48.93122420202546], [154.18287225407076, 48.93134619145986], [154.18386641204495, 48.93136955640302], [154.18485797503695, 48.93129406579994], [154.21415497503693, 48.92759106579994], [154.2151772376708, 48.9274074915695], [154.21617494606474, 48.92711887703196], [154.21713733773493, 48.92672833553118], [154.21805403116616, 48.92624007991798], [154.21891513779943, 48.925659377105205], [154.21971136870198, 48.92499249125251], [154.22043413476862, 48.92424661619357], [154.23833813476864, 48.90373861619357], [154.23895093084516, 48.90296232849637], [154.23948404818174, 48.90212930537204], [154.2399322721358, 48.901247694966465], [154.24029121844234, 48.900326120677946], [154.24055737609808, 48.899373596808154], [154.24072814170424, 48.89839944038952], [154.24080184493138, 48.8974131800514], [154.2407777648575, 48.89642446281666], [154.2406561370199, 48.89544295974008], [154.24043815111102, 48.89447827131175], [154.2401259393418, 48.89353983355069], [154.23068593934178, 48.86924783355069], [154.2302661806375, 48.868312700003436], [154.22975289970978, 48.86742544873672], [154.2291514894583, 48.866595401852244], [154.22846826873285, 48.86583128042121], [154.20633226873287, 48.84349228042121], [154.20573509184538, 48.84293687273615], [154.20509464307563, 48.842431973434444], [154.18458764307562, 48.827579973434446], [154.18374577418012, 48.82703251557065], [154.18285324286563, 48.82657225346871], [154.0927091545067, 48.785678711452], [154.07137868751735, 48.768417759587535], [154.06921654283298, 48.7611190114002], [154.07019621316496, 48.7495702549933], [154.07022988348086, 48.74851926739791], [154.0701530063377, 48.74747055460562], [154.0699664317727, 48.74643571232414], [154.06967222275688, 48.74542618289374], [154.06584722275687, 48.73448018289374], [154.0654787572744, 48.733571480546196], [154.06502306623176, 48.73270323378298], [154.06448453112915, 48.73188379085547], [154.063868330018, 48.73112103076289], [154.06318038771377, 48.730422287495145], [154.0624273188282, 48.72979427951606], [154.06161636416965, 48.729243045164836], [154.06075532112203, 48.72877388459709], [154.05985246867252, 48.728391308823426], [154.05891648780852, 48.7280989963358], [154.0413384878085, 48.7235419963358], [154.04016055240888, 48.72331104806881], [154.0389634310846, 48.72322290362665], [154.0086904310846, 48.72281590362665], [154.00790941946482, 48.72283592521265], [154.0071323544434, 48.72291685707675], [153.9958203544434, 48.724543857076746], [153.99506513283345, 48.724682259333846], [153.99432275596934, 48.72487819671296], [153.97923081179536, 48.729488], [153.973318, 48.729488], [153.9723250572627, 48.72953741887524], [153.97134192854807, 48.729685187055914], [153.97037833087913, 48.72992984403456], [153.96944378823852, 48.73026897167664], [153.96854753743543, 48.73069921812082], [153.9676984368112, 48.73121633090804]]], [[[154.45736807536585, 49.181448682328906], [154.49228007536584, 49.18030968232891], [154.4932394287383, 49.180232039525926], [154.49418687406217, 49.18006252652843], [154.53925614561047, 49.16973847076438], [154.56405059803774, 49.167116553361865], [154.5649800191216, 49.166973814283075], [154.56589192407412, 49.166744407758834], [154.56677824984993, 49.166430362197055], [154.58761124984994, 49.15792636219705], [154.5884858078506, 49.15751910572131], [154.58931705241787, 49.15702947116082], [154.5900972470794, 49.15646201559108], [154.59081913048908, 49.1558220203752], [154.59147598400915, 49.155115442009645], [154.60726398400914, 49.136397442009645], [154.60787926528923, 49.135587777654536], [154.60840913524214, 49.134719811494726], [154.60884811433738, 49.13380251940629], [154.6091916629718, 49.13284538735825], [154.6094362284147, 49.13185831331559], [154.60957928154778, 49.13085150488163], [154.6112882815478, 49.11197150488163], [154.61132865265068, 49.11098665214155], [154.61127187065375, 49.11000260917987], [154.6111184872308, 49.109028936611104], [154.61086999260118, 49.108075094294655], [154.61052880105106, 49.107150349426206], [154.61009822747727, 49.10626368650088], [154.60958245518083, 49.105423720023076], [154.60898649522358, 49.104638610810966], [154.60831613774232, 49.10391598670886], [154.60757789569405, 49.1032628684778], [154.6067789415782, 49.10268560158425], [154.60592703775134, 49.10218979454983], [154.6050304610107, 49.101780264460906], [154.5837904610107, 49.09331726446091], [154.58296879048058, 49.093030632902405], [154.582125311294, 49.092816523182506], [154.5558333272667, 49.087348080223656], [154.53601856849076, 49.07732556459209], [154.5352321907415, 49.07696955771199], [154.5344180405437, 49.07668269482032], [154.5146420405437, 49.07066069482032], [154.51363659666595, 49.07041063229295], [154.51261067571735, 49.07026594343308], [154.5115752904326, 49.07022818140134], [154.51054155514115, 49.07029775155376], [154.50952056646062, 49.07047390709046], [154.50852328418028, 49.0707547570722], [154.4845982841803, 49.0788517570722], [154.4837056917704, 49.079202384482166], [154.4828507898944, 49.079636899813536], [154.4820414407496, 49.08015130699917], [154.48128508760283, 49.08074087523789], [154.4805886863373, 49.081400182501774], [154.4651256863373, 49.097514182501776], [154.46443830257428, 49.09831040884218], [154.46383836001053, 49.099174435313444], [154.4633324968475, 49.100096701697474], [154.44612200349977, 49.135809701075715], [154.43225321579828, 49.15024346543658], [154.43161330340578, 49.15097792517112], [154.43104788776267, 49.15177116165684], [154.43056233420526, 49.15261564772222], [154.4301612502434, 49.15350336987879], [154.42984844183886, 49.15442590436258], [154.42962687728993, 49.155374497068856], [154.4294986590647, 49.15634014662147], [154.42946500385017, 49.157313689788595], [154.42952623100712, 49.15828588843445], [154.4296817595394, 49.15924751718162], [154.42993011360727, 49.16018945095249], [154.43026893653186, 49.16110275155881], [154.43069501315816, 49.16197875251786], [154.43508901315818, 49.16999475251786], [154.43559533487607, 49.17082079371623], [154.43617921870603, 49.171593959556475], [154.436835183697, 49.172306992286444], [154.437557072268, 49.17295319862695], [154.443173072268, 49.17751019862695], [154.44391240947982, 49.17805575874309], [154.44469870071734, 49.17853115483366], [154.4455253076747, 49.17893237334171], [154.44638525167838, 49.17925602695851], [154.4472712726051, 49.17949938322108], [154.45483927260508, 49.181208383221076], [154.45567438348033, 49.18136003982705], [154.4565193468004, 49.1814403323414], [154.45736807536585, 49.181448682328906]]], [[[152.55000185741633, 47.32274151997639], [152.54971738330443, 47.32179438273813], [152.54934074902508, 47.320879975231584], [152.54887563804067, 47.320007240311575], [152.53302563804067, 47.29351224031157], [152.5324730290092, 47.29268490168094], [152.5318409433533, 47.29191656993291], [152.53113563787372, 47.29121485052183], [152.53036409414923, 47.29058668952924], [152.52953394942847, 47.290038304906915], [152.52865342103138, 47.28957512492752], [152.52773122500872, 47.28920173445196], [152.526776489865, 47.28892182954542], [152.52579866619826, 47.28873818089127], [152.52480743315206, 47.288652606365005], [152.52381260260483, 47.28866595303972], [152.48105660260484, 47.29137095303972], [152.48017018391457, 47.29146685945411], [152.4792958308928, 47.29164133847332], [152.4784404940877, 47.29189300310057], [152.4264834940877, 47.30973300310057], [152.42558159334598, 47.31009251526793], [152.42471880797973, 47.310537796480375], [152.4239032712418, 47.31106464918793], [152.42314267098453, 47.311668106887375], [152.4224441771884, 47.31234248094021], [152.42181437437242, 47.31308141419793], [152.4052373743724, 47.334561414197935], [152.4046931157526, 47.33534057433668], [152.40422528497427, 47.33616788463513], [152.4038381079901, 47.33703587193342], [152.4035350822007, 47.33793669563316], [152.40331894486212, 47.33886221852209], [152.40319164836015, 47.339804080278206], [152.40315434257425, 47.340753772989245], [152.40337334257427, 47.367210772989246], [152.4034254945242, 47.36815129605143], [152.40356591103406, 47.36908273937238], [152.40379334618328, 47.36999683822332], [152.40410578193192, 47.37088548177354], [152.4045004460268, 47.371740785058115], [152.40497383659974, 47.37255515894144], [152.40552175323984, 47.37332137745589], [152.41842875323982, 47.38968337745589], [152.4190481933511, 47.390396589070825], [152.4197321684314, 47.391048167883135], [152.42047457484543, 47.391632299354285], [152.4212687875301, 47.392143770830195], [152.4221077191152, 47.392578018057776], [152.42298388316942, 47.39293116591525], [152.4238894610075, 47.39320006299286], [152.42481637146233, 47.39338230971532], [152.44874237146234, 47.39692230971532], [152.44982652677095, 47.39702279740956], [152.45091518069867, 47.39700482143884], [152.50413818069867, 47.39322082143884], [152.5050702179009, 47.393110400833386], [152.50598779784352, 47.39291308609644], [152.5068828376927, 47.39263061534601], [152.50774745316724, 47.39226547682754], [152.50857402798997, 47.39182088699533], [152.52647702798996, 47.38107888699533], [152.5272378316399, 47.380573767818305], [152.5279493825688, 47.380001349394156], [152.52860574667267, 47.37936640550695], [152.52920145008767, 47.378674231382824], [152.52973152484049, 47.37793059952956], [152.54503152484048, 47.35424859952956], [152.54555421155646, 47.35333798726102], [152.54597853837518, 47.35237759002155], [152.54629982744942, 47.35137799538499], [152.5465145368367, 47.35035022304362], [152.5501765368367, 47.32666922304362], [152.55027915811738, 47.32568562589989], [152.55028412510399, 47.324696702344966], [152.55019138921972, 47.323712123996536], [152.55000185741633, 47.32274151997639]]], [[[152.96105073427753, 47.75563104661211], [152.96146619156386, 47.75646005245232], [152.96195665239304, 47.757247010910504], [152.97444665239303, 47.775359010910506], [152.97499058131152, 47.77607638957766], [152.97559682415775, 47.776741942304255], [152.97626046738904, 47.77735027484655], [152.99549646738905, 47.79345127484655], [152.99610588043276, 47.79392266398898], [153.01546188043278, 47.807736663988976], [153.01639641041962, 47.80832845900883], [153.01739058430726, 47.80881341872157], [153.01843223770567, 47.80918560931711], [153.04644723770565, 47.81747960931711], [153.04737668973783, 47.81770703455183], [153.0483236234781, 47.81784458384855], [153.04927936876973, 47.817890997801335], [153.05023517477716, 47.817845851442506], [153.0511822901088, 47.817709558133615], [153.0521120429453, 47.817483365780724], [153.05301592043887, 47.817169345408516], [153.05388564665714, 47.81677037219794], [153.05471325835802, 47.81629009916094], [153.05549117790133, 47.81573292369338], [153.0562122826299, 47.81510394731234], [153.05686997008496, 47.81440892894641], [153.06918997008498, 47.80007392894642], [153.0697480194213, 47.79936181774976], [153.0702394245848, 47.798602184691326], [153.07066016331893, 47.797801247530394], [153.07100679178708, 47.79696556210918], [153.07127647276096, 47.79610196869182], [153.07146699884407, 47.79521753597543], [153.07372399884406, 47.78182253597543], [153.07377719255345, 47.7814682054212], [153.07627777040193, 47.762503159925856], [153.0787262124041, 47.744655096162845], [153.0788147228856, 47.743588444856414], [153.07878872445335, 47.74251844336279], [153.07864851493994, 47.7414573493956], [153.0783957005563, 47.74041731862574], [153.07803317749122, 47.739410265428475], [153.06898617749124, 47.717957265428474], [153.0685396264962, 47.71703376662831], [153.06800081746528, 47.716160873362625], [153.06737542005868, 47.715347770719106], [153.05471542005867, 47.700527770719106], [153.05403892972595, 47.699810674121906], [153.05329511886987, 47.69916367171821], [153.05249121634048, 47.69859305150893], [153.05163503499878, 47.69810435916185], [153.0325280349988, 47.688414359161854], [153.031618732515, 47.68800878757696], [153.03067360640273, 47.68769564871101], [153.02970202587966, 47.68747804677009], [153.02871362241123, 47.687358138884264], [153.02771819423197, 47.687337113723565], [153.01104679068916, 47.68781545597009], [152.99659592249654, 47.68725683908019], [152.9848974447634, 47.676858734706634], [152.98413938168903, 47.67624830567218], [152.98332556738086, 47.67571446159136], [152.98246371096536, 47.675262259479624], [152.9815619766638, 47.67489598297175], [152.98062890645406, 47.674619101743666], [152.97967333915372, 47.67443423864483], [152.97870432669157, 47.67434314485236], [152.9777310483602, 47.674346683282494], [152.976762723862, 47.67444482041626], [152.9758085259726, 47.674636626617065], [152.9748774936486, 47.67492028493692], [152.973978446403, 47.67529310832813], [152.97311990075968, 47.67575156509722], [152.97230998957752, 47.67629131236012], [152.9715563850093, 47.676907237181496], [152.9594103850093, 47.68786223718149], [152.95872544838338, 47.688542784538065], [152.9581093380227, 47.68928621638402], [152.95756779781877, 47.69008560183148], [152.9571058764582, 47.69093348834673], [152.9567278803548, 47.691821971228904], [152.95643733350155, 47.69274276730413], [152.95623694461705, 47.6936872921482], [152.95612858189256, 47.69464674011762], [152.9561132555752, 47.69561216644318], [152.9568102555752, 47.71710216644318], [152.9568884378531, 47.71806710635219], [152.95705956028323, 47.719019964479344], [152.96090205695054, 47.735722646425536], [152.96019940452192, 47.751113949362015], [152.96020010919767, 47.752041232998934], [152.96028670389438, 47.75296446471327], [152.9604584440228, 47.75387570604692], [152.96071385286615, 47.75476712164169], [152.96105073427753, 47.75563104661211]]], [[[153.29774140869998, 48.08108610279539], [153.29803477852224, 48.08021581005924], [153.29824706693208, 48.07932227274595], [153.30027039217896, 48.06864751738626], [153.30559911134986, 48.059858447384435], [153.30608047832342, 48.05896519276389], [153.30646884527607, 48.05802775525108], [153.30676021351186, 48.05705578687119], [153.30695158305105, 48.05605929518542], [153.30704098351845, 48.05504854025134], [153.30702749443077, 48.054033928983486], [153.30691125467408, 48.053025908001906], [153.30669346107382, 48.05203485607187], [153.30327546107384, 48.03954285607187], [153.3029529272834, 48.03856495329463], [153.3025315404544, 48.037625402855305], [153.3020157686436, 48.03673416701283], [153.30141108069245, 48.03590069573593], [153.30072388823962, 48.03513382650298], [153.29996147773707, 48.03444169059629], [153.29913193319027, 48.033831626884385], [153.2982440504416, 48.03331010400633], [153.2800870504416, 48.023867104006335], [153.27919925421125, 48.02345918159913], [153.27827588779775, 48.02313984274567], [153.27732576549838, 48.02291213579986], [153.27635795701755, 48.0227782344131], [153.27538170088894, 48.02273941678507], [153.27440631628593, 48.022796053462166], [153.27344111406262, 48.022947603800404], [153.27249530787373, 48.023192621126256], [153.25028660910024, 48.03011992501262], [153.23348501791523, 48.029810693273014], [153.23249584151537, 48.02984146671364], [153.2315145509742, 48.02996986386525], [153.23055075721769, 48.03019462718435], [153.2296138998053, 48.0305135553009], [153.19725089980528, 48.043350555300904], [153.1962914137597, 48.04379110099937], [153.1953837229314, 48.04433035172429], [153.19453794529548, 48.044962296480286], [153.1937635086843, 48.045679891017166], [153.17790321357876, 48.06201462677562], [153.15241811229035, 48.08471235695325], [153.15168642202312, 48.08543481338913], [153.15103278878263, 48.08622858762393], [153.1504641235243, 48.087085286971934], [153.14998643882527, 48.087995853431444], [153.14960478531242, 48.08895065945626], [153.1493231982616, 48.08993960974911], [153.14914465493203, 48.09095224800059], [153.1490710430872, 48.091977867445216], [153.1491031410354, 48.09300562406554], [153.14924060940055, 48.09402465124745], [153.15472760940057, 48.12325965124745], [153.15496077572013, 48.124231322250495], [153.15528975141638, 48.125174871964084], [153.15571125163058, 48.12608087893987], [153.15622106763644, 48.12694029659788], [153.15681410886467, 48.127744543557675], [153.15748445373296, 48.12848558932433], [153.15822540877363, 48.1291560344738], [153.15902957546854, 48.12974918453707], [153.1598889241242, 48.130259116845075], [153.16079487404915, 48.13068073966728], [153.1617383792331, 48.131009843053114], [153.16271001867236, 48.131243140868854], [153.16370009043953, 48.131378303609964], [153.21387109043954, 48.13568830360997], [153.21490695126934, 48.13572338074594], [153.2159408789941, 48.135651051470134], [153.21696176676863, 48.135472092771174], [153.2179586478279, 48.135188427091514], [153.21892081329614, 48.13480310167586], [153.24457181329612, 48.122953101675854], [153.24496777884943, 48.12275947691838], [153.26381577884945, 48.11302247691838], [153.2645774883239, 48.11258557792028], [153.26529793343207, 48.112083541164495], [153.26597155895095, 48.11152023776638], [153.29516755895094, 48.08484223776638], [153.29581638661966, 48.08419223933909], [153.29640284446376, 48.08348545613589], [153.2969219858561, 48.082727849698514], [153.29736943196733, 48.081925810250134], [153.29774140869998, 48.08108610279539]]], [[[154.48712115472708, 49.81811895735791], [154.48779581396442, 49.81737562995226], [154.4883925495799, 49.81656840797302], [154.4889053482644, 49.81570542580188], [154.48932904254193, 49.81479537971638], [154.50060404254194, 49.78701237971638], [154.500937064274, 49.786055206211365], [154.5011714954959, 49.785069241407264], [154.50130492840063, 49.78406461199665], [154.50133599251936, 49.783051636373415], [154.50126436879737, 49.78204071865412], [154.50109079287083, 49.78104224181891], [154.50081704751136, 49.78006646106951], [154.50044594431535, 49.77912339849966], [154.49998129482657, 49.77822274015971], [154.49942787138832, 49.77737373657271], [154.49879135812748, 49.776585107723704], [154.48047931971038, 49.7561128734787], [154.46922375208047, 49.73885677960481], [154.46838352968481, 49.73774612805349], [154.4554635296848, 49.72293612805348], [154.45480400947793, 49.72224911206122], [154.45408212676145, 49.721627949264054], [154.45330442870755, 49.721078273346905], [154.45247796871, 49.72060506963879], [154.45161024241284, 49.72021262989803], [154.45070911972806, 49.719904513387746], [154.44978277345885, 49.71968351459491], [154.44883960517564, 49.71955163788549], [154.4478881690175, 49.71951007932567], [154.4469370941096, 49.719559215834096], [154.41092609410958, 49.7231452158341], [154.4099996108744, 49.723281540313344], [154.40908994228954, 49.72350393324138], [154.40820506574414, 49.72381044433109], [154.40735274121218, 49.724198385616475], [154.4065404432009, 49.7246643550249], [154.4057752952028, 49.725204266211776], [154.38509929520282, 49.74129526621177], [154.38444050325157, 49.741855339616805], [154.38383255787014, 49.74247023104401], [154.38328000459956, 49.74313534301748], [154.37099500459954, 49.75929634301748], [154.37046145215245, 49.76007138585211], [154.37000310785044, 49.76089314622479], [154.36962402973467, 49.761754348518934], [154.3645720297347, 49.77487334851893], [154.3642765036815, 49.77576305572592], [154.36406559509544, 49.77667652829288], [154.3639411576828, 49.777605737576415], [154.36390428514207, 49.77854251662081], [154.36395530155144, 49.77947863193862], [154.3640937585202, 49.78040585587601], [154.36431843912993, 49.78131603892677], [154.36462736863004, 49.78220118135951], [154.36501783179415, 49.78305350352851], [154.36548639678463, 49.78386551425008], [154.3724743967846, 49.794761514250084], [154.37302488910666, 49.79553621360332], [154.3736464372439, 49.79625515643668], [154.38774643724392, 49.81107815643668], [154.3884755347566, 49.81177122779694], [154.38927057440728, 49.81238754187862], [154.3901235109425, 49.81292086200789], [154.39102571323227, 49.81336579135254], [154.41840571323226, 49.825195791352535], [154.41926922606203, 49.82552246063947], [154.42015918592006, 49.825768099971164], [154.42106800708015, 49.825930615598445], [154.4219879430486, 49.826008622291376], [154.4471739430486, 49.826976622291376], [154.4482703937106, 49.82695859248295], [154.44935827763072, 49.826820615294515], [154.48186327763074, 49.820871615294514], [154.48284040405008, 49.82064156165038], [154.48378954254883, 49.82031470261548], [154.48470112865155, 49.819894331950636], [154.48556597629855, 49.819384685734065], [154.4863753704138, 49.81879089967436], [154.48712115472708, 49.81811895735791]]], [[[153.91469267269676, 48.992482613820755], [153.9156566520927, 48.99247058170023], [153.9277006520927, 48.99173858170023], [153.92872324302246, 48.991623385719905], [153.92972858088243, 48.99140370843211], [153.9896245808824, 48.975045708432106], [153.9907698531781, 48.97465711589644], [154.00452285317812, 48.96904211589644], [154.0052326112537, 48.968719512900265], [154.00591508016024, 48.96834259724582], [154.01722708016024, 48.96150659724582], [154.0180185825, 48.96097518404958], [154.01875588327331, 48.960370813708934], [154.01943228133084, 48.959698979200496], [154.02004162905342, 48.95896578666646], [154.0205783882262, 48.95817789991735], [154.0210376803742, 48.95734247986626], [154.0214153311016, 48.95646711944503], [154.02170790803183, 48.955559774593894], [154.02398690803182, 48.94713677459389], [154.024197480536, 48.94617173972306], [154.02431182166112, 48.945190638714735], [154.0243288158573, 48.9442030435149], [154.02424829732357, 48.943218589429044], [154.02407105162533, 48.942246881116894], [154.02379880803028, 48.941297398886206], [154.023434222637, 48.94037940619972], [154.0229808524612, 48.93950185929777], [154.02244312073225, 48.938673319818236], [154.02182627373884, 48.93790187126638], [154.0211363296443, 48.937195040149476], [154.0203800197714, 48.93655972254573], [154.00703301977143, 48.92642872254573], [154.00627268176376, 48.92590509145459], [154.00546729371044, 48.92545381162008], [154.00462371996122, 48.925078729315594], [154.00374915032393, 48.92478304138038], [153.98633415032393, 48.91977804138038], [153.98554288557537, 48.91958514310341], [153.98473854775267, 48.91945727475507], [153.96187054775265, 48.91677127475507], [153.96053431285185, 48.91670443979007], [153.93896831285187, 48.917070439790066], [153.9380209149828, 48.917131589821075], [153.93708358542386, 48.917282305933604], [153.9361647723456, 48.91752122972025], [153.92402699396612, 48.921301], [153.918712, 48.921301], [153.91770250158856, 48.92135208483515], [153.9167033171891, 48.92150481740854], [153.9157246554357, 48.9217576372565], [153.91477651528322, 48.922107961326965], [153.91386858384834, 48.92255221037047], [153.9130101374366, 48.92308584550918], [153.91220994676667, 48.92370341461048], [153.91147618736028, 48.924398607991215], [153.89967618736028, 48.93676860799122], [153.8990181055481, 48.93753207253815], [153.89844022173966, 48.938357905505484], [153.89794840694435, 48.93923771684497], [153.8975476577535, 48.94016256811518], [153.8927456577535, 48.952979568115175], [153.89245833471426, 48.95387163664374], [153.89225578618797, 48.95478668575883], [153.89213979124102, 48.955716678210855], [153.8921113687043, 48.956653445496755], [153.8921707682245, 48.95758875960738], [153.8923174680715, 48.958514405297386], [153.8950034680715, 48.971494405297385], [153.89523280937655, 48.97239124906559], [153.89554410016558, 48.97326304274728], [153.89593467290632, 48.97410231571416], [153.8964011806787, 48.974901876016496], [153.8969396258555, 48.97565487201272], [153.9071936258555, 48.98867587201272], [153.90782588931037, 48.98940363843913], [153.90852529372566, 48.990067140143445], [153.90928533882945, 48.99066021053386], [153.91009896075454, 48.99117733760796], [153.91095859769027, 48.9916137151813], [153.91185626016193, 48.991965287556134], [153.91278360528509, 48.99222878721514], [153.9137320143045, 48.99240176518971], [153.91469267269676, 48.992482613820755]]], [[[150.85562858208093, 46.43806476699142], [150.8551964870656, 46.43718981833366], [150.8546811710489, 46.43636115033084], [150.8540875410825, 46.43558665390157], [150.85342124995586, 46.434873704120356], [150.85268864236795, 46.43422908998916], [150.85189669451051, 46.43365894978968], [150.85105294763775, 46.43316871263212], [150.85016543625548, 46.432763046756925], [150.84924261161322, 46.43244581508194], [150.84829326122795, 46.432220038418045], [150.8473264252057, 46.43208786670378], [150.8337254252057, 46.43090086670378], [150.83276079624872, 46.43086345319798], [150.8317970545039, 46.430919226348294], [150.83084318116528, 46.431067666399834], [150.80708018116528, 46.43595066639983], [150.80624587176888, 46.436159871436516], [150.80543262653512, 46.43643999838288], [150.77641662653514, 46.44785299838288], [150.77550293432978, 46.44826642313812], [150.7746352459488, 46.44876928529411], [150.77382228819826, 46.44935652729725], [150.773072237429, 46.45002224294068], [150.77239263730266, 46.450759736766194], [150.77179032292113, 46.45156159140402], [150.77127135208224, 46.45241974217328], [150.7708409443532, 46.45332555819279], [150.77050342857476, 46.45426992918647], [150.77026219932353, 46.45524335711022], [150.7701196827711, 46.4562360516789], [150.7700773122827, 46.45723802883239], [150.7701355140009, 46.45823921115065], [150.77029370256, 46.45922952920773], [150.77055028697296, 46.460199022845366], [150.7709026866332, 46.46113794134761], [150.7713473572689, 46.46203684150901], [150.77187982658964, 46.462886682609955], [150.77575782658963, 46.468436682609955], [150.77636334356973, 46.4692179747768], [150.77704303621547, 46.46993566981683], [150.7777902634657, 46.4705827553596], [150.77859772440013, 46.47115290893764], [150.77945752957422, 46.471640559761276], [150.783870452264, 46.47386267883331], [150.7911130658561, 46.48541184592866], [150.79167288306343, 46.486214423581565], [150.79230846086296, 46.48695844445177], [150.79301371343078, 46.48763678434455], [150.7937818877888, 46.488242947977746], [150.8026778877888, 46.49458194797774], [150.80352614597047, 46.495124162647905], [150.8044246235148, 46.495578339698845], [150.80536421400427, 46.49593987587042], [150.80633539432574, 46.49620510685365], [150.8073283211909, 46.4963713444299], [150.80833293090177, 46.49643690371702], [150.80933904135023, 46.496401120246254], [150.81033645521762, 46.49626435669693], [150.81131506332846, 46.49602799922055], [150.81226494711098, 46.49569444339158], [150.81317647912542, 46.49526706992739], [150.81404042064221, 46.494750210423405], [150.81484801527978, 46.49414910345068], [150.82492801527977, 46.485826103450684], [150.82560042844855, 46.48521756623466], [150.8262149453444, 46.484550613464556], [150.82676651182996, 46.48383073054019], [150.8272505915081, 46.48306383818917], [150.8335930113844, 46.47192727728511], [150.8452549864345, 46.46302908229999], [150.84597349018455, 46.462425474864574], [150.84663225042132, 46.461757175137386], [150.84722546617084, 46.461030068096136], [150.84774791363708, 46.46025055656963], [150.85188991363708, 46.45339555656964], [150.85225261581112, 46.452741164079264], [150.8553786158111, 46.44656716407926], [150.8557764109065, 46.4456760971244], [150.85608546272644, 46.44475050097674], [150.85630282835197, 46.44379918954466], [150.85642643793796, 46.44283122160809], [150.85645511442291, 46.44185581455707], [150.8563885847375, 46.44088225661995], [150.85622748240485, 46.43991981841706], [150.85597334150782, 46.43897766468203], [150.85562858208093, 46.43806476699142]]]]}}]}