{"type": "FeatureCollection", "features": [{"type": "Feature", "geometry": {"type": "Polygon", "coordinates": [[[149.58200170822008, 45.602830336800096], [149.57842070822005, 45.5975813368001], [149.5778469094557, 45.596820796202465], [149.57720333914915, 45.59611831183741], [149.57649583877586, 45.595480259923846], [149.57573083008342, 45.59491243184857], [149.5749152568034, 45.594419981599785], [149.57405652162552, 45.594007378985985], [149.56780103741355, 45.59136073050034], [149.55601873821158, 45.58242971635218], [149.5550995172931, 45.581810050086496], [149.55411735531484, 45.58129593801089], [149.55308432258963, 45.580893698323074], [149.53216932258962, 45.57405869832308], [149.53131985441766, 45.57382199773468], [149.5304528364189, 45.57366105323004], [149.5295750107277, 45.5735771163512], [149.52869320352158, 45.57357083981093], [149.43632720352159, 45.57698883981092], [149.43535156246853, 45.57707292346135], [149.43438882342843, 45.57725202975778], [149.4334482185443, 45.57752444116841], [149.43253876770453, 45.577887545416196], [149.43166919204728, 45.57833786052922], [149.43084783032936, 45.57887106823084], [149.43008255896225, 45.57948205534967], [149.42938071648143, 45.58016496285209], [149.42874903317403, 45.58091324202716], [149.42819356653877, 45.5817197172852], [149.42771964319817, 45.582576654967845], [149.42733180781883, 45.58347583750952], [149.4270337795308, 45.58440864223949], [149.42682841626302, 45.585366124068535], [149.42671768733732, 45.58633910126751], [149.4267026545838, 45.58731824351511], [149.42678346215837, 45.58829416137057], [149.4269593351604, 45.58925749631329], [149.42722858706367, 45.59019901048595], [149.427588635889, 45.591109675280514], [149.42803602896439, 45.59198075791771], [149.4285664760339, 45.59280390518956], [149.4291748903991, 45.59357122356215], [149.4298554376977, 45.59427535487027], [149.4377494376977, 45.60168035487027], [149.43843312176983, 45.602266120236564], [149.4391667182145, 45.60278802178972], [149.44533839602235, 45.60677288462629], [149.45665905809696, 45.628363193222604], [149.4729175435603, 45.6728121922714], [149.47329406436663, 45.67370492508324], [149.47375521196085, 45.6745570299402], [149.47429665736703, 45.675360507794935], [149.4749133178217, 45.6761078160811], [149.47559940448778, 45.67679193951846], [149.47634847679674, 45.67740645596809], [149.47715350290875, 45.67794559671955], [149.4780069257234, 45.67840430064408], [149.4789007338211, 45.67877826170542], [149.4798265366696, 45.679063969382284], [149.4807756433892, 45.679258741623016], [149.5070935329403, 45.68334250655687], [149.5220320545405, 45.70038469327913], [149.52275515165718, 45.70112804278138], [149.52355134465847, 45.7017925084519], [149.5294103446585, 45.706187508451904], [149.5302785159986, 45.70677040106119], [149.54222067331108, 45.713912100792044], [149.54587852873334, 45.716735801255346], [149.55860405229333, 45.73696055999107], [149.55938650171612, 45.73803770131385], [149.58589345344487, 45.76983882621954], [149.58635261932446, 45.77154761282401], [149.58557575524645, 45.782567798672474], [149.58555391681165, 45.78351251133495], [149.58562134822407, 45.78445506740039], [149.58577744734893, 45.78538705023021], [149.58602082028517, 45.786300137600506], [149.58634929381236, 45.78718617601604], [149.58879029381237, 45.792923176016046], [149.58921353222468, 45.79379741578042], [149.58971958897732, 45.79462647095494], [149.59030368979967, 45.79540252001821], [149.5909603241332, 45.79611824152221], [149.59168329711943, 45.79676688316477], [149.5924657880438, 45.79734232549251], [149.5933004146841, 45.797839139633346], [149.5998114146841, 45.801298139633346], [149.60066413744104, 45.80170080388863], [149.6015509982278, 45.802021354271055], [149.60246411041655, 45.802256940207506], [149.60339535393254, 45.802405466692065], [149.6043364474637, 45.802465612916436], [149.6166344377481, 45.80267046747879], [149.61972556014916, 45.80427323695191], [149.6445780785435, 45.82957328409076], [149.65835170691398, 45.8576245120458], [149.65885343426078, 45.85852564724122], [149.6594453119168, 45.859370310376], [149.66012104363574, 45.8601495161351], [149.6608734411526, 45.86085497552271], [149.66169450065098, 45.861479184038416], [149.66257548790543, 45.86201550150827], [149.66350703119403, 45.86245822272125], [149.66447922099243, 45.86280263811992], [149.69076522099243, 45.870614638119925], [149.69171594882968, 45.87084721785025], [149.6926848595559, 45.870985741336156], [149.69366267123155, 45.871028881554864], [149.7504128385101, 45.870752668229976], [149.80584072677442, 45.88865542019755], [149.84332049310424, 45.92379370388279], [149.87602412357893, 45.96647695017441], [149.87652018260064, 45.96707477198671], [149.87706115042084, 45.967632283681446], [149.91644915042085, 46.005189283681446], [149.91722238269966, 46.00585467715528], [150.01404138269967, 46.080926677155276], [150.01481000439244, 46.08146681742536], [150.01562592087296, 46.08193244722976], [150.01648193142688, 46.08231945724196], [150.01737048149724, 46.08262443197932], [150.09177548149722, 46.10431343197932], [150.0929139994, 46.1045742574253], [150.09407516390954, 46.10470055037809], [150.10791016390954, 46.105391550378094], [150.1093348380663, 46.10536104895413], [150.134956425671, 46.102978672284785], [150.14748288809636, 46.10451027347292], [150.17646523272637, 46.11453905503753], [150.18878438457543, 46.12177952233945], [150.19935517251662, 46.13072863267339], [150.1996714661038, 46.131605861451895], [150.17544659750945, 46.152098274250505], [150.1747349042907, 46.15276236677773], [150.1740911496018, 46.153492507875626], [150.17352143318655, 46.15428177926657], [150.1730311532569, 46.15512270239794], [150.17262495534314, 46.15600730930341], [150.17230668827668, 46.15692721810147], [150.17207936772112, 46.15787371241595], [150.17194514759808, 46.15883782396598], [150.1719052996783, 46.15981041754278], [150.1719602015312, 46.16078227756813], [150.17210933294743, 46.16174419541443], [150.17235128086782, 46.162687056658804], [150.17268375277266, 46.16360192744467], [150.17310359840377, 46.164480139132344], [150.17360683961414, 46.16531337043667], [150.17418870806185, 46.166093726273395], [150.17484369039133, 46.166813812567106], [150.17556558047394, 46.16746680631206], [150.17634753821255, 46.16804652022198], [150.20549853821257, 46.187533520221976], [150.20623966003936, 46.187983724629596], [150.20701699812116, 46.18836803059804], [150.2078247072987, 46.188683548355584], [150.2418447072987, 46.20029954835558], [150.2428322194798, 46.20058102175355], [150.24384339025283, 46.200759742903315], [150.28633081705772, 46.20603702758535], [150.33119057449048, 46.22036602948959], [150.39435187661437, 46.24062420196937], [150.39526235134744, 46.240869536560176], [150.39619188640327, 46.241028022777236], [150.39713221679023, 46.24109825143512], [150.39807498152965, 46.24107959809338], [150.3990117979977, 46.24097222860883], [150.39993433645984, 46.24077709766079], [150.4783373268629, 46.22028850455853], [150.56702556067629, 46.24148409797557], [150.56797821468427, 46.241663463393884], [150.56894375965538, 46.241749745031896], [150.5699131221548, 46.2417421320824], [150.57087719287358, 46.24164069608593], [150.5718269122309, 46.24144639025847], [150.57275335550867, 46.24116104053387], [150.5736478167192, 46.24078732840516], [150.5745018904171, 46.24032876572599], [150.57530755068737, 46.23978966170896], [150.57605722656626, 46.239175082431025], [150.57674387318752, 46.23849080322649], [150.57736103798445, 46.23774325441493], [150.57790292132609, 46.236939460874076], [150.57836443101752, 46.23608697602556], [150.57874123015247, 46.23519381085375], [150.57902977786804, 46.23426835862478], [150.57922736261895, 46.23331931601328], [150.57933212765863, 46.23235560137776], [150.57934308848732, 46.23138627095294], [150.57926014210375, 46.23042043374632], [150.57908406797304, 46.22946716593886], [150.57881652070185, 46.22853542559417], [150.57846001448968, 46.22763396847764], [150.5780178995025, 46.22677126577663], [150.57749433039032, 46.225955424494856], [150.57689422724533, 46.22519411126917], [150.5762232293664, 46.224494480324495], [150.5754876422657, 46.22386310624401], [150.52156564226573, 46.18194310624401], [150.52116355396478, 46.181646332238344], [150.47921655396476, 46.152276332238344], [150.4788208974309, 46.152013090454204], [150.4499578495668, 46.13378395218815], [150.39964935002718, 46.09266613322255], [150.39864365075425, 46.09194322248413], [150.36861465075427, 46.07306322248414], [150.36783164380947, 46.072618801681045], [150.36701183807045, 46.07224660781212], [150.36616187896223, 46.07194965791706], [150.32654541521995, 46.060080945549565], [150.29167249889005, 46.03717210421587], [150.29086390166236, 46.03669372268295], [150.29001397830154, 46.03629333705841], [150.28913023089717, 46.03597448145955], [150.28822046009645, 46.035739970355756], [150.2517597068159, 46.02814818633159], [150.23732277078182, 46.00344440765746], [150.23680552016103, 46.00264858745888], [150.23621514959632, 46.00190539126037], [150.23555697760614, 46.001221514352935], [150.23483693351713, 46.000603117633126], [150.23406150404804, 46.00005577210091], [150.1985055997876, 45.97740707895957], [150.19082925744425, 45.95138515257933], [150.20487604429564, 45.93649509003036], [150.20552904669353, 45.935729058621625], [150.2061017309661, 45.93490126095628], [150.20658829458327, 45.93402008441478], [150.20698380760336, 45.93309445722106], [150.2072842626242, 45.93213375798025], [150.20748661538667, 45.9311477206532], [150.20758881561972, 45.93014633593034], [150.20758982781396, 45.9291397500044], [150.20748964171372, 45.928138161767585], [150.20728927242078, 45.92715171947466], [150.2069907501094, 45.926190417919244], [150.2065970994562, 45.925263997164926], [150.2061123089935, 45.924381843857326], [150.2055412906971, 45.923552896117116], [150.20488983021716, 45.922785552977516], [150.2041645282571, 45.92208758928392], [150.20337273369432, 45.92146607691789], [150.2025224691199, 45.920927313143714], [150.2016223495528, 45.92047675680351], [150.19494934955281, 45.91754675680351], [150.1941252578752, 45.91722756145632], [150.1932762030157, 45.91698237049348], [150.19240881620107, 45.9168130988877], [150.1613400933802, 45.91216431637164], [150.15474138509904, 45.906398793250005], [150.15204786594344, 45.895597414811675], [150.1517791923608, 45.89470097610091], [150.15142789526715, 45.89383357872475], [150.15099705127975, 45.893002819244096], [150.1504904336779, 45.89221597334959], [150.1499124793571, 45.89147993214202], [150.14926824997107, 45.890801141780905], [150.14856338760254, 45.89018554702979], [150.14780406535053, 45.88963853919275], [150.11907606535053, 45.87092053919275], [150.1182953926784, 45.87046086433987], [150.11747632206132, 45.87007372855537], [150.11662557602787, 45.86976230925926], [150.09031254656784, 45.861461237975114], [150.04484171996515, 45.83538050410086], [150.03079873448974, 45.817599172688844], [150.0301295018705, 45.81683502392311], [150.02938620178236, 45.816142708522634], [150.02857650356313, 45.815529369767496], [150.02770876164368, 45.81500133606019], [150.0267919293473, 45.814564055629475], [150.02583546650956, 45.814222040315734], [150.0248492418723, 45.81397881901805], [149.9976742418723, 45.808724819018046], [149.9964805935317, 45.808567853487034], [149.9952767325691, 45.808555471174884], [149.9723717325691, 45.809700471174885], [149.9718153529418, 45.80974387563993], [149.9493619831818, 45.812127477541466], [149.93233671966271, 45.804113687859505], [149.9313592181113, 45.79290054717875], [149.931224672939, 45.79192052911733], [149.93099396027173, 45.790958599042284], [149.93066933772013, 45.790024169803054], [149.93025398183863, 45.78912638514301], [149.92975195704153, 45.788274030224436], [149.92916817583128, 45.787475445662444], [149.92850835072767, 45.78673844590887], [149.92777893836882, 45.78607024278491], [149.9269870763304, 45.78547737491075], [149.92614051328178, 45.78496564372266], [149.92524753316246, 45.784540056703776], [149.9243168741205, 45.78420477838397], [149.87482988417332, 45.769096828458785], [149.84812531597993, 45.752157902308106], [149.76120965510265, 45.67660196053912], [149.76031422190943, 45.675908535163785], [149.70758022190944, 45.639654535163785], [149.7069061384727, 45.6392296357984], [149.6427571384727, 45.6022806357984], [149.64195815682015, 45.60186713326482], [149.6411252456938, 45.601527111086284], [149.64026514630993, 45.601263321252794], [149.6393848199348, 45.60107789876325], [149.6053638199348, 45.59549689876325], [149.60438624555476, 45.59538558097189], [149.60340246363998, 45.59537086827973], [149.60242199762556, 45.59545290311199], [149.60145433884722, 45.59563089133597], [149.60050885466114, 45.595903109948544], [149.59959469776382, 45.596266923755636], [149.59872071759, 45.59671881088198], [149.59789537464638, 45.59725439686444], [149.59712665861022, 45.59786849699871], [149.59642201098572, 45.598555166529444], [149.59578825306713, 45.59930775819814], [149.58403121052152, 45.61475172019839], [149.58373107386547, 45.608020551728], [149.5836474167069, 45.60710111611138], [149.58347932117792, 45.60619331422416], [149.5832282200582, 45.60530488380991], [149.5828962536342, 45.604443397497405], [149.58248625145612, 45.60361619825462], [149.58200170822008, 45.602830336800096]]]}, "properties": {"label": "Уруп", "note": "поселение Шелихова/Звездочётова 1795-1806, контора РАК с 1828. Нарезка north.geojson по широте (03.09.2026, D1_kurily.md).", "source": "OpenStreetMap, admin_level=6 (Overpass, 28.08.2026)", "license": "ODbL"}}]}