{"type":"FeatureCollection","features":[{"type":"Feature","properties":{"lite":true,"src":"data/deepstate/days/2022-07-31.geojson"},"geometry":{"type":"MultiPolygon","coordinates":[[[[34.829,46.204],[34.853,46.009],[34.977,45.765],[34.958,45.76],[34.9,45.858],[34.825,45.811],[34.84,45.874],[34.701,45.959],[34.556,45.989],[34.479,45.947],[34.383,46.035],[33.824,46.187],[33.75,46.138],[33.741,46.185],[33.69,46.204],[33.525,46.116],[33.564,46.075],[33.497,46.07],[33.515,46.027],[33.429,46.027],[33.178,46.121],[32.71,46.103],[32.535,46.065],[32.248,46.125],[32.226,46.133],[32.24,46.179],[32.187,46.176],[31.936,46.291],[31.78,46.265],[31.748,46.298],[32.05,46.384],[32.029,46.438],[31.741,46.489],[31.697,46.465],[31.701,46.434],[31.554,46.536],[31.522,46.562],[31.511,46.577],[31.581,46.536],[31.754,46.548],[32.003,46.492],[32.399,46.475],[32.485,46.525],[32.459,46.56],[32.592,46.595],[32.719,46.674],[32.449,46.563],[32.321,46.553],[32.246,46.592],[32.139,46.557],[32.088,46.617],[32.178,46.635],[32.17,46.746],[32.304,46.777],[32.364,46.832],[32.361,46.896],[32.52,47.015],[32.52,47.044],[32.78,47.099],[32.872,47.077],[32.895,47.114],[32.926,47.084],[33.002,47.13],[33.001,47.196],[33.051,47.164],[33.147,47.196],[33.127,47.231],[33.275,47.297],[33.233,47.322],[33.296,47.322],[33.294,47.364],[33.369,47.373],[33.367,47.417],[33.407,47.423],[33.389,47.458],[33.486,47.45],[33.52,47.51],[33.56,47.503],[33.565,47.462],[33.723,47.42],[33.957,47.418],[33.966,47.303],[33.885,47.22],[33.782,47.179],[33.764,47.098],[33.657,47.048],[33.655,46.985],[33.595,46.935],[33.591,46.854],[33.442,46.842],[33.359,46.787],[33.377,46.775],[33.464,46.818],[33.602,46.828],[33.634,46.9],[33.678,46.901],[33.698,46.995],[33.983,47.228],[34.047,47.418],[34.296,47.429],[34.387,47.514],[34.501,47.499],[34.628,47.546],[34.686,47.493],[34.872,47.45],[34.881,47.409],[34.969,47.389],[35.078,47.453],[35.273,47.456],[35.279,47.501],[35.335,47.525],[35.959,47.481],[36.165,47.571],[36.555,47.673],[36.538,47.717],[36.607,47.774],[36.77,47.781],[36.801,47.822],[37.102,47.745],[37.104,47.714],[37.307,47.686],[37.358,47.75],[37.463,47.741],[37.527,47.844],[37.577,47.864],[37.576,47.908],[37.644,47.887],[37.638,47.752],[37.804,47.66],[37.769,47.636],[37.782,47.586],[37.893,47.47],[37.838,47.378],[37.861,47.348],[37.825,47.322],[37.851,47.199],[37.815,47.09],[37.538,47.082],[37.308,46.866],[37.297,46.927],[37.236,46.951],[36.959,46.848],[36.759,46.619],[36.742,46.637],[36.822,46.702],[36.811,46.728],[36.647,46.781],[36.387,46.717],[36.167,46.495],[36.119,46.485],[36.092,46.489],[36.248,46.592],[36.229,46.651],[35.936,46.659],[35.77,46.602],[35.333,46.358],[35.319,46.335],[35.2,46.382],[35.077,46.279],[34.829,46.204]]],[[[38.15,48.385],[38.135,48.419],[38.042,48.409],[38.048,48.438],[38.116,48.42],[38.215,48.48],[38.188,48.519],[38.111,48.518],[38.131,48.615],[38.109,48.636],[38.232,48.745],[38.227,48.878],[38.178,48.904],[38.211,48.931],[38.054,48.94],[37.914,48.88],[37.767,48.882],[37.766,48.921],[37.718,48.958],[37.615,48.962],[37.667,49.017],[37.623,49.045],[37.528,49.019],[37.451,49.073],[37.417,48.996],[37.356,48.991],[37.093,49.072],[37.079,49.109],[36.982,49.101],[37.037,49.155],[36.921,49.184],[36.946,49.22],[36.923,49.276],[37.103,49.28],[37.163,49.317],[37.061,49.384],[36.929,49.404],[36.889,49.381],[36.827,49.409],[36.78,49.487],[36.884,49.491],[36.965,49.578],[36.915,49.608],[36.773,49.607],[36.812,49.616],[36.801,49.73],[36.864,49.735],[37.006,49.83],[36.977,49.882],[37.01,49.915],[36.908,49.952],[36.914,49.996],[36.827,50.028],[36.833,50.16],[36.281,50.188],[36.219,50.266],[36.126,50.293],[36.136,50.438],[36.284,50.335],[36.297,50.292],[36.367,50.288],[36.434,50.331],[36.587,50.285],[36.56,50.251],[36.648,50.218],[36.689,50.267],[36.873,50.337],[37.149,50.356],[37.333,50.437],[37.491,50.458],[37.472,50.371],[37.577,50.307],[37.637,50.31],[37.613,50.22],[37.641,50.176],[37.755,50.078],[37.925,50.035],[38.044,49.933],[38.027,49.906],[38.125,49.942],[38.127,49.923],[38.216,49.978],[38.179,50.08],[38.313,50.089],[38.35,50.006],[38.468,49.995],[38.488,49.964],[38.646,49.956],[38.684,50.008],[38.715,49.988],[38.693,49.935],[38.79,49.879],[38.92,49.859],[38.931,49.797],[39.066,49.815],[39.188,49.886],[39.286,49.756],[39.608,49.734],[39.592,49.72],[39.66,49.615],[39.808,49.558],[40.135,49.616],[40.168,49.569],[40.038,49.52],[40.029,49.454],[40.197,49.345],[40.186,49.284],[40.214,49.245],[40.137,49.239],[40.032,49.18],[39.938,49.056],[39.693,49.05],[39.663,49.001],[39.748,48.988],[39.824,48.891],[39.992,48.869],[40.031,48.916],[40.079,48.87],[39.976,48.794],[39.797,48.841],[39.765,48.765],[39.705,48.722],[39.722,48.684],[39.66,48.608],[39.687,48.587],[39.531,48.584],[39.514,48.634],[39.466,48.628],[39.356,48.697],[39.374,48.719],[39.325,48.776],[39.14,48.66],[39.055,48.647],[39.01,48.66],[38.981,48.744],[38.878,48.753],[38.808,48.713],[38.583,48.72],[38.549,48.675],[38.42,48.645],[38.391,48.416],[38.291,48.362],[38.15,48.385]]],[[[35.033,46.15],[35.209,46.19],[35.379,46.373],[35.196,46.147],[34.977,46.071],[35.033,46.15]]],[[[37.89,48.299],[37.897,48.215],[37.82,48.144],[37.823,48.231],[37.778,48.272],[37.89,48.299]]]]}}]}