{"type":"FeatureCollection","features":[{"type":"Feature","properties":{"lite":true,"src":"data/deepstate/days/2022-11-30.geojson"},"geometry":{"type":"MultiPolygon","coordinates":[[[[35.202,46.38],[35.08,46.277],[34.834,46.2],[34.853,46.009],[34.958,45.76],[34.801,45.805],[34.796,45.892],[34.701,45.959],[34.556,45.989],[34.479,45.947],[34.383,46.035],[33.824,46.187],[33.69,46.204],[33.531,46.11],[33.572,46.074],[33.497,46.07],[33.526,46.027],[33.429,46.025],[33.168,46.12],[32.71,46.103],[32.543,46.062],[32.219,46.128],[32.24,46.179],[31.97,46.257],[31.937,46.292],[31.78,46.265],[31.748,46.298],[31.773,46.327],[32.009,46.364],[32.029,46.438],[31.742,46.485],[31.697,46.447],[31.789,46.373],[31.774,46.359],[31.657,46.469],[31.547,46.539],[31.511,46.577],[31.582,46.537],[31.879,46.536],[31.994,46.493],[32.149,46.515],[32.344,46.465],[32.538,46.538],[32.697,46.662],[33.152,46.764],[33.317,46.753],[33.47,46.821],[33.62,46.829],[33.634,46.9],[33.688,46.92],[33.698,46.995],[33.983,47.231],[34.047,47.418],[34.296,47.429],[34.387,47.514],[34.501,47.5],[34.642,47.544],[34.689,47.495],[34.874,47.45],[34.884,47.406],[34.969,47.389],[35.062,47.449],[35.281,47.472],[35.281,47.503],[35.335,47.525],[35.959,47.481],[35.981,47.514],[36.187,47.541],[36.368,47.632],[36.555,47.673],[36.538,47.717],[36.716,47.81],[36.82,47.822],[37.121,47.735],[37.378,47.749],[37.533,47.844],[37.533,47.903],[37.496,47.95],[37.532,47.965],[37.535,47.918],[37.644,47.887],[37.638,47.752],[37.804,47.66],[37.769,47.635],[37.782,47.586],[37.893,47.47],[37.838,47.378],[37.861,47.348],[37.825,47.322],[37.838,47.1],[37.527,47.07],[37.322,46.869],[37.281,46.874],[37.319,46.896],[37.297,46.927],[37.238,46.94],[36.993,46.863],[36.902,46.809],[36.759,46.622],[36.742,46.637],[36.791,46.675],[36.801,46.728],[36.706,46.778],[36.587,46.765],[36.377,46.706],[36.184,46.498],[36.117,46.487],[36.091,46.492],[36.147,46.509],[36.152,46.547],[36.191,46.535],[36.26,46.619],[36.229,46.651],[35.936,46.659],[35.736,46.584],[35.604,46.48],[35.458,46.441],[35.186,46.147],[34.973,46.072],[35.029,46.148],[35.209,46.19],[35.317,46.317],[35.304,46.354],[35.202,46.38]]],[[[38.15,48.385],[38.163,48.402],[38.118,48.421],[37.965,48.394],[37.961,48.505],[38.07,48.604],[38.04,48.62],[38.26,48.777],[38.263,48.884],[38.311,48.908],[38.228,48.937],[38.192,49.011],[38.101,48.991],[38.068,49.015],[38.127,49.118],[38.081,49.218],[38.011,49.272],[38.092,49.301],[38.007,49.338],[37.938,49.463],[37.974,49.541],[37.946,49.651],[37.918,49.655],[37.937,49.712],[37.874,49.758],[37.692,49.788],[37.832,49.972],[37.94,50.015],[38.044,49.933],[38.012,49.919],[38.034,49.905],[38.125,49.943],[38.127,49.922],[38.217,49.987],[38.179,50.08],[38.313,50.088],[38.35,50.006],[38.468,49.995],[38.488,49.964],[38.646,49.956],[38.688,50.008],[38.715,49.988],[38.693,49.935],[38.79,49.879],[38.899,49.87],[38.931,49.797],[39.066,49.815],[39.188,49.886],[39.286,49.756],[39.61,49.734],[39.591,49.719],[39.66,49.615],[39.805,49.558],[40.135,49.616],[40.168,49.569],[40.038,49.52],[40.029,49.454],[40.197,49.345],[40.186,49.284],[40.214,49.245],[40.137,49.24],[40.032,49.18],[39.938,49.056],[39.693,49.051],[39.663,49.001],[39.752,48.987],[39.782,48.916],[39.853,48.891],[39.993,48.868],[40.031,48.916],[40.079,48.87],[39.976,48.794],[39.797,48.841],[39.769,48.766],[39.705,48.722],[39.723,48.683],[39.661,48.609],[39.687,48.587],[39.531,48.584],[39.514,48.634],[39.466,48.628],[39.356,48.697],[39.374,48.719],[39.325,48.776],[39.14,48.66],[39.055,48.647],[39.01,48.66],[38.981,48.744],[38.878,48.753],[38.808,48.713],[38.583,48.72],[38.549,48.675],[38.42,48.645],[38.391,48.416],[38.291,48.362],[38.15,48.385]]],[[[37.752,48.219],[37.808,48.288],[37.89,48.299],[37.897,48.215],[37.808,48.121],[37.791,48.199],[37.752,48.219]]],[[[37.683,48.097],[37.792,48.105],[37.601,48.017],[37.591,48.049],[37.683,48.097]]]]}}]}