{"type": "FeatureCollection", "features": [{"type": "Feature", "geometry": {"type": "MultiPolygon", "coordinates": [[[[31.444, 55.721], [31.586, 55.747], [31.751, 55.715], [31.804, 56.03], [30.902, 55.9], [30.777, 56.072], [30.689, 55.896], [29.948, 56.538], [29.06, 56.538], [28.813, 56.883], [28.093, 56.792], [28.017, 56.567], [27.823, 56.725], [27.929, 56.94], [27.633, 57.096], [27.773, 57.211], [27.795, 57.466], [27.532, 57.406], [27.511, 57.611], [27.661, 58.938], [27.771, 58.891], [28.266, 59.087], [29.282, 59.116], [29.886, 59.11], [30.228, 58.838], [30.661, 59.253], [31.654, 59.526], [31.606, 60.134], [30.929, 61.1], [30.179, 61.373], [29.727, 61.848], [31.06, 62.307], [31.395, 62.543], [32.267, 62.662], [32.223, 62.848], [31.284, 62.959], [31.181, 63.33], [30.434, 63.416], [30.445, 63.715], [30.869, 64.162], [30.065, 64.56], [30.397, 65.159], [30.407, 65.79], [30.997, 65.762], [31.155, 65.914], [30.789, 66.23], [30.867, 66.751], [31.116, 67.067], [30.109, 67.719], [28.902, 68.356], [30.144, 69.262], [32.159, 69.69], [32.191, 69.642], [32.352, 69.514], [32.596, 69.424], [33.01, 69.387], [33.281, 69.342], [33.316, 69.071], [33.628, 69.215], [33.818, 69.192], [34.305, 69.171], [34.699, 69.164], [34.934, 69.149], [35.437, 69.15], [36.018, 69.024], [37.246, 68.793], [37.689, 68.63], [38.406, 68.243], [38.668, 68.146], [39.918, 67.94], [40.826, 67.66], [40.973, 67.534], [40.951, 67.335], [41.017, 67.202], [41.209, 67.069], [41.255, 66.937], [41.147, 66.782], [40.918, 66.619], [40.884, 66.608], [40.863, 66.592], [40.857, 66.588], [40.839, 66.578], [40.834, 66.576], [40.815, 66.568], [40.811, 66.566], [40.806, 66.565], [40.781, 66.56], [40.773, 66.556], [40.769, 66.553], [40.77, 66.552], [40.77, 66.547], [40.769, 66.54], [40.769, 66.535], [40.768, 66.53], [40.767, 66.527], [40.394, 66.343], [40.32, 66.333], [40.179, 66.284], [40.109, 66.245], [40.104, 66.243], [40.099, 66.241], [40.094, 66.24], [39.863, 66.197], [39.83, 66.184], [39.825, 66.182], [39.819, 66.181], [39.782, 66.176], [39.717, 66.159], [39.714, 66.158], [39.71, 66.157], [39.478, 66.131], [39.404, 66.099], [39.397, 66.097], [39.356, 66.086], [39.349, 66.085], [39.069, 66.054], [39.065, 66.054], [39.06, 66.054], [38.974, 66.061], [38.963, 66.059], [38.951, 66.055], [38.946, 66.053], [38.941, 66.052], [38.561, 66.005], [38.556, 66.005], [38.552, 66.005], [38.238, 66.022], [37.924, 66.039], [37.92, 66.039], [37.916, 66.04], [37.814, 66.063], [37.652, 66.073], [37.646, 66.074], [37.537, 66.096], [37.531, 66.097], [37.526, 66.099], [37.424, 66.144], [37.353, 66.155], [37.346, 66.157], [37.262, 66.181], [36.885, 66.235], [36.833, 66.233], [36.829, 66.233], [36.824, 66.234], [36.747, 66.245], [36.636, 66.238], [36.631, 66.238], [36.627, 66.238], [36.522, 66.25], [36.409, 66.245], [36.403, 66.245], [36.397, 66.246], [36.268, 66.271], [36.018, 66.291], [35.766, 66.311], [35.762, 66.312], [35.757, 66.313], [35.665, 66.337], [35.558, 66.337], [35.554, 66.337], [35.549, 66.338], [35.372, 66.369], [35.368, 66.37], [35.363, 66.371], [35.359, 66.373], [35.355, 66.375], [35.298, 66.409], [35.219, 66.42], [35.212, 66.421], [35.168, 66.433], [35.163, 66.435], [34.874, 66.551], [34.805, 66.563], [34.737, 66.547], [34.668, 66.519], [34.32, 66.594], [34.314, 66.603], [34.311, 66.607], [34.309, 66.611], [34.308, 66.616], [34.307, 66.619], [34.281, 66.622], [34.212, 66.622], [34.207, 66.623], [34.202, 66.624], [34.191, 66.626], [34.186, 66.627], [34.181, 66.629], [34.177, 66.631], [34.176, 66.632], [34.166, 66.627], [34.153, 66.63], [34.055, 66.64], [34.053, 66.642], [34.051, 66.644], [34.048, 66.644], [34.043, 66.644], [34.037, 66.644], [34.036, 66.644], [34.032, 66.642], [33.79, 66.666], [33.781, 66.674], [33.778, 66.677], [33.776, 66.68], [33.773, 66.683], [33.751, 66.715], [33.741, 66.721], [33.693, 66.738], [33.688, 66.74], [33.684, 66.742], [33.676, 66.747], [33.676, 66.746], [33.676, 66.742], [33.675, 66.737], [33.673, 66.732], [33.672, 66.727], [33.669, 66.723], [33.667, 66.719], [33.663, 66.715], [33.66, 66.711], [33.656, 66.708], [33.652, 66.705], [33.648, 66.703], [33.643, 66.701], [33.638, 66.7], [33.633, 66.699], [33.628, 66.698], [33.623, 66.698], [33.618, 66.699], [33.614, 66.7], [33.602, 66.703], [33.6, 66.701], [33.599, 66.699], [33.596, 66.695], [33.593, 66.692], [33.589, 66.689], [33.586, 66.687], [33.437, 66.702], [33.158, 66.914], [32.991, 66.988], [32.748, 67.029], [32.748, 67.031], [32.748, 67.036], [32.749, 67.041], [32.75, 67.046], [32.729, 67.05], [32.723, 67.052], [32.627, 67.083], [32.496, 67.084], [32.517, 67.079], [32.521, 67.077], [32.525, 67.076], [32.528, 67.074], [32.555, 67.058], [32.56, 67.055], [32.58, 67.04], [32.582, 67.038], [32.219, 66.994], [32.425, 66.891], [32.754, 66.649], [32.971, 66.583], [33.47, 66.313], [33.844, 66.182], [34.258, 66.11], [34.544, 66.001], [34.726, 65.797], [34.726, 65.615], [34.601, 65.484], [34.293, 65.396], [34.332, 65.346], [34.426, 65.107], [34.773, 64.682], [34.815, 64.46], [34.885, 64.367], [35.082, 64.288], [35.623, 64.254], [36.015, 64.197], [36.24, 63.919], [36.421, 63.876], [36.988, 63.841], [37.411, 63.749], [37.591, 63.807], [37.945, 63.85], [38.054, 63.986], [38.054, 64.129], [37.88, 64.308], [37.872, 64.309], [37.871, 64.31], [37.868, 64.31], [37.794, 64.322], [37.773, 64.333], [37.769, 64.335], [37.766, 64.338], [37.762, 64.341], [37.759, 64.345], [37.756, 64.349], [37.753, 64.353], [37.751, 64.357], [37.749, 64.361], [37.748, 64.366], [37.747, 64.37], [37.747, 64.375], [37.747, 64.38], [37.747, 64.39], [37.746, 64.39], [37.705, 64.383], [37.701, 64.381], [37.701, 64.38], [37.7, 64.375], [37.699, 64.37], [37.697, 64.366], [37.694, 64.361], [37.692, 64.357], [37.689, 64.353], [37.685, 64.35], [37.681, 64.347], [37.677, 64.344], [37.674, 64.342], [37.668, 64.343], [37.596, 64.328], [37.593, 64.328], [37.552, 64.335], [37.517, 64.336], [37.482, 64.333], [37.401, 64.312], [37.384, 64.305], [37.262, 64.314], [37.044, 64.39], [37.027, 64.403], [36.893, 64.493], [36.569, 64.765], [36.884, 65.068], [37.102, 65.068], [37.604, 64.853], [38.253, 64.703], [39.193, 64.511], [39.622, 64.476], [39.997, 64.541], [40.322, 64.463], [40.44, 64.564], [40.462, 64.75], [40.366, 64.858], [40.346, 64.873], [40.335, 64.897], [40.329, 64.904], [40.32, 64.912], [40.286, 64.931], [40.281, 64.934], [40.268, 64.943], [40.265, 64.946], [40.261, 64.949], [40.258, 64.953], [40.252, 64.961], [40.248, 64.966], [40.245, 64.971], [40.241, 64.982], [40.224, 64.989], [40.18, 65.0], [39.979, 65.153], [39.823, 65.436], [39.951, 65.581], [40.681, 65.794], [41.354, 65.955], [41.623, 66.065], [42.133, 66.388], [42.211, 66.41], [43.241, 66.251], [43.876, 66.011], [44.029, 66.011], [44.053, 66.041], [44.122, 66.267], [44.194, 66.362], [44.327, 66.36], [44.459, 66.323], [44.561, 66.26], [44.848, 66.188], [44.931, 66.182], [45.736, 66.018], [45.83, 66.038], [46.338, 65.979], [47.104, 65.772], [47.158, 65.766], [47.407, 65.786], [47.667, 65.758], [47.753, 65.775], [47.794, 65.806], [47.811, 65.833], [47.815, 65.859], [47.794, 65.906], [47.981, 66.008], [48.093, 66.031], [48.152, 66.079], [49.019, 66.071], [51.523, 66.735], [51.58, 66.759], [51.598, 66.788], [51.591, 66.826], [51.559, 66.849], [51.562, 66.886], [51.678, 66.877], [51.743, 66.886], [51.775, 66.906], [51.821, 66.905], [51.854, 66.921], [51.874, 66.954], [51.938, 66.958], [51.969, 66.97], [52.033, 66.979], [52.086, 67.01], [52.164, 67.036], [52.245, 67.039], [53.772, 66.949], [59.825, 66.951], [59.838, 66.93], [59.858, 66.916], [59.919, 66.904], [60.088, 66.94], [61.432, 66.95], [61.499, 66.969], [61.626, 66.962], [61.667, 66.966], [61.721, 66.987], [61.766, 67.039], [61.848, 67.065], [61.872, 67.08], [62.843, 67.343], [62.874, 67.368], [62.894, 67.41], [62.919, 67.552], [63.091, 67.607], [63.127, 67.629], [63.308, 67.669], [63.344, 67.698], [63.431, 67.718], [63.7, 67.713], [63.737, 67.729], [63.751, 67.748], [63.755, 67.771], [63.835, 67.776], [63.892, 67.79], [63.975, 67.844], [63.995, 67.876], [63.994, 67.909], [63.97, 67.944], [63.967, 67.972], [63.95, 67.997], [64.046, 68.019], [64.097, 68.041], [64.342, 68.087], [64.363, 68.102], [64.392, 68.139], [64.43, 68.152], [64.525, 68.148], [64.552, 68.155], [64.573, 68.174], [64.584, 68.215], [64.57, 68.259], [64.573, 68.284], [64.564, 68.308], [64.572, 68.311], [64.763, 68.356], [64.807, 68.351], [64.903, 68.355], [65.007, 68.339], [65.049, 68.355], [65.361, 68.375], [65.319, 68.344], [65.298, 68.316], [65.26, 68.297], [65.226, 68.245], [65.225, 68.201], [65.243, 68.17], [65.251, 68.117], [65.272, 68.087], [65.239, 68.025], [65.25, 67.982], [65.318, 67.945], [65.404, 67.879], [65.431, 67.87], [65.568, 67.884], [65.786, 67.874], [65.864, 67.89], [65.911, 67.91], [66.006, 67.883], [66.003, 67.866], [65.971, 67.812], [65.971, 67.787], [65.985, 67.761], [66.005, 67.747], [66.061, 67.729], [66.117, 67.722], [66.145, 67.71], [66.099, 67.697], [66.021, 67.725], [65.988, 67.728], [65.934, 67.712], [65.837, 67.702], [65.791, 67.672], [65.777, 67.646], [65.775, 67.624], [65.752, 67.597], [65.746, 67.562], [65.766, 67.525], [65.802, 67.508], [65.841, 67.505], [66.017, 67.525], [66.047, 67.5], [65.985, 67.461], [65.929, 67.443], [65.806, 67.433], [65.738, 67.441], [65.684, 67.436], [65.641, 67.405], [65.629, 67.377], [65.63, 67.355], [65.571, 67.343], [65.524, 67.309], [65.406, 67.263], [65.312, 67.246], [65.223, 67.198], [65.166, 67.189], [65.141, 67.154], [65.15, 67.111], [65.068, 67.099], [65.032, 67.06], [65.03, 67.02], [65.057, 66.981], [65.064, 66.934], [64.993, 66.915], [64.926, 66.918], [64.852, 66.889], [64.755, 66.871], [64.563, 66.846], [64.531, 66.828], [64.492, 66.772], [64.437, 66.778], [64.399, 66.771], [64.287, 66.713], [64.197, 66.714], [64.084, 66.699], [64.008, 66.705], [63.969, 66.7], [63.877, 66.64], [63.825, 66.625], [63.791, 66.594], [63.712, 66.573], [63.642, 66.568], [63.588, 66.538], [63.531, 66.52], [63.505, 66.519], [63.443, 66.535], [63.393, 66.525], [63.369, 66.504], [63.359, 66.482], [63.26, 66.429], [63.241, 66.392], [63.199, 66.354], [63.19, 66.308], [63.14, 66.313], [63.045, 66.277], [62.991, 66.243], [62.947, 66.201], [62.931, 66.178], [62.925, 66.15], [62.829, 66.112], [62.813, 66.093], [62.805, 66.065], [62.775, 66.03], [62.772, 66.006], [62.783, 65.98], [62.756, 65.949], [62.756, 65.913], [62.675, 65.912], [62.51, 65.887], [62.117, 65.776], [62.006, 65.766], [61.978, 65.747], [61.97, 65.705], [61.993, 65.674], [62.242, 65.583], [62.281, 65.515], [62.302, 65.497], [62.333, 65.484], [62.324, 65.446], [62.339, 65.409], [62.401, 65.346], [62.457, 65.306], [62.51, 65.289], [62.757, 65.257], [62.763, 65.214], [62.75, 65.17], [62.759, 65.119], [62.753, 65.066], [62.739, 65.03], [62.7, 64.986], [62.647, 64.948], [62.628, 64.891], [62.634, 64.856], [62.655, 64.832], [62.743, 64.812], [62.736, 64.786], [62.745, 64.75], [62.56, 64.678], [62.541, 64.653], [62.537, 64.628], [62.505, 64.606], [62.487, 64.582], [62.482, 64.559], [62.488, 64.536], [62.522, 64.505], [62.696, 64.442], [62.831, 64.448], [62.9, 64.427], [62.934, 64.434], [62.972, 64.454], [63.224, 64.475], [63.367, 64.416], [63.426, 64.413], [63.432, 64.395], [63.384, 64.371], [63.365, 64.341], [63.368, 64.308], [63.389, 64.282], [63.474, 64.241], [63.528, 64.237], [63.61, 64.219], [63.897, 64.235], [63.928, 64.249], [63.948, 64.28], [64.019, 64.307], [64.483, 64.311], [64.526, 64.328], [64.614, 64.388], [64.71, 64.375], [64.763, 64.377], [64.999, 64.416], [65.181, 64.396], [65.226, 64.411], [65.32, 64.48], [65.397, 64.519], [65.561, 64.525], [66.042, 63.599], [65.062, 62.969], [65.979, 62.388], [66.989, 62.217], [67.852, 61.674], [67.778, 61.651], [68.228, 61.533], [68.443, 61.098], [69.385, 60.914], [69.666, 60.671], [68.622, 59.808], [66.816, 59.631], [66.124, 59.604], [65.406, 60.002], [62.973, 59.318], [61.307, 58.836], [60.142, 58.147], [58.581, 57.58], [56.344, 57.361], [54.596, 57.069], [54.444, 57.067], [54.416, 57.107], [54.371, 57.125], [54.377, 57.21], [54.369, 57.244], [54.375, 57.28], [54.362, 57.313], [54.313, 57.346], [54.218, 57.355], [54.297, 57.383], [54.319, 57.414], [54.322, 57.449], [54.315, 57.475], [54.297, 57.501], [54.248, 57.52], [54.247, 57.55], [54.229, 57.577], [54.198, 57.601], [54.167, 57.61], [54.159, 57.65], [54.196, 57.674], [54.206, 57.712], [54.183, 57.797], [54.185, 57.843], [54.138, 57.923], [54.149, 57.974], [54.137, 58.013], [54.118, 58.033], [54.045, 58.077], [53.983, 58.129], [53.971, 58.167], [53.943, 58.193], [53.931, 58.217], [53.881, 58.246], [53.929, 58.294], [53.934, 58.332], [53.909, 58.371], [53.835, 58.425], [53.832, 58.455], [53.819, 58.476], [53.788, 58.49], [53.639, 58.485], [53.494, 58.5], [53.341, 58.441], [53.307, 58.459], [53.247, 58.471], [53.232, 58.488], [53.206, 58.497], [53.182, 58.531], [53.168, 58.569], [53.132, 58.592], [53.06, 58.591], [53.022, 58.576], [52.92, 58.584], [52.897, 58.578], [52.867, 58.554], [52.833, 58.463], [52.339, 58.5], [52.284, 58.524], [52.167, 58.54], [52.107, 58.524], [52.005, 58.522], [51.952, 58.51], [51.76, 58.395], [51.743, 58.361], [51.743, 58.313], [51.71, 58.292], [51.683, 58.251], [51.639, 58.217], [51.627, 58.194], [51.624, 58.163], [51.639, 58.127], [51.676, 58.099], [51.717, 58.084], [51.758, 58.088], [51.744, 58.051], [51.749, 58.015], [51.779, 57.98], [51.824, 57.957], [51.793, 57.92], [51.789, 57.838], [51.813, 57.805], [51.871, 57.787], [51.827, 57.747], [51.825, 57.691], [51.815, 57.665], [51.797, 57.648], [51.727, 57.618], [51.705, 57.586], [51.683, 57.583], [51.638, 57.594], [51.608, 57.585], [51.585, 57.566], [51.552, 57.516], [51.394, 57.528], [51.286, 57.506], [51.224, 57.512], [51.179, 57.501], [51.129, 57.464], [51.088, 57.391], [51.066, 57.31], [51.074, 57.246], [51.088, 57.225], [51.119, 57.206], [51.137, 57.18], [51.138, 57.144], [51.166, 57.112], [51.188, 57.037], [51.264, 56.984], [51.266, 56.964], [50.155, 56.794], [50.143, 56.82], [50.114, 56.842], [50.096, 56.874], [50.048, 56.905], [49.948, 56.919], [49.864, 56.944], [49.803, 56.94], [49.809, 56.964], [49.803, 56.995], [49.761, 57.043], [49.763, 57.069], [49.753, 57.098], [49.723, 57.12], [49.524, 57.122], [49.486, 57.104], [49.416, 57.1], [49.386, 57.083], [49.292, 57.09], [49.28, 57.101], [49.268, 57.154], [49.221, 57.182], [49.23, 57.229], [49.25, 57.25], [49.261, 57.276], [49.26, 57.308], [49.219, 57.367], [49.186, 57.38], [49.021, 57.336], [48.976, 57.312], [48.959, 57.272], [48.957, 57.234], [48.965, 57.209], [48.955, 57.161], [48.936, 57.134], [48.909, 57.135], [48.898, 57.158], [48.852, 57.206], [48.765, 57.221], [48.686, 57.224], [48.642, 57.204], [48.562, 57.222], [48.437, 57.177], [48.407, 57.179], [48.364, 57.205], [48.294, 57.215], [48.162, 57.157], [48.145, 57.12], [48.117, 57.089], [48.118, 57.049], [48.05, 57.048], [48.007, 57.063], [47.961, 57.05], [47.929, 57.056], [47.893, 57.042], [47.867, 57.046], [47.85, 57.073], [47.818, 57.096], [47.776, 57.11], [47.738, 57.108], [47.697, 57.089], [47.679, 57.059], [47.586, 57.014], [47.556, 56.984], [47.491, 56.946], [47.469, 56.923], [47.419, 56.926], [47.37, 56.904], [47.249, 56.884], [47.212, 56.883], [47.207, 56.922], [47.186, 56.946], [47.096, 56.98], [47.058, 56.982], [47.032, 56.972], [46.936, 56.996], [46.822, 56.981], [46.773, 56.984], [46.733, 57.013], [46.69, 57.018], [46.647, 57.01], [46.619, 56.979], [46.601, 56.971], [46.548, 56.977], [46.521, 56.99], [46.334, 57.002], [46.291, 56.985], [46.27, 56.955], [46.033, 56.92], [45.977, 56.926], [45.945, 56.92], [45.904, 56.888], [45.888, 56.837], [45.862, 56.797], [45.862, 56.742], [45.85, 56.714], [45.847, 56.678], [45.73, 56.675], [45.683, 56.651], [45.628, 56.635], [45.595, 56.599], [45.579, 56.53], [45.583, 56.497], [45.604, 56.467], [45.61, 56.444], [45.639, 56.417], [45.686, 56.409], [45.731, 56.412], [45.753, 56.385], [45.783, 56.375], [45.873, 56.389], [45.875, 56.358], [45.842, 56.343], [45.823, 56.316], [45.823, 56.261], [45.83, 56.234], [45.887, 56.189], [46.022, 56.13], [46.018, 56.094], [46.046, 56.033], [46.074, 56.01], [46.112, 56.009], [46.068, 55.98], [46.053, 55.961], [46.049, 55.936], [46.059, 55.904], [46.04, 55.872], [46.042, 55.839], [45.958, 55.816], [45.873, 55.705], [45.878, 55.662], [45.921, 55.599], [45.955, 55.573], [45.718, 55.348], [44.904, 55.092], [44.887, 55.018], [44.002, 54.829], [43.985, 54.845], [43.955, 54.857], [43.906, 54.861], [43.864, 54.854], [43.736, 54.869], [43.706, 54.879], [43.629, 54.948], [43.473, 54.973], [43.433, 54.994], [43.387, 55.0], [43.238, 54.984], [43.132, 54.947], [43.101, 54.919], [43.062, 54.835], [42.978, 54.855], [42.816, 54.848], [42.764, 54.84], [42.736, 54.862], [42.695, 54.869], [42.652, 54.86], [42.623, 54.836], [42.601, 54.839], [42.577, 54.845], [42.552, 54.875], [42.494, 54.913], [42.466, 54.921], [42.434, 54.909], [42.341, 54.824], [42.334, 54.799], [42.338, 54.773], [42.369, 54.74], [42.385, 54.7], [42.467, 54.666], [42.506, 54.669], [42.528, 54.649], [42.559, 54.641], [42.573, 54.612], [42.604, 54.593], [42.583, 54.576], [42.572, 54.555], [42.543, 54.548], [42.519, 54.526], [42.494, 54.46], [42.503, 54.41], [42.473, 54.388], [42.448, 54.351], [42.405, 54.338], [42.363, 54.311], [42.271, 54.285], [42.184, 54.312], [42.156, 54.303], [42.137, 54.281], [42.136, 54.244], [42.155, 54.215], [42.163, 54.187], [42.191, 54.147], [42.226, 54.128], [42.214, 54.09], [42.234, 54.051], [42.265, 54.029], [42.385, 53.983], [42.35, 53.962], [42.263, 53.87], [42.26, 53.833], [42.284, 53.804], [42.324, 53.783], [42.414, 53.759], [42.453, 53.717], [42.515, 53.683], [42.562, 53.688], [42.583, 53.71], [42.621, 53.723], [42.655, 53.761], [42.687, 53.719], [42.744, 53.706], [42.782, 53.726], [42.798, 53.761], [42.92, 53.747], [42.957, 53.754], [42.997, 53.776], [43.063, 53.774], [43.097, 53.793], [43.152, 53.779], [43.191, 53.789], [43.212, 53.81], [43.22, 53.837], [43.21, 53.91], [43.183, 53.945], [43.191, 53.95], [43.24, 53.949], [43.301, 53.965], [43.343, 53.946], [43.427, 53.939], [43.466, 53.941], [43.526, 53.962], [43.558, 53.94], [43.594, 53.929], [43.654, 53.837], [43.828, 53.801], [43.848, 53.769], [43.907, 53.748], [43.976, 53.707], [44.081, 53.683], [44.187, 53.713], [44.253, 53.673], [44.301, 53.653], [44.337, 53.652], [44.374, 53.676], [44.402, 53.677], [44.425, 53.66], [44.337, 53.113], [43.991, 52.619], [43.268, 52.311], [42.07, 52.292], [41.3, 52.305], [40.316, 51.993], [39.64, 51.748], [37.699, 52.736], [36.86, 52.095], [36.824, 52.39], [36.525, 52.365], [36.34, 51.963], [35.795, 51.798], [35.349, 51.924], [34.834, 51.842], [34.871, 51.456], [34.554, 51.52], [34.225, 51.506], [34.212, 51.455], [34.217, 51.417], [34.187, 51.408], [34.186, 51.394], [34.247, 51.363], [34.28, 51.361], [34.3, 51.368], [34.309, 51.335], [34.284, 51.301], [34.244, 51.274], [34.186, 51.249], [34.282, 51.226], [34.337, 51.251], [34.372, 51.257], [34.513, 51.23], [34.608, 51.234], [34.622, 51.225], [34.643, 51.181], [34.675, 51.168], [34.748, 51.165], [34.818, 51.175], [34.946, 51.214], [34.999, 51.202], [35.059, 51.212], [35.091, 51.198], [35.124, 51.091], [35.144, 51.058], [35.173, 51.041], [35.274, 51.049], [35.346, 51.037], [35.355, 51.026], [35.347, 51.008], [35.278, 50.993], [35.282, 50.954], [35.294, 50.938], [35.329, 50.929], [35.342, 50.916], [35.341, 50.876], [35.378, 50.834], [35.379, 50.797], [35.438, 50.762], [35.447, 50.734], [35.445, 50.688], [35.469, 50.669], [35.392, 50.646], [35.376, 50.635], [35.425, 50.5], [35.446, 50.476], [35.541, 50.45], [35.555, 50.433], [35.57, 50.376], [35.592, 50.36], [35.652, 50.341], [35.692, 50.344], [35.681, 50.324], [35.663, 50.319], [35.595, 50.326], [35.532, 50.317], [35.501, 50.321], [35.496, 50.315], [35.507, 50.304], [35.503, 50.3], [35.426, 50.33], [35.397, 50.332], [35.385, 50.294], [35.336, 50.305], [35.321, 50.302], [35.306, 50.29], [35.309, 50.276], [35.269, 50.278], [35.253, 50.269], [35.25, 50.238], [35.206, 50.232], [35.128, 50.243], [35.093, 50.208], [35.067, 50.215], [35.051, 50.21], [35.038, 50.199], [35.03, 50.172], [34.975, 50.192], [34.951, 50.162], [34.908, 50.146], [34.814, 50.16], [34.739, 50.138], [34.705, 50.151], [34.669, 50.116], [34.536, 50.124], [34.474, 50.108], [34.471, 50.126], [34.457, 50.142], [34.459, 50.16], [34.504, 50.175], [34.502, 50.203], [34.459, 50.226], [34.436, 50.249], [34.426, 50.272], [34.403, 50.273], [34.387, 50.263], [34.369, 50.273], [34.362, 50.313], [34.377, 50.339], [34.376, 50.349], [34.259, 50.436], [34.25, 50.455], [34.252, 50.53], [34.212, 50.542], [34.186, 50.528], [34.122, 50.514], [34.114, 50.494], [34.07, 50.495], [34.055, 50.471], [33.971, 50.493], [33.913, 50.53], [33.898, 50.533], [33.806, 50.507], [33.806, 50.501], [33.842, 50.482], [33.748, 50.47], [33.731, 50.462], [33.645, 50.485], [33.34, 50.525], [33.285, 50.546], [33.234, 50.54], [33.206, 50.518], [33.194, 50.517], [33.098, 50.525], [33.062, 50.538], [33.009, 50.48], [32.973, 50.468], [32.951, 50.444], [32.906, 50.429], [32.878, 50.397], [32.812, 50.388], [32.727, 50.358], [32.691, 50.358], [32.676, 50.368], [32.526, 50.366], [32.5, 50.372], [32.477, 50.406], [32.443, 50.407], [32.407, 50.392], [32.376, 50.409], [32.288, 50.389], [32.243, 50.351], [32.217, 50.343], [32.199, 50.35], [32.139, 50.35], [32.073, 50.378], [32.067, 50.383], [32.089, 50.406], [32.02, 50.42], [32.011, 50.428], [32.008, 50.451], [31.974, 50.475], [31.993, 50.5], [32.031, 50.504], [32.035, 50.525], [32.028, 50.545], [31.962, 50.55], [31.909, 50.593], [31.847, 50.624], [31.797, 50.614], [31.783, 50.576], [31.748, 50.553], [31.687, 50.553], [31.613, 50.518], [31.561, 50.509], [31.497, 50.518], [31.463, 50.5], [31.364, 50.514], [31.328, 50.508], [31.275, 50.521], [31.261, 50.534], [31.258, 50.558], [31.22, 50.562], [31.18, 50.588], [31.186, 50.606], [31.208, 50.61], [31.219, 50.623], [31.213, 50.659], [31.199, 50.676], [31.161, 50.699], [31.158, 50.715], [31.113, 50.724], [31.114, 50.745], [31.089, 50.767], [31.042, 50.756], [30.963, 50.759], [30.931, 50.746], [30.872, 50.755], [30.836, 50.737], [30.794, 50.76], [30.741, 50.757], [30.739, 50.767], [30.771, 50.811], [30.78, 50.844], [30.735, 50.869], [30.655, 50.892], [30.652, 50.91], [30.664, 50.957], [30.649, 50.986], [30.615, 51.004], [30.556, 51.017], [30.532, 51.008], [30.514, 51.013], [30.511, 51.108], [30.531, 51.18], [30.516, 51.225], [30.556, 51.232], [30.557, 51.267], [30.577, 51.289], [30.58, 51.304], [30.638, 51.336], [30.632, 51.364], [30.646, 51.367], [30.618, 51.419], [30.588, 51.427], [30.586, 51.452], [30.594, 51.459], [30.618, 51.46], [30.618, 51.467], [30.589, 51.482], [30.585, 51.509], [30.563, 51.522], [30.584, 51.542], [30.534, 51.553], [30.523, 51.569], [30.543, 51.576], [30.543, 51.583], [30.515, 51.596], [30.515, 51.604], [30.557, 51.624], [30.55, 51.637], [30.57, 51.651], [30.564, 51.665], [30.576, 51.686], [30.57, 51.7], [30.627, 51.709], [30.508, 51.796], [30.737, 51.884], [30.742, 51.898], [30.774, 51.898], [30.801, 51.91], [30.811, 51.918], [30.803, 51.939], [30.858, 51.958], [30.897, 51.998], [30.941, 51.994], [30.95, 52.007], [30.941, 52.02], [30.911, 52.023], [30.925, 52.042], [30.919, 52.059], [30.934, 52.07], [31.096, 52.08], [31.14, 52.075], [31.304, 52.154], [31.764, 52.142], [31.749, 52.164], [31.699, 52.185], [31.682, 52.202], [31.682, 52.23], [31.699, 52.251], [31.631, 52.265], [31.567, 52.311], [31.603, 52.341], [31.608, 52.361], [31.562, 52.398], [31.428, 52.866], [31.366, 52.909], [31.323, 52.977], [31.247, 53.014], [31.319, 53.076], [31.364, 53.089], [31.36, 53.134], [31.379, 53.182], [31.416, 53.2], [31.526, 53.195], [31.638, 53.287], [31.853, 53.111], [31.931, 53.088], [32.01, 53.1], [32.083, 53.082], [32.117, 53.081], [32.152, 53.096], [32.201, 53.098], [32.216, 53.126], [32.268, 53.125], [32.472, 53.262], [32.479, 53.275], [32.456, 53.278], [32.447, 53.289], [32.455, 53.3], [32.481, 53.305], [32.522, 53.296], [32.555, 53.319], [32.523, 53.524], [32.453, 53.546], [32.429, 53.562], [32.401, 53.61], [32.399, 53.635], [32.488, 53.67], [32.481, 53.692], [32.442, 53.714], [32.372, 53.714], [32.29, 53.761], [32.165, 53.782], [32.106, 53.807], [32.084, 53.81], [31.873, 53.777], [31.787, 53.794], [31.745, 53.795], [31.754, 53.82], [31.81, 53.883], [31.838, 53.962], [31.847, 53.992], [31.823, 54.053], [31.771, 54.049], [31.737, 54.094], [31.667, 54.102], [31.583, 54.13], [31.506, 54.144], [31.325, 54.229], [31.31, 54.244], [31.299, 54.273], [31.285, 54.347], [31.249, 54.377], [31.209, 54.448], [31.179, 54.453], [31.168, 54.467], [31.094, 54.479], [31.065, 54.492], [31.09, 54.536], [31.139, 54.583], [31.168, 54.622], [31.129, 54.64], [31.105, 54.668], [30.999, 54.671], [30.996, 54.69], [30.981, 54.706], [30.827, 54.771], [30.771, 54.786], [30.763, 54.802], [30.768, 54.83], [30.826, 54.877], [30.827, 54.903], [30.815, 54.928], [30.917, 54.954], [30.936, 54.973], [30.907, 55.013], [30.913, 55.025], [31.006, 55.023], [31.006, 55.042], [30.97, 55.101], [30.984, 55.131], [30.959, 55.144], [30.96, 55.163], [30.887, 55.205], [30.857, 55.253], [30.804, 55.273], [30.794, 55.286], [30.797, 55.304], [30.811, 55.323], [30.846, 55.351], [30.918, 55.388], [30.919, 55.408], [30.889, 55.433], [30.881, 55.451], [30.887, 55.468], [30.913, 55.48], [30.919, 55.492], [30.899, 55.499], [30.92, 55.534], [30.907, 55.578], [30.953, 55.66], [31.033, 55.702], [31.047, 55.769], [31.187, 55.737], [31.206, 55.718], [31.284, 55.738], [31.318, 55.722], [31.401, 55.734], [31.444, 55.721]], [[55.67, 61.856], [55.729, 61.881], [56.256, 61.659], [56.14, 61.442], [56.135, 61.413], [56.154, 61.379], [56.29, 61.273], [56.318, 61.265], [56.357, 61.285], [56.408, 61.389], [56.58, 61.371], [56.608, 61.391], [56.629, 61.439], [56.663, 61.444], [56.686, 61.47], [57.08, 61.425], [57.107, 61.433], [57.125, 61.452], [58.846, 61.446], [58.873, 61.454], [58.892, 61.476], [58.921, 61.481], [58.979, 61.472], [59.008, 61.485], [59.064, 61.489], [59.115, 61.523], [59.156, 61.559], [59.169, 61.581], [59.252, 61.578], [59.318, 61.608], [59.375, 61.621], [59.401, 61.642], [59.418, 61.682], [59.465, 61.728], [59.472, 61.762], [59.459, 61.788], [59.383, 61.821], [59.433, 61.844], [59.452, 61.875], [59.517, 61.905], [59.537, 61.933], [59.538, 61.958], [59.524, 62.001], [59.485, 62.043], [59.482, 62.107], [59.463, 62.135], [59.506, 62.199], [59.542, 62.229], [59.56, 62.277], [59.597, 62.293], [59.659, 62.352], [59.67, 62.405], [59.656, 62.441], [59.658, 62.458], [59.685, 62.546], [59.678, 62.574], [59.656, 62.593], [59.561, 62.595], [59.521, 62.611], [59.514, 62.632], [59.492, 62.653], [59.486, 62.685], [59.461, 62.706], [59.454, 62.73], [59.48, 62.759], [59.493, 62.841], [59.511, 62.877], [59.51, 62.914], [59.487, 62.95], [59.431, 62.981], [59.342, 62.992], [59.32, 63.017], [59.277, 63.032], [59.292, 63.079], [59.283, 63.11], [59.243, 63.136], [59.18, 63.153], [59.176, 63.197], [59.118, 63.249], [59.112, 63.286], [59.095, 63.308], [59.028, 63.327], [58.982, 63.323], [58.933, 63.334], [58.841, 63.337], [58.716, 63.385], [58.403, 63.357], [58.398, 63.381], [58.3, 63.591], [58.284, 63.611], [58.138, 63.663], [58.091, 63.643], [58.066, 63.603], [57.998, 63.641], [57.986, 63.667], [57.93, 63.717], [57.898, 63.729], [57.862, 63.715], [57.755, 63.597], [57.457, 63.194], [56.798, 63.294], [56.77, 63.287], [56.751, 63.268], [56.701, 63.266], [56.661, 63.218], [56.383, 63.263], [56.368, 63.318], [56.348, 63.34], [56.173, 63.369], [56.14, 63.365], [56.131, 63.4], [56.102, 63.419], [55.718, 63.472], [55.69, 63.467], [55.671, 63.452], [55.541, 63.274], [55.532, 63.238], [55.429, 63.094], [55.369, 63.092], [55.337, 63.07], [55.237, 62.87], [55.233, 62.839], [55.216, 62.822], [55.146, 62.699], [55.122, 62.635], [55.098, 62.624], [55.084, 62.603], [55.085, 62.556], [55.115, 62.526], [55.396, 62.506], [55.207, 62.283], [55.198, 62.247], [55.217, 62.215], [55.472, 62.057], [55.401, 62.004], [55.389, 61.963], [55.401, 61.937], [55.512, 61.837], [55.553, 61.829], [55.67, 61.856]], [[44.102, 66.077], [44.102, 66.074], [44.103, 66.076], [44.102, 66.077]]], [[[42.371, 54.152], [42.408, 54.171], [42.43, 54.209], [42.438, 54.21], [42.492, 54.175], [42.479, 54.145], [42.438, 54.162], [42.374, 54.145], [42.371, 54.152]]]]}, "properties": {"name": "Российская империя", "year": "1521-06-01", "role": "core", "reconstruction": true, "approximate": true, "expansion": true, "base": "контур источника 1500 (historical-basemaps)", "added": [{"name": "Псковская земля", "from": "1510-01-13", "to": null, "act": "упразднение Псковской республики 13.01.1510: вечевой колокол снят, 300 семей выведены в московские уезды", "source": "ПСРЛ т. 5 (Псковские летописи); геометрия - контур Пскова из файла источника 1500 г., не приближение", "kind": "территория", "region": "PSKOV_LAND", "approximate": true, "geometry_source": "Natural Earth admin-1 (современная нарезка - приближение)"}, {"name": "Великое княжество Рязанское", "from": "1521-06-01", "to": null, "act": "присоединение Рязани 1521 (месяц условный): князь Иван Иванович бежал в Литву, княжество обращено в уезд", "source": "ПСРЛ т. 8; ПСРЛ т. 13; геометрия - контур Рязани из файла источника 1500 г., не приближение", "kind": "территория", "region": "RYAZAN_LAND", "approximate": true, "geometry_source": "Natural Earth admin-1 (современная нарезка - приближение)"}, {"name": "Северщина: Брянск, Стародуб, Новгород-Северский, Чернигов, Путивль, Рыльск", "from": "1503-03-25", "to": null, "act": "Благовещенское перемирие 25.03.1503 на шесть лет по итогам войны 1500-1503 гг. (битва на Ведроши 14.07.1500): Литва уступила Москве северские и черниговские земли", "source": "Сборник Русского исторического общества т. 35 (посольские книги по связям с Великим княжеством Литовским); ПСРЛ т. 8; Атлас російського імперіалізму і колоніалізму (УІФ, 2026), розд. 6 - «253 000 км²». Приближено Брянской, Черниговской и Сумской областями (~91 тыс. км²) - это МЕНЬШЕ атласной цифры: Рыльск с Курским Посемьем, Вязьма (1494) и Дорогобуж в выборку не вошли", "kind": "территория", "region": "SEVERSK_1503", "approximate": true, "geometry_source": "Natural Earth admin-1 (современная нарезка - приближение)"}, {"name": "Смоленск и Смоленская земля", "from": "1514-07-31", "to": null, "act": "капитуляция смоленского гарнизона 31.07.1514 после третьей осады; 01.08.1514 Василий III въехал в город", "source": "ПСРЛ т. 8; ПСРЛ т. 13; Атлас УІФ, розд. 7. Приближено современной Смоленской областью", "kind": "территория", "region": "SMOLENSK_LAND", "approximate": true, "geometry_source": "Natural Earth admin-1 (современная нарезка - приближение)"}], "removed": [{"name": "Урянхайский край", "from": null, "to": "1914-04-04", "why": "источник рисует Урянхай внутри Московского царства в срезах 1650 и 1700 - шум обзорного контура; протекторат объявлен 04.04.1914", "region": "TUVA"}, {"name": "Западная Грузия", "from": null, "to": "1813-10-12", "why": "источник держит Имеретию, Мегрелию и побережье внутри империи с 1783 года, хотя Георгиевский трактат 1783 касался только Картли-Кахети: Мегрелия 1803, Имеретия и Абхазия 1810", "region": "GEO_WEST"}, {"name": "Аджария (Батум)", "from": null, "to": "1878-07-01", "why": "источник держит Батум внутри империи с 1783 года, хотя Батумская область получена по Берлинскому трактату 01.07.1878", "region": "GEO_AJARIA"}, {"name": "Приамурье", "from": null, "to": "1858-05-16", "why": "источник держит левобережье Амура внутри империи с 1815 года, хотя граница по Амуру установлена Айгунским договором 16.05.1858. СЕВЕРНЫЙ КРАЙ ВЫЧИТАНИЯ - ПРЯМАЯ ПО 51,5 ГРАДУСА С. Ш.: она отделяет охотское побережье, которое у России было с XVII века, от амурского бассейна, цинского до 1858 года. Настоящей линии здесь не существует - Нерчинский договор 1689 года оставил зону между Удой и Становым хребтом неразграниченной. Линия приближает эту зону, а не рисует границу (решение куратора 28.08.2026: оставить как есть и подписать)", "region": "AMUR_LEFT"}, {"name": "Приморье", "from": null, "to": "1860-11-02", "why": "источник держит Приморье внутри империи с 1815 года, хотя Уссурийский край получен по Пекинскому трактату 02.11.1860", "region": "PRIMORYE"}, {"name": "Башкирские земли", "from": null, "to": "1740-01-01", "why": "ПОДДАНСТВО 1554-1557 ГОДОВ БЫЛО СЛОВАМИ (правка 28.08.2026 по итогам аудита). После него башкиры воевали с империей почти двести лет: 1662-1664, 1681-1684 (Сеитовское), 1704-1711 (в эти годы у Башкирской орды был свой хан), 1735-1740. Последняя война и решила дело: указ о посылке войск 16.02.1736, кампании Кирилова, Татищева и Урусова, по подсчётам историков 45-60 тысяч убитых и пленных башкир и 1175 сожжённых селений. Только после этого империя завела здесь управление: Оренбургская экспедиция, Оренбургская губерния, сам Оренбург заложен в 1743 году. Красное приходит 1740 годом. Уфа до того - точка, как Якутск до 1684-го. Разбор - data/crosscheck/control_vs_act.csv", "region": "BASHKIRIA"}, {"name": "Черемисские земли: Марий Эл, Чувашия, Удмуртия, Мордовия", "from": null, "to": "1585-01-01", "why": "КАЗАНЬ ВЗЯЛИ В 1552-м, А ЛЕСНУЮ ЗЕМЛЮ - НЕТ (правка 28.08.2026). За взятием Казани пошли три черемисские войны подряд: 1552-1557, 1571-1574, 1581-1585 - марийцы, чуваши, эрзя, мокша и татары против царской администрации. Весной 1585 года, по летописному выражению, «черемиса добила челом... вековым миром»; тогда же поставлены Козьмодемьянск, Царевококшайск и Царевосанчурск - то есть управление на этой земле завелось только теперь. Татарстан и Ульяновская область в вычитание НЕ входят: сама Казань взята и удержана с 1552 года. Разбор - data/crosscheck/control_vs_act.csv", "region": "CHEREMIS_LAND"}, {"name": "Младший жуз", "from": null, "to": "1824-01-01", "why": "ПРИСЯГА ХАНА - НЕ УПРАВЛЕНИЕ СТЕПЬЮ (правка 28.08.2026). Абулхаир присягнул 19.02.1731, но степь этим имперской не стала: в 1783-1797 годах здесь четырнадцать лет шла война Срыма Датова. Управление появилось Уставом об оренбургских киргизах 1824 года - ханская власть упразднена, заведено окружное управление. Это ровно тот же признак, по которому карта уже датирует Средний жуз Уставом о сибирских киргизах 22.06.1822: оставлять Младший жуз на присяге 1731 года было непоследовательно. Разбор - data/crosscheck/control_vs_act.csv", "region": "KZ_YOUNGER"}, {"name": "Кабарда", "from": null, "to": "1822-01-01", "why": "ЕРМОЛОВСКАЯ ЛИНИЯ, А НЕ КОНТУР 1783 ГОДА (правка 28.08.2026). До этой правки Кабарда краснела просто потому, что её держал внутри себя контур источника на 1783 год, своей строки у неё не было вовсе. С 1806 по 1822 год в Кабарде работали шариатские суды - мехкеме, то есть своя юрисдикция. В 1822 году Ермолов построил укрепления по Малке, Баксану, Чегему, Нальчику, Урвани, Череку и Уруху, закрыв выходы с гор на равнину, распустил мехкеме и учредил в Нальчике Временный суд под своим надзором. Разбор - data/crosscheck/control_vs_act.csv", "region": "KABARDA"}, {"name": "Ингушетия", "from": null, "to": "1858-07-01", "why": "ТА ЖЕ ВОЙНА, ЧТО В ЧЕЧНЕ, НО СВОЕЙ СТРОКИ НЕ БЫЛО (правка 28.08.2026). Земля краснела контуром источника с 1783 года - за год до Владикавказской крепости и за двадцать семь лет до Назрановского укрепления, которые по нашему же правилу остаются точками. В мае-июне 1858 года около пяти тысяч повстанцев осадили Назрановское укрепление и звали на помощь имама Шамиля; восстание подавил Барятинский, руководителей казнили и сослали. Красное приходит после этого - на год раньше чеченской даты 19.08.1859. Месяц взят по подавлению, точный день не выверен. Разбор - data/crosscheck/control_vs_act.csv", "region": "INGUSHETIA"}, {"name": "Якутия", "from": null, "to": "1684-01-01", "why": "ОСТРОГ - НЕ ЗАХВАТ (решение куратора 28.08.2026). Ленский острог, позже Якутск, поставлен Петром Бекетовым 25.09.1632, и сам источник называет эту дату УСЛОВНОЙ датой вхождения. Якуты подняли СЕМЬ антиколониальных восстаний: 1633-1634, 1636-1637, 1639-1640, 1642, 1675-1676, 1681-1682 и 1683-1684. В 1642 году восстали якуты и тунгусоязычные народы по Лене, воевода Пётр Головин жёг поселения и убил сотни людей. Население якутов упало на 70 процентов между 1642 и 1682 годами, главная причина - оспа и другие завозные болезни. Красное приходит после последнего восстания. До того на месте Якутска стоит острог точкой. Разбор - data/crosscheck/siberia_control_vs_act.md", "region": "YAKUTIA"}, {"name": "Арктическая Якутия: Яна, Индигирка, Алазея, Колыма, Оленёк и Анабар", "from": null, "to": "1822-01-01", "why": "ВТОРАЯ СТУПЕНЬ ЗАХВАТА ЯКУТИИ (правка 28.08.2026 по вопросу куратора «я не вижу как земли захватываются»). Красное по всей республике приходило одной датой 1684 года - после последнего якутского восстания. Но восстания шли в Ленско-Амгинском междуречье, вокруг Якутска, а тундра и лесотундра севера жили иначе: там стояли ясачные зимовья, куда кочевники приходили сами, и юкагиры дрались с империей до конца XVII века - восстание Пелевы 1645, побег аманатов на Алазее 1649, уничтожение отряда Фёдора Чюкичёва ходынцами 1661, восстание омолоевских и хромовских юкагиров 1663-1664, последнее восстание Канивы 1681-1684 с осадой Анадырского острога. Управление на самой земле завелось не тогда: в 1805 году из Жиганского и Зашиверского комиссарств собрано Верхоянское комиссарство, и только по Учреждению для управления Сибирских губерний 1822 года Якутская область разделена на пять округов - Якутский, Вилюйский, Олёкминский, Верхоянский и Среднеколымский, - то есть на севере появились свои окружные центры с постоянной администрацией. Красное здесь приходит 1822 годом. Геометрия - тринадцать современных улусов OpenStreetMap (data/sakha/arctic_uluses.geojson, 1,5 млн км²): Анабарский, Оленёкский, Булунский, Жиганский, Усть-Янский, Верхоянский, Эвено-Бытантайский, Аллаиховский, Абыйский, Момский, Верхнеколымский, Среднеколымский, Нижнеколымский. Якутск, Вилюйск и Олёкма в группу не входят - там красное с 1684 года. Разбор - data/crosscheck/siberia_control_vs_act.md", "region": "YAKUTIA_ARCTIC"}, {"name": "Бурятия и Забайкалье", "from": null, "to": "1727-08-20", "why": "Сеть острогов в Прибайкалье стоит с середины XVII века, но контроля не даёт: в 1658 году буряты балаганской степи восстали против Ивана Похабова, и почти всё население, подчинённое Балаганскому острогу, откочевало в Халху - одну часть казаки подавили силой, другая ушла. Нерчинский договор 1689 года провёл первую границу, а Буринский договор 20.08.1727 разделил бурятские земли между империей и Цинами. Разбор - data/crosscheck/siberia_control_vs_act.md", "region": "BURYAT_LAND"}, {"name": "Хакасия (Хонгорай)", "from": null, "to": "1757-01-01", "why": "Полтора века войны за Средний Енисей. 1608 - первые ясачные сборщики; 1667 - кыргызы с ойратами осадили Красноярский острог; 1687 - Еренак Ишеев погиб в бою у Телецкого озера; 1692 - красноярские казаки ударили по тубинцам, погибло около 500 воинов. ПЕРЕЛОМ НЕ ЗА ИМПЕРИЕЙ: в 1703 году джунгарский хунтайджи Цэван-Рабдан увёл кыргызов Хонгорая на Эмель - около 15 тысяч человек, осталось 600 «луков». Только после этого поставлены Абаканский острог (1707) и Саянский (1718). Год фактического закрепления источник называет прямо: 1757, клятва хонгорцев о «вечном подданстве Белого царя». Разбор - data/crosscheck/siberia_control_vs_act.md", "region": "KHAKASSIA"}, {"name": "Горный Алтай", "from": null, "to": "1756-09-30", "why": "Алтай держали телеуты и Джунгария. В 1755 году Джунгарию захватили Цины и их войска вторглись в Горный Алтай; с осени 1755 года алтайские зайсаны просят принять их в подданство, спасаясь от разорения. 02.05.1756 Елизавета Петровна подписала указ о принятии; с 01.06.1756 в крепостях Колывано-Кузнецкой линии шёл приём, 21.06.1756 в Бийскую крепость приехали зайсаны Буктуш, Бурут, Черен, Номык и демичи Менгош Сергеков; к концу сентября 1756 года присягнуло большинство кочевого населения. Разбор - data/crosscheck/siberia_control_vs_act.md", "region": "ALTAI_MTN"}, {"name": "Камчатка", "from": null, "to": "1748-01-01", "why": "ОСТРОГ - НЕ ЗАХВАТ. Атласов 1697-1699, Верхне-Камчатский острог 1697, Нижне-Камчатский 1703. Дальше полвека войны: 1700 коряки уничтожили отряд Потапа Сюрюкова, 1705 убит отряд Фёдора Протопопова, 1708 из семнадцати человек отряда Петра Чирикова убиты семеро, 06.08.1714 казаки штурмом заняли корякскую крепость Большой Посад, 1731-1732 восстание ительменов Фёдора Харчина. ПОСЛЕДНЕЕ ВЫСТУПЛЕНИЕ - 1746 год, и оно оказалось не ительменским, а корякским: восстали карагинцы и укинцы восточного побережья. В середине марта 1746 убиты ясачные сборщики в Ентанском острожке (пять казаков и шесть новокрещенных), 26.04.1746 налёт на Столбовской острожек - девятнадцать убитых, двадцать пленных; 18.05.1746 братья Алексей и Иван Лазуковы явились с повинной в Нижнекамчатск, и активных действий больше не было; к 1748 году участников переловили и выслали в Охотск. Разбор - data/crosscheck/siberia_control_vs_act.md", "region": "KAMCHATKA"}, {"name": "Барабинская степь", "from": null, "to": "1755-01-01", "why": "ДВОЕДАНСТВО. Барабинские татары платили ясак и Русскому царству, и джунгарскому контайше - это прямо записано в документе 1731 года. Пока народ платит дань двум державам, ни одна из них им не распоряжается. Двоеданство кончилось с самим Джунгарским ханством, разгромленным Цинами в 1755 году. ОГОВОРКА: точной даты последней выплаты джунгарам источник не даёт, 1755 год взят по гибели Джунгарии. Разбор - data/crosscheck/siberia_control_vs_act.md", "region": "BARABA"}, {"name": "Томская и Кузнецкая земли", "from": null, "to": "1703-01-01", "why": "Томск поставлен в 1604 году КАК КРЕПОСТЬ ПРОТИВ джунгар и енисейских кыргызов, Кузнецк в 1618-м. Набеги шли весь век: 1614 на окрестности Томска, 1621 на Кузнецкий округ, при Еренаке Ишееве кыргызы больше двадцати лет держали в страхе Красноярск, Кузнецк, Томск, Ачинск, Канск, Енисейск и Нижнеудинск; 18-25.09.1700 осада Кузнецка. Набеги прекратились только в 1703 году, когда джунгары увели енисейских кыргызов. Разбор - data/crosscheck/siberia_control_vs_act.md", "region": "TOMSK_KUZNETSK"}, {"name": "Прибайкалье", "from": null, "to": "1667-01-01", "why": "ПРИБАЙКАЛЬЕ И ЗАБАЙКАЛЬЕ РАЗВЕДЕНЫ (правка 28.08.2026): обе земли краснели 20.08.1727 по Буринскому договору, но этот договор делил ЗАбайкальских бурят между империей и Цинами, а к балаганской степи отношения не имеет. Здесь свой ход событий: Балаганский острог поставлен в 1654 году, в июне 1658 года унгинские и окинские буряты восстали против приказчика Ивана Похабова - поводом стала гибель двух окинцев от его мучений, - перебили сборщиков ясака, и почти всё население, подчинённое острогу, откочевало в Халху. В 1659 году ясака сюда почти не поступало, острог свою ясачную роль потерял. Часть откочевавших вернулась в 1667 году и снова стала платить ясак - с этого года земля и краснеет. ОГОВОРКА: вернулась ЧАСТЬ, и точной доли источник не даёт; вторая возможная дата - 1727 год, когда граница закрыла сам путь откочёвки. Разбор - data/crosscheck/siberia_control_vs_act.md", "region": "IRKUTSK_LAND"}, {"name": "Чуйские двоеданцы: Кош-Агач и Улаган", "from": null, "to": "1866-01-01", "why": "ДВОЕДАНСТВО. Указ Елизаветы 02.05.1756 и присяга осени 1756 года закрыли Горный Алтай, но НЕ его юго-восток: телесы и теленгиты по Чуе, Аргуту и Чулышману платили дань И РОССИИ, И ЦИНСКОМУ КИТАЮ ещё сто десять лет. Двоеданство кончилось в 1860-х: последний платёж Китаю - 1866 год, после Чугучакского протокола 1864 года. Геометрия - Кош-Агачский и Улаганский районы OpenStreetMap (data/altai/dvoedantsy.geojson). Разбор - data/crosscheck/siberia_control_vs_act.md", "region": "ALTAI_DVOEDAN"}, {"name": "Таймыр: земли нганасан", "from": null, "to": "1930-12-10", "why": "ЗАХВАТА НЕ БЫЛО ВОВСЕ (правка 28.08.2026 по вопросу куратора «как таймыр захватывали?»). До 28.08.2026 карта краснела здесь с 1666 года - по подавленному восстанию авамских нганасан, то есть по тому же принципу «сопротивление кончилось - земля наша», который для тундры не работает: чтобы землёй распоряжаться, на ней надо быть. Ясак с предков нганасан брали по группам - в 1618 году с пясидских самоедов, в 1625-м с кураков и ванядов, в 1627-м с тидирисов и части тавгов, - но брали его в ЗИМОВЬЯХ, куда кочевники приходили сами: Авамском, Есейском, Хатангском, Дудинском. В тундру администрация не ходила. Сопротивление шло весь XVII век (1666 - убито больше тридцати служилых и промышленных людей и четверо тунгусов; 1683 - разгром Есейского зимовья ванядами) и продолжалось в первой половине XVIII века, после чего авамское племя рассеялось от неудачных восстаний и голода. Управление на самой земле завелось только в советское время: 1921 - советская власть впервые дошла до нганасан, 1925 - родовые советы переделаны в советские, 10.12.1930 постановлением ВЦИК образован Таймырский (Долгано-Ненецкий) национальный округ с центром в Дудинке и четырьмя районами (Авамский, Дудинский, Хатангский, Усть-Енисейский), 1931-1938 - коллективизация, 1935 - Норильск и Норильлаг, оседание нганасан в посёлках Усть-Авам, Волочанка и Новая - 1940-1960-е. Красное приходит 10.12.1930, как на Чукотке оно приходит с постом Ново-Мариинск 1889 года, а не с ясаком и не с острогом. Разбор - data/crosscheck/siberia_control_vs_act.md", "region": "TAIMYR"}, {"name": "Южные Курилы: Итуруп, Кунашир, Шикотан, Хабомаи", "from": null, "to": "1945-09-03", "why": "ИМПЕРИЯ ИМИ НЕ РАСПОРЯЖАЛАСЬ ДО 1945 ГОДА (правка 28.08.2026). Симодский трактат 1855 года провёл границу между Итурупом и Урупом: южные острова японские. Красное приходит только с Курильской десантной операцией 18.08-01.09.1945, полная занятая гряда - к началу сентября; дата взята та же, что в слое Второй мировой, 03.09.1945. Геометрия - Южно-Курильский округ плюс Итуруп, вырезанный из Курильского округа по 45,62 с.ш.", "region": "KURILS_SOUTH"}, {"name": "Горная Осетия", "from": null, "to": "1831-01-01", "why": "РАВНИНА И ГОРЫ РАЗВЕДЕНЫ (правка 28.08.2026). Осетинские старшины ездили в Моздок ещё в октябре 1774 года, и равнина краснеет по источнику с 1783 года - но горные общества имперская администрация не держала. Летом 1830 года отряд генерала Абхазова вышел из Владикавказа (08.07.1830) с восемью орудиями и особой командой для подрыва башен; кобанцы под предводительством части Тулатовых сопротивлялись. Уже в конце октября - начале декабря 1830 года Паскевич доносил в Петербург, что осетины не слушают местных властей, - поэтому дата поставлена на конец года, а не на день выступления отряда. Геометрия - южнее 42,95 с.ш., Владикавказ на равнине остаётся красным. Разбор - data/crosscheck/act_vs_control_audit_2026-08-28.md", "region": "OSSETIA_MTN"}, {"name": "Приангарье: Богучанский и Кежемский края", "from": null, "to": "1670-01-01", "why": "ЗАМЕЩЕНИЕ НАСЕЛЕНИЯ, А НЕ УПРАВЛЕНИЕ ИЗДАЛЕКА (правка 28.08.2026). Земля краснела с 25.09.1632 - по дате Якутского острога. На самом деле здесь свой ход: Рыбинский острог поставлен в 1628 году Петром Бекетовым, посланным подавить нижнеангарских тунгусов после разгрома отряда Максима Перфильева; в 1639-1640 годах тунгусы-кинтегиры князца Пловунчи и князцы Нетуйко и Нюкейко громили зимовья и склады по Илиму и Верхней Тунгуске; в 1646 году енисейский воевода Фёдор Уваров доносил об обложении ясаком немирных тунгусов. Земля стала имперской не ясаком, а людьми: Кежма основана в 1665 году, к 1670-му вокруг Рыбинского острога стояло уже семь поселений, перепись 1744 года застаёт восемь. Красное приходит 1670 годом - по заселению, а сами эвенки к XVIII веку откочевали на север, на Подкаменную Тунгуску. Мотыгинский округ в вычитание не вошёл: геометрию OpenStreetMap по нему выгрузить не удалось", "region": "ANGARA"}, {"name": "Верхняя Печора", "from": null, "to": "1639-04-04", "why": "КАЗНА РАСПОРЯЖАЕТСЯ РЕКОЙ - 4 апреля 1639 года. Царская грамота чердынскому воеводе Дорофею Остафьеву по челобитью крестьянина Лаврушки Возмищева отдаёт ему за деньги на пять лет рыбную ловлю на нижнем Илыче (приток верхней Печоры, устье в девяти километрах от Палью), полтора рубля в год, - и называет это место «в Чердынском уезде»: «в Чердынском де уезде, на реке Илыче, выше усть Палги реки, за две версты вниз до устья тое ж Илыча реки, Пермичи, Чердынцы посадские люди и уездные крестьяне ежелеть зверь бьют и рыбу ловят издавна, а оброку де с тое реки в нашу казну никто не платит… и ты б тое реку Илычь отдал ему Лаврушке на оброк на пять лет» (Акты исторические, т. III, № 203, с. 356-357). Карта держится на таком признаке: не объявление земли своей, а плата за конкретную реку, с проверкой, не платит ли кто раньше. Земля при этом мансийская: Долгих («Очерки по этнической истории ненцев и энцев», 1970, с. 35) пишет, что Печору от устья Илыча до устья Щугора в XVI-XVII веках осваивали обские угры. Более ранние даты слабее: в 1607 и 1611 годах Чердынь собирает дань с печорских людей (АИ, т. II, №№ 76, 82, 323) - это распоряжение людьми, а не землёй, и сама привязка печорского юрта читается через реконструкцию гидронима. ОГОВОРКА: цитата снята с OCR дореформенного издания, перед витриной сверить со сканом. ВОЗРАЖЕНИЕ, которое надо называть самим: Чагин («Вестник Пермского университета. История», 2015, вып. 1(28)) относит чердынско-печорскую связку к XVIII веку и старше, но он смотрит на верхнюю Печору через заселение, а грамота говорит про платёж за угодье. Разбор и что искать дальше - data/crosscheck/pechora_upper_2026-08-29.md", "region": "PECHORA_UPPER"}, {"name": "Ненецкие тундры: Канин, Тиман, Колгуев", "from": null, "to": "1929-07-15", "why": "ТОТ ЖЕ СЛУЧАЙ, ЧТО ЯМАЛ И ТАЙМЫР: кочевое оленеводческое население, дань через дальний укреплённый пункт (здесь Пустозерск), своей постоянной администрации нет до советского округа. Права ненцев Москва знала давно - в 1545 году великий князь прислал «грамоту гневным словом, пошто у канинские и тиминские самояди зверинные угодеи и рыбные ловли пермеки, пинежане, важане поимали их дедины и отчины», - но землёй не распоряжалась. Ненецкий округ образован постановлением Президиума ВЦИК 15.07.1929, тогда же появился Канинско-Тиманский район; 20.12.1929 в округ включена Пустозёрская волость. Разбор - data/crosscheck/north_1450_2026-08-28.md", "region": "NENETS"}, {"name": "Эвенкия и Туруханский север", "from": null, "to": "1930-12-10", "why": "ТА ЖЕ ИСТОРИЯ, ЧТО НА ТАЙМЫРЕ (правка 28.08.2026). Земля краснела с 25.09.1632 - по дате Якутского острога, который стоит за две тысячи вёрст отсюда. С 1601 по 1930 год постоянное присутствие империи здесь - это ОДИН переносимый пост: Мангазея (1601), после двух пожаров и указа 1672 года перенесена на Енисей как Новая Мангазея, она же Туруханск. Вглубь тайги пост не двигался. Ясак брали в зимовьях по списку ясачной книги 1629 года (Хантайское, Есейское, Пясидское, Верхотазское, Худасейское, Туруханское, Имбацкое, Закаменное), куда люди приходили сами. Насколько это было управление, видно по датам: 1600 - у Мангазеи разбит отряд, погибло около тридцати человек; 1679 - юрацкая самоядь напала на семьи сборщиков, и место старой Мангазеи бросили совсем; 1683 - сожжено Есейское зимовьё. В конце XVIII века на весь край 4878 человек, из них русских 802 души мужского пола. Первое деление территории на местные единицы - 1925 год (восемь районов, из них пять туземных, и 24 родовых совета на 1,57 млн км² при 23,6 тыс. жителей); первые исполкомы в самой тайге - 1927 (Илимпийский на Нижней Тунгуске, Байкитский на Подкаменной); 10.12.1930 постановлением Всероссийского центрального исполнительного комитета образованы Эвенкийский национальный округ с центром в Туре и Туруханский район. Красное приходит этой датой - тем же указом, что и на Таймыре. Оседание кочевого хозяйства тянулось до 1950-х. Разбор - data/crosscheck/siberia_control_vs_act.md", "region": "EVENKIA_TURUKHANSK"}, {"name": "Ямал и Гыдан: Ямало-Ненецкий округ", "from": null, "to": "1930-12-10", "why": "ОБДОРСК - ТОЧКА, А НЕ ЗЕМЛЯ (правка 28.08.2026). Острог в устье Оби поставлен в 1595 году и держал торговлю и ясачный сбор, а не тундру: в 1607 году около двух тысяч человек два месяца осаждали Берёзов, в 1679 году самоеды пытались взять сам Обдорск - через восемьдесят четыре года после его основания. Ясак ненцы везли в острог сами, к зимнему сбору и Обдорской ярмарке; на Тазу служилые люди, по их собственным словам, «за ними для ясаку не ходят… да и от зимовий своих отходити не смеют». Устав об управлении инородцев 1822 года записал ненцев в «бродячих» - без земских сборов, с родовым судом и правилом посещать их не чаще раза в год, а в 1827 году в этот разряд перевели всех инородцев Северной Оби: империя предпочла мир доходу и от управления этой землёй отказалась прямо. Движение Ваули Пиеттомина 1830-х годов кончилось тем, что его схватили обманом в Обдорске, а не силой в тундре. Красное приходит 10.12.1930, когда постановлением Всероссийского центрального исполнительного комитета образованы Ямальский (Ненецкий) национальный округ и районы Ямальский, Тазовский, Надымский и Приуральский. ОГОВОРКА: устойчивым это управление стало не сразу - в декабре 1934 года мандалада разогнала Нейтинский, Тамбейский и Тиутейский национальные советы, и порядок восстановил отряд ОГПУ; второе восстание - июнь 1943 года, бой у горы Недь-Ю. Разбор - data/crosscheck/siberia_control_vs_act.md", "region": "YAMAL_NENETS"}, {"name": "Минусинская котловина", "from": null, "to": "1757-01-01", "why": "Правобережье Енисея - часть Хонгорая, и по нему идёт та же дата, что по Хакасии: 1757, клятва хонгорцев о «вечном подданстве Белого царя». До 1703 года эту землю держали енисейские кыргызы, пока джунгары не увели их на Эмель - около 15 тысяч человек. Разбор - data/crosscheck/siberia_control_vs_act.md", "region": "MINUSINSK"}, {"name": "Красноярский, Ачинский и Канский уезды", "from": null, "to": "1703-01-01", "why": "Красноярский острог поставлен в 1628 году, но при Еренаке Ишееве кыргызы больше двадцати лет держали в страхе Красноярск, Кузнецк, Томск, Ачинск, Канск, Енисейск и Нижнеудинск. 15.07.1679 под Красноярск пришли кыргызские, алтырские и кизыльские воинские люди: сожгли две деревни, побили служилых и пашенных крестьян, а жён и детей увели в плен. В сентябре 1700 года кыргызские отряды снова напали на Красноярск. Набеги прекратились в 1703 году, когда джунгары увели кыргызов. Разбор - data/crosscheck/siberia_control_vs_act.md", "region": "KRASNOYARSK_SOUTH"}, {"name": "Корякские земли", "from": null, "to": "1757-01-01", "why": "Восстание 1703-1715 годов: сожжены остроги, убито около 200 казаков. Корякские войны 1745-1757: в ноябре 1745 разбит отряд сержанта Мамурова, Акланский острог несколько дней в осаде; войны 1744 и 1753-1754; в 1753 осаждена Гижигинская крепость. Коряков было 10-11 тысяч в 1700 году и 4800 в 1800-м - оспа 1769-1770 годов и война с казаками. Разбор - data/crosscheck/siberia_control_vs_act.md", "region": "KORYAK_LAND"}, {"name": "Чукотка", "from": null, "to": "1889-08-03", "why": "ЗАВОЕВАНИЯ НЕ БЫЛО (решение куратора 28.08.2026). Сенатский указ 1742 года велел непокорных чукчей «искоренить вовсе»; 14.03.1747 отряд майора Павлуцкого разбит на реке Орловой; указом 04.05.1764 Анадырская партия и острог ликвидированы, с 1765 года людей вывели, в 1771-м укрепления срыли. В докладе Сената Екатерине: приводить чукчей в подданство «нужды и пользы нет». Протокол 1778 года в Гижигинской крепости подписал ОДИН тойон из четырёх - Амулят Хергынтов; указом 11.10.1779 чукчи получили десять лет без ясака и независимость во внутренних делах, а империя - право выставить деревянные доски со своим гербом. Красное приходит только 03.08.1889, когда начальник Анадырской округи Гриневецкий основал ПОГРАНИЧНЫЙ пост Ново-Мариинск; саму округу учредили указом 09.07.1888 как форпост против американской экспансии после продажи Аляски. До этой даты на Чукотке красятся только остроги точками (data/ostrogs/registry.csv). Разбор - data/crosscheck/siberia_control_vs_act.md", "region": "CHUKOTKA"}, {"name": "Чечня южнее Терека", "from": null, "to": "1859-08-19", "why": "война сопротивления: завоевание Чечни Евдокимовым: просеки, голод, взятие Ведено в апреле 1859 г.. Пруф: кампания «Просеки и голод: завоевание Чечни Евдокимовым (1857-1859)» (C1168), последняя дата окна - 19.08.1859; падение Ведено датировано в кампании «Подавление восстаний 1860-1861 годов, казнь Байсангура и расстрел зикристов у Шали (1860-1864)» (C1169). Территория покрашена как контур источника 1783 г. (плюс Гюлистанский мир 12.10.1813 де-юре)", "region": "CHECHNYA_WAR"}, {"name": "Горный Дагестан (ядро имамата)", "from": null, "to": "1859-08-25", "why": "война сопротивления: сдача имама Шамиля у аула Гуниб 25.08.1859. Пруф: кампания «Подавление восстаний 1860-1861 годов, казнь Байсангура и расстрел зикристов у Шали (1860-1864)» (C1169): «Двадцать пять лет чеченцы и дагестанцы держали против империи собственное государство - имамат... В 1859 году имамат пал: в апреле войска взяли его столицу Ведено, в августе у дагестанского аула Гуниб сдался сам Шамиль». Территория покрашена как контур источника 1783 г. (плюс Гюлистанский мир 12.10.1813, ПСЗРИ т. 32 № 25466)", "region": "DAGESTAN_MTN"}, {"name": "Кумыкская плоскость, Салатавия и Аух", "from": null, "to": "1859-08-25", "why": "война сопротивления: сдача имама Шамиля у аула Гуниб 25.08.1859; следом кумыкская плоскость сведена в Кумыкский округ Терской области. Пруф: сама имперская администрация писала, что земли не держит. АКАК т. 6 ч. 2, док. 958, предписание Ермолова ген.-м. Тихтеву от 30.04.1826: «Въ Андреѣ учрежденъ судъ, но дѣйствіе онаго пріостановлено всеобщимъ возмущеніемъ и нѣкоторыми безпокойствами въ самомъ Андреѣ, которыя главнаго Кумыкскаго пристава понудили удалиться изъ города въ кр. Внезапную». АКАК т. 9, обзор конца 1830-х: «Укрѣпленія, построенныя въ Кумыкской землѣ - Внезапная, Умахан-юртъ и Таш-кичу, не охраняли Кумыковъ отъ нападеній и не упрочивали сообщенія». АКАК т. 12, док. 561, записка Главного штаба Кавказской армии, июль 1858 г.: «Кумыкскій округъ образуется изъ Кумыковъ и Ногайцевъ, а со временемъ къ нему присоединятся и тѣ изъ прилежащихъ обществъ, которыя могутъ намъ покориться» - округа ещё нет, соседи не покорены. Территория покрашена как контур источника 1783 г.", "region": "KUMYK_PLAIN"}, {"name": "Черкесия: левобережье Кубани", "from": null, "to": "1864-05-21", "why": "война сопротивления: окончание Кавказской войны, парад в Кбаадэ 21.05.1864. Пруф: дата уже курируется в таблице приобретений выше (A CIRCASSIA 1864-05-21): АКАК т. 12; Берже А.П. Выселение горцев с Кавказа. Территория покрашена как контур источника 1783 г.", "region": "CIRCASSIA_LEFT"}], "source": "КУРИРУЕМЫЙ СРЕЗ РАСПОЛЗАНИЯ (19.08.2026): контур источника 1500 плюс приобретения по актам, действующие на 1521-06-01, минус территории, которых на эту дату у империи ещё или уже нет. Приобретения приближены современными административными единицами (Natural Earth admin-1), кроме Русской Америки - её контур берём из среза источника 1815 г. Даты актов по старому стилю, как в ПСЗРИ. Собрано tools/build_expansion.py, проверка - tools/check_expansion.py по data/crosscheck/expansion.csv"}}]}