{"type": "FeatureCollection", "features": [{"type": "Feature", "geometry": {"type": "Polygon", "coordinates": [[[28.2326259, 45.4632545], [28.2446422, 45.4596425], [28.2628383, 45.4541035], [28.2748546, 45.4480824], [28.2820644, 45.4389289], [28.2854976, 45.4312196], [28.2861842, 45.4232683], [28.2841243, 45.4141109], [28.2834376, 45.4020594], [28.2858409, 45.394104], [28.2930507, 45.3861474], [28.305067, 45.3736076], [28.31571, 45.3579288], [28.3390559, 45.3260756], [28.3551921, 45.3176267], [28.3939876, 45.3055546], [28.4616222, 45.2850261], [28.4921779, 45.2758462], [28.5168971, 45.2647318], [28.5447063, 45.2584487], [28.5601558, 45.2495064], [28.5728587, 45.2466058], [28.6291637, 45.2432217], [28.6549129, 45.2388703], [28.6932222, 45.2281328], [28.7074412, 45.2241215], [28.7184276, 45.2236379], [28.7300888, 45.2259186], [28.7366402, 45.2294607], [28.7401079, 45.2313036], [28.7541841, 45.2346885], [28.7624239, 45.2356555], [28.7730669, 45.2361391], [28.7830233, 45.2373479], [28.7909197, 45.2402489], [28.7940096, 45.242908], [28.7940096, 45.2491928], [28.7916063, 45.2554768], [28.7861132, 45.2588603], [28.77959, 45.2607936], [28.7686037, 45.2612769], [28.7613939, 45.2644183], [28.7552141, 45.2728752], [28.7510942, 45.2830218], [28.7545275, 45.2876113], [28.7600206, 45.2905098], [28.768947, 45.2914759], [28.7802767, 45.2907513], [28.7878298, 45.2905098], [28.7946962, 45.2926835], [28.7998461, 45.2987213], [28.8056826, 45.3059657], [28.8060259, 45.3105534], [28.8025927, 45.3139335], [28.7929796, 45.3175549], [28.7833666, 45.3202104], [28.7802767, 45.3240728], [28.78165, 45.3279348], [28.7867998, 45.3308312], [28.7964128, 45.3334861], [28.8084291, 45.3351756], [28.8180422, 45.3349342], [28.8228487, 45.3334861], [28.8279985, 45.3289003], [28.8340989, 45.3237799], [28.8440546, 45.3180607], [28.8489563, 45.3164656], [28.8537477, 45.3156235], [28.8613008, 45.3156235], [28.8671373, 45.3163478], [28.8726305, 45.3158649], [28.8788103, 45.312002], [28.8860201, 45.3059657], [28.8966631, 45.2987213], [28.9124559, 45.2876113], [28.9255022, 45.2810892], [28.9368318, 45.2798814], [28.9443849, 45.2801229], [28.9502214, 45.2827802], [28.953998, 45.2871282], [28.9557146, 45.2950987], [28.953998, 45.3004117], [28.9481615, 45.309829], [28.9533113, 45.3161064], [28.9612078, 45.3269693], [28.9694475, 45.3383129], [28.9794039, 45.3489304], [28.9886736, 45.3559271], [28.9962267, 45.3580984], [29.0113329, 45.3595458], [29.0181993, 45.3609932], [29.0247225, 45.3626818], [29.0329622, 45.3621994], [29.0422319, 45.3617169], [29.0449785, 45.3634055], [29.0511583, 45.3699181], [29.0569948, 45.373777], [29.0652346, 45.3776357], [29.0696978, 45.3793238], [29.0724443, 45.3831822], [29.0765642, 45.3848701], [29.0818857, 45.3863168], [29.0945887, 45.3874019], [29.1021418, 45.387643], [29.1091799, 45.3864374], [29.115188, 45.383785], [29.1201662, 45.3819765], [29.1277193, 45.3824587], [29.1478037, 45.3870402], [29.1720079, 45.3955993], [29.1793894, 45.3996976], [29.1841959, 45.409701], [29.1876291, 45.4125932], [29.2032503, 45.4168107], [29.2113184, 45.4170517], [29.2204164, 45.4198231], [29.2302011, 45.427052], [29.2380976, 45.4322322], [29.245994, 45.4340391], [29.2564653, 45.4333164], [29.2727732, 45.4278953], [29.2787813, 45.4269316], [29.2861628, 45.4260882], [29.2930292, 45.4274135], [29.300754, 45.4303048], [29.3101953, 45.438496], [29.3192934, 45.4459634], [29.3239283, 45.4472882], [29.3294214, 45.4478903], [29.3345713, 45.4472882], [29.3392061, 45.4451204], [29.352939, 45.4362074], [29.365642, 45.4360869], [29.3766283, 45.4383755], [29.3862413, 45.4404232], [29.3912195, 45.4405436], [29.397056, 45.4394596], [29.4040941, 45.4386164], [29.4157671, 45.4413867], [29.4307016, 45.4425911], [29.4383904, 45.4446325], [29.4519516, 45.4480046], [29.4641396, 45.4511357], [29.4744393, 45.4541462], [29.4792458, 45.4548687], [29.4888588, 45.4543871], [29.4960686, 45.4535441], [29.5013901, 45.4530625], [29.5058119, 45.4527945], [29.5086333, 45.4524175], [29.5127309, 45.4516164], [29.5177689, 45.4500142], [29.5222024, 45.4481763], [29.527039, 45.4455371], [29.5316068, 45.4420966], [29.5361747, 45.4384674], [29.5395334, 45.4352622], [29.5430264, 45.4311611], [29.5450416, 45.4282383], [29.5465195, 45.4240896], [29.5489377, 45.4177716], [29.5507515, 45.4115472], [29.5523123, 45.4072037], [29.5639133, 45.4027637], [29.5901384, 45.3895703], [29.5939673, 45.3885212], [29.594482, 45.38825], [29.594944, 45.387903], [29.595195, 45.38746], [29.595734, 45.386651], [29.596138, 45.386035], [29.5966, 45.385053], [29.597082, 45.384205], [29.597371, 45.383743], [29.597718, 45.383281], [29.597987, 45.383031], [29.598391, 45.382703], [29.59895, 45.382395], [29.599701, 45.381914], [29.600606, 45.381394], [29.601377, 45.380893], [29.603687, 45.379333], [29.605421, 45.3781], [29.61478, 45.369588], [29.619653, 45.3646], [29.622137, 45.362347], [29.626566, 45.357763], [29.628107, 45.356608], [29.629147, 45.355645], [29.63065, 45.354374], [29.632287, 45.352872], [29.633577, 45.35187], [29.633981, 45.351543], [29.649061, 45.341297], [29.65037, 45.340431], [29.651121, 45.339699], [29.651314, 45.339237], [29.651198, 45.338389], [29.65114, 45.338004], [29.652623, 45.337137], [29.653394, 45.336733], [29.65428, 45.336078], [29.654761, 45.335578], [29.655454, 45.334788], [29.65582, 45.334075], [29.656129, 45.333459], [29.656283, 45.332958], [29.6563853, 45.3328262], [29.6569088, 45.3325971], [29.6571557, 45.3325168], [29.657349, 45.3324169], [29.6574977, 45.3323479], [29.6576474, 45.3322494], [29.6582084, 45.3311884], [29.6584344, 45.3304094], [29.6587854, 45.3292784], [29.6589364, 45.3286244], [29.6605194, 45.3261374], [29.6615754, 45.3244284], [29.6622284, 45.3232724], [29.6627314, 45.3222674], [29.6628814, 45.3210854], [29.6649924, 45.3160854], [29.6651985, 45.3145117], [29.6674356, 45.3108939], [29.6685957, 45.308475], [29.6692371, 45.3063096], [29.6694086, 45.3029802], [29.6694149, 45.2968193], [29.6697918, 45.2945965], [29.6708435, 45.2914405], [29.6729939, 45.286853], [29.6748813, 45.2822692], [29.6756817, 45.2795481], [29.6762349, 45.2773848], [29.678493, 45.268415], [29.6749608, 45.2665573], [29.6715364, 45.2652519], [29.6702459, 45.2646134], [29.6691552, 45.2637962], [29.6672094, 45.2624627], [29.6662839, 45.2618673], [29.6642736, 45.2606627], [29.663996, 45.2604277], [29.6636906, 45.2600638], [29.6634045, 45.2595717], [29.6617514, 45.2556265], [29.6602261, 45.2521916], [29.6599347, 45.2515076], [29.6597759, 45.2506901], [29.6596362, 45.249732], [29.6598059, 45.2484498], [29.6599833, 45.2474555], [29.6605588, 45.2460559], [29.6612254, 45.2446711], [29.6615155, 45.2436433], [29.661836, 45.2420712], [29.6619488, 45.2412057], [29.6621064, 45.2395629], [29.6621917, 45.2388747], [29.6623549, 45.2382677], [29.6626003, 45.237744], [29.6632143, 45.2368215], [29.6642675, 45.2351617], [29.6673276, 45.2309432], [29.667979, 45.2299359], [29.6682814, 45.229313], [29.6686011, 45.2285488], [29.6690555, 45.2269112], [29.6694952, 45.2247394], [29.6698371, 45.2233705], [29.6704957, 45.2214683], [29.6708918, 45.220619], [29.6713915, 45.2199089], [29.6724335, 45.2185867], [29.6736558, 45.2172901], [29.6760399, 45.2146839], [29.676697601382696, 45.21395938282906], [29.67449, 45.213568], [29.659028, 45.215888], [29.650157, 45.217231], [29.623871, 45.216498], [29.623871, 45.210273], [29.638845, 45.195624], [29.64975, 45.177802], [29.667003, 45.164211], [29.699555, 45.161811], [29.676524, 45.144599], [29.664399, 45.116929], [29.656261, 45.028957], [29.650727, 45.012112], [29.637543, 44.98371], [29.634939, 44.96955], [29.633637, 44.953355], [29.63087, 44.938666], [29.623871, 44.929104], [29.630382, 44.90766], [29.605154, 44.880032], [29.617849, 44.861477], [29.611176, 44.849311], [29.603201, 44.845404], [29.593761, 44.844306], [29.583507, 44.840277], [29.569347, 44.824897], [29.561778, 44.820258], [29.542003, 44.827826], [29.531098, 44.826239], [29.520518, 44.822496], [29.510997, 44.820502], [29.315929, 44.798774], [29.192068, 44.792873], [29.156098, 44.78441], [29.055837, 44.735175], [29.026378, 44.714667], [29.000743, 44.68891], [28.993907, 44.696357], [28.994884, 44.711127], [28.981293, 44.729438], [28.974946, 44.74494], [28.997325, 44.751614], [29.021495, 44.754706], [29.058279, 44.768297], [29.098155, 44.775377], [29.120616, 44.786566], [29.138682, 44.804023], [29.144705, 44.826646], [29.138845, 44.839179], [29.125987, 44.852484], [29.096365, 44.875067], [29.101817, 44.859117], [29.103363, 44.851304], [29.10377, 44.840277], [29.087901, 44.842719], [29.073497, 44.835435], [29.060313, 44.832343], [29.048595, 44.847154], [29.044119, 44.865546], [29.041759, 44.925686], [29.052094, 44.944648], [29.098806, 44.956977], [29.110606, 44.970038], [29.101736, 44.980292], [29.058279, 45.000963], [29.045177, 45.004828], [29.014415, 45.004828], [28.983246, 45.012274], [28.97283, 45.010972], [28.969249, 45.005845], [28.966075, 44.996568], [28.960216, 44.987698], [28.949229, 44.98371], [28.927013, 44.982611], [28.91684, 44.979682], [28.880056, 44.954779], [28.869395, 44.943345], [28.863536, 44.922309], [28.865082, 44.916571], [28.87436, 44.911566], [28.876638, 44.904853], [28.874685, 44.899115], [28.870128, 44.89643], [28.865489, 44.89468], [28.863536, 44.891547], [28.866466, 44.882636], [28.873546, 44.874986], [28.881521, 44.869696], [28.904063, 44.862738], [28.952403, 44.826646], [28.939708, 44.816881], [28.934093, 44.814195], [28.924978, 44.813056], [28.934418, 44.807522], [28.938731, 44.80622], [28.938731, 44.798774], [28.92628, 44.792955], [28.925466, 44.783677], [28.932953, 44.773505], [28.946137, 44.765204], [28.936371, 44.759955], [28.923839, 44.757799], [28.879405, 44.756578], [28.868826, 44.753567], [28.808442, 44.726874], [28.79835, 44.720201], [28.788829, 44.706244], [28.78712, 44.693305], [28.793712, 44.687893], [28.80836, 44.696357], [28.80421, 44.684231], [28.785411, 44.679674], [28.781016, 44.665269], [28.784028, 44.649237], [28.792491, 44.644721], [28.845551, 44.651557], [28.869477, 44.661811], [28.891368, 44.677191], [28.911957, 44.696357], [28.897716, 44.716783], [28.967459, 44.700995], [28.983409, 44.692613], [28.987559, 44.675279], [28.97934, 44.655341], [28.962087, 44.63939], [28.938731, 44.634263], [28.956391, 44.651109], [28.972667, 44.670233], [28.975352, 44.686835], [28.952403, 44.696357], [28.952403, 44.68891], [28.959972, 44.681952], [28.957774, 44.678778], [28.938731, 44.675238], [28.924164, 44.682074], [28.918224, 44.682685], [28.913829, 44.679918], [28.909434, 44.675198], [28.904552, 44.668402], [28.885427, 44.658108], [28.854177, 44.634345], [28.836274, 44.627427], [28.787852, 44.609605], [28.774181, 44.600775], [28.791515, 44.623847], [28.794688, 44.634263], [28.779796, 44.63581], [28.766938, 44.633734], [28.757823, 44.626776], [28.753673, 44.613756], [28.766775, 44.613756], [28.76059, 44.603705], [28.764415, 44.595893], [28.774425, 44.590155], [28.787852, 44.586493], [28.748057, 44.577786], [28.732677, 44.567857], [28.732677, 44.552314], [28.737153, 44.557074], [28.743907, 44.561998], [28.746918, 44.565985], [28.761078, 44.560207], [28.774181, 44.552314], [28.765636, 44.538886], [28.753429, 44.513495], [28.745616, 44.486151], [28.750255, 44.466702], [28.758474, 44.465277], [28.766368, 44.472602], [28.771983, 44.48371], [28.778331, 44.507392], [28.788097, 44.515367], [28.80836, 44.525051], [28.838145, 44.554023], [28.855642, 44.567694], [28.873546, 44.573432], [28.892426, 44.577053], [28.906261, 44.587714], [28.914887, 44.601386], [28.924978, 44.620551], [28.918468, 44.60102], [28.909679, 44.584215], [28.844005, 44.49372], [28.796723, 44.467922], [28.706554, 44.381049], [28.6963, 44.358344], [28.693126, 44.346137], [28.680186, 44.353339], [28.664399, 44.348375], [28.651215, 44.340033], [28.64088, 44.328559], [28.635102, 44.316392], [28.632335, 44.302436], [28.631033, 44.26435], [28.635265, 44.252021], [28.651215, 44.23078], [28.665212, 44.199286], [28.668142, 44.184312], [28.664887, 44.175605], [28.671723, 44.168687], [28.658376, 44.174465], [28.645844, 44.172024], [28.636241, 44.164293], [28.63087, 44.154486], [28.637462, 44.135891], [28.654145, 44.054918], [28.671235, 44.003323], [28.671723, 43.997382], [28.669119, 43.989163], [28.660004, 43.979804], [28.654959, 43.961371], [28.64088, 43.932196], [28.637706, 43.918647], [28.61378, 43.884182], [28.609386, 43.874498], [28.593516, 43.819525], [28.587657, 43.810248], [28.584483, 43.800849], [28.589203, 43.791327], [28.584809, 43.782416], [28.58253, 43.772366], [28.581879, 43.761705], [28.583018, 43.751044], [28.57838, 43.741278], [28.577939982385747, 43.73852478696597], [28.5725469, 43.7384899], [28.5691573, 43.7383762], [28.5669745, 43.7382902], [28.5622268, 43.7381113], [28.5534922, 43.7377896], [28.5503567, 43.7376682], [28.5453789, 43.7374907], [28.5431878, 43.7374065], [28.5388723, 43.7372579], [28.535168, 43.7371127], [28.53136, 43.7369834], [28.5274368, 43.7368223], [28.5168119, 43.7364323], [28.5129974, 43.7362845], [28.5077786, 43.7361156], [28.5052038, 43.7359966], [28.5014411, 43.7358611], [28.4987908, 43.7357421], [28.4926292, 43.7354911], [28.4892771, 43.7353734], [28.4859624, 43.7352488], [28.4796498, 43.7350008], [28.4675474, 43.7345097], [28.4642898, 43.7343896], [28.45697, 43.7340952], [28.4538802, 43.733952], [28.4499801, 43.7338141], [28.4463455, 43.7336667], [28.4428472, 43.7342863], [28.4388165, 43.7350541], [28.4354639, 43.7356881], [28.4312929, 43.7364912], [28.4276005, 43.7371858], [28.4226599, 43.7381515], [28.4085497, 43.7408542], [28.4013524, 43.7422437], [28.3983148, 43.7428021], [28.394994, 43.7434341], [28.3919695, 43.7439971], [28.3887419, 43.7446165], [28.3811995, 43.7460274], [28.3743714, 43.7473289], [28.3706826, 43.7480253], [28.3676604, 43.7485847], [28.3636251, 43.7493399], [28.3554603, 43.7508962], [28.3485911, 43.7521885], [28.3452102, 43.7523884], [28.3410155, 43.7526253], [28.3366973, 43.7528568], [28.3284309, 43.7533216], [28.323891, 43.7535656], [28.3159378, 43.7540068], [28.3114495, 43.7542725], [28.3038065, 43.7547034], [28.3001481, 43.7549179], [28.2966354, 43.755111], [28.2932988, 43.7553042], [28.2833211, 43.755845], [28.2799795, 43.7560354], [28.2733359, 43.7563999], [28.266364, 43.756833], [28.2581941, 43.7572749], [28.2537719, 43.7575304], [28.2501291, 43.7577179], [28.246269, 43.757943], [28.242246, 43.7581524], [28.2391295, 43.7583105], [28.236285, 43.7584735], [28.2338628, 43.759253], [28.2314711, 43.7600395], [28.2283441, 43.7610372], [28.2217135, 43.7631743], [28.2193312, 43.7639511], [28.2160123, 43.7650206], [28.2121684, 43.7662698], [28.2095873, 43.767092], [28.2061224, 43.768185], [28.2026796, 43.7693056], [28.196411, 43.7712836], [28.1929966, 43.7724147], [28.1861357, 43.7746281], [28.1824131, 43.7758194], [28.1785713, 43.7770818], [28.1744516, 43.7784039], [28.1707763, 43.7795899], [28.1667021, 43.7808854], [28.1629629, 43.7820864], [28.1594487, 43.7832287], [28.1555579, 43.7844848], [28.1492918, 43.7864878], [28.1492975, 43.7864937], [28.1448524, 43.7879268], [28.1398505, 43.78952], [28.1299626, 43.7927106], [28.1252585, 43.794235], [28.120836, 43.7956602], [28.1162154, 43.7971392], [28.111693, 43.7989114], [28.0987004, 43.8041399], [28.0955198, 43.805425], [28.087757, 43.8085309], [28.0826655, 43.8105875], [28.0780828, 43.8124274], [28.0689731, 43.8160574], [28.061722, 43.8189853], [28.0504334, 43.8234063], [28.0444567, 43.8257393], [28.0403304, 43.8273701], [28.0362917, 43.8289343], [28.0318125, 43.830706], [28.0275422, 43.8323714], [28.0228806, 43.834162], [28.0199318, 43.8353055], [28.0173794, 43.8363043], [28.0158717, 43.8368796], [28.0105025, 43.8383975], [28.0073491, 43.8392617], [27.9972893, 43.8420961], [27.9942775, 43.8429119], [27.9926925, 43.8481751], [27.9908356, 43.8541618], [27.989541, 43.8582097], [27.98752, 43.8648678], [27.9847083, 43.8738558], [27.9829622, 43.8796662], [27.9821943, 43.8823043], [27.9809952, 43.8861294], [27.9793605, 43.8915588], [27.9782691, 43.8950239], [27.9773006, 43.898204], [27.9764864, 43.9009403], [27.9759418, 43.9018295], [27.9747813, 43.9038279], [27.9737985, 43.9056238], [27.972274, 43.9082973], [27.9707113, 43.9110769], [27.9668027, 43.9179817], [27.9647749, 43.9215852], [27.96318, 43.9243528], [27.9619659, 43.9264908], [27.9608602, 43.9283968], [27.959437, 43.9309342], [27.9575344, 43.9342256], [27.9553169, 43.9381342], [27.9542388, 43.939994], [27.9537554, 43.9421897], [27.9530593, 43.9452385], [27.9520589, 43.9497644], [27.9513441, 43.9530756], [27.9505652, 43.956542], [27.9499711, 43.9591213], [27.9492368, 43.9625947], [27.9482972, 43.9668483], [27.9475268, 43.9702667], [27.9464496, 43.9749221], [27.945508, 43.9792087], [27.9449108, 43.9820935], [27.9443662, 43.9847943], [27.9421418, 43.9866228], [27.9366291, 43.9913325], [27.9335111, 43.9940631], [27.9310123, 43.9961155], [27.9278681, 43.9988459], [27.9248947, 44.0014054], [27.9235362, 44.0025681], [27.9214474, 44.004373], [27.9197087, 44.0058999], [27.9184281, 44.0069424], [27.9168524, 44.0082804], [27.9135026, 44.0063879], [27.9092035, 44.0039261], [27.8992358, 43.9982033], [27.8956254, 43.996177], [27.8946649, 43.9956232], [27.8896376, 43.9927439], [27.8794438, 43.9869147], [27.874477, 43.9840598], [27.8723066, 43.9828396], [27.8686587, 43.9807358], [27.8671582, 43.9799107], [27.8615249, 43.9766556], [27.8566921, 43.9738901], [27.8540365, 43.9723911], [27.8523674, 43.9714167], [27.8508619, 43.9705686], [27.8434029, 43.9662971], [27.8408442, 43.9661591], [27.8362373, 43.9656987], [27.8308816, 43.9652145], [27.8254819, 43.9647388], [27.8202675, 43.9642476], [27.8103375, 43.9633737], [27.8062791, 43.9630077], [27.8048126, 43.9628826], [27.7995907, 43.9623782], [27.792849, 43.9617541], [27.7708006, 43.9597961], [27.7597799, 43.9588353], [27.7546207, 43.9584348], [27.750608, 43.9572651], [27.7457361, 43.9558376], [27.7414737, 43.9545731], [27.7379529, 43.9535004], [27.735349, 43.9536797], [27.7325443, 43.9538425], [27.7323282, 43.9538636], [27.7306721, 43.954188], [27.7301896, 43.9543245], [27.7275238, 43.9555651], [27.7214177, 43.9568737], [27.7155025, 43.9581497], [27.7100829, 43.9593387], [27.7089309, 43.9615585], [27.7068007, 43.9657296], [27.7051603, 43.9688962], [27.7034995, 43.9721481], [27.7004488, 43.9780186], [27.6989748, 43.9808751], [27.6973055, 43.9840324], [27.6948422, 43.9887647], [27.6920667, 43.9941482], [27.6899588, 43.9982556], [27.6878394, 44.0023183], [27.6855831, 44.006685], [27.6840492, 44.0097641], [27.6821727, 44.0131648], [27.6809013, 44.0157164], [27.6789485, 44.0194806], [27.6768202, 44.0235418], [27.6748062, 44.0275744], [27.6735876, 44.0297909], [27.6638122, 44.0357015], [27.6614748, 44.0371258], [27.6565547, 44.040114], [27.6523925, 44.0426027], [27.643574, 44.0479951], [27.6389316, 44.0426327], [27.6351539, 44.0383876], [27.6309327, 44.0336114], [27.6271706, 44.0293198], [27.6202443, 44.021526], [27.6164093, 44.0172176], [27.6119709, 44.012204], [27.5985937, 44.0131562], [27.5903801, 44.0137688], [27.5805444, 44.0144606], [27.5715693, 44.0151538], [27.5628928, 44.0157794], [27.5536428, 44.0164301], [27.5450062, 44.017027], [27.5367694, 44.0176478], [27.5302839, 44.0181064], [27.5262319, 44.0183795], [27.5200747, 44.0188011], [27.5118092, 44.0193989], [27.5059296, 44.0198639], [27.4961942, 44.0205345], [27.4877784, 44.021164], [27.4789792, 44.0217488], [27.4689249, 44.0224998], [27.4624132, 44.0215137], [27.4587836, 44.0209924], [27.4540383, 44.0203614], [27.4431934, 44.0187319], [27.4331211, 44.0172242], [27.4241768, 44.0159489], [27.4166636, 44.0148298], [27.4073583, 44.0134375], [27.3994459, 44.0122291], [27.3956962, 44.0157123], [27.3916408, 44.0195328], [27.3880522, 44.0228477], [27.3842436, 44.0264344], [27.3810367, 44.0294664], [27.3757804, 44.0343674], [27.3724471, 44.0373894], [27.3714256, 44.0383338], [27.3709547, 44.0388353], [27.370276, 44.0397662], [27.3689834, 44.0414798], [27.3660057, 44.0454846], [27.3643995, 44.0476992], [27.3630935, 44.0494222], [27.3615662, 44.0515421], [27.3602067, 44.0533265], [27.3574649, 44.056998], [27.3561851, 44.0587005], [27.3537177, 44.05931], [27.3468594, 44.0609764], [27.3403778, 44.062559], [27.3340574, 44.0640896], [27.3279781, 44.0655751], [27.3214995, 44.0671424], [27.3144883, 44.0688775], [27.3083728, 44.0703735], [27.3036404, 44.0717332], [27.2967978, 44.073562], [27.2938866, 44.0743675], [27.2909785, 44.0752254], [27.2907228, 44.0769844], [27.2907722, 44.082912], [27.2906055, 44.0835996], [27.2903552, 44.0840872], [27.2896438, 44.0847736], [27.289251, 44.0850988], [27.2887849, 44.0854563], [27.2882614, 44.0859042], [27.2878101, 44.0863148], [27.287526, 44.0866081], [27.2871808, 44.0870395], [27.2870107, 44.0872846], [27.2865195, 44.0878828], [27.2858873, 44.0886224], [27.2851554, 44.0895585], [27.2849119, 44.0898476], [27.2846765, 44.0900581], [27.2844783, 44.0902], [27.2838018, 44.0906023], [27.2832501, 44.0909775], [27.2816194, 44.0923249], [27.2804397, 44.0933245], [27.2795949, 44.0940684], [27.279419, 44.094232], [27.2792693, 44.0944492], [27.2790169, 44.0948902], [27.2785628, 44.0956286], [27.2779176, 44.0967914], [27.277787, 44.0970434], [27.2775726, 44.0977352], [27.2772999, 44.0984625], [27.2769389, 44.0993941], [27.2767733, 44.099891], [27.2766433, 44.1004258], [27.2765125, 44.1010222], [27.276419, 44.1015567], [27.2762851, 44.1024045], [27.2761421, 44.1031393], [27.2761024, 44.1033842], [27.2761053, 44.1035943], [27.2762114, 44.1043417], [27.2762343, 44.1049696], [27.2762692, 44.1050626], [27.2764022, 44.1052962], [27.2765173, 44.1055378], [27.2765969, 44.1056536], [27.2775043, 44.1064549], [27.2781284, 44.1070123], [27.278552, 44.1074411], [27.2786272, 44.107501], [27.278718, 44.1075459], [27.279004, 44.1076274], [27.2798619, 44.1078975], [27.2828673, 44.1086458], [27.2835084, 44.1088217], [27.2840525, 44.1090455], [27.2842138, 44.109152], [27.2842773, 44.1092498], [27.284402, 44.1097419], [27.2844032, 44.1098191], [27.284381, 44.1098615], [27.284333, 44.1099039], [27.2840719, 44.110093], [27.2838244, 44.1103194], [27.2835994, 44.1105364], [27.2832715, 44.1108738], [27.2830072, 44.1111007], [27.2828587, 44.1112144], [27.2825541, 44.1113976], [27.281443, 44.1119857], [27.2810671, 44.112202], [27.2806167, 44.1124775], [27.2798281, 44.1129343], [27.2795129, 44.1131303], [27.2790043, 44.1135215], [27.2784932, 44.1139223], [27.2771327, 44.1149545], [27.2769969, 44.1150666], [27.2767849, 44.1152605], [27.2766207, 44.1154911], [27.276394, 44.1158832], [27.2762383, 44.1161876], [27.276061, 44.1165798], [27.2758244, 44.1179023], [27.2758041, 44.1182246], [27.2758199, 44.118528], [27.2758811, 44.1188201], [27.2759373, 44.1190248], [27.2761182, 44.1194228], [27.276359, 44.1200201], [27.2765339, 44.1204901], [27.2767256, 44.1211234], [27.2769581, 44.1219243], [27.2770323, 44.1220628], [27.2771295, 44.1221829], [27.2777124, 44.1226611], [27.2763108, 44.1246573], [27.2727504, 44.1265871], [27.2701761, 44.1284471], [27.2792559, 44.1323305], [27.2981523, 44.1392686], [27.3153151, 44.1400089], [27.3321413, 44.1375439], [27.3458742, 44.1323694], [27.3596071, 44.1267016], [27.3736833, 44.1257158], [27.3836397, 44.1286731], [27.3942827, 44.1323694], [27.406299, 44.1316301], [27.4385714, 44.1237443], [27.4516176, 44.1244836], [27.4636339, 44.1301516], [27.4948763, 44.1491232], [27.5072359, 44.1533109], [27.5247454, 44.1693199], [27.5439714, 44.1742449], [27.5553011, 44.1826165], [27.5632004, 44.1852013], [27.5724672, 44.1877865], [27.5961565, 44.1968946], [27.6037096, 44.1986176], [27.610576, 44.1981253], [27.6160692, 44.1986176], [27.6284288, 44.2042785], [27.6373552, 44.2057551], [27.6469683, 44.2052629], [27.6613878, 44.203294], [27.6861071, 44.1996021], [27.7029299, 44.1954177], [27.7231859, 44.1961561], [27.7355455, 44.199356], [27.7458452, 44.2079701], [27.763698, 44.2205197], [27.7764009, 44.2323288], [27.7925371, 44.2382324], [27.8055834, 44.2397082], [27.8155397, 44.2419218], [27.8268694, 44.245857], [27.8344225, 44.2505297], [27.8409456, 44.2554479], [27.8484987, 44.2583986], [27.8598284, 44.257661], [27.8839841, 44.2515973], [27.8966551, 44.2506332], [27.9025087, 44.2484847], [27.9143338, 44.2470943], [27.9230226, 44.2470507], [27.9347153, 44.25021], [27.9399853, 44.2527543], [27.9498566, 44.2585855], [27.9533069, 44.2619558], [27.9591796, 44.2669687], [27.9687639, 44.2771795], [27.9758715, 44.2888808], [27.9948877, 44.3034606], [27.9985233, 44.3081284], [28.0036806, 44.3141886], [28.0090585, 44.3200989], [28.0106848, 44.3219972], [28.0122163, 44.3253332], [28.0132479, 44.3317248], [28.0138945, 44.3343795], [28.0200047, 44.3512329], [28.02222, 44.3591261], [28.0277132, 44.3701711], [28.0339347, 44.3757533], [28.0422265, 44.3831923], [28.0532661, 44.3912965], [28.0638077, 44.399034], [28.0687751, 44.4024579], [28.0702852, 44.4104766], [28.0761217, 44.4162918], [28.0883204, 44.4211085], [28.0977591, 44.4243506], [28.1021566, 44.4265563], [28.1104424, 44.4350598], [28.1110229, 44.4410562], [28.102123, 44.4489973], [28.097751, 44.4577204], [28.0926012, 44.4809957], [28.0877947, 44.4905482], [28.0795549, 44.4971605], [28.0599855, 44.5037721], [28.0534624, 44.5103829], [28.0462526, 44.5191962], [28.0380727, 44.5434932], [28.0360246, 44.5485436], [28.0211116, 44.5606109], [28.0138903, 44.5717342], [28.0138518, 44.5832495], [28.0147222, 44.5858764], [28.0294298, 44.6028557], [28.0345797, 44.611655], [28.0332064, 44.6246071], [28.0277132, 44.6292496], [28.0222381, 44.6385794], [28.0182384, 44.646796], [28.0142066, 44.6505842], [28.0088401, 44.6531726], [27.9999903, 44.6572542], [27.9963917, 44.6597235], [27.9887293, 44.6666261], [27.9860937, 44.6684346], [27.9730249, 44.6763993], [27.9624819, 44.6802924], [27.9419613, 44.6788358], [27.9374975, 44.6799612], [27.9284374, 44.6850778], [27.9229998, 44.6907885], [27.9157945, 44.6954289], [27.9017137, 44.7003065], [27.8896974, 44.7029908], [27.8783678, 44.711043], [27.871158, 44.7247046], [27.8718447, 44.7422649], [27.8766512, 44.751043], [27.8820165, 44.7650422], [27.8974251, 44.7716417], [27.9025749, 44.7729822], [27.9187111, 44.7750539], [27.9350189, 44.7784658], [27.9444603, 44.7796843], [27.9501251, 44.7802935], [27.9575066, 44.7784658], [27.964373, 44.7761506], [27.9708961, 44.7734697], [27.9772476, 44.7692044], [27.9817108, 44.7668888], [27.9854874, 44.7655481], [27.9945854, 44.7609165], [28.0019669, 44.7578693], [28.0059151, 44.757016], [28.0108932, 44.7568941], [28.0143265, 44.7573817], [28.0189613, 44.7589663], [28.0213646, 44.7603071], [28.0232529, 44.7620135], [28.0249695, 44.763598], [28.0265144, 44.7638418], [28.0289177, 44.7637199], [28.0311493, 44.7623792], [28.0320076, 44.7610384], [28.0342392, 44.7603071], [28.0362991, 44.7601852], [28.0376724, 44.7611603], [28.0390457, 44.7645731], [28.0423073, 44.7683513], [28.0484871, 44.774932], [28.0514053, 44.776638], [28.0579285, 44.7791969], [28.0630783, 44.7816339], [28.0673698, 44.7854109], [28.0689148, 44.7894314], [28.0692581, 44.7916242], [28.0725197, 44.7983242], [28.0735497, 44.8023437], [28.0737213, 44.8070938], [28.0735497, 44.8126959], [28.0745796, 44.8162274], [28.0762962, 44.8196369], [28.0799011, 44.8253595], [28.0817894, 44.8294989], [28.0833344, 44.831812], [28.0865959, 44.8336381], [28.0900291, 44.8374117], [28.0958656, 44.8443497], [28.0972389, 44.8466622], [28.0977539, 44.8509218], [28.0975822, 44.8560329], [28.0991272, 44.8600485], [28.1023888, 44.8646721], [28.1065086, 44.8680787], [28.1111435, 44.8713635], [28.1185249, 44.8747698], [28.1241898, 44.8761079], [28.1289963, 44.8772027], [28.1332878, 44.8793922], [28.136721, 44.8817033], [28.1394676, 44.8849873], [28.1420425, 44.8888792], [28.1420425, 44.8919196], [28.1410126, 44.8936221], [28.1394676, 44.8939869], [28.1374077, 44.8943518], [28.1341461, 44.8959326], [28.1295113, 44.8987294], [28.127108, 44.9018909], [28.126078, 44.9050521], [28.1248764, 44.9106447], [28.1245331, 44.9195188], [28.1247047, 44.9230437], [28.1252197, 44.9258392], [28.1269363, 44.9294853], [28.128653, 44.9364122], [28.1300262, 44.9432168], [28.1332878, 44.9484412], [28.1365494, 44.954151], [28.1429008, 44.9603462], [28.1482224, 44.9658119], [28.1509689, 44.9701842], [28.1516556, 44.973706], [28.1507973, 44.9762562], [28.1490807, 44.9774705], [28.1456474, 44.9777133], [28.1425575, 44.9779562], [28.1418709, 44.9794133], [28.1411842, 44.9826917], [28.1391243, 44.989248], [28.1360344, 44.9931329], [28.1346611, 44.9985955], [28.1324295, 45.0055141], [28.1295113, 45.011825], [28.128653, 45.0169218], [28.1305412, 45.0216542], [28.1329445, 45.0251729], [28.1360344, 45.0289339], [28.138781, 45.0309964], [28.1427292, 45.0324522], [28.1470207, 45.0334227], [28.1497673, 45.0337866], [28.1514839, 45.0343932], [28.1525139, 45.0358489], [28.1526855, 45.0383963], [28.1516556, 45.040337], [28.1492523, 45.0422778], [28.147364, 45.0472506], [28.1446175, 45.0533144], [28.1415276, 45.0579225], [28.1368927, 45.0685924], [28.1363777, 45.0756237], [28.1339745, 45.0814421], [28.1344894, 45.0849571], [28.1358627, 45.0884719], [28.1358627, 45.091744], [28.1350044, 45.0964702], [28.1360344, 45.1005901], [28.137236, 45.1030135], [28.138781, 45.1034981], [28.1404976, 45.1036193], [28.1425575, 45.1028923], [28.1453041, 45.1015595], [28.1502823, 45.1007113], [28.1561188, 45.1002266], [28.1622986, 45.0998631], [28.1664185, 45.0997419], [28.1698517, 45.0997419], [28.1725983, 45.1002266], [28.1751732, 45.1008324], [28.1768898, 45.1025288], [28.1784348, 45.1039828], [28.179808, 45.1062848], [28.1794647, 45.1077387], [28.1779198, 45.1100406], [28.1739716, 45.1139172], [28.1717014, 45.1168924], [28.1703667, 45.1186415], [28.1698517, 45.1214275], [28.1719116, 45.1238499], [28.1751732, 45.1266356], [28.1834129, 45.1297845], [28.1885628, 45.1322066], [28.1943993, 45.1343864], [28.1973175, 45.1357185], [28.1978325, 45.1374138], [28.1969742, 45.1392301], [28.1943993, 45.1406832], [28.1918243, 45.1412886], [28.1887344, 45.1410464], [28.1858162, 45.1415308], [28.1820396, 45.1431048], [28.1755165, 45.1460106], [28.1648735, 45.1526693], [28.1528572, 45.1605376], [28.1406693, 45.1684048], [28.1362061, 45.1703412], [28.1289963, 45.1730036], [28.1200699, 45.1761499], [28.0970673, 45.1865557], [28.0932907, 45.1888544], [28.0919174, 45.1904272], [28.0924324, 45.1927257], [28.0950073, 45.1953871], [28.0992989, 45.199137], [28.104792, 45.2037333], [28.1104568, 45.2101433], [28.1188683, 45.2196965], [28.1291679, 45.2306989], [28.1307129, 45.2323914], [28.1305412, 45.233842], [28.1295113, 45.2356553], [28.127623, 45.2372267], [28.1245331, 45.238919], [28.1216148, 45.2419408], [28.1190399, 45.2478631], [28.1181816, 45.2542682], [28.11698, 45.2572892], [28.1156067, 45.2586183], [28.1133751, 45.2589809], [28.1114868, 45.2583767], [28.1094269, 45.2571683], [28.1075386, 45.2548724], [28.104277, 45.2525763], [28.0999855, 45.2502802], [28.0958656, 45.2491925], [28.0900291, 45.24883], [28.083506, 45.2493134], [28.0769829, 45.2504011], [28.0706314, 45.2516096], [28.0635933, 45.2530597], [28.0551819, 45.2552349], [28.040934, 45.2591017], [28.028231, 45.2636931], [28.0174164, 45.2696132], [28.0081467, 45.2763781], [28.0026535, 45.2815721], [27.9999069, 45.2836254], [27.9976753, 45.2848332], [27.9945854, 45.2877318], [27.9947542, 45.2883359], [28.0012773, 45.3110363], [28.0112337, 45.3281762], [28.0177568, 45.3455523], [28.0263399, 45.3564096], [28.0270266, 45.3761888], [28.0259084, 45.3887762], [28.0263399, 45.3950117], [28.0306958, 45.4043027], [28.0329893, 45.4080921], [28.0428194, 45.4171722], [28.0634188, 45.4282568], [28.0792116, 45.4359665], [28.0919146, 45.4390982], [28.1001543, 45.4405436], [28.1121706, 45.4400618], [28.1269335, 45.4376528], [28.1386064, 45.4342801], [28.1533693, 45.4268111], [28.1674456, 45.4198231], [28.1763719, 45.4152443], [28.1863283, 45.4133162], [28.1928514, 45.4154853], [28.1952547, 45.420787], [28.1914781, 45.4301843], [28.1921648, 45.4429525], [28.1997179, 45.4516235], [28.2143507, 45.4673383], [28.2223077, 45.4667297], [28.2326259, 45.4632545]]]}, "properties": {"name": "Северная Добруджа", "source": "OpenHistoricalMap (CC0) relations 2929116, 2929117, 2694163, 2746380, 2746400, 2692354; Natural Earth admin-1; нарезка 22.09.2026"}}]}