{"type": "FeatureCollection", "features": [{"type": "Feature", "geometry": {"type": "MultiPolygon", "coordinates": [[[[26.0411596, 45.478399], [26.0468673, 45.4783088], [26.0478115, 45.4826719], [26.0530471, 45.4822506], [26.0542059, 45.4847179], [26.0648489, 45.4851692], [26.0672092, 45.496481], [26.0692262, 45.4982257], [26.0660505, 45.5038505], [26.0727453, 45.5077004], [26.0786247, 45.5110386], [26.0840749, 45.5165118], [26.0932159, 45.5161811], [26.0956192, 45.5176244], [26.1000822, 45.5301625], [26.1241148, 45.5516839], [26.1289213, 45.5621411], [26.1414526, 45.5713947], [26.1433624, 45.5810222], [26.1477398, 45.5849868], [26.1488771, 45.5845813], [26.1545633, 45.5855274], [26.1559367, 45.5844462], [26.155014, 45.5813075], [26.156001, 45.5787843], [26.1547994, 45.5776128], [26.1560439, 45.5762912], [26.1599921, 45.5772224], [26.1625671, 45.5751497], [26.1614083, 45.5717851], [26.1629533, 45.5692916], [26.1692189, 45.5675191], [26.1705064, 45.5625316], [26.1719226, 45.5632527], [26.17527, 45.568871], [26.1780166, 45.5698023], [26.1799691, 45.5738129], [26.1782527, 45.575435], [26.1755274, 45.5764264], [26.175311, 45.5812405], [26.1790466, 45.5868639], [26.1777162, 45.594672], [26.1841964, 45.5952726], [26.185956, 45.6013681], [26.1836385, 45.6022388], [26.1857198, 45.6085889], [26.1904621, 45.6085738], [26.1941099, 45.6099247], [26.1946678, 45.6116059], [26.198101, 45.6115158], [26.1993455, 45.6131369], [26.2090015, 45.6165289], [26.2091732, 45.6190804], [26.2126922, 45.6219318], [26.2191724, 45.622232], [26.2235927, 45.6228323], [26.230545, 45.6233125], [26.2379694, 45.6226222], [26.2399864, 45.6200409], [26.2463808, 45.6170092], [26.2470674, 45.614968], [26.2488269, 45.6126866], [26.2495136, 45.6101048], [26.2592983, 45.6127166], [26.2632036, 45.611786], [26.2717866, 45.6137673], [26.2754345, 45.6181499], [26.2813997, 45.6219018], [26.2837171, 45.622352], [26.28479, 45.6211815], [26.2851333, 45.6193505], [26.2867212, 45.6189603], [26.2881374, 45.6172193], [26.2871074, 45.6158385], [26.2875795, 45.6150581], [26.290884, 45.6154183], [26.2935447, 45.6127766], [26.2939739, 45.6096545], [26.2984371, 45.6079433], [26.3004541, 45.6083636], [26.3042735, 45.6068626], [26.3056683, 45.6070276], [26.3070201, 45.6065623], [26.3086079, 45.6034098], [26.3108825, 45.6029594], [26.3166332, 45.6003772], [26.320753, 45.6001671], [26.3232421, 45.5963837], [26.3355159, 45.591639], [26.3478755, 45.6044306], [26.3538407, 45.6215417], [26.3521242, 45.6229223], [26.35324, 45.6335763], [26.3494634, 45.6403277], [26.36693, 45.6459383], [26.3705349, 45.6495684], [26.3783025, 45.6522383], [26.3838386, 45.6512784], [26.393752, 45.6520584], [26.4009618, 45.6504384], [26.4096307, 45.6521784], [26.453447, 45.6529885], [26.470699, 45.6569481], [26.4670085, 45.665826], [26.457653, 45.6718838], [26.4514732, 45.6790205], [26.4406585, 45.6847771], [26.4298652, 45.6919903], [26.4238357, 45.6983868], [26.422119, 45.7173268], [26.4266681, 45.7277532], [26.4066803, 45.7370318], [26.421604, 45.7525528], [26.4183424, 45.7693192], [26.424694, 45.7680619], [26.438255, 45.7660862], [26.4435766, 45.7530319], [26.4369582, 45.7388048], [26.4580063, 45.7262725], [26.4664077, 45.7054601], [26.4822149, 45.7014595], [26.4894102, 45.6940704], [26.4858053, 45.6885546], [26.5299223, 45.641888], [26.541252, 45.6422481], [26.5516575, 45.6296211], [26.5617656, 45.6282045], [26.5698337, 45.6312056], [26.5737813, 45.634507], [26.5765285, 45.6333662], [26.5794467, 45.6339664], [26.5941232, 45.6204015], [26.6155812, 45.6302454], [26.631374, 45.6469286], [26.6480253, 45.6462084], [26.6722296, 45.6513685], [26.682186, 45.6590476], [26.7336891, 45.6639481], [26.7575451, 45.7045012], [26.7661282, 45.7107347], [26.7870709, 45.7028228], [26.8156615, 45.712203], [26.8069836, 45.7356617], [26.836166, 45.7545891], [26.8392559, 45.7665652], [26.8547055, 45.7794965], [26.8550488, 45.7912279], [26.8698117, 45.7938611], [26.9099804, 45.7811726], [26.9147869, 45.7727918], [26.935043, 45.7593799], [26.9446562, 45.7652479], [26.951866, 45.7654874], [26.9611355, 45.7688404], [26.9681738, 45.7663256], [26.9758986, 45.7669243], [26.9810482, 45.7621344], [26.9911233, 45.7671462], [27.0007895, 45.7669243], [27.0105742, 45.7708759], [27.0275686, 45.768481], [27.0546911, 45.7574635], [27.0761488, 45.7476417], [27.0819853, 45.7417717], [27.0910834, 45.7422509], [27.1107199, 45.7309732], [27.1238803, 45.7234372], [27.119579, 45.71487], [27.1433541, 45.7022834], [27.1600052, 45.6955693], [27.2011181, 45.6884948], [27.2145079, 45.690833], [27.2213743, 45.6863961], [27.2376822, 45.6861562], [27.2466086, 45.6895139], [27.2603415, 45.6820788], [27.2625731, 45.6573679], [27.2902106, 45.6534083], [27.3010768, 45.6473347], [27.3033857, 45.6408978], [27.3008106, 45.636307], [27.3135136, 45.6291049], [27.3250149, 45.6308755], [27.3242425, 45.6324659], [27.3308938, 45.6339668], [27.3436832, 45.6250833], [27.3516654, 45.6248432], [27.3539828, 45.6208213], [27.3572444, 45.6217818], [27.3737239, 45.6186602], [27.3790454, 45.6086338], [27.3941516, 45.6101349], [27.4083995, 45.6158385], [27.4115324, 45.6187802], [27.4192571, 45.6210614], [27.4227332, 45.6208813], [27.423334, 45.6185401], [27.4156093, 45.6151181], [27.4168967, 45.611816], [27.4204158, 45.6116359], [27.4240207, 45.6030495], [27.4172401, 45.5983655], [27.42033, 45.5962635], [27.425909, 45.600047], [27.4357795, 45.5958431], [27.4510573, 45.5953627], [27.4394701, 45.5884857], [27.4295139, 45.5902275], [27.4243211, 45.5883355], [27.4254797, 45.5841309], [27.432518, 45.581788], [27.4294279, 45.5762011], [27.4262094, 45.5755101], [27.4234199, 45.5823887], [27.4189996, 45.5816078], [27.4174118, 45.5792649], [27.4186134, 45.5763212], [27.4234627, 45.5713947], [27.4347494, 45.5637035], [27.4426459, 45.5621411], [27.4465941, 45.5574536], [27.4517439, 45.5573334], [27.4514006, 45.5645448], [27.4653052, 45.5645448], [27.4835011, 45.5599778], [27.4831579, 45.557093], [27.4721716, 45.5543284], [27.4809263, 45.5495201], [27.4670218, 45.5484382], [27.4690817, 45.5432687], [27.482643, 45.5424271], [27.4761198, 45.5358141], [27.4682234, 45.5373773], [27.46994, 45.5294409], [27.4754332, 45.532808], [27.4883078, 45.530884], [27.4827286, 45.502798], [27.4975775, 45.5043619], [27.515087, 45.5144069], [27.536888, 45.5031588], [27.5405787, 45.5112793], [27.5288199, 45.5166923], [27.5435827, 45.5211427], [27.5518225, 45.5206616], [27.5509642, 45.5069485], [27.5437544, 45.5010533], [27.5492476, 45.4986469], [27.5586889, 45.5011736], [27.5607489, 45.4985266], [27.5595473, 45.4928712], [27.5717353, 45.4873355], [27.5738811, 45.4919085], [27.5787734, 45.4952176], [27.5780009, 45.4857108], [27.58255, 45.4828825], [27.5898456, 45.4837852], [27.5901031, 45.4777672], [27.5966261, 45.4759015], [27.5978277, 45.4703642], [27.6122473, 45.4659099], [27.6165388, 45.4783089], [27.6247786, 45.4719291], [27.6203154, 45.4663914], [27.6314734, 45.4672342], [27.6297568, 45.476383], [27.6386831, 45.4771052], [27.6450346, 45.4702438], [27.6446913, 45.4863728], [27.6489828, 45.485771], [27.6513861, 45.4720495], [27.6566218, 45.473494], [27.6540469, 45.4911263], [27.6639792, 45.4893676], [27.6635741, 45.4836648], [27.6615998, 45.4759017], [27.6729297, 45.4775264], [27.6869198, 45.4772257], [27.6977347, 45.4733134], [27.7002236, 45.4656692], [27.6929281, 45.4603114], [27.6966189, 45.4577226], [27.7031418, 45.4563982], [27.7154156, 45.4594686], [27.7191066, 45.4568797], [27.7180764, 45.4532674], [27.7143856, 45.4461021], [27.71739, 45.4441749], [27.7216815, 45.443934], [27.730436, 45.4515213], [27.7410792, 45.4487514], [27.745628, 45.4405015], [27.7457141, 45.4318286], [27.7362725, 45.4180942], [27.743096, 45.4165277], [27.7718064, 45.4174314], [27.7869987, 45.4109844], [27.7636521, 45.3636652], [27.636107, 45.2864829], [27.4658189, 45.2033292], [27.4115746, 45.0749758], [27.7082919, 45.001163], [27.7260588, 44.9945474], [27.7626215, 44.9892674], [27.7403055, 44.9430539], [27.8934286, 44.92604], [27.8905104, 44.9082925], [27.8729139, 44.8769179], [27.8539466, 44.8668806], [27.8349992, 44.8367152], [27.8284549, 44.8289696], [27.8197857, 44.7864652], [27.8390118, 44.7781798], [27.8736874, 44.773793], [27.8820165, 44.7650422], [27.8766512, 44.751043], [27.8718447, 44.7422649], [27.871158, 44.7247046], [27.8783678, 44.711043], [27.8896974, 44.7029908], [27.9017137, 44.7003065], [27.9157945, 44.6954289], [27.9229998, 44.6907885], [27.9284374, 44.6850778], [27.9374975, 44.6799612], [27.9419613, 44.6788358], [27.9624819, 44.6802924], [27.9730249, 44.6763993], [27.9860937, 44.6684346], [27.9887293, 44.6666261], [27.9963917, 44.6597235], [27.9999903, 44.6572542], [28.0088401, 44.6531726], [28.0142066, 44.6505842], [28.0182384, 44.646796], [28.0222381, 44.6385794], [28.0277132, 44.6292496], [28.0332064, 44.6246071], [28.0345797, 44.611655], [28.0294298, 44.6028557], [28.0147222, 44.5858764], [28.0138518, 44.5832495], [28.0138903, 44.5717342], [28.0211116, 44.5606109], [28.0360246, 44.5485436], [28.0380727, 44.5434932], [28.0462526, 44.5191962], [28.0534624, 44.5103829], [28.0599855, 44.5037721], [28.0795549, 44.4971605], [28.0877947, 44.4905482], [28.0926012, 44.4809957], [28.097751, 44.4577204], [28.102123, 44.4489973], [28.1110229, 44.4410562], [28.1104424, 44.4350598], [28.1021566, 44.4265563], [28.0977591, 44.4243506], [28.0883204, 44.4211085], [28.0761217, 44.4162918], [28.0702852, 44.4104766], [28.0687751, 44.4024579], [28.0638077, 44.399034], [28.0532661, 44.3912965], [28.0422265, 44.3831923], [28.0339347, 44.3757533], [28.0277132, 44.3701711], [28.02222, 44.3591261], [28.0200047, 44.3512329], [28.0138945, 44.3343795], [28.0132479, 44.3317248], [28.0122163, 44.3253332], [28.0106848, 44.3219972], [28.0090585, 44.3200989], [28.0036806, 44.3141886], [27.9985233, 44.3081284], [27.9948877, 44.3034606], [27.9758715, 44.2888808], [27.9687639, 44.2771795], [27.9591796, 44.2669687], [27.9533069, 44.2619558], [27.9498566, 44.2585855], [27.9399853, 44.2527543], [27.9347153, 44.25021], [27.9230226, 44.2470507], [27.9143338, 44.2470943], [27.9025087, 44.2484847], [27.8966551, 44.2506332], [27.8839841, 44.2515973], [27.8598284, 44.257661], [27.8484987, 44.2583986], [27.8409456, 44.2554479], [27.8344225, 44.2505297], [27.8268694, 44.245857], [27.8155397, 44.2419218], [27.8055834, 44.2397082], [27.7925371, 44.2382324], [27.7764009, 44.2323288], [27.763698, 44.2205197], [27.7458452, 44.2079701], [27.7355455, 44.199356], [27.7231859, 44.1961561], [27.7029299, 44.1954177], [27.6861071, 44.1996021], [27.6613878, 44.203294], [27.6469683, 44.2052629], [27.6373552, 44.2057551], [27.6284288, 44.2042785], [27.6160692, 44.1986176], [27.610576, 44.1981253], [27.6037096, 44.1986176], [27.5961565, 44.1968946], [27.5724672, 44.1877865], [27.5632004, 44.1852013], [27.5553011, 44.1826165], [27.5439714, 44.1742449], [27.5247454, 44.1693199], [27.5072359, 44.1533109], [27.4948763, 44.1491232], [27.4636339, 44.1301516], [27.4516176, 44.1244836], [27.4385714, 44.1237443], [27.406299, 44.1316301], [27.3942827, 44.1323694], [27.3836397, 44.1286731], [27.3736833, 44.1257158], [27.3596071, 44.1267016], [27.3458742, 44.1323694], [27.3321413, 44.1375439], [27.3153151, 44.1400089], [27.2981523, 44.1392686], [27.2792559, 44.1323305], [27.2701761, 44.1284471], [27.2531234, 44.1211531], [27.2474002, 44.1189344], [27.2418368, 44.117016], [27.237281, 44.116041], [27.2302005, 44.1151624], [27.2103413, 44.1168505], [27.1865724, 44.1198009], [27.1800493, 44.1237443], [27.1728395, 44.1289195], [27.1663164, 44.133355], [27.1580767, 44.1350799], [27.1402239, 44.1372975], [27.1294015, 44.1379043], [27.1182512, 44.1385294], [27.1038317, 44.1363119], [27.0955919, 44.1387758], [27.080829, 44.1459206], [27.0664095, 44.1488768], [27.0554232, 44.1473987], [27.0491361, 44.1463414], [27.0334505, 44.1437033], [26.9917869, 44.1337939], [26.9676965, 44.1347635], [26.9354191, 44.1365316], [26.9311581, 44.1374801], [26.9261255, 44.1380261], [26.9215503, 44.1386314], [26.9168689, 44.1384635], [26.9103342, 44.1367485], [26.9021808, 44.1324157], [26.8778257, 44.122129], [26.8585927, 44.1169287], [26.8381289, 44.1076843], [26.7841982, 44.0845457], [26.7625688, 44.0778868], [26.7553636, 44.0770958], [26.7385363, 44.0754203], [26.7130657, 44.0793629], [26.7024874, 44.0781334], [26.6860079, 44.074187], [26.659572, 44.062593], [26.6492723, 44.0603726], [26.6204332, 44.0564251], [26.6183778, 44.0561273], [26.6008638, 44.0522305], [26.5819811, 44.0549447], [26.5641283, 44.0542045], [26.5304827, 44.0514903], [26.5002703, 44.0450744], [26.466968, 44.040879], [26.4261125, 44.0364365], [26.4044832, 44.039645], [26.391902, 44.0400269], [26.3678455, 44.0371393], [26.3509249, 44.0356961], [26.336162, 44.0334747], [26.3183137, 44.0292274], [26.3134606, 44.0284785], [26.3062929, 44.0265631], [26.2743639, 44.01175], [26.2637209, 44.0028603], [26.1971163, 43.9845829], [26.1761736, 43.9868061], [26.1655306, 43.9865591], [26.1442446, 43.9833477], [26.1239885, 43.9739597], [26.1071657, 43.9697593], [26.0954927, 43.9574034], [26.0858797, 43.9497415], [26.0814165, 43.942573], [26.0770829, 43.9342315], [26.072786, 43.9260903], [26.0303875, 43.9175569], [25.9642979, 43.9254703], [25.932884, 43.9116211], [25.9249874, 43.8827999], [25.9332274, 43.871849], [25.95353, 43.859464], [25.9360205, 43.8442378], [25.9221159, 43.8329703], [25.9169229, 43.8231175], [25.9152483, 43.8188422], [25.891559, 43.798278], [25.8880837, 43.7927664], [25.8758958, 43.7868183], [25.8698876, 43.7852072], [25.8652528, 43.7822328], [25.8642228, 43.7766555], [25.8637499, 43.7685341], [25.8513903, 43.7680383], [25.839374, 43.7672945], [25.8204912, 43.7553926], [25.8091616, 43.7479526], [25.8064195, 43.7426929], [25.7913088, 43.7176875], [25.7799791, 43.7087538], [25.7298463, 43.6898919], [25.7061647, 43.6893931], [25.6666826, 43.6896413], [25.6526064, 43.6854209], [25.6180604, 43.669718], [25.6054889, 43.6628356], [25.5868244, 43.6552007], [25.566934, 43.649409], [25.5608667, 43.6479811], [25.5477112, 43.6462879], [25.545721, 43.6459015], [25.5435584, 43.6455486], [25.5387658, 43.6443088], [25.5315683, 43.644398], [25.523466, 43.6446659], [25.5163992, 43.6455527], [25.5147673, 43.6461986], [25.5103049, 43.6475081], [25.5068912, 43.6477462], [25.5041356, 43.6470468], [25.5016657, 43.6470921], [25.5002841, 43.6488688], [25.4960744, 43.648892], [25.4920438, 43.6491449], [25.4856295, 43.6476953], [25.4709284, 43.6428803], [25.4675549, 43.6414282], [25.4654901, 43.6411125], [25.4602883, 43.6388652], [25.4519668, 43.6340616], [25.4464382, 43.6315493], [25.4415428, 43.6298512], [25.4332669, 43.6271783], [25.4208926, 43.624125], [25.3944277, 43.6183501], [25.3731417, 43.6213326], [25.3429293, 43.6295338], [25.31924, 43.6461812], [25.3003152, 43.6519593], [25.2924608, 43.6543789], [25.2749514, 43.6640657], [25.2584719, 43.6767307], [25.242679, 43.6856691], [25.222423, 43.687407], [25.1898073, 43.6973367], [25.1795076, 43.6980814], [25.146892, 43.6928686], [25.1307558, 43.6879035], [25.1122164, 43.6836829], [25.105779, 43.683698], [25.0899004, 43.6869105], [25.0612734, 43.6935059], [25.054018, 43.6960482], [25.0407539, 43.7036482], [25.033972, 43.7065322], [25.0284232, 43.7081576], [25.0214486, 43.7104526], [25.016086, 43.7164468], [25.0078463, 43.7246349], [24.9975466, 43.727116], [24.9786638, 43.7268679], [24.9657602, 43.7219965], [24.9496077, 43.7315382], [24.9181936, 43.7378639], [24.9073788, 43.7591929], [24.8575112, 43.758511], [24.8273417, 43.7459562], [24.8294018, 43.7430418], [24.8318481, 43.7409954], [24.8333931, 43.7297085], [24.8383712, 43.7206836], [24.8407745, 43.7160931], [24.8463802, 43.7090012], [24.834947, 43.7119396], [24.8147033, 43.7117811], [24.8008293, 43.7078709], [24.7933675, 43.7090109], [24.7778245, 43.7062207], [24.7242662, 43.7069653], [24.6851274, 43.7154029], [24.6533323, 43.7255166], [24.636094, 43.7336577], [24.6114189, 43.7447195], [24.5729718, 43.7524038], [24.5124719, 43.7618032], [24.5011934, 43.7620913], [24.4946769, 43.7602792], [24.4727943, 43.7484916], [24.4484424, 43.7430107], [24.4377425, 43.7366144], [24.409384, 43.7176875], [24.3798211, 43.7107228], [24.356133, 43.6996743], [24.3495952, 43.6971834], [24.3413592, 43.6957309], [24.331342, 43.6956038], [24.3108847, 43.6995418], [24.2936383, 43.6980567], [24.266312, 43.6921602], [24.2402146, 43.6896267], [24.2199567, 43.6849117], [24.206405, 43.68495], [24.1933823, 43.6822965], [24.1748754, 43.6812792], [24.1652882, 43.6827824], [24.1527666, 43.6864711], [24.1415819, 43.6917642], [24.1227968, 43.6973184], [24.0940071, 43.7016956], [24.0865027, 43.7034693], [24.0712329, 43.7116068], [24.0578716, 43.7194289], [24.027436, 43.7287187], [23.9785592, 43.7425989], [23.9620279, 43.7457466], [23.9322901, 43.7455586], [23.9240991, 43.7458243], [23.8861783, 43.7492798], [23.8644666, 43.755697], [23.8562347, 43.7574523], [23.8516427, 43.7586465], [23.8438725, 43.7611049], [23.8276977, 43.7670883], [23.8178334, 43.7707779], [23.8132608, 43.7728197], [23.8107255, 43.7750021], [23.7948585, 43.7911192], [23.7877847, 43.7955166], [23.7780102, 43.8002785], [23.7709211, 43.8018676], [23.7643435, 43.802405], [23.7494167, 43.803377], [23.718085, 43.8063266], [23.7024119, 43.8064462], [23.6737747, 43.8015686], [23.6302124, 43.7901979], [23.6072905, 43.7915955], [23.5540469, 43.8037646], [23.5414697, 43.8100417], [23.5296249, 43.8165073], [23.4954868, 43.8340917], [23.4438203, 43.848491], [23.4139146, 43.853179], [23.369816, 43.8472314], [23.314334, 43.8481046], [23.2836308, 43.8460716], [23.2677765, 43.8459516], [23.2492794, 43.839346], [23.2309466, 43.8345864], [23.1639805, 43.8155981], [23.1380122, 43.805105], [23.1244525, 43.80346], [23.0648557, 43.7962292], [23.0459197, 43.7967964], [23.0296997, 43.7999764], [22.9676192, 43.8100428], [22.9340799, 43.8226697], [22.9001057, 43.8258967], [22.8693681, 43.8373454], [22.850019, 43.852907], [22.8363624, 43.8763675], [22.8376391, 43.8818951], [22.8405734, 43.8939009], [22.8467544, 43.9037212], [22.8496204, 43.9082324], [22.8561885, 43.9174668], [22.8564228, 43.9179224], [22.85868611188907, 43.92232394659473], [22.850522, 43.896986], [22.851039, 43.874352], [22.863441, 43.855412], [22.888763, 43.839522], [22.919562, 43.834225], [23.052551, 43.84282], [23.131849, 43.847945], [23.161924, 43.857324], [23.196961, 43.86275], [23.234478, 43.877297], [23.325151, 43.886592], [23.484695, 43.880604], [23.592699, 43.837429], [23.620854, 43.83401], [23.636107, 43.832158], [23.720753, 43.845826], [23.742871, 43.8427], [23.799922, 43.818463], [24.149606, 43.75472], [24.159383, 43.752938], [24.336705, 43.759251], [24.358234, 43.760017], [24.375494, 43.763867], [24.431201, 43.794176], [24.466341, 43.802418], [24.500137, 43.799498], [24.661763, 43.755657], [24.661937, 43.755882], [24.66297, 43.757226], [24.683434, 43.776605], [24.694751, 43.784718], [24.708136, 43.792004], [24.735731, 43.801823], [24.745188, 43.807145], [24.746893, 43.814664], [24.741002, 43.830245], [24.697852, 43.881715], [24.66266, 43.933649], [24.631603, 43.990984], [24.630673, 44.00982], [24.636874, 44.024755], [24.657699, 44.044754], [24.675838, 44.051678], [24.692271, 44.055451], [24.709686, 44.056458], [24.723639, 44.059223], [24.734026, 44.063486], [24.763843, 44.086715], [24.77547, 44.092813], [24.788492, 44.095913], [24.822341, 44.100668], [24.835208, 44.106559], [24.841254, 44.115757], [24.839239, 44.134464], [24.834433, 44.149812], [24.832727, 44.166323], [24.834123, 44.193323], [24.845595, 44.227223], [24.848385, 44.249341], [24.84482, 44.296728], [24.837068, 44.340782], [24.837533, 44.356802], [24.838774, 44.366879], [24.851331, 44.389926], [24.830092, 44.400701], [24.781516, 44.40313], [24.772059, 44.407884], [24.765393, 44.416462], [24.760277, 44.431448], [24.755626, 44.475683], [24.743792, 44.509015], [24.743327, 44.517645], [24.745188, 44.526171], [24.750459, 44.539194], [24.750975, 44.54586], [24.741467, 44.590974], [24.734491, 44.607148], [24.73139, 44.61676], [24.729995, 44.628697], [24.724879, 44.651073], [24.716817, 44.66637], [24.692426, 44.695851], [24.68979, 44.705179], [24.692736, 44.71094], [24.698679, 44.716056], [24.707205, 44.720139], [24.724724, 44.725746], [24.72953, 44.72833], [24.730615, 44.732154], [24.725964, 44.737425], [24.717747, 44.741559], [24.700229, 44.742644], [24.68483, 44.740008], [24.668706, 44.739802], [24.653204, 44.743574], [24.633153, 44.757139], [24.621681, 44.768482], [24.576826, 44.83468], [24.569694, 44.847961], [24.568299, 44.859562], [24.570315, 44.869096], [24.57109, 44.877881], [24.568919, 44.885943], [24.563648, 44.89142], [24.554347, 44.892196], [24.545975, 44.888346], [24.534813, 44.877313], [24.525149, 44.859097], [24.521119, 44.852973], [24.514297, 44.847082], [24.47368, 44.822691], [24.465101, 44.819849], [24.45611, 44.822019], [24.449443, 44.826256], [24.437816, 44.850028], [24.462931, 44.863774], [24.502205, 44.896872], [24.508561, 44.905631], [24.511972, 44.914106], [24.510732, 44.922995], [24.50422, 44.934725], [24.495539, 44.943407], [24.489028, 44.951882], [24.488097, 44.960253], [24.495849, 44.981131], [24.506701, 45.041799], [24.537448, 45.136108], [24.535278, 45.159414], [24.52949, 45.174478], [24.521739, 45.186131], [24.515072, 45.193314], [24.50019, 45.20551], [24.495074, 45.215535], [24.493213, 45.22848], [24.497709, 45.248866], [24.5005, 45.273464], [24.491198, 45.297701], [24.489958, 45.308656], [24.491973, 45.317906], [24.497864, 45.325502], [24.506081, 45.33222], [24.513677, 45.340127], [24.516623, 45.349429], [24.514297, 45.361314], [24.493833, 45.424075], [24.493678, 45.435418], [24.496159, 45.446219], [24.525459, 45.485699], [24.539464, 45.529831], [24.527216, 45.561819], [24.321751, 45.563033], [24.265223039313156, 45.55388477184648], [24.2656197, 45.5549232], [24.2660539, 45.5559737], [24.2671792, 45.5560566], [24.2688572, 45.5555867], [24.2702588, 45.5552135], [24.2718183, 45.555407], [24.2732396, 45.5559046], [24.2751348, 45.556181], [24.2772075, 45.5561672], [24.2788855, 45.5562087], [24.2803858, 45.5566372], [24.2818269, 45.5577292], [24.2830706, 45.5585171], [24.284413, 45.5594708], [24.2857356, 45.560618], [24.2868213, 45.5613505], [24.2881445, 45.5616084], [24.2895258, 45.5620278], [24.2904931, 45.5623733], [24.2920724, 45.5623595], [24.2933556, 45.562553], [24.295152, 45.5629953], [24.2971063, 45.5631888], [24.2995004, 45.5637577], [24.3014512, 45.564542], [24.3038076, 45.5650558], [24.3063185, 45.5658806], [24.3083586, 45.5664228], [24.3101748, 45.5664366], [24.311912, 45.5670723], [24.313484, 45.5676626], [24.3151495, 45.5682056], [24.31663, 45.5686478], [24.3184264, 45.5691729], [24.3201439, 45.5697948], [24.3217034, 45.5702508], [24.3230853, 45.5707346], [24.324783, 45.5713011], [24.3264807, 45.5717571], [24.3281587, 45.5724481], [24.3298366, 45.5730008], [24.33108, 45.5733188], [24.3322233, 45.5735409], [24.3343854, 45.5742768], [24.3368449, 45.5751238], [24.3390268, 45.5759151], [24.3413475, 45.5766926], [24.3437674, 45.5768453], [24.3460881, 45.5769703], [24.3482501, 45.5768453], [24.3503526, 45.5767759], [24.352594, 45.5764011], [24.3549742, 45.5761234], [24.3573146, 45.5750821], [24.3591991, 45.5761789], [24.3620157, 45.5779838], [24.3637017, 45.5787612], [24.3659232, 45.5793304], [24.3692753, 45.5803023], [24.3721118, 45.5817183], [24.3742341, 45.5822735], [24.3769317, 45.5822597], [24.380145, 45.5824679], [24.3837153, 45.5834674], [24.3854211, 45.58387], [24.3877021, 45.5842032], [24.3897452, 45.5831065], [24.3914113, 45.582107], [24.3929981, 45.582107], [24.394704, 45.5831898], [24.3956957, 45.5835507], [24.3968858, 45.5833702], [24.3988495, 45.5827594], [24.4011504, 45.5821903], [24.4035703, 45.5827594], [24.4059703, 45.5833563], [24.4086084, 45.5838422], [24.4111473, 45.5840783], [24.4124762, 45.5840922], [24.4135672, 45.5837311], [24.4155507, 45.5829676], [24.4174747, 45.5827178], [24.419359, 45.5823291], [24.4222946, 45.5820376], [24.4251905, 45.5821208], [24.4274319, 45.5819126], [24.429951, 45.5815517], [24.4326882, 45.5810658], [24.4343544, 45.5823985], [24.435604, 45.5835923], [24.4365362, 45.5848556], [24.4375677, 45.5866185], [24.4384404, 45.5883398], [24.4412372, 45.5888118], [24.4434389, 45.5895336], [24.4452637, 45.5903386], [24.4464935, 45.590991], [24.4490522, 45.5902137], [24.4513729, 45.5892976], [24.4529002, 45.5886313], [24.4545862, 45.5874375], [24.456054, 45.5857996], [24.4571845, 45.5845503], [24.4605566, 45.582107], [24.4632541, 45.5810103], [24.4656939, 45.5807882], [24.4686096, 45.5806355], [24.4724378, 45.5812602], [24.475175, 45.5817322], [24.4761668, 45.5800663], [24.4783288, 45.5785113], [24.478547, 45.5761095], [24.4796776, 45.5748599], [24.4810859, 45.5737075], [24.4826331, 45.5727217], [24.4848348, 45.5734437], [24.4864811, 45.5743462], [24.4869769, 45.5755958], [24.4884051, 45.5765538], [24.4900514, 45.5767065], [24.4916977, 45.5765538], [24.4935225, 45.5771785], [24.4966562, 45.5786503], [24.4988979, 45.5797609], [24.5010202, 45.581163], [24.5043922, 45.5834396], [24.5060385, 45.5850361], [24.5086567, 45.5857024], [24.5111361, 45.5861466], [24.5145081, 45.5867435], [24.5158172, 45.5853137], [24.5166106, 45.5839255], [24.5177412, 45.5827317], [24.5196454, 45.5815794], [24.5220256, 45.5808298], [24.5239695, 45.579983], [24.5264936, 45.5803197], [24.5284522, 45.5813434], [24.5295828, 45.5819404], [24.5313481, 45.5827455], [24.5329349, 45.5836895], [24.5349581, 45.5846613], [24.5375367, 45.5847862], [24.5395599, 45.5848834], [24.5418607, 45.5854109], [24.544717, 45.5862854], [24.548327, 45.586563], [24.5509849, 45.5865769], [24.5535039, 45.5864936], [24.5559833, 45.5863132], [24.5579073, 45.585286], [24.5595735, 45.5843698], [24.5611206, 45.5835229], [24.5627273, 45.5823152], [24.5640761, 45.5811907], [24.5653852, 45.5799552], [24.5668728, 45.5787473], [24.5687175, 45.5777616], [24.57078, 45.5772759], [24.5719109, 45.5787473], [24.5732796, 45.5802745], [24.5745887, 45.5815794], [24.5758978, 45.5827594], [24.5772664, 45.5837311], [24.5795673, 45.5849389], [24.5812731, 45.5854109], [24.5834153, 45.5862438], [24.5851608, 45.5872848], [24.5867278, 45.5876457], [24.5882749, 45.5887007], [24.5900798, 45.5899084], [24.5911113, 45.5915739], [24.5922618, 45.5927537], [24.5935907, 45.5938363], [24.5950982, 45.5951687], [24.5965858, 45.5960292], [24.5982321, 45.596057], [24.5997793, 45.5956961], [24.6018421, 45.5952659], [24.6038653, 45.5946413], [24.605591, 45.5955157], [24.6065431, 45.5968342], [24.6077728, 45.5983331], [24.6105101, 45.5982637], [24.6127713, 45.5980555], [24.614973, 45.5980139], [24.6179483, 45.5982498], [24.6207252, 45.5987078], [24.6230062, 45.5991797], [24.6241765, 45.6004703], [24.6245534, 45.6024132], [24.625922, 45.6034678], [24.6275286, 45.6039813], [24.62977, 45.603107], [24.6309403, 45.6028156], [24.6320907, 45.6029821], [24.6330626, 45.6034401], [24.6341337, 45.602885], [24.635304, 45.6026075], [24.6366924, 45.6026075], [24.6380214, 45.6025103], [24.6401636, 45.6029821], [24.6425041, 45.6034123], [24.6449439, 45.6034678], [24.6474629, 45.6033429], [24.6497638, 45.6026768], [24.6519655, 45.6016082], [24.6536911, 45.600276], [24.6552975, 45.5990133], [24.6572416, 45.597889], [24.6587293, 45.5967093], [24.6606533, 45.5952104], [24.6634897, 45.5951548], [24.6661079, 45.5947524], [24.6682105, 45.5941972], [24.6707692, 45.593531], [24.6731296, 45.5943499], [24.6751726, 45.5954047], [24.6771363, 45.5964872], [24.6791396, 45.5977225], [24.6808454, 45.5991797], [24.6825314, 45.600609], [24.6840587, 45.6019969], [24.6861414, 45.6033152], [24.6886406, 45.6033152], [24.6909613, 45.6035788], [24.6924688, 45.6044253], [24.693044, 45.6050775], [24.6941746, 45.6050636], [24.6961581, 45.6050636], [24.6971697, 45.6050775], [24.6975664, 45.6046473], [24.6986375, 45.6035372], [24.7006012, 45.6023022], [24.7028227, 45.6027462], [24.7050046, 45.6033846], [24.7071865, 45.6040368], [24.7096262, 45.604911], [24.7115899, 45.603787], [24.7143314, 45.6032806], [24.7154577, 45.6049249], [24.7163106, 45.6061599], [24.7175999, 45.60727], [24.7212892, 45.6071313], [24.7234513, 45.6070203], [24.7259703, 45.6071035], [24.7287274, 45.6076169], [24.7301357, 45.6075753], [24.7311076, 45.6070896], [24.7352333, 45.603898], [24.737316, 45.6026491], [24.7398152, 45.6035095], [24.7423938, 45.6041617], [24.7456269, 45.6050914], [24.7474914, 45.6059101], [24.7495543, 45.6064097], [24.7520535, 45.6061321], [24.7539577, 45.606271], [24.7558222, 45.6074782], [24.7575478, 45.6092126], [24.7599876, 45.6098647], [24.7623083, 45.6096289], [24.7646687, 45.6094762], [24.7670687, 45.6098093], [24.7686754, 45.6101977], [24.7705795, 45.6113078], [24.7726225, 45.610739], [24.7737928, 45.610503], [24.7750424, 45.610614], [24.7762127, 45.6105724], [24.7772838, 45.6099896], [24.7793466, 45.6089906], [24.78135, 45.6079638], [24.7833732, 45.6066734], [24.7857534, 45.6062571], [24.7879353, 45.6054938], [24.7898394, 45.6045502], [24.7917238, 45.6036205], [24.7942428, 45.6030376], [24.7954528, 45.603107], [24.7961867, 45.6039535], [24.7984279, 45.6059518], [24.8006892, 45.6052995], [24.8019785, 45.6046473], [24.8029504, 45.6045641], [24.8040215, 45.604911], [24.8048546, 45.6054105], [24.8065406, 45.6065762], [24.8081472, 45.6078389], [24.8093969, 45.6089628], [24.8115986, 45.6106556], [24.8134631, 45.6096844], [24.8148515, 45.60906], [24.8199887, 45.6070481], [24.8220318, 45.606271], [24.8236385, 45.6055354], [24.8261972, 45.6053689], [24.8283791, 45.6057019], [24.8300055, 45.6060488], [24.831163, 45.605572], [24.8321918, 45.6047572], [24.8333954, 45.6034807], [24.8336283, 45.602014], [24.833706, 45.5999224], [24.8340165, 45.597953], [24.834036, 45.5962959], [24.8351618, 45.5950192], [24.8362101, 45.5937152], [24.8366565, 45.5914604], [24.8375689, 45.5912159], [24.8397624, 45.5912159], [24.8413153, 45.5913517], [24.8426741, 45.592384], [24.8445376, 45.5930904], [24.8466729, 45.5930225], [24.8487449, 45.593093], [24.8507494, 45.5928594], [24.8526129, 45.5920716], [24.8538164, 45.5906589], [24.8560099, 45.5906182], [24.8576017, 45.5921939], [24.8591158, 45.5932263], [24.8608822, 45.5938782], [24.8630369, 45.5940548], [24.8649781, 45.5937152], [24.8670551, 45.5937967], [24.8690545, 45.5937288], [24.8709763, 45.5939326], [24.8736939, 45.5927643], [24.8757321, 45.5926828], [24.8774404, 45.5925334], [24.8792651, 45.593104], [24.8812256, 45.5931176], [24.8831474, 45.5934028], [24.8863697, 45.5937288], [24.8902715, 45.593919], [24.8924456, 45.5938375], [24.8945226, 45.594082], [24.896852, 45.5945845], [24.8992979, 45.5948426], [24.9017631, 45.594734], [24.9039373, 45.5942178], [24.9057425, 45.5934979], [24.9068878, 45.5925063], [24.9084602, 45.5919222], [24.9104207, 45.5922618], [24.912459, 45.5930769], [24.9165936, 45.5941499], [24.9174478, 45.5941635], [24.9193307, 45.5930361], [24.9213107, 45.5918814], [24.923213, 45.5907268], [24.9271341, 45.5879421], [24.9285706, 45.586964], [24.9286483, 45.5855512], [24.9301624, 45.584247], [24.9319677, 45.5837035], [24.9339088, 45.583228], [24.9383541, 45.5821955], [24.9395382, 45.5816657], [24.9407999, 45.5813396], [24.942877, 45.5812038], [24.944954, 45.5804158], [24.9458858, 45.5801169], [24.9454199, 45.581163], [24.9436146, 45.5819374], [24.944197, 45.5834318], [24.9454005, 45.5851572], [24.946934, 45.5867466], [24.9486228, 45.5877383], [24.9505446, 45.5884448], [24.9522916, 45.5891647], [24.9538057, 45.5901971], [24.954854, 45.5916641], [24.9570087, 45.5927779], [24.9579792, 45.5934708], [24.9589692, 45.5932534], [24.9608133, 45.59271], [24.9629486, 45.5924112], [24.964948, 45.5928458], [24.9669668, 45.5934164], [24.9687333, 45.5933621], [24.9706745, 45.5927508], [24.9723439, 45.5913789], [24.9742268, 45.5903058], [24.9756244, 45.5915419], [24.9770803, 45.5923025], [24.9792738, 45.5923704], [24.9813314, 45.5922482], [24.9827982, 45.5913236], [24.9839908, 45.5902243], [24.9852914, 45.5889474], [24.9865338, 45.5879421], [24.9882031, 45.586801], [24.9893096, 45.5861489], [24.9927067, 45.5870319], [24.9946672, 45.5875345], [24.9964919, 45.5866244], [24.998336, 45.5857821], [24.9991707, 45.5859315], [25.0002966, 45.5866515], [25.0015584, 45.5871813], [25.0037907, 45.5872493], [25.0059066, 45.5874394], [25.0071101, 45.5873579], [25.0086824, 45.5868417], [25.010546, 45.5865021], [25.0124289, 45.5870183], [25.0160589, 45.5869911], [25.0191065, 45.587779], [25.02097, 45.5884991], [25.02295, 45.589056], [25.0252988, 45.5885127], [25.0266576, 45.589613], [25.0276476, 45.5906997], [25.0288317, 45.5916506], [25.0311417, 45.591569], [25.0332964, 45.5918135], [25.0342864, 45.5918814], [25.0392169, 45.5901292], [25.0412163, 45.5893413], [25.0439534, 45.5882952], [25.0462634, 45.5871677], [25.0481463, 45.5855783], [25.0494663, 45.5848176], [25.0515822, 45.5850893], [25.0542998, 45.5851708], [25.0567457, 45.5851436], [25.0602203, 45.5850621], [25.062278, 45.5851029], [25.0648985, 45.585035], [25.0668785, 45.5848176], [25.0698097, 45.5845459], [25.0722167, 45.5839209], [25.0739444, 45.583065], [25.0755943, 45.5820053], [25.0780208, 45.5813532], [25.0800396, 45.5809728], [25.0822331, 45.5809592], [25.0847372, 45.5815027], [25.087086, 45.5825216], [25.0898813, 45.5829427], [25.0918419, 45.5831058], [25.0938607, 45.5826846], [25.0955883, 45.582277], [25.0972966, 45.5823857], [25.0988495, 45.5831058], [25.1008683, 45.5835269], [25.1030812, 45.5841248], [25.1040712, 45.5844508], [25.1061677, 45.5834726], [25.1077594, 45.582345], [25.1090018, 45.581163], [25.1105741, 45.5798859], [25.1120688, 45.5789212], [25.1130782, 45.577712], [25.1142623, 45.5764212], [25.1155629, 45.5751848], [25.1162599, 45.5743225], [25.1171547, 45.5743966], [25.1193092, 45.5746821], [25.1220076, 45.5745325], [25.1240846, 45.573296], [25.125657, 45.5727389], [25.126647, 45.5726302], [25.1278893, 45.5717063], [25.1281611, 45.570225], [25.1288405, 45.5682139], [25.1289956, 45.5662707], [25.1298693, 45.564898], [25.1308205, 45.5634846], [25.1319269, 45.5622343], [25.1336546, 45.5612557], [25.1361587, 45.5604402], [25.139808, 45.5594617], [25.142681, 45.5592578], [25.1445833, 45.5585103], [25.1461945, 45.5575181], [25.1471456, 45.5563356], [25.1483103, 45.5546637], [25.1494167, 45.5531143], [25.1501544, 45.5516461], [25.1512803, 45.550178], [25.1524838, 45.5489954], [25.1531438, 45.5477039], [25.1529303, 45.5463852], [25.1532991, 45.5450258], [25.1552791, 45.5442237], [25.1572203, 45.543], [25.1584238, 45.5417357], [25.1602873, 45.5413414], [25.1623644, 45.5409064], [25.1656061, 45.540009], [25.1692749, 45.5382959], [25.170692, 45.5372897], [25.1715461, 45.5369498], [25.1727108, 45.5368818], [25.1747296, 45.5366915], [25.1764571, 45.5363245], [25.1767678, 45.5355221], [25.178379, 45.5339584], [25.1792913, 45.5326938], [25.1803201, 45.5313204], [25.1814654, 45.5296886], [25.1829213, 45.5283287], [25.1847266, 45.5277168], [25.1865124, 45.5269417], [25.1873277, 45.5257992], [25.1878324, 45.5245617], [25.1886865, 45.5232153], [25.1890942, 45.5224537], [25.1900454, 45.5219777], [25.1920448, 45.5217329], [25.194083, 45.5217737], [25.1961406, 45.52142], [25.1984118, 45.5212704], [25.20078, 45.5209168], [25.2026241, 45.5204136], [25.2046235, 45.5196519], [25.2052058, 45.5202368], [25.2063511, 45.5213792], [25.207477, 45.5225489], [25.2083505, 45.5235961], [25.2094181, 45.5246569], [25.2112234, 45.5263161], [25.2122717, 45.5269144], [25.2143293, 45.5262617], [25.2155134, 45.5255544], [25.2166587, 45.5246705], [25.2175711, 45.5235689], [25.218891, 45.5221137], [25.220774, 45.5203184], [25.222851, 45.5187815], [25.2249669, 45.5183054], [25.2271798, 45.5183735], [25.2294122, 45.5181694], [25.2318386, 45.5173806], [25.2339933, 45.5167004], [25.2366527, 45.5163195], [25.2352551, 45.5135992], [25.2342068, 45.5122388], [25.2336633, 45.5113002], [25.2341098, 45.5104297], [25.2345174, 45.5090149], [25.2351386, 45.5076137], [25.2360897, 45.5065662], [25.2365362, 45.5048657], [25.2375649, 45.5033964], [25.2394286, 45.5022671], [25.2414862, 45.5011515], [25.2425732, 45.5000086], [25.2422421, 45.4991751], [25.2418975, 45.4982251], [25.2412662, 45.4964138], [25.2414877, 45.495857], [25.2416258, 45.4940457], [25.2401464, 45.4929532], [25.2403735, 45.4902825], [25.2402794, 45.4891785], [25.2393726, 45.486679], [25.2385441, 45.4850195], [25.238623, 45.4837195], [25.2377551, 45.4822397], [25.2375973, 45.480013], [25.2378143, 45.4784501], [25.2379721, 45.476984], [25.2378734, 45.4753518], [25.2397868, 45.4749369], [25.241858, 45.4734707], [25.2417791, 45.4719214], [25.2421144, 45.4705935], [25.2440475, 45.4704275], [25.2459215, 45.4698465], [25.2477334, 45.4682732], [25.2483477, 45.4668447], [25.2496496, 45.4642161], [25.2514643, 45.462293], [25.2527465, 45.4613938], [25.2535552, 45.4603423], [25.2536539, 45.4593876], [25.2549163, 45.4588342], [25.2558039, 45.4578657], [25.2575003, 45.4572708], [25.2591967, 45.4564543], [25.258171, 45.4551814], [25.2577765, 45.4537839], [25.2571453, 45.4527045], [25.2574412, 45.4515007], [25.2590192, 45.4509334], [25.2611693, 45.4504352], [25.2632602, 45.4498401], [25.2633785, 45.448484], [25.2640295, 45.4475569], [25.2652919, 45.4467956], [25.267008, 45.4459653], [25.2711307, 45.4465881], [25.2723537, 45.4451904], [25.2731427, 45.4439587], [25.2744051, 45.4429622], [25.2746024, 45.4417858], [25.2735175, 45.4409416], [25.272117, 45.4400696], [25.2711899, 45.4394468], [25.2713871, 45.438035], [25.2715252, 45.4365817], [25.2722945, 45.4336749], [25.2729849, 45.432263], [25.2781727, 45.4328444], [25.2793167, 45.4336887], [25.2804411, 45.4343809], [25.2812301, 45.435336], [25.2831632, 45.4353498], [25.2848794, 45.4362772], [25.2862207, 45.4373567], [25.2854514, 45.4385887], [25.2867336, 45.4391146], [25.2880354, 45.4392392], [25.2902644, 45.438907], [25.2921186, 45.4387824], [25.2947421, 45.4377305], [25.2963793, 45.435945], [25.2971092, 45.4346716], [25.298273, 45.4338548], [25.3028099, 45.4342563], [25.3039342, 45.4333012], [25.3051966, 45.4326368], [25.3067944, 45.4321661], [25.3088662, 45.4318615], [25.3101083, 45.4308095], [25.3119625, 45.4301866], [25.3141717, 45.4289961], [25.3125543, 45.428124], [25.3112129, 45.4274318], [25.3109368, 45.4265873], [25.3122387, 45.4254245], [25.3156906, 45.4236385], [25.3165191, 45.4223233], [25.3161443, 45.4209387], [25.3143493, 45.4203296], [25.3126923, 45.419665], [25.3108184, 45.4188066], [25.3097532, 45.4175327], [25.3098519, 45.4157743], [25.3104436, 45.4144173], [25.309122, 45.4131849], [25.3082936, 45.4120218], [25.3080371, 45.4085598], [25.3075637, 45.4070503], [25.3075045, 45.4056239], [25.308116, 45.4029787], [25.3089839, 45.4016352], [25.3096445, 45.4004695], [25.311479, 45.40004], [25.3123665, 45.3991537], [25.3124258, 45.3978656], [25.3116997, 45.3952041], [25.3114827, 45.3938327], [25.3099244, 45.3930986], [25.3088197, 45.3921705], [25.3088, 45.3904112], [25.3096877, 45.3887351], [25.3109757, 45.3873755], [25.3215979, 45.3809697], [25.3679465, 45.3914586], [25.405197, 45.3882036], [25.4108618, 45.4283351], [25.430088, 45.4377913], [25.4366111, 45.4372493], [25.4527902, 45.4414047], [25.4539488, 45.442549], [25.4540623, 45.44304], [25.4543717, 45.4434644], [25.4547756, 45.4438876], [25.4558995, 45.445071], [25.4559248, 45.4453954], [25.4560322, 45.4456889], [25.4560133, 45.4460142], [25.4559817, 45.4462967], [25.4554772, 45.447026], [25.4549324, 45.4476747], [25.4549141, 45.4480628], [25.4550569, 45.4482331], [25.455401, 45.4485909], [25.4558371, 45.4488116], [25.462446, 45.4538092], [25.4760932, 45.4538091], [25.4852771, 45.4601307], [25.4958343, 45.4644049], [25.4983234, 45.4674749], [25.5027866, 45.4669933], [25.511713, 45.4703942], [25.5149101, 45.4723505], [25.5099963, 45.4777672], [25.5107687, 45.5016549], [25.5257032, 45.4986469], [25.5360029, 45.5093545], [25.5528257, 45.5069486], [25.5691336, 45.5121214], [25.5790899, 45.5083922], [25.5964277, 45.5145272], [25.6250952, 45.4987672], [25.6381414, 45.5058658], [25.6484411, 45.5266749], [25.6438921, 45.5346118], [25.6577108, 45.5314853], [25.668783, 45.5245703], [25.6749628, 45.5264946], [25.6815718, 45.5143467], [25.6991671, 45.5035799], [25.7022142, 45.495729], [25.6998968, 45.4903139], [25.7012271, 45.488238], [25.6999395, 45.4831834], [25.7118702, 45.4755102], [25.7258604, 45.4654283], [25.7452581, 45.4680769], [25.7657717, 45.4652778], [25.7708787, 45.4696117], [25.7715224, 45.473825], [25.7833241, 45.4788806], [25.7860706, 45.4814684], [25.8004902, 45.4698827], [25.8087729, 45.4686789], [25.8123777, 45.4661507], [25.8135794, 45.4607327], [25.826454, 45.4400197], [25.8231924, 45.4312263], [25.84877, 45.4268894], [25.8604429, 45.4220702], [25.867996, 45.4239979], [25.8669661, 45.4364061], [25.8894537, 45.4477278], [25.892372, 45.4603716], [25.8892821, 45.4639835], [25.8920287, 45.4716281], [25.8969211, 45.4771653], [25.8955478, 45.4816789], [25.8899688, 45.4850489], [25.9008693, 45.4991282], [25.9081649, 45.500933], [25.9180354, 45.5147677], [25.9201812, 45.5214433], [25.9242152, 45.5227061], [25.9376906, 45.5129032], [25.9586333, 45.5106778], [25.9685039, 45.5077906], [25.9711646, 45.5112191], [25.9810781, 45.5116702], [25.9953474, 45.5143918], [26.0093593, 45.5032791], [26.0135221, 45.490344], [26.0206461, 45.4895016], [26.0304737, 45.4857709], [26.0411596, 45.478399]]], [[[23.9847074, 45.516316], [23.9845692, 45.5176163], [23.9842533, 45.5188888], [23.9837993, 45.5200506], [23.983444, 45.5211295], [23.9827333, 45.5224573], [23.9823582, 45.5237021], [23.9824175, 45.5250851], [23.9818845, 45.5263022], [23.9815094, 45.5277129], [23.9810554, 45.5290266], [23.9807592, 45.5302851], [23.9805026, 45.5315021], [23.9802657, 45.5326637], [23.9819832, 45.5328849], [23.9837598, 45.5329956], [23.9855563, 45.5328988], [23.9873329, 45.5325116], [23.9896821, 45.5320552], [23.991597, 45.5318616], [23.9933342, 45.531433], [23.9945384, 45.5305756], [23.9969862, 45.5300085], [23.9983089, 45.529082], [24.000204, 45.5278097], [24.0006975, 45.5268416], [24.0009739, 45.5261086], [24.0014082, 45.5257766], [24.0015266, 45.5263852], [24.0022768, 45.5272012], [24.0032835, 45.5279895], [24.0044088, 45.5283905], [24.0054156, 45.5289713], [24.0067579, 45.5296904], [24.0080016, 45.5303127], [24.0111799, 45.5320138], [24.0125222, 45.531433], [24.0142397, 45.5311011], [24.015819, 45.5306862], [24.0173983, 45.5307139], [24.0192539, 45.5308245], [24.0205765, 45.5308383], [24.0218597, 45.5305618], [24.0233797, 45.5297596], [24.0293612, 45.5265097], [24.0306838, 45.5258319], [24.0320657, 45.5251404], [24.0328553, 45.5244074], [24.0340398, 45.5238957], [24.0356388, 45.523384], [24.0369614, 45.5227063], [24.0387579, 45.5222775], [24.0410477, 45.5222361], [24.0426662, 45.5222639], [24.0443643, 45.522319], [24.0460422, 45.5221116], [24.0476412, 45.5215029], [24.0489046, 45.5209635], [24.0507603, 45.5203688], [24.0525172, 45.5199123], [24.0545308, 45.5196495], [24.0561298, 45.5193867], [24.0579262, 45.5192346], [24.0597818, 45.518875], [24.0612624, 45.5181972], [24.0620718, 45.5176163], [24.063197, 45.5169246], [24.0645394, 45.5160808], [24.0661384, 45.515652], [24.0678559, 45.5153615], [24.0711328, 45.5150987], [24.0731661, 45.5149189], [24.0752982, 45.5140613], [24.0771143, 45.5135771], [24.0790489, 45.5131898], [24.0808651, 45.512927], [24.0827405, 45.5127748], [24.0846158, 45.5126503], [24.087419, 45.5129131], [24.0903206, 45.5133975], [24.0921766, 45.5136463], [24.0937559, 45.5138123], [24.095493, 45.5140198], [24.0973092, 45.513508], [24.0987305, 45.5130653], [24.1004283, 45.5125534], [24.1028366, 45.5117511], [24.1053727853733, 45.51136752969026], [24.06833, 45.496396], [24.049416, 45.49588], [24.034068, 45.498153], [23.998515, 45.509005], [23.98652067272471, 45.51001954168775], [23.986188, 45.5113776], [23.9860695, 45.5128578], [23.9861485, 45.5141858], [23.9854378, 45.5153892], [23.9847074, 45.516316]]], [[[23.5938618, 45.450351], [23.595043, 45.4516551], [23.5957788, 45.4534345], [23.5958563, 45.4549831], [23.5954884, 45.4559204], [23.5947332, 45.4567082], [23.5938037, 45.458148], [23.5931259, 45.4596965], [23.5932034, 45.4608781], [23.5941716, 45.4626165], [23.5951205, 45.4636351], [23.5962049, 45.4648847], [23.5973474, 45.4664736], [23.595895, 45.4676551], [23.5948106, 45.4692848], [23.5955465, 45.4704662], [23.5967664, 45.471797], [23.5976959, 45.473834], [23.5982575, 45.4766447], [23.5982381, 45.4791838], [23.5973861, 45.4811118], [23.5955658, 45.482456], [23.5934831, 45.4833776], [23.5934551, 45.4845196], [23.5932808, 45.4858772], [23.5921964, 45.4871941], [23.5919834, 45.4883209], [23.5932808, 45.4892168], [23.5947719, 45.4899499], [23.5956433, 45.4909545], [23.5958369, 45.4917554], [23.5954109, 45.4924613], [23.5941135, 45.493425], [23.5921576, 45.4945924], [23.5911701, 45.4959091], [23.589834, 45.4971036], [23.5880403, 45.4983292], [23.586755, 45.4994789], [23.5864646, 45.5003611], [23.5861354, 45.501854], [23.5855351, 45.5033877], [23.5841215, 45.5044056], [23.582611, 45.5049892], [23.5804809, 45.5055185], [23.5784864, 45.5062241], [23.5769954, 45.5069705], [23.5755624, 45.5073777], [23.5743231, 45.5073505], [23.5748265, 45.5092098], [23.5750976, 45.5104582], [23.57533, 45.5110146], [23.5746523, 45.5116523], [23.5732052, 45.5133106], [23.5756786, 45.5131722], [23.5780604, 45.5131044], [23.5802292, 45.5131586], [23.5825336, 45.5131586], [23.584683, 45.5125479], [23.5868906, 45.5128737], [23.5886747, 45.5136496], [23.590686, 45.5133215], [23.5926224, 45.5128466], [23.5933971, 45.5125724], [23.5957453, 45.5126589], [23.5984611, 45.5105876], [23.6018943, 45.5123318], [23.607602, 45.5077906], [23.611207, 45.507941], [23.6152839, 45.5069184], [23.6206054, 45.5098958], [23.6242103, 45.5096252], [23.6258411, 45.5108582], [23.6286306, 45.5110988], [23.6312484, 45.5122115], [23.6256737, 45.5185108], [23.6248111, 45.5207216], [23.6320853, 45.5233375], [23.6356473, 45.5228715], [23.6410331, 45.5265246], [23.6448741, 45.5286892], [23.6489246, 45.5267553], [23.6481361, 45.5258552], [23.6474841, 45.5250247], [23.645607, 45.5245125], [23.645034, 45.5242357], [23.6449155, 45.5236404], [23.6458046, 45.5228929], [23.6471482, 45.5220623], [23.6486301, 45.521287], [23.6487486, 45.5204426], [23.6493414, 45.519958], [23.6503886, 45.5198196], [23.6511394, 45.5193766], [23.6508628, 45.5181999], [23.650349, 45.5173692], [23.6502898, 45.5164554], [23.651416, 45.515957], [23.6521273, 45.5152924], [23.6525027, 45.5145448], [23.6529967, 45.5140602], [23.6528979, 45.5136034], [23.6532535, 45.5129803], [23.6539451, 45.512731], [23.6540241, 45.5122187], [23.6532733, 45.5119695], [23.6541822, 45.511388], [23.6555455, 45.511568], [23.6567112, 45.5113603], [23.6569286, 45.5105849], [23.6578177, 45.5103772], [23.65845, 45.5099203], [23.6596157, 45.5096572], [23.6600899, 45.5102665], [23.660821, 45.5102388], [23.6610186, 45.5096295], [23.662046, 45.5093388], [23.6621017, 45.5086567], [23.663844, 45.5087295], [23.6658001, 45.5089926], [23.6674598, 45.509408], [23.6693764, 45.5093249], [23.6706607, 45.5100588], [23.6714115, 45.5101834], [23.6721426, 45.5106265], [23.6729131, 45.510668], [23.6733281, 45.5110834], [23.6744345, 45.5115957], [23.6750866, 45.5122187], [23.6763709, 45.5123295], [23.6769636, 45.5128972], [23.677912, 45.5130357], [23.678564, 45.5136172], [23.6793346, 45.5146002], [23.6801645, 45.5147248], [23.6805201, 45.5140879], [23.6810931, 45.5141433], [23.6816068, 45.5149879], [23.6821798, 45.5155001], [23.6830294, 45.5153755], [23.683879, 45.515777], [23.6852819, 45.5167184], [23.6864476, 45.5178953], [23.6877122, 45.5182276], [23.6888779, 45.5184075], [23.6890558, 45.5191551], [23.6893324, 45.5195704], [23.6902215, 45.519875], [23.6909029, 45.5202126], [23.6917824, 45.5193212], [23.6925728, 45.5182829], [23.692632, 45.5172031], [23.6925728, 45.5157078], [23.6932643, 45.5142818], [23.694272, 45.5132018], [23.694924, 45.5118033], [23.6962281, 45.5108341], [23.6978487, 45.5086534], [23.6998433, 45.5083548], [23.7016829, 45.5079883], [23.7039292, 45.5074455], [23.705033, 45.5073505], [23.7061755, 45.5076084], [23.707744, 45.5083141], [23.7082668, 45.5068755], [23.7086541, 45.5052606], [23.7094093, 45.5037677], [23.7101258, 45.5024783], [23.7113651, 45.5011347], [23.7120816, 45.5003475], [23.7119461, 45.4998182], [23.7110747, 45.4990988], [23.7090801, 45.4985423], [23.7074923, 45.4974157], [23.7037355, 45.4961534], [23.7049942, 45.4950811], [23.7073323, 45.4937869], [23.7084972, 45.4924137], [23.7091303, 45.4906567], [23.7089074, 45.488981], [23.7083275, 45.4874766], [23.7078635, 45.4858095], [23.7071869, 45.4844], [23.7063749, 45.483153], [23.7058723, 45.4820416], [23.704809, 45.4809165], [23.7037264, 45.4798728], [23.7028372, 45.4788969], [23.7022765, 45.4778125], [23.7012459, 45.4770517], [23.6989901, 45.4762129], [23.6965349, 45.4755757], [23.694505, 45.4746268], [23.6928038, 45.4734068], [23.6920692, 45.4721053], [23.6906386, 45.4709665], [23.6899426, 45.4695837], [23.69014448093166, 45.468928935745566], [23.679154, 45.462858], [23.658691, 45.453867], [23.646908, 45.450508], [23.626083, 45.451929], [23.588285668149872, 45.447752673854296], [23.5883042, 45.448123], [23.589071, 45.449721], [23.5906473, 45.4497532], [23.5931647, 45.4496037], [23.5938618, 45.450351]]], [[[22.9893051, 45.2785253], [22.9924756, 45.279736], [22.9947374, 45.2804977], [22.99669, 45.2810146], [22.9985845, 45.2816268], [23.0005942, 45.2815369], [23.0028763, 45.2813955], [23.0050415, 45.2813411], [23.007458, 45.2812187], [23.0096425, 45.281069], [23.0115564, 45.2809602], [23.0135089, 45.280865], [23.0155195, 45.2806202], [23.0177233, 45.2806202], [23.0199079, 45.2804705], [23.0220731, 45.2804705], [23.0252049, 45.280729], [23.0284913, 45.2809738], [23.0305019, 45.2811643], [23.0326091, 45.2814907], [23.0346583, 45.2817084], [23.0367848, 45.2817628], [23.0387567, 45.2820892], [23.0410766, 45.2823477], [23.0432611, 45.2826061], [23.0455036, 45.2828646], [23.0475613, 45.2831823], [23.0493894, 45.2833951], [23.0512453, 45.2836535], [23.0534298, 45.2840343], [23.0559236, 45.28432], [23.0579728, 45.2846192], [23.0599254, 45.2847825], [23.0619166, 45.2849729], [23.0640528, 45.2852182], [23.0658604, 45.2856802], [23.0669623, 45.2868499], [23.0679869, 45.2878836], [23.0687988, 45.288006], [23.0705387, 45.2871899], [23.072182, 45.2864146], [23.0742698, 45.2856666], [23.0765317, 45.2848233], [23.0782329, 45.2844288], [23.0808621, 45.284252], [23.082834, 45.2839527], [23.0849025, 45.2838575], [23.0871837, 45.2840071], [23.0892716, 45.2849049], [23.0910115, 45.2865507], [23.0919781, 45.2877612], [23.0954385, 45.2920589], [23.0963665, 45.2924261], [23.0972751, 45.2917189], [23.0991503, 45.2905085], [23.1001362, 45.2902773], [23.1012188, 45.2905085], [23.1021854, 45.2909165], [23.1031907, 45.2911341], [23.1044279, 45.2909437], [23.1054472, 45.2905696], [23.1089903, 45.2902909], [23.1125474, 45.2902773], [23.114732, 45.2902365], [23.1170132, 45.2897197], [23.1189047, 45.2889934], [23.1210922, 45.2878972], [23.1231028, 45.2864146], [23.1254806, 45.2852041], [23.1270272, 45.2843064], [23.1291537, 45.284184], [23.1308743, 45.2835175], [23.1325175, 45.2829598], [23.1342768, 45.2821164], [23.135804, 45.2815859], [23.1378532, 45.2817628], [23.1443488, 45.2823477], [23.1457214, 45.2836127], [23.1473839, 45.2847825], [23.1487952, 45.285789], [23.1501098, 45.2871899], [23.1513084, 45.288142], [23.1532029, 45.288754], [23.1564307, 45.2890002], [23.1588479, 45.2891485], [23.1607811, 45.2891348], [23.1626563, 45.2897197], [23.1646089, 45.2903589], [23.1665614, 45.2910117], [23.1682626, 45.2916917], [23.1691713, 45.2924941], [23.1704166, 45.2930825], [23.1738883, 45.296098], [23.1748549, 45.2974307], [23.1758215, 45.298437], [23.1764208, 45.2983146], [23.1773101, 45.2973899], [23.1796686, 45.2959076], [23.1811765, 45.2949013], [23.1820851, 45.2948061], [23.1827811, 45.2959076], [23.1843083, 45.2966284], [23.1861062, 45.2971995], [23.1880974, 45.2977299], [23.1902363, 45.298174], [23.1920992, 45.2980834], [23.1961396, 45.2979746], [23.1972415, 45.2986546], [23.1985754, 45.2996064], [23.1996774, 45.3009526], [23.2013206, 45.3011974], [23.2035631, 45.3012654], [23.205883, 45.3012926], [23.2080675, 45.3010886], [23.2102327, 45.3010614], [23.2123979, 45.3008575], [23.2142538, 45.3009119], [23.216071, 45.3009934], [23.2182749, 45.3011294], [23.2205561, 45.301143], [23.2226826, 45.3011022], [23.2249494, 45.3011558], [23.227245, 45.301211], [23.2291975, 45.3012518], [23.2313241, 45.3013062], [23.2334893, 45.3015374], [23.2347458, 45.3020541], [23.2359058, 45.3029515], [23.237027, 45.3042296], [23.2382836, 45.3056709], [23.2400428, 45.306813], [23.2417634, 45.3076832], [23.2440446, 45.3078192], [23.2467704, 45.3079007], [23.2485683, 45.3091924], [23.2505015, 45.3087709], [23.2524734, 45.3084718], [23.2552186, 45.3083222], [23.2581184, 45.3085262], [23.2602643, 45.3086213], [23.2622555, 45.3087165], [23.2644787, 45.3088797], [23.2671914, 45.3088199], [23.2701043, 45.3081727], [23.2730041, 45.3078464], [23.274802, 45.3078056], [23.2768126, 45.3077512], [23.280273, 45.3078328], [23.2835788, 45.3082271], [23.2854733, 45.3087981], [23.2872906, 45.3092739], [23.2893784, 45.3096138], [23.291273, 45.3095731], [23.2926649, 45.3092196], [23.2940955, 45.3083086], [23.2961447, 45.3073977], [23.2981166, 45.3069762], [23.2997985, 45.3067315], [23.3014223, 45.3060244], [23.302479070547655, 45.30536862991304], [23.260059, 45.299277], [23.244091, 45.295168], [23.189469, 45.271759], [23.173604, 45.268788], [23.161047, 45.269123], [23.130661, 45.278864], [23.116036, 45.280441], [23.090767, 45.279355], [23.026998, 45.259667], [23.011753, 45.25915], [23.001521, 45.261837], [22.99408, 45.267263], [22.985398, 45.272069], [22.98037170763705, 45.27354916501259], [22.9813016, 45.2740224], [22.9835828, 45.2755461], [22.9852454, 45.2766752], [22.9869466, 45.2775867], [22.9893051, 45.2785253]]], [[[22.966261, 44.0973322], [22.9242155, 44.1004944], [22.8638856, 44.136501], [22.838176, 44.1465151], [22.7886896, 44.1658998], [22.7709621, 44.1801927], [22.7578132, 44.1934193], [22.7354595, 44.2022616], [22.6991762, 44.2042041], [22.6950626, 44.2047007], [22.6876505, 44.2076103], [22.6781896, 44.2129885], [22.6751157, 44.2160807], [22.6715767, 44.222372], [22.6722624, 44.2302172], [22.675951, 44.2388093], [22.6831698, 44.2486427], [22.684701, 44.2584469], [22.6805722, 44.2775101], [22.6731306, 44.2836818], [22.6614471, 44.2884417], [22.6118795, 44.2927495], [22.5761088, 44.3022069], [22.5679359, 44.3045736], [22.5584102, 44.3102853], [22.5293192, 44.3373062], [22.5087739, 44.3721668], [22.5016307, 44.3936622], [22.4993749, 44.4109423], [22.4820019, 44.4305939], [22.4660811, 44.4485972], [22.4586378, 44.4628385], [22.4559779, 44.4679268], [22.4566194, 44.4717882], [22.4574162, 44.4765844], [22.4650492, 44.4806295], [22.4739947, 44.4822048], [22.47810452945863, 44.481618673560256], [22.477212, 44.476976], [22.477005, 44.463954], [22.480002, 44.455789], [22.500983, 44.44194], [22.505427, 44.435015], [22.506357, 44.427522], [22.50398, 44.411709], [22.505117, 44.404061], [22.522687, 44.37507], [22.549352, 44.348974], [22.582838, 44.328406], [22.621182, 44.315901], [22.662523, 44.311663], [22.68154, 44.305307], [22.689498, 44.291716], [22.685364, 44.243657], [22.690739, 44.228878], [22.69164, 44.228435], [22.906436, 44.122889], [22.942609, 44.111469], [22.988085, 44.107025], [23.008307, 44.100446], [23.030976, 44.093072], [23.034007606224876, 44.082823204332456], [23.0299035, 44.0865453], [23.0146091, 44.0928334], [22.9930351, 44.0983018], [22.966261, 44.0973322]]], [[[22.6842212, 44.6153163], [22.6760897, 44.6163339], [22.6625501, 44.6174794], [22.6376265, 44.6124765], [22.6211529, 44.6140694], [22.602197, 44.6217169], [22.582684, 44.6325367], [22.5709923, 44.6390187], [22.5638345, 44.6454801], [22.5541031, 44.6542634], [22.5455508, 44.6599617], [22.5396902, 44.6638662], [22.540083, 44.6701845], [22.5368314, 44.6720398], [22.5291946, 44.6763253], [22.5238499, 44.6791746], [22.5189562, 44.6793937], [22.5104732, 44.6855637], [22.4992864, 44.6936994], [22.4959106, 44.6961542], [22.4798658, 44.7105295], [22.4737618, 44.7114822], [22.4666133, 44.7124875], [22.467743, 44.7137246], [22.4687997, 44.7145546], [22.4696711, 44.7158589], [22.4702088, 44.7171104], [22.4705054, 44.7184278], [22.4715251, 44.7198111], [22.4719144, 44.7211153], [22.4718588, 44.7224194], [22.4715436, 44.7237367], [22.4709503, 44.7250407], [22.470561, 44.7262658], [22.4702644, 44.7279122], [22.4701902, 44.7290582], [22.470181839947024, 44.729671240425475], [22.483723, 44.72399], [22.553279, 44.669161], [22.587489, 44.649369], [22.621182, 44.637432], [22.700144, 44.63061], [22.714716, 44.623065], [22.765153, 44.58281], [22.759262, 44.564671], [22.756097288020708, 44.56236257946917], [22.7418106, 44.5752987], [22.7076861, 44.6011671], [22.7018365, 44.6080429], [22.6937619, 44.6117949], [22.6842212, 44.6153163]]], [[[22.4288164, 44.761075], [22.4279973, 44.7626397], [22.4271198, 44.7641074], [22.4265933, 44.7648689], [22.4267688, 44.7657966], [22.4277633, 44.7665027], [22.4290894, 44.7671673], [22.4292649, 44.7685103], [22.4288554, 44.7699086], [22.4289529, 44.7715423], [22.4303375, 44.7729682], [22.43063, 44.7743249], [22.4299865, 44.7754601], [22.4290309, 44.7766921], [22.4284654, 44.7780903], [22.4285824, 44.7794468], [22.4292454, 44.7801666], [22.4294209, 44.7813709], [22.4292064, 44.7823952], [22.4284459, 44.783198], [22.4271198, 44.7840147], [22.4261447, 44.7851773], [22.4250917, 44.7863815], [22.4247406, 44.7878901], [22.4247016, 44.7895509], [22.4248381, 44.7909073], [22.4240386, 44.7921805], [22.4228295, 44.7936474], [22.422342, 44.7950313], [22.4223615, 44.7963183], [22.422576, 44.7976468], [22.422537, 44.7989337], [22.4235316, 44.7991274], [22.4246236, 44.7992658], [22.4254037, 44.7997086], [22.4269833, 44.8008156], [22.4283484, 44.8024484], [22.4292064, 44.8037767], [22.429967, 44.8050912], [22.430435, 44.8064886], [22.4310591, 44.8077892], [22.4325802, 44.8088407], [22.4340622, 44.8098922], [22.4356808, 44.8113587], [22.4370459, 44.8125346], [22.4390936, 44.8136414], [22.4402636, 44.8144161], [22.4412972, 44.815343], [22.4426038, 44.8163943], [22.4430718, 44.8178469], [22.4439689, 44.8190503], [22.445178, 44.8202676], [22.445341, 44.8213283], [22.4448659, 44.8227851], [22.4446904, 44.8243204], [22.4439884, 44.8258834], [22.4440469, 44.8269069], [22.4446124, 44.8276399], [22.4451195, 44.8282347], [22.445217, 44.8290645], [22.4446904, 44.8296592], [22.4438714, 44.8301018], [22.4434033, 44.8306965], [22.4433058, 44.831388], [22.4446124, 44.8322731], [22.4456655, 44.8331305], [22.4466601, 44.8343199], [22.4479276, 44.8351081], [22.4493902, 44.8355783], [22.4513014, 44.8353986], [22.4525884, 44.8353571], [22.4536805, 44.8360347], [22.4539925, 44.8366846], [22.454012, 44.8383579], [22.4543435, 44.8399343], [22.4555526, 44.8412756], [22.4569177, 44.8425339], [22.4581658, 44.8434327], [22.4586143, 44.8445527], [22.4582438, 44.846198], [22.4582243, 44.8475668], [22.4578343, 44.8487697], [22.4578343, 44.8500002], [22.4585363, 44.8511891], [22.4586923, 44.851991], [22.4591214, 44.8525716], [22.4607985, 44.8535117], [22.4623196, 44.854355], [22.4638017, 44.8551568], [22.4648742, 44.8559725], [22.4659468, 44.8565531], [22.4669414, 44.8562213], [22.4680529, 44.8563734], [22.4696828, 44.8578583], [22.469574, 44.8588478], [22.4693985, 44.8600781], [22.4692425, 44.8616539], [22.469262, 44.8626353], [22.4700226, 44.8635199], [22.471173, 44.864612], [22.4718752, 44.865455], [22.4723042, 44.8661046], [22.4716022, 44.8668234], [22.4713291, 44.868399], [22.4724407, 44.8696705], [22.4736888, 44.8707762], [22.4754829, 44.8716607], [22.477121, 44.8722826], [22.4779206, 44.8728077], [22.4780766, 44.873554], [22.4781546, 44.8750742], [22.4780376, 44.8762212], [22.4785836, 44.8772438], [22.4795782, 44.878142], [22.4814698, 44.8790126], [22.4833809, 44.8797588], [22.4851555, 44.8803115], [22.4861501, 44.8813755], [22.4864816, 44.8829369], [22.4860916, 44.8843049], [22.4856431, 44.8859077], [22.4858966, 44.8870683], [22.4867936, 44.8883117], [22.4871251, 44.8895828], [22.4876907, 44.8905914], [22.4879247, 44.8920835], [22.4885292, 44.8934788], [22.4881002, 44.8941696], [22.4873982, 44.8947222], [22.4871056, 44.8958135], [22.4870861, 44.8968772], [22.4872617, 44.89801], [22.4865011, 44.8988665], [22.484863, 44.89964], [22.4840244, 44.9000682], [22.4836734, 44.9008142], [22.4826984, 44.9016015], [22.4820938, 44.9029414], [22.4818598, 44.9044332], [22.4818208, 44.9056072], [22.4821523, 44.906284], [22.4831274, 44.9066569], [22.485136, 44.9069746], [22.4872227, 44.9073337], [22.4893678, 44.9075132], [22.4902453, 44.9084386], [22.4895433, 44.9098197], [22.4895433, 44.9108556], [22.4906159, 44.911408], [22.4912399, 44.9120157], [22.4913764, 44.9127476], [22.4915714, 44.9141701], [22.491981, 44.9156754], [22.4928195, 44.9169321], [22.4934826, 44.9182853], [22.4941456, 44.9193072], [22.4942041, 44.9207433], [22.4941261, 44.9218756], [22.4935411, 44.9225522], [22.492644, 44.9227869], [22.4920395, 44.9234359], [22.4919225, 44.9242368], [22.4912984, 44.9249271], [22.4902612, 44.9256071], [22.4901097, 44.9270023], [22.4893328, 44.9281293], [22.4877221, 44.9292025], [22.4869496, 44.9305741], [22.4867351, 44.9316096], [22.485487, 44.934564], [22.4870861, 44.9356132], [22.4888607, 44.936331], [22.4895412, 44.9383912], [22.4908108, 44.9404836], [22.4911518, 44.9424686], [22.493293, 44.9444536], [22.496268, 44.9457814], [22.4973048, 44.9467527], [22.4979873, 44.9479397], [22.4990014, 44.9491542], [22.5020435, 44.952991], [22.5031357, 44.9543572], [22.5041107, 44.9554475], [22.5049883, 44.9567033], [22.5059049, 44.9578624], [22.5069579, 44.9592286], [22.507777, 44.9603187], [22.5086799, 44.961605], [22.5097466, 44.9626507], [22.5103901, 44.963658], [22.5112092, 44.9646514], [22.5108582, 44.9656311], [22.5091811, 44.9664452], [22.5073674, 44.9668177], [22.5057683, 44.9673834], [22.5038377, 44.9675076], [22.5028627, 44.968363], [22.5022971, 44.9690804], [22.5014196, 44.9694391], [22.4998595, 44.9697703], [22.4989039, 44.9703773], [22.4990014, 44.9711775], [22.4997815, 44.9719363], [22.5003665, 44.9727365], [22.500425, 44.9741161], [22.5009515, 44.9757026], [22.5008735, 44.9768062], [22.500815, 44.9784891], [22.500815, 44.9793996], [22.5019656, 44.9799514], [22.5033502, 44.9810963], [22.5043643, 44.9826826], [22.5060024, 44.9836343], [22.508128, 44.9841585], [22.5102926, 44.9844757], [22.5113457, 44.9849723], [22.5119892, 44.9858412], [22.5122428, 44.9869446], [22.5133738, 44.9879791], [22.5151094, 44.9889445], [22.516455, 44.98951], [22.5175276, 44.9902134], [22.5181321, 44.9910271], [22.5190292, 44.9917856], [22.5206283, 44.9922959], [22.5225589, 44.9931648], [22.5243335, 44.9943094], [22.5255231, 44.994599], [22.5267517, 44.9945577], [22.5284288, 44.9945163], [22.5299499, 44.9953713], [22.5309055, 44.9963091], [22.5320365, 44.9973847], [22.5332456, 44.9987223], [22.534513, 44.9997842], [22.5354044, 45.0009305], [22.5365559, 45.0024733], [22.5375459, 45.0032304], [22.5387378, 45.0036875], [22.5394449, 45.0044017], [22.5399095, 45.0052302], [22.5408995, 45.0070728], [22.5417278, 45.0086296], [22.5430207, 45.0099722], [22.5448995, 45.0111148], [22.5456672, 45.0128858], [22.546839, 45.013757], [22.5488996, 45.0146139], [22.550435, 45.015985], [22.5520108, 45.0169561], [22.5550411, 45.0190268], [22.5570008, 45.0218971], [22.5572634, 45.0233822], [22.5590614, 45.0245959], [22.5596069, 45.0263094], [22.5615059, 45.0275088], [22.5615867, 45.0285796], [22.5606776, 45.0297076], [22.5602129, 45.0303358], [22.5613645, 45.0311354], [22.5622534, 45.0319777], [22.5623279, 45.0335843], [22.5648393, 45.0342192], [22.5667383, 45.0353613], [22.5676676, 45.0369746], [22.5684151, 45.0387019], [22.5691222, 45.0393443], [22.5705162, 45.0393729], [22.5728797, 45.039687], [22.5724354, 45.0406862], [22.5727586, 45.0413429], [22.57389, 45.0417283], [22.5762334, 45.0422136], [22.5786577, 45.0424848], [22.5810012, 45.0424706], [22.583246989670783, 45.042658675518204], [22.566613, 45.023919], [22.558654, 45.009191], [22.554934, 44.997409], [22.553693, 44.986867], [22.550283, 44.973457], [22.544702, 44.957721], [22.533695, 44.934234], [22.491785, 44.884599], [22.46698, 44.839331], [22.451581, 44.79153], [22.441814, 44.769412], [22.432060551633977, 44.75860838874054], [22.4315271, 44.7587902], [22.4304155, 44.7588456], [22.429616, 44.7592472], [22.4290504, 44.7600642], [22.4288164, 44.761075]]]]}, "properties": {"name": "Валашское княжество восточнее Олта (Мунтения), без раий", "source": "OpenHistoricalMap (CC0) relations 2929116, 2929117, 2694163, 2746380, 2746400, 2692354; Natural Earth admin-1; нарезка 22.09.2026"}}]}