{"type":"FeatureCollection","features":[{"type":"Feature","properties":{"s":"liberated"},"geometry":{"type":"Polygon","coordinates":[[[31.2458,51.5559],[31.2286,51.5819],[31.2532,51.5966],[31.2839,51.6001],[31.2806,51.5914],[31.393,51.5172],[31.4665,51.5305],[31.5637,51.5418],[31.6588,51.5454],[31.6924,51.5505],[31.7549,51.5518],[31.8238,51.564],[31.8957,51.6875],[31.9381,51.7109],[31.9517,51.7335],[31.9803,51.7697],[32.134,51.7626],[32.2786,51.7387],[32.301,51.7228],[32.3244,51.7217],[32.3711,51.6931],[32.4568,51.6043],[32.4574,51.5699],[32.5164,51.5266],[32.5505,51.5545],[32.522,51.5688],[32.5565,51.5964],[32.5848,51.6732],[32.7245,51.7486],[32.7082,51.8889],[32.7301,52.0733],[32.6478,52.1678],[32.6749,52.2714],[32.5956,52.299],[32.5846,52.2317],[32.5654,52.161],[32.4802,52.1408],[32.4637,52.0733],[32.3429,52.0057],[32.3456,51.9499],[32.4473,51.8991],[32.2577,51.8465],[32.1806,51.7902],[32.0054,51.7933],[31.9704,51.8395],[31.9391,51.8686],[31.8732,51.8855],[31.8669,51.8915],[31.8729,51.9166],[31.8878,51.9369],[31.8551,51.971],[31.8705,52.0212],[31.8361,52.0509],[31.8183,52.0769],[31.8058,52.1002],[31.7965,52.1035],[31.7937,52.1083],[31.7914,52.109],[31.7872,52.1117],[31.7858,52.1123],[31.7803,52.1118],[31.772,52.1115],[31.7665,52.1092],[31.7629,52.1062],[31.7544,52.0851],[31.7726,52.0513],[31.7496,52.0188],[31.755,51.9935],[31.7166,51.9859],[31.6603,51.9503],[31.6315,51.9131],[31.564,51.8883],[31.5722,51.8457],[31.5866,51.7947],[31.5864,51.7528],[31.545,51.7084],[31.5309,51.6466],[31.4768,51.5727],[31.3322,51.6472],[31.2152,51.7527],[31.2399,51.7833],[31.1173,51.8365],[31.0694,52.0876],[30.9892,52.0757],[30.9704,52.0775],[30.9552,52.0852],[30.9346,51.9917],[30.9199,51.9898],[30.8873,51.9659],[30.8619,51.9602],[30.8498,51.9458],[30.8081,51.9454],[30.8341,51.9255],[30.8021,51.8953],[30.7877,51.8924],[30.7496,51.9001],[30.7374,51.8779],[30.7074,51.8617],[30.7003,51.8376],[30.6809,51.8174],[30.6559,51.7617],[30.6264,51.7103],[30.5759,51.6622],[30.5546,51.5966],[30.59,51.5428],[30.5709,51.5134],[30.5897,51.5024],[30.5896,51.4783],[30.6258,51.4708],[30.624,51.4596],[30.5931,51.4524],[30.5952,51.4241],[30.613,51.4361],[30.6563,51.3753],[30.6357,51.36],[30.659,51.3397],[30.6879,51.3337],[30.7195,51.3753],[30.784,51.3671],[30.8671,51.368],[30.9289,51.3847],[31.0082,51.3779],[31.1452,51.3907],[31.2063,51.3693],[31.2234,51.4181],[31.2454,51.4532],[31.2385,51.4947],[31.2543,51.528],[31.2458,51.5559]],[[31.6921,51.943],[31.6912,51.9279],[31.6864,51.9189],[31.705,51.9148],[31.7867,51.9084],[31.8192,51.9029],[31.8274,51.9151],[31.8241,52.0019],[31.7296,51.9583],[31.6921,51.943]],[[31.6654,51.7852],[31.6283,51.7307],[31.5908,51.6867],[31.5886,51.6448],[31.5041,51.5602],[31.5471,51.5669],[31.6297,51.5698],[31.6931,51.5795],[31.7654,51.5832],[31.7956,51.6148],[31.8207,51.6427],[31.8495,51.7055],[31.9069,51.7633],[31.9347,51.7837],[31.922,51.8126],[31.8869,51.8304],[31.8779,51.8451],[31.7672,51.875],[31.6898,51.8857],[31.645,51.9018],[31.6368,51.8942],[31.6654,51.7852]]]}},{"type":"Feature","properties":{"s":"liberated"},"geometry":{"type":"Polygon","coordinates":[[[33.3847,51.0806],[33.8351,50.9527],[34.3899,50.9077],[34.6618,50.906],[34.6885,50.9523],[34.7152,50.9721],[34.7585,50.9663],[34.7846,50.9793],[34.9275,50.9525],[35.128,50.9853],[35.2433,50.9507],[35.2969,50.9983],[35.2749,51.0585],[35.2351,51.0346],[35.0112,51.0199],[34.8986,50.987],[34.8245,51.0052],[34.8522,51.0758],[34.9125,51.0636],[34.9851,51.0725],[35.014,51.114],[35.131,51.157],[35.1302,51.1574],[35.1251,51.1613],[35.1227,51.1655],[35.1344,51.1708],[35.1307,51.1736],[35.1293,51.1829],[34.9737,51.1155],[34.9329,51.0881],[34.7915,51.095],[34.6586,51.0007],[34.3454,51.158],[34.314,51.2388],[34.3052,51.2383],[34.2976,51.2423],[34.296,51.1537],[34.2479,51.1795],[34.2059,51.2132],[34.0054,51.2631],[34.0051,51.4869],[33.9577,51.725],[34.0776,51.7639],[34.1241,51.7985],[34.1954,51.8226],[34.254,51.832],[34.2844,51.8401],[34.3299,51.8687],[34.3283,51.8691],[34.3298,51.8707],[34.3279,51.8715],[34.3265,51.8731],[34.3262,51.8752],[34.3255,51.8761],[34.3251,51.8763],[34.324,51.8766],[34.323,51.8769],[34.321,51.8779],[34.3195,51.8791],[34.2603,51.8559],[34.2438,51.8594],[34.0321,51.7987],[32.9104,51.3527],[32.9169,51.3399],[33.2528,51.4411],[33.6232,51.6023],[33.8492,51.6848],[33.8296,51.2425],[33.2988,51.2089],[33.4275,51.154],[33.3847,51.0806]],[[34.5712,51.0003],[34.4115,51.0665],[34.3142,51.1336],[34.2781,51.1115],[34.2081,51.1606],[34.1894,51.1737],[33.6484,51.1788],[33.5,51.1289],[33.6566,51.0789],[34.5712,51.0003]]]}},{"type":"Feature","properties":{"s":"liberated"},"geometry":{"type":"Polygon","coordinates":[[[32.5292,50.9671],[32.5041,50.9746],[32.4697,50.9612],[32.3737,50.9704],[32.2494,50.9713],[32.1978,50.9547],[32.1498,50.9452],[32.1127,50.9484],[32.123,50.9283],[32.1772,50.9343],[32.2377,50.9475],[32.2562,50.9551],[32.3475,50.956],[32.5332,50.9387],[32.5235,50.9583],[32.5292,50.9671]]]}},{"type":"Feature","properties":{"s":"liberated"},"geometry":{"type":"Polygon","coordinates":[[[32.1301,50.815],[32.125,50.8072],[32.1292,50.8032],[32.1474,50.8],[32.1673,50.801],[32.1792,50.8077],[32.1841,50.8158],[32.1939,50.8227],[32.2041,50.8226],[32.2136,50.8243],[32.2427,50.8383],[32.2611,50.8342],[32.2714,50.8323],[32.2809,50.8355],[32.2914,50.8463],[32.3246,50.8547],[32.3588,50.8522],[32.3789,50.8391],[32.3996,50.8347],[32.4117,50.8438],[32.4212,50.8621],[32.4317,50.8701],[32.4346,50.8793],[32.4652,50.8808],[32.4932,50.8834],[32.5173,50.8803],[32.5405,50.8757],[32.5453,50.8595],[32.5605,50.8529],[32.5751,50.8541],[32.5828,50.8622],[32.5894,50.8734],[32.6091,50.8732],[32.6266,50.8638],[32.6489,50.8574],[32.6715,50.8905],[32.7012,50.8975],[32.7139,50.9248],[32.7413,50.935],[32.7712,50.9417],[32.8071,50.9376],[32.8217,50.9384],[32.8288,50.9479],[32.8598,50.9592],[32.8787,50.9701],[32.8494,50.974],[32.8087,50.9643],[32.7724,50.9618],[32.7456,50.9557],[32.7339,50.9498],[32.7205,50.9496],[32.7079,50.9478],[32.6818,50.9305],[32.6615,50.9],[32.6369,50.8985],[32.6152,50.8874],[32.597,50.8854],[32.5932,50.8958],[32.5639,50.8993],[32.5438,50.9011],[32.5485,50.8868],[32.4894,50.8962],[32.4754,50.902],[32.4545,50.9034],[32.4378,50.8993],[32.4012,50.8816],[32.3679,50.8797],[32.3404,50.8714],[32.3142,50.8623],[32.2799,50.8578],[32.2575,50.8457],[32.2338,50.8457],[32.2074,50.8334],[32.1803,50.828],[32.1732,50.8225],[32.1648,50.8253],[32.1588,50.8315],[32.1433,50.834],[32.1355,50.828],[32.1322,50.8221],[32.1301,50.815]]]}},{"type":"Feature","properties":{"s":"liberated"},"geometry":{"type":"Polygon","coordinates":[[[34.9422,50.4906],[34.9262,50.4898],[34.9184,50.4737],[34.9377,50.4713],[34.9406,50.4542],[34.9646,50.4522],[34.9702,50.4609],[34.9871,50.4581],[34.9927,50.4635],[34.9845,50.4743],[34.9929,50.4801],[34.981,50.495],[34.9759,50.4988],[34.9719,50.5016],[34.9658,50.4983],[34.9466,50.489],[34.9422,50.4906]]]}},{"type":"Feature","properties":{"s":"liberated"},"geometry":{"type":"Polygon","coordinates":[[[32.027,50.871],[32.02,50.8827],[32.0063,50.8978],[31.9925,50.9124],[31.975,50.9239],[31.9932,50.9256],[31.9955,50.928],[31.9924,50.9395],[32.0067,50.941],[32.034,50.9457],[32.0551,50.94],[32.0784,50.9378],[32.0743,50.9447],[32.0713,50.9472],[32.0642,50.9465],[32.0463,50.9509],[32.0115,50.9501],[31.9898,50.9547],[31.9794,50.9614],[31.968,50.9658],[31.9621,50.9632],[31.9583,50.9558],[31.9359,50.9609],[31.9235,50.9657],[31.9093,50.9685],[31.9031,50.9677],[31.8976,50.9622],[31.8983,50.956],[31.9084,50.9514],[31.9218,50.9481],[31.9374,50.9415],[31.9495,50.9301],[31.9644,50.9186],[31.9855,50.8982],[31.9971,50.8813],[32.0008,50.8656],[32.0164,50.8639],[32.0241,50.8658],[32.027,50.871]]]}},{"type":"Feature","properties":{"s":"liberated"},"geometry":{"type":"Polygon","coordinates":[[[31.0925,50.6528],[31.102,50.6606],[31.101,50.6701],[31.1097,50.679],[31.1226,50.6884],[31.1454,50.6862],[31.1654,50.6689],[31.1718,50.6554],[31.1837,50.6341],[31.2,50.6326],[31.1979,50.6419],[31.189,50.6734],[31.1543,50.7042],[31.1445,50.7163],[31.1317,50.7188],[31.1162,50.7094],[31.0917,50.7219],[31.0469,50.7446],[31.0422,50.74],[31.1237,50.6981],[31.1161,50.6943],[31.0858,50.6752],[31.0856,50.6605],[31.0723,50.6643],[31.053,50.67],[31.0453,50.6614],[31.0472,50.6543],[31.029,50.6482],[31.0182,50.6453],[31.0048,50.6415],[31.002,50.638],[30.9785,50.6321],[30.9544,50.6265],[30.9452,50.6275],[30.9357,50.6272],[30.9059,50.6346],[30.8792,50.6407],[30.8675,50.6329],[30.8509,50.6162],[30.8687,50.6102],[30.8719,50.5877],[30.8922,50.5682],[30.9321,50.5839],[30.9507,50.5991],[30.9288,50.6213],[30.9446,50.6209],[30.9583,50.6199],[30.9807,50.6265],[31.0006,50.6149],[31.0078,50.6141],[31.0209,50.6163],[31.0249,50.6173],[31.029,50.6176],[31.0286,50.6144],[31.0276,50.6111],[31.0323,50.6023],[31.0373,50.5934],[31.0446,50.5836],[31.029,50.5817],[31.0206,50.5809],[31.018,50.5796],[31.0103,50.579],[31.0047,50.5785],[30.9998,50.5782],[30.9947,50.5774],[30.9909,50.5761],[30.9924,50.5725],[30.9993,50.5687],[31.0047,50.5662],[31.0091,50.5658],[31.0181,50.5713],[31.0264,50.5762],[31.0411,50.5779],[31.0512,50.5784],[31.0531,50.5741],[31.0507,50.5674],[31.0462,50.559],[31.053,50.5554],[31.0758,50.5443],[31.0752,50.5383],[31.0906,50.5292],[31.1018,50.525],[31.1098,50.5312],[31.1131,50.5421],[31.1526,50.5573],[31.1577,50.5506],[31.165,50.5522],[31.1651,50.5586],[31.1595,50.5688],[31.148,50.5781],[31.1225,50.5938],[31.1081,50.605],[31.0797,50.6202],[31.0496,50.6251],[31.0416,50.633],[31.0447,50.6394],[31.0627,50.6405],[31.0713,50.6481],[31.0925,50.6528]],[[31.0375,50.6057],[31.044,50.6037],[31.0459,50.6062],[31.0411,50.6101],[31.0353,50.6133],[31.0339,50.6093],[31.0375,50.6057]],[[31.0878,50.5877],[31.0829,50.5813],[31.0727,50.5837],[31.0638,50.5825],[31.0577,50.5798],[31.0572,50.5773],[31.0668,50.5784],[31.076,50.5765],[31.0786,50.5737],[31.0782,50.5713],[31.0738,50.5698],[31.068,50.5704],[31.0577,50.5697],[31.0571,50.5646],[31.0582,50.5598],[31.07,50.5543],[31.0779,50.5551],[31.0878,50.5531],[31.0968,50.5495],[31.1049,50.5478],[31.1131,50.5501],[31.1286,50.5571],[31.1354,50.561],[31.1254,50.5791],[31.113,50.5896],[31.0953,50.5995],[31.08,50.6102],[31.0659,50.6137],[31.0446,50.6209],[31.0383,50.6246],[31.0338,50.6257],[31.0343,50.6193],[31.0392,50.6137],[31.0864,50.5885],[31.0878,50.5877]]]}},{"type":"Feature","properties":{"s":"liberated"},"geometry":{"type":"Polygon","coordinates":[[[32.4574,51.5699],[32.4999,51.4841],[32.5071,51.4538],[32.5376,51.4166],[32.5533,51.362],[32.542,51.3334],[32.5647,51.3046],[32.2641,51.2546],[32.2597,51.2047],[32.2657,51.1827],[32.5866,51.2365],[32.6444,51.244],[32.672,51.2387],[32.7276,51.2094],[32.7437,51.1866],[32.7551,51.1678],[32.7683,51.1599],[32.8075,51.1692],[32.8387,51.1521],[32.8795,51.1621],[32.8568,51.1699],[32.8594,51.1744],[32.8699,51.1777],[32.8715,51.1819],[32.8729,51.1864],[32.8727,51.1898],[32.8707,51.1955],[32.8671,51.2017],[32.8307,51.2068],[32.8299,51.2269],[32.8051,51.255],[32.8177,51.2631],[32.8176,51.2735],[32.8004,51.2856],[32.7877,51.2919],[32.8143,51.3008],[32.8559,51.3131],[32.9003,51.3247],[32.9169,51.3399],[32.9104,51.3527],[32.8836,51.3519],[32.8782,51.3521],[32.8724,51.3515],[32.8681,51.3526],[32.862,51.3531],[32.8583,51.352],[32.8537,51.3499],[32.8524,51.343],[32.8558,51.3375],[32.8752,51.3274],[32.8248,51.3142],[32.7776,51.2996],[32.7262,51.2945],[32.664,51.3072],[32.6144,51.3196],[32.58,51.3369],[32.5853,51.3679],[32.5407,51.4549],[32.5164,51.5266],[32.4574,51.5699]]]}},{"type":"Feature","properties":{"s":"liberated"},"geometry":{"type":"Polygon","coordinates":[[[31.2058,51.131],[31.1811,51.1224],[31.1151,51.0827],[31.1289,51.0275],[31.1701,51.0362],[31.1879,51.053],[31.2504,51.0649],[31.3246,51.0758],[31.5024,51.103],[31.6418,51.1216],[31.7084,51.1289],[31.7606,51.1207],[31.9281,51.1379],[32.1351,51.1701],[32.1668,51.1568],[32.1841,51.1451],[32.3036,51.1135],[32.5325,51.067],[32.6082,51.0652],[32.6279,51.0791],[32.6356,51.1025],[32.5695,51.0787],[32.5296,51.0847],[32.4676,51.1086],[32.4578,51.1204],[32.4446,51.1301],[32.2884,51.1492],[32.2657,51.1827],[32.2597,51.2047],[32.2641,51.2546],[32.2015,51.2608],[32.143,51.2265],[32.1273,51.1909],[31.9803,51.1616],[31.8849,51.15],[31.8782,51.1741],[31.8948,51.1913],[31.8856,51.2102],[31.856,51.2509],[31.8663,51.2691],[31.8265,51.3039],[31.7949,51.3194],[31.7537,51.3305],[31.716,51.3323],[31.6892,51.34],[31.6497,51.3526],[31.6375,51.33],[31.6324,51.3161],[31.6215,51.305],[31.5598,51.3016],[31.5464,51.2982],[31.5351,51.3095],[31.5104,51.3135],[31.481,51.3146],[31.4696,51.3169],[31.4555,51.3159],[31.4372,51.3225],[31.4254,51.3343],[31.423,51.3421],[31.4415,51.3474],[31.4496,51.3567],[31.4461,51.3687],[31.4504,51.386],[31.4497,51.3985],[31.457,51.401],[31.459,51.4041],[31.4598,51.4078],[31.4573,51.4124],[31.4505,51.4184],[31.4375,51.4171],[31.4298,51.4146],[31.4333,51.4101],[31.4399,51.4053],[31.4395,51.3924],[31.4288,51.3887],[31.4235,51.3937],[31.4153,51.3923],[31.406,51.3926],[31.3899,51.3941],[31.377,51.3863],[31.377,51.3809],[31.3689,51.3517],[31.3732,51.3388],[31.3628,51.3406],[31.3519,51.3377],[31.3251,51.3564],[31.3012,51.3698],[31.3026,51.3782],[31.3042,51.3826],[31.3134,51.4144],[31.3161,51.4247],[31.2927,51.4247],[31.2834,51.3815],[31.2711,51.378],[31.2684,51.3755],[31.273,51.3735],[31.2787,51.3733],[31.2856,51.3718],[31.2784,51.362],[31.2679,51.3468],[31.2625,51.3439],[31.2602,51.3397],[31.2569,51.3402],[31.2534,51.3397],[31.2498,51.3392],[31.2454,51.34],[31.2401,51.3425],[31.2365,51.3436],[31.2332,51.343],[31.2287,51.3432],[31.1907,51.3326],[31.189,51.3295],[31.1841,51.3273],[31.187,51.3216],[31.1895,51.321],[31.195,51.323],[31.198,51.3247],[31.196,51.3297],[31.2024,51.3305],[31.2108,51.3325],[31.213,51.336],[31.2159,51.3373],[31.2236,51.3391],[31.2311,51.3416],[31.2367,51.3405],[31.2432,51.3376],[31.2494,51.3347],[31.262,51.332],[31.271,51.3303],[31.2782,51.3305],[31.2824,51.3326],[31.2844,51.3371],[31.283,51.3411],[31.2878,51.3495],[31.2912,51.3651],[31.3033,51.3614],[31.3177,51.3522],[31.3288,51.3452],[31.3431,51.3306],[31.3658,51.3244],[31.3763,51.3256],[31.3854,51.3287],[31.4109,51.342],[31.4128,51.3331],[31.4245,51.3263],[31.4268,51.3183],[31.4371,51.31],[31.4505,51.3044],[31.5271,51.2936],[31.464,51.2567],[31.4138,51.2494],[31.3514,51.23],[31.3026,51.2318],[31.2597,51.2434],[31.23,51.25],[31.1982,51.2425],[31.203,51.2137],[31.2394,51.2051],[31.2635,51.2146],[31.339,51.2077],[31.4349,51.237],[31.4635,51.2346],[31.4761,51.2404],[31.5048,51.2545],[31.5333,51.2713],[31.5635,51.282],[31.6494,51.2898],[31.661,51.3269],[31.7084,51.3099],[31.764,51.3048],[31.8141,51.2696],[31.81,51.2206],[31.8426,51.1975],[31.8313,51.1642],[31.8282,51.1483],[31.7647,51.147],[31.5821,51.1448],[31.4365,51.1241],[31.2717,51.1034],[31.2085,51.0914],[31.2058,51.131]]]}},{"type":"Feature","properties":{"s":"liberated"},"geometry":{"type":"Polygon","coordinates":[[[32.0822,46.9111],[32.1079,46.9309],[32.1172,46.9331],[32.1162,46.9354],[32.1124,46.9395],[32.1042,46.9471],[32.0954,46.9492],[32.086,46.9491],[32.0779,46.9463],[32.0686,46.9403],[32.0618,46.9339],[32.0582,46.9287],[32.0671,46.9201],[32.0822,46.9111]]]}},{"type":"Feature","properties":{"s":"liberated"},"geometry":{"type":"Polygon","coordinates":[[[36.1001,50.1355],[36.0913,50.128],[36.0908,50.1179],[36.0912,50.1086],[36.095,50.0973],[36.0953,50.0936],[36.0981,50.0869],[36.1156,50.0841],[36.1187,50.0871],[36.1338,50.0831],[36.1489,50.0858],[36.1551,50.0926],[36.1434,50.1],[36.151,50.1028],[36.1516,50.1069],[36.1585,50.1184],[36.1578,50.131],[36.1516,50.1379],[36.1367,50.1485],[36.144,50.169],[36.1574,50.1964],[36.1666,50.2014],[36.1703,50.2028],[36.1786,50.2022],[36.1983,50.203],[36.2017,50.2079],[36.1922,50.2079],[36.1797,50.2083],[36.1791,50.211],[36.1737,50.2142],[36.1721,50.2183],[36.1756,50.2239],[36.1775,50.2311],[36.2107,50.2375],[36.2086,50.2545],[36.2039,50.2552],[36.1901,50.2553],[36.1578,50.2583],[36.1515,50.2349],[36.1523,50.2304],[36.1475,50.2235],[36.143,50.22],[36.1401,50.2138],[36.1381,50.2077],[36.1443,50.2032],[36.1408,50.1909],[36.1217,50.1552],[36.1183,50.1469],[36.1141,50.1418],[36.1075,50.1403],[36.1001,50.1355]]]}},{"type":"Feature","properties":{"s":"liberated"},"geometry":{"type":"Polygon","coordinates":[[[32.145,46.9395],[32.1667,46.9442],[32.1574,46.9969],[32.1887,47.0355],[32.1975,47.0458],[32.1943,47.0603],[32.1655,47.0489],[32.1679,47.0417],[32.1402,47.0238],[32.1148,47.0425],[32.0379,47.0497],[32.1497,47.2099],[32.1164,47.3518],[32.1215,47.36],[32.2213,47.3738],[32.2279,47.386],[32.2071,47.3954],[32.116,47.379],[32.0942,47.36],[32.1361,47.2129],[32.0109,47.0509],[32.0185,47.0332],[32.0458,47.0375],[32.109,47.0263],[32.145,46.9395]]]}},{"type":"Feature","properties":{"s":"liberated"},"geometry":{"type":"Polygon","coordinates":[[[32.0109,47.0509],[31.9721,47.0487],[31.8842,47.2066],[31.8114,47.3082],[31.7458,47.3418],[31.6939,47.3573],[31.6472,47.3676],[31.6209,47.3879],[31.5826,47.4192],[31.5382,47.4632],[31.5022,47.4731],[31.478,47.4739],[31.4559,47.4895],[31.4418,47.5046],[31.4258,47.5225],[31.414,47.5336],[31.4102,47.5401],[31.3922,47.5485],[31.3765,47.5484],[31.3735,47.5366],[31.374,47.5364],[31.3765,47.5363],[31.3795,47.5356],[31.3823,47.5344],[31.3876,47.5317],[31.3899,47.5313],[31.4002,47.5304],[31.4019,47.5302],[31.408,47.5262],[31.4141,47.5183],[31.4172,47.5088],[31.4363,47.4827],[31.4711,47.462],[31.524,47.4544],[31.5339,47.4394],[31.5461,47.4244],[31.585,47.4008],[31.6063,47.3773],[31.6324,47.3565],[31.6937,47.3456],[31.7354,47.3136],[31.7785,47.2765],[31.8856,47.1487],[31.8183,47.1151],[31.8485,47.0796],[31.9213,47.088],[31.946,47.0431],[31.9776,47.0253],[32.0185,47.0332],[32.0109,47.0509]]]}},{"type":"Feature","properties":{"s":"liberated"},"geometry":{"type":"Polygon","coordinates":[[[32.2435,46.7861],[32.3071,46.8008],[32.407,46.8469],[32.4227,46.959],[32.3879,46.9635],[32.379,46.988],[32.3749,46.9954],[32.1667,46.9442],[32.145,46.9395],[32.145,46.9394],[32.1079,46.9309],[32.0822,46.9111],[32.0919,46.8801],[32.0557,46.8653],[32.0701,46.8609],[32.0859,46.8625],[32.1124,46.8307],[32.147,46.8115],[32.1539,46.808],[32.1864,46.797],[32.2435,46.7861]]]}},{"type":"Feature","properties":{"s":"liberated"},"geometry":{"type":"Polygon","coordinates":[[[30.2835,50.6252],[30.2952,50.7047],[30.3374,50.7191],[30.3576,50.7248],[30.3774,50.7272],[30.3806,50.7321],[30.378,50.7366],[30.3758,50.7418],[30.3735,50.7439],[30.3691,50.7435],[30.3668,50.7503],[30.3684,50.7526],[30.3824,50.7587],[30.3816,50.7608],[30.3772,50.7635],[30.374,50.7686],[30.3729,50.7724],[30.3739,50.7753],[30.376,50.7777],[30.3714,50.7808],[30.3687,50.7836],[30.3677,50.7851],[30.3677,50.7874],[30.3759,50.7923],[30.3752,50.7941],[30.3734,50.7944],[30.374,50.7964],[30.3765,50.7988],[30.3806,50.8066],[30.3816,50.8143],[30.3886,50.8182],[30.3891,50.8229],[30.3923,50.8282],[30.401,50.8337],[30.406,50.8382],[30.4086,50.8426],[30.4074,50.8461],[30.4109,50.8502],[30.416,50.8533],[30.4232,50.8566],[30.4257,50.8637],[30.4242,50.8676],[30.426,50.8735],[30.4206,50.8774],[30.4184,50.8802],[30.4196,50.8825],[30.4457,50.8871],[30.442,50.9072],[30.4501,50.9121],[30.4555,50.9196],[30.4479,50.9457],[30.4324,50.9659],[30.444,50.9842],[30.4253,50.9903],[30.4092,51.0245],[30.3909,51.0284],[30.378,51.0235],[30.3709,51.0195],[30.3614,51.0266],[30.349,51.0286],[30.3326,51.0338],[30.3151,51.0379],[30.2986,51.039],[30.3016,51.0415],[30.2916,51.0473],[30.299,51.0535],[30.3197,51.0539],[30.3405,51.0418],[30.3787,51.0559],[30.3779,51.0653],[30.4074,51.0666],[30.4081,51.0744],[30.4061,51.0813],[30.4299,51.115],[30.4273,51.1225],[30.4337,51.1218],[30.4354,51.1171],[30.4409,51.1154],[30.4384,51.1127],[30.4348,51.1116],[30.4363,51.1074],[30.4363,51.1012],[30.449,51.1045],[30.4482,51.1086],[30.4567,51.1123],[30.4658,51.1157],[30.4742,51.1145],[30.4767,51.122],[30.4843,51.1262],[30.48,51.1532],[30.4779,51.1545],[30.4618,51.1542],[30.4541,51.164],[30.4472,51.1691],[30.4507,51.1739],[30.4509,51.1779],[30.4404,51.1824],[30.431,51.1842],[30.4184,51.1937],[30.4111,51.1933],[30.4004,51.1867],[30.3963,51.1902],[30.3935,51.1937],[30.3925,51.2071],[30.3717,51.2081],[30.3619,51.2153],[30.3495,51.2163],[30.3429,51.2164],[30.3385,51.2202],[30.3306,51.2207],[30.3224,51.2247],[30.3162,51.2305],[30.3304,51.2452],[30.3561,51.2521],[30.3616,51.2461],[30.373,51.2481],[30.3786,51.247],[30.3769,51.2385],[30.3892,51.2384],[30.3947,51.2413],[30.4113,51.2387],[30.4163,51.2322],[30.4231,51.2272],[30.4313,51.233],[30.4496,51.2298],[30.4559,51.2322],[30.4657,51.2428],[30.4728,51.2398],[30.4737,51.2337],[30.4811,51.2201],[30.499,51.2151],[30.5144,51.2131],[30.5039,51.2247],[30.5072,51.2308],[30.5156,51.2359],[30.5328,51.265],[30.5052,51.2789],[30.4748,51.2754],[30.4635,51.2726],[30.4521,51.2731],[30.4513,51.277],[30.4538,51.2791],[30.4501,51.2814],[30.4534,51.2879],[30.4569,51.2862],[30.4632,51.2907],[30.4621,51.2942],[30.4576,51.2966],[30.4618,51.306],[30.4449,51.3087],[30.4211,51.3042],[30.4103,51.3083],[30.3985,51.3123],[30.3909,51.3218],[30.366,51.3341],[30.3483,51.3487],[30.3346,51.3515],[30.3234,51.3614],[30.3557,51.3784],[30.3561,51.3828],[30.3441,51.4233],[30.3345,51.4248],[30.3307,51.4287],[30.3256,51.4309],[30.3215,51.434],[30.3187,51.4403],[30.3115,51.4429],[30.3088,51.4466],[30.2983,51.4563],[30.2918,51.459],[30.288,51.4633],[30.2795,51.4648],[30.2451,51.4861],[30.2139,51.4924],[30.1804,51.5124],[30.1673,51.5088],[30.163,51.488],[30.1444,51.4945],[30.1316,51.5055],[30.1206,51.5044],[30.1291,51.4876],[30.1225,51.4898],[30.1212,51.4861],[30.1108,51.487],[30.1043,51.4909],[30.0776,51.4969],[30.0746,51.4957],[30.0623,51.4989],[30.0559,51.4971],[30.0337,51.5032],[30.0274,51.5026],[30.0191,51.5046],[30.0124,51.5046],[30.0122,51.5026],[30.0143,51.4995],[30.0152,51.4972],[30.0162,51.496],[30.0183,51.4954],[30.013,51.495],[30.0122,51.4894],[30.0075,51.4898],[30.0034,51.4883],[30.0008,51.4856],[29.9903,51.4813],[29.9819,51.4857],[29.9753,51.4834],[29.9711,51.4803],[29.9705,51.4752],[29.9669,51.472],[29.962,51.4713],[29.9515,51.4735],[29.9465,51.4836],[29.9237,51.4897],[29.9252,51.487],[29.9212,51.488],[29.9186,51.4869],[29.9171,51.4884],[29.9146,51.487],[29.9102,51.4855],[29.9062,51.4867],[29.9039,51.4851],[29.8907,51.4837],[29.8894,51.4828],[29.8892,51.4789],[29.8867,51.4772],[29.8843,51.4774],[29.8829,51.4767],[29.8844,51.4749],[29.8879,51.474],[29.8903,51.4727],[29.8895,51.471],[29.8865,51.4709],[29.8874,51.4678],[29.8853,51.4662],[29.8858,51.4637],[29.8757,51.4566],[29.8766,51.4522],[29.878,51.4502],[29.8777,51.4452],[29.8738,51.4442],[29.865,51.4462],[29.8556,51.4487],[29.8479,51.4489],[29.8431,51.4572],[29.8128,51.4487],[29.8105,51.459],[29.791,51.4574],[29.794,51.4414],[29.7793,51.4467],[29.7642,51.4492],[29.739,51.4589],[29.742,51.4615],[29.7335,51.4694],[29.7309,51.4797],[29.7255,51.4918],[29.7448,51.4935],[29.7421,51.5023],[29.7353,51.5109],[29.7424,51.5128],[29.7377,51.5308],[29.7075,51.5278],[29.7075,51.5205],[29.7046,51.5203],[29.6952,51.517],[29.6874,51.5169],[29.6833,51.5136],[29.6716,51.5111],[29.6697,51.5082],[29.6694,51.5026],[29.6658,51.5027],[29.6533,51.5061],[29.6507,51.5052],[29.6482,51.5016],[29.6486,51.5009],[29.6398,51.4985],[29.6341,51.506],[29.6275,51.5021],[29.6209,51.4926],[29.6059,51.4938],[29.605,51.4722],[29.5923,51.4667],[29.5874,51.4645],[29.5835,51.4625],[29.5775,51.4612],[29.5755,51.4614],[29.5398,51.4836],[29.5343,51.4677],[29.5288,51.4589],[29.5164,51.4434],[29.5233,51.4339],[29.5206,51.4219],[29.5096,51.4206],[29.5007,51.3968],[29.4592,51.4029],[29.4265,51.4137],[29.4037,51.411],[29.3891,51.4049],[29.3736,51.3982],[29.366,51.3898],[29.3233,51.3799],[29.2312,51.3777],[29.1281,51.3269],[29.1876,51.256],[29.3021,51.3044],[29.4388,51.1512],[29.4798,51.0159],[29.4272,50.9734],[29.5579,50.8294],[29.5761,50.8324],[29.5675,50.8629],[29.763,50.9095],[29.7172,50.7225],[29.7497,50.6169],[29.7444,50.5662],[29.7676,50.535],[29.8154,50.4975],[29.7857,50.4505],[29.8553,50.4484],[29.9143,50.3686],[29.9502,50.3723],[29.9914,50.3965],[30.0511,50.4193],[30.1073,50.4097],[30.2065,50.4139],[30.2728,50.5276],[30.2959,50.5526],[30.304,50.5647],[30.3306,50.6057],[30.2869,50.6227],[30.2835,50.6252]]]}},{"type":"Feature","properties":{"s":"liberated"},"geometry":{"type":"Polygon","coordinates":[[[34.9646,50.4522],[34.9406,50.4542],[34.9272,50.4089],[34.9235,50.3994],[34.9167,50.3929],[34.9172,50.3889],[34.9212,50.3652],[34.9227,50.3564],[34.9164,50.3445],[34.9414,50.3434],[34.9478,50.3576],[34.9384,50.3615],[34.9353,50.3716],[34.9324,50.3869],[34.9263,50.3914],[34.931,50.3943],[34.9348,50.4017],[34.9387,50.4072],[34.9372,50.4138],[34.9374,50.4206],[34.9423,50.4309],[34.9493,50.444],[34.9646,50.4522]]]}},{"type":"Feature","properties":{"s":"liberated"},"geometry":{"type":"Polygon","coordinates":[[[32.3666,47.0475],[32.3704,47.0205],[32.376,47.0025],[32.3749,46.9954],[32.379,46.988],[32.3879,46.9635],[32.4227,46.959],[32.4766,46.985],[32.4873,46.9983],[32.4853,47.0049],[32.4819,47.0086],[32.4786,47.0094],[32.473,47.012],[32.47,47.023],[32.4667,47.033],[32.4586,47.0381],[32.4541,47.0501],[32.4511,47.0674],[32.4613,47.0748],[32.4603,47.0839],[32.4634,47.0915],[32.4638,47.1],[32.4449,47.1051],[32.4371,47.1529],[32.4604,47.1573],[32.4634,47.1703],[32.4662,47.1743],[32.4626,47.1786],[32.4502,47.1804],[32.4442,47.1792],[32.4391,47.1769],[32.4346,47.1751],[32.4293,47.1723],[32.4227,47.1705],[32.416,47.1694],[32.4008,47.1713],[32.3731,47.1715],[32.3713,47.1794],[32.3697,47.1876],[32.3626,47.1897],[32.3608,47.1893],[32.3593,47.188],[32.3572,47.1865],[32.3484,47.1738],[32.3507,47.1632],[32.3524,47.1521],[32.3597,47.104],[32.3661,47.0673],[32.3666,47.0475]]]}},{"type":"Feature","properties":{"s":"liberated"},"geometry":{"type":"Polygon","coordinates":[[[31.3342,50.5042],[31.3391,50.5091],[31.3546,50.5153],[31.3709,50.5196],[31.3844,50.5315],[31.3897,50.5267],[31.3991,50.5249],[31.4022,50.524],[31.4057,50.5227],[31.4075,50.5208],[31.4081,50.5199],[31.4095,50.5187],[31.4122,50.5179],[31.4138,50.5177],[31.4147,50.519],[31.4155,50.5196],[31.4162,50.5206],[31.4171,50.5214],[31.4236,50.5196],[31.4288,50.5176],[31.431,50.5163],[31.4311,50.5153],[31.4309,50.5126],[31.4322,50.51],[31.4397,50.507],[31.4443,50.5068],[31.4483,50.5069],[31.4952,50.4868],[31.5037,50.4838],[31.5124,50.4837],[31.5205,50.4848],[31.5297,50.4857],[31.5373,50.4873],[31.5388,50.4911],[31.5398,50.4946],[31.5387,50.4986],[31.5368,50.5012],[31.5336,50.5029],[31.5285,50.5015],[31.5251,50.4999],[31.5216,50.4973],[31.5185,50.4951],[31.5174,50.4942],[31.515,50.4967],[31.5154,50.4993],[31.5167,50.5017],[31.5181,50.5041],[31.5166,50.5061],[31.5138,50.5062],[31.5119,50.5051],[31.5105,50.5036],[31.5088,50.5022],[31.506,50.5019],[31.5022,50.5024],[31.499,50.5018],[31.4965,50.5005],[31.4939,50.499],[31.491,50.4973],[31.4899,50.495],[31.4877,50.495],[31.4848,50.4964],[31.4533,50.5123],[31.4492,50.5161],[31.4461,50.5169],[31.4424,50.5173],[31.4393,50.517],[31.4373,50.5169],[31.4357,50.5166],[31.4265,50.5204],[31.4247,50.5218],[31.4246,50.5233],[31.4247,50.525],[31.423,50.5261],[31.4203,50.5263],[31.4172,50.5255],[31.4143,50.5255],[31.4124,50.5256],[31.4112,50.525],[31.4115,50.524],[31.4114,50.5234],[31.4101,50.5233],[31.4088,50.5233],[31.4008,50.526],[31.3922,50.5279],[31.3866,50.5324],[31.448,50.548],[31.4692,50.5539],[31.4825,50.5566],[31.486,50.5543],[31.4885,50.5526],[31.4943,50.5509],[31.501,50.5503],[31.5073,50.5516],[31.5148,50.5528],[31.5209,50.5536],[31.5282,50.5532],[31.5349,50.5544],[31.5404,50.5553],[31.5453,50.5578],[31.5489,50.5603],[31.5498,50.5634],[31.5451,50.567],[31.5394,50.5698],[31.5349,50.5731],[31.5339,50.5771],[31.531,50.5816],[31.5268,50.586],[31.52,50.5881],[31.5128,50.5895],[31.5059,50.5894],[31.4996,50.5888],[31.492,50.5866],[31.4877,50.5827],[31.4869,50.5778],[31.4857,50.5743],[31.4832,50.576],[31.4688,50.5869],[31.4549,50.5955],[31.4349,50.598],[31.4073,50.5997],[31.3981,50.5996],[31.3907,50.6074],[31.3898,50.611],[31.3918,50.6249],[31.3433,50.6374],[31.3374,50.6424],[31.329,50.6494],[31.3184,50.6553],[31.3061,50.6595],[31.296,50.6596],[31.2894,50.6456],[31.2938,50.63],[31.3299,50.6301],[31.3545,50.6255],[31.3757,50.6183],[31.3682,50.6036],[31.3677,50.5976],[31.3682,50.5928],[31.3702,50.5889],[31.3788,50.5866],[31.3863,50.5887],[31.394,50.5902],[31.3999,50.5924],[31.4116,50.5932],[31.4268,50.5936],[31.4407,50.5899],[31.4791,50.568],[31.474,50.567],[31.3356,50.5196],[31.3218,50.5093],[31.3113,50.5019],[31.285,50.5],[31.2816,50.5072],[31.2627,50.5125],[31.2532,50.5163],[31.2476,50.5162],[31.2411,50.5146],[31.2369,50.5068],[31.2294,50.4997],[31.2146,50.4998],[31.2075,50.4892],[31.2137,50.4843],[31.2363,50.4836],[31.2622,50.4844],[31.2761,50.4895],[31.3013,50.4931],[31.3308,50.4968],[31.3534,50.499],[31.3629,50.4953],[31.3704,50.4919],[31.3707,50.4892],[31.3669,50.4874],[31.3613,50.4849],[31.3562,50.4833],[31.3523,50.4803],[31.3462,50.4766],[31.3415,50.4727],[31.338,50.4694],[31.3386,50.4661],[31.342,50.4622],[31.3473,50.4617],[31.3522,50.4627],[31.3578,50.4647],[31.3607,50.4658],[31.3651,50.4661],[31.3669,50.4639],[31.3695,50.4612],[31.3731,50.461],[31.3742,50.4627],[31.3752,50.4654],[31.3755,50.4677],[31.3749,50.4698],[31.3739,50.4715],[31.372,50.4737],[31.3706,50.4753],[31.369,50.478],[31.3706,50.4812],[31.3772,50.4858],[31.3798,50.4887],[31.383,50.488],[31.3884,50.487],[31.3876,50.4838],[31.3872,50.4811],[31.3893,50.4792],[31.3935,50.4783],[31.3986,50.4786],[31.4008,50.4821],[31.4129,50.4763],[31.4259,50.4698],[31.4329,50.4729],[31.4109,50.4825],[31.4038,50.4856],[31.4036,50.4888],[31.4031,50.4938],[31.4025,50.4962],[31.4007,50.4972],[31.3968,50.4983],[31.3933,50.4983],[31.3907,50.498],[31.3883,50.4973],[31.3854,50.4965],[31.3793,50.4997],[31.3659,50.5055],[31.3532,50.505],[31.3342,50.5042]]]}},{"type":"Feature","properties":{"s":"liberated"},"geometry":{"type":"Polygon","coordinates":[[[36.5552,47.6728],[36.546,47.675],[36.5122,47.6877],[36.4941,47.6931],[36.4943,47.7001],[36.4981,47.7104],[36.5092,47.712],[36.5058,47.7216],[36.4908,47.7269],[36.4845,47.7208],[36.4755,47.7233],[36.4727,47.727],[36.4661,47.7251],[36.4613,47.7221],[36.4714,47.7149],[36.4843,47.7089],[36.4826,47.6963],[36.4733,47.6975],[36.4053,47.6905],[36.4028,47.6956],[36.4005,47.6983],[36.3936,47.6976],[36.3898,47.6952],[36.3873,47.6922],[36.3824,47.6898],[36.3752,47.6882],[36.3403,47.6836],[36.3277,47.6878],[36.3199,47.6887],[36.3107,47.6875],[36.3083,47.6849],[36.3115,47.6811],[36.3143,47.6782],[36.3186,47.6743],[36.3808,47.6802],[36.3848,47.6611],[36.3795,47.6605],[36.3749,47.6591],[36.3736,47.6564],[36.3765,47.6532],[36.3819,47.6504],[36.3894,47.6505],[36.4003,47.6533],[36.4023,47.6559],[36.4021,47.6596],[36.3996,47.6622],[36.3949,47.6633],[36.3938,47.6662],[36.3941,47.6696],[36.4066,47.67],[36.4123,47.6717],[36.4148,47.6748],[36.4161,47.6774],[36.4167,47.6803],[36.4176,47.6833],[36.4214,47.685],[36.4324,47.6861],[36.4412,47.6876],[36.4511,47.6885],[36.4564,47.6829],[36.4599,47.6774],[36.4614,47.674],[36.4598,47.671],[36.4587,47.6675],[36.4608,47.6643],[36.4698,47.664],[36.4764,47.6648],[36.4847,47.6658],[36.4901,47.6677],[36.4899,47.6734],[36.4892,47.6791],[36.488,47.6845],[36.489,47.6886],[36.495,47.6879],[36.5006,47.6862],[36.5111,47.6834],[36.5301,47.6757],[36.5382,47.6689],[36.5552,47.6728]]]}},{"type":"Feature","properties":{"s":"liberated"},"geometry":{"type":"Polygon","coordinates":[[[33.876,47.4813],[33.8355,47.4341],[33.8441,47.4092],[33.8695,47.3893],[33.9601,47.4095],[33.936,47.4867],[33.9377,47.4889],[33.9368,47.4903],[33.9358,47.4931],[33.9334,47.496],[33.931,47.4987],[33.9305,47.5019],[33.9299,47.5043],[33.9281,47.507],[33.9284,47.5096],[33.9301,47.5122],[33.9289,47.5169],[33.9267,47.5198],[33.9236,47.5193],[33.9148,47.5183],[33.9059,47.5176],[33.8946,47.5158],[33.8855,47.5114],[33.8809,47.5018],[33.876,47.4813]]]}},{"type":"Feature","properties":{"s":"liberated"},"geometry":{"type":"Polygon","coordinates":[[[36.4844,49.9289],[36.5019,49.9297],[36.5021,49.9341],[36.5061,49.9395],[36.5118,49.9476],[36.559,50.0059],[36.5711,50.033],[36.5779,50.0468],[36.5718,50.0562],[36.5138,50.0519],[36.491,50.0626],[36.4532,50.0729],[36.4446,50.0582],[36.3973,50.0677],[36.3985,50.0624],[36.3707,50.0461],[36.4182,50.0233],[36.4897,49.9917],[36.4782,49.9319],[36.4844,49.9289]]]}},{"type":"Feature","properties":{"s":"liberated"},"geometry":{"type":"Polygon","coordinates":[[[34.9759,50.4988],[34.9779,50.516],[34.9714,50.5293],[34.9662,50.54],[34.9789,50.5605],[34.9772,50.5801],[34.9738,50.5993],[34.9931,50.5989],[35.0103,50.6004],[35.0106,50.6113],[34.9984,50.6164],[34.9928,50.6236],[34.992,50.6286],[34.9906,50.6373],[34.9885,50.6411],[34.9814,50.6433],[34.9646,50.6405],[34.955,50.6329],[34.9452,50.6208],[34.9303,50.6147],[34.9359,50.6031],[34.9605,50.5991],[34.9612,50.5681],[34.9519,50.5489],[34.9485,50.538],[34.9553,50.5245],[34.9618,50.5103],[34.9658,50.4983],[34.9719,50.5016],[34.9759,50.4988]]]}},{"type":"Feature","properties":{"s":"liberated"},"geometry":{"type":"Polygon","coordinates":[[[36.3707,50.0461],[36.3837,50.0536],[36.3985,50.0624],[36.3973,50.0677],[36.3765,50.0723],[36.3552,50.0837],[36.3433,50.0861],[36.3298,50.0757],[36.3437,50.0655],[36.354,50.0585],[36.3624,50.0497],[36.3674,50.0447],[36.3707,50.0461]]]}},{"type":"Feature","properties":{"s":"liberated"},"geometry":{"type":"Polygon","coordinates":[[[36.8055,49.3629],[36.796,49.3649],[36.7835,49.3599],[36.8051,49.3488],[36.8021,49.3166],[36.8023,49.2759],[36.8109,49.2694],[36.8293,49.2551],[36.8446,49.2459],[36.8512,49.2432],[36.8617,49.2416],[36.8723,49.2394],[36.8799,49.2376],[36.8816,49.2359],[36.8853,49.2315],[36.8858,49.2304],[36.8863,49.2263],[36.8933,49.2166],[36.8988,49.2091],[36.905,49.1985],[36.9044,49.1913],[36.8917,49.1813],[36.8821,49.1836],[36.8625,49.1888],[36.8643,49.1815],[36.8731,49.177],[36.8726,49.1712],[36.8811,49.1646],[36.8873,49.158],[36.898,49.1556],[36.9085,49.162],[36.9152,49.1704],[36.9215,49.1918],[36.9223,49.1951],[36.9246,49.1976],[36.9231,49.2027],[36.9169,49.2065],[36.9091,49.2069],[36.902,49.2158],[36.8955,49.224],[36.889,49.2368],[36.8866,49.24],[36.8573,49.2459],[36.8367,49.2572],[36.8079,49.2789],[36.8108,49.2892],[36.8127,49.299],[36.8129,49.3084],[36.8107,49.3174],[36.8127,49.3373],[36.8142,49.3499],[36.8312,49.348],[36.8356,49.3507],[36.838,49.3529],[36.8395,49.3548],[36.8831,49.3827],[36.8566,49.3987],[36.8255,49.4072],[36.8257,49.39],[36.821,49.3813],[36.8139,49.3653],[36.8055,49.3629]]]}},{"type":"Feature","properties":{"s":"liberated"},"geometry":{"type":"Polygon","coordinates":[[[33.0951,47.5617],[33.0875,47.5528],[33.1129,47.5564],[33.1435,47.5475],[33.1444,47.5345],[33.1619,47.5285],[33.1823,47.5199],[33.1985,47.5186],[33.2042,47.5039],[33.2035,47.4886],[33.2071,47.4797],[33.2086,47.469],[33.2086,47.4653],[33.2093,47.4621],[33.2071,47.456],[33.2005,47.444],[33.2222,47.4448],[33.2361,47.4462],[33.2373,47.4534],[33.2308,47.4669],[33.2268,47.4705],[33.2237,47.4719],[33.2171,47.4718],[33.2139,47.481],[33.2183,47.4844],[33.2179,47.489],[33.2182,47.5028],[33.2151,47.5074],[33.21,47.529],[33.1981,47.5304],[33.183,47.5273],[33.1681,47.5347],[33.1658,47.5406],[33.1557,47.5436],[33.1525,47.5541],[33.1358,47.5591],[33.1111,47.5634],[33.0951,47.5617]]]}},{"type":"Feature","properties":{"s":"liberated"},"geometry":{"type":"Polygon","coordinates":[[[34.9885,50.6411],[35.0095,50.6613],[35.0088,50.6807],[35.0139,50.6935],[34.9847,50.7555],[34.959,50.7711],[34.9446,50.7813],[34.9415,50.7915],[34.9501,50.8128],[34.9506,50.8249],[34.9317,50.8256],[34.9314,50.8115],[34.9272,50.7913],[34.9286,50.7785],[34.9434,50.7629],[34.9667,50.7485],[34.9753,50.7277],[34.9913,50.6937],[34.9878,50.6835],[34.9882,50.6643],[34.9646,50.6405],[34.9814,50.6433],[34.9885,50.6411]]]}},{"type":"Feature","properties":{"s":"liberated"},"geometry":{"type":"Polygon","coordinates":[[[34.9478,50.3576],[34.9342,50.3303],[34.9369,50.3176],[34.9431,50.3077],[34.9884,50.3075],[35.0375,50.3086],[35.0688,50.3206],[35.099,50.3257],[35.1364,50.3292],[35.1776,50.332],[35.1761,50.3435],[35.1668,50.3429],[35.1634,50.3427],[35.1595,50.3424],[35.1433,50.3415],[35.1165,50.3704],[35.0417,50.3664],[35.0145,50.3776],[34.9771,50.373],[34.9478,50.3576]]]}},{"type":"Feature","properties":{"s":"liberated"},"geometry":{"type":"Polygon","coordinates":[[[31.7142,50.598],[31.6819,50.5962],[31.697,50.6052],[31.7212,50.6151],[31.7432,50.6341],[31.7504,50.6162],[31.7582,50.6138],[31.7634,50.6137],[31.7689,50.6157],[31.7694,50.617],[31.7693,50.6187],[31.7682,50.6206],[31.766,50.622],[31.7628,50.6243],[31.7596,50.6281],[31.753,50.6341],[31.7686,50.6407],[31.7628,50.6466],[31.7733,50.6514],[31.7865,50.6522],[31.8023,50.6571],[31.8105,50.654],[31.822,50.6508],[31.839,50.6497],[31.8499,50.6501],[31.8552,50.6505],[31.8591,50.6522],[31.8621,50.6544],[31.8643,50.6567],[31.8651,50.6596],[31.8641,50.6619],[31.8629,50.6639],[31.8604,50.6648],[31.8441,50.6704],[31.842,50.6734],[31.8371,50.6764],[31.8649,50.691],[31.8866,50.7036],[31.894,50.6991],[31.9044,50.6961],[31.9102,50.6971],[31.915,50.6987],[31.9176,50.7003],[31.9185,50.7024],[31.9181,50.7044],[31.9165,50.7062],[31.9074,50.7099],[31.9268,50.7139],[31.9474,50.7092],[31.9526,50.7082],[31.9577,50.7082],[31.9716,50.7102],[31.9812,50.712],[31.9894,50.714],[31.9918,50.7157],[31.991,50.7168],[31.9897,50.717],[31.9846,50.7178],[32.0069,50.7257],[32.0146,50.7217],[32.0193,50.7204],[32.0284,50.72],[32.0333,50.7201],[32.0365,50.7215],[32.042,50.7297],[32.0378,50.7395],[32.0378,50.7471],[32.0476,50.7499],[32.0684,50.7697],[32.0781,50.7762],[32.0833,50.7842],[32.0951,50.7903],[32.1056,50.784],[32.1172,50.782],[32.1252,50.7829],[32.1285,50.785],[32.1286,50.7883],[32.1255,50.7894],[32.1234,50.7921],[32.1154,50.7932],[32.1084,50.7955],[32.1292,50.8032],[32.125,50.8072],[32.1005,50.8001],[32.0875,50.8099],[32.0793,50.8039],[32.0842,50.8],[32.0878,50.796],[32.0783,50.7908],[32.0663,50.7946],[32.0604,50.7924],[32.0572,50.7866],[32.0592,50.783],[32.063,50.7802],[32.0586,50.7723],[32.0396,50.7531],[32.0322,50.7498],[32.0306,50.7545],[32.0316,50.758],[32.0355,50.7606],[32.0364,50.7696],[32.0335,50.7752],[32.0279,50.7753],[32.0221,50.7701],[32.0203,50.7637],[32.0205,50.7573],[32.019,50.7502],[32.0241,50.7447],[32.0237,50.7408],[32.0176,50.7413],[32.0015,50.7489],[31.9968,50.7472],[31.9961,50.7435],[32.001,50.7407],[32.007,50.7386],[32.0141,50.7358],[32.0162,50.7333],[32.0128,50.731],[32.0057,50.7304],[31.9967,50.7271],[31.9756,50.7193],[31.9559,50.7133],[31.9293,50.7187],[31.8773,50.708],[31.8705,50.7032],[31.8247,50.6774],[31.8183,50.6673],[31.7862,50.6588],[31.7645,50.6551],[31.7383,50.6395],[31.7124,50.6194],[31.6877,50.6079],[31.6789,50.6068],[31.6776,50.6092],[31.674,50.6109],[31.6634,50.6074],[31.6683,50.5999],[31.659,50.5945],[31.6567,50.5903],[31.6688,50.5828],[31.6771,50.5817],[31.6815,50.5691],[31.702,50.5709],[31.7201,50.5738],[31.7142,50.598]]]}},{"type":"Feature","properties":{"s":"liberated"},"geometry":{"type":"Polygon","coordinates":[[[35.1776,50.332],[35.229,50.3296],[35.2579,50.3357],[35.2792,50.3317],[35.3231,50.3396],[35.3568,50.3497],[35.398,50.3484],[35.4749,50.3992],[35.503,50.4115],[35.5118,50.4211],[35.5482,50.422],[35.5663,50.421],[35.5833,50.4252],[35.5833,50.43],[35.5872,50.4311],[35.5867,50.437],[35.5591,50.4269],[35.5463,50.4291],[35.5078,50.4271],[35.5015,50.4337],[35.492,50.4377],[35.4694,50.4473],[35.4325,50.4448],[35.417,50.4368],[35.4096,50.4383],[35.3986,50.4458],[35.3786,50.4667],[35.3528,50.4884],[35.3966,50.5587],[35.3694,50.607],[35.3323,50.6436],[35.3138,50.6671],[35.3193,50.6975],[35.2953,50.7104],[35.3642,50.7029],[35.3782,50.6956],[35.3865,50.6858],[35.4025,50.6788],[35.4085,50.6832],[35.4102,50.6935],[35.4091,50.7002],[35.4182,50.7015],[35.4253,50.6947],[35.4304,50.6896],[35.4426,50.687],[35.4598,50.6887],[35.4601,50.6921],[35.4606,50.7019],[35.4565,50.7042],[35.456,50.7102],[35.4461,50.7064],[35.4433,50.6967],[35.4356,50.6965],[35.4323,50.7031],[35.4255,50.7086],[35.357,50.7139],[35.2904,50.7279],[35.2783,50.7279],[35.2675,50.7248],[35.2644,50.7348],[35.2728,50.7523],[35.2734,50.7607],[35.2887,50.7619],[35.296,50.7664],[35.289,50.7729],[35.2794,50.779],[35.2667,50.782],[35.2691,50.7902],[35.2902,50.7904],[35.3115,50.7932],[35.3306,50.7933],[35.3507,50.7932],[35.3644,50.7939],[35.3872,50.7942],[35.4017,50.7955],[35.4075,50.7988],[35.3939,50.8027],[35.3893,50.811],[35.4118,50.8119],[35.414,50.8186],[35.3874,50.8179],[35.351,50.8246],[35.3236,50.8441],[35.3066,50.8408],[35.292,50.8353],[35.286,50.8349],[35.284,50.8424],[35.2795,50.8514],[35.2819,50.8583],[35.2895,50.8621],[35.2908,50.8686],[35.2838,50.8701],[35.2763,50.8677],[35.2694,50.8675],[35.267,50.8703],[35.2747,50.8737],[35.2874,50.874],[35.3005,50.8784],[35.3183,50.877],[35.3276,50.8761],[35.3456,50.8838],[35.3544,50.8874],[35.3628,50.8902],[35.366,50.8935],[35.3626,50.9],[35.3521,50.9062],[35.3384,50.9176],[35.3233,50.9137],[35.3301,50.9009],[35.337,50.8916],[35.3209,50.8854],[35.302,50.8875],[35.2893,50.8869],[35.2718,50.8869],[35.2529,50.8854],[35.2316,50.8851],[35.2223,50.8847],[35.1969,50.9059],[35.1784,50.9191],[35.1557,50.9139],[35.1485,50.8996],[35.1475,50.8849],[35.142,50.868],[35.1252,50.8544],[35.0987,50.8487],[35.0843,50.8385],[35.0457,50.8424],[35.0206,50.8385],[34.9949,50.84],[34.9698,50.8326],[34.9513,50.8383],[34.932,50.8365],[34.9317,50.8256],[34.9506,50.8249],[34.9629,50.8235],[34.9818,50.8246],[35.001,50.8242],[35.0203,50.8231],[35.0436,50.8235],[35.079,50.8235],[35.0896,50.8135],[35.1171,50.8044],[35.1476,50.7993],[35.1887,50.7871],[35.2265,50.7693],[35.2457,50.7406],[35.2464,50.7132],[35.267,50.695],[35.2711,50.6806],[35.2794,50.6637],[35.2904,50.6497],[35.2986,50.6393],[35.2595,50.6262],[35.2423,50.6188],[35.2251,50.6205],[35.219,50.6075],[35.2176,50.5913],[35.1867,50.5591],[35.1608,50.546],[35.1189,50.5421],[35.099,50.5473],[35.0365,50.5307],[35.0153,50.5159],[34.981,50.495],[34.9929,50.4801],[35.0125,50.4787],[35.0256,50.4717],[35.0455,50.4726],[35.0544,50.4827],[35.0805,50.4779],[35.1114,50.4735],[35.132,50.4678],[35.1512,50.4599],[35.1718,50.4508],[35.1931,50.4429],[35.1971,50.4362],[35.2067,50.4294],[35.1898,50.4167],[35.176,50.4066],[35.1618,50.3991],[35.1492,50.3982],[35.1378,50.396],[35.1412,50.3891],[35.1353,50.3869],[35.135,50.3835],[35.1452,50.3805],[35.1424,50.3735],[35.1436,50.3701],[35.1416,50.3661],[35.1438,50.3629],[35.146,50.3604],[35.1512,50.3595],[35.1576,50.3544],[35.158,50.3508],[35.1595,50.3424],[35.1631,50.3427],[35.1668,50.3429],[35.1664,50.3464],[35.1655,50.3495],[35.1647,50.3547],[35.164,50.3583],[35.161,50.3598],[35.1571,50.3628],[35.157,50.3636],[35.1597,50.3649],[35.1594,50.3673],[35.1584,50.3686],[35.1569,50.37],[35.1522,50.371],[35.1579,50.3801],[35.176,50.3923],[35.2055,50.4098],[35.2346,50.4314],[35.2443,50.4424],[35.2828,50.4514],[35.3218,50.4748],[35.3343,50.4849],[35.3451,50.4759],[35.3576,50.4656],[35.3724,50.4536],[35.3848,50.4409],[35.3741,50.4317],[35.3679,50.4241],[35.3779,50.4195],[35.3878,50.4175],[35.3878,50.4107],[35.3865,50.398],[35.3889,50.3871],[35.3916,50.374],[35.3909,50.3648],[35.3556,50.3654],[35.3254,50.3639],[35.3144,50.3564],[35.2886,50.3477],[35.2673,50.349],[35.2351,50.3453],[35.2055,50.342],[35.1761,50.3435],[35.1776,50.332]]]}},{"type":"Feature","properties":{"s":"liberated"},"geometry":{"type":"Polygon","coordinates":[[[32.8494,50.974],[32.8787,50.9701],[32.8598,50.9592],[32.8288,50.9479],[32.8217,50.9384],[32.8071,50.9376],[32.8152,50.9169],[32.8182,50.9051],[32.7917,50.8955],[32.7706,50.8939],[32.7503,50.8849],[32.7005,50.8967],[32.6708,50.8897],[32.6482,50.8566],[32.6489,50.8393],[32.6646,50.8325],[32.6454,50.8128],[32.611,50.7776],[32.6491,50.7806],[32.6789,50.7857],[32.714,50.7814],[32.7604,50.7974],[32.8047,50.809],[32.8132,50.8023],[32.7894,50.7888],[32.792,50.7802],[32.7853,50.7718],[32.7999,50.762],[32.8307,50.7773],[32.8211,50.7895],[32.841,50.7991],[32.8276,50.8154],[32.8687,50.8233],[32.9064,50.8311],[32.9578,50.8455],[33.0151,50.842],[33.0432,50.8385],[33.0754,50.8463],[33.1124,50.8507],[33.1237,50.8262],[33.1528,50.8272],[33.1575,50.8565],[33.2004,50.862],[33.1957,50.8756],[33.1266,50.9217],[33.1273,50.9392],[33.1196,50.9424],[33.0823,50.943],[33.0634,50.9619],[32.9723,50.9494],[32.9213,50.9739],[33.0157,51.0162],[33.0384,51.02],[33.0707,51.0314],[33.0823,51.0307],[33.0857,51.0244],[33.0917,51.0134],[33.1297,51.0048],[33.1475,51.0108],[33.1567,51.0195],[33.1617,51.0558],[33.2512,51.0845],[33.294,51.0455],[33.3645,51.0536],[33.384,51.0797],[33.4275,51.154],[33.2988,51.2089],[33.1743,51.1813],[33.1053,51.1807],[33.0238,51.1706],[32.9771,51.1269],[32.9617,51.1523],[32.8795,51.1621],[32.8387,51.1521],[32.894,51.1329],[32.877,51.0814],[32.8412,51.0513],[32.7409,51.073],[32.6982,51.0947],[32.6349,51.1016],[32.6272,51.0782],[32.6075,51.0644],[32.5445,51.0475],[32.5549,51.0264],[32.5429,51.0069],[32.5285,50.9663],[32.5229,50.9574],[32.5325,50.9378],[32.5432,50.9003],[32.5925,50.895],[32.6029,50.9272],[32.591,50.9487],[32.6102,50.9876],[32.6576,50.9901],[32.6809,51.0022],[32.8392,50.9924],[32.8644,50.979],[32.8494,50.974]]]}},{"type":"Feature","properties":{"s":"liberated"},"geometry":{"type":"Polygon","coordinates":[[[33.6899,47.4501],[33.6539,47.4483],[33.6368,47.47],[33.6277,47.4794],[33.6031,47.5054],[33.5706,47.5721],[33.4776,47.5611],[33.4917,47.5194],[33.4989,47.512],[33.5461,47.5181],[33.5544,47.5051],[33.5963,47.4966],[33.611,47.4801],[33.6205,47.4669],[33.6205,47.4516],[33.6342,47.4392],[33.6633,47.4361],[33.7214,47.4308],[33.7053,47.4514],[33.6899,47.4501]]]}},{"type":"Feature","properties":{"s":"liberated"},"geometry":{"type":"Polygon","coordinates":[[[36.8928,49.7996],[36.9049,49.7916],[37.0059,49.8298],[37.0029,49.8424],[36.9856,49.8335],[36.9773,49.8358],[36.9038,49.8075],[36.8928,49.7996]]]}},{"type":"Feature","properties":{"s":"liberated"},"geometry":{"type":"Polygon","coordinates":[[[37.5337,47.9506],[37.5201,47.9514],[37.5043,47.9406],[37.5029,47.9236],[37.5049,47.923],[37.5343,47.9134],[37.5428,47.9325],[37.5337,47.9506]]]}},{"type":"Feature","properties":{"s":"liberated"},"geometry":{"type":"Polygon","coordinates":[[[36.4844,49.9289],[36.484,49.9089],[36.4844,49.9012],[36.5058,49.8971],[36.5851,49.8774],[36.5828,49.8699],[36.5822,49.86],[36.6106,49.8547],[36.6126,49.8546],[36.6152,49.8621],[36.6186,49.8725],[36.6255,49.8699],[36.6357,49.8619],[36.6471,49.8547],[36.665,49.8462],[36.6741,49.8402],[36.6788,49.829],[36.67,49.8283],[36.6498,49.8231],[36.6538,49.8194],[36.6589,49.8209],[36.6711,49.8228],[36.6776,49.8177],[36.6851,49.8198],[36.6919,49.8253],[36.702,49.8169],[36.7086,49.8222],[36.7224,49.8121],[36.7192,49.806],[36.7065,49.799],[36.6907,49.7954],[36.6955,49.7903],[36.7202,49.7947],[36.7307,49.8023],[36.7338,49.8075],[36.7414,49.8054],[36.7633,49.791],[36.8,49.7797],[36.8042,49.7769],[36.7949,49.7691],[36.791,49.7618],[36.794,49.7598],[36.7975,49.7581],[36.7988,49.7581],[36.8265,49.7743],[36.8424,49.7665],[36.846,49.7644],[36.8502,49.7671],[36.8475,49.77],[36.8425,49.7731],[36.829,49.7835],[36.8293,49.7884],[36.8234,49.7942],[36.817,49.7973],[36.8148,49.7952],[36.8149,49.7935],[36.819,49.7875],[36.7779,49.7982],[36.7611,49.8107],[36.7476,49.8188],[36.7405,49.8263],[36.7173,49.8439],[36.7032,49.8465],[36.7062,49.8528],[36.7313,49.8688],[36.7494,49.8766],[36.7807,49.8708],[36.7992,49.8662],[36.8397,49.858],[36.8555,49.856],[36.8816,49.8571],[36.9129,49.8553],[36.9269,49.8551],[36.9417,49.8569],[36.9627,49.8655],[36.9726,49.875],[36.9771,49.8821],[36.963,49.8843],[36.9475,49.8812],[36.9163,49.8852],[36.9039,49.8801],[36.9033,49.8702],[36.8943,49.8662],[36.8737,49.8671],[36.8555,49.8662],[36.8064,49.8759],[36.7821,49.8828],[36.7553,49.8927],[36.7242,49.8888],[36.71,49.8818],[36.7069,49.8779],[36.701,49.8647],[36.6901,49.8483],[36.6818,49.8474],[36.6711,49.851],[36.652,49.8599],[36.6411,49.8658],[36.6345,49.8699],[36.6297,49.873],[36.624,49.8753],[36.6166,49.8778],[36.6126,49.8814],[36.6123,49.8877],[36.6072,49.8886],[36.6084,49.8941],[36.6122,49.8984],[36.6174,49.9035],[36.6178,49.9085],[36.6029,49.9079],[36.599,49.9074],[36.591,49.9019],[36.5855,49.8954],[36.5796,49.889],[36.5731,49.8888],[36.5676,49.8905],[36.5607,49.8922],[36.5549,49.8901],[36.5449,49.8933],[36.5196,49.9009],[36.5018,49.912],[36.5019,49.9297],[36.4844,49.9289]]]}},{"type":"Feature","properties":{"s":"liberated"},"geometry":{"type":"Polygon","coordinates":[[[32.1199,46.597],[32.1259,46.6147],[32.0935,46.6552],[32.1202,46.7071],[32.0984,46.7179],[32.093,46.7235],[32.0948,46.7328],[32.1226,46.7419],[32.1569,46.7454],[32.1597,46.7805],[32.1096,46.7896],[31.9644,46.7725],[31.9421,46.7445],[31.9747,46.7106],[31.9668,46.6823],[31.9781,46.6569],[32.0172,46.6279],[32.0574,46.6135],[32.0969,46.6149],[32.1199,46.597]]]}},{"type":"Feature","properties":{"s":"liberated"},"geometry":{"type":"Polygon","coordinates":[[[36.25,50.1292],[36.3172,50.1194],[36.3192,50.1579],[36.2483,50.1619],[36.2356,50.144],[36.25,50.1292]]]}},{"type":"Feature","properties":{"s":"liberated"},"geometry":{"type":"Polygon","coordinates":[[[33.2222,47.4448],[33.2005,47.444],[33.2045,47.4363],[33.2161,47.4319],[33.2185,47.4117],[33.198,47.373],[33.192,47.357],[33.1756,47.3492],[33.1735,47.3434],[33.1848,47.3401],[33.1996,47.3391],[33.2066,47.3432],[33.2142,47.3455],[33.2207,47.3519],[33.2234,47.3657],[33.2441,47.412],[33.2361,47.4462],[33.2222,47.4448]]]}},{"type":"Feature","properties":{"s":"liberated"},"geometry":{"type":"Polygon","coordinates":[[[32.4649,47.0749],[32.4613,47.0748],[32.4511,47.0674],[32.4541,47.0501],[32.5121,47.0602],[32.532,47.0198],[32.5715,47.027],[32.5602,47.0665],[32.6367,47.0759],[32.6474,47.0432],[32.6968,47.0476],[32.6947,47.0958],[32.682,47.1046],[32.6673,47.1079],[32.6607,47.0999],[32.6601,47.0961],[32.6535,47.0948],[32.4649,47.0749]]]}},{"type":"Feature","properties":{"s":"unknown"},"geometry":{"type":"Polygon","coordinates":[[[37.1095,49.0448],[37.1767,49.0394],[37.1883,49.0638],[37.1507,49.0659],[37.1052,49.0694],[37.1095,49.0448]]]}},{"type":"Feature","properties":{"s":"unknown"},"geometry":{"type":"Polygon","coordinates":[[[36.4446,50.0582],[36.4532,50.0729],[36.491,50.0626],[36.5216,50.0658],[36.5773,50.0711],[36.5833,50.0739],[36.598,50.0752],[36.6035,50.0849],[36.6273,50.0954],[36.6498,50.1116],[36.4273,50.1596],[36.4317,50.1545],[36.433,50.1389],[36.4224,50.1176],[36.4193,50.1086],[36.4114,50.0996],[36.4056,50.09],[36.4033,50.0816],[36.4043,50.0753],[36.3973,50.0677],[36.4446,50.0582]]]}},{"type":"Feature","properties":{"s":"unknown"},"geometry":{"type":"Polygon","coordinates":[[[35.2727,47.4573],[35.2727,47.4527],[35.2942,47.4475],[35.3011,47.4525],[35.3947,47.5206],[35.4729,47.4886],[35.555,47.5003],[35.4825,47.5482],[35.4091,47.5427],[35.3654,47.5446],[35.3652,47.5372],[35.3432,47.5365],[35.3237,47.5154],[35.2986,47.5122],[35.2845,47.5061],[35.2745,47.496],[35.277,47.4834],[35.2834,47.4703],[35.2727,47.4573]]]}},{"type":"Feature","properties":{"s":"unknown"},"geometry":{"type":"Polygon","coordinates":[[[37.087,49.2693],[37.0425,49.1653],[37.073,49.16],[37.1257,49.1431],[37.1576,49.1411],[37.2161,49.1312],[37.2469,49.1779],[37.2385,49.1923],[37.2353,49.202],[37.2341,49.218],[37.2133,49.2502],[37.1854,49.2766],[37.1355,49.2774],[37.087,49.2693]]]}},{"type":"Feature","properties":{"s":"unknown"},"geometry":{"type":"Polygon","coordinates":[[[33.5746,47.3463],[33.6016,47.3492],[33.6208,47.3282],[33.6745,47.3362],[33.6946,47.3323],[33.7477,47.3362],[33.7615,47.333],[33.8035,47.3384],[33.8009,47.3508],[33.8263,47.3536],[33.8185,47.3733],[33.7098,47.3809],[33.7085,47.3999],[33.7231,47.4201],[33.7214,47.4308],[33.6342,47.4392],[33.6205,47.4516],[33.6205,47.4669],[33.5963,47.4966],[33.5544,47.5051],[33.5606,47.4878],[33.5646,47.4696],[33.52,47.4745],[33.5157,47.4829],[33.4939,47.4806],[33.4973,47.461],[33.4776,47.4609],[33.4714,47.475],[33.4298,47.4694],[33.3967,47.4681],[33.3975,47.4566],[33.4101,47.4408],[33.4249,47.4321],[33.4545,47.3939],[33.513,47.3706],[33.5619,47.4093],[33.586,47.4069],[33.5391,47.3612],[33.5746,47.3463]]]}},{"type":"Feature","properties":{"s":"unknown"},"geometry":{"type":"Polygon","coordinates":[[[32.2435,46.7861],[32.1864,46.797],[32.1539,46.808],[32.1597,46.7805],[32.1569,46.7454],[32.2176,46.7498],[32.2238,46.7413],[32.2523,46.732],[32.3139,46.7436],[32.3678,46.7617],[32.373,46.7806],[32.3969,46.7916],[32.4026,46.804],[32.4025,46.8181],[32.407,46.8469],[32.3071,46.8008],[32.2435,46.7861]]]}},{"type":"Feature","properties":{"s":"unknown"},"geometry":{"type":"Polygon","coordinates":[[[32.1569,46.7454],[32.1226,46.7419],[32.0948,46.7328],[32.093,46.7235],[32.0984,46.7179],[32.1202,46.7071],[32.0935,46.6552],[32.1259,46.6147],[32.1405,46.6342],[32.1401,46.6691],[32.1659,46.7021],[32.1874,46.7472],[32.1569,46.7454]]]}},{"type":"Feature","properties":{"s":"occupied"},"geometry":{"type":"Polygon","coordinates":[[[38.3553,49.0541],[38.3449,49.047],[38.3404,49.0426],[38.3345,49.0329],[38.3281,49.0293],[38.3315,49.0244],[38.3377,49.0178],[38.3386,49.016],[38.3419,49.011],[38.346,49.0074],[38.3536,49.0059],[38.3657,49.0085],[38.3787,49.0074],[38.3871,49.0042],[38.3965,49.0087],[38.4007,49.0094],[38.4025,49.0179],[38.4068,49.0362],[38.3553,49.0541]]]}},{"type":"Feature","properties":{"s":"occupied"},"geometry":{"type":"Polygon","coordinates":[[[36.1578,50.2583],[36.1901,50.2553],[36.2039,50.2552],[36.2086,50.2545],[36.2107,50.2375],[36.2017,50.2079],[36.1983,50.203],[36.2479,50.2025],[36.2473,50.1744],[36.2483,50.1619],[36.3192,50.1579],[36.3172,50.1194],[36.3584,50.1162],[36.359,50.1074],[36.3475,50.0998],[36.3433,50.0861],[36.3552,50.0837],[36.3765,50.0723],[36.3973,50.0677],[36.4043,50.0753],[36.4033,50.0816],[36.4056,50.09],[36.4114,50.0996],[36.4193,50.1086],[36.4224,50.1176],[36.433,50.1389],[36.4317,50.1545],[36.4273,50.1596],[36.6498,50.1116],[36.6273,50.0954],[36.6035,50.0849],[36.598,50.0752],[36.5833,50.0739],[36.5773,50.0711],[36.5216,50.0658],[36.511,50.0647],[36.491,50.0626],[36.5138,50.0519],[36.5718,50.0562],[36.5949,50.0579],[36.6514,50.0592],[36.6663,50.0265],[36.6855,50.0331],[36.6866,50.0657],[36.7577,50.0635],[36.7548,50.0369],[36.7746,50.0252],[36.7999,50.0425],[36.7984,50.074],[36.8252,50.0774],[36.8381,50.0479],[36.862,50.0182],[36.9411,49.9745],[36.9522,49.932],[37.006,49.9106],[36.9995,49.8908],[37.0125,49.8602],[37.0029,49.8424],[37.0059,49.8298],[36.9049,49.7916],[36.8928,49.7996],[36.896,49.7799],[36.871,49.7535],[36.8195,49.7276],[36.7711,49.7333],[36.7561,49.719],[36.8229,49.7072],[36.8992,49.6531],[36.8668,49.6229],[36.8502,49.6125],[36.82,49.6136],[36.7726,49.607],[36.7801,49.5975],[36.822,49.5983],[36.8738,49.5977],[36.9195,49.633],[36.946,49.5972],[36.9652,49.5774],[36.8841,49.4908],[36.8128,49.5065],[36.7799,49.487],[36.776,49.4382],[36.8255,49.4072],[36.8566,49.3987],[36.8831,49.3827],[36.9292,49.4121],[37.0271,49.385],[37.0931,49.3947],[37.1766,49.3923],[37.1784,49.3779],[37.1603,49.3255],[37.087,49.2693],[37.1355,49.2774],[37.1854,49.2766],[37.2133,49.2502],[37.2341,49.218],[37.2506,49.2263],[37.2549,49.2277],[37.2581,49.2297],[37.2672,49.2324],[37.2758,49.2333],[37.2775,49.2333],[37.2793,49.2338],[37.2808,49.2344],[37.2823,49.2354],[37.295,49.2384],[37.3086,49.24],[37.3311,49.2255],[37.3308,49.2223],[37.3286,49.2197],[37.3268,49.217],[37.3292,49.2141],[37.3334,49.2105],[37.3281,49.2089],[37.3189,49.2093],[37.3133,49.2109],[37.3346,49.1939],[37.3727,49.1881],[37.4047,49.2127],[37.4602,49.2084],[37.5624,49.1344],[37.6336,49.1429],[37.6595,49.1492],[37.7401,49.1468],[37.7698,49.1089],[37.9265,49.1386],[37.9625,49.1269],[37.948,49.0893],[37.9353,49.0644],[37.9468,49.0272],[37.9053,49.0284],[37.9158,49.0137],[37.868,49.0061],[37.8824,48.988],[37.9318,48.9989],[37.957,48.9943],[37.9698,48.9699],[37.9779,48.9525],[37.9581,48.9442],[37.9574,48.937],[38.0012,48.9379],[38.0052,48.9447],[37.9938,48.9699],[37.9839,48.9883],[38.1227,48.9903],[38.188,49.0254],[38.2391,49.0396],[38.2521,49.0316],[38.2981,49.0319],[38.3281,49.0293],[38.3345,49.0329],[38.3037,49.0453],[38.2675,49.0403],[38.2281,49.0639],[38.1784,49.1334],[38.1833,49.1619],[38.184,49.2023],[38.2252,49.2158],[38.2341,49.3694],[38.144,49.3887],[38.1083,49.444],[38.1687,49.5546],[38.133,49.5974],[38.188,49.7396],[38.177,49.8424],[38.2552,49.9097],[38.2164,49.9873],[38.2147,49.9774],[38.1969,49.9708],[38.1948,49.9615],[38.1605,49.9536],[38.1715,49.9421],[38.1344,49.9282],[38.1269,49.9222],[38.1289,49.9302],[38.1248,49.9421],[38.0582,49.9244],[38.0459,49.9152],[38.036,49.9041],[38.0263,49.9061],[38.0196,49.9122],[38.0125,49.9185],[38.0199,49.921],[38.0169,49.9245],[38.0439,49.9327],[38.033,49.9439],[38.024,49.9517],[38.0091,49.9626],[38.0088,49.9647],[38.0051,49.9674],[37.9991,49.964],[37.9789,49.977],[37.9648,49.9792],[37.9554,49.9945],[37.925,50.035],[37.892,50.0509],[37.8615,50.0554],[37.8501,50.0591],[37.8186,50.072],[37.7973,50.084],[37.7547,50.078],[37.7466,50.0919],[37.7358,50.0983],[37.7107,50.1234],[37.6897,50.1427],[37.6767,50.1493],[37.6713,50.1511],[37.6548,50.166],[37.6454,50.175],[37.641,50.1757],[37.6394,50.1812],[37.6425,50.1907],[37.6132,50.2193],[37.6271,50.2421],[37.6252,50.2447],[37.627,50.264],[37.627,50.2926],[37.6285,50.2958],[37.6383,50.3027],[37.6366,50.3101],[37.6341,50.3124],[37.6295,50.3144],[37.6002,50.3163],[37.5856,50.3145],[37.5772,50.3062],[37.5548,50.3303],[37.5208,50.3364],[37.5058,50.35],[37.5063,50.3524],[37.4853,50.3565],[37.483,50.3591],[37.4826,50.3619],[37.4714,50.3702],[37.471,50.3752],[37.4677,50.3786],[37.4651,50.3841],[37.466,50.388],[37.4663,50.3976],[37.4665,50.4071],[37.4651,50.4131],[37.4659,50.4179],[37.4648,50.4209],[37.4636,50.4245],[37.4661,50.4299],[37.4694,50.431],[37.4813,50.4314],[37.4857,50.4355],[37.4848,50.445],[37.4906,50.4577],[37.4775,50.4596],[37.4734,50.4555],[37.4677,50.453],[37.4429,50.4474],[37.4325,50.4436],[37.421,50.435],[37.3963,50.431],[37.3757,50.4327],[37.3523,50.4374],[37.3325,50.4368],[37.3202,50.4328],[37.3158,50.43],[37.3088,50.4255],[37.31,50.4228],[37.3048,50.415],[37.3027,50.4116],[37.2999,50.4063],[37.2977,50.405],[37.2926,50.4014],[37.2572,50.3912],[37.2562,50.3926],[37.2217,50.3791],[37.2232,50.3778],[37.1825,50.3634],[37.1597,50.3585],[37.1487,50.3555],[37.1422,50.3614],[37.1032,50.3575],[37.1037,50.3526],[37.0709,50.347],[37.0586,50.3466],[37.0454,50.3447],[37.0368,50.3484],[36.9379,50.3504],[36.9173,50.3473],[36.8878,50.3375],[36.8733,50.3366],[36.8546,50.3303],[36.851,50.3267],[36.8329,50.3136],[36.806,50.3105],[36.799,50.3061],[36.7673,50.3024],[36.7656,50.2926],[36.7481,50.2877],[36.7505,50.2857],[36.7508,50.283],[36.7487,50.2804],[36.74,50.283],[36.7292,50.2776],[36.7196,50.2773],[36.7034,50.2684],[36.7015,50.2644],[36.6973,50.2665],[36.6954,50.2691],[36.6894,50.2693],[36.684,50.2589],[36.6822,50.2556],[36.684,50.2508],[36.6792,50.2375],[36.6723,50.2305],[36.6673,50.2261],[36.666,50.2242],[36.6639,50.222],[36.6523,50.2189],[36.6478,50.2178],[36.6406,50.2223],[36.6189,50.2269],[36.6158,50.2271],[36.6146,50.2267],[36.6131,50.2239],[36.5954,50.23],[36.5974,50.2314],[36.5846,50.2361],[36.5778,50.2394],[36.5754,50.242],[36.5726,50.2435],[36.5712,50.2439],[36.5699,50.2439],[36.56,50.2508],[36.568,50.2571],[36.5685,50.2577],[36.5742,50.2553],[36.5778,50.2586],[36.5751,50.2607],[36.5804,50.2626],[36.5791,50.2652],[36.5776,50.2673],[36.5779,50.2678],[36.5766,50.2696],[36.5767,50.2705],[36.5759,50.273],[36.5757,50.2743],[36.5736,50.2753],[36.5938,50.2759],[36.5933,50.2781],[36.5912,50.2786],[36.5895,50.2794],[36.5883,50.2811],[36.5877,50.2818],[36.5887,50.2839],[36.5866,50.2851],[36.5833,50.2863],[36.5813,50.2863],[36.5696,50.2856],[36.561,50.2845],[36.559,50.2835],[36.5584,50.2821],[36.5555,50.2814],[36.5392,50.2836],[36.5285,50.2854],[36.5256,50.2861],[36.5271,50.2926],[36.5239,50.2936],[36.521,50.293],[36.516,50.2944],[36.5165,50.2952],[36.5157,50.296],[36.5131,50.2959],[36.5116,50.2955],[36.5005,50.2995],[36.4973,50.3024],[36.4916,50.3058],[36.4899,50.308],[36.4897,50.3099],[36.4875,50.3123],[36.4401,50.3119],[36.4343,50.3292],[36.4334,50.3306],[36.4281,50.3294],[36.4249,50.3279],[36.4245,50.327],[36.423,50.3263],[36.4215,50.3238],[36.4187,50.3214],[36.4158,50.3183],[36.4133,50.3161],[36.4085,50.312],[36.3997,50.3069],[36.3756,50.3005],[36.3741,50.3002],[36.3787,50.2936],[36.3664,50.288],[36.3613,50.2871],[36.3543,50.2888],[36.3284,50.2895],[36.3046,50.2919],[36.2969,50.292],[36.2992,50.299],[36.2856,50.2987],[36.2854,50.3032],[36.2842,50.3062],[36.2757,50.3171],[36.2784,50.323],[36.2733,50.3239],[36.2839,50.3347],[36.2767,50.3401],[36.2636,50.3233],[36.162,50.3564],[36.1578,50.2583]]]}},{"type":"Feature","properties":{"s":"occupied"},"geometry":{"type":"Polygon","coordinates":[[[37.2581,49.2297],[37.2549,49.2277],[37.2506,49.2263],[37.2341,49.218],[37.2353,49.202],[37.2385,49.1923],[37.2469,49.1779],[37.2161,49.1312],[37.2191,49.1251],[37.223,49.1191],[37.2291,49.1198],[37.2305,49.1292],[37.2611,49.1343],[37.2779,49.1461],[37.282,49.1313],[37.2992,49.1314],[37.2976,49.1464],[37.3063,49.1564],[37.3049,49.1585],[37.3018,49.1622],[37.2999,49.164],[37.2998,49.1656],[37.3014,49.1662],[37.3027,49.1664],[37.303,49.1678],[37.304,49.1694],[37.3049,49.1702],[37.3055,49.1706],[37.3057,49.1707],[37.3057,49.1709],[37.3057,49.1711],[37.3057,49.1713],[37.3056,49.1715],[37.3055,49.1717],[37.3055,49.1719],[37.3054,49.172],[37.3053,49.1723],[37.3052,49.1724],[37.3051,49.1726],[37.3049,49.1728],[37.3047,49.1729],[37.3046,49.173],[37.3045,49.1732],[37.3044,49.1734],[37.3044,49.1736],[37.3046,49.1738],[37.3051,49.1745],[37.3058,49.1749],[37.3066,49.1753],[37.3074,49.1761],[37.3078,49.177],[37.3078,49.1777],[37.3077,49.1787],[37.3075,49.1794],[37.308,49.18],[37.3086,49.1804],[37.31,49.181],[37.3109,49.1813],[37.3122,49.1824],[37.3125,49.1831],[37.3124,49.1842],[37.3121,49.1848],[37.3117,49.1856],[37.311,49.1861],[37.3101,49.1865],[37.309,49.1868],[37.3076,49.1873],[37.3068,49.1879],[37.3066,49.1888],[37.307,49.1901],[37.3074,49.1907],[37.3078,49.1923],[37.3074,49.1928],[37.3061,49.1931],[37.3051,49.1931],[37.3044,49.1932],[37.3036,49.1931],[37.3022,49.1928],[37.3011,49.1924],[37.3006,49.1919],[37.2997,49.1919],[37.2986,49.1916],[37.2972,49.192],[37.2968,49.1924],[37.2964,49.1928],[37.2964,49.1931],[37.2964,49.1933],[37.2962,49.1937],[37.2962,49.194],[37.2959,49.1944],[37.2947,49.1952],[37.2937,49.1958],[37.2925,49.1963],[37.2915,49.1966],[37.2909,49.1967],[37.2903,49.1968],[37.2888,49.1975],[37.2883,49.1978],[37.2879,49.1983],[37.2877,49.1986],[37.2876,49.1988],[37.2878,49.1994],[37.288,49.1999],[37.2885,49.2008],[37.2909,49.2019],[37.2934,49.2025],[37.2949,49.2034],[37.296,49.2045],[37.2966,49.205],[37.2964,49.2057],[37.2954,49.2062],[37.2948,49.2066],[37.2936,49.2066],[37.2925,49.2068],[37.2897,49.2066],[37.291,49.2094],[37.2927,49.2132],[37.2986,49.2132],[37.3036,49.2133],[37.3107,49.21],[37.3133,49.2109],[37.3189,49.2093],[37.3281,49.2089],[37.3334,49.2105],[37.3292,49.2141],[37.3268,49.217],[37.3286,49.2197],[37.3308,49.2223],[37.3311,49.2255],[37.3202,49.2324],[37.3086,49.24],[37.295,49.2384],[37.2823,49.2354],[37.2808,49.2344],[37.2793,49.2338],[37.2775,49.2333],[37.2758,49.2333],[37.2672,49.2324],[37.2581,49.2297]]]}},{"type":"Feature","properties":{"s":"occupied"},"geometry":{"type":"Polygon","coordinates":[[[30.1991,45.2687],[30.1845,45.2535],[30.2092,45.2429],[30.2242,45.257],[30.1991,45.2687]]]}},{"type":"Feature","properties":{"s":"occupied"},"geometry":{"type":"Polygon","coordinates":[[[37.223,49.1191],[37.2191,49.1251],[37.2161,49.1312],[37.1576,49.1411],[37.1257,49.1431],[37.1041,49.1506],[37.073,49.16],[37.0425,49.1653],[37.0298,49.1562],[37.0472,49.1478],[37.078,49.1346],[37.0328,49.1295],[36.9931,49.1221],[37.0099,49.1048],[37.0393,49.1156],[37.1079,49.1188],[37.1572,49.1227],[37.1969,49.1167],[37.2029,49.0941],[37.1741,49.034],[37.1563,49.0048],[37.0969,48.9928],[37.1044,48.9765],[37.1325,48.9557],[37.2222,48.9347],[37.2433,48.928],[37.2667,48.9531],[37.2646,48.9936],[37.2626,48.999],[37.2518,49.0252],[37.2299,49.0859],[37.2289,49.0942],[37.2326,49.1025],[37.2301,49.1158],[37.2291,49.1198],[37.223,49.1191]]]}},{"type":"Feature","properties":{"s":"occupied"},"geometry":{"type":"Polygon","coordinates":[[[39.4071,48.6594],[39.4107,48.6577],[39.4175,48.6594],[39.4372,48.6565],[39.4461,48.6576],[39.4507,48.6556],[39.4513,48.6517],[39.4481,48.6475],[39.4497,48.6429],[39.4506,48.6415],[39.4542,48.6398],[39.4598,48.6397],[39.4639,48.6395],[39.4657,48.6381],[39.4627,48.633],[39.4632,48.6291],[39.4673,48.6287],[39.4731,48.6292],[39.4786,48.6292],[39.4857,48.6304],[39.4892,48.6316],[39.494,48.6334],[39.4998,48.6342],[39.5026,48.635],[39.5069,48.6356],[39.5102,48.6355],[39.5128,48.6346],[39.5158,48.6299],[39.512,48.6251],[39.5117,48.6219],[39.5163,48.6181],[39.5233,48.615],[39.527,48.6096],[39.5237,48.6062],[39.5225,48.6027],[39.524,48.5987],[39.5314,48.5971],[39.5322,48.5935],[39.5274,48.592],[39.5252,48.5886],[39.5312,48.5843],[39.5415,48.5843],[39.546,48.5874],[39.5458,48.5923],[39.5477,48.597],[39.5546,48.5996],[39.5618,48.5986],[39.5657,48.594],[39.5654,48.5889],[39.5613,48.5848],[39.5681,48.582],[39.5749,48.5843],[39.5823,48.589],[39.5932,48.5937],[39.6011,48.5914],[39.605,48.5868],[39.6001,48.5855],[39.5946,48.5811],[39.5943,48.5764],[39.6025,48.5746],[39.6095,48.5751],[39.6148,48.58],[39.6174,48.5863],[39.6222,48.5869],[39.6304,48.581],[39.6409,48.583],[39.6505,48.5854],[39.6694,48.5892],[39.6773,48.5876],[39.6863,48.587],[39.688,48.5871],[39.6873,48.5873],[39.6868,48.5879],[39.6867,48.5897],[39.6861,48.59],[39.6855,48.5901],[39.6839,48.5909],[39.6834,48.5916],[39.6832,48.5923],[39.683,48.5926],[39.68,48.5925],[39.6795,48.5921],[39.6796,48.5908],[39.6791,48.5904],[39.6786,48.5903],[39.6777,48.5904],[39.6768,48.5909],[39.6764,48.5915],[39.6757,48.5933],[39.6757,48.594],[39.6762,48.5946],[39.6768,48.5952],[39.6776,48.5956],[39.6779,48.5959],[39.6782,48.596],[39.6786,48.5959],[39.6789,48.5958],[39.6792,48.5957],[39.6795,48.5957],[39.68,48.5959],[39.6803,48.5962],[39.6805,48.5965],[39.6803,48.5969],[39.6801,48.5972],[39.6799,48.5974],[39.6795,48.5976],[39.679,48.5979],[39.6786,48.598],[39.6782,48.5981],[39.6779,48.5981],[39.6767,48.598],[39.676,48.5976],[39.6754,48.5969],[39.675,48.5967],[39.6745,48.5963],[39.6737,48.5959],[39.6728,48.5956],[39.6718,48.5955],[39.6709,48.5955],[39.6702,48.5956],[39.6694,48.596],[39.6688,48.5965],[39.6683,48.5972],[39.668,48.598],[39.668,48.5991],[39.6682,48.5999],[39.6681,48.6009],[39.6679,48.601],[39.668,48.6013],[39.6685,48.6018],[39.6689,48.6023],[39.6698,48.6027],[39.6707,48.6032],[39.6711,48.6038],[39.6708,48.6041],[39.6704,48.6045],[39.6696,48.6048],[39.6685,48.605],[39.6677,48.6051],[39.6664,48.605],[39.6658,48.605],[39.6653,48.6048],[39.6649,48.6048],[39.6643,48.6048],[39.6639,48.6048],[39.6636,48.6048],[39.6633,48.6049],[39.6628,48.6052],[39.6625,48.6054],[39.6622,48.6055],[39.6615,48.6057],[39.6613,48.6059],[39.6611,48.6061],[39.6609,48.6068],[39.6609,48.607],[39.6607,48.6071],[39.6605,48.6074],[39.6604,48.6076],[39.6604,48.6079],[39.6606,48.6082],[39.6607,48.6085],[39.6606,48.6087],[39.6606,48.6088],[39.6606,48.6091],[39.6606,48.6092],[39.6606,48.6093],[39.6608,48.6095],[39.6609,48.6098],[39.6611,48.6101],[39.6612,48.6107],[39.6614,48.6109],[39.6617,48.611],[39.6622,48.6115],[39.6626,48.612],[39.663,48.6122],[39.6633,48.6125],[39.6636,48.6128],[39.6637,48.6131],[39.664,48.614],[39.6642,48.6148],[39.6648,48.6153],[39.6648,48.6154],[39.6648,48.6156],[39.6648,48.6158],[39.6649,48.6161],[39.6651,48.6163],[39.6652,48.6165],[39.6653,48.6167],[39.6656,48.6173],[39.6661,48.6178],[39.6661,48.618],[39.6661,48.6183],[39.6664,48.6189],[39.6665,48.6194],[39.6669,48.62],[39.6672,48.6206],[39.6679,48.6214],[39.6682,48.6216],[39.669,48.6225],[39.6715,48.6245],[39.6746,48.6265],[39.6776,48.6282],[39.68,48.6296],[39.6844,48.6317],[39.6857,48.6322],[39.687,48.6326],[39.6877,48.6329],[39.6885,48.6334],[39.6902,48.6353],[39.6906,48.6355],[39.6911,48.6356],[39.6928,48.6361],[39.6935,48.6366],[39.694,48.637],[39.6941,48.6375],[39.6943,48.6378],[39.6944,48.6383],[39.6944,48.6389],[39.6943,48.6392],[39.6943,48.6398],[39.694,48.6406],[39.6939,48.6413],[39.6939,48.6419],[39.6938,48.6429],[39.6936,48.6433],[39.693,48.6436],[39.6927,48.6438],[39.6921,48.6442],[39.6916,48.645],[39.6913,48.6455],[39.6912,48.6458],[39.6911,48.6464],[39.6913,48.6467],[39.6916,48.6468],[39.6919,48.6471],[39.692,48.6473],[39.6921,48.6475],[39.6921,48.6478],[39.6923,48.6479],[39.6925,48.648],[39.6927,48.6483],[39.6929,48.6486],[39.6932,48.649],[39.6934,48.6491],[39.6936,48.6494],[39.6939,48.6496],[39.6942,48.6496],[39.6945,48.6497],[39.6946,48.6498],[39.6949,48.65],[39.695,48.6501],[39.6953,48.6503],[39.6958,48.6505],[39.6965,48.6508],[39.6968,48.6509],[39.697,48.651],[39.6973,48.6511],[39.6983,48.6518],[39.6986,48.652],[39.699,48.6523],[39.6995,48.6525],[39.7001,48.6527],[39.7007,48.6528],[39.7012,48.653],[39.7017,48.6532],[39.7019,48.6533],[39.7021,48.6533],[39.7022,48.6534],[39.7023,48.6534],[39.7029,48.654],[39.7035,48.6546],[39.704,48.6549],[39.7042,48.6551],[39.7046,48.6555],[39.7046,48.6557],[39.7047,48.656],[39.7051,48.6563],[39.7052,48.6565],[39.7053,48.6566],[39.7055,48.6567],[39.7057,48.6567],[39.706,48.6568],[39.7062,48.6569],[39.7063,48.657],[39.7065,48.657],[39.7067,48.6569],[39.7069,48.6568],[39.707,48.6567],[39.7072,48.6565],[39.7073,48.6563],[39.7074,48.6562],[39.7077,48.6559],[39.7081,48.6556],[39.7082,48.6555],[39.7085,48.6552],[39.7086,48.6551],[39.7088,48.6549],[39.7091,48.6547],[39.7094,48.6546],[39.7095,48.6546],[39.7097,48.6547],[39.71,48.6547],[39.7102,48.6547],[39.7103,48.6548],[39.7105,48.655],[39.7107,48.6552],[39.7108,48.6553],[39.7109,48.6557],[39.711,48.6562],[39.7108,48.6571],[39.7105,48.6576],[39.7099,48.6586],[39.7096,48.6594],[39.7095,48.6601],[39.7095,48.6608],[39.7097,48.6621],[39.7096,48.6625],[39.7101,48.663],[39.7106,48.6641],[39.7107,48.6644],[39.7107,48.665],[39.711,48.6657],[39.7111,48.6665],[39.711,48.6667],[39.7105,48.6672],[39.7104,48.6673],[39.7102,48.6673],[39.7097,48.6675],[39.7092,48.6676],[39.7085,48.6676],[39.7075,48.6674],[39.7071,48.6672],[39.7067,48.667],[39.7063,48.6669],[39.7058,48.6669],[39.7054,48.6668],[39.705,48.6668],[39.7044,48.6668],[39.704,48.6669],[39.7036,48.667],[39.7033,48.667],[39.7021,48.6681],[39.7025,48.6689],[39.703,48.6706],[39.7118,48.6752],[39.715,48.6812],[39.7222,48.6842],[39.7162,48.6904],[39.7155,48.6959],[39.7199,48.6981],[39.7028,48.7068],[39.711,48.7135],[39.7048,48.7216],[39.7227,48.7343],[39.7389,48.7486],[39.7414,48.7719],[39.7652,48.7652],[39.7843,48.7975],[39.7971,48.8407],[39.8047,48.8437],[39.808,48.8396],[39.8075,48.8387],[39.8278,48.8316],[39.8304,48.8337],[39.8863,48.8211],[39.9383,48.8001],[39.9523,48.7976],[39.9582,48.798],[39.9762,48.7939],[40.0788,48.87],[40.0713,48.8771],[40.0555,48.9103],[40.0485,48.9103],[40.0312,48.916],[40.0181,48.908],[39.9837,48.8682],[39.9247,48.8944],[39.8711,48.8944],[39.8409,48.9025],[39.8244,48.8908],[39.8189,48.908],[39.7942,48.9251],[39.7695,48.9305],[39.7887,48.9477],[39.7478,48.9881],[39.733,48.9804],[39.7294,48.978],[39.727,48.9755],[39.7248,48.9767],[39.7245,48.9782],[39.7262,48.9787],[39.7265,48.9788],[39.7264,48.9796],[39.7252,48.9804],[39.7234,48.9807],[39.7215,48.9815],[39.7206,48.9816],[39.719,48.9818],[39.7176,48.9825],[39.7177,48.9829],[39.7179,48.9835],[39.7176,48.9845],[39.7174,48.9848],[39.7169,48.9849],[39.7167,48.9851],[39.7165,48.9858],[39.7169,48.9864],[39.7169,48.9867],[39.7168,48.9872],[39.7157,48.9882],[39.7155,48.9884],[39.7154,48.9887],[39.7154,48.9896],[39.7154,48.9899],[39.7151,48.9901],[39.7135,48.9897],[39.7121,48.9901],[39.7118,48.9904],[39.7108,48.9917],[39.7097,48.9921],[39.7077,48.9926],[39.7074,48.9935],[39.7074,48.9942],[39.7069,48.9952],[39.7048,48.9976],[39.704,48.9989],[39.7021,48.9996],[39.7,49.0006],[39.6989,49.0008],[39.697,49.0001],[39.6933,48.9992],[39.6912,48.9969],[39.6912,48.9962],[39.6769,48.9897],[39.6634,49.001],[39.6703,49.0033],[39.6792,49.013],[39.6737,49.0151],[39.6757,49.0271],[39.6817,49.0289],[39.6836,49.0371],[39.6732,49.0393],[39.6929,49.0497],[39.7297,49.0432],[39.7681,49.0405],[39.7887,49.0501],[39.8031,49.0594],[39.8203,49.0585],[39.8752,49.0657],[39.9089,49.0576],[39.9377,49.0562],[39.9425,49.0715],[39.9387,49.0834],[39.9727,49.1255],[39.9975,49.1475],[40.0316,49.1804],[40.0761,49.187],[40.0928,49.2033],[40.1083,49.211],[40.1218,49.2309],[40.1365,49.2393],[40.1768,49.237],[40.2097,49.2419],[40.2144,49.245],[40.2208,49.2579],[40.2193,49.2653],[40.1859,49.2842],[40.1852,49.3044],[40.1885,49.3076],[40.1911,49.3181],[40.1968,49.3454],[40.1918,49.3485],[40.1756,49.3568],[40.1702,49.3566],[40.1599,49.3656],[40.162,49.3684],[40.1446,49.3778],[40.1124,49.3859],[40.0769,49.4101],[40.0594,49.4343],[40.048,49.4445],[40.0295,49.4539],[40.0418,49.4993],[40.0376,49.5201],[40.1684,49.5691],[40.1395,49.5964],[40.1353,49.6164],[40.0635,49.5994],[40.0567,49.6067],[39.9522,49.5967],[39.9346,49.5729],[39.8902,49.5585],[39.866,49.5599],[39.8389,49.5637],[39.8081,49.5582],[39.7683,49.5855],[39.7502,49.5969],[39.7127,49.6061],[39.6968,49.6045],[39.6869,49.6117],[39.66,49.615],[39.6384,49.6353],[39.6131,49.6905],[39.592,49.7198],[39.6084,49.7341],[39.5338,49.741],[39.4788,49.7566],[39.4382,49.7602],[39.4121,49.7533],[39.377,49.7386],[39.3079,49.7532],[39.2856,49.7558],[39.28,49.7611],[39.2755,49.7682],[39.2646,49.7686],[39.2504,49.778],[39.2404,49.7913],[39.2391,49.7984],[39.229,49.8086],[39.2281,49.8167],[39.2257,49.8403],[39.1884,49.8864],[39.1784,49.8882],[39.1285,49.86],[39.1111,49.8392],[39.0698,49.8189],[39.0662,49.8155],[39.0335,49.8225],[39.0217,49.8211],[38.9849,49.8079],[38.9711,49.8074],[38.9649,49.804],[38.9488,49.7962],[38.9467,49.798],[38.9395,49.8008],[38.9364,49.8004],[38.9335,49.7999],[38.9329,49.7977],[38.9308,49.7973],[38.9278,49.7987],[38.9274,49.8015],[38.9287,49.8041],[38.9259,49.8043],[38.9204,49.8051],[38.9192,49.8091],[38.9162,49.8129],[38.919,49.814],[38.9183,49.815],[38.9123,49.8182],[38.9098,49.8184],[38.9088,49.8229],[38.9074,49.8286],[38.9135,49.8288],[38.9151,49.8312],[38.9114,49.8348],[38.9143,49.8372],[38.9126,49.8438],[38.9065,49.8448],[38.9043,49.849],[38.9097,49.851],[38.9195,49.8588],[38.9093,49.8603],[38.8985,49.8706],[38.8764,49.8696],[38.8751,49.8687],[38.8746,49.868],[38.8746,49.8668],[38.8694,49.8647],[38.8668,49.8651],[38.8653,49.8662],[38.8627,49.866],[38.8572,49.8682],[38.8566,49.8688],[38.8559,49.8691],[38.8545,49.8684],[38.8542,49.868],[38.8542,49.8676],[38.8538,49.8673],[38.852,49.8667],[38.8514,49.8663],[38.8506,49.866],[38.8491,49.8653],[38.8467,49.8656],[38.8461,49.8659],[38.8457,49.866],[38.8439,49.8653],[38.8433,49.8653],[38.8393,49.8659],[38.839,49.8662],[38.836,49.8673],[38.8363,49.8675],[38.8348,49.8692],[38.8347,49.8711],[38.8367,49.8723],[38.8357,49.874],[38.8349,49.8745],[38.8344,49.8747],[38.833,49.8749],[38.8278,49.8773],[38.827,49.8779],[38.826,49.8785],[38.8244,49.8791],[38.8224,49.8791],[38.795,49.8835],[38.7901,49.8787],[38.7835,49.8813],[38.7777,49.8855],[38.7682,49.8962],[38.7438,49.8975],[38.7423,49.8991],[38.7338,49.9052],[38.7232,49.9272],[38.6929,49.9349],[38.6853,49.9605],[38.7153,49.9825],[38.7151,49.9879],[38.6875,50.006],[38.6843,50.0077],[38.6797,50.0027],[38.6761,49.993],[38.6797,49.9747],[38.6669,49.9723],[38.6462,49.9561],[38.6161,49.9746],[38.5816,49.9776],[38.5267,49.9584],[38.5079,49.9642],[38.4877,49.9638],[38.4833,49.9767],[38.4775,49.9834],[38.4659,49.9841],[38.468,49.9954],[38.4341,50.0012],[38.416,49.9815],[38.3976,49.9907],[38.3496,50.0066],[38.3542,50.0192],[38.3512,50.0349],[38.334,50.0593],[38.3291,50.0854],[38.3126,50.0887],[38.3003,50.0868],[38.2928,50.0795],[38.2771,50.0732],[38.2463,50.0733],[38.178,50.0801],[38.1837,50.0567],[38.1845,50.0465],[38.1892,50.0372],[38.1884,50.0246],[38.1859,50.0219],[38.2115,49.9887],[38.2164,49.9873],[38.2552,49.9097],[38.177,49.8424],[38.188,49.7396],[38.133,49.5974],[38.1687,49.5546],[38.1083,49.444],[38.144,49.3887],[38.2341,49.3694],[38.2252,49.2158],[38.184,49.2023],[38.1833,49.1619],[38.1784,49.1334],[38.2281,49.0639],[38.2675,49.0403],[38.3037,49.0453],[38.3345,49.0329],[38.3404,49.0426],[38.3449,49.047],[38.3553,49.0541],[38.4068,49.0362],[38.42,49.0294],[38.4376,49.0296],[38.4558,49.0224],[38.4622,49.0219],[38.4651,49.0226],[38.4777,49.0218],[38.5347,49.0334],[38.5525,49.0265],[38.5619,49.0247],[38.5638,49.0316],[38.581,49.0326],[38.6301,48.9756],[38.6246,48.9677],[38.6974,48.9488],[38.5871,48.9406],[38.5611,48.915],[38.5838,48.9052],[38.6101,48.9292],[38.6937,48.936],[38.7402,48.9253],[38.7349,48.8909],[38.7426,48.8383],[38.7149,48.815],[38.6341,48.8254],[38.6407,48.7669],[38.58,48.7527],[38.5832,48.7199],[38.6302,48.7212],[38.6523,48.7224],[38.6784,48.7237],[38.6745,48.7294],[38.6917,48.7294],[38.7535,48.7185],[38.7671,48.7143],[38.8084,48.7134],[38.8301,48.717],[38.8361,48.7233],[38.8414,48.7335],[38.8471,48.7429],[38.8562,48.7505],[38.8728,48.7533],[38.892,48.7509],[38.9047,48.7506],[38.9198,48.7456],[38.9331,48.7482],[38.9362,48.7438],[38.9318,48.7365],[38.9447,48.7354],[38.9572,48.7395],[38.9595,48.7472],[38.9799,48.7436],[38.9884,48.735],[38.9966,48.7244],[38.9978,48.7197],[38.9943,48.7158],[38.9889,48.7152],[38.9832,48.7142],[38.9838,48.711],[38.9956,48.7125],[38.9978,48.7098],[38.9966,48.7065],[38.9985,48.7012],[39.0018,48.6974],[39.0071,48.697],[39.0137,48.696],[39.0148,48.6896],[39.0122,48.6835],[39.0177,48.68],[39.0192,48.6768],[39.0192,48.6721],[39.0235,48.6694],[39.0253,48.6668],[39.0266,48.6629],[39.0216,48.6617],[39.0174,48.6631],[39.0096,48.6626],[39.0123,48.6587],[39.0184,48.657],[39.028,48.6536],[39.0355,48.6482],[39.0445,48.6475],[39.0534,48.6485],[39.0649,48.6504],[39.0707,48.6528],[39.0786,48.6516],[39.0872,48.6519],[39.0975,48.6512],[39.104,48.6519],[39.1108,48.656],[39.119,48.6603],[39.124,48.6614],[39.1289,48.6612],[39.1372,48.6606],[39.138,48.663],[39.1375,48.6657],[39.1384,48.6686],[39.1419,48.6736],[39.1464,48.6771],[39.1525,48.6771],[39.1591,48.677],[39.1686,48.6807],[39.1713,48.6824],[39.176,48.6851],[39.1798,48.6927],[39.1832,48.698],[39.1861,48.7008],[39.1886,48.7022],[39.1908,48.7051],[39.1918,48.7071],[39.1937,48.7076],[39.1959,48.7067],[39.1965,48.7034],[39.1999,48.6995],[39.2053,48.6994],[39.2071,48.7014],[39.21,48.7036],[39.2132,48.7057],[39.2192,48.7068],[39.2238,48.7102],[39.2277,48.7122],[39.2328,48.7123],[39.2361,48.7104],[39.2391,48.7105],[39.2456,48.7137],[39.2473,48.7177],[39.2484,48.721],[39.2487,48.7244],[39.2538,48.7324],[39.2514,48.7366],[39.2499,48.74],[39.2517,48.7427],[39.2652,48.7432],[39.2664,48.7455],[39.2659,48.7486],[39.265,48.7516],[39.2683,48.7546],[39.2743,48.7542],[39.275,48.75],[39.2806,48.7503],[39.2848,48.7518],[39.2852,48.7545],[39.2859,48.7586],[39.2881,48.761],[39.2932,48.7625],[39.2983,48.7654],[39.3013,48.7686],[39.3024,48.7715],[39.3043,48.7737],[39.3091,48.7755],[39.3143,48.7759],[39.3193,48.7769],[39.3254,48.7757],[39.3259,48.7723],[39.3259,48.7687],[39.3309,48.7676],[39.3378,48.7673],[39.3435,48.7694],[39.3488,48.7697],[39.3531,48.7668],[39.3498,48.7633],[39.3447,48.7613],[39.3421,48.7553],[39.3456,48.7506],[39.3464,48.7473],[39.3493,48.7424],[39.3546,48.7405],[39.3575,48.736],[39.3562,48.7322],[39.3531,48.7289],[39.3535,48.7262],[39.3602,48.7226],[39.3668,48.7212],[39.3713,48.72],[39.3722,48.7171],[39.3685,48.7156],[39.363,48.7159],[39.3575,48.7146],[39.3542,48.7131],[39.3487,48.7134],[39.3454,48.712],[39.3503,48.706],[39.3525,48.7009],[39.3586,48.6964],[39.367,48.6915],[39.3793,48.6863],[39.389,48.6844],[39.388,48.6807],[39.3904,48.6781],[39.3936,48.6764],[39.401,48.6751],[39.4058,48.6737],[39.4111,48.6699],[39.4123,48.6669],[39.4081,48.6625],[39.4071,48.6594]]]}},{"type":"Feature","properties":{"s":"occupied"},"geometry":{"type":"Polygon","coordinates":[[[33.3968,47.475],[33.3967,47.4681],[33.4298,47.4694],[33.4714,47.475],[33.4776,47.4609],[33.4973,47.461],[33.4939,47.4806],[33.5157,47.4829],[33.52,47.4745],[33.5646,47.4696],[33.5606,47.4878],[33.5544,47.5051],[33.5461,47.5181],[33.4989,47.512],[33.5124,47.4918],[33.4645,47.4848],[33.4295,47.4776],[33.3968,47.475]]]}},{"type":"Feature","properties":{"s":"occupied"},"geometry":{"type":"Polygon","coordinates":[[[37.8562,48.1928],[37.8833,48.1997],[37.8966,48.2154],[37.8929,48.2336],[37.8916,48.2551],[37.861,48.2598],[37.782,48.2682],[37.7497,48.2609],[37.7562,48.2385],[37.8125,48.238],[37.8228,48.2307],[37.829,48.2042],[37.8562,48.1928]]]}},{"type":"Feature","properties":{"s":"occupied"},"geometry":{"type":"Polygon","coordinates":[[[37.2992,49.1314],[37.282,49.1313],[37.2786,49.1218],[37.3011,49.1101],[37.3179,49.0799],[37.353,49.0531],[37.3615,49.0563],[37.3363,49.0764],[37.3551,49.087],[37.3528,49.0938],[37.3672,49.1046],[37.3919,49.098],[37.4077,49.0931],[37.4396,49.0878],[37.4443,49.0776],[37.4602,49.078],[37.4639,49.0834],[37.4573,49.0903],[37.4524,49.0912],[37.4455,49.0923],[37.4416,49.0948],[37.4119,49.0976],[37.3928,49.1062],[37.3806,49.1081],[37.368,49.1126],[37.3641,49.1114],[37.3548,49.1005],[37.336,49.0929],[37.3401,49.0872],[37.3291,49.0838],[37.3152,49.1188],[37.2992,49.1314]]]}},{"type":"Feature","properties":{"s":"occupied"},"geometry":{"type":"Polygon","coordinates":[[[38.4025,48.5573],[38.402,48.5615],[38.402,48.5748],[38.4026,48.581],[38.4026,48.5919],[38.4061,48.6019],[38.4048,48.6091],[38.4047,48.6169],[38.4088,48.6296],[38.4143,48.6383],[38.4198,48.645],[38.3905,48.6432],[38.3671,48.6342],[38.3719,48.575],[38.4025,48.5573]]]}},{"type":"Feature","properties":{"s":"occupied"},"geometry":{"type":"Polygon","coordinates":[[[35.3434,46.3498],[35.3433,46.3478],[35.3314,46.3362],[35.3157,46.3207],[35.3032,46.316],[35.2965,46.3148],[35.2911,46.3092],[35.2895,46.2918],[35.2549,46.2508],[35.2207,46.2265],[35.2087,46.19],[35.1353,46.166],[35.0328,46.1496],[35.0181,46.13],[34.989,46.1098],[34.9803,46.0888],[34.9766,46.0707],[35.0705,46.0954],[35.1514,46.1213],[35.1951,46.147],[35.222,46.1837],[35.3472,46.3401],[35.3692,46.3641],[35.3784,46.373],[35.3822,46.3787],[35.3709,46.3708],[35.3434,46.3498]]]}},{"type":"Feature","properties":{"s":"occupied"},"geometry":{"type":"Polygon","coordinates":[[[35.3434,46.3498],[35.3435,46.3506],[35.3462,46.3533],[35.3575,46.3613],[35.3709,46.3708],[35.3764,46.3749],[35.4345,46.4151],[35.6143,46.4995],[35.77,46.6016],[35.9361,46.6582],[36.0831,46.6581],[36.1895,46.6667],[36.2287,46.6502],[36.2692,46.6053],[36.3868,46.7167],[36.4954,46.7473],[36.6152,46.773],[36.6468,46.7803],[36.7052,46.7773],[36.7461,46.7653],[36.7807,46.7485],[36.8102,46.7276],[36.8217,46.7015],[36.801,46.7068],[36.7903,46.6744],[36.778,46.6633],[36.7606,46.6655],[36.742,46.637],[36.7589,46.6183],[36.8024,46.6604],[36.8377,46.7054],[36.8455,46.7238],[36.8553,46.7417],[36.8681,46.7653],[36.8856,46.789],[36.904,46.8054],[36.9292,46.8282],[36.9585,46.8473],[36.9927,46.8621],[37.019,46.8665],[37.2353,46.9507],[37.2968,46.927],[37.3185,46.8959],[37.2922,46.8743],[37.2883,46.8703],[37.3074,46.8656],[37.4811,47.032],[37.5118,47.0643],[37.5373,47.0816],[37.5726,47.0856],[37.5707,47.101],[37.5753,47.1026],[37.5807,47.1049],[37.6132,47.1137],[37.6137,47.1083],[37.6195,47.1033],[37.6188,47.0877],[37.6296,47.0952],[37.698,47.0796],[37.7677,47.0899],[37.793,47.0857],[37.8149,47.0895],[37.8176,47.1012],[37.8163,47.1098],[37.818,47.1191],[37.8256,47.1334],[37.8297,47.1462],[37.8366,47.1569],[37.8441,47.1656],[37.85,47.1742],[37.8513,47.1989],[37.8472,47.2139],[37.8414,47.2269],[37.8335,47.2493],[37.8342,47.2761],[37.8338,47.2854],[37.8301,47.2959],[37.8277,47.3027],[37.8349,47.3082],[37.8318,47.315],[37.8246,47.3215],[37.8273,47.3285],[37.8279,47.3355],[37.8293,47.3425],[37.8445,47.342],[37.8568,47.3436],[37.8612,47.3479],[37.8591,47.3544],[37.8486,47.3501],[37.8376,47.3524],[37.8417,47.3585],[37.8516,47.3655],[37.8416,47.369],[37.8383,47.378],[37.8503,47.3843],[37.8568,47.3929],[37.8558,47.4031],[37.8637,47.4266],[37.8785,47.4417],[37.8925,47.4698],[37.8194,47.5463],[37.8084,47.5618],[37.7823,47.5859],[37.7772,47.6158],[37.7686,47.6355],[37.8019,47.6424],[37.804,47.6602],[37.7645,47.6847],[37.7185,47.7072],[37.6356,47.7431],[37.6494,47.751],[37.6525,47.7579],[37.6432,47.8084],[37.6343,47.8384],[37.633,47.846],[37.6349,47.8526],[37.6349,47.8558],[37.6356,47.8602],[37.6389,47.8678],[37.6409,47.8706],[37.6425,47.8737],[37.644,47.881],[37.5771,47.8638],[37.5268,47.844],[37.49,47.8276],[37.5088,47.7829],[37.4514,47.7682],[37.389,47.7478],[37.3574,47.7494],[37.336,47.7502],[37.3191,47.752],[37.2612,47.7521],[37.2198,47.7601],[37.1428,47.7662],[37.0825,47.7835],[36.99,47.7976],[36.9792,47.7997],[36.9675,47.8018],[36.9602,47.7973],[36.8365,47.8038],[36.82,47.8054],[36.8053,47.805],[36.7921,47.8077],[36.6424,47.812],[36.6062,47.7735],[36.5549,47.6727],[36.5137,47.6633],[36.4445,47.6499],[36.368,47.6312],[36.1202,47.548],[36.0245,47.5343],[35.9903,47.5312],[35.952,47.497],[35.8206,47.5121],[35.7655,47.5403],[35.722,47.5652],[35.7023,47.5212],[35.5978,47.4971],[35.5572,47.4999],[35.4729,47.4886],[35.3947,47.5206],[35.3946,47.5206],[35.2942,47.4475],[35.2646,47.4541],[35.2708,47.4716],[35.266,47.4729],[35.2489,47.4672],[35.2023,47.4446],[35.1483,47.4453],[35.0771,47.4529],[35.0586,47.447],[35.0443,47.4374],[35.0162,47.4111],[34.9683,47.3888],[34.928,47.3924],[34.8805,47.4085],[34.8616,47.4205],[34.872,47.4362],[34.8714,47.4492],[34.8596,47.4509],[34.8248,47.4644],[34.7919,47.4674],[34.7469,47.4927],[34.7353,47.4906],[34.7086,47.4902],[34.686,47.4926],[34.6798,47.5103],[34.6591,47.5264],[34.6437,47.5417],[34.628,47.5454],[34.6177,47.5441],[34.6056,47.5372],[34.5987,47.5343],[34.5859,47.5214],[34.5442,47.5323],[34.5328,47.5301],[34.501,47.4983],[34.4355,47.4965],[34.4098,47.4997],[34.3906,47.506],[34.3634,47.4935],[34.3392,47.4678],[34.3383,47.4449],[34.2957,47.4283],[34.2628,47.426],[34.1265,47.4151],[34.0837,47.4222],[34.0589,47.4181],[34.0396,47.4022],[33.9874,47.2263],[33.9167,47.1633],[33.8638,47.1423],[33.8404,47.0981],[33.802,47.0586],[33.7224,47.017],[33.7083,46.9997],[33.7011,46.9627],[33.6949,46.9209],[33.6781,46.9005],[33.6573,46.9032],[33.6407,46.8947],[33.6383,46.8813],[33.6482,46.8736],[33.6203,46.8236],[33.5559,46.8127],[33.5139,46.8189],[33.4759,46.8156],[33.3893,46.7672],[33.3597,46.7887],[33.3538,46.7846],[33.3535,46.7844],[33.3714,46.7685],[33.2863,46.7486],[33.2568,46.7553],[33.2235,46.7672],[33.1984,46.7686],[33.1436,46.76],[33.0012,46.7179],[32.9211,46.7117],[32.8449,46.6851],[32.7723,46.6684],[32.7187,46.6657],[32.7015,46.6627],[32.659,46.65],[32.5538,46.5476],[32.5159,46.536],[32.4179,46.4853],[32.3308,46.4674],[31.8607,46.5156],[31.804,46.5287],[31.7541,46.5475],[31.6973,46.5446],[31.6687,46.536],[31.6312,46.5401],[31.6,46.5375],[31.6556,46.4715],[31.6915,46.4684],[31.741,46.4889],[31.8015,46.4819],[31.9482,46.4396],[31.9706,46.4431],[32.0084,46.4558],[32.0443,46.4244],[32.0595,46.3757],[31.9436,46.3425],[31.8383,46.3354],[31.7427,46.3186],[31.7796,46.2623],[31.8014,46.2657],[31.9588,46.265],[32.2474,46.1243],[32.5343,46.065],[32.7098,46.1025],[32.9123,46.102],[33.1772,46.1201],[33.2988,46.0698],[33.4285,46.027],[33.5145,46.0269],[33.4963,46.0699],[33.5634,46.0744],[33.5244,46.1153],[33.557,46.1219],[33.5734,46.1254],[33.6076,46.1473],[33.6909,46.2051],[33.7407,46.2085],[33.7421,46.2083],[33.7378,46.2006],[33.7278,46.201],[33.7204,46.1998],[33.7177,46.2025],[33.7129,46.2017],[33.7157,46.198],[33.7112,46.1935],[33.7098,46.1901],[33.7131,46.1863],[33.7108,46.1838],[33.7161,46.1757],[33.7198,46.174],[33.7257,46.174],[33.7299,46.171],[33.7292,46.1691],[33.7262,46.1667],[33.7253,46.1649],[33.7263,46.1617],[33.7266,46.1579],[33.7281,46.1552],[33.735,46.1499],[33.7356,46.1471],[33.7475,46.1379],[33.7495,46.1375],[33.7545,46.1404],[33.8239,46.187],[34.0205,46.1328],[34.1222,46.1078],[34.2198,46.0752],[34.4199,46.0252],[34.545,45.9955],[34.6511,45.9736],[34.7009,45.9591],[34.8397,45.8735],[34.8155,45.8355],[34.8247,45.811],[34.8671,45.8289],[34.8704,45.8465],[34.8748,45.8553],[34.8852,45.8631],[34.9001,45.8578],[34.9349,45.8052],[34.94,45.787],[34.9453,45.7801],[34.9551,45.7672],[34.9493,45.7628],[34.9582,45.7599],[34.9686,45.7626],[34.977,45.7652],[34.8918,45.8985],[34.8521,46.0089],[34.8343,46.1152],[34.829,46.2038],[34.8992,46.2379],[35.0212,46.2582],[35.0518,46.2667],[35.0764,46.2783],[35.1018,46.3002],[35.1121,46.31],[35.1173,46.322],[35.1271,46.3417],[35.1392,46.3513],[35.1617,46.3585],[35.1751,46.363],[35.1848,46.3693],[35.1897,46.371],[35.1994,46.3811],[35.2571,46.3755],[35.2627,46.3654],[35.266,46.3533],[35.2692,46.3557],[35.2744,46.3557],[35.29,46.357],[35.3015,46.3553],[35.305,46.354],[35.3077,46.3493],[35.3084,46.3481],[35.3137,46.3448],[35.3176,46.34],[35.3182,46.3348],[35.3171,46.3312],[35.3215,46.333],[35.3434,46.3498]]]}},{"type":"Feature","properties":{"s":"occupied"},"geometry":{"type":"Polygon","coordinates":[[[32.4433,46.575],[32.4264,46.5751],[32.4267,46.5746],[32.4433,46.575]]]}},{"type":"Feature","properties":{"s":"occupied"},"geometry":{"type":"Polygon","coordinates":[[[33.2066,47.343],[33.1996,47.3389],[33.1848,47.3399],[33.1785,47.3084],[33.1626,47.3057],[33.1564,47.2997],[33.1588,47.2913],[33.1748,47.283],[33.1713,47.2481],[33.0963,47.2355],[33.0941,47.2262],[33.0984,47.2188],[33.0683,47.2142],[33.0676,47.2007],[33.0545,47.1916],[33.0368,47.188],[33.035,47.183],[33.0392,47.1785],[33.0253,47.1763],[33.0124,47.182],[33.0129,47.1886],[33.0065,47.196],[33.0036,47.1963],[33.0013,47.1957],[33.0005,47.1944],[33.0003,47.1925],[33.0042,47.1914],[33.0024,47.1893],[32.9955,47.1906],[32.9915,47.1893],[32.9906,47.1801],[32.9962,47.1675],[32.9937,47.1656],[32.9874,47.168],[32.9908,47.1582],[32.9932,47.1565],[32.9941,47.1539],[32.9921,47.1531],[32.9863,47.1558],[32.9849,47.1544],[32.9852,47.1518],[32.9915,47.1511],[33.0046,47.1331],[32.9948,47.1235],[32.9821,47.1201],[32.9666,47.1159],[32.9513,47.1167],[32.9507,47.1141],[32.9574,47.1104],[32.9724,47.1075],[32.9737,47.1013],[32.9701,47.0975],[32.9645,47.097],[32.9591,47.0982],[32.9492,47.1059],[32.9447,47.106],[32.9392,47.1031],[32.9333,47.0868],[32.9264,47.0835],[32.9186,47.0852],[32.9118,47.0889],[32.9088,47.097],[32.9138,47.1047],[32.9065,47.1108],[32.894,47.1133],[32.89,47.1062],[32.8985,47.0891],[32.8794,47.0797],[32.8418,47.0937],[32.8179,47.0943],[32.7952,47.0937],[32.7673,47.0956],[32.7599,47.0672],[32.76,47.0422],[32.5445,47.0049],[32.4873,46.9981],[32.4766,46.9847],[32.4227,46.9587],[32.407,46.8467],[32.4025,46.8178],[32.4026,46.8038],[32.3969,46.7913],[32.373,46.7804],[32.3678,46.7614],[32.3139,46.7434],[32.2523,46.7317],[32.2238,46.741],[32.2176,46.7496],[32.1874,46.7472],[32.1659,46.7021],[32.1401,46.6691],[32.1405,46.6342],[32.1259,46.6145],[32.1199,46.5967],[32.1398,46.5507],[32.1848,46.5753],[32.2091,46.5762],[32.2466,46.5923],[32.2596,46.5904],[32.2788,46.581],[32.3207,46.5534],[32.4264,46.5751],[32.4433,46.575],[32.5418,46.5992],[32.5899,46.6025],[32.6374,46.6383],[32.6546,46.653],[32.662,46.6566],[32.7172,46.6729],[32.7191,46.6655],[32.7221,46.6656],[32.7215,46.6749],[32.7555,46.6732],[32.7792,46.6763],[32.8091,46.685],[32.8524,46.702],[32.9424,46.7397],[33.0138,46.742],[33.046,46.7467],[33.0951,46.7689],[33.1562,46.7885],[33.23,46.7866],[33.3059,46.7802],[33.3295,46.7799],[33.3538,46.7844],[33.3597,46.7885],[33.3807,46.8051],[33.4123,46.8297],[33.442,46.8417],[33.4699,46.8468],[33.5087,46.8581],[33.5906,46.8538],[33.5954,46.9345],[33.6621,46.9998],[33.6561,47.0558],[33.7474,47.0939],[33.7821,47.1307],[33.7886,47.1862],[33.8201,47.1981],[33.855,47.2072],[33.9006,47.231],[33.9125,47.2617],[33.9197,47.2849],[33.9541,47.3003],[33.9646,47.3286],[33.9727,47.3806],[33.96,47.4093],[33.8695,47.3891],[33.8441,47.4089],[33.8355,47.4339],[33.7757,47.424],[33.7234,47.4201],[33.7088,47.3999],[33.71,47.3809],[33.8188,47.3733],[33.8265,47.3536],[33.8011,47.3508],[33.8037,47.3384],[33.7617,47.333],[33.7479,47.3362],[33.6948,47.3323],[33.6747,47.3362],[33.621,47.3282],[33.6018,47.3492],[33.5749,47.3463],[33.5393,47.3612],[33.5862,47.4069],[33.5621,47.4093],[33.5133,47.3706],[33.4547,47.3939],[33.4251,47.4321],[33.4103,47.4408],[33.3978,47.4566],[33.3969,47.4681],[33.397,47.475],[33.385,47.4771],[33.3721,47.4735],[33.369,47.4692],[33.3641,47.4612],[33.3701,47.4555],[33.3766,47.4598],[33.3829,47.4602],[33.3872,47.4588],[33.3902,47.4508],[33.3935,47.4434],[33.3964,47.4301],[33.4023,47.4217],[33.3945,47.4164],[33.3766,47.3972],[33.3663,47.3747],[33.3236,47.3589],[33.2823,47.3614],[33.2206,47.3516],[33.2142,47.3452],[33.2066,47.343]],[[33.3019,47.3392],[33.3012,47.3403],[33.3011,47.3403],[33.3019,47.3392]],[[33.2841,47.3457],[33.2841,47.3457],[33.2841,47.3457],[33.2841,47.3457]],[[33.8005,47.3475],[33.8005,47.3475],[33.8005,47.3475],[33.8005,47.3475]]]}}]}