{"type":"FeatureCollection","features":[{"type":"Feature","properties":{"s":"liberated"},"geometry":{"type":"Polygon","coordinates":[[[31.2681,51.5582],[31.3143,51.556],[31.3328,51.5504],[31.3505,51.5433],[31.3649,51.5284],[31.3772,51.5122],[31.4062,51.5074],[31.531,51.5389],[31.5637,51.5418],[31.6588,51.5454],[31.6924,51.5505],[31.7549,51.5518],[31.8238,51.564],[31.8957,51.6875],[31.9381,51.7109],[31.9517,51.7335],[32.0203,51.7016],[32.0888,51.6535],[32.1077,51.6772],[32.0578,51.7476],[32.134,51.7626],[32.2786,51.7387],[32.301,51.7228],[32.3244,51.7217],[32.3711,51.6931],[32.4568,51.6043],[32.4574,51.5699],[32.4896,51.5067],[32.5391,51.5214],[32.5505,51.5545],[32.522,51.5688],[32.5565,51.5964],[32.5848,51.6732],[32.7409,51.7375],[32.887,51.775],[33.0336,51.8981],[33.1848,51.9962],[33.2262,51.9911],[33.2389,51.9872],[33.2451,51.9923],[33.2322,51.9966],[33.2406,52.0095],[33.2064,52.017],[33.2478,52.0854],[33.3123,52.1929],[33.3028,52.3544],[33.2315,52.3698],[33.2307,52.2063],[33.158,52.0682],[33.0796,51.9999],[32.8887,51.9032],[32.7398,51.814],[32.7082,51.8889],[32.7301,52.0733],[32.6705,52.1454],[32.6498,52.185],[32.6749,52.2714],[32.658,52.2805],[32.637,52.2871],[32.6228,52.2962],[32.6066,52.3048],[32.5846,52.2317],[32.5269,52.1585],[32.5908,52.1231],[32.577,52.0796],[32.5715,51.9846],[32.5571,51.9173],[32.4473,51.8991],[32.2577,51.8465],[32.1806,51.7902],[32.0054,51.7933],[31.9704,51.8395],[31.9391,51.8686],[31.8732,51.8855],[31.8669,51.8915],[31.8729,51.9166],[31.8878,51.9369],[31.8551,51.971],[31.8705,52.0212],[31.8361,52.0509],[31.8183,52.0769],[31.8058,52.1002],[31.7965,52.1035],[31.7937,52.1083],[31.7914,52.109],[31.7872,52.1117],[31.7858,52.1123],[31.7803,52.1118],[31.772,52.1115],[31.7665,52.1092],[31.7629,52.1062],[31.7472,52.1031],[31.7596,52.0777],[31.7651,52.0025],[31.729,51.9973],[31.639,51.9558],[31.6128,51.9763],[31.5093,52.1208],[31.4893,52.1167],[31.4642,52.1217],[31.456,52.1305],[31.4518,52.1402],[31.4427,52.1395],[31.467,52.0944],[31.4721,52.0469],[31.5175,51.993],[31.5872,51.934],[31.564,51.8883],[31.5722,51.8457],[31.5474,51.8163],[31.5069,51.7972],[31.4061,51.7894],[31.3157,51.7884],[31.2399,51.7833],[31.1296,51.8331],[31.1965,51.9769],[31.2134,52.0703],[31.2008,52.074],[31.1854,52.0743],[31.1589,52.0799],[31.146,52.0911],[31.14,52.1022],[31.0972,52.0894],[31.0737,52.0915],[31.0378,52.0843],[31.0067,52.0812],[30.9892,52.0757],[30.9704,52.0775],[30.9552,52.0852],[30.9484,52.0661],[30.958,52.0251],[30.9771,51.9533],[31.0195,51.7953],[30.9367,51.7541],[30.8578,51.6422],[30.8329,51.479],[30.7723,51.4838],[30.7899,51.5291],[30.7373,51.5445],[30.7211,51.5325],[30.6951,51.5343],[30.6911,51.5181],[30.7353,51.5114],[30.7263,51.4155],[30.6728,51.4014],[30.6563,51.3753],[30.6357,51.36],[30.659,51.3397],[30.6824,51.344],[30.7078,51.3834],[30.7888,51.3787],[30.8671,51.368],[30.9289,51.3847],[31.0082,51.3779],[31.1301,51.3127],[31.3007,51.2676],[31.4254,51.2842],[31.4624,51.3591],[31.4059,51.3984],[31.278,51.4],[31.251,51.3722],[31.2193,51.3787],[31.2234,51.4181],[31.1733,51.4534],[31.1884,51.48],[31.1958,51.4951],[31.1857,51.505],[31.1767,51.5302],[31.1785,51.5407],[31.1876,51.552],[31.2191,51.5581],[31.2519,51.5631],[31.2681,51.5582]],[[31.5721,51.5869],[31.6218,51.5758],[31.6931,51.5795],[31.7654,51.5832],[31.7956,51.6148],[31.8207,51.6427],[31.8495,51.7055],[31.9069,51.7633],[31.9347,51.7837],[31.922,51.8126],[31.8869,51.8304],[31.8779,51.8451],[31.7692,51.8602],[31.7709,51.7673],[31.7038,51.7061],[31.6311,51.7068],[31.5908,51.6867],[31.5886,51.6448],[31.5721,51.5869]]]}},{"type":"Feature","properties":{"s":"liberated"},"geometry":{"type":"Polygon","coordinates":[[[33.3847,51.0806],[33.8351,50.9527],[34.3686,50.9071],[34.3948,50.8779],[34.384,50.8459],[34.362,50.8148],[34.3126,50.8083],[34.2598,50.8105],[34.1478,50.8418],[34.0548,50.8268],[33.9625,50.8302],[33.8946,50.8434],[33.8582,50.8362],[33.835,50.8375],[33.8077,50.8265],[33.7619,50.8133],[33.74,50.81],[33.7079,50.8073],[33.6679,50.7877],[33.5739,50.7881],[33.5502,50.7869],[33.5307,50.7538],[33.5137,50.7328],[33.5087,50.7055],[33.5035,50.6842],[33.4983,50.6696],[33.4671,50.6535],[33.461,50.642],[33.472,50.6403],[33.4779,50.6446],[33.5103,50.6663],[33.5121,50.6803],[33.5278,50.7273],[33.5248,50.734],[33.5689,50.7557],[33.6804,50.7777],[33.7253,50.7972],[33.7401,50.7964],[33.7776,50.8069],[33.8189,50.8156],[33.8481,50.8218],[33.8669,50.8175],[33.9579,50.8258],[34.0178,50.8171],[34.0599,50.8208],[34.1388,50.8354],[34.2719,50.8021],[34.3135,50.801],[34.3564,50.8059],[34.3762,50.811],[34.4158,50.8624],[34.4114,50.8833],[34.3899,50.9077],[34.6618,50.906],[34.6885,50.9523],[34.7152,50.9721],[34.7585,50.9663],[34.7846,50.9793],[34.9275,50.9525],[35.128,50.9853],[35.2433,50.9507],[35.2969,50.9983],[35.2749,51.0585],[35.2351,51.0346],[35.0112,51.0199],[34.8986,50.987],[34.8245,51.0052],[34.8522,51.0758],[34.9125,51.0636],[34.9851,51.0725],[35.014,51.114],[35.131,51.157],[35.1302,51.1574],[35.1251,51.1613],[35.1227,51.1655],[35.1344,51.1708],[35.1307,51.1736],[35.1293,51.1829],[34.9737,51.1155],[34.9329,51.0881],[34.7915,51.095],[34.6586,51.0007],[34.3454,51.158],[34.314,51.2388],[34.3052,51.2383],[34.2976,51.2423],[34.296,51.1537],[34.2479,51.1795],[34.2059,51.2132],[34.0054,51.2631],[34.0051,51.4869],[33.9577,51.725],[34.0776,51.7639],[34.1241,51.7985],[34.1954,51.8226],[34.254,51.832],[34.2844,51.8401],[34.3299,51.8687],[34.3283,51.8691],[34.3298,51.8707],[34.3279,51.8715],[34.3265,51.8731],[34.3262,51.8752],[34.3255,51.8761],[34.3251,51.8763],[34.324,51.8766],[34.323,51.8769],[34.321,51.8779],[34.3195,51.8791],[34.2603,51.8559],[34.2438,51.8594],[34.0321,51.7987],[33.1775,51.4547],[33.1236,51.3972],[33.1304,51.356],[33.1282,51.2772],[33.1092,51.2645],[33.1135,51.2492],[33.1685,51.2673],[33.1808,51.2767],[33.2212,51.3312],[33.2998,51.4238],[33.6232,51.6023],[33.8492,51.6848],[33.8296,51.2425],[33.2988,51.2089],[33.4275,51.154],[33.3847,51.0806]],[[34.5712,51.0003],[34.4115,51.0665],[34.3142,51.1336],[34.2781,51.1115],[34.2081,51.1606],[34.1894,51.1737],[33.6484,51.1788],[33.5,51.1289],[33.6566,51.0789],[34.5712,51.0003]]]}},{"type":"Feature","properties":{"s":"liberated"},"geometry":{"type":"Polygon","coordinates":[[[34.9422,50.4906],[34.9262,50.4898],[34.9184,50.4737],[34.9377,50.4713],[34.9406,50.4542],[34.9646,50.4522],[34.9702,50.4609],[34.9871,50.4581],[34.9927,50.4635],[34.9845,50.4743],[34.9929,50.4801],[34.981,50.495],[34.9759,50.4988],[34.9719,50.5016],[34.9658,50.4983],[34.9466,50.489],[34.9422,50.4906]]]}},{"type":"Feature","properties":{"s":"liberated"},"geometry":{"type":"Polygon","coordinates":[[[31.0925,50.6528],[31.102,50.6606],[31.101,50.6701],[31.1097,50.679],[31.1226,50.6884],[31.1454,50.6862],[31.1654,50.6689],[31.1718,50.6554],[31.1837,50.6341],[31.2,50.6326],[31.1979,50.6419],[31.189,50.6734],[31.1445,50.7163],[31.1317,50.7188],[31.1162,50.7094],[31.0917,50.7219],[31.0469,50.7446],[31.0422,50.74],[31.1237,50.6981],[31.1161,50.6943],[31.0858,50.6752],[31.0856,50.6605],[31.0723,50.6643],[31.053,50.67],[31.0453,50.6614],[31.0472,50.6543],[31.029,50.6482],[31.0182,50.6453],[31.0048,50.6415],[31.002,50.638],[30.9785,50.6321],[30.9544,50.6265],[30.9452,50.6275],[30.9357,50.6272],[30.9059,50.6346],[30.8792,50.6407],[30.8675,50.6329],[30.8509,50.6162],[30.8687,50.6102],[30.8719,50.5877],[30.8922,50.5682],[30.9321,50.5839],[30.9507,50.5991],[30.9288,50.6213],[30.9446,50.6209],[30.9583,50.6199],[30.9807,50.6265],[31.0006,50.6149],[31.0078,50.6141],[31.0209,50.6163],[31.0249,50.6173],[31.029,50.6176],[31.0286,50.6144],[31.0276,50.6111],[31.0323,50.6023],[31.0373,50.5934],[31.0446,50.5836],[31.029,50.5817],[31.0206,50.5809],[31.018,50.5796],[31.0103,50.579],[31.0047,50.5785],[30.9998,50.5782],[30.9947,50.5774],[30.9909,50.5761],[30.9924,50.5725],[30.9993,50.5687],[31.0047,50.5662],[31.0091,50.5658],[31.0181,50.5713],[31.0264,50.5762],[31.0411,50.5779],[31.0512,50.5784],[31.0531,50.5741],[31.0507,50.5674],[31.0462,50.559],[31.053,50.5554],[31.0758,50.5443],[31.0752,50.5383],[31.0906,50.5292],[31.1018,50.525],[31.1098,50.5312],[31.1131,50.5421],[31.1526,50.5573],[31.1577,50.5506],[31.165,50.5522],[31.1651,50.5586],[31.1595,50.5688],[31.148,50.5781],[31.1225,50.5938],[31.1081,50.605],[31.0797,50.6202],[31.0496,50.6251],[31.0416,50.633],[31.0447,50.6394],[31.0627,50.6405],[31.0713,50.6481],[31.0925,50.6528]],[[31.0375,50.6057],[31.044,50.6037],[31.0459,50.6062],[31.0411,50.6101],[31.0353,50.6133],[31.0339,50.6093],[31.0375,50.6057]],[[31.0878,50.5877],[31.0829,50.5813],[31.0727,50.5837],[31.0638,50.5825],[31.0577,50.5798],[31.0572,50.5773],[31.0668,50.5784],[31.076,50.5765],[31.0786,50.5737],[31.0782,50.5713],[31.0738,50.5698],[31.068,50.5704],[31.0577,50.5697],[31.0571,50.5646],[31.0582,50.5598],[31.07,50.5543],[31.0779,50.5551],[31.0878,50.5531],[31.0968,50.5495],[31.1049,50.5478],[31.1131,50.5501],[31.1286,50.5571],[31.1354,50.561],[31.1254,50.5791],[31.113,50.5896],[31.0953,50.5995],[31.08,50.6102],[31.0659,50.6137],[31.0446,50.6209],[31.0383,50.6246],[31.0338,50.6257],[31.0343,50.6193],[31.0392,50.6137],[31.0864,50.5885],[31.0878,50.5877]]]}},{"type":"Feature","properties":{"s":"liberated"},"geometry":{"type":"Polygon","coordinates":[[[36.1001,50.1355],[36.0913,50.128],[36.0908,50.1179],[36.0912,50.1086],[36.095,50.0973],[36.0953,50.0936],[36.0981,50.0869],[36.1156,50.0841],[36.1187,50.0871],[36.1338,50.0831],[36.1489,50.0858],[36.1551,50.0926],[36.1434,50.1],[36.151,50.1028],[36.1516,50.1069],[36.1585,50.1184],[36.1578,50.131],[36.1516,50.1379],[36.1367,50.1485],[36.144,50.169],[36.1574,50.1964],[36.1666,50.2014],[36.1703,50.2028],[36.1786,50.2022],[36.1985,50.2033],[36.2187,50.1845],[36.2588,50.1816],[36.2579,50.195],[36.2571,50.2007],[36.2646,50.209],[36.2826,50.2329],[36.2662,50.2423],[36.2366,50.2455],[36.2102,50.2448],[36.2087,50.2548],[36.1579,50.2585],[36.1515,50.2349],[36.1523,50.2304],[36.1475,50.2235],[36.143,50.22],[36.1401,50.2138],[36.1381,50.2077],[36.1443,50.2032],[36.1408,50.1909],[36.1217,50.1552],[36.1183,50.1469],[36.1141,50.1418],[36.1075,50.1403],[36.1001,50.1355]]]}},{"type":"Feature","properties":{"s":"liberated"},"geometry":{"type":"Polygon","coordinates":[[[32.145,46.9395],[32.1667,46.9442],[32.1574,46.9969],[32.1887,47.0355],[32.1975,47.0458],[32.1943,47.0603],[32.1655,47.0489],[32.1679,47.0417],[32.1402,47.0238],[32.1148,47.0425],[32.0379,47.0497],[32.1497,47.2099],[32.1164,47.3518],[32.1215,47.36],[32.2213,47.3738],[32.2279,47.386],[32.2071,47.3954],[32.116,47.379],[32.0942,47.36],[32.1361,47.2129],[32.0109,47.0509],[32.0185,47.0332],[32.0458,47.0375],[32.109,47.0263],[32.145,46.9395]]]}},{"type":"Feature","properties":{"s":"liberated"},"geometry":{"type":"Polygon","coordinates":[[[32.0109,47.0509],[31.9721,47.0487],[31.8842,47.2066],[31.8114,47.3082],[31.7458,47.3418],[31.6939,47.3573],[31.6472,47.3676],[31.6209,47.3879],[31.5826,47.4192],[31.5382,47.4632],[31.5022,47.4731],[31.478,47.4739],[31.4559,47.4895],[31.4418,47.5046],[31.4258,47.5225],[31.414,47.5336],[31.4102,47.5401],[31.3922,47.5485],[31.3765,47.5484],[31.3735,47.5366],[31.374,47.5364],[31.3765,47.5363],[31.3795,47.5356],[31.3823,47.5344],[31.3876,47.5317],[31.3899,47.5313],[31.4002,47.5304],[31.4019,47.5302],[31.408,47.5262],[31.4141,47.5183],[31.4172,47.5088],[31.4363,47.4827],[31.4711,47.462],[31.524,47.4544],[31.5339,47.4394],[31.5461,47.4244],[31.585,47.4008],[31.6063,47.3773],[31.6324,47.3565],[31.6937,47.3456],[31.7354,47.3136],[31.7785,47.2765],[31.8856,47.1487],[31.8183,47.1151],[31.8485,47.0796],[31.9213,47.088],[31.946,47.0431],[31.9776,47.0253],[32.0185,47.0332],[32.0109,47.0509]]]}},{"type":"Feature","properties":{"s":"liberated"},"geometry":{"type":"Polygon","coordinates":[[[32.2435,46.7861],[32.2449,46.7704],[32.3043,46.7772],[32.3141,46.798],[32.3639,46.8319],[32.3614,46.8562],[32.3569,46.8669],[32.3542,46.8799],[32.3615,46.8964],[32.406,46.8976],[32.4227,46.959],[32.3879,46.9635],[32.379,46.988],[32.3749,46.9954],[32.1667,46.9442],[32.145,46.9395],[32.145,46.9394],[32.1172,46.9331],[32.1162,46.9354],[32.1042,46.9471],[32.0954,46.9492],[32.086,46.9491],[32.0779,46.9463],[32.0686,46.9403],[32.0618,46.9339],[32.0582,46.9287],[32.0671,46.9201],[32.0822,46.9111],[32.0919,46.8801],[32.0557,46.8653],[32.0701,46.8609],[32.0859,46.8625],[32.1124,46.8307],[32.147,46.8115],[32.1539,46.808],[32.1864,46.797],[32.2435,46.7861]]]}},{"type":"Feature","properties":{"s":"liberated"},"geometry":{"type":"Polygon","coordinates":[[[30.2835,50.6252],[30.2952,50.7047],[30.3374,50.7191],[30.3576,50.7248],[30.3774,50.7272],[30.3806,50.7321],[30.378,50.7366],[30.3758,50.7418],[30.3735,50.7439],[30.3691,50.7435],[30.3668,50.7503],[30.3684,50.7526],[30.3824,50.7587],[30.3816,50.7608],[30.3772,50.7635],[30.374,50.7686],[30.3729,50.7724],[30.3739,50.7753],[30.376,50.7777],[30.3714,50.7808],[30.3687,50.7836],[30.3677,50.7851],[30.3677,50.7874],[30.3759,50.7923],[30.3752,50.7941],[30.3734,50.7944],[30.374,50.7964],[30.3765,50.7988],[30.3806,50.8066],[30.3816,50.8143],[30.3886,50.8182],[30.3891,50.8229],[30.3923,50.8282],[30.401,50.8337],[30.406,50.8382],[30.4086,50.8426],[30.4074,50.8461],[30.4109,50.8502],[30.416,50.8533],[30.4232,50.8566],[30.4257,50.8637],[30.4242,50.8676],[30.426,50.8735],[30.4206,50.8774],[30.4184,50.8802],[30.4196,50.8825],[30.4457,50.8871],[30.442,50.9072],[30.4501,50.9121],[30.4555,50.9196],[30.4479,50.9457],[30.4324,50.9659],[30.444,50.9842],[30.4253,50.9903],[30.4092,51.0245],[30.3909,51.0284],[30.378,51.0235],[30.3709,51.0195],[30.3614,51.0266],[30.349,51.0286],[30.3326,51.0338],[30.3151,51.0379],[30.2986,51.039],[30.3016,51.0415],[30.2916,51.0473],[30.299,51.0535],[30.3197,51.0539],[30.3405,51.0418],[30.3787,51.0559],[30.3779,51.0653],[30.4074,51.0666],[30.4081,51.0744],[30.4061,51.0813],[30.4299,51.115],[30.4273,51.1225],[30.4337,51.1218],[30.4354,51.1171],[30.4409,51.1154],[30.4384,51.1127],[30.4348,51.1116],[30.4363,51.1074],[30.4363,51.1012],[30.449,51.1045],[30.4482,51.1086],[30.4567,51.1123],[30.4658,51.1157],[30.4742,51.1145],[30.4767,51.122],[30.4843,51.1262],[30.48,51.1532],[30.4779,51.1545],[30.4618,51.1542],[30.4541,51.164],[30.4472,51.1691],[30.4507,51.1739],[30.4509,51.1779],[30.4404,51.1824],[30.431,51.1842],[30.4184,51.1937],[30.4111,51.1933],[30.4004,51.1867],[30.3963,51.1902],[30.3935,51.1937],[30.3925,51.2071],[30.3717,51.2081],[30.3619,51.2153],[30.3495,51.2163],[30.3429,51.2164],[30.3385,51.2202],[30.3306,51.2207],[30.3224,51.2247],[30.3162,51.2305],[30.3304,51.2452],[30.3561,51.2521],[30.3616,51.2461],[30.373,51.2481],[30.3786,51.247],[30.3769,51.2385],[30.3892,51.2384],[30.3947,51.2413],[30.4113,51.2387],[30.4163,51.2322],[30.4231,51.2272],[30.4313,51.233],[30.4496,51.2298],[30.4559,51.2322],[30.4657,51.2428],[30.4728,51.2398],[30.4737,51.2337],[30.4811,51.2201],[30.499,51.2151],[30.5144,51.2131],[30.5039,51.2247],[30.5072,51.2308],[30.5156,51.2359],[30.5328,51.265],[30.5052,51.2789],[30.4748,51.2754],[30.4635,51.2726],[30.4521,51.2731],[30.4513,51.277],[30.4538,51.2791],[30.4501,51.2814],[30.4534,51.2879],[30.4569,51.2862],[30.4632,51.2907],[30.4621,51.2942],[30.4576,51.2966],[30.4618,51.306],[30.4449,51.3087],[30.4211,51.3042],[30.4103,51.3083],[30.3985,51.3123],[30.3909,51.3218],[30.366,51.3341],[30.3483,51.3487],[30.3346,51.3515],[30.3234,51.3614],[30.3557,51.3784],[30.3561,51.3828],[30.3441,51.4233],[30.3345,51.4248],[30.3307,51.4287],[30.3256,51.4309],[30.3215,51.434],[30.3187,51.4403],[30.3115,51.4429],[30.3088,51.4466],[30.2983,51.4563],[30.2918,51.459],[30.288,51.4633],[30.2795,51.4648],[30.2451,51.4861],[30.2139,51.4924],[30.1804,51.5124],[30.1673,51.5088],[30.163,51.488],[30.1444,51.4945],[30.1316,51.5055],[30.1206,51.5044],[30.1291,51.4876],[30.1225,51.4898],[30.1212,51.4861],[30.1108,51.487],[30.1043,51.4909],[30.0776,51.4969],[30.0746,51.4957],[30.0623,51.4989],[30.0559,51.4971],[30.0337,51.5032],[30.0274,51.5026],[30.0191,51.5046],[30.0124,51.5046],[30.0122,51.5026],[30.0143,51.4995],[30.0152,51.4972],[30.0162,51.496],[30.0183,51.4954],[30.013,51.495],[30.0122,51.4894],[30.0075,51.4898],[30.0034,51.4883],[30.0008,51.4856],[29.9903,51.4813],[29.9819,51.4857],[29.9753,51.4834],[29.9711,51.4803],[29.9705,51.4752],[29.9669,51.472],[29.962,51.4713],[29.9515,51.4735],[29.9465,51.4836],[29.9237,51.4897],[29.9252,51.487],[29.9212,51.488],[29.9186,51.4869],[29.9171,51.4884],[29.9146,51.487],[29.9102,51.4855],[29.9062,51.4867],[29.9039,51.4851],[29.8907,51.4837],[29.8894,51.4828],[29.8892,51.4789],[29.8867,51.4772],[29.8843,51.4774],[29.8829,51.4767],[29.8844,51.4749],[29.8879,51.474],[29.8903,51.4727],[29.8895,51.471],[29.8865,51.4709],[29.8874,51.4678],[29.8853,51.4662],[29.8858,51.4637],[29.8757,51.4566],[29.8766,51.4522],[29.878,51.4502],[29.8777,51.4452],[29.8738,51.4442],[29.865,51.4462],[29.8556,51.4487],[29.8479,51.4489],[29.8431,51.4572],[29.8128,51.4487],[29.8105,51.459],[29.791,51.4574],[29.794,51.4414],[29.7793,51.4467],[29.7642,51.4492],[29.739,51.4589],[29.742,51.4615],[29.7335,51.4694],[29.7309,51.4797],[29.7255,51.4918],[29.7448,51.4935],[29.7421,51.5023],[29.7353,51.5109],[29.7424,51.5128],[29.7377,51.5308],[29.7075,51.5278],[29.7075,51.5205],[29.7046,51.5203],[29.6952,51.517],[29.6874,51.5169],[29.6833,51.5136],[29.6716,51.5111],[29.6697,51.5082],[29.6694,51.5026],[29.6658,51.5027],[29.6533,51.5061],[29.6507,51.5052],[29.6482,51.5016],[29.6486,51.5009],[29.6398,51.4985],[29.6341,51.506],[29.6275,51.5021],[29.6209,51.4926],[29.6059,51.4938],[29.605,51.4722],[29.5923,51.4667],[29.5874,51.4645],[29.5835,51.4625],[29.5775,51.4612],[29.5755,51.4614],[29.5398,51.4836],[29.5343,51.4677],[29.5288,51.4589],[29.5164,51.4434],[29.5233,51.4339],[29.5206,51.4219],[29.5096,51.4206],[29.5007,51.3968],[29.4592,51.4029],[29.4265,51.4137],[29.4037,51.411],[29.3891,51.4049],[29.3736,51.3982],[29.366,51.3898],[29.3233,51.3799],[29.2312,51.3777],[29.1281,51.3269],[29.1876,51.256],[29.3021,51.3044],[29.4388,51.1512],[29.4798,51.0159],[29.4272,50.9734],[29.5579,50.8294],[29.5761,50.8324],[29.5675,50.8629],[29.763,50.9095],[29.7172,50.7225],[29.7497,50.6169],[29.7444,50.5662],[29.7676,50.535],[29.8154,50.4975],[29.7857,50.4505],[29.8553,50.4484],[29.9143,50.3686],[29.9502,50.3723],[29.9914,50.3965],[30.0511,50.4193],[30.1073,50.4097],[30.2065,50.4139],[30.2728,50.5276],[30.2959,50.5526],[30.304,50.5647],[30.3306,50.6057],[30.2869,50.6227],[30.2835,50.6252]]]}},{"type":"Feature","properties":{"s":"liberated"},"geometry":{"type":"Polygon","coordinates":[[[34.9646,50.4522],[34.9406,50.4542],[34.9272,50.4089],[34.9235,50.3994],[34.9167,50.3929],[34.9172,50.3889],[34.9212,50.3652],[34.9227,50.3564],[34.9164,50.3445],[34.9414,50.3434],[34.9495,50.3518],[34.9384,50.3615],[34.9353,50.3716],[34.9324,50.3869],[34.9263,50.3914],[34.931,50.3943],[34.9348,50.4017],[34.9387,50.4072],[34.9372,50.4138],[34.9374,50.4206],[34.9423,50.4309],[34.9493,50.444],[34.9646,50.4522]]]}},{"type":"Feature","properties":{"s":"liberated"},"geometry":{"type":"Polygon","coordinates":[[[32.3666,47.0475],[32.3704,47.0205],[32.376,47.0025],[32.3749,46.9954],[32.379,46.988],[32.3879,46.9635],[32.4227,46.959],[32.4766,46.985],[32.4873,46.9983],[32.4853,47.0049],[32.4819,47.0086],[32.4786,47.0094],[32.473,47.012],[32.47,47.023],[32.4667,47.033],[32.4586,47.0381],[32.4541,47.0501],[32.4511,47.0674],[32.4613,47.0748],[32.4603,47.0839],[32.4634,47.0915],[32.4638,47.1],[32.4449,47.1051],[32.4371,47.1529],[32.4604,47.1573],[32.4634,47.1703],[32.4662,47.1743],[32.4626,47.1786],[32.4502,47.1804],[32.4442,47.1792],[32.4391,47.1769],[32.4346,47.1751],[32.4293,47.1723],[32.4227,47.1705],[32.416,47.1694],[32.4008,47.1713],[32.3731,47.1715],[32.3713,47.1794],[32.3697,47.1876],[32.3626,47.1897],[32.3608,47.1893],[32.3593,47.188],[32.3572,47.1865],[32.3484,47.1738],[32.3507,47.1632],[32.3524,47.1521],[32.3597,47.104],[32.3661,47.0673],[32.3666,47.0475]]]}},{"type":"Feature","properties":{"s":"liberated"},"geometry":{"type":"Polygon","coordinates":[[[31.3342,50.5042],[31.3391,50.5091],[31.3546,50.5153],[31.3709,50.5196],[31.3844,50.5315],[31.3897,50.5267],[31.3991,50.5249],[31.4022,50.524],[31.4057,50.5227],[31.4075,50.5208],[31.4081,50.5199],[31.4095,50.5187],[31.4122,50.5179],[31.4138,50.5177],[31.4147,50.519],[31.4155,50.5196],[31.4162,50.5206],[31.4171,50.5214],[31.4236,50.5196],[31.4288,50.5176],[31.431,50.5163],[31.4311,50.5153],[31.4309,50.5126],[31.4322,50.51],[31.4397,50.507],[31.4443,50.5068],[31.4483,50.5069],[31.4952,50.4868],[31.5037,50.4838],[31.5124,50.4837],[31.5205,50.4848],[31.5297,50.4857],[31.5373,50.4873],[31.5388,50.4911],[31.5398,50.4946],[31.5387,50.4986],[31.5368,50.5012],[31.5336,50.5029],[31.5285,50.5015],[31.5251,50.4999],[31.5216,50.4973],[31.5185,50.4951],[31.5174,50.4942],[31.515,50.4967],[31.5154,50.4993],[31.5167,50.5017],[31.5181,50.5041],[31.5166,50.5061],[31.5138,50.5062],[31.5119,50.5051],[31.5105,50.5036],[31.5088,50.5022],[31.506,50.5019],[31.5022,50.5024],[31.499,50.5018],[31.4965,50.5005],[31.4939,50.499],[31.491,50.4973],[31.4899,50.495],[31.4877,50.495],[31.4848,50.4964],[31.4533,50.5123],[31.4492,50.5161],[31.4461,50.5169],[31.4424,50.5173],[31.4393,50.517],[31.4373,50.5169],[31.4357,50.5166],[31.4265,50.5204],[31.4247,50.5218],[31.4246,50.5233],[31.4247,50.525],[31.423,50.5261],[31.4203,50.5263],[31.4172,50.5255],[31.4143,50.5255],[31.4124,50.5256],[31.4112,50.525],[31.4115,50.524],[31.4114,50.5234],[31.4101,50.5233],[31.4088,50.5233],[31.4008,50.526],[31.3922,50.5279],[31.3866,50.5324],[31.448,50.548],[31.4692,50.5539],[31.4825,50.5566],[31.486,50.5543],[31.4885,50.5526],[31.4943,50.5509],[31.501,50.5503],[31.5073,50.5516],[31.5148,50.5528],[31.5209,50.5536],[31.5282,50.5532],[31.5349,50.5544],[31.5404,50.5553],[31.5453,50.5578],[31.5489,50.5603],[31.5498,50.5634],[31.5451,50.567],[31.5394,50.5698],[31.5349,50.5731],[31.5339,50.5771],[31.5408,50.6205],[31.4526,50.735],[31.5304,50.7384],[31.6634,50.6074],[31.674,50.6109],[31.6932,50.6189],[31.5671,50.7742],[31.4307,50.7683],[31.4036,50.8243],[31.3495,50.8706],[31.2872,50.8778],[31.2492,50.8683],[31.2424,50.853],[31.3277,50.8438],[31.3539,50.8019],[31.3522,50.7579],[31.1445,50.7163],[31.189,50.6734],[31.4048,50.7178],[31.4996,50.5888],[31.492,50.5866],[31.4877,50.5827],[31.4869,50.5778],[31.4857,50.5743],[31.4832,50.576],[31.4688,50.5869],[31.4549,50.5955],[31.4349,50.598],[31.4073,50.5997],[31.3981,50.5996],[31.3907,50.6074],[31.3898,50.611],[31.3918,50.6249],[31.3433,50.6374],[31.3374,50.6424],[31.329,50.6494],[31.3184,50.6553],[31.3061,50.6595],[31.296,50.6596],[31.2894,50.6456],[31.2938,50.63],[31.3299,50.6301],[31.3545,50.6255],[31.3757,50.6183],[31.3682,50.6036],[31.3677,50.5976],[31.3682,50.5928],[31.3702,50.5889],[31.3788,50.5866],[31.3863,50.5887],[31.394,50.5902],[31.3999,50.5924],[31.4116,50.5932],[31.4268,50.5936],[31.4407,50.5899],[31.4791,50.568],[31.474,50.567],[31.3356,50.5196],[31.3218,50.5093],[31.3113,50.5019],[31.285,50.5],[31.2816,50.5072],[31.2627,50.5125],[31.2532,50.5163],[31.2476,50.5162],[31.2411,50.5146],[31.2369,50.5068],[31.2294,50.4997],[31.2146,50.4998],[31.2075,50.4892],[31.2137,50.4843],[31.2363,50.4836],[31.2622,50.4844],[31.2761,50.4895],[31.3013,50.4931],[31.3308,50.4968],[31.3534,50.499],[31.3629,50.4953],[31.3704,50.4919],[31.3707,50.4892],[31.3669,50.4874],[31.3613,50.4849],[31.3562,50.4833],[31.3523,50.4803],[31.3462,50.4766],[31.3415,50.4727],[31.338,50.4694],[31.3386,50.4661],[31.342,50.4622],[31.3473,50.4617],[31.3522,50.4627],[31.3578,50.4647],[31.3607,50.4658],[31.3651,50.4661],[31.3669,50.4639],[31.3695,50.4612],[31.3731,50.461],[31.3742,50.4627],[31.3752,50.4654],[31.3755,50.4677],[31.3749,50.4698],[31.3739,50.4715],[31.372,50.4737],[31.3706,50.4753],[31.369,50.478],[31.3706,50.4812],[31.3772,50.4858],[31.3798,50.4887],[31.3802,50.4935],[31.3805,50.4984],[31.3659,50.5055],[31.3532,50.505],[31.3342,50.5042]]]}},{"type":"Feature","properties":{"s":"liberated"},"geometry":{"type":"Polygon","coordinates":[[[33.876,47.4813],[33.8532,47.4542],[33.8355,47.4341],[33.8766,47.4342],[33.9095,47.4217],[33.9571,47.4182],[33.936,47.4867],[33.9377,47.4889],[33.9368,47.4903],[33.9358,47.4931],[33.9334,47.496],[33.931,47.4987],[33.9305,47.5019],[33.9299,47.5043],[33.9281,47.507],[33.9284,47.5096],[33.9301,47.5122],[33.9289,47.5169],[33.9267,47.5198],[33.9236,47.5193],[33.9148,47.5183],[33.9059,47.5176],[33.8946,47.5158],[33.8855,47.5114],[33.8809,47.5018],[33.876,47.4813]]]}},{"type":"Feature","properties":{"s":"liberated"},"geometry":{"type":"Polygon","coordinates":[[[34.9759,50.4988],[34.9779,50.516],[34.9714,50.5293],[34.9662,50.54],[34.9789,50.5605],[34.9772,50.5801],[34.9738,50.5993],[34.9931,50.5989],[35.0103,50.6004],[35.0106,50.6113],[34.9984,50.6164],[34.9928,50.6236],[34.992,50.6286],[34.9906,50.6373],[34.9885,50.6411],[34.9814,50.6433],[34.9646,50.6405],[34.955,50.6329],[34.9452,50.6208],[34.9303,50.6147],[34.9359,50.6031],[34.9605,50.5991],[34.9612,50.5681],[34.9519,50.5489],[34.9485,50.538],[34.9553,50.5245],[34.9618,50.5103],[34.9658,50.4983],[34.9719,50.5016],[34.9759,50.4988]]]}},{"type":"Feature","properties":{"s":"liberated"},"geometry":{"type":"Polygon","coordinates":[[[36.4057,50.0689],[36.3791,50.0763],[36.3433,50.0861],[36.3298,50.0757],[36.3437,50.0655],[36.354,50.0585],[36.3624,50.0497],[36.3674,50.0447],[36.4057,50.0689]]]}},{"type":"Feature","properties":{"s":"liberated"},"geometry":{"type":"Polygon","coordinates":[[[36.8055,49.3629],[36.796,49.3649],[36.7835,49.3599],[36.8051,49.3488],[36.8021,49.3166],[36.8023,49.2759],[36.8109,49.2694],[36.8293,49.2551],[36.8446,49.2459],[36.8512,49.2432],[36.8617,49.2416],[36.8723,49.2394],[36.8799,49.2376],[36.8816,49.2359],[36.8853,49.2315],[36.8858,49.2304],[36.8863,49.2263],[36.8933,49.2166],[36.8988,49.2091],[36.905,49.1985],[36.9044,49.1913],[36.8917,49.1813],[36.8821,49.1836],[36.8625,49.1888],[36.8643,49.1815],[36.8731,49.177],[36.8726,49.1712],[36.8811,49.1646],[36.8873,49.158],[36.898,49.1556],[36.9085,49.162],[36.9152,49.1704],[36.9215,49.1918],[36.9223,49.1951],[36.9246,49.1976],[36.9231,49.2027],[36.9169,49.2065],[36.9091,49.2069],[36.902,49.2158],[36.8955,49.224],[36.889,49.2368],[36.8866,49.24],[36.8573,49.2459],[36.8367,49.2572],[36.8079,49.2789],[36.8108,49.2892],[36.8127,49.299],[36.8129,49.3084],[36.8107,49.3174],[36.8127,49.3373],[36.8142,49.3499],[36.8312,49.348],[36.8356,49.3507],[36.838,49.3529],[36.8395,49.3548],[36.8704,49.375],[36.8373,49.3951],[36.8257,49.4074],[36.8249,49.3904],[36.821,49.3813],[36.8139,49.3653],[36.8055,49.3629]]]}},{"type":"Feature","properties":{"s":"liberated"},"geometry":{"type":"Polygon","coordinates":[[[33.0951,47.5617],[33.0875,47.5528],[33.1129,47.5564],[33.1435,47.5475],[33.1444,47.5345],[33.1619,47.5285],[33.1823,47.5199],[33.1985,47.5186],[33.2042,47.5039],[33.2035,47.4886],[33.2071,47.4797],[33.2086,47.469],[33.2086,47.4653],[33.2093,47.4621],[33.2071,47.456],[33.2005,47.444],[33.2222,47.4448],[33.2361,47.4462],[33.2373,47.4534],[33.2308,47.4669],[33.2268,47.4705],[33.2237,47.4719],[33.2171,47.4718],[33.2139,47.481],[33.2183,47.4844],[33.2179,47.489],[33.2182,47.5028],[33.2151,47.5074],[33.21,47.529],[33.1981,47.5304],[33.183,47.5273],[33.1681,47.5347],[33.1658,47.5406],[33.1557,47.5436],[33.1525,47.5541],[33.1358,47.5591],[33.1111,47.5634],[33.0951,47.5617]]]}},{"type":"Feature","properties":{"s":"liberated"},"geometry":{"type":"Polygon","coordinates":[[[34.9885,50.6411],[35.0095,50.6613],[35.0088,50.6807],[35.0139,50.6935],[34.9847,50.7555],[34.959,50.7711],[34.9446,50.7813],[34.9415,50.7915],[34.9501,50.8128],[34.9506,50.8249],[34.9317,50.8256],[34.9314,50.8115],[34.9272,50.7913],[34.9286,50.7785],[34.9434,50.7629],[34.9667,50.7485],[34.9753,50.7277],[34.9913,50.6937],[34.9878,50.6835],[34.9882,50.6643],[34.9646,50.6405],[34.9814,50.6433],[34.9885,50.6411]]]}},{"type":"Feature","properties":{"s":"liberated"},"geometry":{"type":"Polygon","coordinates":[[[36.5779,50.0468],[36.7481,50.0296],[36.7654,50.0192],[36.8049,50.0284],[36.8005,50.0378],[36.7983,50.0512],[36.8,50.0519],[36.8008,50.0686],[36.7981,50.0724],[36.8031,50.0764],[36.804,50.0828],[36.7986,50.0845],[36.7977,50.1098],[36.8103,50.1157],[36.8113,50.1259],[36.8145,50.1512],[36.8353,50.1643],[36.8488,50.1643],[36.8424,50.1782],[36.8057,50.1821],[36.7617,50.1831],[36.7038,50.1784],[36.6787,50.1796],[36.6485,50.1757],[36.6063,50.1605],[36.5549,50.1483],[36.5487,50.1421],[36.4925,50.1497],[36.4179,50.1437],[36.3833,50.1503],[36.3012,50.1838],[36.2825,50.1861],[36.2717,50.1845],[36.2588,50.1816],[36.2187,50.1845],[36.2159,50.1796],[36.2197,50.1544],[36.2318,50.1519],[36.2356,50.144],[36.25,50.1292],[36.3433,50.0861],[36.4057,50.0689],[36.3674,50.0447],[36.427,50.0154],[36.4659,50.0019],[36.4848,49.9888],[36.4844,49.9289],[36.5019,49.9297],[36.555,49.9998],[36.5779,50.0468]]]}},{"type":"Feature","properties":{"s":"liberated"},"geometry":{"type":"Polygon","coordinates":[[[35.1776,50.332],[35.229,50.3296],[35.2579,50.3357],[35.2792,50.3317],[35.3231,50.3396],[35.3568,50.3497],[35.398,50.3484],[35.4749,50.3992],[35.503,50.4115],[35.5118,50.4211],[35.5482,50.422],[35.5663,50.421],[35.5833,50.4252],[35.5833,50.43],[35.5872,50.4311],[35.5867,50.437],[35.5591,50.4269],[35.5463,50.4291],[35.5078,50.4271],[35.5015,50.4337],[35.492,50.4377],[35.4694,50.4473],[35.4325,50.4448],[35.417,50.4368],[35.4096,50.4383],[35.3986,50.4458],[35.3786,50.4667],[35.3528,50.4884],[35.3966,50.5587],[35.3694,50.607],[35.3323,50.6436],[35.3138,50.6671],[35.3193,50.6975],[35.2953,50.7104],[35.3642,50.7029],[35.3782,50.6956],[35.3865,50.6858],[35.4025,50.6788],[35.4085,50.6832],[35.4102,50.6935],[35.4091,50.7002],[35.4182,50.7015],[35.4253,50.6947],[35.4304,50.6896],[35.4426,50.687],[35.4598,50.6887],[35.4601,50.6921],[35.4606,50.7019],[35.4565,50.7042],[35.456,50.7102],[35.4461,50.7064],[35.4433,50.6967],[35.4356,50.6965],[35.4323,50.7031],[35.4255,50.7086],[35.357,50.7139],[35.2904,50.7279],[35.2783,50.7279],[35.2675,50.7248],[35.2644,50.7348],[35.2728,50.7523],[35.2734,50.7607],[35.2887,50.7619],[35.296,50.7664],[35.289,50.7729],[35.2794,50.779],[35.2667,50.782],[35.2691,50.7902],[35.2902,50.7904],[35.3115,50.7932],[35.3306,50.7933],[35.3507,50.7932],[35.3644,50.7939],[35.3872,50.7942],[35.4017,50.7955],[35.4075,50.7988],[35.3939,50.8027],[35.3893,50.811],[35.4118,50.8119],[35.414,50.8186],[35.3874,50.8179],[35.351,50.8246],[35.3236,50.8441],[35.3066,50.8408],[35.292,50.8353],[35.286,50.8349],[35.284,50.8424],[35.2795,50.8514],[35.2819,50.8583],[35.2895,50.8621],[35.2908,50.8686],[35.2838,50.8701],[35.2763,50.8677],[35.2694,50.8675],[35.267,50.8703],[35.2747,50.8737],[35.2874,50.874],[35.3005,50.8784],[35.3183,50.877],[35.3276,50.8761],[35.3456,50.8838],[35.3544,50.8874],[35.3628,50.8902],[35.366,50.8935],[35.3626,50.9],[35.3521,50.9062],[35.3384,50.9176],[35.3233,50.9137],[35.3301,50.9009],[35.337,50.8916],[35.3209,50.8854],[35.302,50.8875],[35.2893,50.8869],[35.2718,50.8869],[35.2529,50.8854],[35.2316,50.8851],[35.2223,50.8847],[35.1969,50.9059],[35.1784,50.9191],[35.1557,50.9139],[35.1485,50.8996],[35.1475,50.8849],[35.142,50.868],[35.1252,50.8544],[35.0987,50.8487],[35.0843,50.8385],[35.0457,50.8424],[35.0206,50.8385],[34.9949,50.84],[34.9698,50.8326],[34.9513,50.8383],[34.932,50.8365],[34.9317,50.8256],[34.9506,50.8249],[34.9629,50.8235],[34.9818,50.8246],[35.001,50.8242],[35.0203,50.8231],[35.0436,50.8235],[35.079,50.8235],[35.0896,50.8135],[35.1171,50.8044],[35.1476,50.7993],[35.1887,50.7871],[35.2265,50.7693],[35.2457,50.7406],[35.2464,50.7132],[35.267,50.695],[35.2711,50.6806],[35.2794,50.6637],[35.2904,50.6497],[35.2986,50.6393],[35.2595,50.6262],[35.2423,50.6188],[35.2251,50.6205],[35.219,50.6075],[35.2176,50.5913],[35.1867,50.5591],[35.1608,50.546],[35.1189,50.5421],[35.099,50.5473],[35.0365,50.5307],[35.0153,50.5159],[34.981,50.495],[34.9929,50.4801],[35.0125,50.4787],[35.0256,50.4717],[35.0455,50.4726],[35.0544,50.4827],[35.0805,50.4779],[35.1114,50.4735],[35.132,50.4678],[35.1512,50.4599],[35.1718,50.4508],[35.1931,50.4429],[35.1971,50.4362],[35.2067,50.4294],[35.1898,50.4167],[35.176,50.4066],[35.1618,50.3991],[35.1492,50.3982],[35.1378,50.396],[35.1412,50.3891],[35.1353,50.3869],[35.135,50.3835],[35.1452,50.3805],[35.1424,50.3735],[35.1436,50.3701],[35.1416,50.3661],[35.1438,50.3629],[35.146,50.3604],[35.1512,50.3595],[35.1576,50.3544],[35.158,50.3508],[35.1595,50.3424],[35.1632,50.3426],[35.1668,50.3429],[35.1664,50.3464],[35.1655,50.3495],[35.1647,50.3547],[35.164,50.3583],[35.161,50.3598],[35.1571,50.3628],[35.157,50.3636],[35.1597,50.3649],[35.1594,50.3673],[35.1584,50.3686],[35.1569,50.37],[35.1522,50.371],[35.1579,50.3801],[35.176,50.3923],[35.2055,50.4098],[35.2346,50.4314],[35.2443,50.4424],[35.2828,50.4514],[35.3218,50.4748],[35.3343,50.4849],[35.3451,50.4759],[35.3576,50.4656],[35.3724,50.4536],[35.3848,50.4409],[35.3741,50.4317],[35.3679,50.4241],[35.3779,50.4195],[35.3878,50.4175],[35.3878,50.4107],[35.3865,50.398],[35.3889,50.3871],[35.3916,50.374],[35.3909,50.3648],[35.3556,50.3654],[35.3254,50.3639],[35.3144,50.3564],[35.2886,50.3477],[35.2673,50.349],[35.2351,50.3453],[35.2055,50.342],[35.1761,50.3435],[35.1776,50.332]]]}},{"type":"Feature","properties":{"s":"liberated"},"geometry":{"type":"Polygon","coordinates":[[[32.6491,50.7806],[32.6789,50.7857],[32.714,50.7814],[32.7604,50.7974],[32.8047,50.809],[32.8132,50.8023],[32.7894,50.7888],[32.792,50.7802],[32.7853,50.7718],[32.7999,50.762],[32.8307,50.7773],[32.8211,50.7895],[32.841,50.7991],[32.8276,50.8154],[32.8687,50.8233],[32.9064,50.8311],[32.9578,50.8455],[33.0151,50.842],[33.0432,50.8385],[33.0754,50.8463],[33.1124,50.8507],[33.1237,50.8262],[33.1528,50.8272],[33.1575,50.8565],[33.2004,50.862],[33.1957,50.8756],[33.1266,50.9217],[33.1273,50.9392],[33.1196,50.9424],[33.0823,50.943],[33.0634,50.9619],[32.9723,50.9494],[32.9213,50.9739],[33.0157,51.0162],[33.0384,51.02],[33.0707,51.0314],[33.0823,51.0307],[33.0857,51.0244],[33.0917,51.0134],[33.1297,51.0048],[33.1475,51.0108],[33.1567,51.0195],[33.1617,51.0558],[33.2512,51.0845],[33.294,51.0455],[33.3645,51.0536],[33.384,51.0797],[33.4275,51.154],[33.2988,51.2089],[33.1743,51.1813],[33.1053,51.1807],[33.0238,51.1706],[32.9771,51.1269],[32.9617,51.1523],[32.8267,51.2728],[32.8891,51.2817],[32.9904,51.2466],[33.1135,51.2492],[33.1092,51.2645],[32.9773,51.2874],[32.8885,51.3285],[32.8178,51.3279],[32.7449,51.3229],[32.7231,51.3087],[32.5647,51.3046],[32.4131,51.3137],[32.2129,51.457],[32.2407,51.5029],[32.4896,51.5067],[32.4574,51.5699],[32.2298,51.5529],[31.8442,51.5983],[31.8238,51.564],[32.0874,51.4889],[32.1637,51.4237],[32.3063,51.3261],[32.3675,51.2671],[32.3394,51.2224],[32.1412,51.1828],[32.1522,51.1308],[32.1206,51.0745],[32.4147,51.0876],[32.3893,50.9846],[32.2486,50.9763],[32.1127,50.9484],[32.123,50.9283],[32.1944,50.9313],[32.2631,50.9448],[32.5229,50.9574],[32.5325,50.9378],[32.5205,50.8886],[32.5736,50.8109],[32.611,50.7776],[32.6491,50.7806]],[[32.611,50.7776],[32.6269,50.7874],[32.6172,50.7906],[32.611,50.7776]]]}},{"type":"Feature","properties":{"s":"liberated"},"geometry":{"type":"Polygon","coordinates":[[[33.6899,47.4501],[33.6539,47.4483],[33.6368,47.47],[33.6277,47.4794],[33.6031,47.5054],[33.5706,47.5721],[33.4776,47.5611],[33.4917,47.5194],[33.4989,47.512],[33.5461,47.5181],[33.5544,47.5051],[33.5963,47.4966],[33.6146,47.4498],[33.6342,47.4392],[33.6633,47.4361],[33.7214,47.4308],[33.7053,47.4514],[33.6899,47.4501]]]}},{"type":"Feature","properties":{"s":"liberated"},"geometry":{"type":"Polygon","coordinates":[[[36.8928,49.7996],[36.924,49.79],[37.0059,49.8298],[37.0029,49.8424],[36.9856,49.8335],[36.9773,49.8358],[36.8983,49.8122],[36.8895,49.8053],[36.8928,49.7996]]]}},{"type":"Feature","properties":{"s":"liberated"},"geometry":{"type":"Polygon","coordinates":[[[37.5338,47.9506],[37.5201,47.9514],[37.5043,47.9406],[37.5029,47.9236],[37.5049,47.923],[37.5343,47.9134],[37.5428,47.9325],[37.5338,47.9506]]]}},{"type":"Feature","properties":{"s":"liberated"},"geometry":{"type":"Polygon","coordinates":[[[36.4844,49.9289],[36.484,49.9089],[36.4844,49.9012],[36.5058,49.8971],[36.5851,49.8774],[36.5828,49.8699],[36.5822,49.86],[36.6106,49.8547],[36.6126,49.8546],[36.6152,49.8621],[36.6186,49.8725],[36.6255,49.8699],[36.6357,49.8619],[36.6471,49.8547],[36.665,49.8462],[36.6741,49.8402],[36.6788,49.829],[36.67,49.8283],[36.6498,49.8231],[36.6538,49.8194],[36.6589,49.8209],[36.6711,49.8228],[36.6776,49.8177],[36.6851,49.8198],[36.6919,49.8253],[36.702,49.8169],[36.7086,49.8222],[36.7224,49.8121],[36.7192,49.806],[36.7065,49.799],[36.6907,49.7954],[36.6955,49.7903],[36.7202,49.7947],[36.7307,49.8023],[36.7338,49.8075],[36.7414,49.8054],[36.7633,49.791],[36.8,49.7797],[36.8042,49.7769],[36.7949,49.7691],[36.791,49.7618],[36.794,49.7598],[36.7975,49.7581],[36.7988,49.7581],[36.8265,49.7743],[36.8424,49.7665],[36.846,49.7644],[36.8502,49.7671],[36.8475,49.77],[36.8425,49.7731],[36.829,49.7835],[36.8293,49.7884],[36.8234,49.7942],[36.817,49.7973],[36.8148,49.7952],[36.8149,49.7935],[36.819,49.7875],[36.7779,49.7982],[36.7611,49.8107],[36.7476,49.8188],[36.7405,49.8263],[36.7173,49.8439],[36.7032,49.8465],[36.7062,49.8528],[36.7313,49.8688],[36.7494,49.8766],[36.7807,49.8708],[36.7992,49.8662],[36.8397,49.858],[36.8555,49.856],[36.8816,49.8571],[36.9129,49.8553],[36.9269,49.8551],[36.9417,49.8569],[36.9627,49.8655],[36.9726,49.875],[36.9771,49.8821],[36.963,49.8843],[36.9475,49.8812],[36.9163,49.8852],[36.9039,49.8801],[36.9033,49.8702],[36.8943,49.8662],[36.8737,49.8671],[36.8555,49.8662],[36.8064,49.8759],[36.7821,49.8828],[36.7553,49.8927],[36.7242,49.8888],[36.71,49.8818],[36.7069,49.8779],[36.701,49.8647],[36.6901,49.8483],[36.6818,49.8474],[36.6711,49.851],[36.652,49.8599],[36.6411,49.8658],[36.6345,49.8699],[36.6297,49.873],[36.624,49.8753],[36.6166,49.8778],[36.6126,49.8814],[36.6123,49.8877],[36.6072,49.8886],[36.6084,49.8941],[36.6122,49.8984],[36.6174,49.9035],[36.6178,49.9085],[36.6029,49.9079],[36.599,49.9074],[36.591,49.9019],[36.5855,49.8954],[36.5796,49.889],[36.5731,49.8888],[36.5676,49.8905],[36.5607,49.8922],[36.5549,49.8901],[36.5449,49.8933],[36.5196,49.9009],[36.5018,49.912],[36.5019,49.9297],[36.4844,49.9289]]]}},{"type":"Feature","properties":{"s":"liberated"},"geometry":{"type":"Polygon","coordinates":[[[32.1182,46.631],[32.1251,46.6799],[32.1704,46.6788],[32.1657,46.7021],[32.1873,46.7472],[32.2174,46.7496],[32.2449,46.7704],[32.2435,46.7861],[32.1864,46.797],[32.1539,46.808],[32.1096,46.7896],[31.9644,46.7725],[31.9421,46.7445],[31.9747,46.7106],[31.9668,46.6823],[31.9781,46.6569],[32.0023,46.6408],[32.0147,46.6386],[32.0423,46.6409],[32.1182,46.631]]]}},{"type":"Feature","properties":{"s":"liberated"},"geometry":{"type":"Polygon","coordinates":[[[33.2222,47.4448],[33.2005,47.444],[33.2045,47.4363],[33.2161,47.4319],[33.2185,47.4117],[33.198,47.373],[33.192,47.357],[33.1756,47.3492],[33.1735,47.3434],[33.1848,47.3401],[33.1996,47.3391],[33.2066,47.3432],[33.2142,47.3455],[33.2207,47.3519],[33.2234,47.3657],[33.2441,47.412],[33.2361,47.4462],[33.2222,47.4448]]]}},{"type":"Feature","properties":{"s":"liberated"},"geometry":{"type":"Polygon","coordinates":[[[32.4649,47.0749],[32.4613,47.0748],[32.4511,47.0674],[32.4541,47.0501],[32.5121,47.0602],[32.5184,47.0463],[32.5639,47.0541],[32.5602,47.0665],[32.6367,47.0759],[32.6391,47.0657],[32.6532,47.0665],[32.6695,47.0669],[32.6843,47.0677],[32.6858,47.0678],[32.6953,47.0678],[32.6947,47.0958],[32.682,47.1046],[32.6673,47.1079],[32.6607,47.0999],[32.6601,47.0961],[32.6535,47.0948],[32.4649,47.0749]]]}},{"type":"Feature","properties":{"s":"liberated"},"geometry":{"type":"Polygon","coordinates":[[[31.6634,50.6074],[31.6548,50.5984],[31.6562,50.5918],[31.663,50.5857],[31.6754,50.5783],[31.6926,50.5849],[31.7241,50.6032],[31.7708,50.6302],[31.8395,50.6506],[31.8635,50.6759],[31.9123,50.692],[31.9597,50.6963],[32.0036,50.7072],[32.0338,50.7207],[32.0894,50.7502],[32.1437,50.7867],[32.1348,50.7976],[32.125,50.8072],[32.1355,50.828],[32.0258,50.923],[32.123,50.9283],[32.1127,50.9484],[31.9215,50.9667],[31.8965,50.9633],[31.9117,50.9346],[31.9804,50.8643],[32.0984,50.8223],[32.0098,50.7628],[31.961,50.735],[31.8972,50.7198],[31.8326,50.7007],[31.8072,50.672],[31.7736,50.6593],[31.6932,50.6189],[31.674,50.6109],[31.6634,50.6074]]]}},{"type":"Feature","properties":{"s":"liberated"},"geometry":{"type":"Polygon","coordinates":[[[33.1503,47.3037],[33.0963,47.2355],[33.0941,47.2262],[33.0869,47.223],[33.066,47.2207],[33.0682,47.2142],[33.0674,47.2007],[33.0543,47.1916],[33.0366,47.188],[33.0348,47.183],[33.039,47.1785],[33.031,47.1671],[33.0538,47.1443],[33.0806,47.1426],[33.1127,47.1527],[33.1678,47.2026],[33.1949,47.1974],[33.2233,47.2144],[33.2036,47.237],[33.2032,47.2766],[33.2198,47.2902],[33.2279,47.2922],[33.2355,47.2899],[33.2523,47.289],[33.2587,47.2875],[33.2637,47.289],[33.2743,47.2968],[33.2744,47.3043],[33.27,47.3072],[33.261,47.305],[33.2539,47.3056],[33.2446,47.3078],[33.2348,47.314],[33.2323,47.3216],[33.2408,47.3253],[33.2459,47.3306],[33.252,47.3352],[33.2555,47.3356],[33.2652,47.3286],[33.2759,47.3245],[33.2878,47.3219],[33.2956,47.3253],[33.2964,47.3257],[33.2923,47.3287],[33.2939,47.33],[33.2973,47.3288],[33.299,47.3297],[33.2995,47.3313],[33.2959,47.3332],[33.2863,47.3391],[33.283,47.3451],[33.2906,47.3498],[33.2909,47.3521],[33.2884,47.3535],[33.2882,47.3552],[33.2907,47.3606],[33.2822,47.3614],[33.2483,47.3474],[33.2207,47.3519],[33.2142,47.3455],[33.2066,47.3432],[33.1996,47.3391],[33.1848,47.3401],[33.1503,47.3037]]]}},{"type":"Feature","properties":{"s":"liberated"},"geometry":{"type":"Polygon","coordinates":[[[36.6133,47.7921],[36.611,47.786],[36.6458,47.7903],[36.6356,47.7949],[36.6373,47.8205],[36.6147,47.8183],[36.6085,47.8176],[36.6133,47.7921]]]}},{"type":"Feature","properties":{"s":"liberated"},"geometry":{"type":"Polygon","coordinates":[[[35.5048,47.5504],[35.5074,47.5136],[35.6433,47.5139],[35.6376,47.557],[35.5919,47.5635],[35.5048,47.5504]]]}},{"type":"Feature","properties":{"s":"liberated"},"geometry":{"type":"Polygon","coordinates":[[[34.9495,50.3518],[34.9414,50.3434],[34.9341,50.3303],[34.9369,50.3175],[34.943,50.3077],[34.9884,50.3075],[35.0374,50.3085],[35.0687,50.3206],[35.0989,50.3256],[35.1363,50.3292],[35.1776,50.332],[35.1761,50.3435],[35.1668,50.3429],[35.1632,50.3426],[35.1595,50.3424],[35.1503,50.3409],[35.1436,50.3406],[35.139,50.343],[35.1355,50.35],[35.13,50.3527],[35.1294,50.3591],[35.1225,50.3646],[35.1207,50.3671],[35.1203,50.3688],[35.1195,50.3695],[35.1202,50.3707],[35.1195,50.3735],[35.1138,50.3756],[35.1063,50.3744],[35.1017,50.3694],[35.0874,50.3664],[35.0694,50.3649],[35.0631,50.3637],[35.0492,50.364],[35.023,50.3712],[35.0296,50.3797],[35.0296,50.3917],[35.0244,50.3934],[35.014,50.3889],[35.0126,50.3755],[34.9845,50.3721],[34.9495,50.3518]]]}},{"type":"Feature","properties":{"s":"liberated"},"geometry":{"type":"Polygon","coordinates":[[[34.3929,50.359],[34.347,50.3698],[34.3163,50.3773],[34.2833,50.3799],[34.2537,50.3877],[34.2041,50.3806],[34.2276,50.4013],[34.253,50.4114],[34.2866,50.4038],[34.3479,50.4154],[34.3642,50.4245],[34.3927,50.4577],[34.4048,50.4523],[34.4163,50.4516],[34.4218,50.4594],[34.4228,50.467],[34.402,50.4725],[34.3896,50.4757],[34.3699,50.4691],[34.357,50.4641],[34.3348,50.4609],[34.3158,50.455],[34.3019,50.459],[34.3082,50.4658],[34.3144,50.4758],[34.3091,50.4778],[34.3028,50.4717],[34.2929,50.4681],[34.2819,50.4628],[34.2756,50.4583],[34.2624,50.4554],[34.2276,50.4548],[34.2027,50.4497],[34.1754,50.439],[34.1794,50.433],[34.2027,50.4388],[34.2332,50.4442],[34.2851,50.4476],[34.3085,50.4441],[34.3754,50.4645],[34.3877,50.4665],[34.3707,50.4489],[34.3581,50.4328],[34.3382,50.4301],[34.3289,50.4231],[34.2822,50.416],[34.2447,50.423],[34.2264,50.4183],[34.2297,50.4094],[34.2194,50.4045],[34.1909,50.3806],[34.1732,50.3797],[34.1573,50.3879],[34.1268,50.3736],[34.1321,50.3592],[34.1433,50.358],[34.1543,50.3594],[34.1735,50.3572],[34.225,50.3734],[34.2467,50.3793],[34.28,50.372],[34.282,50.3607],[34.2975,50.3609],[34.3038,50.3662],[34.3504,50.3623],[34.3565,50.3543],[34.3864,50.3491],[34.4674,50.2982],[34.4972,50.2969],[34.5202,50.3305],[34.5336,50.3468],[34.5514,50.3665],[34.5908,50.3714],[34.6307,50.4041],[34.6567,50.4166],[34.7113,50.4173],[34.7164,50.4443],[34.7161,50.4912],[34.7397,50.4976],[34.7672,50.4958],[34.8023,50.4924],[34.8375,50.4867],[34.9184,50.4737],[34.9262,50.4898],[34.8961,50.497],[34.8449,50.4974],[34.8304,50.5014],[34.81,50.5009],[34.787,50.5061],[34.7657,50.5037],[34.7392,50.5079],[34.6973,50.5003],[34.6821,50.4725],[34.6919,50.4655],[34.6935,50.4251],[34.6399,50.427],[34.627,50.4203],[34.6205,50.4099],[34.5749,50.3983],[34.5707,50.3835],[34.54,50.3781],[34.5363,50.3724],[34.527,50.3638],[34.5123,50.3553],[34.5055,50.345],[34.5093,50.341],[34.4912,50.3155],[34.4755,50.3212],[34.4657,50.3139],[34.3929,50.359]]]}},{"type":"Feature","properties":{"s":"unknown"},"geometry":{"type":"Polygon","coordinates":[[[38.5363,48.9373],[38.5351,48.9316],[38.5338,48.9301],[38.5408,48.9252],[38.5477,48.9194],[38.56,48.9213],[38.5771,48.9275],[38.5775,48.9331],[38.5639,48.9349],[38.5575,48.9366],[38.5447,48.937],[38.5363,48.9373]]]}},{"type":"Feature","properties":{"s":"liberated"},"geometry":{"type":"Polygon","coordinates":[[[36.5552,47.6728],[36.546,47.675],[36.5122,47.6877],[36.4941,47.6931],[36.4943,47.7001],[36.4981,47.7104],[36.5092,47.712],[36.5058,47.7216],[36.4908,47.7269],[36.4845,47.7208],[36.4755,47.7233],[36.4727,47.727],[36.4661,47.7251],[36.4613,47.7221],[36.4714,47.7149],[36.4843,47.7089],[36.4826,47.6963],[36.4733,47.6975],[36.4053,47.6905],[36.4028,47.6956],[36.4005,47.6983],[36.3936,47.6976],[36.3898,47.6952],[36.3873,47.6922],[36.3824,47.6898],[36.3752,47.6882],[36.3403,47.6836],[36.3277,47.6878],[36.3199,47.6887],[36.3107,47.6875],[36.3083,47.6849],[36.3115,47.6811],[36.3143,47.6782],[36.3186,47.6743],[36.3808,47.6802],[36.3848,47.6611],[36.3795,47.6605],[36.3749,47.6591],[36.3736,47.6564],[36.3765,47.6532],[36.3819,47.6504],[36.3894,47.6505],[36.4003,47.6533],[36.4023,47.6559],[36.4021,47.6596],[36.3996,47.6622],[36.3949,47.6633],[36.3938,47.6662],[36.3941,47.6696],[36.4066,47.67],[36.4123,47.6717],[36.4148,47.6748],[36.4161,47.6774],[36.4167,47.6803],[36.4176,47.6833],[36.4214,47.685],[36.4324,47.6861],[36.4412,47.6876],[36.4511,47.6885],[36.4564,47.6829],[36.4599,47.6774],[36.4614,47.674],[36.4598,47.671],[36.4587,47.6675],[36.4608,47.6643],[36.4698,47.664],[36.4764,47.6648],[36.4847,47.6658],[36.4901,47.6677],[36.4899,47.6734],[36.4892,47.6791],[36.488,47.6845],[36.489,47.6886],[36.495,47.6879],[36.5006,47.6862],[36.5111,47.6834],[36.5301,47.6757],[36.5382,47.6689],[36.5552,47.6728]]]}},{"type":"Feature","properties":{"s":"unknown"},"geometry":{"type":"Polygon","coordinates":[[[32.1251,46.6799],[32.1182,46.631],[32.0423,46.6409],[32.0147,46.6386],[32.0023,46.6408],[32.0216,46.6271],[32.0367,46.6229],[32.0491,46.6168],[32.0632,46.6144],[32.0881,46.6168],[32.1064,46.6115],[32.1199,46.5967],[32.1858,46.6012],[32.1704,46.6788],[32.1251,46.6799]]]}},{"type":"Feature","properties":{"s":"unknown"},"geometry":{"type":"Polygon","coordinates":[[[36.611,47.786],[36.6065,47.7737],[36.6581,47.7763],[36.66,47.7841],[36.6458,47.7903],[36.611,47.786]]]}},{"type":"Feature","properties":{"s":"unknown"},"geometry":{"type":"Polygon","coordinates":[[[38.1788,48.6673],[38.1985,48.6749],[38.2787,48.6784],[38.2894,48.7027],[38.2988,48.7713],[38.3211,48.7693],[38.3387,48.7613],[38.3549,48.705],[38.3565,48.6936],[38.3637,48.681],[38.3905,48.6788],[38.4163,48.7119],[38.4599,48.7095],[38.4452,48.655],[38.4644,48.6564],[38.4802,48.6591],[38.4967,48.6632],[38.4819,48.6994],[38.463,48.7192],[38.3995,48.7352],[38.3628,48.7318],[38.3502,48.783],[38.306,48.7928],[38.2515,48.745],[38.1365,48.6851],[38.1373,48.6734],[38.1218,48.6617],[38.1109,48.6216],[38.1509,48.5537],[38.2221,48.4752],[38.2581,48.4726],[38.2621,48.467],[38.2719,48.4678],[38.2727,48.4793],[38.2752,48.4805],[38.2776,48.48],[38.2866,48.4881],[38.2878,48.4951],[38.2799,48.5],[38.2396,48.5106],[38.2241,48.4985],[38.1972,48.5246],[38.2018,48.548],[38.1808,48.5716],[38.1697,48.5849],[38.1834,48.6588],[38.1788,48.6673]]]}},{"type":"Feature","properties":{"s":"unknown"},"geometry":{"type":"Polygon","coordinates":[[[37.3889,49.0222],[37.4861,49.0371],[37.4776,49.0701],[37.4764,49.0713],[37.4698,49.0777],[37.4697,49.0777],[37.4642,49.0769],[37.4378,49.0431],[37.3889,49.0222]]]}},{"type":"Feature","properties":{"s":"unknown"},"geometry":{"type":"Polygon","coordinates":[[[37.7562,48.2385],[37.7644,48.2274],[37.7996,48.2194],[37.8078,48.1849],[37.829,48.2042],[37.8228,48.2307],[37.8125,48.238],[37.7562,48.2385]]]}},{"type":"Feature","properties":{"s":"unknown"},"geometry":{"type":"Polygon","coordinates":[[[32.8416,47.0937],[32.8115,47.0975],[32.7219,47.0993],[32.6947,47.0958],[32.6953,47.0678],[32.7585,47.0674],[32.7901,47.0683],[32.8416,47.0937]]]}},{"type":"Feature","properties":{"s":"unknown"},"geometry":{"type":"Polygon","coordinates":[[[33.4989,47.512],[33.5078,47.4988],[33.5544,47.5051],[33.5461,47.5181],[33.4989,47.512]]]}},{"type":"Feature","properties":{"s":"unknown"},"geometry":{"type":"Polygon","coordinates":[[[36.5375,47.7166],[36.5058,47.7216],[36.5092,47.712],[36.4981,47.7104],[36.4943,47.7001],[36.4941,47.6931],[36.5133,47.6875],[36.546,47.675],[36.5552,47.6728],[36.5375,47.7166]]]}},{"type":"Feature","properties":{"s":"unknown"},"geometry":{"type":"Polygon","coordinates":[[[38.5771,48.9275],[38.56,48.9213],[38.5477,48.9194],[38.5567,48.9058],[38.5622,48.8869],[38.5876,48.8891],[38.588,48.9059],[38.5784,48.9094],[38.5736,48.916],[38.5771,48.9275]]]}},{"type":"Feature","properties":{"s":"unknown"},"geometry":{"type":"Polygon","coordinates":[[[38.4897,48.9561],[38.4873,48.9599],[38.488,48.9644],[38.4814,48.9671],[38.4716,48.9689],[38.4641,48.9686],[38.462,48.9663],[38.4633,48.9646],[38.4662,48.9659],[38.4719,48.966],[38.4735,48.9657],[38.4749,48.965],[38.4775,48.9624],[38.4786,48.9623],[38.482,48.9565],[38.4829,48.9565],[38.4839,48.9547],[38.4797,48.9536],[38.4886,48.9387],[38.4967,48.9408],[38.501,48.9337],[38.5075,48.9306],[38.5121,48.9323],[38.511,48.9338],[38.5113,48.9347],[38.5152,48.943],[38.5109,48.9437],[38.5088,48.9438],[38.5068,48.9434],[38.5051,48.9463],[38.4967,48.9442],[38.4956,48.9461],[38.4939,48.9458],[38.488,48.9557],[38.4897,48.9561]]]}},{"type":"Feature","properties":{"s":"unknown"},"geometry":{"type":"Polygon","coordinates":[[[36.2857,50.299],[36.2381,50.2775],[36.2075,50.2745],[36.1985,50.2785],[36.1784,50.2895],[36.1425,50.285],[36.1579,50.2585],[36.2087,50.2548],[36.2102,50.2448],[36.2366,50.2455],[36.2662,50.2423],[36.2826,50.2329],[36.3187,50.2489],[36.3205,50.2825],[36.3286,50.2898],[36.2969,50.2919],[36.2857,50.299]]]}},{"type":"Feature","properties":{"s":"unknown"},"geometry":{"type":"Polygon","coordinates":[[[36.2655,50.1953],[36.2579,50.195],[36.2588,50.1816],[36.2717,50.1845],[36.2731,50.188],[36.2752,50.1903],[36.2727,50.1933],[36.2655,50.1953]]]}},{"type":"Feature","properties":{"s":"unknown"},"geometry":{"type":"Polygon","coordinates":[[[36.8502,50.1645],[36.8424,50.1782],[36.8353,50.1643],[36.8502,50.1645]]]}},{"type":"Feature","properties":{"s":"unknown"},"geometry":{"type":"Polygon","coordinates":[[[36.8502,50.1645],[36.8353,50.1643],[36.8366,50.1524],[36.8236,50.1458],[36.8191,50.1189],[36.8193,50.1106],[36.8127,50.1004],[36.8187,50.0825],[36.8251,50.0768],[36.8336,50.0731],[36.8342,50.0697],[36.8324,50.0665],[36.8141,50.0631],[36.8113,50.0582],[36.8147,50.0398],[36.8188,50.0365],[36.8246,50.0351],[36.821,50.0315],[36.8256,50.0284],[36.834,50.0227],[36.8612,50.0187],[36.8828,50.0098],[36.8925,50.0069],[36.8974,49.998],[36.9144,49.998],[36.9222,49.9957],[36.9295,49.9958],[36.9294,49.9929],[36.927,49.99],[36.9177,49.9929],[36.9115,49.9911],[36.9086,49.9886],[36.9087,49.9857],[36.9045,49.9806],[36.8989,49.9776],[36.8895,49.9771],[36.8926,49.9749],[36.898,49.9733],[36.9005,49.9694],[36.9079,49.9649],[36.909,49.9586],[36.903,49.9548],[36.9056,49.9512],[36.9138,49.9508],[36.92,49.9539],[36.9253,49.9533],[36.9357,49.9493],[36.9403,49.9544],[36.9453,49.9595],[36.953,49.9554],[36.9565,49.951],[36.9576,49.9463],[36.9527,49.9417],[36.9491,49.934],[36.9612,49.929],[36.9729,49.9264],[36.9879,49.9256],[37.0028,49.9215],[37.0091,49.9164],[37.0104,49.912],[37.0086,49.9072],[36.9983,49.9024],[36.9905,49.8924],[37.0029,49.8424],[37.0059,49.8298],[37.0157,49.8394],[37.0165,49.8559],[37.0611,49.8902],[36.9058,50.0764],[36.8804,50.1083],[36.8502,50.1645]]]}},{"type":"Feature","properties":{"s":"occupied"},"geometry":{"type":"Polygon","coordinates":[[[38.5114,48.9544],[38.5072,48.961],[38.5035,48.9636],[38.488,48.9644],[38.4873,48.9599],[38.4897,48.9561],[38.488,48.9557],[38.4939,48.9458],[38.4956,48.9461],[38.4967,48.9442],[38.5051,48.9463],[38.5068,48.9434],[38.5088,48.9438],[38.5109,48.9437],[38.5152,48.943],[38.5113,48.9347],[38.511,48.9338],[38.5134,48.9336],[38.519,48.9322],[38.5259,48.9299],[38.5338,48.9301],[38.5351,48.9316],[38.5363,48.9373],[38.5447,48.937],[38.5456,48.9399],[38.5542,48.9403],[38.5576,48.9446],[38.538,48.9486],[38.528,48.9506],[38.5195,48.9524],[38.5159,48.9529],[38.5114,48.9544]]]}},{"type":"Feature","properties":{"s":"occupied"},"geometry":{"type":"Polygon","coordinates":[[[38.3553,49.0541],[38.3449,49.047],[38.3404,49.0426],[38.3345,49.0329],[38.3315,49.0244],[38.3377,49.0178],[38.3386,49.016],[38.3419,49.011],[38.346,49.0074],[38.3452,49.0057],[38.3438,49.0042],[38.3426,49.0019],[38.3412,49.0007],[38.3479,48.998],[38.3507,48.9958],[38.3527,48.9936],[38.3537,48.9915],[38.3568,48.9907],[38.358,48.9897],[38.3596,48.9893],[38.3629,48.989],[38.3666,48.9874],[38.3691,48.9852],[38.3694,48.9814],[38.3767,48.9773],[38.3825,48.9731],[38.3843,48.9714],[38.3863,48.9699],[38.392,48.9661],[38.3931,48.9655],[38.3943,48.9649],[38.3956,48.964],[38.3968,48.9628],[38.3977,48.9618],[38.3991,48.9607],[38.3998,48.9591],[38.4017,48.9619],[38.4031,48.9624],[38.4039,48.9626],[38.4042,48.9629],[38.4026,48.9645],[38.403,48.9655],[38.4043,48.9662],[38.4061,48.9662],[38.408,48.9665],[38.409,48.967],[38.4093,48.9676],[38.4097,48.9678],[38.4103,48.9676],[38.4108,48.967],[38.4116,48.9665],[38.4128,48.9662],[38.4132,48.9661],[38.4134,48.9661],[38.4133,48.9669],[38.4142,48.967],[38.415,48.9668],[38.4158,48.9662],[38.417,48.966],[38.4175,48.966],[38.4178,48.9663],[38.4175,48.9667],[38.4167,48.9669],[38.4163,48.9677],[38.4165,48.9681],[38.4181,48.9682],[38.4188,48.9685],[38.4193,48.9685],[38.42,48.9682],[38.42,48.9678],[38.4203,48.9676],[38.421,48.9676],[38.4221,48.968],[38.4222,48.9684],[38.4226,48.9688],[38.4223,48.969],[38.4254,48.9763],[38.4241,48.9814],[38.4337,48.9933],[38.4443,49.0031],[38.4326,49.0105],[38.4242,49.0156],[38.42,49.0294],[38.4068,49.0362],[38.3553,49.0541]]]}},{"type":"Feature","properties":{"s":"occupied"},"geometry":{"type":"Polygon","coordinates":[[[30.1991,45.2687],[30.1845,45.2535],[30.2092,45.2429],[30.2242,45.257],[30.1991,45.2687]]]}},{"type":"Feature","properties":{"s":"occupied"},"geometry":{"type":"Polygon","coordinates":[[[37.8562,48.1928],[37.8833,48.1997],[37.8966,48.2154],[37.8929,48.2336],[37.8916,48.2551],[37.8953,48.2685],[37.8882,48.2836],[37.8902,48.2992],[37.8697,48.2819],[37.8423,48.2833],[37.8217,48.2899],[37.7995,48.278],[37.8004,48.2723],[37.7773,48.2703],[37.7497,48.2609],[37.7562,48.2385],[37.8125,48.238],[37.8228,48.2307],[37.829,48.2042],[37.8078,48.1849],[37.8103,48.1554],[37.8095,48.1524],[37.8199,48.1439],[37.8246,48.1578],[37.8286,48.1752],[37.8562,48.1928]]]}},{"type":"Feature","properties":{"s":"occupied"},"geometry":{"type":"Polygon","coordinates":[[[38.4025,48.5573],[38.402,48.5615],[38.402,48.5748],[38.4026,48.581],[38.4026,48.5919],[38.4061,48.6019],[38.4048,48.6091],[38.4047,48.6169],[38.4088,48.6296],[38.4143,48.6383],[38.4198,48.645],[38.4315,48.6505],[38.4452,48.655],[38.4599,48.7095],[38.4163,48.7119],[38.3905,48.6788],[38.3637,48.681],[38.3565,48.6936],[38.3549,48.705],[38.3387,48.7613],[38.3211,48.7693],[38.2988,48.7713],[38.2939,48.734],[38.2906,48.7102],[38.2894,48.7027],[38.2787,48.6784],[38.1985,48.6749],[38.1788,48.6673],[38.1834,48.6588],[38.1697,48.5849],[38.1808,48.5716],[38.2018,48.548],[38.1972,48.5246],[38.2241,48.4985],[38.2396,48.5106],[38.2799,48.5],[38.2878,48.4951],[38.2866,48.4873],[38.2776,48.48],[38.2752,48.4805],[38.2727,48.4793],[38.2719,48.4678],[38.2621,48.467],[38.2581,48.4726],[38.2221,48.4752],[38.2121,48.4712],[38.2182,48.4618],[38.1951,48.4203],[38.1309,48.3879],[38.1501,48.3854],[38.1848,48.3749],[38.2074,48.3715],[38.215,48.369],[38.2277,48.3672],[38.2591,48.3598],[38.2737,48.3592],[38.2907,48.3616],[38.3218,48.3711],[38.3558,48.3911],[38.391,48.4159],[38.3892,48.4323],[38.393,48.4366],[38.4054,48.4734],[38.4116,48.5106],[38.4143,48.5206],[38.4026,48.5479],[38.4025,48.5573]]]}},{"type":"Feature","properties":{"s":"occupied"},"geometry":{"type":"Polygon","coordinates":[[[35.3438,46.35],[35.3437,46.348],[35.3335,46.3355],[35.3174,46.3169],[35.3036,46.3162],[35.2988,46.3148],[35.2986,46.3099],[35.2954,46.3076],[35.2933,46.3081],[35.294,46.3024],[35.299,46.2989],[35.2894,46.2855],[35.2553,46.251],[35.2211,46.2268],[35.209,46.1903],[35.1356,46.1663],[35.0331,46.1499],[35.0185,46.1302],[34.9894,46.11],[34.9806,46.089],[34.977,46.0709],[35.0709,46.0957],[35.1518,46.1215],[35.1955,46.1473],[35.2282,46.202],[35.2755,46.2555],[35.3476,46.3403],[35.3573,46.3527],[35.3696,46.3643],[35.3788,46.3733],[35.3825,46.3789],[35.3713,46.371],[35.3438,46.35]]]}},{"type":"Feature","properties":{"s":"occupied"},"geometry":{"type":"Polygon","coordinates":[[[35.3334,46.3582],[35.3418,46.361],[35.3483,46.3634],[35.3534,46.3643],[35.3569,46.3634],[35.3586,46.3618],[35.3713,46.371],[35.3768,46.3752],[35.4348,46.4153],[35.6146,46.4997],[35.7703,46.6018],[35.9364,46.6585],[36.0834,46.6584],[36.1899,46.6669],[36.229,46.6504],[36.2599,46.6185],[36.2481,46.5921],[36.2192,46.5647],[36.1908,46.5346],[36.1665,46.5276],[36.1583,46.54],[36.153,46.5432],[36.1497,46.5146],[36.1154,46.4988],[36.0923,46.489],[36.1188,46.485],[36.1672,46.4951],[36.2695,46.6056],[36.3871,46.7169],[36.4958,46.7475],[36.6156,46.7732],[36.6472,46.7806],[36.7056,46.7775],[36.7464,46.7655],[36.7811,46.7488],[36.8105,46.7279],[36.8221,46.7018],[36.8013,46.707],[36.7907,46.6747],[36.7783,46.6635],[36.761,46.6657],[36.7423,46.6372],[36.7593,46.6185],[36.8027,46.6607],[36.838,46.7056],[36.8458,46.724],[36.8557,46.742],[36.8685,46.7656],[36.8859,46.7893],[36.9043,46.8056],[36.9295,46.8284],[36.9589,46.8475],[36.9931,46.8623],[37.0193,46.8667],[37.2356,46.951],[37.2972,46.9272],[37.3189,46.8962],[37.2925,46.8745],[37.2886,46.8705],[37.3077,46.8658],[37.4815,47.0322],[37.5122,47.0645],[37.5376,47.0818],[37.5837,47.0874],[37.5805,47.0817],[37.5862,47.0785],[37.5993,47.083],[37.6083,47.084],[37.6195,47.0872],[37.6243,47.091],[37.6269,47.0944],[37.6296,47.0948],[37.6322,47.0946],[37.6337,47.0932],[37.6345,47.0931],[37.6352,47.094],[37.6664,47.0863],[37.6709,47.0852],[37.6705,47.0818],[37.6758,47.0778],[37.6821,47.0771],[37.6851,47.0781],[37.6872,47.0811],[37.6983,47.0798],[37.7138,47.0803],[37.7395,47.0834],[37.7677,47.0886],[37.794,47.0847],[37.8149,47.0895],[37.8176,47.1012],[37.8163,47.1098],[37.8181,47.1191],[37.8256,47.1333],[37.8297,47.1462],[37.8366,47.1569],[37.8445,47.1658],[37.85,47.1742],[37.8514,47.1989],[37.8472,47.2139],[37.8414,47.2269],[37.8335,47.2493],[37.8334,47.2603],[37.8342,47.2761],[37.8338,47.2854],[37.8301,47.2959],[37.8277,47.3026],[37.8349,47.3082],[37.8318,47.315],[37.8246,47.3215],[37.8273,47.3285],[37.8279,47.3355],[37.8293,47.3425],[37.8445,47.342],[37.8568,47.3436],[37.8612,47.3479],[37.8592,47.3544],[37.8486,47.3501],[37.8376,47.3524],[37.8421,47.3587],[37.8516,47.3655],[37.8416,47.369],[37.8383,47.378],[37.8503,47.3843],[37.8568,47.3929],[37.8558,47.4031],[37.8637,47.4266],[37.8785,47.4417],[37.8926,47.4698],[37.8194,47.5463],[37.8084,47.5618],[37.7823,47.5859],[37.7772,47.6158],[37.7686,47.6354],[37.8019,47.6424],[37.804,47.6602],[37.7645,47.6847],[37.7185,47.7072],[37.6727,47.7247],[37.6376,47.752],[37.6232,47.7731],[37.6345,47.8025],[37.6343,47.8384],[37.633,47.846],[37.6349,47.8526],[37.6349,47.8558],[37.6356,47.8602],[37.6389,47.8678],[37.6409,47.8706],[37.6425,47.8737],[37.644,47.881],[37.644,47.8866],[37.63,47.8931],[37.5963,47.9032],[37.5759,47.9077],[37.5774,47.8641],[37.5271,47.8442],[37.533,47.8181],[37.5092,47.7832],[37.4517,47.7685],[37.3893,47.7481],[37.3578,47.7496],[37.3354,47.7554],[37.2972,47.7625],[37.2808,47.7554],[37.2675,47.7528],[37.2456,47.7556],[37.2205,47.7612],[37.2035,47.764],[37.1966,47.7659],[37.1763,47.7694],[37.1725,47.7698],[37.1487,47.7456],[37.0535,47.7435],[36.9645,47.7634],[36.9319,47.7747],[36.9039,47.7867],[36.888,47.7952],[36.8735,47.8053],[36.8361,47.8152],[36.8202,47.8216],[36.8008,47.8215],[36.787,47.8083],[36.7906,47.7988],[36.7879,47.7965],[36.7812,47.7931],[36.7696,47.7804],[36.7325,47.7804],[36.722,47.789],[36.7079,47.792],[36.6945,47.7924],[36.66,47.7841],[36.6581,47.7763],[36.6065,47.7737],[36.5375,47.7166],[36.5552,47.6729],[36.5141,47.6635],[36.4448,47.6501],[36.3683,47.6314],[36.288,47.6053],[36.1066,47.5891],[36.0788,47.5253],[36.0334,47.5163],[36.0139,47.5102],[35.9733,47.5157],[35.9255,47.5094],[35.868,47.509],[35.7979,47.5154],[35.6995,47.5285],[35.6433,47.5139],[35.5074,47.5136],[35.5048,47.5504],[35.4581,47.544],[35.395,47.5208],[35.395,47.5208],[35.3603,47.4995],[35.3101,47.4923],[35.279,47.5012],[35.2743,47.4941],[35.284,47.4711],[35.2732,47.4558],[35.2649,47.4544],[35.2711,47.4719],[35.2663,47.4732],[35.2492,47.4675],[35.2026,47.4449],[35.1487,47.4455],[35.0775,47.4532],[35.059,47.4472],[35.0446,47.4376],[35.0165,47.4114],[34.9687,47.3891],[34.9284,47.3926],[34.8809,47.4088],[34.8619,47.4207],[34.8723,47.4365],[34.8718,47.4494],[34.8599,47.4511],[34.8252,47.4647],[34.7923,47.4676],[34.7472,47.493],[34.7357,47.4908],[34.709,47.4904],[34.6864,47.4928],[34.6802,47.5106],[34.6595,47.5266],[34.6441,47.5419],[34.6284,47.5457],[34.618,47.5443],[34.606,47.5374],[34.599,47.5345],[34.5862,47.5217],[34.5445,47.5326],[34.5331,47.5303],[34.5014,47.4985],[34.4358,47.4968],[34.3869,47.5137],[34.3728,47.5105],[34.3638,47.4937],[34.3396,47.468],[34.3349,47.4469],[34.2961,47.4285],[34.2697,47.4394],[34.1993,47.412],[34.1457,47.4243],[34.1183,47.4204],[34.0649,47.4242],[34.0467,47.4175],[34.0399,47.4024],[34.0196,47.3579],[33.9826,47.2282],[33.9098,47.1701],[33.8532,47.1397],[33.8408,47.0984],[33.8023,47.0589],[33.7227,47.0172],[33.6977,46.995],[33.6973,46.9622],[33.6898,46.9214],[33.6784,46.9008],[33.6577,46.9035],[33.6338,46.8994],[33.6342,46.8822],[33.634,46.8661],[33.6023,46.8277],[33.5235,46.8231],[33.4643,46.8182],[33.377,46.7748],[33.3692,46.7821],[33.359,46.7856],[33.3566,46.7826],[33.3567,46.782],[33.369,46.7708],[33.3592,46.7656],[33.3249,46.7545],[33.2866,46.7488],[33.2571,46.7555],[33.2238,46.7674],[33.1988,46.7689],[33.1439,46.7602],[33.0015,46.7182],[32.9214,46.712],[32.8622,46.6985],[32.8451,46.6889],[32.826,46.68],[32.8154,46.6769],[32.8028,46.676],[32.7864,46.6702],[32.7729,46.6672],[32.7589,46.6655],[32.7318,46.6647],[32.7211,46.6655],[32.7199,46.6658],[32.714,46.6654],[32.7018,46.6629],[32.6593,46.6502],[32.6159,46.6173],[32.5918,46.5945],[32.5804,46.5786],[32.5525,46.5562],[32.5334,46.5373],[32.5099,46.5412],[32.4183,46.4856],[32.4116,46.4829],[32.3994,46.4746],[32.3587,46.4651],[32.3272,46.4658],[32.2594,46.4777],[32.1867,46.486],[32.1566,46.4927],[32.1216,46.4984],[32.0784,46.4998],[32.044,46.4914],[32.0027,46.4915],[31.9109,46.5166],[31.8777,46.5191],[31.8611,46.5158],[31.8043,46.529],[31.7544,46.5477],[31.6977,46.5449],[31.669,46.5363],[31.6315,46.5404],[31.6004,46.5377],[31.5811,46.5362],[31.5541,46.5453],[31.5305,46.5575],[31.513,46.5805],[31.5113,46.5765],[31.5216,46.5615],[31.5538,46.5361],[31.6085,46.5057],[31.6559,46.4717],[31.6919,46.4686],[31.7414,46.4891],[31.7987,46.4796],[31.8969,46.4576],[31.9528,46.4373],[31.9748,46.4391],[32.0022,46.4533],[32.029,46.4374],[32.0356,46.4164],[32.0585,46.3936],[32.0497,46.3834],[32.0255,46.3854],[32.0219,46.3823],[32.0091,46.364],[31.9758,46.348],[31.9439,46.3428],[31.9052,46.3395],[31.8655,46.3333],[31.8386,46.3356],[31.7727,46.3223],[31.7473,46.3005],[31.7477,46.298],[31.7564,46.2955],[31.7573,46.2951],[31.768,46.2964],[31.7745,46.2938],[31.7712,46.2887],[31.7755,46.2853],[31.7751,46.2821],[31.7821,46.2767],[31.7833,46.2724],[31.7772,46.268],[31.7796,46.2643],[31.7844,46.2656],[31.7845,46.2687],[31.7917,46.2738],[31.7964,46.2735],[31.8097,46.272],[31.8144,46.2693],[31.8132,46.2646],[31.8183,46.2642],[31.8347,46.266],[31.8331,46.2697],[31.8352,46.2727],[31.8477,46.2682],[31.8507,46.2681],[31.852,46.2705],[31.863,46.272],[31.8708,46.2657],[31.874,46.2651],[31.8833,46.2733],[31.8951,46.2806],[31.9041,46.2963],[31.9364,46.2907],[31.9437,46.2854],[31.9565,46.2654],[31.9591,46.2652],[31.9695,46.2571],[32.0286,46.2451],[32.0514,46.2497],[32.0778,46.2388],[32.0878,46.2213],[32.1265,46.203],[32.166,46.1968],[32.187,46.1755],[32.2061,46.1721],[32.2068,46.1753],[32.2081,46.1867],[32.2218,46.1876],[32.2399,46.1784],[32.2259,46.17],[32.2288,46.1665],[32.2367,46.15],[32.2304,46.1394],[32.2262,46.1324],[32.2478,46.1245],[32.5347,46.0653],[32.7102,46.1027],[32.9126,46.1022],[33.1775,46.1204],[33.2992,46.0701],[33.4289,46.0272],[33.5148,46.0271],[33.4967,46.0702],[33.5637,46.0746],[33.5248,46.1156],[33.5573,46.1221],[33.5737,46.1256],[33.608,46.1476],[33.6897,46.2042],[33.6971,46.2033],[33.7079,46.2002],[33.7146,46.1968],[33.7248,46.1916],[33.7359,46.1859],[33.7386,46.1852],[33.7405,46.185],[33.7299,46.171],[33.7293,46.1691],[33.7262,46.1667],[33.7253,46.1649],[33.7263,46.1617],[33.7266,46.1579],[33.7281,46.1552],[33.7351,46.1499],[33.7356,46.1471],[33.7409,46.1441],[33.7475,46.1379],[33.7495,46.1375],[33.7549,46.1407],[33.8239,46.187],[34.0383,46.1168],[34.1226,46.108],[34.1608,46.0803],[34.2253,46.0638],[34.3825,46.0346],[34.4785,45.9468],[34.556,45.9886],[34.6514,45.9738],[34.7009,45.9591],[34.84,45.8737],[34.8159,45.8357],[34.8251,45.8112],[34.8674,45.8292],[34.8707,45.8468],[34.8751,45.8555],[34.8856,45.8633],[34.9004,45.8581],[34.9353,45.8054],[34.9404,45.7873],[34.9456,45.7803],[34.9555,45.7674],[34.9493,45.7628],[34.9582,45.7599],[34.9681,45.7622],[34.9732,45.7636],[34.977,45.7652],[34.8922,45.8987],[34.8525,46.0091],[34.8346,46.1154],[34.8293,46.2041],[34.8996,46.2382],[35.0215,46.2584],[35.0522,46.2669],[35.0768,46.2785],[35.1021,46.3005],[35.1124,46.3102],[35.1176,46.3222],[35.1274,46.3419],[35.1395,46.3516],[35.1621,46.3587],[35.1754,46.3633],[35.1852,46.3696],[35.1901,46.3713],[35.1997,46.3814],[35.2574,46.3758],[35.2631,46.3656],[35.2664,46.3535],[35.2695,46.356],[35.2747,46.356],[35.2903,46.3572],[35.3019,46.3556],[35.3054,46.3542],[35.308,46.3495],[35.3088,46.3484],[35.314,46.345],[35.318,46.3403],[35.3185,46.335],[35.3175,46.3315],[35.3218,46.3332],[35.3334,46.3582]]]}},{"type":"Feature","properties":{"s":"occupied"},"geometry":{"type":"Polygon","coordinates":[[[32.4242,46.5677],[32.4242,46.5677],[32.4242,46.5677],[32.4242,46.5677]]]}},{"type":"Feature","properties":{"s":"occupied"},"geometry":{"type":"Polygon","coordinates":[[[33.9028,47.2324],[33.9139,47.2449],[33.9186,47.2722],[33.967,47.3051],[33.9758,47.356],[33.9749,47.3872],[33.9571,47.4182],[33.9095,47.4217],[33.8766,47.4342],[33.8355,47.4341],[33.7755,47.424],[33.7232,47.4201],[33.7212,47.4308],[33.634,47.4392],[33.6146,47.4498],[33.5961,47.4966],[33.5542,47.5051],[33.5078,47.4988],[33.5122,47.4918],[33.4643,47.4848],[33.4293,47.4776],[33.3968,47.475],[33.3848,47.4771],[33.3709,47.4822],[33.3544,47.4665],[33.3699,47.4555],[33.3764,47.4598],[33.3827,47.4602],[33.387,47.4588],[33.39,47.4508],[33.3933,47.4434],[33.3962,47.4301],[33.4022,47.4217],[33.3944,47.4164],[33.3765,47.3972],[33.3661,47.3747],[33.3234,47.3589],[33.2907,47.3606],[33.2882,47.3552],[33.2884,47.3535],[33.2909,47.3521],[33.2906,47.3498],[33.283,47.3451],[33.2863,47.3391],[33.2995,47.3313],[33.299,47.3297],[33.2973,47.3288],[33.2939,47.33],[33.2923,47.3287],[33.2964,47.3257],[33.2878,47.3219],[33.2759,47.3245],[33.2652,47.3286],[33.2555,47.3356],[33.252,47.3352],[33.2458,47.3306],[33.2406,47.3253],[33.2321,47.3216],[33.2347,47.314],[33.2445,47.3078],[33.2537,47.3056],[33.2608,47.305],[33.2698,47.3072],[33.2743,47.3043],[33.2741,47.2968],[33.2635,47.289],[33.2586,47.2875],[33.2521,47.289],[33.2354,47.2899],[33.2277,47.2922],[33.2196,47.2902],[33.203,47.2766],[33.2035,47.237],[33.2231,47.2144],[33.1948,47.1974],[33.1678,47.2026],[33.1127,47.1527],[33.0806,47.1426],[33.0538,47.1443],[33.031,47.1671],[33.039,47.1785],[33.0251,47.1763],[33.0122,47.182],[33.0127,47.1886],[33.0063,47.196],[33.0035,47.1963],[33.0012,47.1957],[33.0003,47.1944],[33.0002,47.1925],[33.0041,47.1914],[33.0022,47.1893],[32.9953,47.1906],[32.9913,47.1893],[32.9905,47.1801],[32.996,47.1675],[32.9935,47.1656],[32.9873,47.168],[32.9906,47.1582],[32.993,47.1565],[32.9939,47.1539],[32.9919,47.1531],[32.9861,47.1558],[32.9847,47.1544],[32.985,47.1518],[32.9914,47.1511],[33.0044,47.1331],[32.9946,47.1235],[32.982,47.1201],[32.9664,47.1159],[32.9511,47.1167],[32.9505,47.1141],[32.9572,47.1104],[32.9723,47.1075],[32.9736,47.1013],[32.9699,47.0975],[32.9643,47.097],[32.959,47.0982],[32.949,47.1059],[32.9445,47.106],[32.939,47.1031],[32.9331,47.0868],[32.9262,47.0835],[32.9185,47.0852],[32.9117,47.0889],[32.9086,47.097],[32.9136,47.1047],[32.9063,47.1108],[32.8938,47.1133],[32.8898,47.1062],[32.8983,47.0891],[32.8792,47.0797],[32.8416,47.0937],[32.7901,47.0683],[32.7585,47.0674],[32.723,47.0676],[32.6951,47.0678],[32.6857,47.0678],[32.6695,47.0668],[32.653,47.0665],[32.6389,47.0657],[32.6233,47.0632],[32.6102,47.0605],[32.6056,47.0595],[32.5971,47.0582],[32.539,47.0476],[32.5326,47.0344],[32.5195,47.0149],[32.4872,46.9981],[32.4764,46.9847],[32.4226,46.959],[32.4059,46.8976],[32.3613,46.8964],[32.354,46.8799],[32.3567,46.8669],[32.3612,46.8562],[32.3637,46.8319],[32.3141,46.798],[32.3043,46.7772],[32.2449,46.7704],[32.2174,46.7496],[32.1873,46.7472],[32.1657,46.7021],[32.1856,46.6012],[32.1197,46.5967],[32.1386,46.5569],[32.1846,46.5753],[32.209,46.5762],[32.2464,46.5923],[32.2594,46.5904],[32.2786,46.581],[32.3205,46.5534],[32.4242,46.5677],[32.4302,46.5602],[32.4488,46.5632],[32.468,46.5712],[32.4767,46.583],[32.5114,46.5964],[32.5439,46.5956],[32.5607,46.5981],[32.5791,46.5971],[32.5897,46.6025],[32.6372,46.6383],[32.6544,46.653],[32.6618,46.6566],[32.6714,46.6599],[32.6724,46.6598],[32.6759,46.661],[32.6798,46.6621],[32.6842,46.6629],[32.6949,46.6665],[32.7002,46.6681],[32.7056,46.6693],[32.7073,46.6702],[32.709,46.6706],[32.7094,46.6717],[32.7105,46.672],[32.7098,46.6704],[32.7111,46.6709],[32.7144,46.6723],[32.7177,46.6736],[32.7191,46.674],[32.7199,46.6658],[32.7211,46.6655],[32.7206,46.6702],[32.7204,46.6741],[32.7213,46.6747],[32.7238,46.6749],[32.7264,46.6753],[32.7294,46.6751],[32.7298,46.6755],[32.7313,46.6755],[32.7352,46.6753],[32.7364,46.6755],[32.7374,46.6751],[32.7385,46.6749],[32.7388,46.6745],[32.7406,46.6745],[32.7412,46.6748],[32.7502,46.6733],[32.7581,46.6726],[32.7679,46.6727],[32.7776,46.6733],[32.7832,46.674],[32.7932,46.6766],[32.8026,46.6803],[32.8121,46.6844],[32.8136,46.6834],[32.8182,46.6842],[32.8345,46.6906],[32.838,46.6942],[32.8697,46.7075],[32.9422,46.7397],[33.0136,46.742],[33.0459,46.7467],[33.0949,46.7689],[33.156,46.7885],[33.2298,46.7866],[33.3091,46.7741],[33.3293,46.7799],[33.3511,46.7791],[33.3534,46.7796],[33.3567,46.782],[33.3566,46.7826],[33.359,46.7856],[33.3591,46.7869],[33.362,46.7892],[33.3654,46.7914],[33.3805,46.8051],[33.4122,46.8297],[33.4418,46.8417],[33.4698,46.8468],[33.5086,46.8581],[33.5905,46.8538],[33.599,46.8942],[33.5953,46.9345],[33.655,46.985],[33.662,46.9998],[33.6573,47.0484],[33.7499,47.092],[33.7639,47.098],[33.7872,47.1308],[33.7817,47.1787],[33.7897,47.1836],[33.8249,47.196],[33.8548,47.2072],[33.8656,47.2096],[33.8847,47.22],[33.9028,47.2324]]]}},{"type":"Feature","properties":{"s":"occupied"},"geometry":{"type":"Polygon","coordinates":[[[38.4242,49.0156],[38.4443,49.0031],[38.4337,48.9933],[38.4241,48.9814],[38.4254,48.9763],[38.4223,48.969],[38.4239,48.9692],[38.4255,48.9687],[38.4273,48.9692],[38.4348,48.9692],[38.4377,48.9692],[38.44,48.9706],[38.4416,48.9697],[38.4424,48.9681],[38.4493,48.9689],[38.4561,48.967],[38.4641,48.9686],[38.4716,48.9689],[38.4814,48.9671],[38.488,48.9644],[38.5005,48.9638],[38.5035,48.9636],[38.5072,48.961],[38.5114,48.9544],[38.5159,48.9529],[38.5195,48.9524],[38.528,48.9506],[38.5576,48.9446],[38.5542,48.9403],[38.5456,48.9399],[38.5447,48.937],[38.5575,48.9366],[38.5639,48.9349],[38.5775,48.9331],[38.5771,48.9275],[38.5736,48.916],[38.5784,48.9094],[38.588,48.9059],[38.5876,48.8891],[38.6035,48.869],[38.5881,48.8437],[38.5446,48.7879],[38.5476,48.7463],[38.5334,48.7243],[38.5458,48.702],[38.5594,48.6865],[38.5722,48.6889],[38.5777,48.6966],[38.5784,48.7093],[38.5832,48.7197],[38.6302,48.721],[38.6523,48.7223],[38.6784,48.7235],[38.6745,48.7292],[38.6917,48.7292],[38.7535,48.7183],[38.7671,48.7142],[38.8084,48.7132],[38.8301,48.7169],[38.8361,48.7231],[38.8414,48.7333],[38.8471,48.7427],[38.8562,48.7503],[38.8728,48.7531],[38.892,48.7507],[38.9047,48.7504],[38.9198,48.7455],[38.9331,48.7481],[38.9362,48.7436],[38.9318,48.7363],[38.9446,48.7353],[38.9572,48.7393],[38.9595,48.747],[38.9799,48.7435],[38.9884,48.7349],[38.9966,48.7242],[38.9978,48.7196],[38.9943,48.7157],[38.9889,48.715],[38.9832,48.714],[38.9838,48.7109],[38.9956,48.7123],[38.9978,48.7096],[38.9966,48.7063],[38.9985,48.701],[39.0018,48.6972],[39.0071,48.6968],[39.0137,48.6959],[39.0148,48.6894],[39.0122,48.6833],[39.0177,48.6798],[39.0192,48.6766],[39.0192,48.672],[39.0235,48.6693],[39.0253,48.6667],[39.0266,48.6627],[39.0216,48.6616],[39.0174,48.6629],[39.0096,48.6625],[39.0123,48.6586],[39.0184,48.6568],[39.028,48.6534],[39.0355,48.6481],[39.0445,48.6474],[39.0534,48.6483],[39.0649,48.6502],[39.0707,48.6526],[39.0786,48.6515],[39.0872,48.6517],[39.0975,48.651],[39.104,48.6517],[39.1108,48.6558],[39.119,48.6601],[39.124,48.6613],[39.1288,48.661],[39.1372,48.6604],[39.138,48.6628],[39.1375,48.6655],[39.1384,48.6684],[39.1419,48.6734],[39.1464,48.6769],[39.1525,48.677],[39.1591,48.6768],[39.1686,48.6805],[39.1712,48.6822],[39.176,48.685],[39.1798,48.6925],[39.1838,48.6979],[39.1867,48.7008],[39.1892,48.7022],[39.1914,48.7051],[39.1924,48.7071],[39.1937,48.7076],[39.1959,48.7067],[39.1965,48.7032],[39.1999,48.6995],[39.206,48.6994],[39.2077,48.7014],[39.2106,48.7036],[39.2139,48.7056],[39.2198,48.7068],[39.2238,48.7101],[39.2283,48.7121],[39.2328,48.7123],[39.2361,48.7104],[39.2391,48.7104],[39.2463,48.7137],[39.2486,48.719],[39.2494,48.7244],[39.2545,48.7323],[39.2521,48.7366],[39.2506,48.74],[39.2524,48.7427],[39.2658,48.7431],[39.267,48.7455],[39.2665,48.7486],[39.2657,48.7516],[39.269,48.7546],[39.2743,48.7542],[39.275,48.75],[39.2806,48.7502],[39.2855,48.7518],[39.2852,48.7544],[39.2859,48.7584],[39.2881,48.7609],[39.2932,48.7624],[39.2983,48.7652],[39.3013,48.7685],[39.3024,48.7713],[39.3043,48.7736],[39.3091,48.7753],[39.3143,48.7757],[39.3193,48.7768],[39.3254,48.7755],[39.3259,48.7721],[39.3259,48.7685],[39.3309,48.7675],[39.3378,48.7671],[39.3435,48.7692],[39.3488,48.7695],[39.3531,48.7666],[39.3498,48.7632],[39.3447,48.7612],[39.3421,48.7551],[39.3456,48.7505],[39.3464,48.7471],[39.3493,48.7422],[39.3546,48.7403],[39.3575,48.7359],[39.3562,48.732],[39.3531,48.7288],[39.3535,48.7261],[39.3602,48.7224],[39.3668,48.7211],[39.3713,48.7198],[39.3722,48.7169],[39.3685,48.7155],[39.363,48.7158],[39.3575,48.7145],[39.3541,48.713],[39.3487,48.7132],[39.3454,48.7118],[39.3503,48.7058],[39.3525,48.7007],[39.3586,48.6962],[39.367,48.6913],[39.3793,48.6862],[39.389,48.6843],[39.388,48.6806],[39.3904,48.678],[39.3936,48.6763],[39.401,48.675],[39.4058,48.6735],[39.4111,48.6697],[39.4123,48.6667],[39.4081,48.6624],[39.4071,48.6593],[39.4107,48.6575],[39.4175,48.6593],[39.4372,48.6563],[39.4461,48.6574],[39.4507,48.6554],[39.4513,48.6516],[39.4481,48.6474],[39.4497,48.6427],[39.4506,48.6414],[39.4542,48.6396],[39.4598,48.6396],[39.4639,48.6393],[39.4657,48.6379],[39.4627,48.6328],[39.4631,48.6289],[39.4673,48.6285],[39.4731,48.629],[39.4786,48.629],[39.4857,48.6303],[39.4892,48.6315],[39.494,48.6332],[39.4998,48.634],[39.5026,48.6348],[39.5069,48.6354],[39.5102,48.6353],[39.5128,48.6344],[39.5158,48.6297],[39.512,48.625],[39.5117,48.6217],[39.5163,48.6179],[39.5233,48.6149],[39.527,48.6094],[39.5237,48.606],[39.5225,48.6025],[39.524,48.5985],[39.5314,48.5969],[39.5322,48.5933],[39.5274,48.5918],[39.5252,48.5884],[39.5312,48.5841],[39.5415,48.5841],[39.546,48.5872],[39.5458,48.5922],[39.5477,48.5968],[39.5546,48.5994],[39.5618,48.5984],[39.5657,48.5938],[39.5654,48.5888],[39.5613,48.5847],[39.5681,48.5818],[39.5749,48.5841],[39.5823,48.5888],[39.5932,48.5935],[39.6011,48.5913],[39.605,48.5866],[39.6001,48.5854],[39.5946,48.5809],[39.5943,48.5763],[39.6025,48.5745],[39.6095,48.5749],[39.6148,48.5798],[39.6174,48.5862],[39.6222,48.5867],[39.6304,48.5808],[39.6409,48.5829],[39.6505,48.5853],[39.6699,48.589],[39.6773,48.5874],[39.6863,48.5868],[39.688,48.5869],[39.6873,48.5871],[39.6868,48.5877],[39.6867,48.5895],[39.6861,48.5898],[39.6855,48.59],[39.6839,48.5907],[39.6834,48.5914],[39.6832,48.5921],[39.683,48.5924],[39.68,48.5923],[39.6795,48.592],[39.6796,48.5906],[39.6791,48.5902],[39.6786,48.5901],[39.6777,48.5902],[39.6768,48.5908],[39.6764,48.5913],[39.6757,48.5931],[39.6757,48.5938],[39.6762,48.5944],[39.6768,48.595],[39.6776,48.5954],[39.6779,48.5958],[39.6782,48.5959],[39.6786,48.5958],[39.6789,48.5956],[39.6792,48.5955],[39.6795,48.5955],[39.68,48.5957],[39.6803,48.596],[39.6805,48.5963],[39.6803,48.5967],[39.6801,48.597],[39.6799,48.5972],[39.6795,48.5974],[39.679,48.5977],[39.6786,48.5979],[39.6782,48.5979],[39.6779,48.5979],[39.6767,48.5978],[39.676,48.5974],[39.6754,48.5967],[39.675,48.5965],[39.6745,48.5961],[39.6737,48.5957],[39.6728,48.5955],[39.6718,48.5953],[39.6709,48.5953],[39.6702,48.5955],[39.6694,48.5958],[39.6688,48.5963],[39.6683,48.597],[39.668,48.5979],[39.668,48.5989],[39.6682,48.5997],[39.6681,48.6007],[39.6679,48.6009],[39.668,48.6012],[39.6685,48.6016],[39.6689,48.6021],[39.6698,48.6025],[39.6707,48.6031],[39.6711,48.6036],[39.6708,48.6039],[39.6704,48.6043],[39.6696,48.6046],[39.6685,48.6048],[39.6677,48.6049],[39.6664,48.6049],[39.6658,48.6048],[39.6653,48.6047],[39.6649,48.6046],[39.6643,48.6046],[39.6639,48.6046],[39.6636,48.6047],[39.6633,48.6048],[39.6628,48.6051],[39.6625,48.6052],[39.6622,48.6053],[39.6615,48.6055],[39.6613,48.6057],[39.6611,48.6059],[39.6609,48.6067],[39.6609,48.6068],[39.6607,48.6069],[39.6605,48.6072],[39.6604,48.6074],[39.6604,48.6078],[39.6606,48.6081],[39.6607,48.6084],[39.6606,48.6085],[39.6606,48.6087],[39.6606,48.6089],[39.6606,48.609],[39.6606,48.6091],[39.6608,48.6093],[39.6609,48.6096],[39.6611,48.6099],[39.6612,48.6105],[39.6614,48.6107],[39.6617,48.6109],[39.6622,48.6114],[39.6626,48.6118],[39.663,48.612],[39.6633,48.6123],[39.6636,48.6127],[39.6637,48.613],[39.664,48.6138],[39.6642,48.6146],[39.6648,48.6152],[39.6648,48.6152],[39.6648,48.6155],[39.6648,48.6156],[39.6649,48.6159],[39.6651,48.6161],[39.6652,48.6163],[39.6653,48.6166],[39.6656,48.6171],[39.6661,48.6177],[39.6661,48.6178],[39.6661,48.6182],[39.6664,48.6187],[39.6665,48.6193],[39.6669,48.6198],[39.6672,48.6204],[39.6679,48.6213],[39.6682,48.6214],[39.669,48.6223],[39.6715,48.6243],[39.6746,48.6264],[39.6776,48.628],[39.68,48.6294],[39.6844,48.6315],[39.6857,48.6321],[39.687,48.6325],[39.6877,48.6327],[39.6885,48.6332],[39.6902,48.6351],[39.6906,48.6353],[39.6911,48.6355],[39.6928,48.636],[39.6935,48.6364],[39.694,48.6369],[39.6941,48.6373],[39.6943,48.6376],[39.6944,48.6381],[39.6944,48.6387],[39.6943,48.639],[39.6943,48.6396],[39.694,48.6405],[39.6939,48.6411],[39.6939,48.6418],[39.6938,48.6428],[39.6936,48.6431],[39.693,48.6435],[39.6927,48.6436],[39.6921,48.6441],[39.6916,48.6448],[39.6913,48.6453],[39.6912,48.6457],[39.6911,48.6462],[39.6913,48.6465],[39.6916,48.6467],[39.6919,48.6469],[39.692,48.6472],[39.6921,48.6474],[39.6921,48.6476],[39.6923,48.6477],[39.6925,48.6479],[39.6927,48.6481],[39.6929,48.6484],[39.6932,48.6488],[39.6934,48.649],[39.6936,48.6492],[39.6939,48.6494],[39.6942,48.6495],[39.6944,48.6495],[39.6946,48.6497],[39.6948,48.6499],[39.695,48.6499],[39.6953,48.6501],[39.6958,48.6504],[39.6965,48.6506],[39.6968,48.6507],[39.697,48.6508],[39.6973,48.6509],[39.6983,48.6516],[39.6986,48.6519],[39.699,48.6521],[39.6995,48.6524],[39.7001,48.6526],[39.7007,48.6527],[39.7012,48.6528],[39.7017,48.653],[39.7019,48.6531],[39.7021,48.6532],[39.7022,48.6532],[39.7023,48.6532],[39.7029,48.6539],[39.7035,48.6544],[39.704,48.6547],[39.7042,48.655],[39.7046,48.6554],[39.7046,48.6556],[39.7047,48.6558],[39.7051,48.6562],[39.7052,48.6563],[39.7053,48.6565],[39.7055,48.6566],[39.7057,48.6566],[39.706,48.6566],[39.7062,48.6568],[39.7063,48.6568],[39.7065,48.6568],[39.7067,48.6568],[39.7069,48.6567],[39.707,48.6565],[39.7072,48.6563],[39.7073,48.6562],[39.7074,48.656],[39.7077,48.6558],[39.7081,48.6554],[39.7082,48.6553],[39.7085,48.6551],[39.7086,48.6549],[39.7088,48.6547],[39.7091,48.6546],[39.7094,48.6545],[39.7095,48.6545],[39.7097,48.6545],[39.71,48.6545],[39.7102,48.6546],[39.7103,48.6547],[39.7105,48.6548],[39.7107,48.655],[39.7108,48.6551],[39.7109,48.6555],[39.7109,48.656],[39.7108,48.6569],[39.7105,48.6575],[39.7099,48.6584],[39.7096,48.6592],[39.7095,48.6599],[39.7095,48.6607],[39.7097,48.6619],[39.7096,48.6624],[39.7101,48.6629],[39.7106,48.6639],[39.7107,48.6643],[39.7107,48.6648],[39.711,48.6655],[39.7111,48.6664],[39.711,48.6666],[39.7105,48.667],[39.7104,48.6671],[39.7102,48.6672],[39.7097,48.6673],[39.7092,48.6674],[39.7085,48.6674],[39.7075,48.6673],[39.7071,48.667],[39.7067,48.6668],[39.7063,48.6668],[39.7058,48.6667],[39.7054,48.6666],[39.705,48.6667],[39.7044,48.6667],[39.704,48.6667],[39.7036,48.6668],[39.7033,48.6668],[39.7021,48.668],[39.7025,48.6687],[39.703,48.6704],[39.7118,48.6751],[39.715,48.681],[39.7222,48.684],[39.7162,48.6903],[39.7155,48.6957],[39.7199,48.6979],[39.7028,48.7066],[39.711,48.7134],[39.7048,48.7215],[39.7227,48.7341],[39.7389,48.7484],[39.7414,48.7718],[39.7652,48.765],[39.7843,48.7973],[39.7971,48.8406],[39.8047,48.8436],[39.808,48.8395],[39.8075,48.8386],[39.8278,48.8315],[39.8304,48.8336],[39.8863,48.8209],[39.9383,48.7999],[39.9523,48.7975],[39.9582,48.7979],[39.9762,48.7937],[40.0788,48.8699],[40.0713,48.877],[40.0555,48.9101],[40.0485,48.9102],[40.0312,48.9158],[40.0181,48.9078],[39.9837,48.8681],[39.9247,48.8942],[39.8711,48.8942],[39.8409,48.9024],[39.8244,48.8906],[39.8189,48.9078],[39.7942,48.9249],[39.7695,48.9303],[39.7887,48.9475],[39.7478,48.9879],[39.733,48.9802],[39.7294,48.9779],[39.727,48.9753],[39.7248,48.9766],[39.7245,48.9781],[39.7262,48.9785],[39.7265,48.9787],[39.7264,48.9795],[39.7252,48.9802],[39.7234,48.9805],[39.7215,48.9813],[39.7206,48.9815],[39.719,48.9816],[39.7176,48.9824],[39.7177,48.9827],[39.7179,48.9834],[39.7176,48.9844],[39.7174,48.9846],[39.7169,48.9847],[39.7167,48.9849],[39.7165,48.9856],[39.7169,48.9862],[39.7169,48.9865],[39.7168,48.9871],[39.7157,48.988],[39.7155,48.9882],[39.7154,48.9886],[39.7154,48.9894],[39.7153,48.9897],[39.7151,48.9899],[39.7135,48.9896],[39.7121,48.99],[39.7118,48.9902],[39.7108,48.9915],[39.7097,48.9919],[39.7077,48.9924],[39.7074,48.9933],[39.7074,48.9941],[39.7069,48.9951],[39.7048,48.9974],[39.704,48.9987],[39.7021,48.9994],[39.7,49.0005],[39.6989,49.0007],[39.697,48.9999],[39.6933,48.999],[39.6912,48.9967],[39.6912,48.9961],[39.6769,48.9895],[39.6634,49.0009],[39.6703,49.0031],[39.6792,49.0129],[39.6737,49.0149],[39.6757,49.0269],[39.6817,49.0287],[39.6836,49.0369],[39.6732,49.0392],[39.6929,49.0495],[39.7297,49.043],[39.7681,49.0403],[39.7887,49.05],[39.8031,49.0592],[39.8203,49.0583],[39.8752,49.0655],[39.9089,49.0574],[39.9377,49.056],[39.9425,49.0713],[39.9387,49.0833],[39.9727,49.1253],[39.9975,49.1473],[40.0316,49.1802],[40.0761,49.1868],[40.0928,49.2032],[40.1083,49.2109],[40.1218,49.2307],[40.1365,49.2392],[40.1768,49.2369],[40.2097,49.2418],[40.2144,49.2449],[40.2208,49.2578],[40.2193,49.2652],[40.1859,49.284],[40.1852,49.3042],[40.1885,49.3074],[40.1911,49.3179],[40.1968,49.3452],[40.1918,49.3483],[40.1756,49.3566],[40.1702,49.3564],[40.1599,49.3655],[40.162,49.3683],[40.1446,49.3777],[40.1124,49.3857],[40.0769,49.41],[40.0594,49.4341],[40.048,49.4444],[40.0294,49.4538],[40.0418,49.4991],[40.0376,49.5199],[40.1684,49.5689],[40.1395,49.5963],[40.1353,49.6163],[40.0635,49.5992],[40.0567,49.6066],[39.9522,49.5965],[39.9346,49.5728],[39.8902,49.5584],[39.866,49.5598],[39.8389,49.5635],[39.8081,49.558],[39.7683,49.5853],[39.7502,49.5967],[39.7127,49.6059],[39.6967,49.6043],[39.6869,49.6116],[39.66,49.6148],[39.6384,49.6351],[39.6131,49.6904],[39.592,49.7196],[39.6084,49.7339],[39.5338,49.7408],[39.4788,49.7565],[39.4382,49.76],[39.4121,49.7531],[39.377,49.7384],[39.3079,49.753],[39.2856,49.7557],[39.28,49.7609],[39.2755,49.768],[39.2646,49.7685],[39.2504,49.7778],[39.2404,49.7911],[39.2391,49.7982],[39.229,49.8084],[39.2281,49.8165],[39.2257,49.8402],[39.1884,49.8862],[39.1784,49.888],[39.1285,49.8598],[39.1111,49.839],[39.0698,49.8187],[39.0662,49.8153],[39.0335,49.8224],[39.0217,49.8209],[38.9849,49.8078],[38.9711,49.8072],[38.9649,49.8039],[38.9488,49.7961],[38.9467,49.7978],[38.9395,49.8007],[38.9364,49.8002],[38.9335,49.7998],[38.9329,49.7976],[38.9308,49.7972],[38.9278,49.7986],[38.9274,49.8014],[38.9287,49.8039],[38.9259,49.8042],[38.9204,49.8049],[38.9192,49.8089],[38.9162,49.8127],[38.919,49.8139],[38.9183,49.8148],[38.9123,49.818],[38.9098,49.8183],[38.9088,49.8228],[38.9074,49.8284],[38.9135,49.8286],[38.9151,49.8311],[38.9114,49.8346],[38.9143,49.837],[38.9126,49.8436],[38.9065,49.8447],[38.9043,49.8488],[38.9097,49.8508],[38.9195,49.8586],[38.9093,49.8601],[38.8985,49.8704],[38.8764,49.8694],[38.8751,49.8685],[38.8746,49.8679],[38.8746,49.8666],[38.8694,49.8645],[38.8668,49.8649],[38.8653,49.866],[38.8627,49.8659],[38.8572,49.868],[38.8566,49.8686],[38.8559,49.8689],[38.8545,49.8682],[38.8542,49.8679],[38.8542,49.8674],[38.8538,49.8671],[38.852,49.8665],[38.8514,49.8662],[38.8506,49.8659],[38.8491,49.8651],[38.8467,49.8655],[38.8461,49.8657],[38.8457,49.8658],[38.8439,49.8652],[38.8433,49.8651],[38.8393,49.8658],[38.839,49.866],[38.836,49.8671],[38.8363,49.8674],[38.8348,49.8691],[38.8347,49.871],[38.8367,49.8722],[38.8357,49.8738],[38.8349,49.8743],[38.8344,49.8746],[38.833,49.8747],[38.8278,49.8772],[38.827,49.8778],[38.826,49.8784],[38.8244,49.8789],[38.8224,49.879],[38.795,49.8833],[38.7901,49.8785],[38.7835,49.8811],[38.7777,49.8853],[38.7682,49.896],[38.7438,49.8973],[38.7423,49.8989],[38.7338,49.905],[38.7232,49.927],[38.6929,49.9348],[38.6853,49.9603],[38.7153,49.9824],[38.7151,49.9877],[38.6875,50.0058],[38.6843,50.0075],[38.6797,50.0025],[38.6761,49.9928],[38.6797,49.9745],[38.6669,49.9722],[38.6462,49.9559],[38.6161,49.9744],[38.5816,49.9774],[38.5267,49.9583],[38.5079,49.964],[38.4877,49.9636],[38.4833,49.9765],[38.4775,49.9833],[38.4659,49.984],[38.468,49.9952],[38.4341,50.001],[38.416,49.9813],[38.3976,49.9906],[38.3496,50.0064],[38.3542,50.019],[38.3512,50.0347],[38.334,50.0591],[38.3291,50.0852],[38.3126,50.0886],[38.3003,50.0867],[38.2928,50.0793],[38.2771,50.073],[38.2463,50.0731],[38.1785,50.0798],[38.1787,50.0778],[38.1791,50.0774],[38.1818,50.0678],[38.1819,50.0669],[38.1851,50.0557],[38.1838,50.0458],[38.1876,50.041],[38.188,50.0394],[38.1882,50.0308],[38.1887,50.0269],[38.1884,50.0245],[38.1882,50.0234],[38.1863,50.0228],[38.1854,50.0221],[38.187,50.0215],[38.1924,50.0138],[38.1972,50.0082],[38.2009,50.0047],[38.2008,50.0036],[38.2026,50.0017],[38.205,50.0008],[38.2047,49.9983],[38.205,49.9967],[38.2077,49.9915],[38.2098,49.9902],[38.2109,49.9892],[38.2155,49.9882],[38.2164,49.9872],[38.2552,49.9095],[38.177,49.8423],[38.188,49.7394],[38.133,49.5972],[38.1687,49.5545],[38.1083,49.4439],[38.144,49.3885],[38.2341,49.3692],[38.2252,49.2156],[38.184,49.2022],[38.1833,49.1618],[38.1784,49.1332],[38.2281,49.0638],[38.2675,49.0401],[38.3037,49.0451],[38.3345,49.0327],[38.3404,49.0425],[38.3449,49.0469],[38.3553,49.054],[38.4068,49.036],[38.42,49.0292],[38.4242,49.0156]]]}},{"type":"Feature","properties":{"s":"occupied"},"geometry":{"type":"Polygon","coordinates":[[[36.2506,50.2829],[36.2857,50.299],[36.2856,50.3035],[36.2844,50.3065],[36.2758,50.3174],[36.2785,50.3233],[36.2734,50.3242],[36.284,50.335],[36.2768,50.3404],[36.2554,50.3552],[36.2409,50.3585],[36.2329,50.3647],[36.2307,50.3716],[36.2134,50.3838],[36.2027,50.3962],[36.1833,50.4056],[36.1772,50.4022],[36.114,50.3988],[36.1262,50.3248],[36.1306,50.3149],[36.1262,50.2927],[36.1425,50.285],[36.1784,50.2895],[36.1985,50.2785],[36.2075,50.2745],[36.2381,50.2775],[36.2506,50.2829]]]}},{"type":"Feature","properties":{"s":"occupied"},"geometry":{"type":"Polygon","coordinates":[[[36.3286,50.2898],[36.3205,50.2825],[36.3187,50.2489],[36.2826,50.2329],[36.2646,50.209],[36.2571,50.2007],[36.2579,50.195],[36.2655,50.1953],[36.2727,50.1933],[36.2752,50.1903],[36.2731,50.188],[36.2717,50.1845],[36.2825,50.1861],[36.3012,50.1838],[36.3833,50.1503],[36.4179,50.1437],[36.4925,50.1497],[36.5487,50.1421],[36.5549,50.1483],[36.6063,50.1605],[36.6485,50.1757],[36.6787,50.1796],[36.7038,50.1784],[36.7617,50.1831],[36.8057,50.1821],[36.8424,50.1782],[36.836,50.2336],[36.8026,50.2325],[36.6936,50.2691],[36.6887,50.2666],[36.681,50.2389],[36.6638,50.2217],[36.6484,50.218],[36.6413,50.2222],[36.6153,50.2276],[36.6141,50.2233],[36.5953,50.2307],[36.56,50.2505],[36.5681,50.2578],[36.5806,50.2628],[36.5741,50.275],[36.5598,50.2842],[36.5564,50.2816],[36.5257,50.2864],[36.5273,50.2927],[36.5241,50.2936],[36.5211,50.2931],[36.5187,50.2939],[36.5166,50.2939],[36.5164,50.2947],[36.5166,50.2953],[36.5157,50.2961],[36.5133,50.2959],[36.5117,50.2958],[36.5006,50.2997],[36.4975,50.3027],[36.4917,50.3061],[36.49,50.3082],[36.4898,50.3102],[36.4876,50.3126],[36.4402,50.3122],[36.4344,50.3295],[36.4335,50.3309],[36.4282,50.3297],[36.4251,50.3282],[36.4247,50.3273],[36.4232,50.3266],[36.4216,50.3241],[36.4189,50.3217],[36.4159,50.3186],[36.4134,50.3164],[36.4087,50.3123],[36.3998,50.3072],[36.3757,50.3008],[36.3742,50.3005],[36.3789,50.2939],[36.3665,50.2883],[36.3614,50.2874],[36.3544,50.2891],[36.3286,50.2898]]]}},{"type":"Feature","properties":{"s":"occupied"},"geometry":{"type":"Polygon","coordinates":[[[36.8026,50.2325],[36.836,50.2336],[36.8424,50.1783],[36.8804,50.1083],[36.9058,50.0765],[37.0611,49.8902],[37.0165,49.8559],[37.0157,49.8394],[37.006,49.8301],[36.924,49.79],[36.9261,49.7668],[36.8641,49.7351],[36.8196,49.7279],[36.7713,49.7336],[36.7562,49.7193],[36.8017,49.7084],[36.8116,49.6155],[36.7727,49.6073],[36.7802,49.5977],[36.8221,49.5985],[36.8739,49.598],[36.9152,49.608],[36.9462,49.5975],[36.9653,49.5777],[36.8843,49.4911],[36.8129,49.5068],[36.7801,49.4873],[36.7912,49.4464],[36.8344,49.4207],[36.8257,49.4075],[36.8373,49.3951],[36.8704,49.375],[36.8948,49.383],[36.8961,49.3968],[36.9224,49.4039],[36.9363,49.4037],[36.9685,49.383],[37.015,49.3792],[37.0455,49.3807],[37.0523,49.3829],[37.0629,49.384],[37.0825,49.3656],[37.1024,49.3566],[37.1035,49.3466],[37.1106,49.3394],[37.1232,49.3334],[37.128,49.3359],[37.1363,49.3355],[37.1343,49.3332],[37.1287,49.3328],[37.1275,49.3318],[37.1327,49.3289],[37.1343,49.3312],[37.1385,49.3322],[37.1436,49.3327],[37.1471,49.3319],[37.1535,49.3316],[37.1569,49.3298],[37.1568,49.3265],[37.1587,49.3245],[37.1621,49.3153],[37.1398,49.2962],[37.1139,49.2844],[37.087,49.2768],[37.0805,49.2858],[37.0472,49.292],[37.0277,49.2927],[36.9989,49.3007],[36.9785,49.3032],[36.9608,49.3039],[36.949,49.2949],[36.9485,49.2889],[36.9429,49.2802],[36.9247,49.2752],[36.9228,49.2651],[36.9353,49.2545],[36.9365,49.2414],[36.9442,49.2263],[36.9378,49.2225],[36.9297,49.2155],[36.9307,49.2086],[36.9259,49.2024],[36.9246,49.1976],[36.9223,49.1951],[36.9211,49.1836],[36.9253,49.1795],[36.9277,49.1771],[36.9323,49.1762],[36.9481,49.1748],[36.9569,49.175],[36.9493,49.1792],[36.955,49.179],[36.9586,49.1818],[36.9642,49.1796],[36.963,49.1742],[36.968,49.1702],[36.9758,49.1718],[36.9813,49.171],[36.9802,49.1747],[36.9827,49.1756],[36.9855,49.1725],[36.9885,49.1736],[36.9899,49.1772],[37.0007,49.1803],[37.0071,49.1755],[37.0259,49.1694],[37.0374,49.1554],[37.0304,49.1335],[37.0104,49.1403],[36.9846,49.1229],[36.9714,49.1137],[36.9819,49.1013],[37.0021,49.1088],[37.0576,49.1194],[37.0726,49.1112],[37.0801,49.0582],[37.105,49.0506],[37.1378,49.0482],[37.178,49.0375],[37.1688,49.0275],[37.1705,49.0165],[37.1902,49.0083],[37.2154,49.0054],[37.2629,48.9898],[37.3025,48.9893],[37.3393,48.9907],[37.3658,49.0056],[37.3889,49.0222],[37.4378,49.0431],[37.4642,49.0769],[37.4697,49.0777],[37.4776,49.0701],[37.4861,49.0371],[37.4937,49.0316],[37.5044,49.0279],[37.5125,49.0231],[37.5122,49.021],[37.5151,49.0224],[37.5355,49.022],[37.5557,49.0259],[37.5723,49.0321],[37.5744,49.035],[37.5817,49.0382],[37.5853,49.0398],[37.6027,49.0454],[37.6077,49.0456],[37.6111,49.0449],[37.6144,49.045],[37.6195,49.0456],[37.6229,49.0448],[37.6252,49.0429],[37.6259,49.0401],[37.6277,49.0378],[37.6375,49.0371],[37.6484,49.0352],[37.6581,49.0331],[37.6628,49.031],[37.6626,49.0282],[37.6596,49.026],[37.6555,49.0243],[37.6548,49.0235],[37.6547,49.0225],[37.6558,49.0215],[37.658,49.0206],[37.6615,49.0211],[37.6647,49.0205],[37.6666,49.0192],[37.6667,49.0174],[37.6491,49.0108],[37.6459,49.0042],[37.6396,49.0063],[37.623,48.995],[37.6318,48.9829],[37.6283,48.9695],[37.6166,48.9671],[37.6152,48.962],[37.6323,48.9491],[37.648,48.947],[37.6753,48.949],[37.7013,48.9573],[37.7396,48.9372],[37.7651,48.9191],[37.7664,48.9037],[37.7569,48.8898],[37.7676,48.8815],[37.789,48.8915],[37.8233,48.8936],[37.8594,48.8868],[37.862,48.8811],[37.8833,48.8765],[37.8847,48.8852],[37.8956,48.8894],[37.9038,48.8785],[37.921,48.8815],[37.9319,48.8968],[37.9355,48.9027],[37.9409,48.9075],[37.9469,48.9115],[37.9509,48.9124],[37.9546,48.9121],[37.9569,48.9088],[37.9561,48.9076],[37.9548,48.9056],[37.9521,48.9034],[37.953,48.9019],[37.961,48.9013],[37.9702,48.9027],[37.9737,48.9038],[37.9751,48.9071],[37.979,48.911],[37.9834,48.9112],[37.9865,48.9115],[37.9891,48.911],[37.9915,48.9089],[37.9925,48.9064],[37.9936,48.9061],[37.995,48.9075],[37.995,48.9096],[37.9971,48.9113],[38.0,48.9113],[38.0043,48.9089],[38.0053,48.9075],[38.0055,48.9052],[38.0062,48.9049],[38.0075,48.9056],[38.0085,48.9088],[38.0094,48.9094],[38.0114,48.9097],[38.0135,48.9082],[38.0148,48.9081],[38.016,48.9089],[38.0166,48.9116],[38.0174,48.9121],[38.0197,48.9126],[38.0208,48.9134],[38.0203,48.9153],[38.0204,48.9171],[38.0256,48.9174],[38.0272,48.9164],[38.0282,48.9147],[38.0291,48.9142],[38.0304,48.9147],[38.0315,48.9171],[38.0373,48.9256],[38.0419,48.9296],[38.0441,48.9352],[38.0512,48.9394],[38.0575,48.9401],[38.0644,48.9374],[38.0787,48.9398],[38.0905,48.9405],[38.0941,48.9385],[38.0947,48.9358],[38.1131,48.9328],[38.1163,48.9317],[38.1174,48.9282],[38.1199,48.9269],[38.1275,48.9269],[38.1333,48.9245],[38.1369,48.9258],[38.1398,48.9316],[38.1423,48.9332],[38.1572,48.9312],[38.1674,48.9316],[38.2013,48.9282],[38.223,48.9345],[38.2308,48.9386],[38.2338,48.9445],[38.2281,48.9477],[38.2265,48.9522],[38.2335,48.9533],[38.2363,48.9565],[38.2434,48.9574],[38.2501,48.9537],[38.2563,48.96],[38.2605,48.9692],[38.2424,49.0034],[38.2464,49.0069],[38.2639,49.0244],[38.2907,49.0255],[38.3214,49.0123],[38.3295,49.0075],[38.3304,49.0066],[38.3351,49.003],[38.3412,49.0008],[38.3426,49.0019],[38.3438,49.0043],[38.3452,49.0057],[38.3456,49.0066],[38.346,49.0074],[38.3419,49.011],[38.3386,49.016],[38.3377,49.0178],[38.3315,49.0244],[38.3345,49.0329],[38.3038,49.0456],[38.2677,49.0406],[38.2282,49.0642],[38.1786,49.1337],[38.1834,49.1622],[38.1841,49.2026],[38.2253,49.2161],[38.2342,49.3697],[38.1441,49.3889],[38.1084,49.4443],[38.1689,49.5549],[38.1332,49.5977],[38.1881,49.7399],[38.1771,49.8427],[38.2554,49.91],[38.2166,49.9876],[38.2156,49.9778],[38.196,49.9698],[38.1962,49.9662],[38.1981,49.9626],[38.1629,49.9519],[38.1716,49.9424],[38.1345,49.9285],[38.127,49.9225],[38.129,49.9305],[38.1249,49.9424],[38.0583,49.9247],[38.046,49.9155],[38.0361,49.9044],[38.0265,49.9064],[38.0197,49.9124],[38.0126,49.9188],[38.0201,49.9213],[38.017,49.9248],[38.0441,49.933],[38.0331,49.9442],[38.0242,49.952],[38.0092,49.9629],[38.009,49.965],[38.0053,49.9677],[37.9993,49.9643],[37.979,49.9773],[37.9649,49.9795],[37.9555,49.9948],[37.9251,50.0353],[37.8922,50.0512],[37.8616,50.0557],[37.8503,50.0594],[37.8187,50.0722],[37.7974,50.0843],[37.7548,50.0783],[37.7468,50.0922],[37.7359,50.0986],[37.7109,50.1237],[37.6898,50.143],[37.6769,50.1496],[37.6714,50.1514],[37.6549,50.1663],[37.6455,50.1752],[37.6411,50.176],[37.6395,50.1815],[37.6426,50.191],[37.6134,50.2195],[37.6273,50.2424],[37.6254,50.245],[37.6271,50.2643],[37.6271,50.2928],[37.6286,50.2961],[37.6384,50.3029],[37.6367,50.3104],[37.6342,50.3127],[37.6297,50.3147],[37.6003,50.3165],[37.5857,50.3148],[37.5773,50.3065],[37.5549,50.3306],[37.5209,50.3367],[37.5059,50.3503],[37.5064,50.3527],[37.4854,50.3568],[37.4831,50.3594],[37.4827,50.3622],[37.4715,50.3705],[37.4711,50.3755],[37.4678,50.3789],[37.4652,50.3844],[37.4661,50.3883],[37.4664,50.3979],[37.4666,50.4074],[37.4652,50.4133],[37.466,50.4182],[37.465,50.4212],[37.4637,50.4248],[37.4663,50.4302],[37.4696,50.4313],[37.4814,50.4317],[37.4858,50.4358],[37.4849,50.4453],[37.4907,50.458],[37.4776,50.4599],[37.4735,50.4558],[37.4678,50.4533],[37.4431,50.4477],[37.4326,50.4439],[37.4211,50.4353],[37.3964,50.4313],[37.3758,50.433],[37.3524,50.4377],[37.3326,50.4371],[37.3203,50.4331],[37.3159,50.4303],[37.309,50.4258],[37.3101,50.4231],[37.3049,50.4153],[37.3028,50.4119],[37.3,50.4065],[37.2979,50.4053],[37.2927,50.4017],[37.2573,50.3915],[37.2563,50.3929],[37.2219,50.3794],[37.2234,50.3781],[37.1826,50.3637],[37.1598,50.3588],[37.1489,50.3558],[37.1423,50.3617],[37.1034,50.3577],[37.1039,50.3529],[37.071,50.3473],[37.0587,50.3469],[37.0455,50.345],[37.0369,50.3487],[36.9381,50.3507],[36.9174,50.3476],[36.8879,50.3378],[36.8734,50.3369],[36.8548,50.3306],[36.8512,50.327],[36.833,50.3139],[36.8061,50.3108],[36.7992,50.3064],[36.7674,50.3027],[36.7642,50.2909],[36.7579,50.2896],[36.7537,50.2896],[36.7479,50.2875],[36.7506,50.286],[36.7509,50.2833],[36.7488,50.2807],[36.739,50.2829],[36.7289,50.2775],[36.7198,50.2776],[36.6936,50.2691],[36.8026,50.2325]]]}}]}