{"type": "FeatureCollection", "features": [{"type": "Feature", "geometry": {"type": "Polygon", "coordinates": [[[25.002536, 42.807413], [24.977628, 42.853199], [24.938251, 42.873533], [24.894843, 42.888804], [24.885127, 42.899785], [24.879236, 42.912678], [24.883164, 42.927923], [24.878306, 42.942289], [24.867454, 42.986834], [24.920164, 43.033627], [24.911586, 43.06626], [24.924298, 43.10693], [24.961712, 43.126929], [24.96905, 43.164704], [24.98538, 43.195865], [25.031992, 43.190904], [25.072506, 43.181086], [25.078604, 43.161862], [25.100618, 43.150131], [25.117465, 43.124732], [25.143716, 43.109643], [25.279109, 43.107963], [25.293475, 43.086647], [25.306807, 43.060111], [25.332852, 43.051223], [25.397758, 43.045745], [25.467624, 43.047812], [25.49863, 43.040706], [25.559401, 43.033213], [25.576455, 42.994275], [25.553304, 42.939085], [25.596195, 42.90764], [25.615832, 42.903376], [25.627614, 42.888519], [25.627201, 42.862345], [25.618519, 42.839091], [25.597229, 42.807827], [25.62007, 42.766951], [25.627201, 42.748502], [25.612732, 42.737934], [25.592784, 42.750027], [25.575731, 42.767235], [25.559401, 42.772738], [25.535734, 42.752972], [25.517027, 42.758527], [25.501937, 42.751344], [25.483851, 42.745402], [25.467314, 42.749458], [25.450468, 42.751551], [25.426283, 42.737857], [25.394037, 42.73579], [25.341844, 42.752585], [25.287687, 42.760439], [25.247172, 42.742766], [25.230739, 42.755556], [25.21627, 42.772635], [25.166144, 42.770697], [25.114571, 42.752533], [25.062894, 42.745091], [25.011528, 42.74827], [25.011218, 42.758527], [25.002536, 42.807413]]]}, "properties": {"name": "область Габрово", "source": "Natural Earth admin-1 ∩ OpenHistoricalMap (CC0) relations 2854742, 2854743; нарезка 22.09.2026"}}]}