{"type": "FeatureCollection", "features": [{"type": "Feature", "geometry": {"type": "Polygon", "coordinates": [[[27.26431, 44.089765], [27.285342, 44.072453], [27.341669, 44.053074], [27.353555, 44.045271], [27.372882, 44.020725], [27.383837, 44.015092], [27.39628043327689, 44.01516958955648], [27.3994459, 44.0122291], [27.4073583, 44.0134375], [27.4166636, 44.0148298], [27.41993504149338, 44.01531708506831], [27.557289851128836, 44.01617354473843], [27.5628928, 44.0157794], [27.5715693, 44.0151538], [27.5805444, 44.0144606], [27.5903801, 44.0137688], [27.5985937, 44.0131562], [27.6119709, 44.012204], [27.6164093, 44.0172176], [27.6202443, 44.021526], [27.626070829515147, 44.02808228629068], [27.633434, 44.029768], [27.656275, 44.023877], [27.676119, 43.993543], [27.682515, 43.987256], [27.682166, 43.987264], [27.655191, 43.987858], [27.636587, 43.976386], [27.641445, 43.954217], [27.623151, 43.939205], [27.604755, 43.938662], [27.610439, 43.927086], [27.607442, 43.908018], [27.577986, 43.903729], [27.555765, 43.918405], [27.530857, 43.91347], [27.518972, 43.883084], [27.521452, 43.852052], [27.481248, 43.830865], [27.430192, 43.844404], [27.398876, 43.839753], [27.373761, 43.825077], [27.38606, 43.776036], [27.342238, 43.775364], [27.29635, 43.802469], [27.276403, 43.794691], [27.264, 43.774744], [27.215528, 43.742705], [27.212944, 43.697927], [27.237025, 43.67072], [27.219559, 43.66563], [27.200128, 43.668911], [27.133776, 43.669996], [27.094088, 43.703121], [27.054091, 43.721621], [27.000761, 43.699581], [26.971408, 43.716918], [26.947534, 43.742834], [26.931307, 43.749991], [26.913324, 43.741361], [26.903299, 43.75304], [26.903092, 43.77552], [26.888209, 43.785131], [26.878081, 43.796242], [26.859787, 43.806164], [26.843871, 43.824535], [26.837153, 43.843681], [26.822167, 43.842208], [26.808111, 43.826369], [26.790334, 43.821305], [26.775141, 43.819289], [26.76739, 43.807249], [26.753127, 43.825801], [26.735454, 43.844921], [26.701864, 43.847608], [26.617218, 43.869364], [26.593757, 43.90192], [26.586005, 43.919025], [26.568332, 43.936957], [26.545698, 43.944863], [26.520066, 43.930911], [26.491644, 43.925019], [26.464773, 43.946827], [26.43139, 43.953286], [26.39625, 43.949566], [26.382814, 43.989253], [26.376199, 44.019484], [26.349637, 44.022274], [26.344476668815553, 44.03015625284242], [26.3447484, 44.0301659], [26.3910981, 44.0316958], [26.4072343, 44.0344109], [26.4261125, 44.0364365], [26.466968, 44.040879], [26.5002703, 44.0450744], [26.5304827, 44.0514903], [26.5641283, 44.0542045], [26.5819811, 44.0549447], [26.6008638, 44.0522305], [26.6183778, 44.0561273], [26.6204332, 44.0564251], [26.6492723, 44.0603726], [26.6873857, 44.0576077], [26.7258378, 44.0694493], [26.7553636, 44.0770958], [26.7625688, 44.0778868], [26.7841982, 44.0845457], [26.8381289, 44.1076843], [26.8585927, 44.1169287], [26.8778257, 44.122129], [26.9021808, 44.1324157], [26.9103342, 44.1367485], [26.9168689, 44.1384635], [26.9215503, 44.1386314], [26.9261255, 44.1380261], [26.9311581, 44.1374801], [26.9354191, 44.1365316], [26.9676965, 44.1347635], [26.9917869, 44.1337939], [27.0334505, 44.1437033], [27.0491361, 44.1463414], [27.0554232, 44.1473987], [27.0664095, 44.1488768], [27.080829, 44.1459206], [27.0955919, 44.1387758], [27.1038317, 44.1363119], [27.1182512, 44.1385294], [27.1294015, 44.1379043], [27.1402239, 44.1372975], [27.1580767, 44.1350799], [27.1663164, 44.133355], [27.1728395, 44.1289195], [27.1800493, 44.1237443], [27.1865724, 44.1198009], [27.2103413, 44.1168505], [27.2302005, 44.1151624], [27.237281, 44.116041], [27.2418368, 44.117016], [27.2474002, 44.1189344], [27.2531234, 44.1211531], [27.253233525328124, 44.12120020422064], [27.269012, 44.112399], [27.26431, 44.089765]]]}, "properties": {"name": "область Силистра", "source": "Natural Earth admin-1 ∩ OpenHistoricalMap (CC0) relations 2854742, 2854743; нарезка 22.09.2026"}}]}