{"type": "FeatureCollection", "features": [{"type": "Feature", "geometry": {"type": "Polygon", "coordinates": [[[22.76939, 42.97128], [22.776418, 42.979729], [22.788097, 42.984897], [22.815796, 42.989703], [22.828818, 42.993449], [22.828921, 42.993449], [22.829025, 42.993501], [22.829025, 42.993656], [22.842254, 43.007505], [22.884215, 43.036651], [22.889486, 43.044376], [22.896721, 43.062721], [22.901682, 43.069749], [22.910157, 43.075279], [22.927107, 43.081144], [22.935271, 43.085562], [22.955632, 43.108274], [22.974029, 43.141192], [22.984571, 43.174627], [22.982902, 43.187318], [23.02891, 43.194935], [23.10105, 43.131812], [23.127302, 43.117162], [23.220319, 43.111193], [23.254736, 43.123001], [23.286052, 43.129151], [23.318091, 43.120831], [23.36274, 43.133698], [23.398913, 43.162947], [23.431366, 43.161965], [23.462062, 43.150312], [23.469813, 43.13685], [23.448626, 43.136644], [23.43457, 43.128143], [23.43519, 43.108248], [23.45028, 43.097473], [23.467126, 43.088998], [23.493584, 43.07055], [23.516942, 43.048329], [23.532032, 43.026005], [23.552599, 43.009158], [23.591666, 43.026728], [23.634351, 43.053031], [23.650164, 43.042102], [23.665357, 43.028304], [23.691712, 43.027296], [23.716723, 43.034609], [23.738427, 43.054788], [23.766023, 43.067862], [23.80354, 43.05608], [23.902345, 43.042799], [23.918571, 43.036702], [23.935625, 43.027762], [23.959086, 43.039492], [23.977483, 43.059878], [24.006215, 43.060214], [24.024301, 43.045642], [24.031949, 43.030836], [24.046005, 43.020423], [24.05231, 42.999779], [24.044662, 42.978772], [24.065643, 42.960427], [24.090551, 42.94234], [24.129308, 42.935777], [24.151425, 42.908725], [24.154009, 42.87635], [24.152149, 42.843845], [24.13861, 42.803589], [24.158557, 42.780852], [24.285164, 42.779663], [24.309349, 42.769793], [24.3325, 42.757778], [24.364332, 42.752481], [24.396682, 42.75491], [24.360198, 42.707419], [24.373117, 42.661686], [24.416319, 42.644994], [24.447221, 42.612619], [24.472956, 42.599286], [24.468305, 42.577143], [24.441847, 42.56319], [24.408154, 42.562079], [24.386967, 42.567609], [24.365676, 42.56456], [24.35038, 42.565154], [24.338597, 42.577815], [24.319477, 42.581846], [24.301804, 42.587995], [24.296223, 42.605849], [24.284957, 42.621275], [24.257465, 42.628225], [24.22894, 42.629672], [24.211577, 42.624272], [24.19411, 42.621766], [24.157523, 42.610733], [24.129618, 42.581613], [24.10657, 42.573164], [24.081456, 42.57288], [24.03474, 42.553372], [24.009832, 42.558229], [23.988025, 42.572027], [23.961359, 42.579288], [23.933661, 42.577376], [23.903999, 42.569521], [23.898108, 42.547016], [23.907513, 42.525828], [23.921362, 42.507509], [23.937692, 42.497897], [23.950197, 42.48397], [23.988128, 42.458727], [24.038667, 42.464902], [24.054687, 42.445032], [24.038357, 42.408006], [23.9996, 42.395759], [23.959396, 42.392296], [23.941516, 42.346795], [23.957535, 42.309588], [23.973348, 42.299899], [23.974072, 42.283259], [23.958052, 42.26804], [23.937175, 42.273131], [23.924152, 42.283259], [23.912474, 42.295997], [23.888496, 42.290701], [23.880641, 42.261478], [23.848085, 42.225743], [23.800852, 42.211274], [23.794135, 42.202076], [23.795685, 42.188691], [23.780699, 42.180992], [23.763129, 42.177607], [23.752652485516144, 42.17806281339546], [23.748555, 42.1785327], [23.7399861, 42.1781413], [23.7353631, 42.1689505], [23.73332837623176, 42.166083371230485], [23.717963, 42.160476], [23.69843, 42.166832], [23.67876773727741, 42.16439677617201], [23.6715396, 42.1662129], [23.6691697, 42.1721785], [23.6662686, 42.1765505], [23.6620191, 42.1769591], [23.6578986, 42.175948], [23.653944, 42.1657618], [23.6484314, 42.158212], [23.6360282, 42.1577326], [23.6253326, 42.1595002], [23.6150964, 42.1591707], [23.601355, 42.1567739], [23.5910888, 42.1538379], [23.5854564, 42.1520203], [23.5893212, 42.1386484], [23.58945139875522, 42.13062140777737], [23.582205749550933, 42.116997827226776], [23.5808127, 42.1149803], [23.58053818086002, 42.114130227449195], [23.547535, 42.084124], [23.493584, 42.099084], [23.519113, 42.113554], [23.529758, 42.135232], [23.503196, 42.14456], [23.473327, 42.146368], [23.453897, 42.171974], [23.428059, 42.186857], [23.383824, 42.177943], [23.338969, 42.173163], [23.324602, 42.195719], [23.356228, 42.226673], [23.368424, 42.244554], [23.388578, 42.24967], [23.399327, 42.262072], [23.384547, 42.283156], [23.362843, 42.289228], [23.346513, 42.302612], [23.339175, 42.312456], [23.3276, 42.317159], [23.293907, 42.37359], [23.272823, 42.369662], [23.249568, 42.368706], [23.233239, 42.375243], [23.215669, 42.373176], [23.219699, 42.39147], [23.232722, 42.406275], [23.22249, 42.449916], [23.244917, 42.494667], [23.278507, 42.532288], [23.260007, 42.548127], [23.200786, 42.581536], [23.169677, 42.590501], [23.165129, 42.625538], [23.158101, 42.644426], [23.147559, 42.661143], [23.126785, 42.668869], [23.109318, 42.679411], [23.085857, 42.696877], [23.059502, 42.709874], [23.044413, 42.739614], [23.024879, 42.762661], [22.994493, 42.759742], [22.97558, 42.762816], [22.964935, 42.776201], [22.934755, 42.776097], [22.917702, 42.801005], [22.898375, 42.818239], [22.873364, 42.807568], [22.85383, 42.817645], [22.860031, 42.849013], [22.845149, 42.855085], [22.831919, 42.837463], [22.815176, 42.834853], [22.808045, 42.839866], [22.798433, 42.839117], [22.789338, 42.848496], [22.783964, 42.860743], [22.766807, 42.880432], [22.744896, 42.894798], [22.739579, 42.898858], [22.745516, 42.910069], [22.763189, 42.958645], [22.76939, 42.97128]]]}, "properties": {"name": "София и Софийская область", "source": "Natural Earth admin-1 ∩ OpenHistoricalMap (CC0) relations 2854742, 2854743; нарезка 22.09.2026"}}]}