{"type": "FeatureCollection", "features": [{"type": "Feature", "geometry": {"type": "Polygon", "coordinates": [[[22.9925604, 43.1972216], [22.9921784, 43.1973965], [22.9917842, 43.1975398], [22.9914146, 43.1976921], [22.9906017, 43.1979337], [22.9898348, 43.1982379], [22.9898011, 43.1982203], [22.989148, 43.1985026], [22.9890247, 43.1985744], [22.9886793, 43.1988438], [22.9884201, 43.1991089], [22.9881116, 43.1993604], [22.9878154, 43.1996389], [22.9875193, 43.1998544], [22.9872355, 43.2001059], [22.9869148, 43.2003528], [22.9865817, 43.2005952], [22.9859033, 43.2010755], [22.9855949, 43.2013315], [22.9852743, 43.2015199], [22.9845102, 43.2018786], [22.984165, 43.202067], [22.9834009, 43.2024346], [22.9830189, 43.2025959], [22.9826251, 43.2026222], [22.9823177, 43.2025676], [22.9820724, 43.2023331], [22.9818765, 43.2020672], [22.9815821, 43.2018056], [22.9812874, 43.2016295], [22.980943, 43.2016109], [22.9805492, 43.2016101], [22.9801674, 43.2017084], [22.9798225, 43.2018428], [22.9794772, 43.2020491], [22.9790323, 43.2026019], [22.9789822, 43.2028583], [22.978686, 43.2031008], [22.9782917, 43.2032575], [22.9779591, 43.2033649], [22.9775402, 43.2035171], [22.9770969, 43.2036198], [22.9767152, 43.2036866], [22.9762966, 43.2037443], [22.9758904, 43.2037795], [22.9755086, 43.2038823], [22.9751391, 43.2039941], [22.9747326, 43.2041058], [22.9744, 43.2042177], [22.9740305, 43.204316], [22.9736857, 43.2043873], [22.9732672, 43.2044315], [22.9728854, 43.2045208], [22.972504, 43.204529], [22.97211, 43.2045822], [22.9717283, 43.2046625], [22.9713467, 43.2046843], [22.9709776, 43.2046835], [22.9705961, 43.2047008], [22.9703992, 43.2047004], [22.9701529, 43.2047494], [22.9697958, 43.2048387], [22.9693894, 43.2049144], [22.9690203, 43.2049137], [22.9686264, 43.2049399], [22.9682574, 43.2049076], [22.9679005, 43.2049159], [22.9672239, 43.2048921], [22.9669042, 43.2048329], [22.9665229, 43.2047917], [22.9661539, 43.2047414], [22.9658953, 43.2048129], [22.9655624, 43.2049832], [22.965168, 43.20514], [22.9647859, 43.2053192], [22.9644407, 43.205503], [22.9640833, 43.2056508], [22.9637135, 43.2058256], [22.9633191, 43.2059913], [22.962937, 43.2061616], [22.9625548, 43.2063543], [22.9621234, 43.2065334], [22.9617289, 43.2067307], [22.9613715, 43.2068694], [22.9611621, 43.2069185], [22.9604359, 43.2069665], [22.9593654, 43.2069643], [22.9590084, 43.2069951], [22.9579749, 43.2069614], [22.9574091, 43.2069152], [22.9568308, 43.206887], [22.9564988, 43.2068368], [22.9560683, 43.2067909], [22.9557362, 43.2067452], [22.9554411, 43.206686], [22.9551338, 43.2066179], [22.9548878, 43.2065814], [22.9546172, 43.2065628], [22.9542849, 43.2065621], [22.9539282, 43.2065388], [22.9536576, 43.2065022], [22.953375, 43.2064116], [22.952939400267976, 43.20629386629608], [22.933017830994338, 43.209464164000025], [22.9327996, 43.2095434], [22.9325285, 43.2096463], [22.9322819, 43.2097537], [22.9319614, 43.20987], [22.9317148, 43.2099864], [22.9314928, 43.2101119], [22.9311966, 43.2102913], [22.9308883, 43.2104616], [22.9306046, 43.2106004], [22.9303333, 43.2107438], [22.9300499, 43.2108287], [22.9295329, 43.2108455], [22.9293114, 43.2108494], [22.9291877, 43.2110067], [22.9290145, 43.2112133], [22.928829, 43.2114244], [22.928668, 43.2116445], [22.9284456, 43.2118555], [22.9282225, 43.2122196], [22.9272584, 43.2131714], [22.9268874, 43.2135756], [22.9268381, 43.2136025], [22.9267267, 43.2137417], [22.9265909, 43.2138314], [22.9264059, 43.2139165], [22.9263321, 43.2139208], [22.9258396, 43.2139692], [22.9251621, 43.2141161], [22.9250758, 43.2141429], [22.9246939, 43.2142365], [22.9244599, 43.2142719], [22.9242505, 43.2143119], [22.9240167, 43.2143204], [22.9237581, 43.2143378], [22.9236103, 43.2143824], [22.9234375, 43.214481], [22.9230178, 43.2147681], [22.9226967, 43.2150238], [22.9225484, 43.2151495], [22.9224125, 43.2152752], [22.9223749, 43.2154281], [22.9223127, 43.2155765], [22.9222382, 43.2157338], [22.9221269, 43.2158416], [22.9219912, 43.2159087], [22.9218552, 43.2160434], [22.9217317, 43.2161557], [22.9213854, 43.2165239], [22.9212739, 43.2166901], [22.9210632, 43.2170272], [22.9209762, 43.2172025], [22.9208646, 43.2173822], [22.9207654, 43.217562], [22.9206906, 43.2177599], [22.920579, 43.2179441], [22.9205046, 43.2180789], [22.9204423, 43.2182498], [22.9203677, 43.2184027], [22.9202563, 43.2185464], [22.9200959, 43.2186495], [22.9199232, 43.2187256], [22.919726, 43.2187837], [22.9195041, 43.2188596], [22.9193437, 43.2189583], [22.9191463, 43.2190613], [22.9189365, 43.2191778], [22.918776, 43.2192989], [22.9185786, 43.2193929], [22.9183694, 43.2193969], [22.9181229, 43.2194593], [22.9179012, 43.2195038], [22.9176425, 43.2195617], [22.9174206, 43.2196287], [22.9172479, 43.2197272], [22.9170259, 43.2198302], [22.9168284, 43.2199558], [22.9166677, 43.2200949], [22.9164702, 43.2202339], [22.916285, 43.2203505], [22.9160754, 43.220431], [22.9158167, 43.2204753], [22.9155455, 43.2205647], [22.9153359, 43.2206587], [22.915114, 43.2207301], [22.9148432, 43.2207385], [22.9145969, 43.2207649], [22.9143631, 43.2207553], [22.914068, 43.2207006], [22.9138216, 43.2207404], [22.9135631, 43.2207533], [22.9132675, 43.2207976], [22.9130087, 43.2208735], [22.9127376, 43.2209268], [22.9125279, 43.2210433], [22.9123305, 43.2211283], [22.9121211, 43.2211638], [22.9118382, 43.2211226], [22.9116534, 43.2211671], [22.9114189, 43.221306], [22.9112338, 43.2214091], [22.9106303, 43.2214886], [22.9103473, 43.2214879], [22.9100521, 43.2214331], [22.9097941, 43.221347], [22.9094988, 43.2213147], [22.909253, 43.2212376], [22.9089827, 43.2211334], [22.9086878, 43.2210382], [22.9083679, 43.2210058], [22.9080481, 43.22096], [22.9079006, 43.2209282], [22.9076654, 43.2212021], [22.90748, 43.2213637], [22.9072947, 43.2215117], [22.9070724, 43.2216687], [22.9068747, 43.2218482], [22.9064301, 43.2221576], [22.9062201, 43.2223236], [22.9059731, 43.2224895], [22.9057138, 43.2226553], [22.90543, 43.2228031], [22.9051832, 43.222951], [22.9049362, 43.2231079], [22.9046524, 43.2232737], [22.9043931, 43.2234441], [22.903813, 43.2237711], [22.9031961, 43.2240846], [22.9028756, 43.2241693], [22.9025673, 43.22429], [22.9022715, 43.2243747], [22.9019883, 43.224392], [22.9017049, 43.2244588], [22.9014707, 43.2245347], [22.901249, 43.2245521], [22.9010027, 43.224592], [22.9007562, 43.2246544], [22.9005221, 43.2246988], [22.9003003, 43.2247522], [22.8997208, 43.2249487], [22.8995728, 43.2250113], [22.8993139, 43.2250917], [22.8990796, 43.2251901], [22.898919, 43.2253112], [22.8986844, 43.2254591], [22.8984989, 43.2256341], [22.8983135, 43.2257867], [22.8980669, 43.225876], [22.8977954, 43.2260148], [22.8975857, 43.2261178], [22.897524, 43.2261446], [22.8965489, 43.2266957], [22.8963418, 43.230753], [22.8962323, 43.23073], [22.8961996, 43.2307565], [22.8961423, 43.2307937], [22.8960809, 43.2308233], [22.8959847, 43.2308538], [22.8957983, 43.2308967], [22.8955988, 43.2309514], [22.8954793, 43.2309727], [22.8951709, 43.2310182], [22.8950275, 43.2310508], [22.8948871, 43.2311163], [22.894698, 43.2312128], [22.8945805, 43.2312788], [22.8944062, 43.2313884], [22.8943365, 43.2314217], [22.8941868, 43.2315124], [22.8940262, 43.2316023], [22.8937151, 43.2317585], [22.8935262, 43.2318676], [22.8934078, 43.2319453], [22.893324, 43.2320145], [22.8932839, 43.2320617], [22.8931855, 43.2321386], [22.8930092, 43.2322478], [22.8928528, 43.2323673], [22.8927252, 43.2324901], [22.8926771, 43.2325598], [22.892462, 43.2328284], [22.8923048, 43.2329853], [22.8919912, 43.2332406], [22.8919, 43.2333202], [22.891682, 43.2334932], [22.8915748, 43.2335877], [22.8914009, 43.2337504], [22.8912887, 43.2338665], [22.8911679, 43.2339771], [22.8908988, 43.2342396], [22.8908075, 43.2343255], [22.8906127, 43.2344959], [22.8905197, 43.2345706], [22.8903954, 43.2346599], [22.8902911, 43.2347166], [22.8901137, 43.2348433], [22.8899863, 43.234921], [22.8896524, 43.2352037], [22.8895316, 43.235262], [22.8890274, 43.235435], [22.8888174, 43.2354918], [22.8885064, 43.2356111], [22.888281, 43.2357098], [22.8881222, 43.2357505], [22.8880605, 43.235786], [22.8880242, 43.2358454], [22.8879403, 43.2359633], [22.8879169, 43.2361136], [22.8877008, 43.2364428], [22.8875872, 43.2365727], [22.8874996, 43.2366847], [22.887378, 43.2368174], [22.8873149, 43.2369434], [22.8872278, 43.2370733], [22.8868666, 43.2375126], [22.88666, 43.2377388], [22.8864545, 43.2379203], [22.8863201, 43.2380281], [22.8861343, 43.2382281], [22.8859072, 43.2385074], [22.885806, 43.2386423], [22.8855245, 43.2389542], [22.8852974, 43.2391704], [22.8847683, 43.2396165], [22.884587, 43.2397599], [22.8844542, 43.2399177], [22.8843258, 43.2400845], [22.8841838, 43.2402513], [22.8839795, 43.2405112], [22.8838662, 43.240765], [22.8837935, 43.2410468], [22.8837636, 43.2411936], [22.8837436, 43.2413111], [22.8837377, 43.2414548], [22.8836949, 43.2415984], [22.8836764, 43.2421172], [22.8836624, 43.2422816], [22.8835922, 43.242586], [22.8834471, 43.2429915], [22.8833567, 43.243212], [22.8832762, 43.2433847], [22.8832119, 43.2435504], [22.8831103, 43.2437763], [22.8830403, 43.2439505], [22.8829653, 43.2441989], [22.882899, 43.2443447], [22.8827997, 43.2446855], [22.8827557, 43.2447831], [22.8826951, 43.2449425], [22.8826334, 43.244982], [22.8822759, 43.2451699], [22.8820298, 43.2453608], [22.8816064, 43.2458211], [22.8814645, 43.245937], [22.8813225, 43.2460696], [22.8812127, 43.2461914], [22.8811424, 43.2462534], [22.8809851, 43.2463796], [22.8805193, 43.2467862], [22.8800494, 43.2471221], [22.8799089, 43.2471984], [22.8797966, 43.2472756], [22.8796585, 43.2473586], [22.8795, 43.2474618], [22.8791886, 43.2476873], [22.8790535, 43.2477752], [22.8789431, 43.2478611], [22.8788086, 43.2479846], [22.8786593, 43.2481113], [22.8785032, 43.2482254], [22.8784286, 43.2482854], [22.8784157, 43.2482916], [22.8783862, 43.2482764], [22.8783118, 43.2482515], [22.8781481, 43.2482156], [22.8780047, 43.2481783], [22.8779113, 43.2481457], [22.8777245, 43.2481131], [22.8775216, 43.2481096], [22.8773985, 43.2481274], [22.8770762, 43.2482186], [22.8768267, 43.248322], [22.8767349, 43.2483543], [22.8766393, 43.2483986], [22.8766301, 43.2484243], [22.8766299, 43.2484964], [22.8766451, 43.2485612], [22.8766333, 43.24859], [22.8765698, 43.2486386], [22.8764396, 43.2487644], [22.8763631, 43.2488313], [22.8762957, 43.2489185], [22.8762562, 43.2489779], [22.8762215, 43.2490387], [22.8761801, 43.2491282], [22.8761472, 43.2492363], [22.8760926, 43.2493884], [22.8760831, 43.2494703], [22.8760624, 43.249904], [22.8760523, 43.249977], [22.8760389, 43.2501851], [22.8760127, 43.2503062], [22.8760002, 43.2503931], [22.8759931, 43.2505241], [22.8759732, 43.2506065], [22.8758607, 43.2507675], [22.8758101, 43.2508197], [22.8757556, 43.2509038], [22.8756734, 43.2510946], [22.8756121, 43.2514309], [22.8755897, 43.2515029], [22.8755594, 43.2515736], [22.8755328, 43.2516177], [22.8754612, 43.2517112], [22.8754469, 43.2517513], [22.8754286, 43.2519462], [22.875413, 43.2519922], [22.8753673, 43.252074], [22.8753253, 43.2521329], [22.875276, 43.2521693], [22.875138, 43.2521829], [22.8750179, 43.2521683], [22.8747828, 43.2521623], [22.8746374, 43.2521921], [22.8741618, 43.2523393], [22.8740508, 43.2523858], [22.873975, 43.2524411], [22.8738935, 43.2525076], [22.8736904, 43.2527035], [22.8735954, 43.2527893], [22.8735017, 43.2528499], [22.8733778, 43.2529222], [22.8732637, 43.2529634], [22.872921, 43.2531265], [22.8727582, 43.2532225], [22.87259, 43.2532947], [22.8724698, 43.2533529], [22.8722423, 43.2534749], [22.8721195, 43.2535512], [22.8719278, 43.2536477], [22.871791, 43.2537108], [22.8713725, 43.2538896], [22.8713526, 43.2539341], [22.8713503, 43.2540954], [22.8712091, 43.2541748], [22.871081, 43.2542303], [22.8708491, 43.2543595], [22.8707541, 43.254417], [22.8706321, 43.2544739], [22.8705506, 43.2545512], [22.8704777, 43.2546447], [22.8704171, 43.2547428], [22.8703693, 43.2548751], [22.8703, 43.2550132], [22.8702393, 43.255159], [22.8701879, 43.2552625], [22.8701545, 43.2553412], [22.8701265, 43.2554236], [22.8699269, 43.2557245], [22.8698088, 43.2558751], [22.8697495, 43.2559668], [22.8697049, 43.2560515], [22.8696376, 43.2561612], [22.8696004, 43.2562354], [22.869588, 43.2562953], [22.8695859, 43.2563557], [22.8695944, 43.2564345], [22.86962, 43.2564958], [22.8696474, 43.2566044], [22.8696688, 43.2567193], [22.8697157, 43.2568749], [22.8697296, 43.2569893], [22.8697852, 43.2571453], [22.8698385, 43.257231], [22.8698728, 43.2572991], [22.8699162, 43.2574195], [22.8699824, 43.2575259], [22.8700105, 43.2576386], [22.870156, 43.2580038], [22.8701813, 43.2581081], [22.8700386, 43.2587106], [22.8700286, 43.2587773], [22.8700049, 43.2588818], [22.8699361, 43.2590302], [22.8699137, 43.2591594], [22.8698553, 43.2592467], [22.8696887, 43.2595828], [22.8695422, 43.2599491], [22.8694629, 43.2600954], [22.8694096, 43.2602349], [22.8693452, 43.260337], [22.869255, 43.2604651], [22.869184, 43.2607015], [22.8691167, 43.2609671], [22.8690753, 43.2612198], [22.869067, 43.2613072], [22.8689306, 43.2616249], [22.8689212, 43.2617028], [22.8688845, 43.261818], [22.8688681, 43.2619306], [22.8688562, 43.2621866], [22.8688326, 43.2622694], [22.8688232, 43.2623415], [22.8687858, 43.2624783], [22.8687689, 43.2625801], [22.868736, 43.2626693], [22.8687188, 43.2628269], [22.8687321, 43.262946], [22.868779, 43.2631327], [22.8688811, 43.2633578], [22.868919, 43.2634697], [22.8689345, 43.2636256], [22.8689468, 43.2638402], [22.8689441, 43.2639119], [22.8689316, 43.2639898], [22.8689227, 43.2641024], [22.8689174, 43.2644538], [22.8689276, 43.2645386], [22.8689446, 43.264623], [22.8689709, 43.2648772], [22.8690197, 43.2650301], [22.8690325, 43.2651176], [22.8690359, 43.2652005], [22.8690258, 43.2652654], [22.868983, 43.2653617], [22.8689501, 43.2654562], [22.8689135, 43.2655304], [22.8689122, 43.26558], [22.8688848, 43.2656845], [22.868874, 43.265779], [22.8688598, 43.2660205], [22.8688196, 43.2662642], [22.868801, 43.2665025], [22.8687992, 43.2667057], [22.8688065, 43.266973], [22.8688081, 43.2670185], [22.8688485, 43.2673264], [22.8688562, 43.2674454], [22.8687721, 43.2675294], [22.8684185, 43.2677369], [22.8682525, 43.2678517], [22.8681057, 43.267931], [22.8679508, 43.2679945], [22.8678207, 43.2680387], [22.8676881, 43.2680928], [22.8673651, 43.2681499], [22.8671864, 43.2681664], [22.8670428, 43.268193], [22.866702, 43.2682446], [22.8663816, 43.2682886], [22.8663116, 43.2683395], [22.8662075, 43.2683715], [22.8661311, 43.2684075], [22.8660635, 43.2684621], [22.8659638, 43.2685836], [22.8658906, 43.2686481], [22.8658339, 43.2687127], [22.8657624, 43.2687465], [22.8656762, 43.2687776], [22.8655653, 43.2688036], [22.8653527, 43.2688693], [22.8652005, 43.2689121], [22.8650594, 43.2689675], [22.8649491, 43.2690062], [22.8648345, 43.2690336], [22.864654, 43.269121], [22.8644846, 43.2692307], [22.8641608, 43.2694689], [22.8641073, 43.2695208], [22.8640963, 43.2695597], [22.8640927, 43.2696198], [22.8640925, 43.2698797], [22.8640608, 43.2701048], [22.8640515, 43.2704221], [22.8640466, 43.2704481], [22.8640451, 43.2706219], [22.8640323, 43.2707168], [22.8639851, 43.2708813], [22.8639058, 43.2709801], [22.8638824, 43.2710271], [22.863821, 43.2711256], [22.8637785, 43.2711816], [22.8637145, 43.2712497], [22.8636314, 43.2713658], [22.8635669, 43.2714317], [22.8634303, 43.2716092], [22.8633565, 43.2717207], [22.8632932, 43.2718038], [22.8632274, 43.2719081], [22.8631591, 43.2720323], [22.8630829, 43.2721385], [22.8630306, 43.2722225], [22.8629211, 43.2723544], [22.8628701, 43.2724316], [22.8628005, 43.2725065], [22.8627519, 43.2725562], [22.8627039, 43.2725963], [22.8626065, 43.2726658], [22.8625185, 43.2726964], [22.8623982, 43.2727238], [22.8623268, 43.2727526], [22.8621888, 43.2727985], [22.8620976, 43.2728626], [22.8619565, 43.2729103], [22.8617303, 43.2729556], [22.8614647, 43.2730353], [22.8612207, 43.2731362], [22.8611074, 43.2731754], [22.8610057, 43.2732186], [22.8608998, 43.2732849], [22.8608252, 43.2733373], [22.8607305, 43.2734329], [22.8605826, 43.273553], [22.8605119, 43.2736261], [22.8603469, 43.2737235], [22.8601436, 43.2738548], [22.8600327, 43.273917], [22.8599021, 43.2739733], [22.8598122, 43.2740035], [22.8596038, 43.2740579], [22.8594738, 43.2741142], [22.8593284, 43.2741714], [22.8590856, 43.274247], [22.8589981, 43.2742862], [22.8588538, 43.2743095], [22.8587793, 43.2743311], [22.8585086, 43.2743311], [22.8583595, 43.2743264], [22.8580135, 43.2743232], [22.8579168, 43.2743258], [22.8577718, 43.2743206], [22.8575529, 43.2743031], [22.8573377, 43.2742996], [22.857133, 43.2742984], [22.8569696, 43.2743117], [22.8568291, 43.2743373], [22.8564512, 43.2743901], [22.8563131, 43.2744198], [22.855987, 43.2744627], [22.8558853, 43.2744792], [22.8557559, 43.2744935], [22.8555488, 43.274528], [22.8553602, 43.2745535], [22.8551087, 43.2745938], [22.8548281, 43.2746083], [22.8547319, 43.274619], [22.8545649, 43.2746477], [22.8544163, 43.2746782], [22.8542876, 43.2747092], [22.8540853, 43.2747338], [22.8539386, 43.2747684], [22.8538222, 43.2747745], [22.8536397, 43.2747937], [22.853123, 43.2748042], [22.8530101, 43.2748163], [22.8528782, 43.2748382], [22.8525318, 43.2748825], [22.8521743, 43.2749615], [22.8520301, 43.2749997], [22.8518643, 43.2750591], [22.8517133, 43.2750874], [22.8513799, 43.2751994], [22.8512289, 43.2752579], [22.8510243, 43.2753245], [22.8509133, 43.2753673], [22.8507815, 43.2754051], [22.8506132, 43.2754446], [22.850212, 43.275552], [22.8501085, 43.2755867], [22.8499736, 43.2756638], [22.8498805, 43.275684], [22.849826, 43.27569], [22.849751, 43.2756761], [22.8496843, 43.2756534], [22.8496053, 43.2756185], [22.8494523, 43.2755613], [22.8493839, 43.2755395], [22.8493074, 43.2755217], [22.8491217, 43.275446], [22.8489422, 43.2754308], [22.8488159, 43.2754261], [22.8487098, 43.2754413], [22.8486186, 43.2754787], [22.8485528, 43.2755595], [22.848466, 43.2757126], [22.8484126, 43.2758183], [22.8483628, 43.2758982], [22.848337, 43.2759687], [22.8482972, 43.2761987], [22.8482734, 43.2763773], [22.848233, 43.2764838], [22.8481578, 43.2765941], [22.8480318, 43.2768248], [22.8479416, 43.2771384], [22.8478772, 43.2773214], [22.8478404, 43.2774619], [22.8478186, 43.2777254], [22.8478139, 43.2779288], [22.847834, 43.2781513], [22.8478751, 43.2784198], [22.8478839, 43.2785202], [22.8479416, 43.2787291], [22.8479639, 43.2788444], [22.8480654, 43.2790792], [22.848086, 43.2792248], [22.8480813, 43.279354], [22.8480537, 43.2794715], [22.8480082, 43.2795591], [22.8479768, 43.2796391], [22.8479295, 43.2797318], [22.847844, 43.2798337], [22.8477947, 43.2799069], [22.8475525, 43.279987], [22.8474318, 43.2800438], [22.8472476, 43.2801556], [22.8470855, 43.280262], [22.8469469, 43.28034], [22.8468379, 43.2804131], [22.8467263, 43.2804721], [22.8465816, 43.2805356], [22.8464454, 43.2806024], [22.8461877, 43.2806706], [22.8460453, 43.2806953], [22.845726, 43.2807816], [22.8456027, 43.280847], [22.8454333, 43.2809163], [22.8453062, 43.2809791], [22.8451479, 43.2810979], [22.8450447, 43.2811856], [22.844897, 43.2813382], [22.8446884, 43.2816771], [22.8444719, 43.2819798], [22.8443208, 43.282234], [22.8440874, 43.2826652], [22.8438591, 43.2830339], [22.8438051, 43.2831836], [22.843686, 43.2835569], [22.8435794, 43.2838129], [22.8435027, 43.2839314], [22.8434192, 43.2840378], [22.842956, 43.2845515], [22.8429385, 43.2846575], [22.842892, 43.2848334], [22.8428373, 43.2850079], [22.8428092, 43.2852023], [22.8427588, 43.2854765], [22.8427219, 43.2857386], [22.8427216, 43.2859142], [22.8425991, 43.2860551], [22.8425163, 43.2861398], [22.8424273, 43.2862393], [22.8423678, 43.2863275], [22.8423912, 43.2863764], [22.8424515, 43.2864726], [22.8425341, 43.2865495], [22.8426148, 43.2866332], [22.8426677, 43.2867176], [22.8427084, 43.2868017], [22.8427421, 43.2869037], [22.8428172, 43.287065], [22.8428614, 43.2871869], [22.8429236, 43.2872746], [22.8431886, 43.2875685], [22.8432785, 43.2876739], [22.8434449, 43.287834], [22.8435305, 43.2879488], [22.8436001, 43.2880554], [22.8436665, 43.2881847], [22.8436609, 43.2886061], [22.8436656, 43.2887631], [22.8437282, 43.2889569], [22.8438065, 43.2890319], [22.8439494, 43.2891888], [22.8440493, 43.2893023], [22.8441133, 43.2893846], [22.8441335, 43.2894794], [22.8441297, 43.2895764], [22.8441141, 43.2896797], [22.8440911, 43.2897654], [22.8440605, 43.289953], [22.8440113, 43.2902015], [22.844003, 43.2903748], [22.8439694, 43.2905805], [22.8439246, 43.2908064], [22.8439137, 43.2910203], [22.843881, 43.2913627], [22.8438811, 43.2916456], [22.8438609, 43.2919308], [22.8438842, 43.2920455], [22.8439026, 43.2921041], [22.8439209, 43.2922174], [22.8440249, 43.2923972], [22.8440638, 43.2924542], [22.8441192, 43.2925121], [22.8442839, 43.2926325], [22.8443411, 43.2927129], [22.8443867, 43.2927658], [22.8444409, 43.2928499], [22.8445276, 43.2930468], [22.844623, 43.2932464], [22.8446881, 43.2934104], [22.8447127, 43.2934867], [22.844728, 43.2935607], [22.8447535, 43.2938162], [22.8447773, 43.2939706], [22.8448018, 43.2940785], [22.8448603, 43.2942668], [22.8448867, 43.294321], [22.8448989, 43.2944013], [22.8448975, 43.2945245], [22.8449355, 43.2946459], [22.8449311, 43.2947254], [22.8449118, 43.2948133], [22.8448819, 43.2949117], [22.8448435, 43.2950131], [22.8447482, 43.2952069], [22.8447283, 43.295302], [22.8447267, 43.2954329], [22.8447334, 43.2955065], [22.8447438, 43.2955728], [22.8447727, 43.2956609], [22.8448205, 43.2958839], [22.8449419, 43.296367], [22.845052, 43.2970358], [22.8449245, 43.297142], [22.8447634, 43.2972877], [22.844645, 43.2974135], [22.8445047, 43.2975366], [22.8443502, 43.297663], [22.8441914, 43.2977722], [22.8440062, 43.2978866], [22.8436243, 43.2981618], [22.8434541, 43.2982926], [22.8432748, 43.2984097], [22.8431173, 43.2985292], [22.8428511, 43.2987574], [22.842615, 43.2988909], [22.842414, 43.2989963], [22.8422427, 43.299095], [22.8421317, 43.299167], [22.8420158, 43.2993225], [22.8417716, 43.2996263], [22.8414825, 43.2997456], [22.8412028, 43.2998684], [22.8409101, 43.3000139], [22.8406207, 43.3001514], [22.8402747, 43.3002952], [22.8397326, 43.3005318], [22.8389978, 43.300844], [22.8387763, 43.300948], [22.8386653, 43.3011035], [22.8385513, 43.3012383], [22.8383218, 43.3014325], [22.8381315, 43.3016261], [22.8379239, 43.3018206], [22.837693, 43.302088], [22.8375775, 43.3023006], [22.8374148, 43.3025241], [22.8376423, 43.3029041], [22.8378611, 43.3033697], [22.8378575, 43.3034796], [22.837866, 43.3035436], [22.8378669, 43.3036122], [22.8378869, 43.3037322], [22.8379081, 43.3038202], [22.837934, 43.3038945], [22.8379601, 43.3039939], [22.8380065, 43.3040806], [22.8380622, 43.3041661], [22.8381454, 43.3043305], [22.8381854, 43.3043977], [22.8381248, 43.3044484], [22.8380861, 43.3044932], [22.838024, 43.3045484], [22.83785, 43.3046924], [22.8376623, 43.3048799], [22.8374169, 43.3050928], [22.8372878, 43.3051804], [22.837135, 43.3052614], [22.8369388, 43.3053802], [22.8367632, 43.3055231], [22.8367536, 43.3056512], [22.8367433, 43.3057177], [22.8367411, 43.3058023], [22.8367471, 43.3059224], [22.8367702, 43.3060322], [22.8367959, 43.3060995], [22.8367934, 43.3061568], [22.8367486, 43.3062291], [22.8367477, 43.3062852], [22.8367784, 43.3063731], [22.8368298, 43.3064804], [22.8368739, 43.3066551], [22.8369062, 43.3068953], [22.8369025, 43.3069903], [22.8368909, 43.3070636], [22.8368586, 43.3071323], [22.8368231, 43.3071795], [22.8367468, 43.3072394], [22.8366564, 43.3072879], [22.8363866, 43.3074129], [22.8359808, 43.3075729], [22.8358153, 43.3076287], [22.8356749, 43.3077004], [22.8355506, 43.3078006], [22.8354433, 43.3078801], [22.8353547, 43.3079641], [22.8351255, 43.3082265], [22.8350754, 43.3083123], [22.8350176, 43.3084508], [22.834999, 43.308572], [22.8349992, 43.3086748], [22.8350211, 43.3087824], [22.8350652, 43.3089115], [22.8350685, 43.3090613], [22.8351078, 43.3091459], [22.835078, 43.3092169], [22.8350186, 43.3092626], [22.8350203, 43.3093289], [22.8350564, 43.3094181], [22.8350706, 43.3095164], [22.8350707, 43.3096285], [22.8350114, 43.3097486], [22.8349488, 43.3098047], [22.834836, 43.3098654], [22.8347202, 43.309902], [22.8345527, 43.309965], [22.8343679, 43.3100189], [22.8342145, 43.3100728], [22.8339406, 43.3101895], [22.8338342, 43.3102582], [22.8337184, 43.3103875], [22.8334212, 43.3106907], [22.8330802, 43.3110534], [22.832775, 43.3113269], [22.8323776, 43.3117033], [22.8320693, 43.3119883], [22.8318361, 43.3121886], [22.8317784, 43.3122812], [22.8317158, 43.3124162], [22.8316157, 43.3125306], [22.831514, 43.3126335], [22.8311994, 43.3128728], [22.8311745, 43.3129688], [22.8315523, 43.3132499], [22.8317843, 43.3133904], [22.8319207, 43.3134875], [22.8320369, 43.3136234], [22.832051, 43.3136738], [22.8320277, 43.3138545], [22.8319903, 43.3139597], [22.8318793, 43.3141473], [22.8318121, 43.3142399], [22.831693, 43.3143155], [22.8315928, 43.3143659], [22.8314676, 43.3144495], [22.8313174, 43.3145147], [22.8311514, 43.3146097], [22.8309149, 43.3146202], [22.8307803, 43.3146626], [22.830489, 43.3147816], [22.8303856, 43.3148481], [22.8303715, 43.3148881], [22.8303608, 43.314959], [22.8303798, 43.315159], [22.830358, 43.3153008], [22.830305, 43.3154507], [22.8301502, 43.3157081], [22.8300782, 43.3158396], [22.8300408, 43.3159655], [22.8299595, 43.316129], [22.829908, 43.3162537], [22.829905, 43.3163874], [22.8299239, 43.3164754], [22.8299554, 43.3165738], [22.8300103, 43.3166641], [22.8300934, 43.3167315], [22.830222, 43.3167921], [22.830341, 43.3168594], [22.8304445, 43.316928], [22.8305496, 43.3170445], [22.8306547, 43.3172023], [22.8307913, 43.3174377], [22.8308227, 43.3175406], [22.830831, 43.3176507], [22.8307744, 43.3177397], [22.8307401, 43.3177831], [22.8306367, 43.3178701], [22.8304004, 43.3181149], [22.8302721, 43.3182362], [22.8301564, 43.3183369], [22.8297822, 43.3185795], [22.8294519, 43.3187501], [22.8293955, 43.3188176], [22.8292203, 43.318987], [22.829056, 43.3191986], [22.828948, 43.3193027], [22.8288057, 43.3194252], [22.8286978, 43.3195061], [22.8286947, 43.3197271], [22.8287121, 43.3198666], [22.8287171, 43.3201673], [22.82876, 43.3206167], [22.8287502, 43.3207966], [22.8287134, 43.3209998], [22.8286951, 43.3212553], [22.8286905, 43.3216242], [22.8287175, 43.3218986], [22.8287662, 43.3219592], [22.8288399, 43.3220289], [22.8288839, 43.3220906], [22.8289136, 43.3221454], [22.8289012, 43.3221912], [22.8288903, 43.3222667], [22.8288044, 43.3224725], [22.8287387, 43.3226075], [22.8286263, 43.3228809], [22.8285168, 43.3230982], [22.8282477, 43.323414], [22.8280835, 43.3236234], [22.8276579, 43.3241313], [22.8275545, 43.3242423], [22.827481, 43.3243475], [22.8274639, 43.3244253], [22.8274718, 43.3245076], [22.8274891, 43.3245625], [22.8275347, 43.3246437], [22.8276367, 43.3247362], [22.8277009, 43.3247865], [22.8278436, 43.324887], [22.8279612, 43.3249498], [22.8282308, 43.3250743], [22.8283546, 43.3251394], [22.8284252, 43.3252171], [22.8283689, 43.3253532], [22.8283143, 43.3254699], [22.8282472, 43.3257147], [22.8282489, 43.325837], [22.8282919, 43.3259398], [22.8282748, 43.3260392], [22.8282727, 43.3261798], [22.8282299, 43.3264174], [22.8281373, 43.326849], [22.8280044, 43.3272368], [22.8279581, 43.3273978], [22.8279197, 43.3274534], [22.8276839, 43.3277044], [22.8275731, 43.3278819], [22.8274432, 43.3280752], [22.8274147, 43.3281951], [22.8274435, 43.3282674], [22.8275394, 43.3283517], [22.8277046, 43.3284206], [22.8277874, 43.3285322], [22.8278539, 43.3285979], [22.8278578, 43.3286551], [22.8278553, 43.3287134], [22.8278047, 43.3288422], [22.827778, 43.3289507], [22.8277248, 43.3290498], [22.8276534, 43.329111], [22.8273942, 43.3292461], [22.8272249, 43.3293522], [22.826707, 43.3297094], [22.8265291, 43.3298693], [22.8264874, 43.3299329], [22.8264337, 43.3300537], [22.8263391, 43.3301948], [22.8263631, 43.3302133], [22.8262139, 43.3304047], [22.8251976, 43.3309411], [22.8236408, 43.3324001], [22.8224607, 43.33271], [22.818733, 43.3343724], [22.8174207, 43.3352413], [22.8147126, 43.3362077], [22.8138084, 43.3370502], [22.8125587, 43.3367667], [22.8113483, 43.3370712], [22.8088149, 43.3378122], [22.8074063, 43.3372921], [22.8062184, 43.3374867], [22.8038769, 43.3380024], [22.8004635, 43.3399473], [22.7995958, 43.3404779], [22.7990643, 43.3405575], [22.7985297, 43.3409042], [22.7976814, 43.3412877], [22.7962623, 43.3417586], [22.7954147, 43.3426292], [22.7950955, 43.342617], [22.7940741, 43.3437011], [22.7939574, 43.3439052], [22.7911277, 43.3497231], [22.7853936, 43.3548877], [22.7823954, 43.3563627], [22.781781, 43.3575867], [22.7746269, 43.360813], [22.7738618, 43.3614472], [22.7706144, 43.3631704], [22.7699626, 43.3636001], [22.7699124, 43.3645992], [22.769003, 43.3660661], [22.7686728, 43.3668736], [22.7691215, 43.3680518], [22.7689443, 43.3687065], [22.769186, 43.3697242], [22.7694736, 43.3703785], [22.7698969, 43.3705656], [22.7699485, 43.3709721], [22.7696992, 43.3715014], [22.7691331, 43.3729648], [22.7683721, 43.3753209], [22.7683501, 43.3753131], [22.7682765, 43.375541], [22.7682525, 43.3757268], [22.7682413, 43.375905], [22.7681795, 43.3760741], [22.7681408, 43.3762757], [22.7680371, 43.3764629], [22.7679252, 43.3766006], [22.7677719, 43.3767286], [22.7675821, 43.3768688], [22.7673531, 43.3770805], [22.7670472, 43.3772388], [22.7667753, 43.377373], [22.7664769, 43.3774581], [22.7662146, 43.3775501], [22.7658799, 43.3776969], [22.7656477, 43.3777297], [22.7653224, 43.3777505], [22.7650001, 43.3777328], [22.7648143, 43.3777355], [22.7643681, 43.3777787], [22.7636288, 43.3779331], [22.7633118, 43.3780182], [22.7629487, 43.3781671], [22.7623897, 43.3783751], [22.7620976, 43.3784911], [22.7616807, 43.3785577], [22.7614059, 43.3786114], [22.7610809, 43.3787045], [22.7607468, 43.3787949], [22.7603621, 43.3789593], [22.759998, 43.3791075], [22.7596198, 43.3792783], [22.7589595, 43.3796358], [22.7586518, 43.3798623], [22.758368, 43.3801131], [22.7579969, 43.3803413], [22.7577349, 43.3804618], [22.7574063, 43.3806216], [22.7571048, 43.3807125], [22.7567999, 43.3807499], [22.7565259, 43.3807354], [22.7561795, 43.3807242], [22.7559693, 43.3807318], [22.7556578, 43.38082], [22.7554287, 43.3809065], [22.7551354, 43.3810594], [22.7548712, 43.3812208], [22.7543126, 43.3815272], [22.7540382, 43.3816682], [22.7538112, 43.3818378], [22.7536121, 43.3820549], [22.7534918, 43.3821927], [22.7533533, 43.3824067], [22.7531699, 43.3826341], [22.7530261, 43.3828462], [22.752906, 43.383013], [22.7527165, 43.383197], [22.7523393, 43.3835113], [22.7519626, 43.3837998], [22.7514968, 43.3841273], [22.7513018, 43.3842484], [22.7510546, 43.3844566], [22.7506464, 43.384828], [22.7499327, 43.3853193], [22.7496049, 43.3855374], [22.7493673, 43.3857184], [22.7491644, 43.3859209], [22.7489167, 43.3861026], [22.7486095, 43.3863092], [22.748338, 43.3864647], [22.7476697, 43.3865635], [22.7470453, 43.3863683], [22.7470082, 43.3863931], [22.7467824, 43.3865228], [22.7465984, 43.3866695], [22.7465195, 43.386727], [22.7463927, 43.3868105], [22.7461669, 43.3869842], [22.7459287, 43.3871557], [22.745785, 43.3872335], [22.7456689, 43.3873012], [22.7455731, 43.3873644], [22.7454277, 43.3874433], [22.7453566, 43.3874918], [22.7452406, 43.387555], [22.7450272, 43.3876892], [22.7449066, 43.3877433], [22.7448449, 43.3877648], [22.7447274, 43.3877872], [22.744545, 43.3878356], [22.744409, 43.3878367], [22.7442622, 43.3878512], [22.7441231, 43.3878759], [22.7439701, 43.3879096], [22.7437909, 43.3879287], [22.7436394, 43.3879286], [22.7430507, 43.3879823], [22.7429472, 43.3879844], [22.7428683, 43.3879799], [22.742774, 43.3879617], [22.742652, 43.387922], [22.7425146, 43.3878598], [22.7421882, 43.3877342], [22.7420944, 43.3877064], [22.7419587, 43.3876827], [22.741835, 43.3876863], [22.7416942, 43.3876964], [22.7413072, 43.3877418], [22.7412006, 43.3877455], [22.7409762, 43.3877607], [22.740729, 43.3877564], [22.7405002, 43.3877636], [22.7402235, 43.3877625], [22.7401277, 43.3877561], [22.7399688, 43.3877379], [22.7397807, 43.3877036], [22.7396031, 43.3876897], [22.7392332, 43.387618], [22.7391499, 43.3876116], [22.7391004, 43.3876033], [22.7390248, 43.387596], [22.7388843, 43.3875948], [22.738844, 43.3876001], [22.7387992, 43.3875998], [22.7387295, 43.3876059], [22.7386706, 43.3876145], [22.7384982, 43.3876786], [22.7382337, 43.3878029], [22.7380536, 43.387868], [22.737637, 43.3880317], [22.7375112, 43.388077], [22.7372909, 43.3881339], [22.7371221, 43.3881653], [22.7369669, 43.3882024], [22.7368509, 43.3882139], [22.7365989, 43.3882197], [22.736035, 43.3883055], [22.7358957, 43.3883202], [22.7355778, 43.3883944], [22.7352506, 43.3884854], [22.7350559, 43.38859], [22.7348615, 43.388673], [22.7348147, 43.3887039], [22.7346754, 43.388825], [22.7344025, 43.3890012], [22.7342222, 43.3890764], [22.7340688, 43.3891034], [22.7339634, 43.3891262], [22.7337337, 43.3891922], [22.7336592, 43.3892186], [22.7335272, 43.389257], [22.7334638, 43.3892634], [22.7333865, 43.3892627], [22.7331404, 43.3892821], [22.7330089, 43.389298], [22.7328944, 43.3893027], [22.7328171, 43.3893145], [22.7326602, 43.3893618], [22.7325622, 43.3894095], [22.7324157, 43.3894919], [22.7323827, 43.3895311], [22.7323275, 43.3896097], [22.7323177, 43.3896536], [22.7322935, 43.3897223], [22.7321506, 43.3899965], [22.7321105, 43.3901024], [22.7320867, 43.3902601], [22.7320527, 43.3903637], [22.7320505, 43.3904156], [22.7320295, 43.3904798], [22.7319744, 43.3905482], [22.7318838, 43.3906231], [22.7317979, 43.39068], [22.7316515, 43.3907623], [22.7315657, 43.3908181], [22.731557940051605, 43.39082539318458], [22.771561, 43.417247], [22.79802, 43.46975], [22.797503, 43.490886], [22.817657, 43.499154], [22.854657, 43.509257], [22.912431, 43.514088], [22.968655, 43.526801], [22.976923, 43.543596], [22.970929, 43.562587], [22.949018, 43.566152], [22.938063, 43.581061], [22.952636, 43.634753], [22.987569, 43.674415], [23.035938, 43.687566], [23.046893, 43.701674], [23.035938, 43.722138], [23.029427, 43.742498], [23.0101, 43.748415], [22.989946, 43.752007], [22.975166, 43.765753], [22.990876, 43.779912], [23.015474, 43.778517], [23.040175, 43.783555], [23.04474043703283, 43.79702759952131], [23.0459197, 43.7967964], [23.0648557, 43.7962292], [23.1244525, 43.80346], [23.1380122, 43.805105], [23.1639805, 43.8155981], [23.2309466, 43.8345864], [23.2492794, 43.839346], [23.2677765, 43.8459516], [23.2836308, 43.8460716], [23.314334, 43.8481046], [23.369816, 43.8472314], [23.4139146, 43.853179], [23.4438203, 43.848491], [23.4954868, 43.8340917], [23.5296249, 43.8165073], [23.5414697, 43.8100417], [23.5540469, 43.8037646], [23.6072905, 43.7915955], [23.6302124, 43.7901979], [23.632033541528163, 43.79067325722343], [23.622465, 43.714102], [23.606652, 43.678316], [23.586809, 43.645114], [23.584225, 43.633254], [23.585775, 43.621033], [23.574096, 43.607778], [23.556423, 43.598683], [23.551049, 43.583826], [23.567998, 43.571604], [23.578644, 43.565972], [23.590839, 43.563052], [23.598591, 43.553337], [23.609236, 43.545534], [23.621535, 43.540547], [23.622776, 43.528299], [23.60903, 43.51923], [23.592493, 43.527008], [23.568515, 43.513442], [23.546191, 43.4944], [23.526141, 43.493366], [23.506193, 43.4944], [23.482216, 43.505303], [23.441391, 43.488018], [23.410799, 43.455927], [23.412762, 43.417479], [23.405011, 43.378541], [23.380723, 43.353556], [23.360363, 43.32578], [23.335661, 43.303326], [23.327186, 43.275653], [23.40191, 43.256171], [23.463509, 43.23147], [23.450693, 43.208603], [23.424648, 43.206769], [23.396639, 43.189871], [23.398913, 43.162947], [23.36274, 43.133698], [23.318091, 43.120831], [23.286052, 43.129151], [23.254736, 43.123001], [23.220319, 43.111193], [23.127302, 43.117162], [23.10105, 43.131812], [23.02891, 43.194935], [22.982902, 43.187318], [22.982141946597093, 43.193098367052464], [22.9925604, 43.1972216]]]}, "properties": {"name": "область Монтана (Берковица, Кутловица, Лом)", "source": "Natural Earth admin-1 ∩ OpenHistoricalMap (CC0) relations 2854742, 2854743; нарезка 22.09.2026"}}]}