{"type": "FeatureCollection", "features": [{"type": "Feature", "geometry": {"type": "Polygon", "coordinates": [[[25.231153, 43.656095], [25.217304, 43.615684], [25.187435, 43.589123], [25.195186, 43.558168], [25.211619, 43.556205], [25.219371, 43.546645], [25.196736, 43.51153], [25.167797, 43.48484], [25.135965, 43.461689], [25.14754, 43.440346], [25.190328, 43.442051], [25.199113, 43.406007], [25.220301, 43.374149], [25.225675, 43.336528], [25.184127, 43.307486], [25.16604, 43.298443], [25.149607, 43.287126], [25.130694, 43.282836], [25.111574, 43.279891], [25.075193, 43.305936], [25.049872, 43.343608], [25.029821, 43.363813], [25.024447, 43.337639], [25.00667, 43.324979], [24.980109, 43.310742], [24.95024, 43.301414], [24.922231, 43.295471], [24.89629, 43.294515], [24.874585, 43.313326], [24.836965, 43.309863], [24.813814, 43.311258], [24.752836, 43.308726], [24.699609, 43.280382], [24.685553, 43.264698], [24.674288, 43.258962], [24.663539, 43.270434], [24.65217, 43.258729], [24.643902, 43.244622], [24.625195, 43.227439], [24.589848, 43.205399], [24.574449, 43.201136], [24.570935, 43.208526], [24.564217, 43.214081], [24.515331, 43.215657], [24.443087, 43.231005], [24.42407, 43.244622], [24.410531, 43.263871], [24.392548, 43.277979], [24.373014, 43.278211], [24.353894, 43.273793], [24.33405, 43.260461], [24.316997, 43.245629], [24.288885, 43.240358], [24.259533, 43.231573], [24.235245, 43.226277], [24.20982, 43.22917], [24.179021, 43.241521], [24.15649, 43.237981], [24.132822, 43.252347], [24.080215, 43.234829], [24.026782, 43.21173], [23.959396, 43.231625], [23.950714, 43.245164], [23.960843, 43.265163], [23.978619, 43.294593], [24.052413, 43.315806], [24.067193, 43.313015], [24.081869, 43.30808], [24.092928, 43.3187], [24.111945, 43.327743], [24.145844, 43.329242], [24.180674, 43.324927], [24.228113, 43.343065], [24.236485, 43.400969], [24.244236, 43.420451], [24.243203, 43.437504], [24.224909, 43.48453], [24.178711, 43.491351], [24.151425, 43.522357], [24.14016, 43.558427], [24.120213, 43.588993], [24.145121, 43.606021], [24.172303, 43.629973], [24.199484, 43.647414], [24.231524, 43.645037], [24.287541, 43.665242], [24.31733145019618, 43.69830081011998], [24.331342, 43.6956038], [24.3413592, 43.6957309], [24.3495952, 43.6971834], [24.356133, 43.6996743], [24.3798211, 43.7107228], [24.409384, 43.7176875], [24.4377425, 43.7366144], [24.4484424, 43.7430107], [24.4727943, 43.7484916], [24.4946769, 43.7602792], [24.5011934, 43.7620913], [24.5124719, 43.7618032], [24.5729718, 43.7524038], [24.6114189, 43.7447195], [24.636094, 43.7336577], [24.6533323, 43.7255166], [24.6930438, 43.6987304], [24.7111181, 43.6896162], [24.7224923, 43.6855579], [24.7285099, 43.6845278], [24.7409111, 43.6836033], [24.7459724, 43.6839185], [24.771534, 43.6931547], [24.8008293, 43.7078709], [24.8147033, 43.7117811], [24.834947, 43.7119396], [24.8463802, 43.7090012], [24.8550676, 43.7067684], [24.8681139, 43.7057757], [24.8986696, 43.7097465], [24.9244188, 43.7149579], [24.9477648, 43.7179356], [24.9657602, 43.7219965], [24.9740954, 43.7217622], [24.9786218, 43.7204813], [24.9877633, 43.7177763], [25.0029299, 43.7125652], [25.0084401, 43.7113297], [25.0148231, 43.7106481], [25.0189695, 43.7108123], [25.0214486, 43.7104526], [25.0284232, 43.7081576], [25.033972, 43.7065322], [25.0407539, 43.7036482], [25.054018, 43.6960482], [25.0612734, 43.6935059], [25.0899004, 43.6869105], [25.105779, 43.683698], [25.1122164, 43.6836829], [25.1307558, 43.6879035], [25.146892, 43.6928686], [25.1795076, 43.6980814], [25.1898073, 43.6973367], [25.222423, 43.687407], [25.242679, 43.6856691], [25.2584719, 43.6767307], [25.261063820622223, 43.67473872969262], [25.255647, 43.672296], [25.231153, 43.656095]]]}, "properties": {"name": "область Плевен", "source": "Natural Earth admin-1 ∩ OpenHistoricalMap (CC0) relations 2854742, 2854743; нарезка 22.09.2026"}}]}