{"type": "FeatureCollection", "features": [{"type": "Feature", "geometry": {"type": "Polygon", "coordinates": [[[27.203796, 42.08813], [27.183965520278818, 42.06827542383631], [27.1836808, 42.0701448], [27.1761706, 42.0699856], [27.1733596, 42.0660351], [27.1636179, 42.064697], [27.1593263, 42.0652705], [27.1534255, 42.0720722], [27.1502712, 42.068775], [27.1344783, 42.0682971], [27.1285775, 42.0694918], [27.1105745, 42.0857689], [27.061372, 42.0899091], [27.0491841, 42.0841764], [27.047786176315245, 42.08438388957614], [27.047063, 42.093477], [27.054917, 42.130323], [27.033937, 42.157427], [27.019881, 42.184454], [27.029389, 42.213574], [27.039931, 42.234089], [27.036624, 42.251349], [27.036624, 42.274526], [27.05006, 42.29176], [27.083339, 42.306023], [27.089541, 42.337313], [27.070317, 42.364908], [27.040138, 42.379145], [27.009029, 42.379532], [26.979677, 42.38718], [26.968721, 42.404079], [26.960556, 42.421907], [26.870019, 42.471465], [26.869192, 42.491774], [26.847798, 42.501024], [26.808524, 42.53699], [26.799946, 42.546241], [26.797982, 42.559005], [26.790748, 42.572234], [26.777622, 42.580993], [26.765529, 42.606392], [26.757468, 42.63422], [26.719434, 42.689178], [26.660833, 42.695844], [26.627657, 42.683209], [26.593137, 42.675587], [26.568849, 42.684966], [26.544458, 42.696619], [26.512832, 42.70419], [26.498982, 42.730105], [26.523994, 42.7469], [26.55531, 42.755478], [26.578254, 42.770594], [26.57319, 42.795528], [26.577427, 42.814028], [26.59231, 42.828626], [26.580734, 42.854335], [26.566368, 42.88113], [26.575774, 42.903996], [26.572363, 42.923763], [26.645227, 42.937173], [26.655459, 42.922187], [26.654632, 42.899966], [26.689668, 42.888907], [26.728736, 42.89423], [26.762325, 42.908389], [26.783823, 42.938697], [26.800979, 42.946914], [26.820823, 42.946113], [26.877564, 42.949601], [26.90919, 42.933995], [26.941953, 42.938981], [26.981537, 42.940222], [27.023705, 42.928801], [27.072074, 42.938387], [27.1191, 42.953658], [27.17677, 42.963011], [27.236508, 42.98841], [27.284878, 42.976705], [27.324152, 42.948335], [27.355364, 42.911438], [27.376758, 42.905831], [27.400116, 42.903893], [27.445798, 42.883739], [27.495201, 42.875678], [27.583154, 42.891982], [27.620568, 42.909397], [27.647646, 42.903221], [27.673278, 42.891775], [27.697359, 42.875135], [27.718856, 42.854956], [27.744798, 42.84108], [27.772703, 42.830409], [27.801849, 42.822064], [27.831511, 42.826585], [27.852802, 42.840745], [27.876883, 42.847798], [27.883962, 42.848375], [27.883556, 42.831936], [27.891612, 42.81037], [27.897146, 42.784003], [27.897146, 42.736233], [27.894705, 42.717475], [27.892263, 42.710517], [27.841075, 42.708319], [27.787364, 42.715155], [27.743175, 42.716051], [27.732677, 42.714504], [27.725597, 42.708482], [27.719005, 42.694566], [27.715831, 42.683743], [27.71697, 42.674506], [27.724132, 42.666978], [27.739513, 42.661078], [27.712738, 42.65766], [27.6692, 42.643704], [27.646739, 42.64057], [27.628429, 42.628974], [27.630382, 42.602729], [27.641449, 42.574774], [27.650157, 42.558051], [27.634044, 42.563707], [27.540863, 42.565497], [27.511485, 42.553046], [27.498546, 42.532457], [27.491466, 42.507758], [27.480154, 42.482896], [27.46225, 42.489569], [27.452891, 42.480129], [27.45338, 42.465237], [27.465668, 42.455634], [27.462087, 42.448717], [27.461111, 42.443549], [27.465668, 42.42829], [27.468435, 42.435777], [27.4699, 42.437079], [27.469412, 42.437201], [27.465668, 42.441352], [27.472667, 42.461859], [27.503917, 42.437323], [27.514171, 42.435126], [27.526378, 42.443671], [27.534434, 42.455268], [27.544444, 42.460028], [27.562022, 42.448188], [27.571056, 42.458482], [27.5796, 42.457221], [27.587738, 42.451483], [27.595551, 42.448188], [27.60963, 42.451158], [27.619477, 42.455878], [27.629405, 42.458645], [27.643321, 42.455634], [27.642833, 42.450507], [27.641775, 42.44953], [27.639822, 42.449774], [27.636485, 42.448188], [27.642426, 42.430894], [27.652192, 42.418524], [27.667735, 42.416083], [27.691661, 42.42829], [27.693533, 42.418891], [27.699067, 42.413886], [27.707856, 42.412746], [27.719005, 42.4147], [27.719005, 42.407213], [27.713227, 42.405951], [27.698009, 42.400377], [27.705414, 42.390611], [27.709646, 42.388129], [27.719005, 42.386705], [27.709483, 42.376776], [27.708344, 42.363105], [27.714366, 42.349189], [27.725841, 42.338935], [27.740408, 42.334296], [27.752126, 42.335395], [27.764496, 42.338324], [27.780447, 42.338935], [27.780447, 42.332709], [27.774587, 42.327216], [27.774425, 42.321723], [27.779145, 42.316311], [27.787852, 42.310981], [27.76295, 42.2956], [27.75115, 42.277045], [27.75587, 42.25849], [27.780447, 42.243354], [27.776052, 42.240668], [27.775645, 42.239651], [27.77518708709057, 42.23877315774045], [27.7673632, 42.2377182], [27.7597633, 42.236002], [27.7502428, 42.2358386], [27.7410885, 42.2372718], [27.7331143, 42.237575], [27.7260536, 42.2349397], [27.7163698, 42.23163], [27.704892, 42.2331726], [27.6921782, 42.2357304], [27.6765311, 42.2380042], [27.6607322, 42.2397175], [27.6394422, 42.2406203], [27.6235688, 42.2395671], [27.6167229, 42.2327212], [27.6086733, 42.2259505], [27.5993871, 42.2196988], [27.5942387, 42.2121806], [27.5948925, 42.2046623], [27.6011849, 42.1961634], [27.608458, 42.1888903], [27.619, 42.1857849], [27.6184943, 42.1791471], [27.6111731, 42.1760288], [27.6091846, 42.1663123], [27.6026316, 42.1594882], [27.5932767, 42.1574093], [27.578589, 42.1579065], [27.5723072, 42.1532516], [27.5618677, 42.1506304], [27.5522416, 42.1532064], [27.5424348, 42.1583132], [27.5367857, 42.1678037], [27.531001, 42.1735884], [27.5176239, 42.1760288], [27.5055122, 42.1796894], [27.4976035, 42.1842539], [27.491864, 42.1869655], [27.4834129, 42.1868299], [27.4769955, 42.182401], [27.4680474, 42.1798702], [27.4599915, 42.1801652], [27.4540031, 42.1832159], [27.4472237, 42.1826509], [27.4414047, 42.1873965], [27.4394839, 42.1934415], [27.4312921, 42.192933], [27.4255861, 42.1894303], [27.4198802, 42.1854192], [27.4144002, 42.1829899], [27.4093156, 42.1889219], [27.4012369, 42.1903907], [27.3946269, 42.1924246], [27.3896554, 42.1960967], [27.3857573, 42.2010118], [27.3780175, 42.2031586], [27.3703405, 42.1994839], [27.3614827, 42.1958684], [27.3535287, 42.1920722], [27.3482864, 42.1964107], [27.340694, 42.1993935], [27.3309323, 42.199755], [27.322144, 42.2019722], [27.3157601, 42.2014637], [27.3082455, 42.1972242], [27.2988454, 42.1967723], [27.2887222, 42.1974954], [27.2759778, 42.1995742], [27.2651316, 42.2019243], [27.2622392, 42.1912588], [27.2571776, 42.1806836], [27.26712, 42.1778817], [27.2787798, 42.1747182], [27.2724926, 42.1665986], [27.2704753, 42.1605466], [27.2712015, 42.1566733], [27.2770114, 42.157803], [27.2857263, 42.1590537], [27.2938327, 42.1575709], [27.2876654, 42.1467936], [27.27938, 42.1319672], [27.2824217, 42.1259348], [27.2897523, 42.1184801], [27.286164, 42.1116165], [27.2837033, 42.1066639], [27.2767261, 42.1022408], [27.2731539, 42.10199], [27.2705414, 42.1046368], [27.2627523, 42.0998924], [27.2467878, 42.0998924], [27.2407582, 42.1050825], [27.2318103, 42.100179], [27.2218325, 42.0985551], [27.220774882707733, 42.09608367316329], [27.216405, 42.095623], [27.203796, 42.08813]]]}, "properties": {"name": "область Бургас без юга Странджи", "source": "Natural Earth admin-1 ∩ OpenHistoricalMap (CC0) relations 2854742, 2854743; нарезка 22.09.2026"}}]}