{"type": "FeatureCollection", "features": [{"type": "Feature", "geometry": {"type": "Polygon", "coordinates": [[[24.231524, 43.645037], [24.199484, 43.647414], [24.172303, 43.629973], [24.145121, 43.606021], [24.120213, 43.588993], [24.14016, 43.558427], [24.151425, 43.522357], [24.178711, 43.491351], [24.224909, 43.48453], [24.243203, 43.437504], [24.244236, 43.420451], [24.236485, 43.400969], [24.228113, 43.343065], [24.180674, 43.324927], [24.145844, 43.329242], [24.111945, 43.327743], [24.092928, 43.3187], [24.081869, 43.30808], [24.067193, 43.313015], [24.052413, 43.315806], [23.978619, 43.294593], [23.960843, 43.265163], [23.950714, 43.245164], [23.959396, 43.231625], [24.026782, 43.21173], [24.034947, 43.173308], [24.026782, 43.133233], [24.016343, 43.110754], [23.991022, 43.110857], [23.973762, 43.122149], [23.958362, 43.1145], [23.963737, 43.086233], [23.977483, 43.059878], [23.959086, 43.039492], [23.935625, 43.027762], [23.918571, 43.036702], [23.902345, 43.042799], [23.80354, 43.05608], [23.766023, 43.067862], [23.738427, 43.054788], [23.716723, 43.034609], [23.691712, 43.027296], [23.665357, 43.028304], [23.650164, 43.042102], [23.634351, 43.053031], [23.591666, 43.026728], [23.552599, 43.009158], [23.532032, 43.026005], [23.516942, 43.048329], [23.493584, 43.07055], [23.467126, 43.088998], [23.45028, 43.097473], [23.43519, 43.108248], [23.43457, 43.128143], [23.448626, 43.136644], [23.469813, 43.13685], [23.462062, 43.150312], [23.431366, 43.161965], [23.398913, 43.162947], [23.396639, 43.189871], [23.424648, 43.206769], [23.450693, 43.208603], [23.463509, 43.23147], [23.40191, 43.256171], [23.327186, 43.275653], [23.335661, 43.303326], [23.360363, 43.32578], [23.380723, 43.353556], [23.405011, 43.378541], [23.412762, 43.417479], [23.410799, 43.455927], [23.441391, 43.488018], [23.482216, 43.505303], [23.506193, 43.4944], [23.526141, 43.493366], [23.546191, 43.4944], [23.568515, 43.513442], [23.592493, 43.527008], [23.60903, 43.51923], [23.622776, 43.528299], [23.621535, 43.540547], [23.609236, 43.545534], [23.598591, 43.553337], [23.590839, 43.563052], [23.578644, 43.565972], [23.567998, 43.571604], [23.551049, 43.583826], [23.556423, 43.598683], [23.574096, 43.607778], [23.585775, 43.621033], [23.584225, 43.633254], [23.586809, 43.645114], [23.606652, 43.678316], [23.622465, 43.714102], [23.632033541528163, 43.79067325722343], [23.6737747, 43.8015686], [23.7024119, 43.8064462], [23.718085, 43.8063266], [23.7494167, 43.803377], [23.7643435, 43.802405], [23.7709211, 43.8018676], [23.7780102, 43.8002785], [23.7877847, 43.7955166], [23.7948585, 43.7911192], [23.8107255, 43.7750021], [23.8132608, 43.7728197], [23.8178334, 43.7707779], [23.8276977, 43.7670883], [23.8438725, 43.7611049], [23.8516427, 43.7586465], [23.8562347, 43.7574523], [23.8644666, 43.755697], [23.8861783, 43.7492798], [23.9240991, 43.7458243], [23.9322901, 43.7455586], [23.9620279, 43.7457466], [23.9785592, 43.7425989], [24.027436, 43.7287187], [24.0578716, 43.7194289], [24.0712329, 43.7116068], [24.0865027, 43.7034693], [24.0940071, 43.7016956], [24.1227968, 43.6973184], [24.1415819, 43.6917642], [24.1527666, 43.6864711], [24.1652882, 43.6827824], [24.1748754, 43.6812792], [24.1933823, 43.6822965], [24.206405, 43.68495], [24.2199567, 43.6849117], [24.2402146, 43.6896267], [24.266312, 43.6921602], [24.2936383, 43.6980567], [24.3108847, 43.6995418], [24.31733145019618, 43.69830081011998], [24.287541, 43.665242], [24.231524, 43.645037]]]}, "properties": {"name": "область Враца", "source": "Natural Earth admin-1 ∩ OpenHistoricalMap (CC0) relations 2854742, 2854743; нарезка 22.09.2026"}}]}