{"type": "FeatureCollection", "features": [{"type": "Feature", "geometry": {"type": "Polygon", "coordinates": [[[28.165294, 41.08515], [28.117442, 41.071234], [28.110037, 41.067776], [28.100271, 41.067816], [28.044932, 41.050442], [28.030121, 41.047593], [28.013031, 41.040717], [27.997325, 41.03205], [27.986583, 41.023668], [27.964366, 40.996283], [27.957774, 40.983303], [27.959239, 40.975287], [27.941254, 40.971096], [27.860688, 40.978461], [27.845714, 40.98607], [27.831554, 40.995103], [27.815278, 41.002631], [27.776134, 41.010972], [27.737804, 41.012641], [27.524181, 40.989203], [27.493175, 40.975287], [27.47169, 40.94184], [27.446544, 40.861721], [27.424815, 40.831285], [27.330821, 40.760972], [27.287934, 40.703559], [27.198253, 40.653144], [27.192719, 40.648342], [27.182302, 40.636379], [27.177745, 40.632636], [27.167003, 40.629869], [27.142833, 40.627387], [27.115245, 40.613715], [27.068614, 40.614407], [27.047537, 40.612209], [27.03061, 40.601549], [27.001475, 40.570299], [26.989757, 40.563788], [26.96354, 40.56102], [26.931928, 40.635815], [26.932444, 40.714879], [26.786407, 40.725835], [26.760982, 40.790999], [26.723051, 40.853734], [26.716333, 40.935047], [26.73411, 41.005559], [26.765013, 41.065349], [26.813899, 41.113511], [26.829298, 41.172836], [26.821547, 41.312362], [26.809764, 41.330268], [26.96035, 41.355305], [27.12344, 41.364762], [27.239816, 41.364762], [27.295523, 41.336935], [27.340275, 41.292415], [27.395982, 41.264562], [27.459647, 41.278153], [27.517938, 41.311122], [27.554112, 41.366778], [27.601447, 41.419694], [27.698909, 41.441941], [27.80743, 41.461449], [27.980442, 41.47814], [28.155729, 41.492196], [28.182084, 41.42096], [28.193039, 41.355305], [28.162963, 41.273243], [28.149321, 41.21304], [28.162963, 41.136456], [28.174734, 41.080837], [28.165294, 41.08515]]]}, "properties": {"name": "ил Текирдаг (Родосто, Чорлу, Малкара)", "source": "Natural Earth admin-1; нарезка 22.09.2026"}}]}