{"type": "FeatureCollection", "features": [{"type": "Feature", "geometry": {"type": "Polygon", "coordinates": [[[26.360903, 43.033033], [26.335788, 43.041507], [26.308503, 43.032361], [26.29176, 43.031741], [26.274707, 43.03466], [26.275637, 43.020268], [26.274707, 43.004843], [26.267989, 42.99133], [26.251349, 42.985774], [26.23688, 42.972933], [26.22427, 42.958722], [26.198742, 42.952236], [26.171974, 42.949058], [26.135594, 42.970762], [26.094563, 42.97748], [26.089395, 43.000063], [26.111306, 43.013783], [26.112133, 43.026806], [26.098387, 43.030345], [26.086398, 43.039544], [26.081644, 43.054762], [26.070171, 43.077061], [26.057252, 43.098455], [26.059113, 43.122381], [26.073065, 43.144137], [26.072755, 43.161345], [26.079163, 43.175815], [26.093736, 43.175737], [26.107688, 43.177933], [26.096216, 43.214882], [26.063453, 43.24656], [26.06521, 43.26878], [26.086294, 43.28542], [26.058803, 43.30821], [26.020459, 43.318855], [26.022216, 43.341463], [26.018805, 43.3634], [25.996171, 43.371306], [25.969402, 43.373839], [25.951729, 43.394044], [25.946148, 43.416575], [25.970643, 43.421794], [25.996481, 43.435695], [26.019632, 43.453317], [26.033894, 43.475047], [26.039165, 43.507267], [26.070481, 43.517809], [26.094046, 43.530935], [26.116887, 43.527473], [26.139108, 43.530883], [26.164326, 43.527421], [26.18417, 43.535948], [26.227268, 43.547678], [26.271503, 43.537705], [26.322766, 43.515096], [26.363693, 43.483574], [26.348501, 43.448614], [26.36049, 43.441483], [26.373822, 43.435747], [26.43418, 43.429959], [26.48534, 43.41766], [26.480069, 43.378955], [26.4872, 43.349706], [26.550452, 43.349809], [26.57412, 43.342058], [26.598408, 43.342161], [26.634168, 43.369343], [26.656079, 43.37203], [26.677059, 43.376526], [26.681193, 43.415309], [26.701761, 43.415076], [26.723051, 43.410942], [26.772661, 43.403475], [26.781342, 43.368154], [26.762532, 43.358542], [26.748683, 43.343711], [26.739071, 43.320509], [26.73349, 43.297513], [26.766046, 43.252192], [26.764289, 43.209353], [26.749923, 43.209146], [26.73535, 43.200464], [26.723878, 43.174574], [26.709926, 43.155144], [26.677886, 43.146359], [26.656906, 43.121244], [26.667344, 43.10724], [26.686258, 43.09892], [26.67799, 43.08489], [26.656492, 43.080988], [26.653908, 43.066209], [26.64502, 43.049233], [26.627347, 43.047295], [26.614221, 43.037683], [26.628277, 43.023602], [26.629827, 43.006471], [26.605126, 43.002182], [26.590863, 42.991511], [26.574327, 42.986575], [26.542907, 42.998461], [26.513452, 43.013395], [26.491438, 43.019855], [26.46901, 43.009365], [26.444205, 43.005179], [26.418677, 43.006316], [26.381263, 43.025023], [26.373615, 43.015152], [26.363383, 43.010011], [26.356355, 43.021121], [26.360903, 43.033033]]]}, "properties": {"name": "область Тырговиште (Эски-Джума, Осман-Базар)", "source": "Natural Earth admin-1 ∩ OpenHistoricalMap (CC0) relations 2854742, 2854743; нарезка 22.09.2026"}}]}