{"type": "FeatureCollection", "features": [{"type": "Feature", "geometry": {"type": "MultiPolygon", "coordinates": [[[[35.65562, 64.96722], [35.65373, 64.96521], [35.65472, 64.96658], [35.65362, 64.96601], [35.65349, 64.96522], [35.65389, 64.96414], [35.65652, 64.96344], [35.65814, 64.9616], [35.66234, 64.9598], [35.66654, 64.95932], [35.66397, 64.95845], [35.6577, 64.95895], [35.65493, 64.95781], [35.64984, 64.95965], [35.64744, 64.9593], [35.6464, 64.95854], [35.64734, 64.95815], [35.64309, 64.9576], [35.64565, 64.95621], [35.64299, 64.95664], [35.64183, 64.95547], [35.64519, 64.9546], [35.63894, 64.95302], [35.63663, 64.95732], [35.63874, 64.9608], [35.63549, 64.96297], [35.63526, 64.96473], [35.63918, 64.96723], [35.65494, 64.96784], [35.65562, 64.96722]]], [[[35.69163, 64.97072], [35.69153, 64.96977], [35.69278, 64.9692], [35.68714, 64.96926], [35.68784, 64.96819], [35.68507, 64.9686], [35.67952, 64.96787], [35.67884, 64.96693], [35.68323, 64.96511], [35.67464, 64.96414], [35.67407, 64.96368], [35.67454, 64.96325], [35.67264, 64.96271], [35.67301, 64.96195], [35.67187, 64.96166], [35.67189, 64.96292], [35.67374, 64.96345], [35.67622, 64.96563], [35.67028, 64.96678], [35.66824, 64.96601], [35.66632, 64.9683], [35.66223, 64.96753], [35.65799, 64.97006], [35.65553, 64.96967], [35.65157, 64.97039], [35.65443, 64.97267], [35.6642, 64.97451], [35.66665, 64.97375], [35.67578, 64.97501], [35.68016, 64.97733], [35.68218, 64.97704], [35.68422, 64.97465], [35.68959, 64.97342], [35.68955, 64.97249], [35.69163, 64.97072]]], [[[35.97848, 65.00939], [35.98283, 65.01055], [35.97464, 65.00997], [35.97411, 65.01063], [35.97839, 65.01105], [35.98089, 65.01177], [35.98101, 65.01279], [35.98221, 65.01277], [35.98176, 65.01406], [35.97927, 65.01359], [35.97694, 65.01441], [35.97997, 65.01435], [35.98182, 65.01738], [35.97477, 65.0165], [35.97861, 65.01847], [35.97677, 65.01825], [35.97774, 65.01933], [35.97268, 65.0194], [35.9829, 65.01987], [35.98704, 65.01886], [35.99367, 65.01983], [35.99972, 65.01831], [36.00205, 65.01698], [36.00579, 65.01794], [36.00504, 65.01666], [36.00772, 65.0159], [36.01075, 65.01597], [36.01276, 65.01767], [36.01047, 65.01797], [36.01192, 65.0185], [36.01373, 65.01792], [36.0135, 65.01848], [36.01695, 65.01957], [36.01639, 65.01926], [36.01672, 65.01776], [36.01187, 65.01395], [36.01274, 65.01568], [36.01009, 65.0149], [36.00966, 65.01383], [36.00683, 65.01376], [36.00645, 65.01339], [36.00735, 65.01332], [36.00119, 65.01197], [35.99376, 65.011], [35.9896, 65.01162], [35.98322, 65.01011], [35.979, 65.00847], [35.97848, 65.00939]]], [[[35.89883, 65.02782], [35.89658, 65.02765], [35.88821, 65.03119], [35.89001, 65.0326], [35.88896, 65.0339], [35.88595, 65.03443], [35.87939, 65.03366], [35.87805, 65.03452], [35.87982, 65.03423], [35.87972, 65.03554], [35.88047, 65.03593], [35.87786, 65.03671], [35.87582, 65.03635], [35.87533, 65.03739], [35.87893, 65.03706], [35.88091, 65.03846], [35.88086, 65.04], [35.88185, 65.04097], [35.87958, 65.04224], [35.88021, 65.04264], [35.88862, 65.04289], [35.89396, 65.0415], [35.89885, 65.04157], [35.90084, 65.0422], [35.90177, 65.04356], [35.91059, 65.04413], [35.91264, 65.04594], [35.92474, 65.04644], [35.92356, 65.04801], [35.91881, 65.04966], [35.92594, 65.05176], [35.92833, 65.0512], [35.92387, 65.05023], [35.92322, 65.04935], [35.92501, 65.04725], [35.92852, 65.04736], [35.92969, 65.04803], [35.92839, 65.04905], [35.93165, 65.04832], [35.9323, 65.04928], [35.9355, 65.05029], [35.93833, 65.04936], [35.94084, 65.04984], [35.93975, 65.05125], [35.94238, 65.05114], [35.94152, 65.04992], [35.9462, 65.05003], [35.94782, 65.05087], [35.94645, 65.05195], [35.94902, 65.05221], [35.9517, 65.05143], [35.95484, 65.05308], [35.95586, 65.05289], [35.95514, 65.05148], [35.95609, 65.05029], [35.96033, 65.05008], [35.96536, 65.05188], [35.96458, 65.05239], [35.9691, 65.0527], [35.96975, 65.0541], [35.97354, 65.05424], [35.97748, 65.05613], [35.97914, 65.05586], [35.97901, 65.0569], [35.98065, 65.05553], [35.98423, 65.05536], [35.98279, 65.05465], [35.9846, 65.05396], [35.98298, 65.05397], [35.98399, 65.05316], [35.98172, 65.05168], [35.98986, 65.05167], [35.99494, 65.05284], [35.99625, 65.05199], [36.0003, 65.05159], [36.01135, 65.04816], [36.0182, 65.04516], [36.01988, 65.04346], [36.01971, 65.04256], [36.02385, 65.03911], [36.02112, 65.03815], [36.02072, 65.0373], [36.02347, 65.03409], [36.01966, 65.03354], [36.0161, 65.0288], [36.01521, 65.02362], [36.01313, 65.02179], [36.00564, 65.01977], [36.00212, 65.02076], [35.99914, 65.02282], [36.00085, 65.02338], [35.9978, 65.02395], [35.99343, 65.02401], [35.99566, 65.02342], [35.98953, 65.02196], [35.97789, 65.02296], [35.96141, 65.02163], [35.96058, 65.02222], [35.96546, 65.02284], [35.95704, 65.02414], [35.95695, 65.02511], [35.94637, 65.0256], [35.93499, 65.02315], [35.92924, 65.02024], [35.92889, 65.0192], [35.92573, 65.01842], [35.92161, 65.01922], [35.9199, 65.01799], [35.92012, 65.01709], [35.91511, 65.01747], [35.91298, 65.01659], [35.91291, 65.01549], [35.91186, 65.01665], [35.90915, 65.01657], [35.90925, 65.01575], [35.90454, 65.01727], [35.90203, 65.01713], [35.9008, 65.01624], [35.89698, 65.01918], [35.89282, 65.0199], [35.89534, 65.01806], [35.89548, 65.01652], [35.89339, 65.01682], [35.89438, 65.01757], [35.89317, 65.01759], [35.89356, 65.01835], [35.89155, 65.01941], [35.89179, 65.01758], [35.88858, 65.01797], [35.8904, 65.01854], [35.88993, 65.01946], [35.88851, 65.0185], [35.88657, 65.01881], [35.88388, 65.02122], [35.88272, 65.02052], [35.88064, 65.02136], [35.88039, 65.02036], [35.88135, 65.01945], [35.88104, 65.01915], [35.87936, 65.0212], [35.88169, 65.02193], [35.88513, 65.02132], [35.8908, 65.02277], [35.89279, 65.02139], [35.8932, 65.02175], [35.89196, 65.02239], [35.893, 65.023], [35.89451, 65.02234], [35.89392, 65.02362], [35.89449, 65.02409], [35.89636, 65.02399], [35.89817, 65.02506], [35.8973, 65.02622], [35.89769, 65.02749], [35.89883, 65.02782]]], [[[35.50239, 65.10505], [35.50492, 65.10716], [35.50493, 65.10944], [35.50368, 65.1111], [35.50523, 65.11183], [35.5058, 65.11337], [35.50387, 65.11517], [35.50361, 65.11851], [35.50465, 65.11984], [35.5048, 65.12221], [35.50755, 65.12627], [35.51138, 65.1272], [35.51516, 65.13135], [35.51448, 65.13243], [35.51623, 65.13244], [35.52042, 65.13512], [35.51794, 65.13506], [35.51739, 65.13586], [35.52035, 65.13616], [35.52217, 65.13544], [35.52309, 65.136], [35.52306, 65.13737], [35.52435, 65.13751], [35.52384, 65.13674], [35.5278, 65.13786], [35.52904, 65.13998], [35.53115, 65.13905], [35.53229, 65.14], [35.53094, 65.14057], [35.53319, 65.14056], [35.53902, 65.14374], [35.53945, 65.1449], [35.53726, 65.14479], [35.53775, 65.14548], [35.54236, 65.1456], [35.54406, 65.1445], [35.55133, 65.14627], [35.55507, 65.14477], [35.55805, 65.1449], [35.56359, 65.14708], [35.55761, 65.14786], [35.55799, 65.14832], [35.56431, 65.14749], [35.57249, 65.14954], [35.57652, 65.14895], [35.58321, 65.1504], [35.58347, 65.15125], [35.58757, 65.15157], [35.58872, 65.15085], [35.59597, 65.15193], [35.60075, 65.15412], [35.60586, 65.15377], [35.6027, 65.15301], [35.60389, 65.15368], [35.60098, 65.15374], [35.60057, 65.15292], [35.59871, 65.1526], [35.59882, 65.15183], [35.59739, 65.15091], [35.59896, 65.15027], [35.59747, 65.14964], [35.59833, 65.1493], [35.59665, 65.14899], [35.59701, 65.1486], [35.58541, 65.1492], [35.5867, 65.15032], [35.58403, 65.15025], [35.58291, 65.14944], [35.58444, 65.14787], [35.59026, 65.14831], [35.58669, 65.14733], [35.58822, 65.14674], [35.58575, 65.14623], [35.58529, 65.14458], [35.58863, 65.14487], [35.58849, 65.14424], [35.59058, 65.14349], [35.5856, 65.14404], [35.58712, 65.1434], [35.58553, 65.14187], [35.58417, 65.14208], [35.58529, 65.14284], [35.58331, 65.14335], [35.58208, 65.14269], [35.58244, 65.142], [35.57977, 65.14221], [35.57899, 65.14127], [35.58055, 65.14163], [35.58096, 65.14092], [35.57714, 65.13927], [35.57618, 65.14042], [35.57525, 65.13987], [35.57382, 65.14048], [35.57589, 65.14073], [35.57443, 65.142], [35.5719, 65.14211], [35.57347, 65.14244], [35.57308, 65.14299], [35.56608, 65.14245], [35.56693, 65.1415], [35.56583, 65.14037], [35.56848, 65.1391], [35.56708, 65.13879], [35.56735, 65.13774], [35.56654, 65.13703], [35.56712, 65.13663], [35.56617, 65.13575], [35.56672, 65.13517], [35.56479, 65.13403], [35.56374, 65.13421], [35.56434, 65.1335], [35.56779, 65.13439], [35.57235, 65.13421], [35.57391, 65.13524], [35.57476, 65.13517], [35.57506, 65.13423], [35.57724, 65.13456], [35.57778, 65.13481], [35.57568, 65.13474], [35.57586, 65.13742], [35.57674, 65.13794], [35.57786, 65.13778], [35.57801, 65.13638], [35.57973, 65.13652], [35.58092, 65.13564], [35.58454, 65.13679], [35.58875, 65.13667], [35.58371, 65.13585], [35.58367, 65.13426], [35.58443, 65.1341], [35.58302, 65.13381], [35.58456, 65.13308], [35.58335, 65.13097], [35.57739, 65.129], [35.56832, 65.12848], [35.56644, 65.12656], [35.56535, 65.12686], [35.5702, 65.12494], [35.57823, 65.12689], [35.58146, 65.12685], [35.58344, 65.12851], [35.58762, 65.1291], [35.59155, 65.12867], [35.59465, 65.13007], [35.59805, 65.12988], [35.5973, 65.12953], [35.59848, 65.12934], [35.59505, 65.12864], [35.59685, 65.12789], [35.60618, 65.12734], [35.60705, 65.12801], [35.6064, 65.1283], [35.60671, 65.12904], [35.60935, 65.12838], [35.61322, 65.12871], [35.61396, 65.12933], [35.61322, 65.1301], [35.61643, 65.13115], [35.61495, 65.13209], [35.61542, 65.13263], [35.61919, 65.13351], [35.62113, 65.13291], [35.62683, 65.13451], [35.62697, 65.1354], [35.62985, 65.13743], [35.63515, 65.13833], [35.63521, 65.13942], [35.64119, 65.14177], [35.64336, 65.14183], [35.64583, 65.14035], [35.6395, 65.13963], [35.63839, 65.13723], [35.64189, 65.13625], [35.64019, 65.13818], [35.64317, 65.13879], [35.6438, 65.13846], [35.64299, 65.13768], [35.64689, 65.13626], [35.65604, 65.1346], [35.65695, 65.13323], [35.65653, 65.13224], [35.65883, 65.13115], [35.65301, 65.13176], [35.64879, 65.13038], [35.64821, 65.13177], [35.65224, 65.13219], [35.65135, 65.13313], [35.64883, 65.13326], [35.65023, 65.134], [35.64841, 65.1352], [35.64682, 65.13424], [35.64184, 65.13407], [35.63885, 65.1324], [35.64133, 65.13197], [35.64224, 65.13291], [35.64497, 65.13278], [35.64579, 65.13229], [35.64456, 65.13089], [35.64897, 65.12956], [35.66039, 65.1306], [35.65932, 65.13202], [35.66141, 65.13299], [35.66315, 65.13279], [35.66178, 65.13386], [35.65832, 65.13369], [35.6574, 65.13551], [35.65064, 65.13687], [35.64961, 65.13815], [35.64483, 65.13871], [35.64901, 65.13964], [35.64931, 65.14048], [35.64849, 65.14071], [35.64947, 65.14108], [35.64801, 65.14155], [35.6503, 65.14312], [35.64623, 65.14394], [35.64492, 65.14316], [35.64365, 65.14358], [35.6452, 65.14482], [35.65114, 65.1449], [35.64987, 65.14565], [35.65049, 65.14619], [35.64752, 65.14647], [35.64802, 65.14681], [35.64737, 65.14766], [35.64819, 65.14832], [35.65136, 65.14832], [35.65161, 65.14689], [35.65249, 65.14648], [35.65675, 65.14755], [35.65645, 65.14847], [35.66047, 65.15119], [35.65908, 65.15279], [35.66014, 65.15369], [35.66005, 65.15573], [35.66256, 65.15773], [35.66173, 65.15883], [35.6659, 65.16132], [35.66718, 65.16377], [35.66951, 65.1638], [35.67156, 65.16527], [35.67115, 65.16643], [35.66847, 65.16669], [35.66772, 65.16713], [35.67136, 65.16667], [35.67193, 65.16717], [35.67052, 65.16789], [35.67308, 65.16824], [35.67355, 65.16937], [35.67457, 65.16912], [35.67433, 65.16746], [35.6753, 65.16727], [35.6774, 65.16753], [35.67694, 65.16881], [35.67776, 65.16922], [35.68262, 65.16944], [35.69063, 65.16829], [35.69283, 65.16896], [35.6925, 65.16982], [35.69718, 65.1677], [35.71127, 65.16765], [35.71447, 65.16694], [35.72024, 65.16793], [35.7207, 65.1683], [35.71936, 65.16925], [35.71996, 65.16981], [35.7224, 65.16945], [35.7231, 65.16876], [35.72276, 65.16804], [35.72355, 65.16788], [35.72603, 65.16831], [35.72481, 65.16886], [35.7254, 65.16916], [35.7284, 65.16898], [35.72905, 65.17002], [35.72581, 65.17136], [35.72837, 65.17289], [35.73127, 65.1713], [35.74314, 65.17078], [35.74867, 65.17094], [35.75594, 65.17235], [35.76201, 65.17212], [35.77047, 65.16744], [35.77994, 65.16586], [35.7901, 65.16259], [35.79154, 65.16113], [35.79376, 65.1609], [35.79492, 65.15854], [35.79602, 65.15804], [35.8157, 65.15671], [35.81241, 65.15579], [35.81211, 65.15486], [35.81235, 65.15451], [35.81318, 65.1544], [35.81258, 65.15383], [35.81585, 65.153], [35.81526, 65.1528], [35.81421, 65.15206], [35.81638, 65.15319], [35.81591, 65.15369], [35.81239, 65.15469], [35.81791, 65.15367], [35.81887, 65.15445], [35.81695, 65.15497], [35.8188, 65.15521], [35.81969, 65.15419], [35.81896, 65.15359], [35.82312, 65.15081], [35.8226, 65.14927], [35.82311, 65.14868], [35.82768, 65.14551], [35.8317, 65.14396], [35.8297, 65.14305], [35.83296, 65.13918], [35.83957, 65.13768], [35.83724, 65.13706], [35.83706, 65.1364], [35.83969, 65.13221], [35.84176, 65.1315], [35.83983, 65.13081], [35.83336, 65.1315], [35.83266, 65.1298], [35.82744, 65.12707], [35.82845, 65.12591], [35.82606, 65.12525], [35.82614, 65.12392], [35.82827, 65.12167], [35.83086, 65.12078], [35.83381, 65.11678], [35.83923, 65.11341], [35.8386, 65.11294], [35.84218, 65.11013], [35.84631, 65.10929], [35.84777, 65.10811], [35.84717, 65.10781], [35.84794, 65.10659], [35.85139, 65.10415], [35.84931, 65.10323], [35.85339, 65.10253], [35.84927, 65.10227], [35.85152, 65.10088], [35.85039, 65.10069], [35.84373, 65.10242], [35.84232, 65.10366], [35.83606, 65.10294], [35.8333, 65.10053], [35.82962, 65.10062], [35.82864, 65.09793], [35.82457, 65.09619], [35.82694, 65.09556], [35.82644, 65.0929], [35.82868, 65.09162], [35.82819, 65.09001], [35.8288, 65.08876], [35.82815, 65.08816], [35.83703, 65.08482], [35.84167, 65.08079], [35.84061, 65.07918], [35.84277, 65.07863], [35.8428, 65.07687], [35.84483, 65.07493], [35.84265, 65.07406], [35.84311, 65.07328], [35.84746, 65.07386], [35.84878, 65.07233], [35.8496, 65.07043], [35.84732, 65.06971], [35.84942, 65.06907], [35.84912, 65.06846], [35.84985, 65.06814], [35.84618, 65.06729], [35.84621, 65.06586], [35.84923, 65.06476], [35.85295, 65.06541], [35.85039, 65.06378], [35.84366, 65.06389], [35.84202, 65.0621], [35.8422, 65.06136], [35.83977, 65.06038], [35.84337, 65.06016], [35.84557, 65.0592], [35.84756, 65.06016], [35.85163, 65.05986], [35.85356, 65.05813], [35.85734, 65.05663], [35.85689, 65.05439], [35.85773, 65.05325], [35.85611, 65.0532], [35.85664, 65.05223], [35.84965, 65.0529], [35.84195, 65.05223], [35.84391, 65.04987], [35.84063, 65.04949], [35.83972, 65.04852], [35.84147, 65.04744], [35.84318, 65.04766], [35.84128, 65.04699], [35.84175, 65.04597], [35.84661, 65.04516], [35.84631, 65.04437], [35.85037, 65.04273], [35.85044, 65.04081], [35.85216, 65.04117], [35.85224, 65.04183], [35.85552, 65.04098], [35.85793, 65.04144], [35.85832, 65.04076], [35.8637, 65.03963], [35.86362, 65.03899], [35.86201, 65.03934], [35.86126, 65.03877], [35.86092, 65.03999], [35.85648, 65.03909], [35.84826, 65.04035], [35.84939, 65.03971], [35.84833, 65.03963], [35.85484, 65.03755], [35.85582, 65.03684], [35.84626, 65.0396], [35.8456, 65.04114], [35.83952, 65.04201], [35.838, 65.04378], [35.82031, 65.04818], [35.81909, 65.04892], [35.81971, 65.04935], [35.81924, 65.0502], [35.81375, 65.05165], [35.81447, 65.05178], [35.81306, 65.05247], [35.8159, 65.05535], [35.81372, 65.05718], [35.81407, 65.05778], [35.80862, 65.05763], [35.81059, 65.0587], [35.80916, 65.05948], [35.80647, 65.05928], [35.80548, 65.06063], [35.80361, 65.0606], [35.8066, 65.06126], [35.80412, 65.06212], [35.80546, 65.06256], [35.80375, 65.06284], [35.80663, 65.0639], [35.80607, 65.06458], [35.8072, 65.06666], [35.80432, 65.06796], [35.8051, 65.07061], [35.80439, 65.07167], [35.80611, 65.07267], [35.80523, 65.07308], [35.8053, 65.07486], [35.80383, 65.07577], [35.80511, 65.07672], [35.80461, 65.07726], [35.80825, 65.07863], [35.80924, 65.08167], [35.81201, 65.08373], [35.81186, 65.08523], [35.8131, 65.08557], [35.81246, 65.08829], [35.8051, 65.0923], [35.79824, 65.0938], [35.79797, 65.09499], [35.79426, 65.09671], [35.79088, 65.09723], [35.7894, 65.09579], [35.78744, 65.09575], [35.7859, 65.09708], [35.78667, 65.09856], [35.78418, 65.09703], [35.78414, 65.09449], [35.79442, 65.09298], [35.79579, 65.0943], [35.79853, 65.09273], [35.7887, 65.0923], [35.78776, 65.09119], [35.78525, 65.09038], [35.78028, 65.09091], [35.77912, 65.09011], [35.77903, 65.08893], [35.77599, 65.08731], [35.776, 65.08602], [35.77475, 65.08541], [35.77318, 65.08592], [35.77383, 65.0874], [35.76959, 65.08709], [35.76756, 65.08783], [35.76608, 65.08607], [35.769, 65.08605], [35.77002, 65.08413], [35.76861, 65.0813], [35.76371, 65.0803], [35.76153, 65.08128], [35.76296, 65.07942], [35.76177, 65.07876], [35.76674, 65.07863], [35.76793, 65.07935], [35.76787, 65.08016], [35.77095, 65.0796], [35.76218, 65.07574], [35.76113, 65.0737], [35.76193, 65.0728], [35.76129, 65.07245], [35.76172, 65.07177], [35.7562, 65.06976], [35.75579, 65.06863], [35.75971, 65.06765], [35.76441, 65.0687], [35.76652, 65.06719], [35.76456, 65.06711], [35.76423, 65.06669], [35.76752, 65.06692], [35.76937, 65.06469], [35.76663, 65.0633], [35.76499, 65.06451], [35.75092, 65.06233], [35.75144, 65.06135], [35.75046, 65.06025], [35.74558, 65.05693], [35.74925, 65.05762], [35.74834, 65.057], [35.75125, 65.05702], [35.75146, 65.05874], [35.75256, 65.05976], [35.75217, 65.0606], [35.7549, 65.06102], [35.75569, 65.06038], [35.75404, 65.05881], [35.75468, 65.05655], [35.75093, 65.05476], [35.7524, 65.05405], [35.7551, 65.05427], [35.7553, 65.05333], [35.74933, 65.05272], [35.74924, 65.05216], [35.75277, 65.05152], [35.74441, 65.04952], [35.74418, 65.0479], [35.73889, 65.04527], [35.73966, 65.044], [35.73907, 65.04314], [35.74235, 65.04155], [35.7423, 65.0402], [35.74354, 65.03998], [35.74312, 65.03922], [35.74553, 65.04079], [35.74975, 65.0405], [35.7508, 65.04115], [35.74419, 65.04216], [35.74559, 65.04366], [35.74756, 65.04425], [35.74569, 65.04425], [35.74604, 65.04522], [35.74874, 65.0461], [35.74987, 65.04514], [35.75124, 65.04609], [35.75415, 65.04567], [35.7591, 65.04702], [35.76012, 65.04823], [35.76027, 65.05206], [35.7611, 65.05061], [35.76067, 65.05004], [35.76598, 65.049], [35.76584, 65.04698], [35.76251, 65.04584], [35.76231, 65.04404], [35.7602, 65.04589], [35.75535, 65.04575], [35.75008, 65.04443], [35.75316, 65.04124], [35.7612, 65.0418], [35.76465, 65.04147], [35.76518, 65.04073], [35.76761, 65.04124], [35.76924, 65.04067], [35.76796, 65.03981], [35.76531, 65.04009], [35.76153, 65.03783], [35.7619, 65.03737], [35.77327, 65.03824], [35.77679, 65.03679], [35.77997, 65.03769], [35.77992, 65.03895], [35.78089, 65.03951], [35.78168, 65.03803], [35.78274, 65.03786], [35.7862, 65.04002], [35.78861, 65.04007], [35.78818, 65.04074], [35.78652, 65.04066], [35.78751, 65.04096], [35.78678, 65.04195], [35.7944, 65.04108], [35.80235, 65.04215], [35.80106, 65.04307], [35.80375, 65.04382], [35.80368, 65.04479], [35.80476, 65.04526], [35.80437, 65.04567], [35.80036, 65.04647], [35.79786, 65.0448], [35.79522, 65.04484], [35.79596, 65.04627], [35.79987, 65.04646], [35.79778, 65.04768], [35.79858, 65.04789], [35.79919, 65.04696], [35.80016, 65.0476], [35.80374, 65.04674], [35.8121, 65.04666], [35.81324, 65.04572], [35.81453, 65.04583], [35.81293, 65.0443], [35.81963, 65.04395], [35.81744, 65.043], [35.81317, 65.04332], [35.81224, 65.04225], [35.81272, 65.04119], [35.81714, 65.0427], [35.82059, 65.04221], [35.81967, 65.04074], [35.82143, 65.04103], [35.82181, 65.04275], [35.82266, 65.04297], [35.82456, 65.04244], [35.8262, 65.04058], [35.83127, 65.0404], [35.83516, 65.03844], [35.83711, 65.03833], [35.83834, 65.03721], [35.84191, 65.03726], [35.8431, 65.03655], [35.84222, 65.03575], [35.84462, 65.0348], [35.84236, 65.03364], [35.84434, 65.03334], [35.84844, 65.03076], [35.8449, 65.02917], [35.84886, 65.02848], [35.84905, 65.02765], [35.85121, 65.02685], [35.85036, 65.02631], [35.85062, 65.02573], [35.85238, 65.0256], [35.85655, 65.02327], [35.85765, 65.02398], [35.86223, 65.02362], [35.86781, 65.02153], [35.87029, 65.02167], [35.87275, 65.0203], [35.87392, 65.02125], [35.87372, 65.01963], [35.87589, 65.02021], [35.87746, 65.01952], [35.87534, 65.01963], [35.87333, 65.01851], [35.87341, 65.01779], [35.8748, 65.01804], [35.87629, 65.01645], [35.87412, 65.01752], [35.87265, 65.01718], [35.87221, 65.0163], [35.87059, 65.01698], [35.87125, 65.01949], [35.87073, 65.01958], [35.86816, 65.01421], [35.86472, 65.01679], [35.86051, 65.01576], [35.85951, 65.0163], [35.86006, 65.01742], [35.85935, 65.01798], [35.85735, 65.01615], [35.85333, 65.01474], [35.85502, 65.01347], [35.85304, 65.01247], [35.853, 65.01128], [35.85587, 65.0099], [35.85191, 65.00978], [35.8517, 65.00891], [35.85033, 65.0097], [35.84832, 65.01005], [35.85074, 65.00835], [35.85016, 65.00842], [35.84975, 65.00674], [35.84837, 65.00644], [35.84799, 65.00496], [35.84464, 65.00446], [35.84537, 65.00339], [35.85123, 65.00344], [35.84963, 65.00261], [35.85211, 65.00285], [35.84961, 65.00148], [35.85033, 65.00089], [35.85513, 65.00176], [35.85776, 65.00109], [35.85693, 65.00054], [35.86453, 65.00037], [35.864, 64.99974], [35.86537, 64.99924], [35.86286, 64.99858], [35.86296, 64.99745], [35.85643, 64.99787], [35.85721, 64.99981], [35.85581, 65.00061], [35.85391, 65.00025], [35.85323, 64.99874], [35.85396, 64.99764], [35.85336, 64.99569], [35.85388, 64.99517], [35.86191, 64.99576], [35.86091, 64.99348], [35.85733, 64.99224], [35.86033, 64.99198], [35.86225, 64.9927], [35.86513, 64.99245], [35.86415, 64.99181], [35.86469, 64.99147], [35.86635, 64.99168], [35.86429, 64.991], [35.86424, 64.99009], [35.86244, 64.98978], [35.86351, 64.98913], [35.86725, 64.98982], [35.86908, 64.99116], [35.87035, 64.99106], [35.86867, 64.99086], [35.86957, 64.99035], [35.86877, 64.9899], [35.87126, 64.98945], [35.87129, 64.99012], [35.87396, 64.99005], [35.87895, 64.99218], [35.87777, 64.99141], [35.87867, 64.99059], [35.87669, 64.98929], [35.87468, 64.98961], [35.86964, 64.98842], [35.86949, 64.98689], [35.86645, 64.9857], [35.86358, 64.98641], [35.86572, 64.98805], [35.86036, 64.98876], [35.85961, 64.98797], [35.85691, 64.98768], [35.8562, 64.98825], [35.85676, 64.98929], [35.85525, 64.98959], [35.85497, 64.99054], [35.84986, 64.99088], [35.84904, 64.99196], [35.85019, 64.99234], [35.84964, 64.99299], [35.84681, 64.99314], [35.84827, 64.99163], [35.84775, 64.98938], [35.84466, 64.98743], [35.84189, 64.98677], [35.84323, 64.98611], [35.84244, 64.98555], [35.83623, 64.98651], [35.83457, 64.98765], [35.832, 64.98649], [35.8287, 64.98865], [35.82544, 64.98904], [35.82493, 64.98899], [35.82715, 64.98809], [35.82659, 64.98774], [35.82878, 64.98597], [35.82762, 64.98517], [35.82855, 64.98423], [35.82535, 64.98287], [35.82618, 64.98157], [35.82578, 64.98007], [35.81997, 64.97985], [35.81731, 64.98068], [35.81634, 64.98023], [35.81855, 64.97878], [35.81726, 64.97809], [35.81591, 64.9791], [35.81626, 64.97842], [35.81013, 64.98083], [35.806, 64.98158], [35.80353, 64.98077], [35.80418, 64.98009], [35.80228, 64.98013], [35.80271, 64.97917], [35.801, 64.97942], [35.79789, 64.97781], [35.79879, 64.97731], [35.79769, 64.97715], [35.79825, 64.97664], [35.80026, 64.97628], [35.79935, 64.97521], [35.80035, 64.97417], [35.79583, 64.97393], [35.7955, 64.97316], [35.79702, 64.97269], [35.79111, 64.97314], [35.79277, 64.97249], [35.78933, 64.97195], [35.79165, 64.97121], [35.79058, 64.97122], [35.7891, 64.97183], [35.79032, 64.97315], [35.78532, 64.97393], [35.78327, 64.97289], [35.78559, 64.97124], [35.78148, 64.97254], [35.77221, 64.97019], [35.77171, 64.96949], [35.77286, 64.96897], [35.77008, 64.96861], [35.77055, 64.96742], [35.76705, 64.96693], [35.76474, 64.96403], [35.76457, 64.9626], [35.76542, 64.96134], [35.77003, 64.96013], [35.77077, 64.9593], [35.77048, 64.95835], [35.75141, 64.95494], [35.73556, 64.95666], [35.73788, 64.96032], [35.73736, 64.9625], [35.73437, 64.96348], [35.73471, 64.96417], [35.73378, 64.96426], [35.73339, 64.96531], [35.72835, 64.96601], [35.73098, 64.96876], [35.72746, 64.96958], [35.72845, 64.97039], [35.72805, 64.9709], [35.72334, 64.97142], [35.72537, 64.97235], [35.72544, 64.97346], [35.72382, 64.97411], [35.72404, 64.97494], [35.72149, 64.97511], [35.72323, 64.97513], [35.7265, 64.97687], [35.72819, 64.97981], [35.7292, 64.9802], [35.72777, 64.981], [35.72921, 64.98185], [35.72816, 64.98224], [35.72979, 64.98252], [35.72871, 64.98297], [35.72926, 64.98379], [35.72577, 64.98533], [35.72813, 64.98737], [35.72563, 64.98912], [35.7219, 64.98851], [35.71666, 64.99026], [35.7193, 64.9907], [35.71981, 64.99174], [35.71479, 64.99474], [35.7096, 64.99531], [35.70764, 64.99754], [35.71178, 64.99872], [35.71332, 65.00021], [35.71178, 65.00382], [35.70685, 65.00475], [35.71167, 65.00494], [35.71369, 65.00701], [35.71657, 65.00689], [35.71728, 65.00793], [35.7196, 65.00761], [35.71931, 65.00935], [35.72212, 65.0095], [35.71467, 65.01293], [35.7122, 65.01185], [35.71429, 65.01131], [35.71424, 65.00982], [35.71277, 65.00938], [35.70926, 65.01162], [35.70836, 65.01359], [35.70383, 65.01431], [35.7043, 65.01514], [35.70337, 65.01575], [35.69977, 65.01606], [35.70271, 65.01676], [35.70239, 65.01726], [35.70051, 65.01725], [35.70086, 65.01799], [35.69868, 65.01871], [35.69474, 65.01804], [35.69517, 65.02039], [35.6927, 65.02043], [35.68708, 65.02246], [35.69812, 65.02049], [35.69957, 65.02103], [35.6972, 65.02224], [35.69832, 65.02268], [35.69513, 65.02216], [35.6934, 65.02253], [35.69346, 65.02346], [35.69494, 65.02316], [35.70184, 65.02485], [35.70063, 65.02436], [35.70204, 65.02381], [35.70433, 65.02511], [35.70422, 65.02454], [35.70573, 65.02438], [35.70429, 65.0232], [35.70512, 65.02285], [35.7071, 65.02329], [35.70699, 65.02429], [35.70855, 65.02517], [35.70165, 65.02685], [35.7038, 65.02733], [35.70382, 65.02787], [35.69843, 65.02653], [35.69774, 65.02768], [35.69992, 65.02825], [35.6959, 65.02931], [35.69652, 65.02963], [35.69536, 65.0304], [35.69208, 65.03082], [35.68899, 65.03005], [35.69199, 65.03088], [35.68764, 65.03153], [35.68813, 65.03269], [35.68697, 65.03403], [35.6808, 65.03342], [35.67759, 65.03442], [35.67828, 65.03607], [35.67555, 65.03595], [35.67509, 65.03498], [35.67266, 65.03571], [35.67427, 65.03687], [35.67689, 65.0369], [35.67517, 65.03883], [35.67283, 65.03902], [35.6706, 65.03763], [35.66508, 65.03843], [35.66317, 65.0376], [35.66291, 65.03652], [35.66076, 65.03638], [35.65699, 65.03789], [35.65291, 65.03682], [35.64662, 65.03693], [35.64582, 65.03808], [35.64381, 65.03778], [35.64482, 65.03819], [35.63527, 65.04011], [35.63309, 65.03981], [35.63287, 65.03927], [35.63386, 65.03916], [35.63175, 65.03771], [35.62892, 65.03828], [35.62737, 65.03781], [35.62778, 65.03869], [35.62583, 65.03898], [35.62497, 65.03834], [35.61577, 65.03804], [35.60353, 65.03841], [35.60038, 65.03735], [35.58383, 65.04213], [35.58017, 65.04551], [35.56616, 65.0507], [35.56304, 65.05397], [35.55963, 65.05599], [35.5557, 65.06118], [35.55173, 65.06281], [35.54899, 65.0654], [35.54056, 65.0675], [35.53559, 65.07176], [35.52807, 65.0721], [35.53039, 65.07315], [35.53291, 65.07271], [35.52824, 65.07681], [35.52149, 65.07723], [35.52202, 65.07883], [35.52478, 65.07943], [35.52407, 65.08058], [35.52086, 65.08059], [35.52349, 65.08167], [35.52324, 65.08338], [35.52205, 65.08453], [35.51784, 65.08501], [35.51609, 65.08431], [35.51509, 65.08555], [35.51211, 65.08521], [35.51413, 65.08634], [35.51448, 65.08779], [35.51407, 65.09015], [35.51207, 65.09157], [35.51498, 65.09382], [35.51226, 65.09529], [35.50778, 65.09402], [35.50476, 65.09715], [35.50559, 65.0981], [35.5061, 65.10269], [35.50342, 65.10346], [35.50239, 65.10505]]], [[[35.61871, 65.14659], [35.61748, 65.1471], [35.61923, 65.14746], [35.61971, 65.14524], [35.62149, 65.14436], [35.61966, 65.14427], [35.62202, 65.1431], [35.62077, 65.14141], [35.62681, 65.14089], [35.61915, 65.13794], [35.61053, 65.13807], [35.60801, 65.13711], [35.608, 65.13565], [35.60579, 65.13537], [35.60621, 65.13654], [35.6052, 65.13684], [35.60903, 65.13827], [35.60995, 65.14002], [35.61758, 65.14031], [35.61982, 65.14144], [35.61701, 65.14255], [35.6122, 65.14118], [35.60934, 65.14223], [35.61369, 65.14222], [35.61516, 65.14313], [35.61412, 65.14353], [35.61671, 65.1438], [35.61601, 65.14489], [35.61877, 65.14495], [35.61871, 65.14659]]], [[[36.06651, 65.15565], [36.06886, 65.15668], [36.08161, 65.15729], [36.10015, 65.16034], [36.10619, 65.16051], [36.11711, 65.15891], [36.11981, 65.1572], [36.12238, 65.15682], [36.12964, 65.15716], [36.13061, 65.15812], [36.14546, 65.15742], [36.15453, 65.15784], [36.1634, 65.15607], [36.17545, 65.15639], [36.17841, 65.15579], [36.19274, 65.15736], [36.21644, 65.15668], [36.22431, 65.15766], [36.22723, 65.16048], [36.23797, 65.16329], [36.25089, 65.16296], [36.26669, 65.16437], [36.2711, 65.16146], [36.27115, 65.15994], [36.27329, 65.15896], [36.273, 65.15801], [36.274, 65.15661], [36.27233, 65.15588], [36.26447, 65.15601], [36.25251, 65.15118], [36.24355, 65.15058], [36.23102, 65.1472], [36.21956, 65.14251], [36.20858, 65.1398], [36.16435, 65.13833], [36.14914, 65.13902], [36.13109, 65.14107], [36.11979, 65.14013], [36.114, 65.13739], [36.11306, 65.13598], [36.11326, 65.13449], [36.10364, 65.13207], [36.10075, 65.13011], [36.10056, 65.12825], [36.09551, 65.1311], [36.08097, 65.13278], [36.07354, 65.13612], [36.06911, 65.13585], [36.07013, 65.13411], [36.06954, 65.13179], [36.07301, 65.13034], [36.07453, 65.12863], [36.07961, 65.12676], [36.07679, 65.12458], [36.07328, 65.12466], [36.06467, 65.12778], [36.05035, 65.13062], [36.04265, 65.13049], [36.03835, 65.12865], [36.03868, 65.12798], [36.03674, 65.12721], [36.03696, 65.12658], [36.03603, 65.12668], [36.03331, 65.1281], [36.03111, 65.12803], [36.032, 65.12862], [36.03064, 65.12898], [36.03165, 65.13038], [36.03438, 65.13142], [36.03327, 65.13233], [36.02681, 65.13337], [36.02029, 65.13667], [36.01738, 65.13651], [36.015, 65.13802], [36.01118, 65.13767], [36.01024, 65.13659], [36.00787, 65.13703], [36.00907, 65.13751], [36.00884, 65.13837], [35.99922, 65.13942], [35.99539, 65.1377], [35.99562, 65.13525], [35.99795, 65.13479], [35.99559, 65.13418], [35.99335, 65.13452], [35.99384, 65.13632], [35.99021, 65.13833], [35.98252, 65.1404], [35.9665, 65.13916], [35.93535, 65.14293], [35.93318, 65.14357], [35.93338, 65.14509], [35.93222, 65.14591], [35.93226, 65.14819], [35.93117, 65.14946], [35.93117, 65.15156], [35.9303, 65.1528], [35.93052, 65.15446], [35.93272, 65.15556], [35.9332, 65.15808], [35.93514, 65.15872], [35.93652, 65.16068], [35.93788, 65.16588], [35.93977, 65.16807], [35.93852, 65.16937], [35.93917, 65.17066], [35.94263, 65.17371], [35.94148, 65.17404], [35.9407, 65.17613], [35.94173, 65.17652], [35.94142, 65.17734], [35.93817, 65.1796], [35.93447, 65.18001], [35.93814, 65.18173], [35.9406, 65.18109], [35.94245, 65.18164], [35.94216, 65.18217], [35.94436, 65.18163], [35.94382, 65.18239], [35.94119, 65.18284], [35.94423, 65.18366], [35.95516, 65.18444], [35.95656, 65.18552], [35.95592, 65.1867], [35.95718, 65.18774], [35.98197, 65.19277], [35.98665, 65.19247], [35.98946, 65.19344], [35.99773, 65.19179], [35.99349, 65.19011], [35.98736, 65.18913], [35.98442, 65.18592], [35.98197, 65.18602], [35.97973, 65.18712], [35.97727, 65.18686], [35.97054, 65.18328], [35.96831, 65.18295], [35.96645, 65.18134], [35.95729, 65.18089], [35.95681, 65.17961], [35.95817, 65.17822], [35.9573, 65.17663], [35.9609, 65.17614], [35.95628, 65.1744], [35.95681, 65.17027], [35.95963, 65.16882], [35.9634, 65.16869], [35.96451, 65.16947], [35.96878, 65.16848], [35.9659, 65.16802], [35.96931, 65.16709], [35.97013, 65.1644], [35.9726, 65.1644], [35.97284, 65.16314], [35.97213, 65.16255], [35.97339, 65.1617], [35.97185, 65.16036], [35.97646, 65.15989], [35.97909, 65.16281], [35.97732, 65.16671], [35.97003, 65.16983], [35.96488, 65.17027], [35.96722, 65.17068], [35.96797, 65.17162], [35.96729, 65.17598], [35.96889, 65.17767], [35.96847, 65.17981], [35.98352, 65.18227], [35.98657, 65.18162], [35.98935, 65.18368], [35.99033, 65.18332], [35.98962, 65.18258], [35.99271, 65.182], [36.00497, 65.18625], [36.00878, 65.18618], [36.01853, 65.18369], [36.02358, 65.18009], [36.02597, 65.177], [36.0316, 65.17492], [36.03057, 65.1745], [36.03148, 65.17387], [36.02936, 65.17188], [36.03121, 65.1696], [36.0337, 65.16875], [36.03634, 65.16654], [36.04541, 65.16458], [36.04876, 65.16512], [36.04841, 65.16637], [36.04974, 65.16682], [36.05734, 65.16646], [36.06116, 65.16506], [36.06076, 65.16417], [36.06222, 65.16328], [36.06054, 65.16284], [36.05647, 65.16379], [36.05158, 65.16244], [36.05136, 65.16057], [36.05414, 65.15764], [36.06651, 65.15565]]]]}, "properties": {"group": "solovki", "label": "Соловецкие острова", "source": "OpenStreetMap, острова place=island|islet, выгрузка 19.09.2026 (data/north/solovki.geojson); упрощено 22.09.2026 до 0,0005° (~50 м), острова меньше 0,3 км² сняты: 7 островов, 293 км², кремль 65.0247, 35.7106 внутри", "note": "курируемая точная береговая линия: общая чистка контура её не трогает (EARLY_PROTECT / LATE_PROTECT в tools/build_expansion.py)"}}]}