{"type":"FeatureCollection","features":[{"type":"Feature","properties":{"from":"2026-03-05","to":"2026-03-05","kind":"grey","name":"Брянская область: серая зона с 2026-03-05","kind_ru":"серая зона: империя не контролирует","episode":"bryansk-2026-03","note":"Серая зона DeepState на территории РФ: империя участок не контролирует. Отдельного разбора эпизода нет.","source":"DeepStateMAP, дневные снимки (deepstatemap.live)"},"geometry":{"type":"Polygon","coordinates":[[[34.35198864492227,51.85241455456233],[34.35198345913696,51.852438027064274],[34.338116501,51.856495172],[34.337940806,51.856545485],[34.337274854,51.856779376],[34.336640976,51.857089854],[34.261349729278635,51.899632150830364],[34.26198988762438,51.90111976448492],[34.266298716421275,51.9089083706829],[34.2713558259209,51.91623326219179],[34.2771117511042,51.92302279217496],[34.28351019163817,51.92921055031838],[34.290488562565336,51.93473601240865],[34.29398856256534,51.93723601240865],[34.30106809224977,51.94180793353684],[34.30854422313795,51.94569762122328],[34.31635140321899,51.948870970012415],[34.324421177785304,51.951300155432264],[34.33268278965539,51.95296387796421],[34.34106379958501,51.953847549800834],[34.3484761424786,51.953931879906094],[34.37325376523541,51.939992461900026],[34.40923132983669,51.92948326017391],[34.41692925081744,51.92685161248512],[34.42435808446676,51.92353559264283],[34.42685133851428,51.92214013205919],[34.42798718169032,51.92107771502936],[34.43374168350101,51.914543098972565],[34.43552268728001,51.91207570893777],[34.44072651906581,51.90569074996842],[34.44569745047223,51.898161830932615],[34.44988963027357,51.890173063229874],[34.45326093235176,51.88180472389685],[34.455777479374206,51.87314090418619],[34.45741398321826,51.864268664555546],[34.45815399908493,51.85527715981984],[34.45799009074837,51.846256743257825],[34.45692390528057,51.83729805867563],[34.45616276372884,51.832826352059236],[34.454233160021154,51.82412179816748],[34.45145176530019,51.81565087895353],[34.44784587590896,51.80749672721215],[34.44345087970269,51.79973936701231],[34.43830990875576,51.79245492834855],[34.432473416067666,51.78571490000847],[34.43013065957366,51.78349707040657],[34.42238204,51.803627082],[34.422265267,51.803996139],[34.422193679,51.804196213],[34.422093561,51.804306676],[34.422080818,51.804319536],[34.384116505,51.842983191],[34.384101318,51.842998417],[34.383996488,51.84309343],[34.383712661,51.843164524],[34.383714892,51.843173429],[34.383451662,51.843231173],[34.3619342289805,51.84952666647036],[34.35198864492227,51.85241455456233]]]}}]}