{"type":"FeatureCollection","features":[{"type":"Feature","properties":{"from":"1855-05-24","to":"1856-03-30","kind":"occupation","kind_ru":"занято: империя участком не распоряжалась","name":"Керчь и Еникале, 24.05.1855 - 30.03.1856","episode":"kerch-1855","note":"24 мая 1855 года десант союзников занял Керчь и Еникале, после чего эскадры вышли в Азовское море и перерезали подвоз к Крыму. Города оставались под союзниками до конца войны и возвращены по Парижскому договору 30 марта 1856 года (фактический вывод - лето 1856-го). Геометрия условная: круг вокруг города, а не линия занятой полосы.","source":"Парижский мирный договор 30.03.1856, ст. IV; хроника Керченской экспедиции 24.05.1855 - historyofwar.org/articles/wars_crimean.html; National Army Museum, «Disembarkation - Kertch, 1855» (collection.nam.ac.uk)","confidence":"high","style":"даты нового стиля","clip":"1855-02-07","geometry_note":"геометрия обрезана контуром среза 1855-02-07"},"geometry":{"type":"MultiPolygon","coordinates":[[[[36.3009,45.2965],[36.2819,45.3337],[36.2782,45.36],[36.2865,45.3991],[36.3344,45.4553],[36.360069883122755,45.47023980844457],[36.37600033007349,45.46299719122105],[36.37735244736365,45.461853948968006],[36.38838765666711,45.45562431307306],[36.41396731781954,45.44573588272009],[36.42530153096367,45.44520841003124],[36.43356017837909,45.44700585917756],[36.43875678303821,45.45153330782922],[36.44324245332506,45.45320022442219],[36.442716288149576,45.454982955676925],[36.4469613250138,45.45868136794569],[36.4606018590308,45.4554489650965],[36.46663421132961,45.457133745873485],[36.47577127589422,45.45641495339086],[36.51499138371398,45.43493419909702],[36.517617467628526,45.432909802263595],[36.52989059588045,45.42677393811073],[36.553981020724855,45.423551841787855],[36.56717869142641,45.427752046035415],[36.568759024073046,45.429456847359525],[36.5683138600175,45.42990196555024],[36.57385164348621,45.4403900893777],[36.59659170275875,45.437766301038174],[36.60478694758737,45.42792730710342],[36.61377037492195,45.42200482981563],[36.61118968707587,45.41642916772546],[36.60670227270459,45.41325779118349],[36.606700420325964,45.41325893110884],[36.6061791,45.4128905],[36.6078303,45.4091711],[36.6078668001226,45.40914640240488],[36.6279542531128,45.39418180943985],[36.63479739930395,45.39075713654984],[36.635106600606726,45.390714750244726],[36.64704449712041,45.38263704217956],[36.62910981756134,45.37479806129507],[36.629213099831226,45.36684842598196],[36.6292111,45.3668484],[36.62978546375273,45.366534364900836],[36.62983075517455,45.36598041438062],[36.6288999,45.3668095],[36.6251113,45.3628569],[36.6301803,45.3617052],[36.6242486,45.3623327],[36.6104089,45.3573326],[36.6082307,45.3554817],[36.6079829,45.3517017],[36.60672602227207,45.350541289813535],[36.5973743,45.34609],[36.5923716,45.3478144],[36.5658825,45.3488208],[36.5480469,45.3470114],[36.546855347764144,45.346399114423384],[36.546858028318184,45.34639824324336],[36.54657291121113,45.34625173427208],[36.5436628674131,45.34626099885769],[36.54234892312137,45.347002],[36.542352994604315,45.347002],[36.5411153,45.3477],[36.54111586463784,45.347698081358786],[36.53631217402136,45.34628440095502],[36.538158852599445,45.34960107292925],[36.5381606,45.3496001],[36.5350424,45.3515492],[36.52489403749068,45.35202537936337],[36.518217136599596,45.35538248967182],[36.5177349,45.3571724],[36.51059676856923,45.359213970247346],[36.501957,45.363558],[36.4918131,45.3636945],[36.4924042,45.3622011],[36.4902462,45.3628341],[36.49138115182292,45.361679700750365],[36.48897038518429,45.36125154207292],[36.4875941,45.36262],[36.4832499,45.3612205],[36.48394035252219,45.36035819466318],[36.48181038513265,45.35997990669208],[36.4813445,45.360395],[36.480450010897975,45.359738300547455],[36.4787158,45.3594303],[36.479365575699,45.35795065912683],[36.477511,45.3570801],[36.4768471,45.3546191],[36.4782888,45.3517207],[36.481896047863266,45.35218837831448],[36.4823098,45.3512462],[36.4760194,45.3504933],[36.47243366718754,45.3442353801063],[36.46747087620384,45.34071241879973],[36.4612811,45.3407353],[36.4605478,45.3357979],[36.4641649,45.3353134],[36.4650816,45.336848],[36.4652469,45.335472],[36.4671695,45.335328],[36.467564130765474,45.338250562119555],[36.4704853,45.3392717],[36.4727346,45.3290121],[36.48605869950667,45.32483091623318],[36.48605915329132,45.32483264061485],[36.48769640463475,45.32431909052852],[36.4736277,45.3266677],[36.4776559,45.3222973],[36.49451544969526,45.31747470359283],[36.48186201838808,45.311800175105226],[36.4818612,45.311802],[36.481287,45.308589],[36.48378269005492,45.309055859486136],[36.4789248,45.3052453],[36.4403633,45.2973245],[36.43760225936356,45.29728646695552],[36.43682895607933,45.29905942054895],[36.43563512763916,45.29952811283991],[36.43605145993793,45.29698305808409],[36.43246224194302,45.295010508427154],[36.42282038798832,45.292886596836205],[36.42039098162622,45.28697179004496],[36.4163991,45.2827693],[36.41681039063375,45.27825422667256],[36.4153363,45.2746653],[36.4174941,45.2716174],[36.4294827,45.2660717],[36.420733,45.265376],[36.4231237,45.2609182],[36.4244415,45.2616779],[36.4289953,45.2577722],[36.4087634,45.2605661],[36.413555615464375,45.25894642591037],[36.4087314,45.2592629],[36.41520257506998,45.25838978612243],[36.42040637047847,45.256631006148226],[36.423668,45.2551203],[36.4265387,45.2545584],[36.4247792,45.2545698],[36.42475721084526,45.252977748775635],[36.413471,45.2429639],[36.4182131,45.2429262],[36.41823297801297,45.24295267743083],[36.432272861569224,45.2594724428481],[36.43409165714412,45.2640763722548],[36.43395731599121,45.26527892012404],[36.433958929887,45.26528248768316],[36.4334964,45.2694228],[36.429981518005626,45.271176307381836],[36.42993492737166,45.271256788958624],[36.4306042,45.2739328],[36.42847675421188,45.27377566593324],[36.426531,45.2771368],[36.437301482427095,45.270609488704665],[36.43368668321271,45.25839687780792],[36.42335995896121,45.247383531997],[36.4233585,45.2473849],[36.4198731,45.2415415],[36.420415268706165,45.23971043329605],[36.4143,45.2311],[36.3344,45.2647],[36.3009,45.2965]]],[[[36.4247309,45.2510728],[36.424327342177214,45.25107034521936],[36.42473842898722,45.25161791114518],[36.4247309,45.2510728]]]]}}]}