{"type":"FeatureCollection","features":[{"type":"Feature","properties":{"from":"1611-07-16","to":"1617-02-27","kind":"occupation","kind_ru":"занято: империя участком не распоряжалась","name":"Новгородская земля, 16.07.1611 - 27.02.1617","episode":"novgorod-1611-1617","note":"16 июля 1611 года войско Делагарди заняло Новгород; по договору 25 июля земля управлялась отдельно от Москвы, на престол выдвигался шведский королевич. Возвращена по Столбовскому договору 27 февраля 1617 года, передача городов шла до 1618 года. Ингрия и Корела по тому же договору отошли Швеции до 1721 года - это уже уступка территории, её место в срезах ядра, а не здесь. Геометрия приближена современной Новгородской областью.","source":"Столбовский договор 27.02.1617 (текст - ПСЗРИ, т. 1, № 15); ПСРЛ т. 14; договор новгородских властей с Делагарди 25.07.1611 (СГГД, т. 2)","confidence":"medium","style":"даты старого стиля","outside_core":true,"geometry_note":"участок в обзорный контур среза 1611-07-16 не попадает: вырезать нечего, круг работает отметкой места"},"geometry":{"type":"Polygon","coordinates":[[[34.729901,59.103214],[34.736412,59.066808],[34.753569,59.05916],[34.806176,59.046887],[34.853098,59.05562],[34.877592,59.048851],[34.830774,58.987408],[34.948492,58.96591],[34.972987,58.941312],[35.02549,58.94201],[35.02425,58.924052],[35.039443,58.917851],[35.061974,58.917386],[35.130807,58.937333],[35.168427,58.933251],[35.171631,58.922838],[35.140109,58.888809],[35.124606,58.815015],[35.216383,58.828244],[35.212456,58.79791],[35.265682,58.764785],[35.288007,58.763829],[35.297825,58.792174],[35.310641,58.803026],[35.398491,58.84354],[35.60499,58.831991],[35.616565,58.816927],[35.63858,58.813826],[35.679817,58.815945],[35.71413,58.832378],[35.734284,58.832456],[35.820584,58.786593],[35.817173,58.780443],[35.76529,58.777369],[35.764257,58.764424],[35.774902,58.754347],[35.836087,58.744709],[35.886316,58.753262],[35.956803,58.752151],[35.986465,58.726597],[36.0276,58.721481],[36.060673,58.706856],[36.109765,58.703291],[36.126302,58.695487],[36.131883,58.666549],[36.147179,58.643346],[36.134673,58.624226],[36.139428,58.616836],[36.219629,58.612237],[36.237406,58.594873],[36.189244,58.566193],[36.163302,58.510796],[36.134053,58.50369],[36.092609,58.50816],[35.95701,58.466612],[35.941403,58.455295],[35.951429,58.42615],[35.835777,58.420414],[35.779966,58.434108],[35.578635,58.448629],[35.55166,58.448009],[35.448514,58.419484],[35.385778,58.430542],[35.324283,58.392095],[35.257414,58.384137],[35.279222,58.358867],[35.262375,58.323572],[35.27178,58.281766],[35.263615,58.265591],[35.14755,58.223837],[35.087399,58.215362],[35.052672,58.199135],[35.034792,58.199549],[35.00513,58.218669],[34.970507,58.217816],[34.948182,58.23474],[34.839765,58.227454],[34.785608,58.24182],[34.765041,58.24027],[34.70489,58.217635],[34.684426,58.197275],[34.714398,58.171953],[34.696828,58.150663],[34.713158,58.09524],[34.703443,58.084646],[34.678845,58.077928],[34.568464,58.111905],[34.525366,58.112009],[34.488469,58.146399],[34.14172,58.208049],[34.050666,58.189498],[34.032993,58.195415],[34.023691,58.21301],[34.004157,58.219677],[33.940802,58.173323],[33.878274,58.145753],[33.803653,58.142989],[33.7188,58.158001],[33.677356,58.152937],[33.638805,58.129062],[33.65038,58.110303],[33.645833,58.102216],[33.600254,58.09865],[33.538036,58.056017],[33.544961,58.047207],[33.587852,58.034494],[33.629813,58.03682],[33.686037,58.00261],[33.694822,57.975221],[33.683247,57.962302],[33.70216,57.915483],[33.667537,57.879206],[33.575656,57.85311],[33.566665,57.801795],[33.554469,57.777352],[33.557363,57.748543],[33.536796,57.719733],[33.476851,57.686505],[33.409465,57.682578],[33.324922,57.654621],[33.316551,57.642218],[33.334741,57.607879],[33.308696,57.565531],[33.251232,57.555195],[33.234799,57.54269],[33.244824,57.499591],[33.294847,57.432154],[33.248131,57.427761],[33.235109,57.431559],[33.216195,57.453909],[33.092172,57.467862],[33.089588,57.446158],[33.053104,57.437063],[32.938279,57.456312],[32.885983,57.452669],[32.811982,57.462074],[32.762269,57.426883],[32.688785,57.404765],[32.678967,57.365698],[32.654576,57.332728],[32.616438,57.317122],[32.546882,57.304461],[32.511225,57.28038],[32.442599,57.271337],[32.410249,57.239917],[32.394643,57.235732],[32.346687,57.242863],[32.298628,57.273145],[32.257081,57.275522],[32.257391,57.26126],[32.277854,57.241158],[32.276718,57.197543],[32.214809,57.186019],[32.125099,57.18204],[32.096884,57.154186],[32.048618,57.147442],[31.966762,57.116798],[31.937203,57.08401],[31.891728,57.115739],[31.800881,57.09295],[31.714685,57.104008],[31.668486,57.057215],[31.665695,57.040653],[31.677168,57.008924],[31.647815,57.002903],[31.620013,56.97877],[31.537951,56.937662],[31.415685,56.937714],[31.306958,56.968823],[31.117512,56.931047],[31.103352,56.932081],[31.07276,56.95394],[31.000103,56.965205],[30.882487,56.955904],[30.836185,56.936758],[30.799702,56.953216],[30.650874,56.967221],[30.644776,56.981897],[30.646326,57.050032],[30.670097,57.144316],[30.641055,57.183952],[30.663276,57.198835],[30.727561,57.212942],[30.730765,57.226042],[30.766732,57.238574],[30.77314,57.257746],[30.515585,57.318104],[30.465459,57.342573],[30.441171,57.365336],[30.493157,57.389262],[30.490057,57.4829],[30.543593,57.532354],[30.608809,57.617414],[30.517548,57.651003],[30.472073,57.682216],[30.471763,57.690846],[30.511864,57.723247],[30.517755,57.746372],[30.412955,57.777352],[30.517755,57.807221],[30.548244,57.852619],[30.54287,57.875667],[30.529951,57.886596],[30.167699,57.911556],[30.071891,57.941218],[29.937532,57.945507],[29.920272,57.958736],[29.918102,57.975531],[30.001818,58.022195],[30.001301,58.037181],[29.980217,58.038887],[29.92668,58.024211],[29.889473,58.03744],[29.797902,58.092553],[29.755321,58.090666],[29.708192,58.069169],[29.679357,58.077282],[29.694653,58.167044],[29.692172,58.179808],[29.660133,58.20898],[29.653415,58.224973],[29.658479,58.243577],[29.770824,58.30161],[29.824981,58.348532],[29.925543,58.392431],[29.975049,58.44465],[30.040988,58.442996],[30.063209,58.467698],[30.122637,58.488678],[30.127288,58.497903],[30.113645,58.507127],[30.116333,58.520614],[30.167182,58.53312],[30.089564,58.630685],[30.095145,58.663448],[30.116333,58.69156],[30.103103,58.719801],[30.104344,58.735072],[30.158294,58.762667],[30.184546,58.766801],[30.234672,58.753468],[30.279837,58.754295],[30.390011,58.709957],[30.496775,58.733159],[30.705651,58.749334],[30.718776,58.760031],[30.727975,58.82858],[30.761461,58.856459],[30.91246,58.935576],[30.961966,58.975212],[30.978709,59.008802],[30.981396,59.059625],[31.022841,59.081045],[31.063768,59.084559],[31.091364,59.072364],[31.154719,59.076911],[31.164021,59.054535],[31.196163,59.023865],[31.257865,58.980767],[31.306027,58.985237],[31.315639,58.992704],[31.311092,59.004978],[31.32184,59.021462],[31.37176,59.05991],[31.452478,59.092001],[31.481624,59.129363],[31.485965,59.170911],[31.509116,59.200418],[31.557485,59.215301],[31.559552,59.23225],[31.536401,59.24765],[31.529166,59.263515],[31.542809,59.312246],[31.531647,59.353122],[31.551801,59.368056],[31.671897,59.345163],[31.754476,59.315734],[31.807392,59.312091],[31.836848,59.321031],[31.882116,59.375498],[31.915499,59.391982],[31.940821,59.397899],[31.964592,59.379838],[32.00955,59.373947],[32.124065,59.394334],[32.151971,59.357359],[32.212845,59.332813],[32.229279,59.290025],[32.273514,59.285942],[32.310411,59.258399],[32.314338,59.233697],[32.289947,59.213182],[32.302349,59.200056],[32.321159,59.195483],[32.329014,59.206206],[32.346687,59.209513],[32.41459,59.204965],[32.458309,59.192666],[32.501303,59.194372],[32.583986,59.180522],[32.631115,59.167758],[32.653232,59.124712],[32.706252,59.141868],[32.760099,59.200676],[32.76568,59.216127],[32.733744,59.254213],[32.736845,59.2723],[32.848259,59.347334],[32.887016,59.354775],[32.934972,59.380097],[32.961017,59.426838],[33.009903,59.42999],[33.062199,59.384334],[33.168653,59.367694],[33.2256,59.34506],[33.255883,59.323253],[33.339805,59.320876],[33.349004,59.3301],[33.354275,59.37772],[33.520259,59.372965],[33.608109,59.343045],[33.642422,59.311367],[33.725415,59.297828],[33.761898,59.261293],[33.814505,59.233465],[33.826907,59.210391],[33.866905,59.197679],[33.885715,59.209875],[33.908866,59.209978],[33.946073,59.167448],[33.99992,59.148793],[34.10813,59.145279],[34.113505,59.16073],[34.130765,59.172461],[34.213964,59.170911],[34.253134,59.198506],[34.290445,59.185225],[34.366099,59.177628],[34.431315,59.143341],[34.499114,59.135667],[34.554408,59.109416],[34.63461,59.116805],[34.729901,59.103214]]]}}]}