{"type":"FeatureCollection","features":[{"type":"Feature","properties":{"from":"1924-05-10","to":"1925-05-09","kind":"self_rule","kind_ru":"своя власть: империя землёй не распоряжалась","name":"Аяно-Нельканская земля, 10.05.1924 - 09.05.1925","episode":"tungus-1924","note":"10 мая 1924 года отряд Михаила Артемьева в 25-30 человек занял Нелькан, 6 июня после восемнадцатичасового боя пал советский гарнизон в порту Аян. Съезд аяно-нельканских, охотско-аянских и маймаканских тунгусов и якутов избрал Временное центральное тунгусское национальное управление во главе с К. Стручковым, объявил полную независимость тунгусской нации и принял флаг: белое - снега, зелёное - леса, чёрное - земля. Год советской администрации на этой земле не было: гарнизоны отошли, взятых в плен солдат и сотрудников ОГПУ повстанцы отпускали живыми. 9 мая 1925 года подписан мирный договор с СССР, управление самораспустилось; отряд Павла Карамзина сложил оружие 18 июля. Геометрия - современный Аяно-Майский район (OpenStreetMap, admin_level=6): Нелькан и Аян - его сёла. Охотск в вырез не входит: гарнизон порт удержал. Набеги весны 1925 года на Новое Устье, Усть-Майское, Сулгачи и Абагу удержанием не были и в слой не заведены.","source":"Тунгусское национальное восстание 1924-1925 гг. (КиберЛенинка); Тунгусское восстание и Временное центральное тунгусское национальное управление - ru.wikipedia и fccland.ru; полный список с оценкой прочтения - data/sources/registry.json","confidence":"medium","style":"даты нового стиля","clip":"1922","geometry_note":"геометрия обрезана контуром среза 1922"},"geometry":{"type":"Polygon","coordinates":[[[137.0919876,59.448633],[137.1209945,59.44971],[137.1570968,59.4236881],[137.1410464,59.3904022],[137.1739196,59.381704],[137.1680831,59.3652195],[137.1812152,59.3568648],[137.139244,59.3174259],[137.150917,59.3046784],[137.1486854,59.2483744],[137.1356391,59.2334496],[137.1170997,59.2276535],[137.1134948,59.2132469],[137.1759367,59.2071837],[137.23001,59.2148284],[137.2350311,59.1950982],[137.2739982,59.1870974],[137.2861862,59.1949223],[137.3236942,59.1892516],[137.3286724,59.1848331],[137.3226642,59.1777314],[137.3365259,59.1656574],[137.3621892,59.1622038],[137.4067783,59.1705843],[137.4334287,59.1575617],[137.4406814,59.1424431],[137.4552726,59.14044],[137.4742841,59.1628637],[137.4735117,59.1799082],[137.4878883,59.1908562],[137.5413608,59.196241],[137.5637626,59.2204949],[137.5922155,59.2273681],[137.6106691,59.2172664],[137.6146173,59.2042616],[137.6328134,59.1997351],[137.6455593,59.1754445],[137.6429843,59.1665813],[137.6510524,59.1614118],[137.6937961,59.1547674],[137.6928949,59.1463169],[137.7017784,59.1419369],[137.7376985,59.1516647],[137.7669239,59.1383708],[137.7872657,59.1407702],[137.8228855,59.1601798],[137.8491926,59.1517307],[137.9310322,59.1618958],[137.9613304,59.1916695],[138.0013275,59.1903067],[138.0024004,59.2095125],[137.9948043,59.2196384],[138.0635118,59.2387618],[138.1044101,59.2376423],[138.1532478,59.1967904],[138.2121276,59.1897132],[138.2283496,59.2025038],[138.2822084,59.2005042],[138.2850408,59.1821509],[138.2771444,59.1657674],[138.2891178,59.1562196],[138.2907056,59.1392513],[138.2694196,59.1321622],[138.2628107,59.109432],[138.2394647,59.1040776],[138.2269764,59.0956147],[138.2288646,59.0879433],[138.194189,59.075992],[138.1903696,59.0606168],[138.1641483,59.0549458],[138.1705427,59.0400027],[138.1630754,59.0238383],[138.1461238,59.0143172],[138.1510162,58.9978533],[138.1417036,58.9903149],[138.1508874,58.9849861],[138.1520462,58.9729326],[138.1271982,58.9591267],[138.1028652,58.9168339],[138.1412744,58.9030942],[138.1406307,58.8944043],[138.1591701,58.8863998],[138.1613588,58.8694532],[138.1892108,58.8555837],[138.1787824,58.8367566],[138.1399869,58.8176527],[138.1496429,58.7999833],[138.1294727,58.7865085],[138.1572818,58.7711373],[138.1643629,58.7456742],[138.1854343,58.7333811],[138.1847477,58.7138637],[138.1959056,58.6906557],[138.2472753,58.6740373],[138.3081293,58.6668074],[138.3215618,58.6510707],[138.3364534,58.648637],[138.3451223,58.6359299],[138.3729314,58.6220116],[138.3502292,58.6021634],[138.3653354,58.5861962],[138.3564519,58.5812749],[138.3491134,58.5535459],[138.3597993,58.5372429],[138.3441782,58.5318219],[138.3601856,58.5252124],[138.3619022,58.5128639],[138.3769655,58.514276],[138.4023714,58.4994572],[138.414216,58.5052644],[138.4657573,58.4959589],[138.505454,58.4804144],[138.5397863,58.4474409],[138.5851907,58.4384795],[138.607335,58.4159649],[138.6562156,58.3899271],[138.7240219,58.3956849],[138.7582683,58.3897022],[138.7844896,58.403533],[138.8198089,58.4053093],[138.8362455,58.4004075],[138.8414383,58.3862155],[138.86487,58.3894547],[138.8962841,58.3808386],[138.9087295,58.3610674],[138.9767503,58.3479743],[138.9750766,58.3241625],[139.0185499,58.3192945],[139.0587616,58.3266863],[139.1172552,58.3175139],[139.1438627,58.3284439],[139.1909837,58.3217962],[139.1937303,58.3127577],[139.2120552,58.3040326],[139.2005109,58.2773029],[139.227848,58.2764003],[139.2334699,58.2645061],[139.2129564,58.2495367],[139.2208099,58.2426708],[139.21772,58.2319854],[139.2295217,58.2233534],[139.2126989,58.2103563],[139.2584467,58.1939618],[139.2885303,58.2039124],[139.3122196,58.1984851],[139.3499422,58.2055631],[139.3704557,58.1918808],[139.3906688,58.1952736],[139.4144868,58.1780801],[139.4675731,58.1659492],[139.5240068,58.171472],[139.5428896,58.1490586],[139.5931434,58.1268124],[139.5952034,58.111853],[139.6259307,58.1129638],[139.6497488,58.0977718],[139.6509504,58.0864529],[139.6412515,58.0787159],[139.66228,58.0640768],[139.6524953,58.050817],[139.6826648,58.0378476],[139.6959042,58.0111671],[139.6867847,57.9749099],[139.7284984,57.9529648],[139.7873783,57.95424],[139.7964763,57.9365655],[139.7886657,57.926768],[139.8075056,57.9053179],[139.8287057,57.9029236],[139.9209737,57.9260843],[139.9327755,57.9430806],[139.9303722,57.9526688],[139.9403286,57.9595452],[139.9372816,57.9786874],[140.0527668,57.9734078],[140.032897,57.996614],[140.0478744,58.0021631],[140.0503635,58.0260779],[140.0610923,58.0427315],[140.1338338,58.0434129],[140.1586389,58.0247144],[140.1846885,58.0208053],[140.1825857,57.9956133],[140.2029275,57.9806443],[140.2310371,57.9833975],[140.2894878,58.0113263],[140.3289699,58.0137361],[140.3661346,57.9932706],[140.3651904,57.9735672],[140.3922271,57.9671942],[140.3896522,57.9552191],[140.4024409,57.9513025],[140.4398631,57.9641439],[140.4422664,57.9818958],[140.472393,57.9894945],[140.4729938,58.0040505],[140.4978847,57.9981379],[140.5153083,58.0133269],[140.5503702,58.0172822],[140.55446578379957,58.008169689080404],[140.4943831,57.8903338],[140.4952319,57.8502508],[140.4799706,57.8393941],[140.4274187,57.8271146],[140.393527,57.8012125],[140.3393524,57.7843269],[140.31039263517698,57.75236157939712],[140.2999433458332,57.75105541822915],[140.2918453,57.7636636],[140.254431,57.7664177],[140.19936575646054,57.7478019089547],[140.1117134,57.741972],[140.0087607,57.7057692],[139.9173121,57.6407654],[139.8776055,57.5991267],[139.80671780139414,57.50053469348003],[139.76385496684233,57.48895680138845],[139.7121,57.4918],[139.6098003,57.4635711],[139.5631,57.4301],[139.53892661060985,57.37814683730158],[139.4979,57.3395],[139.4728,57.3344],[139.43374336675603,57.31114074930603],[139.38,57.3082],[139.3426670380919,57.294291750377106],[139.182971,57.2708616],[139.0687,57.207],[139.0316358,57.1603159],[139.0256,57.14],[138.9955151,57.1561682],[138.9270703,57.1434126],[138.93021649690732,57.11770558020672],[138.908934,57.1052269],[138.9303102,57.0929572],[138.92460791516652,57.06703341959202],[138.90105170299555,57.030193088749286],[138.8451,57.0164],[138.82278724564716,57.021702991208485],[138.8280125,57.0240544],[138.8222075,57.0306003],[138.7955211,57.030373],[138.7813218,57.0190533],[138.79502047411626,57.01267719825766],[138.7886,57.0073],[138.7634056,57.0108681],[138.74899350033553,57.00098480737108],[138.6528,56.9855],[138.6441975787397,56.97101633155151],[138.6101351,56.9550357],[138.586,56.9217],[138.5682021281057,56.86992025812814],[138.4457494,56.8429064],[138.459153,56.8239878],[138.4465558,56.8233743],[138.46222478168508,56.82299286342551],[138.4192127,56.7841929],[138.4228569,56.7726289],[138.4137231,56.7723367],[138.4018226,56.7577755],[138.39483784248887,56.73570597478995],[138.3058,56.7167],[138.2794066,56.6871521],[138.2749022627051,56.666366176895785],[138.2565517,56.6642652],[138.2549091708541,56.6433199308976],[138.1256261,56.5937367],[138.1126924,56.5786871],[138.1107948,56.5252207],[138.13548390890676,56.49224410207494],[138.1444,56.458],[138.1108,56.4409],[138.0648208,56.4387138],[138.0543937,56.4269778],[138.0585170585719,56.41546120634488],[137.97375824835382,56.37355163942994],[137.9182665,56.3648293],[137.88594710303434,56.318968163946295],[137.8770131,56.3170486],[137.8710093056902,56.29333185490632],[137.8410189,56.2581406],[137.84210642115917,56.25043943661538],[137.7796801,56.2173739],[137.7258,56.175],[137.61878476165487,56.11988861022552],[137.572,56.1165],[137.5089303,56.0724891],[137.4437,56.0485],[137.4180152287738,56.01655199481331],[137.32631387072743,55.96927852194657],[137.3027307,55.9665242],[137.17915160056626,55.89351124380411],[137.1598567,55.894137],[136.9900630212257,55.79618286379198],[136.9210986,55.779565],[136.9001498,55.7660107],[136.8881397805674,55.74533978056739],[136.852289,55.7400379],[136.8238062596835,55.712323570355345],[136.7286,55.6615],[136.7156696,55.6680977],[136.6631809749007,55.64201736379154],[136.591,55.6205],[136.552528,55.6222143],[136.55167312032052,55.608755680798275],[136.4169,55.5686],[136.3691604,55.5308469],[136.2913227,55.522509],[136.2552738,55.5047464],[136.220169,55.5081489],[136.1902999,55.500031],[136.1095762,55.5264687],[136.0937404,55.5166538],[136.0609531,55.5156333],[136.0656309,55.50392],[136.0477781,55.4993261],[135.9883403,55.5011005],[135.9620761,55.4780995],[135.9557676,55.4612901],[135.9124231,55.4515077],[135.9019517,55.4400431],[135.8910942,55.4500231],[135.854702,55.4557908],[135.856204,55.4687105],[135.8353471,55.4784644],[135.8125162,55.4653533],[135.7871532,55.4620931],[135.7817459,55.4737458],[135.761404,55.4786346],[135.7597732,55.4959228],[135.7401609,55.505038],[135.7117704,55.5120757],[135.6069088,55.5104575],[135.6116938,55.5428982],[135.5497241,55.5603888],[135.5435657,55.5657643],[135.5502605,55.5877682],[135.5383515,55.5928853],[135.5419349,55.608463],[135.5890345,55.639091],[135.5777478,55.6508246],[135.5838847,55.6649874],[135.5591011,55.6654111],[135.4950499,55.685339],[135.4773044,55.677657],[135.4732489,55.6874438],[135.4350972,55.6978448],[135.4111504,55.6828592],[135.3745222,55.6792298],[135.3734493,55.6662098],[135.3464126,55.6584151],[135.3149557,55.6335924],[135.2774047,55.6417553],[135.2226448,55.6405685],[135.1955223,55.6274387],[135.1746654,55.6511273],[135.1333808,55.6649754],[135.1163864,55.6602066],[135.1020956,55.6655079],[135.0871181,55.6524349],[135.0492668,55.649965],[135.0381088,55.6437897],[135.0405764,55.6368626],[135.0079179,55.6308669],[134.9455404,55.6442257],[134.8727989,55.6300069],[134.8594522,55.6191031],[134.878292,55.5937705],[134.8523712,55.5833296],[134.7449541,55.6066206],[134.7399115,55.5645024],[134.7516274,55.5521725],[134.6862674,55.5309744],[134.6680069,55.5485189],[134.6732854,55.5588112],[134.6412277,55.5609713],[134.6329021,55.5720126],[134.6003723,55.5862524],[134.5880127,55.6270995],[134.5560836,55.6226654],[134.5203781,55.6299584],[134.4793939,55.6527981],[134.4039058,55.6745838],[134.3678999,55.6955834],[134.3803024,55.7066835],[134.370861,55.7156532],[134.308505,55.7273518],[134.2622423,55.7521875],[134.2028904,55.7336105],[134.1491174,55.7441442],[134.1363716,55.7367516],[134.139204,55.7285601],[134.0914392,55.7072397],[134.0392327,55.7199076],[134.0349626,55.7330306],[134.0050506,55.7477192],[133.9418792,55.7321849],[133.9182758,55.7039269],[133.9018821,55.7069012],[133.8886213,55.7235815],[133.8435602,55.7299859],[133.8452768,55.7389502],[133.8095283,55.7376214],[133.7955379,55.7172245],[133.8287973,55.6908184],[133.8275098,55.6767617],[133.8342905,55.6731923],[133.829484,55.6659315],[133.7517643,55.658052],[133.7479448,55.6478583],[133.6911249,55.6450491],[133.6610412,55.6340284],[133.5713052,55.6448796],[133.5533237,55.6606181],[133.4997224,55.6728898],[133.4612273,55.6648544],[133.4095573,55.6772941],[133.3964252,55.6748742],[133.396511,55.6661614],[133.3622645,55.6595287],[133.3467292,55.6714377],[133.3299922,55.6651932],[133.3055305,55.6718734],[133.2896518,55.6606908],[133.2437324,55.6632083],[133.2103442,55.6469865],[133.2168674,55.6375408],[133.201847,55.6325022],[133.1341481,55.6395997],[133.1036996,55.6128018],[133.1106948,55.6030085],[133.101468,55.5918062],[133.0790233,55.5880957],[133.0697965,55.5743417],[133.0346489,55.5693921],[132.991991,55.5870285],[132.8492975,55.6078327],[132.8431177,55.5949829],[132.8029489,55.5894538],[132.7870273,55.5768649],[132.7485751,55.5895508],[132.7112388,55.5819834],[132.6782798,55.5908362],[132.6581081,55.6046187],[132.6660199,55.6139584],[132.6615065,55.6264057],[132.6418406,55.6342483],[132.6269975,55.6511047],[132.56441,55.6734199],[132.5581523,55.709942],[132.5378339,55.717072],[132.5014381,55.7106818],[132.4919777,55.7203485],[132.467173,55.7222415],[132.4433978,55.7418237],[132.4151135,55.7463014],[132.3866143,55.738646],[132.3205733,55.7417589],[132.3062215,55.7328689],[132.2636189,55.7426918],[132.2369395,55.7311476],[132.2356021,55.7188133],[132.224945,55.7186181],[132.2209822,55.7076015],[132.1597168,55.7106218],[132.1584011,55.7034601],[132.1689888,55.6976565],[132.1513923,55.6857405],[132.1557174,55.6793258],[132.1073122,55.6887086],[132.0832941,55.7018621],[132.0304928,55.6944957],[131.9711239,55.7136328],[131.9414868,55.7047137],[131.9445158,55.6973865],[131.9318598,55.6858564],[131.9400548,55.6590206],[131.8971559,55.6691989],[131.8274372,55.6478143],[131.8011725,55.655493],[131.7974752,55.6803131],[131.7701694,55.6959762],[131.7167365,55.6890845],[131.6376745,55.7091821],[131.5943304,55.6844205],[131.5941615,55.6707489],[131.5781922,55.6550917],[131.5464334,55.6631872],[131.5247154,55.6754679],[131.5224941,55.6883561],[131.4932736,55.6971939],[131.4434503,55.6866024],[131.4558222,55.6741077],[131.424769,55.6619427],[131.3896897,55.6575775],[131.3707565,55.666209],[131.3639082,55.6573042],[131.3352452,55.6510162],[131.2989406,55.6738184],[131.2674236,55.6745832],[131.2558115,55.6866876],[131.2267976,55.694649],[131.2157164,55.6941361],[131.1872276,55.6646245],[131.1425416,55.6437137],[131.073999,55.6634996],[131.0527836,55.6580304],[131.0148431,55.6870757],[130.9717754,55.6990703],[130.9748759,55.7041924],[130.952768,55.7121765],[130.9624957,55.7240329],[130.9438336,55.7362668],[130.9432033,55.7534978],[130.9582517,55.7752318],[130.9533582,55.7867898],[130.964553,55.8000077],[130.9633973,55.8101422],[130.9407897,55.8192722],[130.9314671,55.8316349],[130.8919434,55.8425744],[130.8977234,55.8519289],[130.8884691,55.8614354],[130.8937196,55.8688093],[130.8863412,55.9015199],[130.8599307,55.9168149],[130.8968252,55.9485695],[130.9359397,55.960754],[130.9196272,55.9726473],[130.9273847,55.9826008],[130.9004514,56.0004459],[130.895199,56.0144222],[130.9023571,56.0256102],[130.9306536,56.0373558],[130.9452724,56.0672565],[130.9641552,56.0687538],[130.9782314,56.0868238],[130.9706883,56.1357298],[130.9912868,56.1675847],[131.0551312,56.2029999],[131.0784057,56.2065209],[131.0737068,56.210058],[131.1207949,56.2462325],[131.1122913,56.248745],[131.1151051,56.2595296],[131.1238212,56.2570839],[131.1220832,56.2656708],[131.1317084,56.2682082],[131.1228604,56.2730072],[131.1343269,56.2766898],[131.139749,56.2983115],[131.1249734,56.3143467],[131.1376691,56.3285819],[131.1271,56.3266199],[131.1297264,56.3368198],[131.1152416,56.3381504],[131.1269855,56.341671],[131.1282005,56.3508096],[131.114121,56.3481081],[131.1174184,56.3557062],[131.1070029,56.3538326],[131.1116214,56.3621267],[131.100859,56.3636321],[131.1141353,56.3700572],[131.1006533,56.3792693],[131.1130758,56.3846563],[131.0973772,56.3840436],[131.1040529,56.3890123],[131.0993016,56.394573],[131.1110934,56.3967282],[131.1011074,56.3999831],[131.1115089,56.4031652],[131.1036288,56.4099364],[131.1349376,56.4185901],[131.1326537,56.4241695],[131.1543297,56.4199667],[131.1531851,56.4312919],[131.1427231,56.4349518],[131.1675709,56.4355443],[131.1591143,56.4544349],[131.1847962,56.4543357],[131.1770902,56.4626038],[131.1912166,56.4652988],[131.1765828,56.4687145],[131.2254761,56.4957283],[131.2141044,56.509478],[131.2221156,56.5208445],[131.2732971,56.5157307],[131.3167909,56.5209545],[131.3300914,56.5124868],[131.3405101,56.5282578],[131.3725409,56.5016618],[131.3882093,56.4997399],[131.3741859,56.4788125],[131.3872557,56.4769933],[131.383884,56.4604804],[131.4279609,56.4532533],[131.4508721,56.4643782],[131.4499912,56.4738091],[131.4376014,56.4879055],[131.4175398,56.4908962],[131.4082785,56.5092434],[131.4414319,56.523877],[131.4322891,56.5295617],[131.435655,56.5384008],[131.4868786,56.5524685],[131.4920974,56.5658779],[131.5370191,56.5488105],[131.5695823,56.5510792],[131.5625593,56.539669],[131.5706055,56.5302778],[131.6337508,56.5266058],[131.6275446,56.4925529],[131.6171734,56.4789185],[131.6368162,56.4714413],[131.6484131,56.4554361],[131.6671714,56.4639527],[131.6657506,56.478928],[131.6824748,56.4961699],[131.6958507,56.4891685],[131.6953256,56.4730138],[131.731299,56.4736108],[131.7537024,56.4899834],[131.7109135,56.5010214],[131.6859506,56.5300871],[131.6438532,56.538629],[131.6796296,56.5519931],[131.7032474,56.5719672],[131.6974138,56.5784584],[131.702583,56.590701],[131.6942172,56.5965908],[131.7091921,56.6099243],[131.6645119,56.6199489],[131.6924372,56.6292399],[131.6719662,56.647742],[131.715352,56.6566688],[131.720395,56.665584],[131.6812888,56.672586],[131.6796746,56.6811059],[131.6962585,56.690348],[131.7222741,56.6869328],[131.7367862,56.7002772],[131.7642904,56.70599],[131.7648085,56.7125444],[131.7457658,56.7164484],[131.7478786,56.7220336],[131.7844094,56.7147171],[131.8016904,56.720038],[131.7990236,56.7297807],[131.7713034,56.7452389],[131.7843832,56.7492044],[131.8049276,56.7379596],[131.8273464,56.740257],[131.8326991,56.7447933],[131.8281765,56.7612084],[131.8371121,56.7695222],[131.8025129,56.7765476],[131.8050981,56.7869007],[131.7938629,56.8106347],[131.8116437,56.819534],[131.7737848,56.8348529],[131.7730091,56.8652772],[131.7235664,56.8608374],[131.7096862,56.8841384],[131.7123668,56.8931879],[131.6797193,56.8925618],[131.6660434,56.9009385],[131.6618926,56.9303812],[131.635258,56.9387052],[131.6401925,56.9515633],[131.6073813,56.9497848],[131.6115839,56.9765985],[131.5799081,56.9800174],[131.5766028,56.9899171],[131.5469231,57.0086875],[131.5443933,57.0241978],[131.5104327,57.0189139],[131.5004258,57.0244621],[131.5076576,57.0496404],[131.4764253,57.0556631],[131.4690621,57.0837622],[131.4853951,57.0958179],[131.5065168,57.0896297],[131.5070903,57.1009443],[131.4978815,57.1093693],[131.4612636,57.1128597],[131.4301944,57.1382653],[131.4087581,57.1345393],[131.3896475,57.1489953],[131.3432647,57.1522297],[131.3315571,57.1588456],[131.3363265,57.184736],[131.3126707,57.1922853],[131.2551856,57.1948546],[131.2375853,57.1842503],[131.2326511,57.1638811],[131.192289,57.1678357],[131.1897119,57.1843508],[131.201063,57.2071171],[131.1441007,57.2315632],[131.1217023,57.2594065],[131.1419931,57.2700237],[131.1791905,57.2596232],[131.2076791,57.2622119],[131.2385324,57.2814578],[131.2553285,57.2987904],[131.2495681,57.3100373],[131.2651075,57.3150201],[131.2812716,57.3364408],[131.291943,57.3356269],[131.3021935,57.3090994],[131.319267,57.3021075],[131.3235693,57.2865333],[131.347382,57.2767614],[131.4659566,57.2767646],[131.4879118,57.2641196],[131.5088213,57.2681517],[131.5155457,57.2772267],[131.5104718,57.2942241],[131.5366682,57.3035312],[131.5402507,57.3124325],[131.6118335,57.3103929],[131.6117,57.3298376],[131.6276264,57.3410678],[131.605997,57.3564188],[131.60186,57.368916],[131.6116619,57.3871478],[131.6015191,57.3928107],[131.60604,57.4273713],[131.6558647,57.47302],[131.6843175,57.480288],[131.7032861,57.4966185],[131.7283058,57.5005386],[131.7497435,57.5294964],[131.7806196,57.5379426],[131.7249004,57.566134],[131.7240493,57.578063],[131.7606222,57.5800176],[131.7829789,57.6000911],[131.8491163,57.622865],[131.9507068,57.6178669],[131.9758119,57.641062],[131.9867525,57.664212],[132.0309699,57.6674696],[132.0712133,57.6870752],[132.0618569,57.7039201],[132.0471516,57.7113062],[132.0509713,57.7312513],[132.024765,57.7510073],[131.9582462,57.7901673],[131.9166183,57.7979896],[131.9024133,57.812189],[131.880784,57.8153208],[131.8784666,57.8479257],[131.8454217,57.8475831],[131.8165397,57.8683829],[131.7539691,57.8749787],[131.748476,57.8888513],[131.7964663,57.9018239],[131.7912747,57.9137025],[131.7984724,57.9348796],[131.6983079,57.9502777],[131.7036295,57.9567447],[131.6954413,57.97183],[131.656447,57.992809],[131.6385269,57.9944988],[131.6146596,58.0135427],[131.5818786,58.0205325],[131.5713214,58.0343261],[131.632905,58.0462975],[131.6439342,58.080032],[131.6201314,58.0884862],[131.581707,58.0882564],[131.5656995,58.1107421],[131.5282856,58.1105121],[131.5231275,58.1332702],[131.4968633,58.1694124],[131.4601535,58.1664927],[131.4446353,58.1823114],[131.4582395,58.19032],[131.4543772,58.1975353],[131.4692688,58.2032454],[131.501069,58.1986208],[131.558361,58.2115545],[131.5940666,58.1984173],[131.6681542,58.2090206],[131.6740614,58.2012672],[131.7212096,58.195591],[131.7400028,58.1809715],[131.7451223,58.1631472],[131.7697737,58.1518241],[131.8305725,58.1661919],[131.8761581,58.1351542],[131.8996667,58.1295996],[131.8866634,58.1191295],[131.9790252,58.0805044],[131.9848232,58.0516905],[132.0215435,58.057305],[132.0662743,58.049308],[132.0907963,58.0690125],[132.1372393,58.0802304],[132.1442359,58.1022036],[132.1227992,58.1020779],[132.1022995,58.1236079],[131.9841241,58.1577766],[131.9986295,58.1634818],[132.0041227,58.1782612],[132.0344143,58.1860106],[132.0144571,58.2011796],[132.1114361,58.2784304],[132.1289167,58.2799538],[132.1984008,58.2546284],[132.1968212,58.2746257],[132.2108876,58.2880106],[132.206254,58.3075274],[132.2285801,58.3316686],[132.2234639,58.3374254],[132.229004,58.344619],[132.2126426,58.3628686],[132.2235488,58.3717477],[132.22548,58.3854506],[132.1968281,58.3968207],[132.1795206,58.4150458],[132.1811914,58.4247298],[132.1705576,58.4335722],[132.1870279,58.4445888],[132.1850001,58.4698521],[132.1697759,58.495488],[132.1399293,58.5148625],[132.1870797,58.5289817],[132.2221109,58.51857],[132.3035001,58.5371533],[132.3184776,58.5148139],[132.3717802,58.5194638],[132.4309175,58.5108544],[132.4267959,58.5381837],[132.3891731,58.5437715],[132.3850822,58.5596576],[132.4294996,58.5784784],[132.4479138,58.5911329],[132.4436721,58.60246],[132.5463543,58.658676],[132.5019966,58.6792776],[132.5448619,58.7302028],[132.5419155,58.7428055],[132.5271175,58.7531606],[132.5363909,58.7821028],[132.4891948,58.7964706],[132.5331401,58.8193858],[132.5254801,58.8340742],[132.5587606,58.8488133],[132.5608092,58.8745051],[132.5915607,58.8927325],[132.6355214,58.891286],[132.6643047,58.9105291],[132.7031162,58.8865624],[132.7738962,58.8837601],[132.8015284,58.9475204],[132.8438731,58.976578],[132.8457838,58.9902177],[132.8341568,58.9993532],[132.8082696,58.997135],[132.7650017,59.0073658],[132.7488188,59.0187922],[132.8219193,59.0454751],[132.8193011,59.0576722],[132.8387857,59.070715],[132.8168814,59.0921563],[132.829158,59.1062078],[132.8274835,59.1180643],[132.8647055,59.1179095],[132.8878581,59.1116331],[132.8964738,59.1011366],[132.9338927,59.1050654],[132.9599675,59.1211649],[132.9633704,59.1417182],[133.0418518,59.1794],[133.0577872,59.1984747],[133.0866117,59.1987832],[133.1082249,59.2163899],[133.1590376,59.2046417],[133.1728574,59.2256916],[133.1709727,59.2414102],[133.1987199,59.2474418],[133.2139951,59.2414731],[133.2184234,59.2299479],[133.2835811,59.2275562],[133.3323931,59.253501],[133.3633033,59.2451597],[133.3734633,59.270478],[133.3839698,59.2765501],[133.4130216,59.2758974],[133.4659735,59.2961375],[133.4680658,59.3064402],[133.5134422,59.3123815],[133.5706161,59.2957331],[133.5724884,59.2510181],[133.6264557,59.241618],[133.6341313,59.2294604],[133.7183456,59.2341193],[133.7441978,59.2278365],[133.8690442,59.2590413],[133.9385693,59.2505375],[133.993286,59.2554276],[134.0011749,59.2633298],[134.0317234,59.2618636],[134.077362,59.2560169],[134.1029722,59.234929],[134.126841,59.2399625],[134.1535475,59.2290302],[134.1799079,59.2318128],[134.1837026,59.2185301],[134.2135634,59.2200209],[134.2819179,59.20408],[134.3173791,59.2089044],[134.365691,59.2022581],[134.3877301,59.1938691],[134.3768719,59.1860951],[134.388919,59.1726677],[134.4361014,59.1674157],[134.4861613,59.1389909],[134.4994087,59.142191],[134.4991858,59.1574567],[134.5279895,59.1867485],[134.5648126,59.2041037],[134.6008547,59.2021995],[134.6228919,59.2097499],[134.6548592,59.198671],[134.7212813,59.2187298],[134.7164152,59.2047005],[134.7363524,59.1875752],[134.7220992,59.1750711],[134.7331114,59.1578082],[134.7486451,59.1530275],[134.7815771,59.1573045],[134.8006985,59.1508604],[134.80816,59.140001],[134.8471317,59.1369043],[134.9201424,59.1554436],[134.9305232,59.1693496],[134.9526228,59.1688249],[134.9886064,59.1649124],[135.022309,59.1460684],[135.0605873,59.1502142],[135.1022505,59.1229818],[135.1821473,59.1116671],[135.1945276,59.1153915],[135.2089953,59.1388923],[135.2480687,59.1390611],[135.2505301,59.1594908],[135.2381129,59.1702659],[135.2382982,59.1802451],[135.3039462,59.1960278],[135.2649223,59.225636],[135.2612925,59.2359198],[135.2962936,59.2482597],[135.3051264,59.2763361],[135.3624865,59.3113545],[135.3491395,59.335389],[135.4186693,59.3639342],[135.4358696,59.3803913],[135.4378295,59.3969575],[135.4763906,59.4140486],[135.5080421,59.439284],[135.594593,59.4667776],[135.6237863,59.4928372],[135.6875359,59.5086745],[135.7046391,59.4994357],[135.7373197,59.5032947],[135.7659942,59.5208314],[135.8264478,59.5261066],[135.8905564,59.514043],[135.8895169,59.496764],[135.9475674,59.4588135],[135.9658087,59.4560067],[135.971292,59.4722426],[135.986857,59.4735516],[136.0182017,59.4546438],[136.0597427,59.4472443],[136.0853608,59.4203018],[136.1115328,59.4257251],[136.1238236,59.4131448],[136.1538179,59.4212593],[136.2104595,59.4209246],[136.2398621,59.4120941],[136.2619382,59.4259619],[136.2787904,59.4183721],[136.3173511,59.4238105],[136.3378198,59.4136813],[136.3468253,59.3939248],[136.3899522,59.3832542],[136.4406645,59.3928629],[136.55692,59.368504],[136.5863975,59.3815757],[136.605137,59.3814058],[136.667466,59.3464619],[136.717411,59.3518735],[136.757848,59.3373723],[136.7915719,59.3527766],[136.8130442,59.3845041],[136.9190827,59.4081793],[136.9960293,59.4343568],[137.0406181,59.4249657],[137.0919876,59.448633]]]}}]}