{"type": "FeatureCollection", "features": [{"type": "Feature", "geometry": {"type": "MultiPolygon", "coordinates": [[[[21.329112, 62.138129], [21.33253, 62.152574], [21.325938, 62.163764], [21.340343, 62.175727], [21.371104, 62.186469], [21.383962, 62.194485], [21.389903, 62.208157], [21.38087, 62.217841], [21.353282, 62.232001], [21.374278, 62.266791], [21.352306, 62.266018], [21.340017, 62.255194], [21.329356, 62.241441], [21.312266, 62.232001], [21.316173, 62.248236], [21.328461, 62.277167], [21.332774, 62.294094], [21.333507, 62.340562], [21.339041, 62.355536], [21.28533, 62.345282], [21.270681, 62.349311], [21.262462, 62.359198], [21.260427, 62.371975], [21.26531, 62.385199], [21.277517, 62.39647], [21.270681, 62.410793], [21.205089, 62.359687], [21.202403, 62.349189], [21.216075, 62.335028], [21.194347, 62.337063], [21.189789, 62.352444], [21.195079, 62.37287], [21.202403, 62.390326], [21.196544, 62.391506], [21.187022, 62.39525], [21.181326, 62.39647], [21.189464, 62.408393], [21.194591, 62.413235], [21.202403, 62.417629], [21.186046, 62.42357], [21.166759, 62.421332], [21.147797, 62.413804], [21.133556, 62.403957], [21.131358, 62.416693], [21.149181, 62.447089], [21.154552, 62.464789], [21.136974, 62.457994], [21.124278, 62.45482], [21.116384, 62.46015], [21.113048, 62.47842], [21.115571, 62.495795], [21.124278, 62.509996], [21.137869, 62.520697], [21.154552, 62.527493], [21.148774, 62.535549], [21.12672, 62.554145], [21.146821, 62.562812], [21.167328, 62.575751], [21.188162, 62.584866], [21.209239, 62.582099], [21.193533, 62.600898], [21.121593, 62.609442], [21.106212, 62.623033], [21.094086, 62.619452], [21.083263, 62.612698], [21.065196, 62.595771], [21.067882, 62.620103], [21.083181, 62.659247], [21.078949, 62.67829], [21.098888, 62.680894], [21.125743, 62.690172], [21.149669, 62.703803], [21.160818, 62.719306], [21.160167, 62.73017], [21.15561, 62.731757], [21.148611, 62.730414], [21.140391, 62.732896], [21.122813, 62.74372], [21.116466, 62.749661], [21.107921, 62.767035], [21.113536, 62.781195], [21.12908, 62.790839], [21.15089, 62.794379], [21.171072, 62.784613], [21.18336, 62.782375], [21.188813, 62.790676], [21.192231, 62.792914], [21.209646, 62.807603], [21.216075, 62.814846], [21.221934, 62.831041], [21.222667, 62.845649], [21.226736, 62.858466], [21.243419, 62.869452], [21.267426, 62.869045], [21.335704, 62.855455], [21.3567, 62.859524], [21.364268, 62.865424], [21.382823, 62.874579], [21.390798, 62.880316], [21.395518, 62.887356], [21.399669, 62.900702], [21.40919, 62.913804], [21.420095, 62.934882], [21.42213, 62.941799], [21.427501, 62.944037], [21.463145, 62.951402], [21.446544, 62.987006], [21.442719, 63.005072], [21.442638, 63.027086], [21.441742, 63.034369], [21.440766, 63.037787], [21.444102, 63.04092], [21.456309, 63.047553], [21.467052, 63.047919], [21.475271, 63.043036], [21.480479, 63.043036], [21.48227, 63.058173], [21.495128, 63.071723], [21.523448, 63.063951], [21.565196, 63.040758], [21.59547, 63.034857], [21.625743, 63.023871], [21.656749, 63.01789], [21.688487, 63.027086], [21.645681, 63.055243], [21.579112, 63.083726], [21.559581, 63.09512], [21.553233, 63.108588], [21.572439, 63.123358], [21.560069, 63.119696], [21.545909, 63.117906], [21.531993, 63.119696], [21.520844, 63.126776], [21.516775, 63.1376], [21.517833, 63.148017], [21.516124, 63.155463], [21.503429, 63.157457], [21.510509, 63.168402], [21.522227, 63.172065], [21.551931, 63.171129], [21.551931, 63.177924], [21.512869, 63.185004], [21.500987, 63.19245], [21.496593, 63.20897], [21.504893, 63.217434], [21.523774, 63.225409], [21.544444, 63.231024], [21.558116, 63.232611], [21.615408, 63.203925], [21.647227, 63.197659], [21.667979, 63.21955], [21.687999, 63.210191], [21.714692, 63.202338], [21.742361, 63.199652], [21.764171, 63.205878], [21.749034, 63.210883], [21.717947, 63.215318], [21.702647, 63.21955], [21.702647, 63.225775], [21.743663, 63.239407], [21.758067, 63.241523], [21.79835, 63.239407], [21.8213, 63.24372], [21.869884, 63.259426], [21.894542, 63.260484], [21.884451, 63.245429], [21.88266, 63.235907], [21.891449, 63.196601], [21.889903, 63.188178], [21.88087, 63.177924], [21.905528, 63.175442], [21.983897, 63.143215], [21.972179, 63.164984], [21.955903, 63.18476], [21.98406, 63.19123], [21.994395, 63.196438], [22.004405, 63.205878], [22.01002, 63.215766], [22.012543, 63.224311], [22.015961, 63.232001], [22.02475, 63.239407], [22.043142, 63.245592], [22.053559, 63.240912], [22.061371, 63.232123], [22.072032, 63.225775], [22.087576, 63.225775], [22.114024, 63.236274], [22.127208, 63.239407], [22.139496, 63.237982], [22.15919, 63.231757], [22.175059, 63.232611], [22.180186, 63.2355], [22.181163, 63.240058], [22.180837, 63.244452], [22.181895, 63.246812], [22.187266, 63.246405], [22.194998, 63.244127], [22.201427, 63.24136], [22.202973, 63.239407], [22.24464, 63.267076], [22.266368, 63.285346], [22.278087, 63.301459], [22.284923, 63.301459], [22.307628, 63.275865], [22.330089, 63.28384], [22.352224, 63.305609], [22.373709, 63.321357], [22.363943, 63.32689], [22.357188, 63.334215], [22.346934, 63.34927], [22.333832, 63.359687], [22.305349, 63.372707], [22.255382, 63.40644], [22.250499, 63.411322], [22.232921, 63.411811], [22.218272, 63.414374], [22.205821, 63.420315], [22.195567, 63.43122], [22.190929, 63.458441], [22.21339, 63.470893], [22.246755, 63.469631], [22.274669, 63.455715], [22.304942, 63.435858], [22.335216, 63.430406], [22.366954, 63.42829], [22.401622, 63.418158], [22.318207, 63.460517], [22.279959, 63.487616], [22.271251, 63.513739], [22.281423, 63.52619], [22.292247, 63.529731], [22.319347, 63.527411], [22.337413, 63.523342], [22.337087, 63.513617], [22.331228, 63.502346], [22.333344, 63.493232], [22.355479, 63.487494], [22.380219, 63.485419], [22.396821, 63.476955], [22.394786, 63.452338], [22.4074, 63.456936], [22.423676, 63.468004], [22.435802, 63.472805], [22.435802, 63.47956], [22.428396, 63.488756], [22.431488, 63.497382], [22.43865, 63.506537], [22.442638, 63.517483], [22.445486, 63.518134], [22.463064, 63.554755], [22.472423, 63.561835], [22.483735, 63.56684], [22.493175, 63.573472], [22.497244, 63.585761], [22.503429, 63.587104], [22.545665, 63.575181], [22.537771, 63.587714], [22.497244, 63.622992], [22.514415, 63.635972], [22.522227, 63.640611], [22.531993, 63.64411], [22.52947, 63.650865], [22.527843, 63.653876], [22.525076, 63.657701], [22.567393, 63.653144], [22.585704, 63.65705], [22.593435, 63.674506], [22.591075, 63.694159], [22.589041, 63.703315], [22.594086, 63.704291], [22.613292, 63.699286], [22.627778, 63.687445], [22.637055, 63.683092], [22.641124, 63.688463], [22.644867, 63.698554], [22.654063, 63.703762], [22.665212, 63.704779], [22.675304, 63.702379], [22.690766, 63.693793], [22.702322, 63.683417], [22.707042, 63.671332], [22.702647, 63.657701], [22.713227, 63.649888], [22.73406, 63.62759], [22.740489, 63.622992], [22.755219, 63.624091], [22.773448, 63.627509], [22.790538, 63.633002], [22.802257, 63.640326], [22.810232, 63.643744], [22.820486, 63.644192], [22.829275, 63.646226], [22.833018, 63.654364], [22.833018, 63.661811], [22.833507, 63.667304], [22.835704, 63.672105], [22.840343, 63.677639], [22.855479, 63.687161], [22.886974, 63.695217], [22.901866, 63.705512], [22.885265, 63.712307], [22.833018, 63.72602], [22.901866, 63.72602], [22.882091, 63.742133], [22.874685, 63.746527], [22.900401, 63.740058], [22.914724, 63.739203], [22.925792, 63.743394], [22.928477, 63.748765], [22.929861, 63.756903], [22.92921, 63.76435], [22.925792, 63.767564], [22.907725, 63.772406], [22.898774, 63.783271], [22.902517, 63.794867], [22.922374, 63.801703], [22.942882, 63.800482], [22.954845, 63.79328], [22.973155, 63.770982], [22.990001, 63.761298], [23.000662, 63.763617], [23.001801, 63.773749], [22.990733, 63.787502], [22.990733, 63.787624], [22.99464, 63.800727], [22.994477, 63.80622], [22.990733, 63.815375], [23.047618, 63.841295], [23.062836, 63.852973], [23.074962, 63.857367], [23.121349, 63.849555], [23.132579, 63.852484], [23.142345, 63.858466], [23.153494, 63.863471], [23.151215, 63.864895], [23.141612, 63.869452], [23.141856, 63.875963], [23.15504, 63.883694], [23.167328, 63.886949], [23.197927, 63.890611], [23.275238, 63.888902], [23.306488, 63.894232], [23.326427, 63.910956], [23.350759, 63.89883], [23.372813, 63.900621], [23.394216, 63.911078], [23.415782, 63.924628], [23.384776, 63.9383], [23.37086, 63.946519], [23.37086, 63.956], [23.378754, 63.96894], [23.37672, 63.978746], [23.37086, 63.987535], [23.367442, 63.99726], [23.369884, 64.003241], [23.381602, 64.048163], [23.396495, 64.056138], [23.415212, 64.05622], [23.449962, 64.048163], [23.456554, 64.045478], [23.46754, 64.037909], [23.477306, 64.035102], [23.487559, 64.035956], [23.496755, 64.039455], [23.506602, 64.041653], [23.538341, 64.031887], [23.604503, 64.027655], [23.619802, 64.038031], [23.605968, 64.061103], [23.581716, 64.084662], [23.566091, 64.096584], [23.573578, 64.107245], [23.58546, 64.108547], [23.614431, 64.10342], [23.622081, 64.107123], [23.644786, 64.124416], [23.656016, 64.130072], [23.66033, 64.143297], [23.679535, 64.155341], [23.704275, 64.166693], [23.706472, 64.168077], [23.723643, 64.178534], [23.716807, 64.178534], [23.719412, 64.194281], [23.724376, 64.20893], [23.735688, 64.216213], [23.75766, 64.20954], [23.772716, 64.20893], [23.819102, 64.220649], [23.833507, 64.226874], [23.841645, 64.236151], [23.861095, 64.26789], [23.881602, 64.266099], [23.92449, 64.254706], [23.94337, 64.246772], [23.934581, 64.25849], [23.927582, 64.271186], [23.925141, 64.285468], [23.929047, 64.301418], [23.940929, 64.316555], [23.971202, 64.33515], [23.984223, 64.349799], [23.996104, 64.379869], [24.004405, 64.389106], [24.025401, 64.39765], [24.068614, 64.405585], [24.084727, 64.41474], [24.080577, 64.431708], [24.093272, 64.430406], [24.104828, 64.43122], [24.115489, 64.434801], [24.125011, 64.442328], [24.129161, 64.440823], [24.169281, 64.452216], [24.20574, 64.452216], [24.210785, 64.456], [24.21046, 64.47309], [24.21225, 64.481024], [24.217784, 64.487006], [24.229503, 64.489163], [24.257579, 64.485989], [24.268891, 64.490058], [24.275157, 64.497626], [24.280935, 64.510159], [24.285981, 64.51496], [24.306326, 64.52204], [24.325694, 64.524604], [24.344086, 64.530748], [24.361095, 64.548407], [24.360118, 64.555365], [24.355642, 64.564521], [24.354991, 64.572414], [24.373871, 64.579535], [24.374522, 64.587795], [24.37086, 64.59516], [24.367931, 64.596869], [24.375499, 64.617255], [24.38266, 64.628648], [24.408865, 64.651435], [24.414317, 64.659084], [24.418305, 64.668036], [24.422862, 64.675605], [24.429373, 64.678778], [24.441173, 64.681098], [24.470958, 64.699286], [24.511567, 64.710028], [24.530284, 64.717841], [24.546072, 64.733385], [24.536469, 64.744127], [24.5324, 64.747707], [24.5324, 64.753852], [24.543712, 64.764716], [24.55714, 64.770901], [24.587657, 64.781195], [24.550059, 64.796576], [24.538422, 64.805325], [24.556651, 64.809149], [24.57838, 64.807929], [24.658539, 64.788642], [24.668305, 64.78913], [24.676524, 64.794867], [24.676768, 64.799547], [24.665701, 64.807074], [24.662771, 64.812567], [24.670665, 64.829739], [24.689626, 64.834703], [24.7317, 64.835842], [24.736339, 64.855373], [24.773123, 64.86579], [24.896983, 64.873114], [25.073741, 64.916083], [25.094737, 64.918362], [25.112315, 64.914455], [25.121755, 64.905097], [25.129731, 64.893785], [25.14324, 64.884223], [25.151052, 64.883857], [25.158458, 64.886705], [25.166677, 64.888414], [25.177257, 64.884223], [25.179861, 64.87995], [25.18393, 64.86579], [25.187266, 64.860663], [25.202485, 64.849189], [25.217621, 64.841457], [25.235606, 64.837104], [25.259288, 64.835842], [25.259288, 64.829576], [25.249766, 64.829535], [25.241547, 64.828111], [25.225108, 64.82274], [25.259532, 64.816474], [25.354828, 64.829576], [25.362153, 64.833075], [25.350434, 64.851711], [25.351817, 64.860663], [25.36671, 64.89175], [25.3685, 64.898505], [25.359548, 64.911119], [25.34783, 64.911566], [25.334809, 64.906928], [25.3213, 64.904731], [25.306326, 64.908881], [25.279796, 64.922309], [25.241222, 64.929023], [25.223481, 64.93891], [25.190929, 64.966783], [25.196056, 64.969794], [25.206228, 64.977484], [25.211436, 64.980414], [25.203949, 64.98664], [25.220958, 64.990546], [25.321625, 64.983588], [25.340099, 64.97724], [25.375987, 64.959947], [25.399099, 64.95189], [25.42156, 64.948879], [25.438162, 64.95307], [25.443533, 64.966783], [25.43629, 64.980292], [25.424327, 64.989081], [25.416759, 64.998603], [25.423106, 65.014594], [25.416189, 65.019924], [25.413097, 65.024482], [25.413259, 65.029242], [25.41627, 65.035061], [25.392589, 65.047675], [25.38087, 65.055976], [25.375987, 65.065741], [25.37436, 65.076361], [25.369965, 65.084418], [25.363536, 65.090766], [25.355479, 65.096503], [25.324067, 65.109809], [25.211436, 65.123765], [25.218272, 65.145738], [25.225841, 65.156643], [25.259288, 65.172187], [25.272634, 65.180406], [25.282481, 65.191392], [25.285655, 65.204779], [25.279796, 65.219957], [25.292166, 65.219062], [25.304454, 65.219672], [25.316254, 65.222113], [25.327485, 65.226874], [25.320649, 65.22842], [25.307872, 65.232733], [25.300141, 65.233629], [25.308849, 65.249091], [25.313813, 65.254136], [25.297211, 65.259508], [25.289073, 65.261135], [25.279796, 65.260972], [25.2942, 65.271145], [25.307872, 65.302151], [25.3213, 65.31623], [25.317393, 65.319322], [25.310802, 65.32685], [25.306977, 65.32982], [25.316254, 65.331366], [25.322439, 65.333564], [25.334972, 65.343492], [25.266124, 65.377631], [25.28004, 65.381171], [25.306895, 65.381578], [25.3213, 65.385077], [25.330089, 65.39053], [25.34669, 65.405748], [25.355479, 65.411811], [25.344493, 65.428534], [25.358653, 65.465522], [25.351817, 65.484117], [25.323578, 65.506781], [25.293712, 65.525092], [25.219005, 65.557278], [25.197113, 65.562649], [25.170095, 65.562242], [25.146821, 65.559027], [25.124848, 65.561103], [25.101573, 65.57689], [25.096365, 65.585028], [25.093185, 65.591918], [25.123459, 65.606383], [25.192499, 65.647776], [25.388249, 65.736143], [25.505968, 65.753274], [25.762283, 65.746375], [25.875765, 65.759397], [26.128359, 65.813942], [26.162982, 65.809291], [26.158331, 65.768751], [26.158435, 65.741801], [26.164222, 65.725808], [26.187994, 65.718935], [26.841804, 65.705215], [27.10215, 65.750845], [27.169432, 65.784047], [27.400323, 65.941608], [27.430708, 65.951737], [27.535508, 65.926131], [27.554318, 65.924917], [27.573025, 65.93055], [27.567754, 65.934012], [27.599897, 65.951117], [27.637724, 65.953649], [27.682993, 65.924607], [27.720407, 65.878589], [27.742834, 65.858099], [27.769706, 65.842674], [27.765468, 65.831589], [27.764952, 65.829315], [28.193969, 65.805389], [28.238928, 65.808025], [28.331222, 65.824975], [28.422999, 65.82885], [28.470025, 65.838617], [28.505372, 65.859133], [28.51457, 65.874636], [28.49669, 65.901507], [28.415248, 65.949101], [28.394164, 65.957473], [28.376284, 65.969617], [28.382278, 65.973079], [28.396128, 65.975353], [28.395921, 65.979229], [28.393957, 65.98282], [28.389203, 65.996799], [28.387549, 66.000468], [28.38941, 66.003258], [28.410287, 66.003413], [28.414318, 66.003026], [28.418142, 66.000623], [28.417625, 65.999176], [28.413904, 65.991476], [28.413594, 65.990107], [28.436952, 65.987135], [28.460103, 65.988014], [28.54754, 65.999124], [28.675387, 65.992251], [28.721999, 65.998246], [28.740499, 66.004705], [28.756416, 66.02057], [28.756519, 66.042791], [28.741429, 66.04491], [28.726133, 66.045426], [28.695127, 66.052506], [28.633529, 66.0739], [28.635906, 66.075554], [28.644484, 66.083253], [28.638903, 66.088524], [28.631875, 66.092865], [28.62154, 66.10196], [28.608518, 66.118083], [28.619576, 66.124595], [28.667946, 66.126636], [28.698021, 66.131959], [28.711044, 66.136997], [28.719312, 66.151027], [28.720449, 66.158133], [28.733471, 66.167796], [28.762617, 66.181206], [28.765407, 66.189035], [28.742566, 66.19968], [28.737192, 66.201541], [28.736572, 66.206502], [28.741016, 66.210533], [28.761377, 66.233193], [28.764064, 66.238903], [28.761893, 66.239936], [28.756622, 66.24128], [28.748044, 66.24252], [28.745564, 66.24451], [28.748974, 66.251951], [28.735642, 66.257816], [28.720862, 66.258902], [28.696988, 66.257196], [28.659884, 66.250608], [28.646241, 66.25022], [28.646862, 66.25177], [28.650066, 66.258566], [28.650582, 66.260219], [28.610895, 66.270115], [28.573688, 66.286083], [28.54816, 66.31063], [28.543612, 66.344685], [28.553947, 66.367836], [28.570897, 66.386077], [28.590948, 66.39972], [28.610791, 66.409125], [28.623917, 66.410908], [28.657507, 66.41083], [28.669393, 66.415068], [28.67611, 66.427522], [28.680451, 66.452585], [28.684999, 66.467494], [28.68934, 66.472997], [28.734505, 66.484366], [29.169104, 66.419202], [29.220263, 66.417548], [29.306253, 66.429847], [29.545825, 66.431966], [29.546194, 66.431969], [29.551663, 66.412795], [29.569699, 66.378172], [29.593211, 66.345926], [29.650882, 66.287893], [29.792372, 66.180871], [29.875365, 66.133587], [29.900169, 66.108059], [29.92053, 66.06863], [29.948849, 65.99127], [29.95846, 65.973881], [29.997941, 65.931532], [30.009723, 65.915693], [30.039282, 65.865386], [30.075146, 65.822805], [30.083517, 65.804615], [30.111733, 65.712011], [30.11628, 65.687206], [30.113903, 65.665502], [30.098503, 65.656381], [30.064707, 65.661678], [30.003005, 65.678137], [29.76426, 65.648087], [29.702869, 65.62938], [29.732324, 65.60871], [29.806738, 65.584861], [29.838571, 65.564888], [29.825755, 65.551969], [29.74545, 65.511403], [29.731533, 65.496921], [29.72633, 65.491507], [29.72633, 65.491249], [29.718165, 65.454171], [29.730567, 65.365365], [29.720129, 65.329088], [29.615122, 65.269402], [29.580085, 65.235399], [29.626698, 65.215219], [29.766844, 65.217364], [29.833197, 65.205013], [29.839294, 65.166902], [29.829683, 65.158608], [29.818004, 65.1522], [29.809115, 65.145224], [29.808185, 65.135302], [29.820329, 65.126517], [29.838054, 65.124812], [29.850198, 65.121504], [29.845599, 65.108017], [29.820484, 65.093651], [29.667832, 65.077941], [29.627318, 65.062231], [29.598379, 65.034378], [29.588147, 64.991435], [29.633622, 64.90715], [29.698321, 64.839144], [29.78028, 64.795581], [29.877845, 64.784832], [30.062537, 64.78416], [30.101914, 64.775479], [30.118864, 64.767934], [30.120414, 64.761578], [30.114937, 64.754343], [30.111113, 64.744421], [30.109045, 64.731657], [30.106823, 64.725611], [30.109149, 64.720082], [30.120518, 64.70892], [30.13137, 64.70122], [30.17054, 64.681686], [30.1878, 64.662359], [30.180824, 64.642774], [30.160412, 64.626082], [30.136434, 64.615385], [29.965798, 64.578643], [29.95877, 64.574871], [29.954843, 64.56898], [29.958874, 64.565983], [29.965178, 64.564432], [29.968486, 64.56283], [29.970036, 64.545415], [29.973602, 64.536217], [29.980785, 64.52676], [29.978924, 64.524021], [29.978201, 64.521127], [29.978976, 64.518337], [29.980785, 64.515546], [29.991533, 64.513221], [29.993394, 64.51074], [29.9905, 64.504178], [30.035768, 64.491465], [30.070391, 64.47188], [30.062795, 64.448419], [30.041039, 64.422942], [30.032461, 64.396949], [30.052977, 64.378087], [30.093129, 64.361241], [30.164443, 64.341914], [30.321126, 64.317677], [30.370477, 64.300831], [30.39926, 64.283106], [30.421585, 64.264657], [30.445976, 64.250756], [30.50344, 64.24378], [30.536203, 64.234685], [30.558475, 64.219699], [30.550259, 64.198873], [30.532482, 64.179184], [30.532792, 64.162545], [30.544781, 64.14637], [30.562144, 64.127405], [30.586432, 64.084668], [30.58049, 64.051079], [30.552326, 64.021726], [30.509331, 63.991496], [30.509331, 63.991392], [30.328567, 63.895998], [30.265573, 63.830679], [30.201546, 63.792645], [30.051271, 63.763758], [29.998433, 63.7471], [29.997787, 63.747298], [29.982491, 63.751975], [29.930091, 63.748047], [29.783226, 63.715181], [29.766587, 63.714147], [29.758732, 63.715594], [29.743125, 63.724793], [29.735891, 63.732183], [29.686591, 63.858015], [29.671605, 63.869125], [29.656206, 63.873363], [28.934699, 63.841995], [28.572034, 63.883362], [28.518601, 63.882018], [28.465477, 63.871347], [28.464444, 63.867497], [28.46248, 63.852847], [28.455762, 63.841917], [28.441189, 63.824942], [28.358404, 63.753422], [28.389306, 63.740761], [28.445634, 63.705362], [28.469611, 63.697198], [28.549813, 63.692857], [28.579476, 63.687327], [28.595599, 63.682056], [28.607381, 63.673478], [28.603867, 63.671049], [28.58795, 63.656683], [28.606451, 63.62206], [28.615029, 63.595137], [28.633839, 63.572528], [28.659264, 63.560772], [28.67518, 63.549041], [28.663398, 63.547], [28.64097, 63.545372], [28.62092, 63.539791], [28.611825, 63.531988], [28.616993, 63.513695], [28.626398, 63.50354], [28.638283, 63.481448], [28.647688, 63.458323], [28.661228, 63.436903], [28.681692, 63.420548], [28.708563, 63.406776], [28.752592, 63.390136], [28.761377, 63.376597], [28.757449, 63.367089], [28.755589, 63.358717], [28.753212, 63.335333], [28.748044, 63.322957], [28.736055, 63.311149], [28.703086, 63.289987], [28.699572, 63.283476], [28.707116, 63.278386], [28.710217, 63.276732], [28.705256, 63.271074], [28.652959, 63.25154], [28.647585, 63.246631], [28.660194, 63.242858], [28.657197, 63.236192], [28.618233, 63.208804], [28.642417, 63.196815], [28.67239, 63.186893], [28.719725, 63.164465], [28.876925, 63.060234], [29.051901, 62.999049], [29.057276, 62.981634], [29.045184, 62.975485], [28.988856, 62.960188], [28.97604, 62.954814], [28.969323, 62.945616], [28.973973, 62.9436], [28.98958, 62.934919], [28.994437, 62.932851], [28.990407, 62.927787], [28.980898, 62.925823], [28.963225, 62.926469], [28.946895, 62.931715], [28.939454, 62.935539], [28.933459, 62.927736], [28.940074, 62.917659], [28.9563, 62.907943], [28.987306, 62.897867], [29.010457, 62.876576], [29.039189, 62.86252], [29.088282, 62.849962], [29.08146, 62.837534], [28.956093, 62.788519], [28.924054, 62.781956], [28.879509, 62.794591], [28.838685, 62.815649], [28.796, 62.828258], [28.769852, 62.825571], [28.744427, 62.793739], [28.726547, 62.781129], [28.673113, 62.766608], [28.646448, 62.744336], [28.702052, 62.692298], [28.686859, 62.685476], [28.679831, 62.681368], [28.667636, 62.670258], [28.65823, 62.653334], [28.648825, 62.639329], [28.635183, 62.624912], [28.619783, 62.613026], [28.612755, 62.609254], [28.608828, 62.606463], [28.630635, 62.60543], [28.615959, 62.596386], [28.596425, 62.590934], [28.495036, 62.587059], [28.478913, 62.581012], [28.535447, 62.57122], [28.534517, 62.558817], [28.520358, 62.55551], [28.511056, 62.560678], [28.431578, 62.568378], [28.412664, 62.576853], [28.408116, 62.571168], [28.410907, 62.568171], [28.413491, 62.567267], [28.414938, 62.565768], [28.403156, 62.529207], [28.392614, 62.515538], [28.381968, 62.51019], [28.371426, 62.499596], [28.389306, 62.485489], [28.395301, 62.473965], [28.386929, 62.461382], [28.365638, 62.458307], [28.292361, 62.470993], [28.282853, 62.465076], [28.286884, 62.459702], [28.302283, 62.453759], [28.304867, 62.449186], [28.303213, 62.443579], [28.295462, 62.44115], [28.288124, 62.441615], [28.274275, 62.440013], [28.261252, 62.434226], [28.254844, 62.429601], [28.257635, 62.422728], [28.266006, 62.420635], [28.278409, 62.41464], [28.28616, 62.404899], [28.288227, 62.39769], [28.295255, 62.389138], [28.323264, 62.380301], [28.328845, 62.379087], [28.324504, 62.365703], [28.310345, 62.357899], [28.275618, 62.353765], [28.239341, 62.355884], [28.210402, 62.354075], [28.090306, 62.317075], [28.07532, 62.298187], [28.068396, 62.286121], [28.035736, 62.280643], [27.973931, 62.28209], [27.959462, 62.277594], [27.981373, 62.276845], [27.977652, 62.266484], [27.967213, 62.260128], [27.947059, 62.26328], [27.924528, 62.275372], [27.899724, 62.285863], [27.883084, 62.281418], [27.847737, 62.280411], [27.838229, 62.27899], [27.763815, 62.31878], [27.743144, 62.339864], [27.763815, 62.363636], [27.734566, 62.37025], [27.688781, 62.376012], [27.689091, 62.377485], [27.691571, 62.382963], [27.692501, 62.386296], [27.66935, 62.394435], [27.541916, 62.452958], [27.506776, 62.472156], [27.489826, 62.47722], [27.460371, 62.490062], [27.441561, 62.492672], [27.439287, 62.49448], [27.417996, 62.505694], [27.386163, 62.514066], [27.380892, 62.517295], [27.347509, 62.521249], [27.349576, 62.518536], [27.357431, 62.505462], [27.351333, 62.499364], [27.343995, 62.497322], [27.305135, 62.480631], [27.27909, 62.475515], [27.254595, 62.474197], [27.202505, 62.464146], [27.184832, 62.464327], [27.179148, 62.470037], [27.159511, 62.48231], [27.141734, 62.486315], [27.122614, 62.488382], [27.06887, 62.474559], [27.032593, 62.472595], [26.984844, 62.481303], [26.970581, 62.482026], [26.959419, 62.479081], [26.96035, 62.463733], [26.966964, 62.454095], [26.951358, 62.453863], [26.880458, 62.474482], [26.861234, 62.473758], [26.841597, 62.46611], [26.830022, 62.458875], [26.821857, 62.449522], [26.824751, 62.448488], [26.834362, 62.446266], [26.819893, 62.437274], [26.80129, 62.432262], [26.770284, 62.432469], [26.711786, 62.451279], [26.705275, 62.431642], [26.69804, 62.417999], [26.693389, 62.411385], [26.687291, 62.404615], [26.693596, 62.393427], [26.76646, 62.362085], [26.763462, 62.354334], [26.7153, 62.348236], [26.685328, 62.340304], [26.673132, 62.333043], [26.666104, 62.321364], [26.668791, 62.320331], [26.676233, 62.31922], [26.679126, 62.318393], [26.676336, 62.311339], [26.669825, 62.306481], [26.655459, 62.300642], [26.626933, 62.295836], [26.622592, 62.284545], [26.627037, 62.279558], [26.633031, 62.267827], [26.635718, 62.253927], [26.635822, 62.24602], [26.64657, 62.235452], [26.656802, 62.230465], [26.647604, 62.226176], [26.622386, 62.227261], [26.595927, 62.235581], [26.568436, 62.249922], [26.557377, 62.253901], [26.533089, 62.256743], [26.520273, 62.255761], [26.499499, 62.250955], [26.483583, 62.239819], [26.48813, 62.238604], [26.493091, 62.237855], [26.496088, 62.236822], [26.493711, 62.230724], [26.487924, 62.226383], [26.475108, 62.219148], [26.460845, 62.213981], [26.453094, 62.212172], [26.424672, 62.223747], [26.39997, 62.223386], [26.334031, 62.197341], [26.244838, 62.136673], [26.247525, 62.100654], [26.390255, 61.990299], [26.386638, 61.965184], [26.3608, 61.957485], [26.347467, 61.939527], [26.345813, 61.914619], [26.334135, 61.883846], [26.340129, 61.884543], [26.370101, 61.884001], [26.37899, 61.875345], [26.37899, 61.865578], [26.372995, 61.828681], [26.377956, 61.812455], [26.386431, 61.804548], [26.474384, 61.758375], [26.487717, 61.747678], [26.5211, 61.715458], [26.529161, 61.70166], [26.529058, 61.686364], [26.515002, 61.63846], [26.496605, 61.630993], [26.394699, 61.656211], [26.372789, 61.651948], [26.360696, 61.636393], [26.357802, 61.629107], [26.358319, 61.624146], [26.354598, 61.617531], [26.330517, 61.609418], [26.319458, 61.607635], [26.311707, 61.616704], [26.306953, 61.624146], [26.307883, 61.632388], [26.31212, 61.63846], [26.303956, 61.649932], [26.289383, 61.652077], [26.252589, 61.649674], [26.164222, 61.631329], [26.155541, 61.626626], [26.146136, 61.626316], [26.119057, 61.642904], [26.077819, 61.651534], [26.067381, 61.656599], [26.057562, 61.665642], [26.057252, 61.668226], [26.062006, 61.670138], [26.067381, 61.677062], [26.071722, 61.686829], [26.079887, 61.700188], [26.081644, 61.705019], [26.077923, 61.70967], [26.070171, 61.713546], [26.065417, 61.719179], [26.052395, 61.727499], [26.030277, 61.718171], [26.009297, 61.720677], [25.999581, 61.727318], [25.986559, 61.748738], [25.978394, 61.758091], [25.964441, 61.766618], [25.924857, 61.783723], [25.915866, 61.778762], [25.912145, 61.77039], [25.901086, 61.761011], [25.885066, 61.758789], [25.874938, 61.76021], [25.870597, 61.769202], [25.875558, 61.77623], [25.877935, 61.787133], [25.870907, 61.79504], [25.862019, 61.798037], [25.851167, 61.786203], [25.845069, 61.773801], [25.81644, 61.735043], [25.779543, 61.701428], [25.76404, 61.693031], [25.748434, 61.693289], [25.757322, 61.702384], [25.739339, 61.704503], [25.690866, 61.705898], [25.664305, 61.703728], [25.633505, 61.695873], [25.597642, 61.67913], [25.582242, 61.675409], [25.530876, 61.681455], [25.5162, 61.678044], [25.502454, 61.653679], [25.477029, 61.564356], [25.46101, 61.527046], [25.44375, 61.503533], [25.42649, 61.490356], [25.403339, 61.484051], [24.96688, 61.451133], [24.958198, 61.455939], [24.942178, 61.48679], [24.936184, 61.517305], [24.921094, 61.539241], [24.899804, 61.544822], [24.896703, 61.549938], [24.912102, 61.561772], [24.906625, 61.580221], [24.875309, 61.583425], [24.851641, 61.572418], [24.829007, 61.567922], [24.821772, 61.57911], [24.802859, 61.597377], [24.789939, 61.615025], [24.797588, 61.637272], [24.82973, 61.653136], [24.870555, 61.648847], [24.936287, 61.63306], [24.957888, 61.637763], [24.957888, 61.64399], [24.958921, 61.647865], [24.963159, 61.651379], [24.968016, 61.656754], [24.965949, 61.667089], [24.942282, 61.682747], [24.927709, 61.695847], [24.922748, 61.709412], [24.931016, 61.72724], [24.945279, 61.735018], [24.960575, 61.732925], [24.967396, 61.728041], [24.984966, 61.724372], [24.995715, 61.731555], [24.993958, 61.746774], [24.9706, 61.771811], [24.965743, 61.780932], [24.971427, 61.782922], [24.980729, 61.787237], [24.959335, 61.791577], [24.937837, 61.801448], [24.930293, 61.829456], [24.940008, 61.869195], [24.946726, 61.917668], [24.937217, 61.951206], [24.895773, 62.021072], [24.887815, 62.038849], [24.868798, 62.055747], [24.773506, 62.034353], [24.742914, 62.03394], [24.685243, 62.049469], [24.668603, 62.058512], [24.66726, 62.065902], [24.666123, 62.081637], [24.667466, 62.099104], [24.66912, 62.109026], [24.651757, 62.120963], [24.632946, 62.126622], [24.608555, 62.143029], [24.589021, 62.162821], [24.56494, 62.180856], [24.530317, 62.192948], [24.499621, 62.192638], [24.448462, 62.180339], [24.431305, 62.174086], [24.443604, 62.159514], [24.415699, 62.154656], [24.376425, 62.158764], [24.364022, 62.166025], [24.332603, 62.174965], [24.293019, 62.206849], [24.281237, 62.228708], [24.245787, 62.254753], [24.164138, 62.263357], [24.119283, 62.272556], [24.077528, 62.285837], [24.05386, 62.295914], [24.035257, 62.309427], [24.023475, 62.330692], [24.020271, 62.363997], [23.949164, 62.39043], [23.922085, 62.406992], [23.903895, 62.439238], [23.905136, 62.448798], [23.90958, 62.458979], [23.910096, 62.469417], [23.899451, 62.479856], [23.884568, 62.48244], [23.870616, 62.476213], [23.855836, 62.466627], [23.847361, 62.462183], [23.839093, 62.462906], [23.841884, 62.486522], [23.834029, 62.488021], [23.825554, 62.48554], [23.817286, 62.481561], [23.815735, 62.475412], [23.817389, 62.469676], [23.801783, 62.462648], [23.784213, 62.459599], [23.754344, 62.450452], [23.69812, 62.426732], [23.657709, 62.417017], [23.529138, 62.413038], [23.505677, 62.409007], [23.508364, 62.40384], [23.511361, 62.393194], [23.514772, 62.374953], [23.505057, 62.373454], [23.493171, 62.376658], [23.420721, 62.379759], [23.401187, 62.386942], [23.370078, 62.410403], [23.357055, 62.41725], [23.316128, 62.419394], [23.288636, 62.406837], [23.244194, 62.361413], [23.166783, 62.318419], [23.060743, 62.289997], [22.944987, 62.274726], [22.838327, 62.271186], [22.704485, 62.284106], [22.618909, 62.304053], [22.586973, 62.301831], [22.57178, 62.27067], [22.558964, 62.251136], [22.545632, 62.236305], [22.507805, 62.211268], [22.402695, 62.159798], [22.384195, 62.146801], [22.338823, 62.124038], [22.229476, 62.10192], [22.177696, 62.083317], [22.063698, 62.010427], [22.018222, 61.993167], [21.932956, 61.985312], [21.646565, 62.020504], [21.52957, 62.025103], [21.475516, 62.022313], [21.425804, 62.009445], [21.40441, 61.995803], [21.385909, 61.978414], [21.365032, 61.962523], [21.33723, 61.95317], [21.316694, 61.939187], [21.312511, 61.939846], [21.290212, 61.94892], [21.277517, 61.951483], [21.294932, 61.97134], [21.280528, 61.97956], [21.236583, 61.985012], [21.276215, 62.050198], [21.284353, 62.074937], [21.289073, 62.121568], [21.296397, 62.130439], [21.312266, 62.109117], [21.329112, 62.138129]]], [[[24.804698, 64.967231], [24.792817, 64.967719], [24.780121, 64.966783], [24.771251, 64.963853], [24.761078, 64.956448], [24.752126, 64.953111], [24.734711, 64.950914], [24.713145, 64.951728], [24.700694, 64.958157], [24.710623, 64.972968], [24.706065, 64.976508], [24.69752, 64.98664], [24.68393, 64.996568], [24.658376, 64.971991], [24.631602, 64.967841], [24.597367, 64.992518], [24.579009, 65.009536], [24.5699, 65.022915], [24.562755, 65.037177], [24.585785, 65.049384], [24.65419, 65.080221], [24.740888, 65.083272], [24.834506, 65.0948], [24.883096, 65.086904], [24.896983, 65.072415], [24.873013, 65.065834], [24.882842, 65.059139], [24.906522, 65.060482], [24.936267, 65.059142], [24.993437, 65.055104], [25.033586, 65.057512], [25.061818, 65.04348], [25.028009, 65.034619], [24.962218, 65.034779], [24.877376, 65.045255], [24.819657, 65.04328], [24.801552, 65.024266], [24.722367, 65.003467], [24.750775, 64.975966], [24.812388, 64.979194], [24.827322, 64.972968], [24.816091, 64.968085], [24.804698, 64.967231]]], [[[22.793224, 63.74022], [22.782074, 63.744818], [22.777192, 63.741767], [22.780447, 63.73432], [22.776052, 63.728176], [22.764496, 63.727037], [22.756602, 63.722724], [22.739594, 63.720526], [22.719249, 63.72663], [22.702891, 63.736396], [22.692231, 63.751125], [22.687022, 63.755113], [22.683116, 63.758612], [22.681488, 63.763414], [22.702973, 63.769761], [22.711436, 63.773383], [22.719574, 63.778876], [22.737315, 63.78559], [22.763845, 63.791449], [22.781749, 63.790432], [22.789806, 63.783759], [22.795665, 63.777655], [22.800304, 63.776068], [22.804454, 63.778225], [22.807953, 63.779527], [22.823416, 63.779242], [22.828868, 63.776313], [22.825531, 63.772854], [22.821137, 63.77147], [22.820079, 63.768866], [22.819102, 63.763251], [22.815196, 63.756496], [22.812022, 63.753485], [22.809418, 63.747138], [22.802094, 63.738186], [22.793224, 63.74022]]], [[[22.082774, 63.304185], [22.072765, 63.312812], [22.069184, 63.318549], [22.078624, 63.321601], [22.092621, 63.323065], [22.110199, 63.328925], [22.123546, 63.326361], [22.132091, 63.325914], [22.139985, 63.322211], [22.14796, 63.315579], [22.158214, 63.311021], [22.163585, 63.311713], [22.164399, 63.316718], [22.169688, 63.319159], [22.178559, 63.317857], [22.18629, 63.314765], [22.190603, 63.310533], [22.195649, 63.30976], [22.202647, 63.312812], [22.208018, 63.317939], [22.210704, 63.325385], [22.215343, 63.332953], [22.22169, 63.338568], [22.226329, 63.340644], [22.231293, 63.338813], [22.235688, 63.331244], [22.237071, 63.325507], [22.238943, 63.313788], [22.246267, 63.307074], [22.244477, 63.302476], [22.234386, 63.293158], [22.222667, 63.279975], [22.208669, 63.273261], [22.187266, 63.273505], [22.156505, 63.28856], [22.114431, 63.284166], [22.114106, 63.282213], [22.139008, 63.27912], [22.158539, 63.274075], [22.163097, 63.263332], [22.157237, 63.256537], [22.148692, 63.255805], [22.144054, 63.254136], [22.144216, 63.25141], [22.136485, 63.250556], [22.08546, 63.261786], [22.079356, 63.266303], [22.083181, 63.270453], [22.078461, 63.274482], [22.067068, 63.278998], [22.068696, 63.283881], [22.075694, 63.2862], [22.083344, 63.288031], [22.088878, 63.294623], [22.082774, 63.304185]]], [[[21.986583, 63.377875], [21.99643, 63.384711], [22.014659, 63.385403], [22.030284, 63.383368], [22.045909, 63.387519], [22.059825, 63.388373], [22.064952, 63.38703], [22.069835, 63.385199], [22.079438, 63.38349], [22.089122, 63.383938], [22.096039, 63.38349], [22.096039, 63.380316], [22.088878, 63.377631], [22.079438, 63.376858], [22.080251, 63.373603], [22.085134, 63.367011], [22.076182, 63.360053], [22.059337, 63.357856], [22.026866, 63.366156], [22.012706, 63.363715], [22.001964, 63.354193], [21.997081, 63.348456], [21.984141, 63.341132], [21.966075, 63.333157], [21.957205, 63.33161], [21.948985, 63.333808], [21.947276, 63.337958], [21.948985, 63.340033], [21.951345, 63.343655], [21.956228, 63.349311], [21.961192, 63.353827], [21.966075, 63.359809], [21.97169, 63.365139], [21.978201, 63.368883], [21.983653, 63.373277], [21.986583, 63.377875]]], [[[21.995616, 63.284735], [21.99464, 63.280097], [21.989919, 63.277574], [21.984386, 63.277167], [21.978282, 63.280015], [21.974376, 63.286811], [21.977712, 63.298651], [21.989024, 63.31037], [22.002289, 63.313422], [22.021821, 63.307196], [22.029959, 63.308417], [22.026215, 63.313422], [22.011974, 63.320299], [22.007579, 63.324897], [22.012706, 63.326117], [22.018565, 63.326239], [22.022227, 63.323432], [22.026215, 63.322211], [22.033458, 63.322089], [22.060802, 63.302151], [22.058116, 63.294867], [22.046641, 63.282172], [22.029796, 63.277411], [22.013845, 63.277737], [22.007091, 63.281073], [22.008149, 63.288235], [22.004568, 63.291164], [21.997813, 63.289008], [21.995616, 63.284735]]], [[[21.291189, 63.171129], [21.298188, 63.170233], [21.318533, 63.164944], [21.301524, 63.156155], [21.283458, 63.151923], [21.243419, 63.150702], [21.23113, 63.158393], [21.219249, 63.169623], [21.207367, 63.183336], [21.188813, 63.191596], [21.175792, 63.1883], [21.161632, 63.181952], [21.147227, 63.182196], [21.133556, 63.198432], [21.154552, 63.198432], [21.154552, 63.205878], [21.141612, 63.210679], [21.113129, 63.227484], [21.102794, 63.235989], [21.096528, 63.24551], [21.081798, 63.277289], [21.078949, 63.287787], [21.120291, 63.271959], [21.159434, 63.273749], [21.199474, 63.280707], [21.243419, 63.280992], [21.243419, 63.274807], [21.227224, 63.271633], [21.21518, 63.263861], [21.195079, 63.239407], [21.197927, 63.231594], [21.199474, 63.230292], [21.198904, 63.23017], [21.195079, 63.225775], [21.209483, 63.221381], [21.264415, 63.21955], [21.272227, 63.217108], [21.27947, 63.21308], [21.286794, 63.211371], [21.294932, 63.215806], [21.297862, 63.223049], [21.294607, 63.228909], [21.290375, 63.234198], [21.291189, 63.239407], [21.315766, 63.251939], [21.355968, 63.260728], [21.396332, 63.260688], [21.42213, 63.246812], [21.415212, 63.233466], [21.414806, 63.220445], [21.419607, 63.208686], [21.428396, 63.198432], [21.404552, 63.192532], [21.377452, 63.190131], [21.363943, 63.193671], [21.380544, 63.205878], [21.362804, 63.206244], [21.291189, 63.177924], [21.291189, 63.171129]]], [[[21.345958, 63.363756], [21.374278, 63.34927], [21.373871, 63.333401], [21.358246, 63.31566], [21.318533, 63.287787], [21.315278, 63.304023], [21.305919, 63.305894], [21.292654, 63.302191], [21.277517, 63.301459], [21.229177, 63.328803], [21.23406, 63.332831], [21.23878, 63.334377], [21.250255, 63.335028], [21.276622, 63.340766], [21.311046, 63.355618], [21.345958, 63.363756]]], [[[21.159353, 62.975409], [21.15268, 62.979682], [21.140391, 62.984565], [21.131847, 62.992825], [21.130382, 63.0008], [21.136241, 63.006578], [21.145193, 63.010159], [21.151622, 63.010321], [21.155121, 63.006822], [21.159841, 63.00434], [21.184744, 62.999416], [21.195649, 62.994371], [21.207367, 62.986151], [21.215994, 62.975165], [21.221202, 62.961371], [21.221934, 62.951361], [21.216563, 62.947089], [21.208507, 62.946234], [21.191417, 62.953925], [21.182872, 62.9501], [21.168142, 62.94599], [21.146658, 62.953274], [21.135997, 62.962958], [21.136485, 62.967231], [21.141856, 62.968248], [21.148204, 62.965522], [21.150564, 62.963568], [21.154796, 62.967597], [21.159353, 62.975409]]]]}, "properties": {"name": "Остроботния, Кайнуу, Центральная Финляндия, Северное Саво (до реки Кеми)", "source": "Natural Earth admin-1; OpenHistoricalMap (CC0) relation 2809714; OpenStreetMap (ODbL) relations 1014347, 1203043, 2777169; нарезка 22.09.2026"}}]}