{"type": "FeatureCollection", "features": [{"type": "Feature", "geometry": {"type": "MultiPolygon", "coordinates": [[[[24.29674, 63.034964], [24.300254, 63.026644], [24.300047, 63.017756], [24.300977, 63.005664], [24.304698, 62.994863], [24.312553, 62.981117], [24.325368, 62.971015], [24.339321, 62.965356], [24.347382, 62.95161], [24.346556, 62.934195], [24.364229, 62.917865], [24.38552, 62.917323], [24.419936, 62.911096], [24.443604, 62.895799], [24.450942, 62.883087], [24.441123, 62.867972], [24.379939, 62.864354], [24.365469, 62.861848], [24.365159, 62.843477], [24.427171, 62.795754], [24.504479, 62.712503], [24.536518, 62.687311], [24.558016, 62.675735], [24.571141, 62.660568], [24.520292, 62.63535], [24.511713, 62.628219], [24.515021, 62.618555], [24.54613, 62.617754], [24.574449, 62.61977], [24.58251, 62.617212], [24.581683, 62.611579], [24.577859, 62.608427], [24.555638, 62.609357], [24.555018, 62.606101], [24.557292, 62.602691], [24.559049, 62.599228], [24.563287, 62.588428], [24.565147, 62.584811], [24.5637, 62.580883], [24.542099, 62.578248], [24.537345, 62.576052], [24.537035, 62.574217], [24.536828, 62.567525], [24.539102, 62.563701], [24.542719, 62.563003], [24.542306, 62.559489], [24.539929, 62.559593], [24.5298, 62.561014], [24.527423, 62.560936], [24.527216, 62.555614], [24.529387, 62.550859], [24.529697, 62.54781], [24.5267, 62.544296], [24.52608, 62.534142], [24.522772, 62.520319], [24.510473, 62.514479], [24.511093, 62.510138], [24.513574, 62.503937], [24.502308, 62.498408], [24.488769, 62.497581], [24.476884, 62.495462], [24.454663, 62.488176], [24.434302, 62.478564], [24.422107, 62.480088], [24.418593, 62.486005], [24.408877, 62.493343], [24.395442, 62.495643], [24.386553, 62.496289], [24.37229, 62.499958], [24.327849, 62.491328], [24.328779, 62.480553], [24.33467, 62.4689], [24.326298, 62.45872], [24.303664, 62.456705], [24.220775, 62.47058], [24.198141, 62.468797], [24.169202, 62.458694], [24.131995, 62.440866], [24.049623, 62.390688], [24.020271, 62.363997], [23.949164, 62.39043], [23.922085, 62.406992], [23.903895, 62.439238], [23.905136, 62.448798], [23.90958, 62.458979], [23.910096, 62.469417], [23.899451, 62.479856], [23.884568, 62.48244], [23.870616, 62.476213], [23.855836, 62.466627], [23.847361, 62.462183], [23.839093, 62.462906], [23.841884, 62.486522], [23.834029, 62.488021], [23.825554, 62.48554], [23.817286, 62.481561], [23.815735, 62.475412], [23.817389, 62.469676], [23.801783, 62.462648], [23.784213, 62.459599], [23.754344, 62.450452], [23.69812, 62.426732], [23.657709, 62.417017], [23.529138, 62.413038], [23.505677, 62.409007], [23.508364, 62.40384], [23.511361, 62.393194], [23.514772, 62.374953], [23.505057, 62.373454], [23.493171, 62.376658], [23.420721, 62.379759], [23.401187, 62.386942], [23.370078, 62.410403], [23.357055, 62.41725], [23.316128, 62.419394], [23.288636, 62.406837], [23.244194, 62.361413], [23.166783, 62.318419], [23.060743, 62.289997], [22.944987, 62.274726], [22.838327, 62.271186], [22.704485, 62.284106], [22.618909, 62.304053], [22.586973, 62.301831], [22.57178, 62.27067], [22.558964, 62.251136], [22.545632, 62.236305], [22.507805, 62.211268], [22.402695, 62.159798], [22.384195, 62.146801], [22.338823, 62.124038], [22.229476, 62.10192], [22.177696, 62.083317], [22.063698, 62.010427], [22.018222, 61.993167], [21.932956, 61.985312], [21.646565, 62.020504], [21.52957, 62.025103], [21.475516, 62.022313], [21.425804, 62.009445], [21.40441, 61.995803], [21.385909, 61.978414], [21.365032, 61.962523], [21.33723, 61.95317], [21.316694, 61.939187], [21.312511, 61.939846], [21.290212, 61.94892], [21.277517, 61.951483], [21.294932, 61.97134], [21.280528, 61.97956], [21.236583, 61.985012], [21.276215, 62.050198], [21.284353, 62.074937], [21.289073, 62.121568], [21.296397, 62.130439], [21.312266, 62.109117], [21.329112, 62.138129], [21.33253, 62.152574], [21.325938, 62.163764], [21.340343, 62.175727], [21.371104, 62.186469], [21.383962, 62.194485], [21.389903, 62.208157], [21.38087, 62.217841], [21.353282, 62.232001], [21.374278, 62.266791], [21.352306, 62.266018], [21.340017, 62.255194], [21.329356, 62.241441], [21.312266, 62.232001], [21.316173, 62.248236], [21.328461, 62.277167], [21.332774, 62.294094], [21.333507, 62.340562], [21.339041, 62.355536], [21.28533, 62.345282], [21.270681, 62.349311], [21.262462, 62.359198], [21.260427, 62.371975], [21.26531, 62.385199], [21.277517, 62.39647], [21.270681, 62.410793], [21.205089, 62.359687], [21.202403, 62.349189], [21.216075, 62.335028], [21.194347, 62.337063], [21.189789, 62.352444], [21.195079, 62.37287], [21.202403, 62.390326], [21.196544, 62.391506], [21.187022, 62.39525], [21.181326, 62.39647], [21.189464, 62.408393], [21.194591, 62.413235], [21.202403, 62.417629], [21.186046, 62.42357], [21.166759, 62.421332], [21.147797, 62.413804], [21.133556, 62.403957], [21.131358, 62.416693], [21.149181, 62.447089], [21.154552, 62.464789], [21.136974, 62.457994], [21.124278, 62.45482], [21.116384, 62.46015], [21.113048, 62.47842], [21.115571, 62.495795], [21.124278, 62.509996], [21.137869, 62.520697], [21.154552, 62.527493], [21.148774, 62.535549], [21.12672, 62.554145], [21.146821, 62.562812], [21.167328, 62.575751], [21.188162, 62.584866], [21.209239, 62.582099], [21.193533, 62.600898], [21.121593, 62.609442], [21.106212, 62.623033], [21.094086, 62.619452], [21.083263, 62.612698], [21.065196, 62.595771], [21.067882, 62.620103], [21.083181, 62.659247], [21.078949, 62.67829], [21.098888, 62.680894], [21.125743, 62.690172], [21.149669, 62.703803], [21.160818, 62.719306], [21.160167, 62.73017], [21.15561, 62.731757], [21.148611, 62.730414], [21.140391, 62.732896], [21.122813, 62.74372], [21.116466, 62.749661], [21.107921, 62.767035], [21.113536, 62.781195], [21.12908, 62.790839], [21.15089, 62.794379], [21.171072, 62.784613], [21.18336, 62.782375], [21.188813, 62.790676], [21.192231, 62.792914], [21.209646, 62.807603], [21.216075, 62.814846], [21.221934, 62.831041], [21.222667, 62.845649], [21.226736, 62.858466], [21.243419, 62.869452], [21.267426, 62.869045], [21.335704, 62.855455], [21.3567, 62.859524], [21.364268, 62.865424], [21.382823, 62.874579], [21.390798, 62.880316], [21.395518, 62.887356], [21.399669, 62.900702], [21.40919, 62.913804], [21.420095, 62.934882], [21.42213, 62.941799], [21.427501, 62.944037], [21.463145, 62.951402], [21.446544, 62.987006], [21.442719, 63.005072], [21.442638, 63.027086], [21.441742, 63.034369], [21.440766, 63.037787], [21.444102, 63.04092], [21.456309, 63.047553], [21.467052, 63.047919], [21.475271, 63.043036], [21.480479, 63.043036], [21.48227, 63.058173], [21.495128, 63.071723], [21.523448, 63.063951], [21.565196, 63.040758], [21.59547, 63.034857], [21.625743, 63.023871], [21.656749, 63.01789], [21.688487, 63.027086], [21.645681, 63.055243], [21.579112, 63.083726], [21.559581, 63.09512], [21.553233, 63.108588], [21.572439, 63.123358], [21.560069, 63.119696], [21.545909, 63.117906], [21.531993, 63.119696], [21.520844, 63.126776], [21.516775, 63.1376], [21.517833, 63.148017], [21.516124, 63.155463], [21.503429, 63.157457], [21.510509, 63.168402], [21.522227, 63.172065], [21.551931, 63.171129], [21.551931, 63.177924], [21.512869, 63.185004], [21.500987, 63.19245], [21.496593, 63.20897], [21.504893, 63.217434], [21.523774, 63.225409], [21.544444, 63.231024], [21.558116, 63.232611], [21.615408, 63.203925], [21.647227, 63.197659], [21.667979, 63.21955], [21.687999, 63.210191], [21.714692, 63.202338], [21.742361, 63.199652], [21.764171, 63.205878], [21.749034, 63.210883], [21.717947, 63.215318], [21.702647, 63.21955], [21.702647, 63.225775], [21.743663, 63.239407], [21.758067, 63.241523], [21.79835, 63.239407], [21.8213, 63.24372], [21.869884, 63.259426], [21.894542, 63.260484], [21.884451, 63.245429], [21.88266, 63.235907], [21.891449, 63.196601], [21.889903, 63.188178], [21.88087, 63.177924], [21.905528, 63.175442], [21.983897, 63.143215], [21.972179, 63.164984], [21.955903, 63.18476], [21.98406, 63.19123], [21.994395, 63.196438], [22.004405, 63.205878], [22.01002, 63.215766], [22.012543, 63.224311], [22.015961, 63.232001], [22.02475, 63.239407], [22.043142, 63.245592], [22.053559, 63.240912], [22.061371, 63.232123], [22.072032, 63.225775], [22.087576, 63.225775], [22.114024, 63.236274], [22.127208, 63.239407], [22.139496, 63.237982], [22.15919, 63.231757], [22.175059, 63.232611], [22.180186, 63.2355], [22.181163, 63.240058], [22.180837, 63.244452], [22.181895, 63.246812], [22.187266, 63.246405], [22.194998, 63.244127], [22.201427, 63.24136], [22.202973, 63.239407], [22.24464, 63.267076], [22.266368, 63.285346], [22.278087, 63.301459], [22.284923, 63.301459], [22.307628, 63.275865], [22.330089, 63.28384], [22.352224, 63.305609], [22.373709, 63.321357], [22.363943, 63.32689], [22.357188, 63.334215], [22.346934, 63.34927], [22.333832, 63.359687], [22.305349, 63.372707], [22.255382, 63.40644], [22.250499, 63.411322], [22.232921, 63.411811], [22.218272, 63.414374], [22.205821, 63.420315], [22.195567, 63.43122], [22.190929, 63.458441], [22.21339, 63.470893], [22.246755, 63.469631], [22.274669, 63.455715], [22.304942, 63.435858], [22.335216, 63.430406], [22.366954, 63.42829], [22.401622, 63.418158], [22.318207, 63.460517], [22.279959, 63.487616], [22.271251, 63.513739], [22.281423, 63.52619], [22.292247, 63.529731], [22.319347, 63.527411], [22.337413, 63.523342], [22.337087, 63.513617], [22.331228, 63.502346], [22.333344, 63.493232], [22.355479, 63.487494], [22.380219, 63.485419], [22.396821, 63.476955], [22.394786, 63.452338], [22.4074, 63.456936], [22.423676, 63.468004], [22.435802, 63.472805], [22.435802, 63.47956], [22.428396, 63.488756], [22.431488, 63.497382], [22.43865, 63.506537], [22.442638, 63.517483], [22.445486, 63.518134], [22.463064, 63.554755], [22.472423, 63.561835], [22.483735, 63.56684], [22.493175, 63.573472], [22.497244, 63.585761], [22.503429, 63.587104], [22.545665, 63.575181], [22.537771, 63.587714], [22.497244, 63.622992], [22.514415, 63.635972], [22.522227, 63.640611], [22.531993, 63.64411], [22.52947, 63.650865], [22.527843, 63.653876], [22.525076, 63.657701], [22.567393, 63.653144], [22.585704, 63.65705], [22.593435, 63.674506], [22.591075, 63.694159], [22.589041, 63.703315], [22.594086, 63.704291], [22.613292, 63.699286], [22.627778, 63.687445], [22.637055, 63.683092], [22.641124, 63.688463], [22.644867, 63.698554], [22.654063, 63.703762], [22.665212, 63.704779], [22.675304, 63.702379], [22.690766, 63.693793], [22.702322, 63.683417], [22.707042, 63.671332], [22.702647, 63.657701], [22.713227, 63.649888], [22.73406, 63.62759], [22.740489, 63.622992], [22.755219, 63.624091], [22.773448, 63.627509], [22.790538, 63.633002], [22.802257, 63.640326], [22.810232, 63.643744], [22.820486, 63.644192], [22.829275, 63.646226], [22.833018, 63.654364], [22.833018, 63.661811], [22.833507, 63.667304], [22.835704, 63.672105], [22.840343, 63.677639], [22.855479, 63.687161], [22.886974, 63.695217], [22.901866, 63.705512], [22.885265, 63.712307], [22.833018, 63.72602], [22.901866, 63.72602], [22.882091, 63.742133], [22.874685, 63.746527], [22.900401, 63.740058], [22.914724, 63.739203], [22.925792, 63.743394], [22.928477, 63.748765], [22.929861, 63.756903], [22.92921, 63.76435], [22.925792, 63.767564], [22.907725, 63.772406], [22.898774, 63.783271], [22.902517, 63.794867], [22.922374, 63.801703], [22.942882, 63.800482], [22.954845, 63.79328], [22.973155, 63.770982], [22.990001, 63.761298], [23.000662, 63.763617], [23.001801, 63.773749], [22.990733, 63.787502], [22.990733, 63.787624], [22.99464, 63.800727], [22.994477, 63.80622], [22.990733, 63.815375], [23.047618, 63.841295], [23.062836, 63.852973], [23.074962, 63.857367], [23.121349, 63.849555], [23.132579, 63.852484], [23.142345, 63.858466], [23.153494, 63.863471], [23.151215, 63.864895], [23.141612, 63.869452], [23.141856, 63.875963], [23.15504, 63.883694], [23.167328, 63.886949], [23.197927, 63.890611], [23.275238, 63.888902], [23.306488, 63.894232], [23.326427, 63.910956], [23.350759, 63.89883], [23.372813, 63.900621], [23.394216, 63.911078], [23.415782, 63.924628], [23.384776, 63.9383], [23.37086, 63.946519], [23.37086, 63.956], [23.378754, 63.96894], [23.37672, 63.978746], [23.37086, 63.987535], [23.367442, 63.99726], [23.369884, 64.003241], [23.381602, 64.048163], [23.396495, 64.056138], [23.415212, 64.05622], [23.449962, 64.048163], [23.456554, 64.045478], [23.46754, 64.037909], [23.477306, 64.035102], [23.487559, 64.035956], [23.496755, 64.039455], [23.506602, 64.041653], [23.538341, 64.031887], [23.604503, 64.027655], [23.619802, 64.038031], [23.605968, 64.061103], [23.581716, 64.084662], [23.566091, 64.096584], [23.573578, 64.107245], [23.58546, 64.108547], [23.614431, 64.10342], [23.622081, 64.107123], [23.644786, 64.124416], [23.656016, 64.130072], [23.66033, 64.143297], [23.679535, 64.155341], [23.704275, 64.166693], [23.706472, 64.168077], [23.882191, 64.110712], [24.036394, 64.077846], [24.093961, 64.047719], [24.101816, 64.023638], [24.127241, 63.977749], [24.145224, 63.95899], [24.193697, 63.935529], [24.223876, 63.925375], [24.226976, 63.917391], [24.240722, 63.89269], [24.243099, 63.883801], [24.271728, 63.868117], [24.356581, 63.850211], [24.408257, 63.83414], [24.448462, 63.810059], [24.564423, 63.702107], [24.630363, 63.658983], [24.768649, 63.604593], [25.000676, 63.484006], [25.028685, 63.458039], [24.895669, 63.418119], [24.81123, 63.380783], [24.783428, 63.352206], [24.784565, 63.311691], [24.799861, 63.27575], [24.79304, 63.274536], [24.767822, 63.266991], [24.759347, 63.262857], [24.761001, 63.244512], [24.764101, 63.231567], [24.756866, 63.208339], [24.743327, 63.180743], [24.73754, 63.162502], [24.739193, 63.142503], [24.736403, 63.137077], [24.585404, 63.157076], [24.52825, 63.159143], [24.362782, 63.119197], [24.345419, 63.095865], [24.326505, 63.076822], [24.301287, 63.065066], [24.266147, 63.060337], [24.278343, 63.034706], [24.286611, 63.032329], [24.292812, 63.034241], [24.29674, 63.034964]]], [[[22.793224, 63.74022], [22.782074, 63.744818], [22.777192, 63.741767], [22.780447, 63.73432], [22.776052, 63.728176], [22.764496, 63.727037], [22.756602, 63.722724], [22.739594, 63.720526], [22.719249, 63.72663], [22.702891, 63.736396], [22.692231, 63.751125], [22.687022, 63.755113], [22.683116, 63.758612], [22.681488, 63.763414], [22.702973, 63.769761], [22.711436, 63.773383], [22.719574, 63.778876], [22.737315, 63.78559], [22.763845, 63.791449], [22.781749, 63.790432], [22.789806, 63.783759], [22.795665, 63.777655], [22.800304, 63.776068], [22.804454, 63.778225], [22.807953, 63.779527], [22.823416, 63.779242], [22.828868, 63.776313], [22.825531, 63.772854], [22.821137, 63.77147], [22.820079, 63.768866], [22.819102, 63.763251], [22.815196, 63.756496], [22.812022, 63.753485], [22.809418, 63.747138], [22.802094, 63.738186], [22.793224, 63.74022]]], [[[22.082774, 63.304185], [22.072765, 63.312812], [22.069184, 63.318549], [22.078624, 63.321601], [22.092621, 63.323065], [22.110199, 63.328925], [22.123546, 63.326361], [22.132091, 63.325914], [22.139985, 63.322211], [22.14796, 63.315579], [22.158214, 63.311021], [22.163585, 63.311713], [22.164399, 63.316718], [22.169688, 63.319159], [22.178559, 63.317857], [22.18629, 63.314765], [22.190603, 63.310533], [22.195649, 63.30976], [22.202647, 63.312812], [22.208018, 63.317939], [22.210704, 63.325385], [22.215343, 63.332953], [22.22169, 63.338568], [22.226329, 63.340644], [22.231293, 63.338813], [22.235688, 63.331244], [22.237071, 63.325507], [22.238943, 63.313788], [22.246267, 63.307074], [22.244477, 63.302476], [22.234386, 63.293158], [22.222667, 63.279975], [22.208669, 63.273261], [22.187266, 63.273505], [22.156505, 63.28856], [22.114431, 63.284166], [22.114106, 63.282213], [22.139008, 63.27912], [22.158539, 63.274075], [22.163097, 63.263332], [22.157237, 63.256537], [22.148692, 63.255805], [22.144054, 63.254136], [22.144216, 63.25141], [22.136485, 63.250556], [22.08546, 63.261786], [22.079356, 63.266303], [22.083181, 63.270453], [22.078461, 63.274482], [22.067068, 63.278998], [22.068696, 63.283881], [22.075694, 63.2862], [22.083344, 63.288031], [22.088878, 63.294623], [22.082774, 63.304185]]], [[[21.983653, 63.373277], [21.986583, 63.377875], [21.99643, 63.384711], [22.014659, 63.385403], [22.030284, 63.383368], [22.045909, 63.387519], [22.059825, 63.388373], [22.064952, 63.38703], [22.069835, 63.385199], [22.079438, 63.38349], [22.089122, 63.383938], [22.096039, 63.38349], [22.096039, 63.380316], [22.088878, 63.377631], [22.079438, 63.376858], [22.080251, 63.373603], [22.085134, 63.367011], [22.076182, 63.360053], [22.059337, 63.357856], [22.026866, 63.366156], [22.012706, 63.363715], [22.001964, 63.354193], [21.997081, 63.348456], [21.984141, 63.341132], [21.966075, 63.333157], [21.957205, 63.33161], [21.948985, 63.333808], [21.947276, 63.337958], [21.948985, 63.340033], [21.951345, 63.343655], [21.956228, 63.349311], [21.961192, 63.353827], [21.966075, 63.359809], [21.97169, 63.365139], [21.978201, 63.368883], [21.983653, 63.373277]]], [[[21.997813, 63.289008], [21.995616, 63.284735], [21.99464, 63.280097], [21.989919, 63.277574], [21.984386, 63.277167], [21.978282, 63.280015], [21.974376, 63.286811], [21.977712, 63.298651], [21.989024, 63.31037], [22.002289, 63.313422], [22.021821, 63.307196], [22.029959, 63.308417], [22.026215, 63.313422], [22.011974, 63.320299], [22.007579, 63.324897], [22.012706, 63.326117], [22.018565, 63.326239], [22.022227, 63.323432], [22.026215, 63.322211], [22.033458, 63.322089], [22.060802, 63.302151], [22.058116, 63.294867], [22.046641, 63.282172], [22.029796, 63.277411], [22.013845, 63.277737], [22.007091, 63.281073], [22.008149, 63.288235], [22.004568, 63.291164], [21.997813, 63.289008]]], [[[21.291189, 63.171129], [21.298188, 63.170233], [21.318533, 63.164944], [21.301524, 63.156155], [21.283458, 63.151923], [21.243419, 63.150702], [21.23113, 63.158393], [21.219249, 63.169623], [21.207367, 63.183336], [21.188813, 63.191596], [21.175792, 63.1883], [21.161632, 63.181952], [21.147227, 63.182196], [21.133556, 63.198432], [21.154552, 63.198432], [21.154552, 63.205878], [21.141612, 63.210679], [21.113129, 63.227484], [21.102794, 63.235989], [21.096528, 63.24551], [21.081798, 63.277289], [21.078949, 63.287787], [21.120291, 63.271959], [21.159434, 63.273749], [21.199474, 63.280707], [21.243419, 63.280992], [21.243419, 63.274807], [21.227224, 63.271633], [21.21518, 63.263861], [21.195079, 63.239407], [21.197927, 63.231594], [21.199474, 63.230292], [21.198904, 63.23017], [21.195079, 63.225775], [21.209483, 63.221381], [21.264415, 63.21955], [21.272227, 63.217108], [21.27947, 63.21308], [21.286794, 63.211371], [21.294932, 63.215806], [21.297862, 63.223049], [21.294607, 63.228909], [21.290375, 63.234198], [21.291189, 63.239407], [21.315766, 63.251939], [21.355968, 63.260728], [21.396332, 63.260688], [21.42213, 63.246812], [21.415212, 63.233466], [21.414806, 63.220445], [21.419607, 63.208686], [21.428396, 63.198432], [21.404552, 63.192532], [21.377452, 63.190131], [21.363943, 63.193671], [21.380544, 63.205878], [21.362804, 63.206244], [21.291189, 63.177924], [21.291189, 63.171129]]], [[[21.311046, 63.355618], [21.345958, 63.363756], [21.374278, 63.34927], [21.373871, 63.333401], [21.358246, 63.31566], [21.318533, 63.287787], [21.315278, 63.304023], [21.305919, 63.305894], [21.292654, 63.302191], [21.277517, 63.301459], [21.229177, 63.328803], [21.23406, 63.332831], [21.23878, 63.334377], [21.250255, 63.335028], [21.276622, 63.340766], [21.311046, 63.355618]]], [[[21.154796, 62.967597], [21.159353, 62.975409], [21.15268, 62.979682], [21.140391, 62.984565], [21.131847, 62.992825], [21.130382, 63.0008], [21.136241, 63.006578], [21.145193, 63.010159], [21.151622, 63.010321], [21.155121, 63.006822], [21.159841, 63.00434], [21.184744, 62.999416], [21.195649, 62.994371], [21.207367, 62.986151], [21.215994, 62.975165], [21.221202, 62.961371], [21.221934, 62.951361], [21.216563, 62.947089], [21.208507, 62.946234], [21.191417, 62.953925], [21.182872, 62.9501], [21.168142, 62.94599], [21.146658, 62.953274], [21.135997, 62.962958], [21.136485, 62.967231], [21.141856, 62.968248], [21.148204, 62.965522], [21.150564, 62.963568], [21.154796, 62.967597]]]]}, "properties": {"name": "Остроботния, Южная и Центральная Остроботния", "source": "Natural Earth admin-1; OpenHistoricalMap (CC0) relation 2809714; OpenStreetMap (ODbL) relations 1014347, 1203043, 2777169; нарезка 22.09.2026"}}]}