{"type": "FeatureCollection", "features": [{"type": "Feature", "geometry": {"type": "MultiPolygon", "coordinates": [[[[26.412852, 60.398017], [26.402599, 60.402655], [26.383311, 60.41649], [26.384532, 60.404853], [26.381196, 60.398749], [26.374034, 60.39643], [26.362804, 60.395982], [26.35141, 60.392808], [26.348969, 60.38581], [26.348318, 60.37873], [26.342052, 60.375556], [26.323985, 60.383002], [26.310232, 60.3994], [26.299164, 60.41592], [26.290212, 60.423326], [26.278656, 60.429145], [26.262543, 60.440985], [26.245616, 60.450873], [26.231781, 60.450629], [26.22934, 60.438422], [26.242931, 60.424262], [26.273448, 60.402167], [26.178966, 60.410631], [26.170421, 60.409654], [26.150727, 60.398505], [26.142426, 60.395982], [26.134451, 60.402818], [26.094574, 60.423326], [26.062185, 60.432278], [26.049164, 60.437486], [26.013682, 60.462592], [25.980968, 60.475775], [25.9463, 60.484198], [25.917247, 60.485419], [25.917247, 60.477973], [25.971853, 60.464911], [25.982595, 60.458075], [26.003754, 60.440497], [26.028982, 60.433336], [26.036143, 60.42475], [26.039317, 60.414496], [26.04005, 60.405951], [26.032481, 60.400621], [26.017426, 60.401679], [26.006847, 60.400539], [26.012218, 60.388577], [26.023204, 60.380683], [26.060557, 60.368109], [26.0796, 60.350409], [26.088634, 60.34394], [26.10141, 60.341376], [26.108165, 60.335924], [26.106456, 60.324042], [26.099864, 60.312079], [26.091319, 60.306627], [26.04005, 60.299791], [26.038829, 60.322659], [25.997081, 60.354926], [26.00587, 60.368109], [25.9935, 60.367825], [25.984874, 60.363105], [25.977306, 60.357733], [25.968028, 60.355048], [25.956554, 60.356024], [25.947765, 60.358873], [25.888357, 60.389146], [25.867198, 60.39704], [25.842052, 60.402167], [25.877696, 60.377916], [25.899099, 60.367255], [25.917247, 60.361274], [25.907237, 60.340969], [25.884288, 60.320014], [25.883067, 60.306627], [25.892426, 60.291571], [25.921235, 60.265286], [25.930186, 60.245185], [25.909353, 60.246161], [25.894867, 60.249579], [25.88266, 60.255927], [25.868826, 60.265692], [25.876231, 60.272528], [25.861013, 60.284003], [25.841482, 60.287746], [25.820323, 60.288886], [25.800548, 60.292955], [25.770356, 60.314154], [25.753754, 60.320746], [25.739024, 60.313463], [25.745372, 60.295803], [25.780935, 60.28266], [25.848888, 60.265692], [25.780528, 60.25141], [25.780528, 60.245185], [25.761974, 60.240383], [25.735525, 60.24726], [25.655772, 60.293036], [25.649669, 60.299791], [25.65089, 60.313463], [25.658539, 60.32274], [25.670584, 60.32746], [25.649669, 60.33393], [25.649669, 60.341376], [25.704356, 60.341376], [25.690196, 60.36286], [25.66863, 60.364651], [25.646007, 60.35635], [25.629161, 60.347602], [25.602712, 60.338568], [25.526134, 60.327094], [25.526134, 60.32095], [25.54127, 60.316352], [25.54656, 60.305854], [25.545095, 60.292304], [25.540375, 60.278713], [25.535899, 60.275702], [25.528819, 60.274482], [25.522227, 60.271389], [25.516856, 60.254543], [25.510916, 60.249213], [25.502778, 60.246161], [25.361664, 60.245185], [25.363455, 60.260077], [25.350922, 60.267239], [25.313813, 60.272528], [25.316173, 60.26789], [25.319509, 60.256293], [25.3213, 60.25141], [25.290538, 60.245917], [25.19752, 60.245185], [25.192149, 60.243842], [25.19044, 60.240058], [25.190929, 60.228461], [25.190278, 60.227769], [25.185802, 60.223131], [25.174164, 60.225409], [25.156261, 60.232164], [25.15504, 60.223782], [25.191254, 60.212348], [25.203949, 60.20425], [25.194672, 60.200832], [25.181407, 60.200507], [25.197113, 60.190619], [25.177013, 60.183295], [25.117035, 60.175727], [25.094737, 60.176337], [25.097423, 60.183417], [25.098969, 60.18651], [25.101573, 60.190619], [25.058604, 60.177314], [25.047862, 60.168891], [25.067393, 60.162665], [25.061046, 60.156562], [25.045258, 60.156806], [25.029307, 60.147854], [25.010753, 60.151353], [24.997895, 60.162665], [25.010753, 60.169867], [25.021495, 60.183987], [25.02589, 60.199449], [25.019054, 60.211086], [24.99879, 60.212836], [24.984548, 60.199449], [24.961192, 60.151557], [24.950938, 60.143459], [24.865733, 60.140123], [24.845225, 60.143744], [24.834158, 60.155829], [24.870942, 60.161689], [24.868826, 60.179755], [24.842459, 60.194648], [24.806814, 60.190619], [24.827322, 60.162665], [24.812511, 60.158271], [24.785899, 60.146226], [24.772634, 60.142157], [24.720958, 60.138414], [24.687755, 60.132514], [24.679698, 60.130113], [24.67335, 60.125434], [24.671153, 60.118232], [24.674815, 60.105536], [24.670258, 60.101223], [24.656423, 60.100979], [24.649587, 60.109565], [24.646169, 60.120917], [24.642263, 60.129096], [24.630626, 60.136298], [24.569102, 60.153998], [24.554047, 60.155951], [24.549001, 60.152777], [24.560395, 60.142157], [24.576671, 60.13524], [24.590831, 60.132229], [24.596853, 60.127265], [24.587657, 60.114814], [24.574718, 60.107733], [24.560557, 60.10456], [24.548025, 60.099677], [24.540375, 60.087551], [24.608165, 60.101223], [24.602712, 60.091783], [24.594249, 60.084947], [24.573985, 60.07392], [24.594493, 60.066474], [24.594493, 60.060248], [24.527029, 60.035346], [24.487641, 60.005805], [24.46811, 59.996405], [24.445649, 59.992255], [24.41627, 59.99136], [24.424327, 60.005072], [24.452973, 60.037746], [24.464122, 60.046576], [24.446137, 60.047512], [24.420909, 60.035468], [24.374766, 60.00495], [24.367686, 60.02204], [24.350271, 60.016547], [24.329763, 60.003363], [24.312673, 59.997504], [24.319102, 60.014146], [24.330577, 60.021674], [24.344249, 60.026801], [24.357677, 60.036038], [24.360362, 60.043118], [24.359711, 60.051988], [24.36085, 60.062405], [24.367931, 60.07392], [24.319672, 60.075832], [24.295909, 60.072211], [24.278575, 60.060248], [24.292247, 60.052802], [24.261078, 60.041571], [24.252452, 60.03974], [24.239024, 60.039374], [24.203949, 60.046576], [24.176524, 60.048041], [24.158458, 60.043036], [24.15797, 60.034491], [24.182953, 60.025458], [24.164236, 60.019436], [24.147716, 60.021959], [24.131847, 60.027981], [24.114757, 60.032294], [24.105968, 60.031928], [24.068126, 60.020575], [24.05836, 60.020413], [24.046397, 60.025458], [24.028168, 60.009345], [24.009613, 60.010565], [24.002615, 60.020982], [24.019216, 60.032294], [24.019216, 60.03974], [24.000824, 60.038275], [23.990245, 60.031562], [23.981944, 60.021959], [23.970714, 60.011786], [23.955333, 60.003567], [23.940684, 59.999335], [23.873057, 59.993069], [23.79949, 59.95661], [23.771251, 59.967963], [23.607595, 59.95661], [23.594493, 59.961127], [23.583832, 59.973334], [23.573497, 59.977688], [23.56186, 59.977607], [23.495453, 59.968085], [23.452973, 59.957261], [23.429454, 59.95661], [23.440603, 59.971829], [23.483572, 60.011298], [23.498302, 60.019273], [23.52711, 60.02383], [23.540863, 60.02912], [23.542735, 60.036038], [23.536143, 60.044989], [23.534353, 60.053697], [23.537364, 60.063056], [23.546153, 60.07392], [23.509613, 60.06745], [23.498302, 60.0633], [23.490245, 60.055487], [23.485688, 60.045152], [23.47877, 60.036119], [23.463878, 60.032294], [23.453787, 60.027981], [23.449392, 60.017564], [23.446056, 60.005113], [23.439708, 59.994452], [23.430186, 59.988674], [23.40797, 59.980414], [23.398692, 59.97427], [23.365001, 59.94538], [23.326427, 59.923041], [23.237153, 59.898017], [23.222341, 59.886217], [23.222179, 59.867825], [23.233165, 59.851996], [23.251313, 59.847968], [23.251313, 59.841132], [23.080577, 59.82685], [23.068126, 59.820787], [23.006847, 59.826158], [22.983897, 59.823717], [22.964854, 59.818305], [22.905121, 59.811225], [22.888194, 59.813178], [22.906016, 59.819648], [22.931407, 59.842841], [22.946137, 59.847968], [22.986583, 59.851955], [23.127452, 59.886379], [23.168142, 59.888902], [23.161143, 59.910224], [23.165863, 59.91767], [23.177094, 59.917426], [23.18922, 59.915595], [23.222423, 59.916083], [23.247081, 59.922431], [23.268891, 59.936225], [23.293712, 59.958686], [23.309093, 59.979438], [23.326427, 60.009345], [23.332856, 60.029853], [23.315929, 60.022406], [23.249766, 59.948472], [23.223399, 59.929877], [23.203624, 59.929877], [23.205089, 59.933173], [23.207286, 59.939765], [23.209727, 59.943549], [23.199718, 59.948188], [23.188813, 59.950181], [23.178071, 59.94892], [23.168142, 59.943549], [23.171235, 59.936428], [23.131847, 59.942939], [23.120942, 59.93358], [23.117849, 59.923774], [23.110688, 59.923285], [23.103689, 59.929674], [23.100597, 59.940416], [23.110688, 59.970282], [23.111339, 59.97427], [23.128184, 59.9831], [23.203624, 59.997504], [23.217947, 60.008368], [23.241384, 60.033108], [23.257579, 60.03974], [23.205089, 60.049709], [23.106212, 60.039049], [23.059418, 60.03974], [23.035492, 60.044582], [23.013357, 60.051581], [22.996918, 60.062079], [22.990733, 60.077338], [22.997244, 60.089667], [23.012869, 60.101752], [23.021254, 60.106802], [23.0286, 60.1015], [23.068597, 60.089356], [23.114176, 60.09473], [23.193138, 60.123256], [23.295767, 60.181547], [23.310547, 60.186404], [23.324189, 60.185164], [23.320158, 60.179066], [23.316644, 60.1724], [23.333284, 60.165475], [23.351578, 60.16253], [23.393022, 60.160049], [23.438704, 60.163563], [23.487487, 60.174312], [23.541333, 60.19953], [23.563038, 60.203767], [23.574096, 60.203612], [23.6297, 60.196739], [23.641689, 60.198031], [23.650784, 60.212785], [23.64603, 60.223534], [23.631974, 60.239011], [23.611923, 60.249604], [23.599624, 60.253739], [23.59239, 60.258519], [23.607273, 60.262317], [23.618228, 60.262782], [23.625566, 60.261903], [23.630217, 60.273944], [23.641069, 60.283039], [23.683857, 60.296372], [23.724578, 60.319187], [23.73295, 60.344146], [23.746179, 60.370734], [23.764886, 60.375256], [23.786073, 60.392593], [23.793618, 60.418535], [23.793204, 60.434063], [23.779252, 60.449696], [23.69967, 60.451918], [23.7191, 60.475999], [23.744215, 60.486282], [23.851289, 60.501605], [23.865035, 60.512095], [23.862037, 60.528864], [23.855526, 60.5423], [23.861417, 60.55633], [23.873716, 60.559379], [23.893043, 60.570877], [23.907823, 60.587775], [23.913921, 60.59749], [23.906376, 60.608833], [23.89387, 60.611701], [23.880538, 60.620383], [23.880951, 60.633018], [23.896661, 60.648753], [23.94782, 60.652681], [24.192767, 60.619789], [24.234831, 60.607464], [24.252401, 60.597128], [24.283924, 60.565399], [24.304078, 60.568267], [24.303664, 60.581781], [24.309245, 60.594028], [24.340561, 60.601831], [24.381799, 60.598989], [24.397199, 60.59625], [24.405157, 60.577181], [24.414045, 60.563435], [24.462931, 60.552893], [24.524943, 60.558526], [24.566284, 60.578215], [24.569901, 60.589532], [24.567937, 60.617566], [24.574552, 60.636454], [24.591915, 60.654954], [24.612379, 60.66051], [24.750665, 60.654438], [24.911172, 60.664928], [24.963469, 60.67671], [24.994681, 60.680017], [25.027961, 60.678364], [25.095554, 60.663739], [25.107646, 60.666504], [25.104546, 60.671387], [25.09328, 60.698259], [25.103822, 60.70477], [25.18237, 60.723581], [25.173068, 60.72756], [25.123769, 60.7342], [25.099585, 60.731177], [25.063411, 60.716449], [25.059897, 60.720893], [25.065581, 60.733709], [25.07571, 60.743631], [25.096381, 60.75655], [25.122116, 60.763992], [25.139065, 60.766627], [25.156222, 60.771976], [25.156945, 60.777479], [25.150227, 60.785153], [25.127593, 60.795721], [25.116224, 60.8051], [25.108886, 60.819854], [25.193739, 60.830137], [25.207072, 60.827089], [25.209655, 60.825332], [25.215236, 60.816081], [25.226812, 60.806366], [25.278902, 60.773965], [25.30443, 60.76239], [25.329545, 60.757274], [25.3744, 60.763682], [25.441993, 60.792569], [25.473825, 60.792052], [25.492842, 60.779701], [25.509895, 60.7581], [25.521368, 60.731539], [25.523435, 60.704409], [25.571804, 60.689319], [25.610458, 60.688441], [25.88827, 60.734019], [25.911318, 60.730505], [25.92372, 60.723374], [25.933332, 60.715261], [25.948215, 60.708853], [25.976224, 60.705442], [26.033688, 60.705856], [26.126085, 60.694538], [26.173317, 60.697226], [26.195435, 60.704021], [26.214555, 60.715571], [26.224891, 60.733399], [26.22086, 60.735776], [26.218586, 60.741202], [26.218276, 60.74792], [26.215485, 60.755413], [26.207734, 60.779288], [26.196882, 60.7997], [26.180345, 60.815616], [26.155127, 60.825848], [26.093116, 60.830654], [26.083401, 60.838096], [26.085778, 60.852513], [26.096836, 60.862048], [26.111926, 60.866983], [26.118954, 60.867861], [26.123191, 60.87631], [26.124225, 60.885302], [26.135077, 60.898815], [26.151407, 60.912148], [26.159365, 60.919977], [26.145722, 60.93008], [26.077096, 60.938865], [26.042783, 60.955091], [26.046193, 60.984056], [26.056322, 60.985322], [26.095699, 60.981808], [26.111616, 60.985632], [26.11854, 60.99359], [26.136627, 61.024906], [26.131046, 61.031882], [26.124432, 61.036326], [26.118437, 61.046558], [26.115026, 61.057617], [26.108722, 61.066919], [26.096733, 61.075342], [26.083711, 61.082215], [26.068104, 61.087719], [26.058182, 61.090199], [26.052085, 61.107614], [26.060663, 61.120998], [26.085468, 61.137845], [26.130219, 61.151358], [26.166703, 61.1357], [26.197915, 61.133013], [26.300648, 61.154924], [26.395423, 61.199831], [26.41816, 61.219209], [26.433147, 61.253677], [26.442758, 61.259155], [26.465393, 61.26608], [26.515105, 61.273676], [26.611947, 61.28706], [26.634685, 61.282565], [26.644813, 61.27378], [26.653081, 61.263031], [26.661143, 61.256907], [26.665897, 61.248148], [26.645123, 61.225307], [26.640266, 61.221483], [26.649154, 61.211975], [26.66445, 61.209804], [26.698867, 61.214171], [26.73287, 61.225824], [26.761395, 61.239156], [26.77049, 61.246649], [26.785373, 61.265873], [26.796949, 61.27347], [26.816276, 61.279361], [26.837566, 61.282565], [26.87188, 61.283288], [26.883972, 61.271351], [26.886969, 61.26055], [26.896891, 61.249104], [26.90888, 61.240448], [26.918285, 61.226754], [26.921799, 61.210269], [26.922419, 61.203577], [26.92521, 61.190529], [26.928517, 61.184689], [26.943606, 61.171305], [27.001587, 61.151539], [27.213151, 61.161797], [27.330353, 61.168308], [27.348646, 61.171409], [27.36663, 61.181382], [27.36632, 61.186601], [27.367456, 61.19257], [27.374278, 61.196782], [27.382753, 61.199521], [27.389884, 61.203758], [27.388334, 61.205567], [27.386267, 61.210166], [27.38575, 61.213008], [27.360945, 61.212698], [27.335831, 61.218331], [27.324978, 61.228924], [27.333143, 61.236676], [27.331076, 61.252825], [27.277333, 61.288766], [27.241263, 61.305044], [27.22607, 61.316103], [27.243433, 61.318996], [27.255732, 61.324371], [27.240746, 61.329874], [27.143387, 61.328402], [26.976369, 61.343879], [26.968514, 61.359821], [26.985258, 61.369174], [27.018434, 61.375272], [27.091711, 61.371396], [27.113105, 61.37305], [27.202402, 61.399663], [27.250254, 61.403746], [27.303378, 61.400568], [27.540262, 61.360338], [28.181464, 61.373308], [28.341557, 61.418577], [28.396541, 61.446896], [28.409047, 61.457903], [28.415868, 61.467618], [28.420105, 61.475576], [28.42486, 61.481364], [28.446874, 61.497926], [28.468888, 61.509217], [28.494003, 61.511801], [28.510126, 61.508365], [28.538341, 61.481338], [28.562939, 61.472889], [28.653166, 61.469582], [28.750525, 61.481571], [28.809332, 61.498004], [28.81698, 61.508416], [28.815017, 61.530818], [28.820701, 61.538001], [28.838168, 61.539241], [28.893151, 61.533454], [29.053348, 61.534229], [29.190188, 61.548207], [29.246102, 61.559912], [29.272043, 61.572056], [29.341083, 61.62151], [29.46645, 61.658149], [29.532389, 61.684788], [29.564015, 61.72414], [30.057215, 61.848809], [30.143308, 61.850799], [30.144961, 61.850566], [30.145649, 61.850469], [29.977684, 61.728171], [29.84224, 61.660165], [29.82188, 61.644585], [29.798057, 61.609651], [29.779143, 61.593115], [29.635121, 61.511104], [29.60427, 61.499193], [29.539726, 61.484956], [29.51704, 61.47506], [29.499057, 61.459247], [29.480867, 61.434778], [29.4634, 61.413824], [29.318396, 61.338428], [29.289251, 61.316207], [29.277059, 61.304599], [29.262275, 61.290524], [29.203158, 61.245901], [29.130087, 61.213422], [28.980846, 61.168102], [28.926379, 61.147948], [28.855479, 61.112679], [28.797601, 61.09684], [28.781323, 61.08697], [28.750162, 61.061364], [28.688977, 61.027387], [28.670684, 61.012479], [28.653837, 60.991885], [28.653734, 60.991756], [28.653734, 60.991679], [28.614563, 60.961939], [28.526403, 60.950234], [28.480928, 60.933465], [28.335924, 60.859387], [28.24394, 60.791588], [28.148132, 60.757714], [28.003782, 60.664226], [27.98101, 60.649477], [27.892953, 60.604261], [27.807872, 60.553046], [27.791189, 60.562201], [27.777599, 60.573676], [27.762055, 60.580146], [27.739513, 60.574164], [27.743175, 60.57095], [27.749522, 60.563137], [27.753184, 60.559882], [27.736176, 60.555569], [27.733409, 60.544257], [27.740571, 60.530585], [27.753184, 60.518948], [27.738129, 60.513332], [27.732677, 60.512112], [27.74643, 60.506496], [27.753184, 60.505845], [27.718435, 60.488471], [27.705414, 60.485419], [27.636485, 60.492255], [27.645763, 60.503567], [27.676606, 60.511176], [27.691661, 60.518948], [27.651703, 60.52265], [27.632172, 60.521674], [27.615977, 60.512112], [27.608246, 60.499945], [27.61085, 60.492133], [27.619314, 60.484076], [27.629649, 60.471137], [27.592459, 60.477362], [27.508474, 60.513861], [27.472667, 60.505845], [27.48227, 60.504299], [27.486339, 60.501939], [27.493175, 60.492255], [27.487071, 60.489447], [27.478282, 60.481676], [27.472667, 60.477973], [27.483572, 60.474433], [27.493012, 60.470201], [27.500743, 60.464748], [27.506684, 60.457465], [27.456798, 60.46369], [27.369314, 60.49787], [27.325206, 60.505845], [27.24879, 60.50788], [27.232432, 60.512112], [27.230805, 60.526313], [27.256602, 60.529446], [27.308116, 60.525784], [27.284923, 60.536526], [27.211925, 60.559882], [27.227712, 60.579576], [27.21461, 60.584947], [27.191742, 60.579739], [27.177745, 60.567328], [27.183849, 60.552191], [27.197032, 60.537055], [27.200694, 60.523261], [27.177745, 60.512112], [27.175792, 60.525133], [27.169688, 60.528632], [27.149913, 60.525784], [27.137706, 60.529039], [27.124034, 60.543524], [27.112559, 60.54682], [27.105642, 60.543606], [27.095714, 60.529202], [27.08839, 60.525784], [27.078949, 60.528632], [27.062836, 60.542914], [27.054373, 60.54682], [27.045177, 60.545803], [27.033376, 60.541815], [27.024425, 60.536078], [27.023936, 60.529486], [27.02711, 60.519924], [27.020763, 60.51435], [27.011729, 60.509467], [26.99822, 60.488023], [26.976899, 60.483547], [26.931407, 60.485419], [26.955577, 60.469306], [26.965343, 60.458482], [26.962413, 60.447211], [26.9546, 60.449408], [26.924327, 60.466986], [26.914724, 60.474555], [26.82309, 60.45775], [26.79363, 60.457465], [26.801036, 60.46369], [26.806488, 60.470526], [26.814708, 60.485419], [26.797048, 60.485907], [26.776541, 60.482856], [26.756847, 60.47663], [26.742442, 60.468004], [26.739024, 60.460883], [26.740977, 60.443671], [26.739024, 60.436957], [26.731944, 60.432929], [26.710623, 60.425849], [26.701427, 60.419908], [26.687348, 60.418158], [26.669281, 60.428412], [26.65089, 60.442084], [26.635916, 60.450629], [26.617035, 60.452948], [26.594412, 60.452297], [26.577159, 60.447333], [26.574474, 60.436957], [26.553396, 60.43301], [26.527354, 60.439887], [26.501964, 60.45307], [26.482677, 60.468004], [26.474864, 60.48725], [26.491466, 60.498114], [26.517263, 60.505805], [26.536632, 60.51553], [26.56365, 60.543362], [26.567638, 60.549954], [26.564464, 60.572577], [26.567393, 60.580959], [26.579845, 60.591376], [26.625011, 60.609605], [26.666677, 60.606431], [26.753184, 60.574164], [26.731781, 60.61286], [26.699229, 60.640204], [26.65919, 60.651801], [26.615489, 60.643052], [26.591807, 60.628567], [26.553302, 60.59177], [26.465831, 60.508124], [26.456228, 60.474555], [26.485688, 60.443793], [26.469412, 60.427476], [26.460704, 60.420885], [26.451508, 60.41649], [26.42335, 60.416327], [26.416352, 60.411933], [26.424164, 60.395982], [26.412852, 60.398017]]], [[[26.507172, 60.403469], [26.513438, 60.411282], [26.560883, 60.416815], [26.574718, 60.42178], [26.58074, 60.427395], [26.580251, 60.434638], [26.584972, 60.441067], [26.593435, 60.44595], [26.602061, 60.446519], [26.644054, 60.431871], [26.652599, 60.426907], [26.649669, 60.421536], [26.636485, 60.414862], [26.57309, 60.405341], [26.55893, 60.397406], [26.548595, 60.378363], [26.538341, 60.378079], [26.526134, 60.385159], [26.507172, 60.403469]]], [[[25.81422, 60.207668], [25.822032, 60.216295], [25.840587, 60.218817], [25.876231, 60.217231], [25.863129, 60.20425], [25.852061, 60.199774], [25.835623, 60.196031], [25.820649, 60.197211], [25.81422, 60.207668]]], [[[25.659923, 60.234442], [25.643728, 60.228095], [25.6338, 60.218329], [25.635997, 60.20425], [25.611583, 60.211249], [25.603363, 60.215399], [25.608165, 60.222398], [25.622325, 60.238349], [25.592052, 60.24258], [25.57016, 60.258043], [25.564464, 60.278266], [25.581716, 60.296373], [25.598318, 60.290717], [25.684418, 60.245185], [25.677013, 60.238349], [25.659923, 60.234442]]], [[[23.894216, 59.949693], [23.886078, 59.947984], [23.870779, 59.946723], [23.856212, 59.953315], [23.850434, 59.952582], [23.847423, 59.954657], [23.854015, 59.962877], [23.870291, 59.972805], [23.892263, 59.976508], [23.915212, 59.973456], [23.923513, 59.969306], [23.920095, 59.96776], [23.920421, 59.959418], [23.908702, 59.953803], [23.896007, 59.954291], [23.895681, 59.951239], [23.894216, 59.949693]]]]}, "properties": {"name": "Уусимаа, Кюменлааксо, Южная Карелия", "source": "Natural Earth admin-1; OpenHistoricalMap (CC0) relation 2809714; OpenStreetMap (ODbL) relations 1014347, 1203043, 2777169; нарезка 22.09.2026"}}]}