{"type": "FeatureCollection", "features": [{"type": "Feature", "geometry": {"type": "Polygon", "coordinates": [[[26.8883508, 60.4863218], [26.8725579, 60.5160753], [26.8663781, 60.5326308], [26.847152, 60.5549166], [26.8299859, 60.5660537], [26.8121331, 60.5728016], [26.7791741, 60.5825836], [26.7709344, 60.5933741], [26.7867272, 60.6065201], [26.7771142, 60.6193239], [26.7558282, 60.6253871], [26.7496484, 60.6307756], [26.7482751, 60.6432332], [26.7420953, 60.6526573], [26.7414086, 60.6671247], [26.7523949, 60.6751967], [26.7681878, 60.6772144], [26.7887872, 60.6721699], [26.80458, 60.6630879], [26.8135064, 60.6536669], [26.8272393, 60.6486187], [26.8416589, 60.6513112], [26.8402856, 60.6620787], [26.8306725, 60.6721699], [26.8341058, 60.6812494], [26.825866, 60.6933513], [26.8155663, 60.6990646], [26.8114465, 60.7111598], [26.8148797, 60.7256009], [26.8086999, 60.7326512], [26.792907, 60.7410424], [26.7798608, 60.7568119], [26.7729943, 60.769556], [26.7702477, 60.7849763], [26.7681878, 60.7936889], [26.7558282, 60.8003892], [26.7366021, 60.8151251], [26.7235558, 60.8291848], [26.6905968, 60.8419001], [26.6679375, 60.8445764], [26.6555779, 60.8429037], [26.6281121, 60.8489249], [26.6013329, 60.8582888], [26.6006463, 60.8679842], [26.6130059, 60.88035], [26.6123193, 60.8910409], [26.6157525, 60.9007264], [26.6294854, 60.9074043], [26.6432183, 60.9077382], [26.6517942, 60.9049582], [26.6638177, 60.9010603], [26.684417, 60.8990567], [26.6878503, 60.9080721], [26.6775506, 60.920756], [26.6610711, 60.9297653], [26.6370385, 60.9304325], [26.6061395, 60.9314334], [26.5944665, 60.9424406], [26.5972131, 60.9521105], [26.5910332, 60.9641105], [26.575927, 60.9777715], [26.5635674, 60.9907608], [26.5422814, 61.0040775], [26.5264886, 61.0163906], [26.5292352, 61.0270359], [26.5525811, 61.038675], [26.5924065, 61.0572888], [26.6329186, 61.0748954], [26.6830437, 61.0908325], [26.729049, 61.1027801], [26.7565148, 61.1110744], [26.8272393, 61.1246723], [26.9096368, 61.1356127], [26.9604485, 61.1392587], [27.0318597, 61.1352812], [27.0792382, 61.1346183], [27.1417229, 61.1385958], [27.1794884, 61.1425728], [27.2179406, 61.1548321], [27.2886651, 61.170729], [27.3415368, 61.185956], [27.3731225, 61.204814], [27.3793023, 61.2229996], [27.4081414, 61.251084], [27.4514001, 61.26066], [27.5228112, 61.262971], [27.5550835, 61.2626409], [27.6058953, 61.253726], [27.6505273, 61.2642915], [27.6670068, 61.2887108], [27.6930993, 61.3091556], [27.7473443, 61.3388098], [27.809829, 61.3572472], [27.8688805, 61.3635002], [27.9382317, 61.3671198], [27.9711907, 61.3871847], [27.9856103, 61.4121655], [28.0329888, 61.4459892], [28.0611413, 61.4545215], [28.1071465, 61.4732186], [28.1304925, 61.4928876], [28.1744378, 61.5243322], [28.1874841, 61.5217131], [28.21083, 61.5217131], [28.2183831, 61.539061], [28.2293694, 61.5609775], [28.2540887, 61.5796107], [28.2911675, 61.5982327], [28.3481591, 61.6057437], [28.4504693, 61.6109676], [28.5177605, 61.6168435], [28.5417931, 61.6279394], [28.5562127, 61.6494671], [28.5383599, 61.6748896], [28.5260003, 61.7002912], [28.515014, 61.7380292], [28.5507195, 61.7575308], [28.5946648, 61.7659777], [28.596971848081264, 61.766523310364256], [28.5986807, 61.7742064], [28.5963622, 61.7773228], [28.5924945, 61.7826704], [28.5846624, 61.7934229], [28.5868511, 61.7941632], [28.588396, 61.795938], [28.5884604, 61.7970636], [28.5891256, 61.7988585], [28.5896406, 61.8001564], [28.5938463, 61.8045061], [28.5893831, 61.8058646], [28.585864, 61.8055604], [28.5842976, 61.8061282], [28.5834608, 61.807365], [28.5806069, 61.80774], [28.575441, 61.8102018], [28.5702429, 61.8108115], [28.5674104, 61.8152103], [28.5640201, 61.8160109], [28.5630331, 61.816923], [28.5557589, 61.8186864], [28.557497, 61.8198618], [28.5550508, 61.8238845], [28.548356, 61.8229827], [28.5470686, 61.8206522], [28.5388717, 61.8214122], [28.5364685, 61.8221316], [28.536211, 61.8226078], [28.5330352, 61.8234691], [28.5274992, 61.8229827], [28.5255036, 61.8258196], [28.5074792, 61.8305506], [28.5054224, 61.8339737], [28.5028014, 61.8386938], [28.4964499, 61.8371545], [28.4918794, 61.8409926], [28.4932527, 61.8445062], [28.4863434, 61.8464704], [28.4848413, 61.8516841], [28.4837684, 61.8522307], [28.4739837, 61.8494469], [28.4723959, 61.8500948], [28.4714088, 61.850034], [28.4674973, 61.8518287], [28.4645424, 61.8538503], [28.4668383, 61.854407], [28.4678898, 61.8542349], [28.4688124, 61.8545791], [28.4691558, 61.8548018], [28.4697137, 61.8548018], [28.4702716, 61.8548321], [28.4704218, 61.8548018], [28.471559, 61.8552167], [28.4717951, 61.8552471], [28.4723744, 61.8552572], [28.4724817, 61.8554293], [28.4727606, 61.8555002], [28.4729323, 61.85549], [28.4739194, 61.8557633], [28.4749493, 61.8558848], [28.4752283, 61.8559151], [28.4757862, 61.8559151], [28.4761724, 61.8559657], [28.4764299, 61.855986], [28.4764739, 61.8560664], [28.4760898, 61.8561171], [28.4757476, 61.8561869], [28.4753356, 61.8562491], [28.4660412, 61.8579161], [28.4594483, 61.8590688], [28.4557447, 61.8614713], [28.4714303, 61.8655795], [28.4619245, 61.8674311], [28.4410891, 61.8711137], [28.4360059, 61.8720189], [28.4232514, 61.8742663], [28.4139065, 61.8779293], [28.416314, 61.8813442], [28.4173999, 61.882988], [28.4192238, 61.8835442], [28.4204468, 61.884525], [28.4205112, 61.8848385], [28.4204898, 61.8850812], [28.4206185, 61.8852531], [28.417593, 61.8868001], [28.4142885, 61.888428], [28.420484, 61.8935249], [28.4254046, 61.8975459], [28.4222493, 61.8986077], [28.4220991, 61.898729], [28.421863, 61.8992344], [28.4210262, 61.899669], [28.4200821, 61.8998408], [28.4197817, 61.8999823], [28.4194383, 61.9002046], [28.4192023, 61.900811], [28.4189877, 61.9010536], [28.4176606, 61.9013552], [28.4164343, 61.9012153], [28.4149108, 61.901377], [28.4146104, 61.9015084], [28.4139666, 61.901569], [28.4133229, 61.9021147], [28.4099616, 61.9033456], [28.4076795, 61.9042369], [28.4051904, 61.9050959], [28.4049973, 61.9052172], [28.4040103, 61.905399], [28.4033236, 61.9055708], [28.4017572, 61.9058336], [28.3986244, 61.9066419], [28.3982382, 61.9066925], [28.3993325, 61.9075817], [28.3943758, 61.9126536], [28.3967576, 61.9142094], [28.3957276, 61.9155428], [28.3908567, 61.9170277], [28.381823, 61.920065], [28.370193, 61.924681], [28.3773131, 61.9294768], [28.3803112, 61.9300928], [28.3812191, 61.9298643], [28.3861173, 61.927758], [28.3915414, 61.9260391], [28.3973489, 61.9227227], [28.4037538, 61.9208554], [28.4099867, 61.922988], [28.4130099, 61.9225383], [28.4369472, 61.9113369], [28.4800361, 61.9259642], [28.4791948, 61.9278516], [28.4951592, 61.9322152], [28.5000165, 61.9332688], [28.5094516, 61.9298273], [28.5178903, 61.9307711], [28.5187008, 61.9307581], [28.5191504, 61.9307874], [28.5196207, 61.9307158], [28.5196899, 61.9306605], [28.5197383, 61.9305108], [28.5198421, 61.9304261], [28.5201187, 61.9302959], [28.5204992, 61.9299379], [28.5212381, 61.9297101], [28.5228844, 61.9294172], [28.5296346, 61.9263266], [28.5307759, 61.9264307], [28.5306187, 61.9266114], [28.530349, 61.926735], [28.5298025, 61.9268978], [28.5295397, 61.927054], [28.5293806, 61.9270606], [28.5293183, 61.9271875], [28.5293944, 61.9272526], [28.5297057, 61.9273535], [28.5296365, 61.9275195], [28.5293944, 61.9276562], [28.5288756, 61.9277083], [28.5293649, 61.9280257], [28.5250971, 61.9310853], [28.5318826, 61.9335847], [28.5328049, 61.9348762], [28.5338214, 61.9362996], [28.533937, 61.9364615], [28.534552, 61.9366451], [28.5357991, 61.9370175], [28.5359147, 61.937052], [28.5361573, 61.9371221], [28.5365326, 61.9374883], [28.5366857, 61.9376377], [28.537302, 61.9382391], [28.5376445, 61.9385733], [28.5405623, 61.9400064], [28.5421069, 61.9407651], [28.5391527, 61.9418832], [28.5408177, 61.9433614], [28.5404857, 61.9436933], [28.5377189, 61.9447083], [28.5378434, 61.9449165], [28.5401813, 61.9462503], [28.5501593, 61.9429884], [28.5509712, 61.9432921], [28.5532113, 61.9434761], [28.5541499, 61.9432037], [28.5544211, 61.943125], [28.5556127, 61.9427791], [28.5562957, 61.9425809], [28.559333, 61.9437587], [28.558888, 61.9439589], [28.5585113, 61.9444285], [28.5568651, 61.944884], [28.5567439, 61.9449391], [28.5547485, 61.9458469], [28.5536279, 61.9462438], [28.5525627, 61.9463804], [28.5486892, 61.9476491], [28.5483295, 61.9474018], [28.5439761, 61.949105], [28.5486346, 61.9515555], [28.5578049, 61.9479932], [28.558793, 61.9481295], [28.5603107, 61.947572], [28.5610982, 61.9472827], [28.5621449, 61.9467353], [28.5635242, 61.9465674], [28.5641942, 61.9467307], [28.5657105, 61.9466617], [28.5660924, 61.9468154], [28.5698875, 61.948343], [28.5738993, 61.9470093], [28.578755, 61.9445044], [28.5802768, 61.9452396], [28.5810653, 61.9459163], [28.5813281, 61.9463066], [28.580927, 61.9468922], [28.5811898, 61.9473736], [28.5820752, 61.9480827], [28.5942214, 61.94954], [28.5949408, 61.9494034], [28.596919, 61.9486227], [28.5996858, 61.9472045], [28.6009862, 61.9469833], [28.6022727, 61.9457536], [28.6041542, 61.9459358], [28.6088024, 61.9455194], [28.6238956, 61.945231], [28.6239146, 61.9451161], [28.6247416, 61.9401085], [28.6252842, 61.9400672], [28.6256391, 61.9399717], [28.6270463, 61.9392979], [28.6274266, 61.9388984], [28.6273727, 61.938797], [28.6274171, 61.9386539], [28.6275153, 61.9383363], [28.6277689, 61.9379621], [28.6278956, 61.9379144], [28.6280985, 61.9370377], [28.6292774, 61.9362922], [28.6293154, 61.936167], [28.6300127, 61.9356839], [28.6303549, 61.9356124], [28.6313437, 61.9350935], [28.6320663, 61.9348609], [28.6323706, 61.9346521], [28.6327255, 61.9340318], [28.6327382, 61.9338887], [28.6325861, 61.9338231], [28.6322185, 61.9337933], [28.6319015, 61.9339126], [28.63161, 61.9339185], [28.630862, 61.93368], [28.6307479, 61.9335368], [28.6304817, 61.9332863], [28.6303423, 61.9331789], [28.629645, 61.9330179], [28.6290383, 61.9327483], [28.6289698, 61.9326755], [28.6297558, 61.9324424], [28.6330042, 61.9319742], [28.6338155, 61.9315627], [28.6361227, 61.9312286], [28.6378721, 61.9311272], [28.6411808, 61.9300237], [28.6551634, 61.9289977], [28.657927, 61.9283236], [28.6615097, 61.9289859], [28.6618315, 61.9290454], [28.662123, 61.9290693], [28.6623332, 61.9290446], [28.6625917, 61.9290141], [28.6627315, 61.9289977], [28.6627569, 61.929111], [28.662945, 61.929227], [28.6631245, 61.9293377], [28.6646584, 61.9297433], [28.6651782, 61.9278464], [28.6659388, 61.9276197], [28.6738872, 61.9274884], [28.6773227, 61.9310139], [28.6676375, 61.9338531], [28.6662811, 61.9343183], [28.6653556, 61.9345032], [28.6642528, 61.9346165], [28.6638781, 61.9348357], [28.6638561, 61.9349033], [28.663733, 61.9349922], [28.6634845, 61.9350774], [28.6632359, 61.9351626], [28.6627388, 61.935333], [28.6648878, 61.9377023], [28.6718602, 61.9453879], [28.6757633, 61.9502851], [28.6758307, 61.9505117], [28.674135, 61.9511505], [28.6740772, 61.9518028], [28.6810045, 61.9528448], [28.6825364, 61.952727], [28.6849258, 61.954231], [28.6897238, 61.9530215], [28.6932983, 61.9542718], [28.6983757, 61.9550826], [28.700293, 61.9548652], [28.7043892, 61.9561498], [28.7075852, 61.9559447], [28.7095689, 61.954983], [28.7198357, 61.9581203], [28.727348, 61.9616518], [28.7388173, 61.9711928], [28.6931124, 61.9776866], [28.6730412, 61.9691986], [28.6562962, 61.9789259], [28.6564682, 61.9879498], [28.679292, 61.9942514], [28.6813564, 62.0131487], [28.657099, 62.01366], [28.6277851, 62.0182967], [28.6526908, 62.0297127], [28.6334229, 62.0530145], [28.6129495, 62.0556689], [28.6248408, 62.0763713], [28.6123899, 62.0849426], [28.5998792, 62.0870038], [28.5933127, 62.1022778], [28.5865383, 62.1023862], [28.5609903, 62.1087663], [28.5376893, 62.1197974], [28.5137765, 62.1262271], [28.5033655, 62.1211457], [28.419858, 62.118054], [28.4017843, 62.1338678], [28.3895219, 62.1445922], [28.4121794, 62.1564947], [28.385305, 62.1621103], [28.3909542, 62.1916398], [28.4027263, 62.1921563], [28.4066918, 62.1936319], [28.4058896, 62.1958453], [28.4118887, 62.1955608], [28.4058728, 62.1999079], [28.4107299, 62.2038868], [28.3890148, 62.2144416], [28.4470038, 62.2069328], [28.4707841, 62.2012483], [28.5045281, 62.2015358], [28.5182877, 62.1895214], [28.5186635, 62.1893731], [28.5187425, 62.1892625], [28.5185984, 62.18925], [28.5235534, 62.1849222], [28.5406806, 62.1897929], [28.5534695, 62.1850698], [28.5624914, 62.1703828], [28.5801782, 62.167608], [28.5854987, 62.1654073], [28.5840288, 62.1616547], [28.6161906, 62.1410322], [28.6235376, 62.142702], [28.6129796, 62.1579791], [28.6316109, 62.1564855], [28.6366431, 62.149268], [28.646643, 62.1445654], [28.6418815, 62.1421678], [28.6419971, 62.1411525], [28.6447014, 62.1390246], [28.6546404, 62.1358919], [28.6587806, 62.1341923], [28.6633774, 62.1323052], [28.6678846, 62.128826], [28.6851045, 62.1248278], [28.6907029, 62.1199153], [28.7204533, 62.1334986], [28.7411102, 62.1262609], [28.7434858, 62.1275301], [28.7498205, 62.1265782], [28.7549109, 62.1232144], [28.7636439, 62.1191732], [28.7698319, 62.1102827], [28.7792086, 62.1012092], [28.7695628, 62.0974869], [28.7661805, 62.09309], [28.7739574, 62.0881954], [28.7795127, 62.0835635], [28.8369885, 62.0659215], [28.8317061, 62.0569641], [28.8312363, 62.0564938], [28.8258754, 62.0575446], [28.8252774, 62.0565938], [28.8245512, 62.0559833], [28.8250638, 62.0555329], [28.8234833, 62.0543018], [28.8179185, 62.0542567], [28.8136743, 62.0556701], [28.812317, 62.0564172], [28.7969068, 62.0587359], [28.7907416, 62.0605869], [28.7845692, 62.0621079], [28.7837362, 62.0628884], [28.7829673, 62.0628584], [28.7820276, 62.0630485], [28.7752571, 62.0582752], [28.7729932, 62.0573945], [28.7710069, 62.0579049], [28.7541911, 62.0517723], [28.7461548, 62.0530902], [28.7307718, 62.0563081], [28.7259464, 62.0536478], [28.7388772, 62.0494165], [28.7461003, 62.0476942], [28.7459276, 62.0475029], [28.7542343, 62.0456701], [28.757626, 62.0441611], [28.7593219, 62.0442052], [28.7647781, 62.0425525], [28.7540344, 62.0353486], [28.7856873, 62.0322512], [28.7841106, 62.0279133], [28.7851099, 62.0241113], [28.7830225, 62.0235019], [28.7834889, 62.0225226], [28.7889945, 62.0197527], [28.7927027, 62.0223284], [28.7941788, 62.0244057], [28.7989602, 62.02568], [28.8097478, 62.0297787], [28.8232835, 62.0284972], [28.8258351, 62.0288434], [28.8310955, 62.0317966], [28.8443925, 62.0279823], [28.8710679, 62.0223944], [28.8727756, 62.0168617], [28.8840427, 62.0123691], [28.8760715, 62.0111401], [28.8711432, 62.0131154], [28.8643835, 62.0092423], [28.8787278, 62.0021863], [28.882412, 62.0023581], [28.9048465, 61.9970958], [28.9088896, 61.9969606], [28.914027, 61.9965658], [28.9156972, 61.9961223], [28.9164459, 61.9965549], [28.9187151, 61.9972093], [28.9252002, 61.9982747], [28.9210649, 61.9995672], [28.9243017, 62.0010327], [28.9252462, 62.0018601], [28.9298077, 62.0012652], [28.931259, 62.002882], [28.9225965, 62.0065806], [28.9222056, 62.006443], [28.9217332, 62.0064888], [28.9200513, 62.0071751], [28.9260101, 62.0078673], [28.9304758, 62.0083861], [28.9277442, 62.0094019], [28.9274347, 62.0100899], [28.925659, 62.0116801], [28.9272066, 62.0126815], [28.9259848, 62.0138129], [28.9356285, 62.0157086], [28.9403526, 62.0150894], [28.9405481, 62.0147378], [28.9443762, 62.0137747], [28.9483021, 62.0156092], [28.9508433, 62.0151124], [28.9562353, 62.015892], [28.9603241, 62.0148525], [28.9671952, 62.0114563], [28.9606295, 62.0080613], [28.9709988, 62.0049348], [28.9749367, 62.0034942], [28.9780431, 62.0014417], [28.9787151, 62.0009977], [28.9972477, 62.0109815], [28.9899739, 62.0131842], [28.9950839, 62.0142855], [28.9926716, 62.0155888], [28.9922721, 62.0158886], [28.9922784, 62.0160436], [28.9922844, 62.0162728], [28.9924638, 62.0164902], [28.9927254, 62.0166079], [28.9941033, 62.0169988], [28.9944868, 62.0171817], [28.9946292, 62.0174256], [28.994244, 62.0177406], [28.9926537, 62.0181125], [28.9915052, 62.0195338], [28.9941851, 62.019034], [28.9977138, 62.0213221], [29.0001106, 62.0223684], [28.9982131, 62.0236959], [29.0029692, 62.0263948], [29.0144421, 62.0227279], [29.0232693, 62.0206404], [29.036842, 62.024064], [29.0646516, 62.016861], [29.0665373, 62.0175288], [29.06725, 62.01725], [29.06775, 62.01675], [29.068, 62.0165], [29.07175, 62.015], [29.07225, 62.015], [29.074, 62.01475], [29.076, 62.01375], [29.07525, 62.01325], [29.07675, 62.01175], [29.075574, 62.0109621], [29.0767836, 62.0104222], [29.0782029, 62.0095658], [29.079906, 62.0082336], [29.0807979, 62.0072189], [29.0824126, 62.0068632], [29.0954573, 62.0187798], [29.0948203, 62.0191295], [29.09425, 62.02125], [29.0936961, 62.0216602], [29.0905931, 62.0215422], [29.0898954, 62.0217277], [29.089232, 62.0219186], [29.0905, 62.0225], [29.09075, 62.02275], [29.0946028, 62.0222546], [29.0964764, 62.0206929], [29.1025213, 62.0254214], [29.096166, 62.0272101], [29.0946585, 62.0293244], [29.0905793, 62.0307454], [29.0894709, 62.0326238], [29.0878008, 62.0335803], [29.0872244, 62.0363248], [29.0910878, 62.0387406], [29.0914088, 62.0390531], [29.0913565, 62.0392491], [29.0917432, 62.0392883], [29.0919731, 62.0391903], [29.092224, 62.039352], [29.092224, 62.0395382], [29.0927988, 62.0395382], [29.0930078, 62.0396901], [29.0932795, 62.0397244], [29.093708, 62.0399449], [29.0942723, 62.0399253], [29.0955055, 62.0399498], [29.0959758, 62.0399302], [29.0961535, 62.0396362], [29.096561, 62.0394304], [29.0975255, 62.0392453], [29.0992698, 62.0388889], [29.0991811, 62.0393663], [29.0992846, 62.0397924], [29.0991072, 62.0398375], [29.099085, 62.0399345], [29.0985013, 62.0401008], [29.0985086, 62.0405235], [29.0986786, 62.0406621], [29.0985825, 62.040811], [29.0988412, 62.0410744], [29.0992476, 62.0413931], [29.0994102, 62.0418192], [29.0995063, 62.041989], [29.0997797, 62.0420826], [29.0996467, 62.0423632], [29.0993659, 62.0424983], [29.0986417, 62.0426195], [29.09825, 62.0428248], [29.0920269, 62.0451559], [29.0917461, 62.0465554], [29.0939335, 62.0472621], [29.0900317, 62.0492711], [29.0885389, 62.0524714], [29.0851248, 62.0537597], [29.0843858, 62.0543207], [29.0800111, 62.057562], [29.0794051, 62.0607822], [29.0840903, 62.0607961], [29.0849747, 62.0609252], [29.0863939, 62.0616092], [29.0881376, 62.0617232], [29.0893541, 62.0610582], [29.0913005, 62.0604693], [29.0935307, 62.0602413], [29.0993699, 62.0591963], [29.1009108, 62.0581703], [29.1145355, 62.0556431], [29.1322964, 62.0640979], [29.1151908, 62.0688853], [29.1227884, 62.0738566], [29.1151604, 62.076603], [29.1258693, 62.0976019], [29.1252171, 62.0976534], [29.1191174, 62.1005295], [29.1184803, 62.1008539], [29.1184492, 62.1009084], [29.1186044, 62.1009701], [29.1185967, 62.1010427], [29.1182397, 62.101188], [29.1179759, 62.1012243], [29.117681, 62.1011626], [29.1174559, 62.1011626], [29.1172852, 62.1011989], [29.117161, 62.1013223], [29.1169748, 62.1013659], [29.1167187, 62.1013732], [29.1163617, 62.1014821], [29.1159504, 62.1015874], [29.1156244, 62.1015911], [29.1148639, 62.1015402], [29.1146932, 62.1015656], [29.1145147, 62.1016782], [29.1142897, 62.1017653], [29.1137231, 62.1019033], [29.1135291, 62.1019324], [29.1131722, 62.1019106], [29.1126367, 62.1019396], [29.1117287, 62.1021575], [29.1111389, 62.1023027], [29.1107043, 62.1022955], [29.1105336, 62.1022519], [29.110456, 62.1021575], [29.1103241, 62.1021176], [29.1097964, 62.1020159], [29.1095713, 62.1018852], [29.109323, 62.1016528], [29.1088807, 62.1013115], [29.1085159, 62.1011081], [29.1080348, 62.1008757], [29.1076855, 62.1008176], [29.1074527, 62.1008031], [29.1072354, 62.100843], [29.1065137, 62.1011517], [29.106343, 62.1011735], [29.1060869, 62.1011662], [29.1056523, 62.1012788], [29.1053885, 62.1014385], [29.1047521, 62.1016383], [29.1045348, 62.1016891], [29.1040149, 62.1016964], [29.1034173, 62.1017653], [29.1029129, 62.101838], [29.1023541, 62.1019723], [29.101777, 62.1020907], [29.0958864, 62.1009053], [29.0945627, 62.1006179], [29.0943764, 62.1005961], [29.094198, 62.1005779], [29.0939884, 62.1004981], [29.0937711, 62.1003092], [29.093515, 62.1002221], [29.0932822, 62.100193], [29.0923199, 62.1001749], [29.0918233, 62.1001495], [29.0912102, 62.1000441], [29.0902231, 62.0999651], [29.0897018, 62.0996673], [29.0896414, 62.0995261], [29.0896743, 62.0993925], [29.0905428, 62.0983047], [29.0905894, 62.0981449], [29.0910627, 62.097898], [29.0912626, 62.0976076], [29.0756376, 62.099281], [29.0753742, 62.0996571], [29.0749219, 62.0997664], [29.074521, 62.0997329], [29.0745535, 62.1002915], [29.074601, 62.1005141], [29.0742205, 62.1011596], [29.0741253, 62.1012486], [29.0739826, 62.1019683], [29.0737606, 62.102317], [29.073824, 62.1025619], [29.0741412, 62.1030219], [29.0742205, 62.1034225], [29.0745217, 62.1039492], [29.0747913, 62.1042386], [29.0754732, 62.1045798], [29.0765038, 62.1049285], [29.0774077, 62.1054478], [29.0776455, 62.1058633], [29.0782005, 62.10639], [29.078885, 62.1068073], [29.0820021, 62.1085173], [29.0816573, 62.1099209], [29.0846701, 62.1119606], [29.0853882, 62.1123041], [29.0863749, 62.1127971], [29.0868458, 62.1134788], [29.0872046, 62.1142759], [29.0872719, 62.1147899], [29.0870701, 62.1153772], [29.0867561, 62.1157023], [29.0861731, 62.1161218], [29.0861282, 62.1165309], [29.0864198, 62.1170238], [29.0869355, 62.1172335], [29.0885725, 62.1175586], [29.0896041, 62.1183766], [29.090815, 62.1187332], [29.0916672, 62.1193833], [29.0929678, 62.1207361], [29.095761, 62.1262871], [29.0903273, 62.1289221], [29.0786895, 62.1364658], [29.0432895, 62.1482704], [29.0286915, 62.1547108], [29.016619, 62.1561798], [29.0139188, 62.1574244], [29.0180884, 62.1660182], [29.0136076, 62.1721806], [29.0147225, 62.173202], [29.0142426, 62.1743549], [29.0156964, 62.1752509], [29.0184909, 62.1748886], [29.0193518, 62.1756396], [29.0237836, 62.1766212], [29.0247574, 62.1785117], [29.0197188, 62.1829314], [29.0159645, 62.1829841], [29.0066071, 62.1841564], [28.9953301, 62.1874624], [28.9937493, 62.1881143], [28.9910677, 62.1885621], [28.9912894, 62.1979649], [28.9870531, 62.1989785], [28.9782731, 62.1995415], [28.9755602, 62.2001543], [28.9743437, 62.2002906], [28.9697346, 62.2008212], [28.9676933, 62.2024283], [28.9565427, 62.2065942], [28.9456117, 62.2011795], [28.9116394, 62.2027607], [28.9109884, 62.2073874], [28.9106688, 62.2122242], [28.8964301, 62.2195469], [28.9003327, 62.2225124], [28.8991732, 62.2251811], [28.8977734, 62.2277177], [28.8985652, 62.2281723], [28.9059041, 62.2271757], [28.9128463, 62.2251811], [28.9132422, 62.2280208], [28.9144598, 62.2297942], [28.9144441, 62.2297601], [28.9156742, 62.2322766], [28.9194199, 62.2457952], [28.9196899, 62.2467525], [28.9209625, 62.2490108], [28.9242078, 62.2523387], [28.9234205, 62.2533414], [28.9278462, 62.2537627], [28.9285108, 62.2543486], [28.9288643, 62.2545], [28.9297551, 62.2556585], [28.9301085, 62.256659], [28.9302217, 62.2596011], [28.9308014, 62.2605883], [28.9320174, 62.261207], [28.9397094, 62.2700639], [28.9453794, 62.2729323], [28.9461571, 62.2742283], [28.9473165, 62.2752413], [28.9508797, 62.2768266], [28.939737, 62.2851684], [28.9350581, 62.2860141], [28.9477499, 62.2922853], [28.9547644, 62.2890605], [28.9550188, 62.2890705], [28.955248, 62.2888897], [28.9576313, 62.2886075], [28.9570361, 62.2884045], [28.956635, 62.2883959], [28.9562882, 62.2881977], [28.9614752, 62.2857282], [28.9630517, 62.2863611], [28.9644075, 62.286462], [28.9662376, 62.2875154], [28.9680565, 62.2883486], [28.9691334, 62.28844], [28.9696906, 62.2887221], [28.9704875, 62.2887316], [28.9719177, 62.2883611], [28.9725962, 62.288269], [28.9733822, 62.288478], [28.9732054, 62.2886344], [28.9734865, 62.2887511], [28.9734495, 62.2889618], [28.9724815, 62.2893649], [28.9726405, 62.2899628], [28.9718643, 62.2903978], [28.972051, 62.2906059], [28.9498593, 62.2999559], [28.9351574, 62.2954251], [28.9334743, 62.296352], [28.9600568, 62.3094901], [28.9852891, 62.3106359], [29.0090878, 62.3303486], [29.0112096, 62.3298426], [29.0141916, 62.3298692], [29.0161987, 62.3296296], [29.040928, 62.3211768], [29.0619948, 62.3299026], [29.0582993, 62.330698], [29.059702, 62.3329275], [29.0894544, 62.3429897], [29.0983828, 62.3392645], [29.1076215, 62.3368664], [29.1139096, 62.3288889], [29.1181696, 62.3283494], [29.1225184, 62.3262739], [29.1361193, 62.3291295], [29.1407301, 62.3292096], [29.1446215, 62.3308293], [29.157872, 62.3312444], [29.1688541, 62.3320262], [29.1569261, 62.3407325], [29.1694404, 62.3525897], [29.1594775, 62.3558409], [29.1617036, 62.3595658], [29.1642947, 62.3594473], [29.1677252, 62.3599552], [29.1725059, 62.3622915], [29.1814834, 62.3617836], [29.1836731, 62.3628671], [29.1816891, 62.3695921], [29.1796855, 62.3710942], [29.1788031, 62.3718019], [29.1781147, 62.3722615], [29.1775989, 62.3726058], [29.1777857, 62.3730439], [29.1762518, 62.3735912], [29.1659977, 62.3847054], [29.1664472, 62.3863364], [29.1695531, 62.3903789], [29.1662769, 62.3930939], [29.1607866, 62.3979575], [29.1624445, 62.3990127], [29.1633136, 62.4002101], [29.1634101, 62.4002802], [29.1635711, 62.4004144], [29.1637105, 62.4005735], [29.1638285, 62.4006928], [29.1640646, 62.4008121], [29.1643113, 62.4009761], [29.1643757, 62.4010904], [29.1645152, 62.4012395], [29.1645366, 62.4013936], [29.1643757, 62.4015229], [29.1643757, 62.4016372], [29.1644508, 62.4017366], [29.1646332, 62.4018211], [29.1648263, 62.4018509], [29.1652769, 62.4019404], [29.1654915, 62.4020348], [29.1656739, 62.4020596], [29.1658885, 62.4021392], [29.1662962, 62.4023181], [29.1665429, 62.4023628], [29.1668112, 62.4023728], [29.1669877, 62.402459], [29.1683084, 62.4030592], [29.1693131, 62.4045516], [29.1692595, 62.404651], [29.1692895, 62.4047733], [29.1695062, 62.4048449], [29.1696672, 62.4049791], [29.1699032, 62.4050685], [29.1701392, 62.4052474], [29.17015, 62.4053418], [29.1702251, 62.4053816], [29.1704504, 62.4053766], [29.1706328, 62.4054263], [29.170901, 62.4054611], [29.1712229, 62.4055705], [29.1714052, 62.4056947], [29.1717164, 62.4058338], [29.1716949, 62.405978], [29.1717915, 62.4060277], [29.171931, 62.4060128], [29.1721134, 62.4060774], [29.1723279, 62.4061966], [29.1724996, 62.4062911], [29.1726047, 62.4062891], [29.1727678, 62.4062513], [29.1728751, 62.4063109], [29.1729395, 62.4064153], [29.1729395, 62.4065346], [29.1730253, 62.4066389], [29.1730146, 62.406793], [29.1730897, 62.406947], [29.1733021, 62.4070941], [29.1734952, 62.4071388], [29.1734845, 62.4072432], [29.1735918, 62.4072879], [29.1739673, 62.4073525], [29.1741819, 62.4074122], [29.1743771, 62.4073625], [29.1744646, 62.4073366], [29.174611, 62.4073277], [29.1747505, 62.4073525], [29.1749758, 62.4073525], [29.1750724, 62.4072382], [29.1752354, 62.4070514], [29.1755144, 62.4068725], [29.1757504, 62.4067333], [29.1759543, 62.4065843], [29.1761581, 62.4063855], [29.1762525, 62.4063238], [29.1764156, 62.4062761], [29.1764907, 62.4061917], [29.1766302, 62.406137], [29.1767268, 62.4060575], [29.1768555, 62.4058686], [29.177025, 62.4057871], [29.1770915, 62.4057295], [29.1774542, 62.4055585], [29.1775958, 62.4055406], [29.1777975, 62.405479], [29.1779498, 62.4052872], [29.1780893, 62.4052424], [29.1784648, 62.4052424], [29.178776, 62.4052872], [29.1791708, 62.40532], [29.1795999, 62.4053001], [29.1797931, 62.4052554], [29.180351, 62.4052206], [29.1806084, 62.4052703], [29.1808799, 62.4052591], [29.1811497, 62.4051691], [29.1815419, 62.4050914], [29.1818374, 62.4050218], [29.1821496, 62.4050014], [29.1823351, 62.4049996], [29.1825005, 62.4049917], [29.1832156, 62.404987], [29.1837413, 62.4049224], [29.1842777, 62.4048826], [29.1850416, 62.4047703], [29.1855244, 62.4047753], [29.1859884, 62.4048146], [29.1863484, 62.4048429], [29.1865544, 62.4047753], [29.1867153, 62.4047653], [29.1869084, 62.4046113], [29.1871874, 62.404492], [29.1875736, 62.4044373], [29.1878526, 62.4044672], [29.1882688, 62.4042912], [29.1883976, 62.4042863], [29.1889018, 62.4043111], [29.1892398, 62.404295], [29.1895563, 62.4042515], [29.1897923, 62.4041819], [29.1899962, 62.404003], [29.1902966, 62.403839], [29.190597, 62.4037743], [29.1908438, 62.4037545], [29.1911442, 62.4036749], [29.1914553, 62.4036153], [29.1917772, 62.403506], [29.192099, 62.4034513], [29.1923029, 62.4033867], [29.1927857, 62.4031432], [29.1929037, 62.4030835], [29.1930754, 62.4030785], [29.1935903, 62.4031382], [29.1938264, 62.4031382], [29.1940731, 62.4030984], [29.1943735, 62.4030636], [29.1947383, 62.4030388], [29.1951353, 62.4030189], [29.1952855, 62.4029593], [29.1954464, 62.4029145], [29.1959721, 62.4028847], [29.1961009, 62.4028151], [29.1963798, 62.4026511], [29.1966373, 62.4025964], [29.1968841, 62.4025567], [29.1970987, 62.4024871], [29.1974742, 62.4024324], [29.1977531, 62.4023728], [29.1981394, 62.4023678], [29.1983325, 62.402333], [29.1984612, 62.4022535], [29.1986114, 62.4022038], [29.1989762, 62.4021591], [29.1993195, 62.4020944], [29.1995341, 62.4020994], [29.199738, 62.4021591], [29.2000169, 62.402164], [29.2001349, 62.4022237], [29.2003817, 62.4022783], [29.2005963, 62.4023082], [29.2008001, 62.4023181], [29.2009825, 62.4023678], [29.2011971, 62.4024175], [29.2013366, 62.4025219], [29.2014117, 62.4026511], [29.2015082, 62.4026958], [29.2017121, 62.4027257], [29.2018837, 62.4027356], [29.2020876, 62.4027008], [29.2022378, 62.402671], [29.2023558, 62.4026909], [29.2024738, 62.4027455], [29.2028279, 62.4029195], [29.2029244, 62.4029742], [29.2030746, 62.4030139], [29.2031605, 62.4031034], [29.2033107, 62.4032028], [29.203536, 62.4032972], [29.2035574, 62.4033469], [29.2037205, 62.4034732], [29.2040102, 62.4036223], [29.2041904, 62.4036998], [29.2043943, 62.4037197], [29.2046625, 62.4037843], [29.2049414, 62.4038887], [29.2050916, 62.4039582], [29.2051131, 62.4040378], [29.2050595, 62.4040974], [29.2050809, 62.4041769], [29.2051882, 62.4041968], [29.2053599, 62.4042167], [29.2053921, 62.4042664], [29.2053921, 62.4043161], [29.205274, 62.4043658], [29.2053599, 62.4044254], [29.2053599, 62.4045646], [29.2054242, 62.404659], [29.2055423, 62.4047286], [29.2056817, 62.4047485], [29.2057783, 62.4048727], [29.2059178, 62.4050466], [29.2060894, 62.4052007], [29.2061323, 62.4053249], [29.2062718, 62.4054691], [29.2063362, 62.4055386], [29.2063898, 62.4056778], [29.2065186, 62.4057325], [29.2065937, 62.405802], [29.2066581, 62.4058965], [29.2067868, 62.4059611], [29.2069048, 62.4060406], [29.2069907, 62.406135], [29.2070872, 62.4062145], [29.2071945, 62.4062692], [29.2072052, 62.4063238], [29.2071409, 62.4064282], [29.2072374, 62.4066071], [29.2073125, 62.4066419], [29.2073876, 62.4067015], [29.2075271, 62.4067562], [29.2076451, 62.4068407], [29.2078704, 62.40695], [29.2078704, 62.4069798], [29.2079562, 62.4070146], [29.2080743, 62.4070395], [29.2082567, 62.4070246], [29.2083639, 62.4070395], [29.2084069, 62.4070892], [29.2085141, 62.4071637], [29.2087073, 62.4072084], [29.2088146, 62.4072631], [29.2088575, 62.4073227], [29.2090291, 62.4073873], [29.2090353, 62.4074133], [29.2090506, 62.4074768], [29.2090184, 62.4075513], [29.2089433, 62.4076109], [29.2089648, 62.4077551], [29.2090613, 62.4077749], [29.2092008, 62.4077948], [29.2093832, 62.4078346], [29.209469, 62.4077948], [29.2096407, 62.4078047], [29.2097909, 62.4078346], [29.209984, 62.4079091], [29.2100698, 62.4079836], [29.210102, 62.408083], [29.2100484, 62.4081427], [29.2100055, 62.4082197], [29.2099894, 62.4083066], [29.2100001, 62.408411], [29.2099947, 62.4084607], [29.2099625, 62.4085377], [29.2099679, 62.4086222], [29.2100055, 62.4087166], [29.2100376, 62.4087713], [29.2101557, 62.4088234], [29.2102195, 62.4088451], [29.2102737, 62.4088682], [29.2104491, 62.4088895], [29.2105263, 62.4089425], [29.2105741, 62.4090868], [29.2106921, 62.4091812], [29.2109174, 62.409221], [29.2110998, 62.4092806], [29.2113573, 62.4093204], [29.2116255, 62.4094048], [29.2117864, 62.4094843], [29.2118079, 62.4095638], [29.2118294, 62.4096334], [29.211883, 62.4096781], [29.2119581, 62.4097576], [29.212001, 62.409857], [29.2120976, 62.4100061], [29.212162, 62.4101005], [29.2123658, 62.4101551], [29.2126018, 62.4102247], [29.2127628, 62.4102297], [29.2129559, 62.4102247], [29.2132348, 62.4102148], [29.2134387, 62.4102893], [29.2136103, 62.4103788], [29.2137069, 62.4104781], [29.2137605, 62.4106024], [29.2138464, 62.4106719], [29.2139751, 62.4107067], [29.214179, 62.4107862], [29.2145008, 62.4108259], [29.2147047, 62.4108259], [29.214812, 62.4108905], [29.2147905, 62.41098], [29.2146832, 62.4110545], [29.214415, 62.4111539], [29.2143184, 62.4112384], [29.214297, 62.4113377], [29.2143828, 62.4113974], [29.2145652, 62.4114172], [29.2148383, 62.4114182], [29.2308085, 62.4177573], [29.2677127, 62.4076837], [29.2959491, 62.3867846], [29.2959619, 62.3867282], [29.3075177, 62.3343426], [29.320564, 62.3221085], [29.3512785, 62.292753], [29.3693437, 62.2758575], [29.3746609, 62.2687232], [29.3801991, 62.2636465], [29.3940071, 62.2503436], [29.430086, 62.2365203], [29.4249061, 62.2286853], [29.4154969, 62.2144202], [29.4072786, 62.201774], [29.4088021, 62.1984715], [29.4122568, 62.1909946], [29.4201157, 62.174051], [29.4271499, 62.1583739], [29.4300989, 62.1518926], [29.4371477, 62.1363126], [29.4448725, 62.1192139], [29.449679, 62.1084251], [29.4527045, 62.1018392], [29.4531444, 62.1008854], [29.4532624, 62.1006798], [29.4570282, 62.0921593], [29.4593671, 62.086906], [29.4595822, 62.082089], [29.4595088, 62.0811695], [29.4600645, 62.0808686], [29.4622746, 62.0797382], [29.463251, 62.0791856], [29.4648388, 62.0782763], [29.4687871, 62.076121], [29.4702998, 62.0737695], [29.4726494, 62.0704329], [29.473497, 62.0691666], [29.4753638, 62.066513], [29.4787327, 62.0617481], [29.4823268, 62.0567059], [29.4883312, 62.0523362], [29.4883296, 62.0521456], [29.4884155, 62.0520803], [29.4885657, 62.0520174], [29.4887105, 62.0519973], [29.4889251, 62.0520124], [29.4890699, 62.0520325], [29.4895259, 62.05203], [29.4897297, 62.0520149], [29.489837, 62.0519696], [29.4900462, 62.0519143], [29.4901696, 62.0518892], [29.4902984, 62.0518515], [29.4904164, 62.0518439], [29.4905398, 62.0518238], [29.4906874, 62.0517646], [29.4911513, 62.051673], [29.4914061, 62.0515998], [29.4916878, 62.0515221], [29.491736, 62.0514417], [29.491854, 62.0513788], [29.4920847, 62.0513612], [29.4923191, 62.0513641], [29.4924691, 62.0513293], [29.4926212, 62.0512254], [29.4927982, 62.0512129], [29.492943, 62.0512104], [29.4931396, 62.0511356], [29.493252, 62.0511378], [29.4933741, 62.051111], [29.4934151, 62.0509588], [29.4934958, 62.0509163], [29.493488, 62.0508581], [29.4933732, 62.0508228], [29.4935061, 62.0508112], [29.4935034, 62.050789], [29.4933646, 62.0507913], [29.4933103, 62.0507459], [29.4933164, 62.0507022], [29.4935222, 62.0506846], [29.4935195, 62.0506595], [29.4933291, 62.0506746], [29.4934095, 62.0506155], [29.4934658, 62.0504382], [29.4937877, 62.050227], [29.4940452, 62.0500359], [29.4942169, 62.0497543], [29.4943885, 62.0495733], [29.4949464, 62.0492716], [29.4969613, 62.0477001], [29.5004471, 62.0450944], [29.5093231, 62.0382969], [29.5140416, 62.0397432], [29.5177323, 62.0390188], [29.526766, 62.0371575], [29.5316063, 62.036181], [29.5359885, 62.035292], [29.5367492, 62.0360097], [29.5386883, 62.035652], [29.5445973, 62.0345514], [29.5484833, 62.0342219], [29.557238, 62.0333766], [29.5592122, 62.0332156], [29.5619802, 62.0326219], [29.5655851, 62.0317364], [29.5723442, 62.0301363], [29.5696041, 62.0278014], [29.5675706, 62.025841], [29.5664514, 62.0248241], [29.5710568, 62.022896], [29.5720127, 62.0224692], [29.573798, 62.0217109], [29.5742131, 62.0215336], [29.5778589, 62.0200003], [29.5789103, 62.019658], [29.5948909, 62.0131796], [29.6053461, 62.0052166], [29.6143026, 61.9983976], [29.6300793, 61.9910213], [29.6603776, 61.9768895], [29.6527461, 61.9699355], [29.6409605, 61.9591617], [29.6347281, 61.9534462], [29.6248887, 61.9440371], [29.6162413, 61.9357195], [29.6158089, 61.9287723], [29.6148567, 61.9133297], [29.6151558, 61.9131654], [29.6300879, 61.9077398], [29.6312954, 61.9028669], [29.6780184, 61.8754586], [29.6968164, 61.8644033], [29.6654131, 61.8550827], [29.6738776, 61.8495605], [29.6883707, 61.8376776], [29.6916478, 61.8308074], [29.691011, 61.8258903], [29.6901019, 61.822281], [29.6895621, 61.8202859], [29.6880864, 61.8172561], [29.6879388, 61.8169269], [29.687455, 61.8159256], [29.6848506, 61.8105193], [29.6818336, 61.8043898], [29.6800387, 61.8005823], [29.6787759, 61.7979416], [29.6777953, 61.7959225], [29.6774938, 61.7953105], [29.6769391, 61.7941485], [29.6758362, 61.791702], [29.6729195, 61.7894114], [29.6686629, 61.7860254], [29.6650902, 61.7830124], [29.6626478, 61.7809662], [29.6599993, 61.7788626], [29.6573343, 61.7766614], [29.653362, 61.7733826], [29.6432372, 61.7647619], [29.6383652, 61.7606236], [29.6270903, 61.7584016], [29.6246339, 61.7579414], [29.6207211, 61.7571245], [29.6203483, 61.7570577], [29.6173147, 61.756445], [29.614633, 61.7559118], [29.6059389, 61.7519209], [29.6035759, 61.7507918], [29.6003186, 61.7494735], [29.5978477, 61.7483362], [29.5926164, 61.7461372], [29.5906219, 61.7451829], [29.5892462, 61.7444931], [29.5878501, 61.7438626], [29.5858245, 61.742978], [29.5833499, 61.7418443], [29.5811386, 61.7408233], [29.5808441, 61.7407141], [29.5801006, 61.7403943], [29.5707108, 61.7360495], [29.570022, 61.7352105], [29.5665877, 61.7311546], [29.5661065, 61.7304349], [29.5631217, 61.7267857], [29.5592517, 61.7220668], [29.5490044, 61.6900641], [29.5384047, 61.6839132], [29.5044251, 61.6757412], [29.4587141, 61.6690849], [29.4042944, 61.6538957], [29.3923227, 61.6475191], [29.3813399, 61.6417945], [29.3581847, 61.6297345], [29.3424427, 61.6215283], [29.3266593, 61.6133225], [29.2952356, 61.5970093], [29.2952548, 61.5962348], [29.2880892, 61.5920904], [29.2857477, 61.5890648], [29.2808758, 61.5827683], [29.2732228, 61.5729655], [29.273001, 61.5726812], [29.272938, 61.5726004], [29.2701241, 61.5689928], [29.2678181, 61.5655205], [29.2631977, 61.5602061], [29.2615862, 61.5577772], [29.2484745, 61.5585207], [29.2309833, 61.5594905], [29.2203016, 61.5600648], [29.2173221, 61.5595769], [29.1999329, 61.5567282], [29.19413045865335, 61.55578066735799], [29.2401096, 61.5069771], [29.3307468, 61.4440209], [29.3939182, 61.4006647], [29.4009166, 61.3973084], [29.387812, 61.3893909], [29.3703411, 61.3783663], [29.3580247, 61.3706121], [29.3409028, 61.3593165], [29.3344345, 61.3550412], [29.3344099, 61.3550129], [29.3339348, 61.354184], [29.3338881, 61.3541848], [29.3338234, 61.3540952], [29.3336898, 61.3540588], [29.333626, 61.3539809], [29.333527, 61.3539332], [29.3336366, 61.3538217], [29.3335613, 61.3537404], [29.333564, 61.3537017], [29.3336417, 61.3536645], [29.3336431, 61.3536339], [29.33359, 61.3535989], [29.3335972, 61.3535691], [29.3334911, 61.3535512], [29.3330505, 61.3533118], [29.3328358, 61.3532167], [29.332739, 61.3531986], [29.33266, 61.3531667], [29.3325585, 61.3531603], [29.3323954, 61.3530805], [29.332349, 61.3530346], [29.3322578, 61.3530164], [29.3321784, 61.3529801], [29.3321108, 61.3529255], [29.3319834, 61.3528729], [29.3316862, 61.3528259], [29.3314597, 61.3527984], [29.3313933, 61.3528112], [29.3313124, 61.3527794], [29.3311429, 61.3527634], [29.3307354, 61.3527417], [29.3306218, 61.3527238], [29.330406, 61.3527392], [29.3302035, 61.3527328], [29.3300892, 61.35268], [29.3299992, 61.3526267], [29.3299594, 61.3525699], [29.3298352, 61.3525595], [29.3297635, 61.3525257], [29.3297338, 61.3524786], [29.3296767, 61.3524149], [29.3295594, 61.3523469], [29.3294858, 61.3523383], [29.3294415, 61.3522959], [29.3294479, 61.352206], [29.3293002, 61.3521816], [29.3292768, 61.3521442], [29.3293038, 61.3521043], [29.3290933, 61.3519651], [29.3289881, 61.3519085], [29.3288739, 61.3518566], [29.3287789, 61.3517621], [29.3287612, 61.3516995], [29.3288168, 61.3515917], [29.3287281, 61.3515312], [29.3287609, 61.3514938], [29.3285305, 61.351364], [29.3282601, 61.3511989], [29.3277995, 61.35094], [29.3277055, 61.3509084], [29.3276035, 61.3508958], [29.3275404, 61.3508762], [29.3274768, 61.3508261], [29.3274392, 61.3507477], [29.3273328, 61.3506507], [29.3271891, 61.3506038], [29.3270844, 61.3505544], [29.3269617, 61.3504891], [29.3268843, 61.3504042], [29.3268895, 61.3503484], [29.3268092, 61.3503238], [29.3266974, 61.3502547], [29.3266936, 61.3501776], [29.3266558, 61.3501225], [29.3266683, 61.3500639], [29.3266343, 61.3500088], [29.3265463, 61.3499582], [29.3264669, 61.3497952], [29.3263829, 61.3497221], [29.3261774, 61.3496744], [29.325858, 61.3496305], [29.3257322, 61.3496237], [29.3256439, 61.3496432], [29.3256121, 61.3496689], [29.3255325, 61.3496792], [29.3254236, 61.3496236], [29.325339, 61.3495918], [29.3252021, 61.3495627], [29.3251421, 61.3495098], [29.3251566, 61.3494782], [29.3251074, 61.3494458], [29.3250559, 61.3494565], [29.3250416, 61.3494909], [29.3250051, 61.3494781], [29.3249487, 61.3494485], [29.3250102, 61.3493702], [29.3249243, 61.3493223], [29.3248546, 61.3493405], [29.3247639, 61.3493026], [29.3248848, 61.3492439], [29.3248468, 61.3492095], [29.3247784, 61.3492206], [29.324753, 61.3491563], [29.3248381, 61.3490929], [29.3247737, 61.3490312], [29.3248278, 61.3489539], [29.3249223, 61.3489172], [29.324938, 61.3488505], [29.3249971, 61.3488154], [29.3249506, 61.3487443], [29.3249037, 61.3486912], [29.3248244, 61.3486567], [29.3248416, 61.3486106], [29.324618, 61.3484707], [29.3244298, 61.3484038], [29.3242919, 61.3483604], [29.3241237, 61.3483363], [29.3237073, 61.348295], [29.3235217, 61.34829], [29.3234776, 61.3482755], [29.3234303, 61.3482171], [29.3233449, 61.3481494], [29.323338, 61.348057], [29.3233844, 61.3479511], [29.3232995, 61.3478906], [29.3231494, 61.3478339], [29.3229714, 61.3478037], [29.3228077, 61.3477652], [29.3227332, 61.3476937], [29.3226427, 61.3476342], [29.322555, 61.3476105], [29.3224123, 61.3475537], [29.3222493, 61.3475232], [29.3222632, 61.3474592], [29.3223102, 61.3473866], [29.3224041, 61.3473158], [29.3223365, 61.347211], [29.3221675, 61.3470504], [29.3220067, 61.3469256], [29.3219517, 61.3468134], [29.3219699, 61.3466308], [29.321949, 61.3465], [29.321951, 61.3464012], [29.3219433, 61.3462971], [29.3220685, 61.3462195], [29.3221653, 61.3461379], [29.3222335, 61.3459473], [29.3223353, 61.3458584], [29.3225773, 61.3456908], [29.3226382, 61.3456044], [29.322654, 61.3455404], [29.3224749, 61.3453701], [29.3223817, 61.3452981], [29.3223592, 61.3450955], [29.3223484, 61.3448738], [29.3222831, 61.3445722], [29.3223012, 61.3444642], [29.3222872, 61.3439713], [29.3147375, 61.3370515], [29.306145, 61.3292347], [29.2963619, 61.3201057], [29.2917489, 61.3158654], [29.2829401, 61.3077267], [29.2758319, 61.3011666], [29.2655369, 61.2916418], [29.2413455, 61.2760578], [29.2454309, 61.273277], [29.2448283, 61.2706905], [29.2389328, 61.2681977], [29.2333906, 61.2684337], [29.2277533, 61.2654323], [29.2276022, 61.2653791], [29.227539, 61.2653029], [29.2274282, 61.2652922], [29.2273954, 61.2652514], [29.2271751, 61.2651958], [29.2269829, 61.2652474], [29.2268203, 61.2652429], [29.2266666, 61.2652059], [29.2264212, 61.2651641], [29.2263349, 61.2651045], [29.2261261, 61.2650792], [29.2258405, 61.2650758], [29.225805, 61.2651015], [29.2257193, 61.2651055], [29.2256723, 61.2650713], [29.2255102, 61.2650479], [29.2253224, 61.2650295], [29.225054, 61.265033], [29.2249813, 61.2650063], [29.2247895, 61.2649583], [29.2245624, 61.2649387], [29.2243378, 61.264901], [29.2241397, 61.2648163], [29.2239405, 61.2648213], [29.2236979, 61.2647148], [29.2234561, 61.2646712], [29.2228042, 61.2646055], [29.2223275, 61.2645909], [29.2220259, 61.2645716], [29.2218221, 61.2645381], [29.2216433, 61.2644898], [29.2215197, 61.2644299], [29.2213835, 61.2643495], [29.2212298, 61.2641544], [29.2211924, 61.2640464], [29.2211006, 61.2639626], [29.2209598, 61.2638167], [29.2209903, 61.263694], [29.2211235, 61.2634943], [29.2211596, 61.2633976], [29.2211026, 61.2633302], [29.2209754, 61.2632192], [29.2208411, 61.2630875], [29.2208268, 61.2629899], [29.2207907, 61.2629285], [29.2206674, 61.2628982], [29.2204602, 61.2628962], [29.2202881, 61.2628882], [29.2201299, 61.2628675], [29.220044, 61.2628653], [29.2199307, 61.2628725], [29.2198476, 61.2628847], [29.2197113, 61.2628815], [29.2195718, 61.2628613], [29.2192589, 61.2628413], [29.2191268, 61.2628453], [29.2190536, 61.2628384], [29.2188666, 61.2627525], [29.2185222, 61.2626297], [29.2153287, 61.2614578], [29.2152398, 61.2613605], [29.2151521, 61.2612802], [29.2150028, 61.2612], [29.2148447, 61.2611262], [29.2142448, 61.2609753], [29.2124793, 61.2605864], [29.2120687, 61.2604773], [29.2119892, 61.2604597], [29.2117058, 61.2602218], [29.2116212, 61.2601595], [29.2115246, 61.2601116], [29.211278, 61.2600788], [29.2112031, 61.2600756], [29.2111581, 61.2600979], [29.2110613, 61.2601003], [29.2109169, 61.2600102], [29.2108733, 61.2599723], [29.2107881, 61.2599548], [29.2107465, 61.2599196], [29.2107475, 61.2598549], [29.2107935, 61.25982], [29.2108011, 61.2597678], [29.2108796, 61.2597171], [29.2108973, 61.2596782], [29.2110623, 61.2596638], [29.2111955, 61.2596221], [29.21123, 61.2595291], [29.2113557, 61.2595396], [29.2114707, 61.2595305], [29.2114732, 61.2594865], [29.2114357, 61.2594575], [29.2113594, 61.2593806], [29.2113889, 61.2592687], [29.2113234, 61.2591593], [29.211301, 61.2590798], [29.2111159, 61.258993], [29.2110141, 61.2589246], [29.2109259, 61.2588901], [29.2108202, 61.2588721], [29.2107502, 61.2588319], [29.2107262, 61.258782], [29.2107525, 61.2587321], [29.2108209, 61.25867], [29.2108735, 61.2585955], [29.2107663, 61.2584769], [29.2106776, 61.2584361], [29.2105706, 61.2583453], [29.2104952, 61.258255], [29.2105453, 61.2581715], [29.2104658, 61.2581279], [29.2103197, 61.2581464], [29.2101438, 61.2581367], [29.210112, 61.2581085], [29.2101469, 61.2580226], [29.2100669, 61.2579979], [29.2099051, 61.2579781], [29.2098781, 61.257886], [29.209739, 61.2578164], [29.2094629, 61.2577616], [29.2089601, 61.2576387], [29.208751, 61.2575828], [29.2071817, 61.257568], [29.2042244, 61.2567727], [29.1998224, 61.2563808], [29.1978216, 61.2548604], [29.1870823, 61.2494262], [29.1825792, 61.2471556], [29.1772759, 61.244464], [29.1774452, 61.2443247], [29.1775274, 61.2442462], [29.1775935, 61.2441499], [29.1776808, 61.2439842], [29.1777187, 61.2438048], [29.1777165, 61.2436926], [29.1776783, 61.243598], [29.1776052, 61.2435121], [29.1774505, 61.2433502], [29.1773687, 61.2432994], [29.177043, 61.2430631], [29.1769317, 61.2428825], [29.1770178, 61.2424034], [29.1769454, 61.2421108], [29.1768077, 61.2419254], [29.1761214, 61.2414065], [29.1758179, 61.2412766], [29.1754875, 61.2412155], [29.1751789, 61.2412267], [29.1749529, 61.2412456], [29.1747172, 61.2412871], [29.174551, 61.2413365], [29.1742997, 61.2414501], [29.1738412, 61.2416918], [29.1736634, 61.2418168], [29.1735144, 61.2418992], [29.1731481, 61.2419922], [29.1728441, 61.2420437], [29.1726553, 61.2421168], [29.1617992, 61.236617], [29.0678423, 61.2048774], [29.0621833, 61.2029152], [29.0306149, 61.1919831], [29.0195982, 61.1875386], [28.9856689, 61.1738119], [28.9790823, 61.1686862], [28.9707955, 61.1622576], [28.965092, 61.1578637], [28.959274, 61.153395], [28.9568572, 61.1515503], [28.9542257, 61.1516099], [28.9516284, 61.1516815], [28.9494091, 61.1505892], [28.9441788, 61.1480951], [28.9422025, 61.1478352], [28.9359942, 61.1470414], [28.9262144, 61.1457792], [28.9149537, 61.1433356], [28.9024528, 61.1445779], [28.8835337, 61.1423318], [28.872791, 61.1355391], [28.86576, 61.1336975], [28.8557996, 61.1311036], [28.8493645, 61.1294469], [28.8317104, 61.1248648], [28.8191018, 61.1215767], [28.8159289, 61.1144586], [28.8148403, 61.1119489], [28.8117692, 61.1049855], [28.8105287, 61.1022102], [28.8080059, 61.0965317], [28.8043007, 61.0933933], [28.8007923, 61.0925636], [28.7950736, 61.089414], [28.7838398, 61.0832139], [28.7776466, 61.0798076], [28.7687219, 61.074869], [28.7554877, 61.0675325], [28.7528675, 61.0660974], [28.7442811, 61.0613387], [28.7392237, 61.0585545], [28.732654, 61.0548943], [28.7161991, 61.0457742], [28.7138466, 61.0444634], [28.7134998, 61.0427383], [28.7101882, 61.0269845], [28.7026014, 61.0130016], [28.6987992, 61.0059697], [28.6950179, 60.999021], [28.6912066, 60.9921003], [28.6906575, 60.9910925], [28.6909372, 60.9906157], [28.6901533, 60.9901631], [28.6898159, 60.989554], [28.6840333, 60.9789402], [28.6815511, 60.976314], [28.6769612, 60.9714798], [28.6726108, 60.9668543], [28.6661096, 60.9599797], [28.6577958, 60.9511546], [28.655001, 60.9494998], [28.649231, 60.9481427], [28.6148216, 60.9553591], [28.5728643, 60.951687], [28.5524214, 60.9549341], [28.5453226, 60.9552725], [28.5419538, 60.9560636], [28.5373551, 60.9564771], [28.5299409, 60.9547548], [28.5274684, 60.9549131], [28.5246058, 60.9571051], [28.5227176, 60.9558127], [28.5176329, 60.9523088], [28.5151097, 60.9505817], [28.5114181, 60.9480747], [28.503877, 60.9429671], [28.4953841, 60.9372267], [28.4930277, 60.9370786], [28.492283, 60.9351266], [28.4836025, 60.929269], [28.4836769, 60.9290042], [28.4827511, 60.9280222], [28.4827087, 60.9278637], [28.482868, 60.9277183], [28.4830329, 60.9276141], [28.483183, 60.9275478], [28.4833669, 60.9274165], [28.483454, 60.9273464], [28.4835931, 60.927202], [28.4837187, 60.9269663], [28.4838195, 60.9268745], [28.4839332, 60.9267008], [28.484064, 60.9265378], [28.4841134, 60.9261313], [28.484151, 60.9257107], [28.4732521, 60.9240928], [28.4725468, 60.9240413], [28.4721871, 60.9239617], [28.4718119, 60.9238661], [28.4712585, 60.9237868], [28.4704735, 60.923606], [28.469826, 60.9234478], [28.4694331, 60.9233273], [28.4689118, 60.9232252], [28.468489, 60.9231364], [28.4683037, 60.9231187], [28.4682187, 60.9231169], [28.468115, 60.9231486], [28.4680142, 60.9232018], [28.4678556, 60.9232439], [28.4674003, 60.9232516], [28.4672719, 60.9232682], [28.4671609, 60.9232614], [28.4669646, 60.923285], [28.4667705, 60.9232755], [28.4658925, 60.9233192], [28.4654303, 60.9233359], [28.456061, 60.9183317], [28.434101, 60.9066866], [28.4292429, 60.9040992], [28.41613, 60.8971387], [28.3979939, 60.8874877], [28.4001328, 60.8856678], [28.3973809, 60.8834991], [28.3971966, 60.8836231], [28.3970896, 60.883662], [28.3969212, 60.8836879], [28.3967186, 60.8836883], [28.3965577, 60.8836756], [28.3963779, 60.8836918], [28.3961647, 60.883747], [28.3959339, 60.8838212], [28.3956064, 60.8838722], [28.3951781, 60.8839808], [28.3949198, 60.8840562], [28.394675, 60.8841054], [28.3941479, 60.8841863], [28.3938987, 60.8842168], [28.3938094, 60.8842401], [28.3937524, 60.8842856], [28.3927341, 60.8846796], [28.3719382, 60.8735765], [28.3547488, 60.8643816], [28.3491892, 60.861398], [28.337667, 60.8552293], [28.335846, 60.8542489], [28.3356298, 60.8543615], [28.3355671, 60.8544483], [28.3353699, 60.85484], [28.3352576, 60.8550162], [28.3351415, 60.8551008], [28.3349141, 60.8551651], [28.3342785, 60.8552414], [28.3336589, 60.8553481], [28.3332167, 60.8553821], [28.3327252, 60.8554696], [28.3323328, 60.8555516], [28.3318367, 60.8556616], [28.3314111, 60.8558292], [28.331012, 60.8559706], [28.3306107, 60.8561487], [28.3303476, 60.8562851], [28.3299647, 60.8563293], [28.3294532, 60.8562913], [28.3289614, 60.8561938], [28.3285933, 60.8561085], [28.3282362, 60.8560654], [28.3277564, 60.85608], [28.3273408, 60.8561784], [28.3271195, 60.8563027], [28.3268327, 60.8564456], [28.3263694, 60.8569045], [28.3260357, 60.8572481], [28.3255796, 60.8574358], [28.324971, 60.8576322], [28.324611, 60.857739], [28.324276, 60.8578752], [28.3237942, 60.8572199], [28.3223934, 60.8553525], [28.3192666, 60.8511297], [28.3160554, 60.8468475], [28.3119105, 60.8412678], [28.2935308, 60.8309752], [28.2789488, 60.8228394], [28.2764171, 60.8214196], [28.2730948, 60.8195807], [28.2684523, 60.8169883], [28.2611775, 60.8129353], [28.2588109, 60.8116088], [28.2558434, 60.809953], [28.253289, 60.8079951], [28.249952, 60.8054258], [28.2457619, 60.8022211], [28.2356003, 60.7944216], [28.2205001, 60.7827933], [28.2109463, 60.7819359], [28.2014605, 60.7810901], [28.191794, 60.7802227], [28.1742818, 60.778618], [28.155648, 60.7605017], [28.1500198, 60.7550359], [28.1466984, 60.7517951], [28.1354668, 60.7408677], [28.1203137, 60.7342617], [28.1159172, 60.7323355], [28.1110149, 60.7301967], [28.0889935, 60.7205921], [28.0869186, 60.7195072], [28.078538, 60.7151752], [28.0603179, 60.7055701], [28.0562642, 60.7034741], [28.0502819, 60.7003622], [28.0380426, 60.6940286], [28.0251655, 60.6874706], [28.0157432, 60.6827269], [28.0151667, 60.6824412], [28.0178365, 60.6811801], [27.9980843, 60.6704111], [27.9953658, 60.671217], [27.991377, 60.6690323], [27.9828977, 60.6644015], [27.9751469, 60.6601927], [27.9716481, 60.6582656], [27.9678737, 60.656242], [27.9563221, 60.6499643], [27.9489852, 60.6459527], [27.9357698, 60.6386649], [27.9295842, 60.6352197], [27.9223799, 60.6311967], [27.912019, 60.6255507], [27.9040095, 60.6212009], [27.9014524, 60.6198004], [27.8838707, 60.6102455], [27.8734253, 60.6045523], [27.862158, 60.5947414], [27.8479474, 60.5824008], [27.8479287, 60.5823839], [27.8480064, 60.5821464], [27.8480303, 60.5820133], [27.8479345, 60.581908], [27.8478148, 60.5817983], [27.8473352, 60.5816029], [27.8471511, 60.5815448], [27.8470364, 60.5814836], [27.8469275, 60.5813666], [27.8468641, 60.581315], [27.8467349, 60.581261], [27.846636, 60.5812482], [27.8465332, 60.5812237], [27.8465613, 60.5811813], [27.8465277, 60.5811537], [27.8464689, 60.5811379], [27.8463872, 60.5811537], [27.8462726, 60.5811697], [27.8461018, 60.5811285], [27.8459747, 60.5810827], [27.845893, 60.5810284], [27.8458443, 60.5809838], [27.8457135, 60.5809344], [27.8455315, 60.5808834], [27.8453198, 60.5808156], [27.8451409, 60.580815], [27.8449094, 60.5807536], [27.8448333, 60.5807738], [27.8447586, 60.5807788], [27.8447126, 60.5807674], [27.8447138, 60.5807404], [27.8446777, 60.5806868], [27.8446209, 60.58068], [27.8445135, 60.5806896], [27.8444657, 60.5806774], [27.844432, 60.5806417], [27.8445078, 60.5806089], [27.8445289, 60.5805818], [27.8445442, 60.5805377], [27.8445103, 60.5804957], [27.8444036, 60.5804623], [27.8442849, 60.5804594], [27.8442674, 60.5804209], [27.8442849, 60.5803211], [27.8442195, 60.5802614], [27.8441349, 60.5802359], [27.8441741, 60.5802006], [27.8441546, 60.5801532], [27.8440909, 60.5800916], [27.8438779, 60.5799699], [27.843775, 60.5799428], [27.8436917, 60.5798993], [27.8435294, 60.5799012], [27.8434616, 60.5798909], [27.8433512, 60.5799266], [27.8432106, 60.5799266], [27.8431312, 60.5799594], [27.843006, 60.5799153], [27.8429697, 60.5799236], [27.8429685, 60.5799478], [27.84279, 60.5799633], [27.8427178, 60.5799916], [27.8424659, 60.5799887], [27.8424246, 60.580015], [27.8424478, 60.5800679], [27.8423719, 60.5800953], [27.8422082, 60.5801178], [27.8421313, 60.5801067], [27.8420367, 60.580118], [27.8420306, 60.5800929], [27.8419484, 60.5800899], [27.8418683, 60.5800984], [27.841694, 60.5801328], [27.8415732, 60.5801183], [27.8413519, 60.5800326], [27.8413372, 60.5799554], [27.8413627, 60.5798834], [27.8412107, 60.5798628], [27.8410172, 60.5798641], [27.840917, 60.5797991], [27.8407841, 60.5797416], [27.8407132, 60.579681], [27.8406137, 60.5796439], [27.8406, 60.5796099], [27.8405314, 60.579569], [27.8405346, 60.5795501], [27.8405782, 60.5795445], [27.8405864, 60.5795067], [27.8404702, 60.5794599], [27.8404802, 60.5794239], [27.8405321, 60.5793831], [27.840346, 60.579387], [27.8403157, 60.5794132], [27.8401683, 60.5793585], [27.8401088, 60.5793858], [27.84008, 60.5793312], [27.8400808, 60.5792944], [27.840049, 60.5792641], [27.8400619, 60.5791975], [27.840105, 60.5791703], [27.8401293, 60.5791208], [27.8401255, 60.5790472], [27.8400446, 60.5790226], [27.8400255, 60.5789203], [27.8400311, 60.5788547], [27.8398238, 60.5788111], [27.8395744, 60.5787669], [27.8394912, 60.5787926], [27.8393644, 60.5787611], [27.8392216, 60.5787431], [27.8392461, 60.5787007], [27.8392339, 60.5786523], [27.8391879, 60.5786391], [27.8391561, 60.5786079], [27.8390445, 60.5785987], [27.8390147, 60.5785738], [27.8390724, 60.5785492], [27.8389969, 60.5785218], [27.8389326, 60.5785079], [27.8389047, 60.5784847], [27.8387919, 60.5784998], [27.8386933, 60.5784986], [27.8386102, 60.5785278], [27.8385804, 60.5785047], [27.8385982, 60.5784893], [27.8385156, 60.578471], [27.8384972, 60.5783939], [27.838515, 60.5783067], [27.8385012, 60.5782654], [27.838512, 60.5781917], [27.8384919, 60.5781182], [27.8384394, 60.5780665], [27.8384227, 60.5779831], [27.8384727, 60.5779415], [27.8384843, 60.5778965], [27.8385788, 60.5777406], [27.8389579, 60.5777238], [27.8392862, 60.5777173], [27.8397895, 60.5776324], [27.8403664, 60.5775004], [27.8408187, 60.5773494], [27.841125, 60.5772002], [27.8419634, 60.5766706], [27.8423423, 60.5763629], [27.8427326, 60.576074], [27.8430841, 60.5758383], [27.8435625, 60.5755704], [27.84402, 60.5753413], [27.8444309, 60.5750765], [27.8446302, 60.5748813], [27.8447104, 60.574668], [27.8447056, 60.5744857], [27.8446265, 60.5739026], [27.8442048, 60.5729849], [27.8438062, 60.5720393], [27.8433861, 60.5713936], [27.8430436, 60.5709235], [27.8425106, 60.5701403], [27.8422722, 60.5695321], [27.8421751, 60.5693065], [27.8421155, 60.5692593], [27.8420113, 60.5692509], [27.8417697, 60.5691528], [27.8416909, 60.569068], [27.8417796, 60.5689013], [27.8420409, 60.5684938], [27.8422016, 60.5683599], [27.8424596, 60.5678285], [27.8426004, 60.5675637], [27.8429057, 60.5670275], [27.8429174, 60.5668451], [27.8428604, 60.5666866], [27.8427658, 60.5665588], [27.8424166, 60.5663176], [27.8423392, 60.5658683], [27.8424846, 60.5654265], [27.8427941, 60.5651228], [27.8429125, 60.5648357], [27.8433516, 60.5639754], [27.8438801, 60.5632573], [27.844581, 60.5627151], [27.844922, 60.5625028], [27.8454439, 60.562231], [27.8458872, 60.5620244], [27.8462169, 60.5619388], [27.8465783, 60.5618782], [27.8468579, 60.5617606], [27.8469984, 60.5616232], [27.8472413, 60.5614941], [27.8474973, 60.5613803], [27.8453312, 60.5609181], [27.8376537, 60.5592676], [27.8360564, 60.5589302], [27.8341783, 60.5585208], [27.826073, 60.5567834], [27.8200091, 60.5554766], [27.8144005, 60.5542745], [27.806269820405372, 60.550283399332415], [27.807872, 60.553046], [27.791189, 60.562201], [27.777599, 60.573676], [27.762055, 60.580146], [27.739513, 60.574164], [27.743175, 60.57095], [27.749522, 60.563137], [27.753184, 60.559882], [27.736176, 60.555569], [27.733409, 60.544257], [27.740571, 60.530585], [27.753184, 60.518948], [27.738129, 60.513332], [27.732677, 60.512112], [27.74643, 60.506496], [27.753184, 60.505845], [27.718435, 60.488471], [27.705414, 60.485419], [27.636485, 60.492255], [27.645763, 60.503567], [27.676606, 60.511176], [27.691661, 60.518948], [27.651703, 60.52265], [27.632172, 60.521674], [27.615977, 60.512112], [27.608246, 60.499945], [27.61085, 60.492133], [27.619314, 60.484076], [27.629649, 60.471137], [27.592459, 60.477362], [27.508474, 60.513861], [27.472667, 60.505845], [27.48227, 60.504299], [27.486339, 60.501939], [27.493175, 60.492255], [27.487071, 60.489447], [27.478282, 60.481676], [27.472667, 60.477973], [27.483572, 60.474433], [27.493012, 60.470201], [27.500743, 60.464748], [27.506684, 60.457465], [27.456798, 60.46369], [27.369314, 60.49787], [27.325206, 60.505845], [27.24879, 60.50788], [27.232432, 60.512112], [27.230805, 60.526313], [27.256602, 60.529446], [27.308116, 60.525784], [27.284923, 60.536526], [27.211925, 60.559882], [27.227712, 60.579576], [27.21461, 60.584947], [27.191742, 60.579739], [27.177745, 60.567328], [27.183849, 60.552191], [27.197032, 60.537055], [27.200694, 60.523261], [27.177745, 60.512112], [27.175792, 60.525133], [27.169688, 60.528632], [27.149913, 60.525784], [27.137706, 60.529039], [27.124034, 60.543524], [27.112559, 60.54682], [27.105642, 60.543606], [27.095714, 60.529202], [27.08839, 60.525784], [27.078949, 60.528632], [27.062836, 60.542914], [27.054373, 60.54682], [27.045177, 60.545803], [27.033376, 60.541815], [27.024425, 60.536078], [27.023936, 60.529486], [27.02711, 60.519924], [27.020763, 60.51435], [27.011729, 60.509467], [26.99822, 60.488023], [26.976899, 60.483547], [26.931407, 60.485419], [26.955577, 60.469306], [26.965343, 60.458482], [26.962413, 60.447211], [26.9546, 60.449408], [26.924327, 60.466986], [26.914724, 60.474555], [26.904474025736512, 60.47267523029118], [26.8883508, 60.4863218]]]}, "properties": {"name": "Кюменегорд и Нейшлот с дистриктом (Абоский мир 1743)", "source": "Natural Earth admin-1; OpenHistoricalMap (CC0) relation 2809714; OpenStreetMap (ODbL) relations 1014347, 1203043, 2777169; нарезка 22.09.2026"}}]}