{"type": "FeatureCollection", "features": [{"type": "Feature", "properties": {"label": "Низовья Печоры: Усть-Цилемский и Ижемский районы", "units": ["Усть-Цилемский район", "Ижемский район"], "note": "Пустозерская волость учреждена в 1502 году, управитель Фёдор Вымский", "source": "OpenStreetMap, admin_level=6 (Overpass, 28.08.2026)", "license": "ODbL"}, "geometry": {"type": "Polygon", "coordinates": [[[53.9132259, 66.3152046], [54.5033648, 66.0828506], [55.0619793, 65.853482], [55.5053336, 65.8529701], [55.5301598, 65.8322384], [55.524211, 65.8232772], [55.531528, 65.8168083], [55.4974346, 65.8086257], [55.5018136, 65.8048158], [55.4955144, 65.7995175], [55.4424747, 65.7985192], [55.4377444, 65.7970504], [55.4391268, 65.7936579], [55.4113299, 65.7912991], [55.363942, 65.7774503], [55.2928992, 65.5474519], [55.1359871, 65.4399896], [54.7816369, 65.2120577], [54.7593901, 65.1724369], [54.7515059, 65.1368682], [54.7058449, 65.0088852], [54.7099587, 65.0081841], [54.640298, 64.8139618], [54.6440136, 64.8134209], [54.6052179, 64.6903977], [54.5594168, 64.4942278], [54.757402, 64.3827643], [54.2425548, 64.2897942], [53.9046661, 64.3329305], [53.6821184, 64.3504655], [53.6723905, 64.3389673], [53.6457559, 64.3418647], [53.6527855, 64.3456157], [53.5731517, 64.3547754], [53.1838104, 64.3452096], [53.120944, 64.3338316], [53.1090777, 64.3391693], [53.1105114, 64.3365], [52.928572, 64.3548927], [52.5655088, 64.3992646], [51.9409674, 64.4640828], [51.9576958, 64.4725808], [51.4191746, 64.5175258], [51.3810129, 64.4502188], [51.3039757, 64.4569208], [51.2741847, 64.3820993], [51.0281335, 64.4012449], [51.0624185, 64.4663685], [50.9682608, 64.4757405], [50.9917264, 64.5077147], [50.9531823, 64.5139719], [50.9953623, 64.5737091], [50.9833473, 64.578238], [50.9806238, 64.5835942], [50.9858071, 64.5920507], [50.9674998, 64.5993333], [50.9699473, 64.6061218], [50.9571914, 64.6045703], [50.9437639, 64.6114981], [50.9515743, 64.6159589], [50.9512657, 64.6211724], [50.927794, 64.6222528], [50.9308591, 64.6273106], [50.9237735, 64.6350022], [50.9371545, 64.6377688], [50.926949, 64.6495013], [50.9204773, 64.6473314], [50.9062952, 64.6536104], [50.8945338, 64.6493691], [50.8946121, 64.6577309], [50.869755, 64.6579514], [50.8554164, 64.6682735], [50.853196, 64.6640345], [50.8316199, 64.6621364], [50.7758112, 64.6637249], [50.768788, 64.6711119], [50.754771, 64.6722125], [50.751954, 64.6763339], [50.7604052, 64.6798105], [50.7589869, 64.6842277], [50.7452536, 64.6825672], [50.7399813, 64.690409], [50.7307475, 64.6906892], [50.7261062, 64.705377], [50.7485109, 64.7096167], [50.7411169, 64.7110449], [50.7354522, 64.724376], [50.7198414, 64.7236761], [50.7170056, 64.7265258], [50.7212455, 64.7285869], [50.7174898, 64.7300603], [50.6828099, 64.7283979], [50.6477704, 64.7365316], [50.6119435, 64.7466574], [50.5995649, 64.7551816], [50.5864185, 64.7554256], [50.5821586, 64.7608378], [50.5377329, 64.7674824], [50.525714, 64.7744282], [50.49675, 64.7723935], [50.494273, 64.7846405], [50.4989122, 64.7926835], [50.3679242, 64.8171628], [50.2329316, 64.83088], [49.9237822, 65.0720581], [49.635408, 65.2879976], [49.5204766, 65.2787488], [49.0521606, 65.2254529], [49.0157734, 65.8565846], [49.0008894, 65.9974923], [49.0004687, 66.1135711], [50.3466287, 66.4730566], [51.5449474, 66.7749746], [51.5463638, 66.784819], [51.5380866, 66.7899378], [51.536015, 66.798627], [51.5198662, 66.8018913], [51.5165907, 66.8133022], [51.4876473, 66.8224522], [51.4910113, 66.8306597], [51.4839203, 66.83455], [51.5080515, 66.8523532], [51.5358461, 66.8575029], [51.5372827, 66.8628193], [51.5292397, 66.8742862], [51.5438059, 66.8839156], [51.5100717, 66.8979665], [51.5069092, 66.9129109], [51.4997437, 66.9159064], [51.499489, 66.9222841], [51.5080728, 66.9244061], [51.5200954, 66.9392295], [51.5436079, 66.9452318], [51.571389, 66.9416856], [51.6112149, 66.9497235], [51.697632, 66.920793], [51.7266335, 66.9190439], [51.7552192, 66.9294451], [51.777953, 66.9217842], [51.7769014, 66.9374614], [51.8019207, 66.9436865], [51.7811153, 66.9473499], [51.7500786, 66.9439741], [51.749077, 66.9488571], [51.7869836, 66.9608461], [51.8019052, 66.9491216], [51.8316564, 66.9455235], [51.8220414, 66.9576401], [51.8234436, 66.9629515], [51.8465798, 66.9715335], [51.8444765, 66.9767243], [51.866136, 66.9721148], [51.8380665, 66.9871026], [51.869666, 66.9966938], [51.8364139, 66.9943257], [51.8253465, 66.9988072], [51.8662607, 67.0035031], [51.8783797, 67.0016249], [51.8891839, 66.9935091], [51.9048712, 67.0024466], [51.9313628, 67.0063789], [51.9339595, 67.0007387], [51.9490978, 67.0005288], [51.9540337, 67.0054399], [51.929816, 67.0141914], [51.9495913, 67.02044], [51.9962903, 67.0247832], [52.0049281, 67.0327344], [52.0108804, 67.0250925], [52.0595137, 67.0295294], [52.0610661, 67.0326366], [52.048897, 67.0364273], [52.0554072, 67.0430888], [52.0429377, 67.0462919], [52.0520072, 67.0499895], [52.0305643, 67.0497075], [52.0296436, 67.0571902], [52.0647079, 67.0556634], [52.0728207, 67.0671008], [52.1453189, 67.099683], [53.7588783, 67.0075846], [53.7909567, 66.3589027], [53.9132259, 66.3152046]]]}}]}