{"type": "FeatureCollection", "features": [{"type": "Feature", "properties": {"label": "Верхняя Печора: Троицко-Печорский район", "units": ["Троицко-Печорский район"], "note": "первое постоянное поселение на верхней Печоре - пять изб на слиянии с Северной Мылвой, 1674 год", "source": "OpenStreetMap, admin_level=6 (Overpass, 28.08.2026)", "license": "ODbL"}, "geometry": {"type": "Polygon", "coordinates": [[[55.130452, 62.5857637], [55.1567342, 62.5860319], [55.1893828, 62.674021], [55.2594252, 62.7968395], [55.3194077, 62.7811921], [55.4019004, 62.7737278], [55.4988974, 62.7720688], [55.5233733, 62.7799482], [55.4635434, 62.839597], [55.374705, 62.8234541], [55.337538, 62.8561447], [55.281821, 62.8478568], [55.3796174, 63.0429601], [55.4545886, 63.0442151], [55.59705, 63.2431337], [55.5817781, 63.2445165], [55.7117555, 63.4222958], [55.7476081, 63.4177931], [55.7565519, 63.411523], [55.7495125, 63.4077003], [55.7710627, 63.4108896], [55.7854099, 63.402124], [55.7993178, 63.4046966], [55.794267, 63.4113974], [55.7866653, 63.4086927], [55.7878539, 63.4125376], [56.0905592, 63.3703141], [56.0572706, 63.3268032], [56.1577107, 63.3124856], [56.1660411, 63.3196665], [56.3228463, 63.2966862], [56.3336097, 63.2554255], [56.316315, 63.2414122], [56.3070283, 63.2242201], [56.6848636, 63.1638676], [56.7237523, 63.2218905], [56.7736437, 63.2148456], [56.7957537, 63.2443673], [57.478808, 63.1399586], [57.7917846, 63.5635404], [57.7979382, 63.5627314], [57.8509438, 63.6349882], [57.8967515, 63.6793037], [57.9490779, 63.6329981], [57.9494294, 63.6027686], [57.9862661, 63.5922335], [57.9880145, 63.5781973], [58.0051032, 63.5770778], [58.0238276, 63.5692879], [58.0678013, 63.543735], [58.1094671, 63.5711768], [58.1231258, 63.6046935], [58.1388269, 63.6131366], [58.2539423, 63.5708161], [58.3443101, 63.368429], [58.3532776, 63.3589338], [58.3477415, 63.3465191], [58.3657013, 63.3023731], [58.6545374, 63.3326082], [58.6548142, 63.3282901], [58.7120344, 63.3347697], [58.8334078, 63.2864115], [58.8708407, 63.290034], [58.9284193, 63.2842079], [58.979174, 63.2719734], [59.0223763, 63.2769495], [59.0661918, 63.2671698], [59.0710753, 63.2175342], [59.0774071, 63.2104957], [59.0944132, 63.2054594], [59.0931809, 63.1962363], [59.0990961, 63.1906417], [59.1252069, 63.1808005], [59.1319208, 63.1739175], [59.1127391, 63.1537711], [59.1330952, 63.1354681], [59.1340739, 63.1130822], [59.2253118, 63.0893028], [59.2424773, 63.0808105], [59.2303152, 63.0635375], [59.233202, 63.0552741], [59.2037939, 63.0275967], [59.2080818, 63.0236839], [59.2057955, 63.0138465], [59.2193887, 63.0002439], [59.2173903, 62.9947739], [59.2244301, 62.9827781], [59.2736332, 62.9822147], [59.2942689, 62.9744725], [59.2951475, 62.9638014], [59.3252041, 62.9420256], [59.377201, 62.9417113], [59.4148521, 62.9332383], [59.4340593, 62.9182499], [59.4487848, 62.917722], [59.4621573, 62.8980718], [59.4613756, 62.8852014], [59.4425108, 62.8755949], [59.4473855, 62.8611263], [59.4401257, 62.8547999], [59.4443178, 62.8299263], [59.4419671, 62.812683], [59.4356441, 62.8041852], [59.4333244, 62.7782615], [59.4179429, 62.7700249], [59.414437, 62.7598429], [59.3589583, 62.7505493], [59.389112, 62.7410896], [59.3917891, 62.7369621], [59.3861743, 62.7295776], [59.3702748, 62.7252151], [59.3955321, 62.7215227], [59.4106053, 62.7052489], [59.4077175, 62.699644], [59.4116865, 62.6946429], [59.4040445, 62.6715739], [59.4259449, 62.6608169], [59.4426519, 62.659514], [59.4292222, 62.6495068], [59.4260749, 62.6328169], [59.4372166, 62.6210908], [59.4600546, 62.6145749], [59.471717, 62.6046229], [59.4690989, 62.5925415], [59.4568838, 62.5868548], [59.4581229, 62.5808966], [59.4429534, 62.5654733], [59.4644439, 62.5602771], [59.5085, 62.5628207], [59.5510613, 62.5455659], [59.6145292, 62.5438481], [59.6354864, 62.5475354], [59.6298448, 62.5221759], [59.6191882, 62.5141273], [59.6237622, 62.5045148], [59.6202283, 62.4907113], [59.6096565, 62.4800057], [59.6057684, 62.4434556], [59.5824325, 62.4192868], [59.6196659, 62.4065546], [59.617465, 62.3895596], [59.6128189, 62.3850278], [59.6142058, 62.3748689], [59.5884792, 62.3641598], [59.5816148, 62.3572496], [59.577437, 62.3418997], [59.5677985, 62.3333694], [59.5502459, 62.3258992], [59.5264643, 62.3278855], [59.5143112, 62.3215385], [59.5163624, 62.3129625], [59.4923028, 62.29769], [59.5103733, 62.278926], [59.5014655, 62.2584523], [59.4898651, 62.2459604], [59.4718707, 62.2457985], [59.4546455, 62.2362152], [59.457766, 62.2269842], [59.4492059, 62.2178261], [59.4567582, 62.2068491], [59.4350551, 62.1928922], [59.4422159, 62.184506], [59.4327649, 62.1745763], [59.3994013, 62.1571116], [59.4049554, 62.1369029], [59.3990291, 62.1277978], [59.4013692, 62.104504], [59.4187874, 62.094969], [59.432863, 62.0950882], [59.429432, 62.072893], [59.4367989, 62.0663309], [59.4369541, 62.057123], [59.4243755, 62.0493685], [59.4427161, 62.0163511], [59.4376121, 62.0001338], [59.4664775, 61.9938574], [59.4699573, 61.9847544], [59.477808, 61.9804945], [59.4890224, 61.9466153], [59.4522427, 61.9357452], [59.4319501, 61.9205094], [59.4038661, 61.9106635], [59.3974905, 61.8997043], [59.4028384, 61.8839547], [59.3647574, 61.8743304], [59.3301046, 61.8465982], [59.3276151, 61.8406072], [59.3335694, 61.8307293], [59.3251894, 61.8244234], [59.3253739, 61.8144124], [59.3156587, 61.8023366], [59.3257903, 61.7910583], [59.3259094, 61.7833882], [59.3451425, 61.7846269], [59.3548616, 61.7794982], [59.3597481, 61.7696128], [59.3932102, 61.7650248], [59.4221904, 61.7545982], [59.4036576, 61.7411743], [59.4003902, 61.7292249], [59.3692959, 61.7138224], [59.3673647, 61.7056413], [59.3713419, 61.7009827], [59.3522814, 61.6932784], [59.3604374, 61.671885], [59.348927, 61.663234], [59.2948419, 61.65446], [59.2802477, 61.6409197], [59.2399468, 61.6265071], [59.2066989, 61.6397981], [59.198354, 61.6378103], [59.1910451, 61.6276498], [59.1690323, 61.6318319], [59.1483212, 61.6297074], [59.1252604, 61.6097045], [59.1194077, 61.5930249], [59.0983354, 61.5808695], [59.0824092, 61.5603814], [59.0483092, 61.5363941], [58.9971644, 61.5351613], [58.9841565, 61.532422], [58.973993, 61.522035], [58.920975, 61.532128], [58.846249, 61.518965], [58.845858, 61.495859], [57.0926875, 61.50185], [57.0805507, 61.4752974], [56.6531242, 61.5243001], [56.6371943, 61.4925887], [56.6394705, 61.4884921], [56.5973652, 61.4928916], [56.5663405, 61.4189994], [56.3782697, 61.4431218], [56.3169011, 61.3153641], [56.1846399, 61.4188451], [56.3253834, 61.6838413], [55.7280588, 61.9357163], [55.6544471, 61.9032303], [55.5420347, 61.8776777], [55.4381018, 61.970464], [55.5505959, 62.0530558], [55.5386031, 62.0743342], [55.2475969, 62.2543294], [55.4989041, 62.5493008], [55.1323569, 62.5725694], [55.130452, 62.5857637]]]}}]}