{"type": "FeatureCollection", "features": [{"type": "Feature", "geometry": {"type": "Polygon", "coordinates": [[[40.82995, 43.082062], [40.803992, 43.084297], [40.793032, 43.08169], [40.77702, 43.08541], [40.75097, 43.087933], [40.734898, 43.087298], [40.722176, 43.085559], [40.702924, 43.087327], [40.688595, 43.086694], [40.67331, 43.090795], [40.65686, 43.098362], [40.644095, 43.100847], [40.637701, 43.099976], [40.634546, 43.097818], [40.616911, 43.094295], [40.609161, 43.091974], [40.582128, 43.090939], [40.574996, 43.093305], [40.568444, 43.101006], [40.562068, 43.104656], [40.555659, 43.112584], [40.539844, 43.129473], [40.532935, 43.13271], [40.525919, 43.138378], [40.519245, 43.14176], [40.513173, 43.143905], [40.507551, 43.144406], [40.491358, 43.141456], [40.481035, 43.143817], [40.476399, 43.142817], [40.470497, 43.139802], [40.46316, 43.146984], [40.458958, 43.149697], [40.447838, 43.153122], [40.445807, 43.153187], [40.443162, 43.152071], [40.438534, 43.154182], [40.436053, 43.154094], [40.426937, 43.159967], [40.419344, 43.161152], [40.412747, 43.167105], [40.404946, 43.17143], [40.393839, 43.173739], [40.383697, 43.173449], [40.384152, 43.178692], [40.387531, 43.182786], [40.38729, 43.183573], [40.393005, 43.191036], [40.394789, 43.191689], [40.394678, 43.192577], [40.395902, 43.193421], [40.39552, 43.194818], [40.400242, 43.197466], [40.401958, 43.205867], [40.40251, 43.209441], [40.400794, 43.21632], [40.392659, 43.226405], [40.399085, 43.231518], [40.397731, 43.236755], [40.401056, 43.242898], [40.398066, 43.247642], [40.401006, 43.250877], [40.400791, 43.252893], [40.397272, 43.256253], [40.395726, 43.259172], [40.396086, 43.262605], [40.397687, 43.266443], [40.395963, 43.269613], [40.396367, 43.271746], [40.394738, 43.279266], [40.39517, 43.280349], [40.399743, 43.282656], [40.400958, 43.284746], [40.40258, 43.290782], [40.403188, 43.295919], [40.402715, 43.29788], [40.405139, 43.299996], [40.402437, 43.30287], [40.409516, 43.306897], [40.413849, 43.307866], [40.413759, 43.310023], [40.408363, 43.313238], [40.409869, 43.317047], [40.409629, 43.321473], [40.411752, 43.32371], [40.411405, 43.326376], [40.41398, 43.330211], [40.413473, 43.333449], [40.414308, 43.33813], [40.412958, 43.339643], [40.414395, 43.341646], [40.413157, 43.344145], [40.413867, 43.346706], [40.412821, 43.348195], [40.412705, 43.350559], [40.415505, 43.35214], [40.42016, 43.352717], [40.42528, 43.356497], [40.433451, 43.359441], [40.442506, 43.360919], [40.443497, 43.362628], [40.445017, 43.363303], [40.45717, 43.365851], [40.457181, 43.367627], [40.461976, 43.373499], [40.462171, 43.377696], [40.464617, 43.379453], [40.466607, 43.383068], [40.465845, 43.384757], [40.463446, 43.385445], [40.460483, 43.387746], [40.459846, 43.392011], [40.458947, 43.393967], [40.457161, 43.39528], [40.457451, 43.397794], [40.456115, 43.400929], [40.459569, 43.403658], [40.462182, 43.409225], [40.459006, 43.410291], [40.448289, 43.408701], [40.444837, 43.410875], [40.444456, 43.412258], [40.440215, 43.415938], [40.441688, 43.421036], [40.44491, 43.422085], [40.444468, 43.423663], [40.446433, 43.424912], [40.447651, 43.427024], [40.447072, 43.428202], [40.447769, 43.428929], [40.447229, 43.431812], [40.447818, 43.432505], [40.44479, 43.433172], [40.443298, 43.434522], [40.444132, 43.439205], [40.446427, 43.442107], [40.44554, 43.443187], [40.44821, 43.445354], [40.447938, 43.44808], [40.450446, 43.453723], [40.44639, 43.456978], [40.443555, 43.464981], [40.443286, 43.46801], [40.440145, 43.473537], [40.440111, 43.475841], [40.438898, 43.47647], [40.440064, 43.477436], [40.440333, 43.480899], [40.441458, 43.481386], [40.442157, 43.483978], [40.440863, 43.485245], [40.438165, 43.485879], [40.434998, 43.485649], [40.429978, 43.482683], [40.427968, 43.484101], [40.425069, 43.484553], [40.424239, 43.485627], [40.420482, 43.486054], [40.418129, 43.487279], [40.416114, 43.486752], [40.414326, 43.489405], [40.415631, 43.491696], [40.41489, 43.49233], [40.415546, 43.493873], [40.414693, 43.494408], [40.413925, 43.497013], [40.415504, 43.496938], [40.415427, 43.497702], [40.416454, 43.498013], [40.416187, 43.498977], [40.41931, 43.501955], [40.422955, 43.503171], [40.425032, 43.504846], [40.428874, 43.510111], [40.43567, 43.515394], [40.435334, 43.519005], [40.43895, 43.524084], [40.444921, 43.528], [40.451228, 43.52953], [40.452911, 43.53136], [40.461886, 43.533384], [40.463951, 43.53469], [40.477821, 43.549126], [40.482277, 43.547398], [40.487312, 43.543779], [40.489626, 43.539748], [40.49326, 43.537974], [40.493429, 43.533968], [40.495051, 43.531789], [40.497804, 43.530676], [40.49871, 43.529172], [40.50541, 43.524875], [40.511841, 43.525737], [40.515102, 43.525134], [40.517678, 43.524261], [40.521124, 43.521212], [40.523301, 43.520501], [40.531283, 43.521948], [40.540207, 43.519324], [40.555064, 43.519932], [40.566298, 43.519157], [40.568959, 43.522132], [40.576595, 43.524174], [40.579563, 43.526682], [40.584967, 43.528851], [40.587453, 43.530909], [40.593085, 43.530556], [40.595294, 43.531656], [40.600464, 43.53762], [40.602381, 43.541065], [40.606147, 43.543863], [40.607264, 43.546564], [40.608878, 43.547315], [40.615587, 43.548554], [40.618857, 43.550263], [40.625672, 43.54889], [40.634257, 43.55003], [40.638572, 43.55179], [40.639365, 43.553217], [40.645651, 43.555482], [40.648281, 43.555443], [40.651608, 43.558077], [40.659331, 43.560941], [40.661776, 43.563048], [40.666614, 43.560191], [40.675276, 43.556991], [40.675908, 43.555793], [40.675518, 43.551001], [40.679489, 43.549726], [40.682761, 43.550457], [40.692203, 43.547898], [40.689713, 43.54533], [40.688752, 43.542315], [40.688739, 43.538286], [40.691054, 43.537565], [40.694367, 43.534829], [40.699937, 43.533406], [40.713779, 43.532417], [40.715303, 43.531135], [40.720848, 43.529734], [40.733224, 43.528399], [40.739531, 43.526807], [40.740827, 43.526253], [40.744888, 43.521186], [40.755941, 43.519804], [40.757445, 43.517302], [40.756931, 43.51509], [40.757663, 43.514203], [40.760704, 43.51261], [40.766719, 43.513146], [40.769347, 43.509931], [40.776366, 43.505853], [40.770785, 43.500131], [40.761752, 43.497205], [40.757943, 43.493845], [40.757381, 43.491177], [40.744766, 43.4903], [40.735028, 43.494293], [40.717315, 43.497013], [40.711573, 43.497318], [40.707349, 43.496379], [40.705448, 43.492923], [40.705743, 43.488769], [40.704803, 43.486912], [40.699995, 43.484128], [40.693707, 43.482068], [40.687451, 43.474544], [40.685904, 43.466155], [40.687663, 43.461536], [40.704444, 43.456703], [40.713685, 43.452365], [40.723089, 43.445689], [40.724021, 43.4426], [40.722816, 43.439432], [40.719007, 43.437727], [40.718103, 43.43535], [40.717349, 43.420745], [40.720756, 43.418009], [40.733779, 43.415633], [40.738965, 43.412964], [40.741275, 43.405501], [40.741803, 43.397974], [40.743911, 43.393365], [40.740887, 43.380497], [40.741553, 43.376096], [40.740813, 43.371383], [40.738914, 43.367929], [40.743821, 43.359001], [40.743172, 43.352989], [40.733967, 43.346919], [40.732771, 43.338544], [40.730819, 43.335868], [40.727426, 43.333398], [40.724307, 43.327034], [40.702189, 43.317093], [40.69889, 43.313324], [40.699111, 43.310209], [40.705876, 43.305257], [40.712486, 43.297436], [40.723004, 43.299913], [40.730879, 43.299427], [40.735664, 43.297263], [40.741341, 43.292529], [40.745126, 43.291439], [40.753553, 43.291162], [40.760909, 43.292997], [40.784599, 43.295696], [40.789859, 43.296932], [40.7956, 43.296362], [40.802214, 43.293482], [40.809057, 43.292432], [40.820077, 43.292836], [40.828679, 43.297315], [40.835327, 43.29912], [40.837105, 43.293978], [40.836446, 43.287967], [40.838062, 43.279956], [40.844314, 43.266648], [40.846035, 43.257079], [40.8463, 43.253184], [40.844877, 43.247926], [40.837806, 43.236735], [40.843895, 43.23097], [40.846236, 43.222725], [40.847299, 43.217558], [40.843534, 43.210131], [40.844048, 43.207807], [40.868369, 43.190207], [40.88213, 43.181333], [40.883404, 43.178255], [40.878694, 43.168974], [40.875115, 43.153486], [40.872912, 43.149242], [40.871449, 43.139296], [40.871677, 43.135921], [40.874351, 43.133154], [40.88836, 43.136262], [40.896906, 43.136049], [40.899847, 43.134593], [40.901915, 43.130241], [40.901077, 43.126827], [40.898553, 43.122051], [40.89871, 43.119714], [40.902084, 43.111765], [40.90231, 43.108391], [40.900106, 43.104145], [40.896399, 43.101148], [40.887027, 43.087275], [40.880086, 43.074269], [40.87567, 43.069083], [40.869651, 43.073162], [40.862064, 43.076067], [40.857154, 43.077125], [40.84482, 43.077611], [40.82995, 43.082062]]]}, "properties": {"name": "Gudauta District", "name_ru": "Гудаутский район", "admin_level": "6", "osm_relation": 2027322, "fetched": "2026-09-22", "source": "OpenStreetMap (ODbL), relation 2027322, выгрузка 22.09.2026, упрощение 0.0005°", "note": "Бзыбский округ: Лыхненское восстание 1866 года"}}]}