{"type": "FeatureCollection", "features": [{"type": "Feature", "geometry": {"type": "Polygon", "coordinates": [[[43.102627, 42.719935], [43.115201, 42.714984], [43.118248, 42.709782], [43.120265, 42.708804], [43.124728, 42.708804], [43.128161, 42.711421], [43.133483, 42.709624], [43.135586, 42.70584], [43.140736, 42.702717], [43.14919, 42.701077], [43.151679, 42.703033], [43.159275, 42.704736], [43.162837, 42.708142], [43.16318, 42.71016], [43.165927, 42.713676], [43.16612, 42.715205], [43.169972, 42.718752], [43.168158, 42.721882], [43.158116, 42.731095], [43.156657, 42.734846], [43.160906, 42.738219], [43.161292, 42.740551], [43.162923, 42.741402], [43.168158, 42.741528], [43.169618, 42.744081], [43.17069, 42.747516], [43.170133, 42.748525], [43.171205, 42.750353], [43.174596, 42.755741], [43.177943, 42.756907], [43.180175, 42.76094], [43.181462, 42.76606], [43.179117, 42.769041], [43.181591, 42.770865], [43.184466, 42.775527], [43.189187, 42.776818], [43.190818, 42.778425], [43.190861, 42.780157], [43.198714, 42.779685], [43.204722, 42.780409], [43.215709, 42.776346], [43.223433, 42.777354], [43.227854, 42.777039], [43.229742, 42.777448], [43.23369, 42.780535], [43.240342, 42.784031], [43.245363, 42.785638], [43.247595, 42.787339], [43.252573, 42.787811], [43.256135, 42.780157], [43.257594, 42.77959], [43.26386, 42.782961], [43.266993, 42.787244], [43.267078, 42.789512], [43.269267, 42.792126], [43.279996, 42.799935], [43.287292, 42.800974], [43.289523, 42.800281], [43.290896, 42.802926], [43.297238, 42.808723], [43.300252, 42.816055], [43.305044, 42.822999], [43.307033, 42.823437], [43.310428, 42.826845], [43.31723, 42.823339], [43.32649, 42.821315], [43.331246, 42.812788], [43.3342, 42.810425], [43.337582, 42.806149], [43.339822, 42.802272], [43.339931, 42.800539], [43.339012, 42.797311], [43.335312, 42.793579], [43.336608, 42.787399], [43.331288, 42.783025], [43.331078, 42.780862], [43.329858, 42.781182], [43.328176, 42.777445], [43.32529, 42.776177], [43.320738, 42.771507], [43.320735, 42.770443], [43.322713, 42.768113], [43.323084, 42.764856], [43.320314, 42.76049], [43.320368, 42.758479], [43.315806, 42.751912], [43.319685, 42.740773], [43.32219, 42.738635], [43.320496, 42.729335], [43.322709, 42.725203], [43.326406, 42.720724], [43.333243, 42.717307], [43.340914, 42.709211], [43.339808, 42.706789], [43.339983, 42.70491], [43.344174, 42.695132], [43.342692, 42.688523], [43.345896, 42.683712], [43.347895, 42.682541], [43.351267, 42.676559], [43.350089, 42.672663], [43.352381, 42.67111], [43.359962, 42.649897], [43.356536, 42.648785], [43.344636, 42.652228], [43.332556, 42.651627], [43.322634, 42.645742], [43.318983, 42.642287], [43.31185, 42.639844], [43.306761, 42.636367], [43.298771, 42.633697], [43.293989, 42.629587], [43.286887, 42.626079], [43.27914, 42.614695], [43.27439, 42.609521], [43.271407, 42.602886], [43.266647, 42.598137], [43.247724, 42.5751], [43.242248, 42.565237], [43.240409, 42.559043], [43.237672, 42.554111], [43.241923, 42.550376], [43.244892, 42.542741], [43.244017, 42.532948], [43.244823, 42.524669], [43.259007, 42.521059], [43.286286, 42.511477], [43.291015, 42.506658], [43.294359, 42.499905], [43.295359, 42.494817], [43.295682, 42.482916], [43.303452, 42.461133], [43.291461, 42.458616], [43.284144, 42.453192], [43.276219, 42.449033], [43.270825, 42.446826], [43.261983, 42.444778], [43.260062, 42.44156], [43.26191, 42.438538], [43.255835, 42.438732], [43.24183, 42.436605], [43.222772, 42.420365], [43.220036, 42.415645], [43.186361, 42.389392], [43.179243, 42.387578], [43.17065, 42.387229], [43.162704, 42.384338], [43.157351, 42.381063], [43.149687, 42.378388], [43.144914, 42.374909], [43.134464, 42.374506], [43.117532, 42.381074], [43.1115, 42.3814], [43.10694, 42.380474], [43.096807, 42.374141], [43.08092, 42.368561], [43.071165, 42.368823], [43.055918, 42.370479], [43.048609, 42.375032], [43.044433, 42.380276], [43.038008, 42.383994], [43.02753, 42.388916], [43.003777, 42.396372], [42.977281, 42.390805], [42.965481, 42.392085], [42.955766, 42.399778], [42.949891, 42.412854], [42.951439, 42.418198], [42.958183, 42.42257], [42.974734, 42.425415], [42.978955, 42.42804], [42.980218, 42.433376], [42.976838, 42.440334], [42.966222, 42.449076], [42.944176, 42.46484], [42.931879, 42.47206], [42.927126, 42.476864], [42.919809, 42.480984], [42.907899, 42.485019], [42.86507, 42.491197], [42.854059, 42.495693], [42.845653, 42.497874], [42.844864, 42.498717], [42.844949, 42.504188], [42.843736, 42.507611], [42.838958, 42.511168], [42.837549, 42.52026], [42.838504, 42.52433], [42.852181, 42.532895], [42.8609, 42.540718], [42.867366, 42.542407], [42.896586, 42.544052], [42.898623, 42.553208], [42.901493, 42.557516], [42.906528, 42.562674], [42.908577, 42.566966], [42.90627, 42.570369], [42.894628, 42.574208], [42.891532, 42.576583], [42.889499, 42.579988], [42.891834, 42.583883], [42.914582, 42.592404], [42.92045, 42.597374], [42.922481, 42.602273], [42.922902, 42.606131], [42.921931, 42.610571], [42.916293, 42.615129], [42.913122, 42.619731], [42.913548, 42.623386], [42.921873, 42.628806], [42.930548, 42.632002], [42.938869, 42.637623], [42.945946, 42.639371], [42.959115, 42.647914], [42.967133, 42.654541], [42.971371, 42.659276], [42.974754, 42.665009], [42.977019, 42.673877], [42.990035, 42.676423], [43.00822, 42.674512], [43.030182, 42.674689], [43.059429, 42.679268], [43.059542, 42.68216], [43.061553, 42.683367], [43.06526, 42.689955], [43.06443, 42.692016], [43.069649, 42.698577], [43.069428, 42.701166], [43.092197, 42.712008], [43.097321, 42.715133], [43.102627, 42.719935]]]}, "properties": {"name": "Ambrolauri Municipality", "name_ru": "Амбролаурский муниципалитет", "admin_level": "6", "osm_relation": 1997287, "fetched": "2026-09-22", "source": "OpenStreetMap (ODbL), relation 1997287, выгрузка 22.09.2026, упрощение 0.0005°", "note": "Рача: уезд Имеретинского царства, приведён к присяге в феврале - марте 1810 года (АКАК т. 4)"}}, {"type": "Feature", "geometry": {"type": "Polygon", "coordinates": [[[43.33345, 42.891131], [43.334799, 42.890121], [43.340008, 42.889536], [43.35015, 42.892264], [43.354881, 42.889824], [43.365044, 42.890704], [43.368674, 42.893179], [43.38137, 42.896517], [43.38551, 42.898632], [43.390182, 42.899346], [43.404375, 42.894705], [43.406897, 42.891781], [43.409461, 42.892567], [43.415157, 42.891556], [43.418431, 42.892409], [43.44707, 42.893389], [43.454611, 42.891361], [43.457046, 42.889852], [43.458801, 42.887526], [43.460511, 42.887035], [43.477562, 42.890603], [43.478211, 42.885791], [43.487759, 42.877613], [43.486923, 42.877104], [43.486832, 42.875272], [43.49438, 42.873802], [43.498014, 42.870528], [43.502437, 42.870111], [43.504592, 42.868965], [43.507072, 42.86947], [43.514774, 42.866786], [43.52289, 42.865569], [43.532653, 42.866429], [43.550748, 42.865338], [43.561047, 42.867706], [43.565165, 42.863536], [43.572169, 42.862816], [43.576377, 42.857802], [43.580741, 42.854698], [43.585467, 42.852542], [43.58906, 42.848797], [43.58913, 42.845714], [43.590054, 42.84455], [43.604699, 42.837961], [43.605606, 42.834494], [43.608032, 42.834403], [43.608729, 42.833351], [43.610651, 42.833934], [43.611603, 42.831522], [43.608294, 42.818924], [43.60891, 42.813681], [43.616907, 42.812896], [43.621537, 42.811043], [43.623715, 42.812755], [43.625507, 42.811899], [43.627875, 42.813102], [43.638307, 42.812482], [43.639562, 42.808893], [43.639191, 42.806481], [43.644276, 42.801988], [43.643464, 42.799145], [43.644369, 42.79773], [43.652305, 42.795172], [43.65855, 42.796795], [43.671415, 42.798248], [43.675809, 42.801109], [43.677103, 42.801093], [43.677487, 42.801936], [43.684868, 42.801874], [43.685323, 42.800663], [43.687241, 42.800801], [43.689258, 42.799746], [43.691382, 42.795306], [43.689312, 42.790921], [43.689773, 42.786819], [43.698163, 42.784205], [43.698292, 42.782142], [43.702712, 42.780614], [43.70935, 42.776147], [43.714495, 42.775002], [43.723216, 42.771372], [43.738163, 42.769239], [43.740862, 42.768384], [43.743342, 42.765739], [43.749504, 42.766614], [43.754595, 42.766229], [43.761998, 42.763346], [43.762678, 42.762548], [43.761813, 42.761714], [43.762288, 42.760299], [43.763214, 42.760058], [43.769376, 42.75989], [43.771051, 42.760679], [43.776871, 42.758099], [43.778323, 42.758262], [43.779533, 42.754593], [43.781151, 42.752864], [43.789188, 42.750352], [43.795076, 42.742641], [43.795869, 42.737794], [43.794098, 42.734346], [43.793893, 42.730408], [43.79099, 42.725843], [43.790717, 42.72276], [43.786122, 42.717478], [43.786014, 42.713276], [43.783648, 42.711645], [43.782481, 42.709025], [43.780014, 42.708217], [43.779244, 42.706533], [43.779574, 42.705339], [43.777482, 42.702953], [43.77006, 42.7013], [43.764534, 42.69562], [43.763702, 42.693255], [43.760767, 42.692281], [43.757114, 42.689364], [43.744037, 42.682498], [43.738911, 42.68247], [43.735198, 42.683741], [43.731568, 42.682826], [43.727563, 42.683315], [43.721201, 42.68241], [43.716772, 42.684625], [43.714945, 42.684628], [43.714442, 42.683732], [43.711878, 42.682961], [43.710702, 42.680832], [43.711159, 42.67801], [43.716013, 42.674884], [43.718798, 42.671968], [43.715586, 42.666582], [43.70665, 42.659668], [43.704587, 42.652857], [43.700874, 42.64764], [43.70046, 42.643809], [43.697366, 42.646547], [43.694237, 42.647199], [43.688874, 42.642601], [43.683242, 42.641187], [43.67964, 42.640825], [43.664, 42.643353], [43.661411, 42.642555], [43.657498, 42.642787], [43.654125, 42.641836], [43.650722, 42.63941], [43.646079, 42.638587], [43.645015, 42.636755], [43.638095, 42.6312], [43.636456, 42.622084], [43.631906, 42.61731], [43.629789, 42.616868], [43.624719, 42.611771], [43.617089, 42.611104], [43.612519, 42.609402], [43.609991, 42.605387], [43.602543, 42.600341], [43.588762, 42.586461], [43.58095, 42.581035], [43.580756, 42.576161], [43.589245, 42.572105], [43.597175, 42.571062], [43.60524, 42.568569], [43.598605, 42.566865], [43.595475, 42.565154], [43.594785, 42.564003], [43.591857, 42.549288], [43.593004, 42.547521], [43.595944, 42.546036], [43.604804, 42.545546], [43.608261, 42.544039], [43.612158, 42.541052], [43.614887, 42.540938], [43.615825, 42.538961], [43.610425, 42.531867], [43.603481, 42.526386], [43.602893, 42.523848], [43.607389, 42.518301], [43.607369, 42.514502], [43.600643, 42.509723], [43.599941, 42.508459], [43.602334, 42.505008], [43.602276, 42.499653], [43.601456, 42.497621], [43.60327, 42.491377], [43.602789, 42.483919], [43.593977, 42.471267], [43.584772, 42.469745], [43.585849, 42.46278], [43.58746, 42.459586], [43.587527, 42.456234], [43.586616, 42.453976], [43.587911, 42.450957], [43.587546, 42.44555], [43.588515, 42.440237], [43.589546, 42.439242], [43.58944, 42.437082], [43.579686, 42.435767], [43.563451, 42.438726], [43.557013, 42.436764], [43.549782, 42.440717], [43.544709, 42.441567], [43.543338, 42.442576], [43.540024, 42.440824], [43.536034, 42.44], [43.52986, 42.44504], [43.529741, 42.448672], [43.534221, 42.453756], [43.530479, 42.457355], [43.525431, 42.460332], [43.522299, 42.461159], [43.517591, 42.457586], [43.515637, 42.458742], [43.509684, 42.45826], [43.504054, 42.453509], [43.503274, 42.450097], [43.49824, 42.444504], [43.491173, 42.439946], [43.487181, 42.43883], [43.473874, 42.443119], [43.462061, 42.444874], [43.448469, 42.448943], [43.441263, 42.450121], [43.425457, 42.450755], [43.418644, 42.447685], [43.413219, 42.446547], [43.407983, 42.449238], [43.402417, 42.453626], [43.394868, 42.456922], [43.384216, 42.458048], [43.376472, 42.457726], [43.362353, 42.459651], [43.303452, 42.461133], [43.295682, 42.482916], [43.295359, 42.494817], [43.294359, 42.499905], [43.291015, 42.506658], [43.286286, 42.511477], [43.259007, 42.521059], [43.244823, 42.524669], [43.244017, 42.532948], [43.244892, 42.542741], [43.241923, 42.550376], [43.237672, 42.554111], [43.240409, 42.559043], [43.242248, 42.565237], [43.247724, 42.5751], [43.266647, 42.598137], [43.271407, 42.602886], [43.27439, 42.609521], [43.27914, 42.614695], [43.286887, 42.626079], [43.293989, 42.629587], [43.298771, 42.633697], [43.306761, 42.636367], [43.31185, 42.639844], [43.318983, 42.642287], [43.322634, 42.645742], [43.332556, 42.651627], [43.344636, 42.652228], [43.356536, 42.648785], [43.359962, 42.649897], [43.352381, 42.67111], [43.350089, 42.672663], [43.351267, 42.676559], [43.347895, 42.682541], [43.345896, 42.683712], [43.342692, 42.688523], [43.344174, 42.695132], [43.339983, 42.70491], [43.339808, 42.706789], [43.340914, 42.709211], [43.333243, 42.717307], [43.326406, 42.720724], [43.322709, 42.725203], [43.320496, 42.729335], [43.32219, 42.738635], [43.319685, 42.740773], [43.315806, 42.751912], [43.320368, 42.758479], [43.320314, 42.76049], [43.323084, 42.764856], [43.322713, 42.768113], [43.320735, 42.770443], [43.320738, 42.771507], [43.32529, 42.776177], [43.328176, 42.777445], [43.329858, 42.781182], [43.331078, 42.780862], [43.331288, 42.783025], [43.336608, 42.787399], [43.335312, 42.793579], [43.339012, 42.797311], [43.339931, 42.800539], [43.339822, 42.802272], [43.337582, 42.806149], [43.3342, 42.810425], [43.331246, 42.812788], [43.32649, 42.821315], [43.315611, 42.823963], [43.310428, 42.826845], [43.309522, 42.830421], [43.316589, 42.837989], [43.324628, 42.841171], [43.331559, 42.847968], [43.330958, 42.850249], [43.327031, 42.852168], [43.323576, 42.860583], [43.322525, 42.861763], [43.319821, 42.862722], [43.318899, 42.865538], [43.315843, 42.866922], [43.317096, 42.869768], [43.319178, 42.871655], [43.319558, 42.875071], [43.322091, 42.880113], [43.328533, 42.883543], [43.33345, 42.891131]]]}, "properties": {"name": "Oni Municipality", "name_ru": "Онский муниципалитет", "admin_level": "6", "osm_relation": 1997288, "fetched": "2026-09-22", "source": "OpenStreetMap (ODbL), relation 1997288, выгрузка 22.09.2026, упрощение 0.0005°", "note": "Рача: уезд Имеретинского царства, приведён к присяге в феврале - марте 1810 года (АКАК т. 4)"}}]}