{"type": "FeatureCollection", "features": [{"type": "Feature", "geometry": {"type": "Polygon", "coordinates": [[[42.275236, 42.841614], [42.269793, 42.835318], [42.264848, 42.833153], [42.26205, 42.827644], [42.25814, 42.823933], [42.255533, 42.822808], [42.252697, 42.823174], [42.250704, 42.82233], [42.247599, 42.819462], [42.243651, 42.818169], [42.240286, 42.814465], [42.23012, 42.817326], [42.224753, 42.81651], [42.220537, 42.813726], [42.21724, 42.81024], [42.213292, 42.811899], [42.210266, 42.815749], [42.207895, 42.81516], [42.201839, 42.81561], [42.198312, 42.816819], [42.196625, 42.818449], [42.195897, 42.819996], [42.200574, 42.825394], [42.199309, 42.828205], [42.200152, 42.82933], [42.199385, 42.833631], [42.194632, 42.837847], [42.192677, 42.836638], [42.183363, 42.836554], [42.181063, 42.835626], [42.176808, 42.8381], [42.171518, 42.837762], [42.16619, 42.840123], [42.163507, 42.842231], [42.159712, 42.843215], [42.154269, 42.843243], [42.153349, 42.847037], [42.148634, 42.852236], [42.14093, 42.854737], [42.139396, 42.856704], [42.13886, 42.85898], [42.134413, 42.861357], [42.123834, 42.856395], [42.120576, 42.857013], [42.117318, 42.859598], [42.113254, 42.859289], [42.109191, 42.862043], [42.102956, 42.860924], [42.101563, 42.860076], [42.102368, 42.858868], [42.100758, 42.849089], [42.097308, 42.847768], [42.094434, 42.845126], [42.092594, 42.84448], [42.084621, 42.832366], [42.078373, 42.828486], [42.074003, 42.828824], [42.070822, 42.82798], [42.06603, 42.828824], [42.060012, 42.827812], [42.054684, 42.827952], [42.051387, 42.828936], [42.047938, 42.834643], [42.041796, 42.838917], [42.034695, 42.834079], [42.026615, 42.829964], [42.009818, 42.828379], [41.993119, 42.825632], [41.987688, 42.826101], [41.977018, 42.831638], [41.975236, 42.83404], [41.951176, 42.841057], [41.906591, 42.842309], [41.898711, 42.84179], [41.892554, 42.840092], [41.88777, 42.837122], [41.883627, 42.836325], [41.877163, 42.837311], [41.876386, 42.837974], [41.880539, 42.842261], [41.877967, 42.845338], [41.877671, 42.847519], [41.878954, 42.849743], [41.880752, 42.850955], [41.884236, 42.851939], [41.883673, 42.853882], [41.884953, 42.856175], [41.884189, 42.858412], [41.888317, 42.861238], [41.89532, 42.86261], [41.893029, 42.866714], [41.89423, 42.868555], [41.900779, 42.870539], [41.90743, 42.875298], [41.911834, 42.87512], [41.915132, 42.876505], [41.915906, 42.878075], [41.925961, 42.878359], [41.928425, 42.880796], [41.934859, 42.881194], [41.936106, 42.883277], [41.938449, 42.884423], [41.939721, 42.884009], [41.940462, 42.88485], [41.941464, 42.890186], [41.944724, 42.892418], [41.944885, 42.89579], [41.947058, 42.898014], [41.94102, 42.900056], [41.934803, 42.900276], [41.931366, 42.903166], [41.925023, 42.905916], [41.920485, 42.905901], [41.917272, 42.906824], [41.911434, 42.905954], [41.909299, 42.911437], [41.909465, 42.9137], [41.906313, 42.919019], [41.904694, 42.927185], [41.902699, 42.931689], [41.899123, 42.938022], [41.89479, 42.940847], [41.894318, 42.94245], [41.896678, 42.945293], [41.898893, 42.946294], [41.898889, 42.951796], [41.900391, 42.952927], [41.903011, 42.953315], [41.908978, 42.958874], [41.910095, 42.966206], [41.905149, 42.971956], [41.900811, 42.975281], [41.886652, 42.976686], [41.876549, 42.979709], [41.873158, 42.982188], [41.867769, 42.98453], [41.869038, 42.985949], [41.867646, 42.988802], [41.868762, 42.992554], [41.866457, 42.994538], [41.867217, 42.995865], [41.872882, 42.997168], [41.8743, 43.001867], [41.872968, 43.004833], [41.873227, 43.006064], [41.881748, 43.010026], [41.887362, 43.015086], [41.889015, 43.017688], [41.893142, 43.019801], [41.893707, 43.021526], [41.892579, 43.025065], [41.895797, 43.026303], [41.90363, 43.026311], [41.906375, 43.027343], [41.909124, 43.026459], [41.916342, 43.027544], [41.927819, 43.025526], [41.938397, 43.025368], [41.943457, 43.029642], [41.950448, 43.032221], [41.954434, 43.03155], [41.957109, 43.032566], [41.964098, 43.037672], [41.973751, 43.038612], [41.98491, 43.044996], [41.990186, 43.043957], [41.993619, 43.045949], [41.996129, 43.045965], [41.996344, 43.047455], [41.999627, 43.050826], [42.002955, 43.050968], [42.004047, 43.052033], [42.007812, 43.052452], [42.016094, 43.051782], [42.022287, 43.049416], [42.024639, 43.050291], [42.02858, 43.053371], [42.039674, 43.055207], [42.041865, 43.06026], [42.046363, 43.062885], [42.050607, 43.068644], [42.051789, 43.071484], [42.050134, 43.074575], [42.050194, 43.076081], [42.057215, 43.084919], [42.061538, 43.085613], [42.065994, 43.088354], [42.068244, 43.088899], [42.070109, 43.090482], [42.070846, 43.092476], [42.078268, 43.093369], [42.079214, 43.094245], [42.078038, 43.102793], [42.08702, 43.109305], [42.088307, 43.113132], [42.089503, 43.114251], [42.087939, 43.116757], [42.088215, 43.117742], [42.100017, 43.121076], [42.103893, 43.123757], [42.106792, 43.129981], [42.106762, 43.131506], [42.108631, 43.13439], [42.112052, 43.136711], [42.112161, 43.139057], [42.115029, 43.144252], [42.115937, 43.145428], [42.119411, 43.146989], [42.120834, 43.149234], [42.119155, 43.152155], [42.119261, 43.159252], [42.120497, 43.160089], [42.120265, 43.1633], [42.118824, 43.164329], [42.114658, 43.165105], [42.113551, 43.168733], [42.117187, 43.172925], [42.121727, 43.173792], [42.130398, 43.172909], [42.133144, 43.173691], [42.133745, 43.18405], [42.132887, 43.187242], [42.136449, 43.187085], [42.140371, 43.188519], [42.137144, 43.193747], [42.130601, 43.195346], [42.127381, 43.193695], [42.123977, 43.193341], [42.118657, 43.197317], [42.113562, 43.198283], [42.108708, 43.198092], [42.106656, 43.199955], [42.110183, 43.200523], [42.110617, 43.203202], [42.10435, 43.203249], [42.102157, 43.202167], [42.084464, 43.203434], [42.080694, 43.204692], [42.085543, 43.209198], [42.090221, 43.212098], [42.092939, 43.212242], [42.095418, 43.213976], [42.102092, 43.211521], [42.104388, 43.208753], [42.10973, 43.208291], [42.116543, 43.210113], [42.118619, 43.2121], [42.121876, 43.210293], [42.124944, 43.210872], [42.12886, 43.210373], [42.131585, 43.211079], [42.135305, 43.216986], [42.137171, 43.21789], [42.139961, 43.216975], [42.145872, 43.217828], [42.153951, 43.220445], [42.160238, 43.221315], [42.16336, 43.22323], [42.171938, 43.221233], [42.172474, 43.219708], [42.17552, 43.217426], [42.180573, 43.214985], [42.184427, 43.217248], [42.191403, 43.217896], [42.193228, 43.219089], [42.194485, 43.22401], [42.196717, 43.226835], [42.203572, 43.228664], [42.206039, 43.227819], [42.212857, 43.229294], [42.216194, 43.230982], [42.22055, 43.228387], [42.231504, 43.227355], [42.237699, 43.229315], [42.246411, 43.228097], [42.246796, 43.227144], [42.249663, 43.226186], [42.249963, 43.223114], [42.253321, 43.219509], [42.253885, 43.215115], [42.252833, 43.212255], [42.265442, 43.210687], [42.269536, 43.211995], [42.276826, 43.211819], [42.280143, 43.21268], [42.284594, 43.212529], [42.289026, 43.21052], [42.295232, 43.210923], [42.294449, 43.213146], [42.296554, 43.216608], [42.30242, 43.218704], [42.3046, 43.220211], [42.306673, 43.223344], [42.306666, 43.222134], [42.308709, 43.219954], [42.314623, 43.218294], [42.320961, 43.220998], [42.324149, 43.219709], [42.33026, 43.220575], [42.336398, 43.219263], [42.341063, 43.220431], [42.342265, 43.224508], [42.346784, 43.226078], [42.350229, 43.23035], [42.350103, 43.234041], [42.353156, 43.237538], [42.354114, 43.243637], [42.358203, 43.246849], [42.363401, 43.245411], [42.369216, 43.245153], [42.376019, 43.247126], [42.38043, 43.244329], [42.385427, 43.244631], [42.388117, 43.2438], [42.394431, 43.246541], [42.398869, 43.246467], [42.40703, 43.248517], [42.410325, 43.250339], [42.411445, 43.256305], [42.413776, 43.256982], [42.424813, 43.254202], [42.425573, 43.253232], [42.431269, 43.253188], [42.44214, 43.250846], [42.443394, 43.249277], [42.443095, 43.247653], [42.446327, 43.244099], [42.445687, 43.242384], [42.446674, 43.240631], [42.452077, 43.237618], [42.451747, 43.235893], [42.448302, 43.233723], [42.444023, 43.228392], [42.444193, 43.226498], [42.445936, 43.223211], [42.447666, 43.222352], [42.44771, 43.219822], [42.455358, 43.214948], [42.457196, 43.212929], [42.461265, 43.211694], [42.462938, 43.211985], [42.469145, 43.209668], [42.472139, 43.2066], [42.474546, 43.205815], [42.478637, 43.205973], [42.480997, 43.204633], [42.486706, 43.205615], [42.489695, 43.203927], [42.490941, 43.201996], [42.494995, 43.200099], [42.509805, 43.19934], [42.51184, 43.198234], [42.514552, 43.194812], [42.5206, 43.192196], [42.522674, 43.190147], [42.528199, 43.189028], [42.530488, 43.187777], [42.534348, 43.183449], [42.540322, 43.18089], [42.540492, 43.179749], [42.541482, 43.179462], [42.543252, 43.176592], [42.548361, 43.176502], [42.55523, 43.173825], [42.560475, 43.174275], [42.567375, 43.173306], [42.569884, 43.17484], [42.57635, 43.174739], [42.583351, 43.172114], [42.586209, 43.172513], [42.590118, 43.169966], [42.593177, 43.17187], [42.5964, 43.17144], [42.597828, 43.169999], [42.597284, 43.167753], [42.598732, 43.16592], [42.598702, 43.163388], [42.601918, 43.162737], [42.606681, 43.163013], [42.612137, 43.164909], [42.615557, 43.16458], [42.624309, 43.157206], [42.627926, 43.156013], [42.629199, 43.15665], [42.632676, 43.156034], [42.634802, 43.154947], [42.634875, 43.154138], [42.639928, 43.152985], [42.63953, 43.150742], [42.642389, 43.14999], [42.649802, 43.145499], [42.656267, 43.14344], [42.660559, 43.140502], [42.665604, 43.139517], [42.666535, 43.136019], [42.669287, 43.135204], [42.675096, 43.1357], [42.679051, 43.138365], [42.674178, 43.139531], [42.672464, 43.141321], [42.671571, 43.145593], [42.67528, 43.150405], [42.676737, 43.15361], [42.680147, 43.157246], [42.680048, 43.161478], [42.678975, 43.165441], [42.680401, 43.169899], [42.679674, 43.172704], [42.68565, 43.17451], [42.691055, 43.172486], [42.698387, 43.172103], [42.706391, 43.174349], [42.706803, 43.175606], [42.710221, 43.178819], [42.712861, 43.177869], [42.716522, 43.178051], [42.720841, 43.180023], [42.725383, 43.18038], [42.730846, 43.181939], [42.734958, 43.181265], [42.735825, 43.179941], [42.735082, 43.178773], [42.740601, 43.177688], [42.743924, 43.181182], [42.744582, 43.183676], [42.749937, 43.187689], [42.759414, 43.187366], [42.763577, 43.188417], [42.767711, 43.187836], [42.775099, 43.188746], [42.776621, 43.188771], [42.777511, 43.18706], [42.783521, 43.187008], [42.789798, 43.184961], [42.790727, 43.182701], [42.795549, 43.180779], [42.795472, 43.176827], [42.7969, 43.173192], [42.800007, 43.173441], [42.807676, 43.171105], [42.808241, 43.169097], [42.811587, 43.16726], [42.814781, 43.167708], [42.819147, 43.171674], [42.824596, 43.173472], [42.827773, 43.173527], [42.830682, 43.174673], [42.833709, 43.17428], [42.837393, 43.176017], [42.845113, 43.176925], [42.84721, 43.177986], [42.85299, 43.178918], [42.860267, 43.178558], [42.863381, 43.175574], [42.866716, 43.174782], [42.870845, 43.171942], [42.875923, 43.170955], [42.877524, 43.169692], [42.876814, 43.16882], [42.877183, 43.16742], [42.875732, 43.166293], [42.876177, 43.164861], [42.874393, 43.162691], [42.876958, 43.161512], [42.8769, 43.160289], [42.879477, 43.157517], [42.88194, 43.156215], [42.88111, 43.153537], [42.883613, 43.154368], [42.884847, 43.155977], [42.888969, 43.157411], [42.892275, 43.156952], [42.89535, 43.157908], [42.895733, 43.158994], [42.89798, 43.158833], [42.901899, 43.155561], [42.903505, 43.153165], [42.916925, 43.1503], [42.925321, 43.150641], [42.927779, 43.149144], [42.931189, 43.149132], [42.93265, 43.14685], [42.932173, 43.146029], [42.929462, 43.14493], [42.929204, 43.14266], [42.926618, 43.141033], [42.923552, 43.136909], [42.921827, 43.13678], [42.921376, 43.135699], [42.924436, 43.134836], [42.926438, 43.132127], [42.92624, 43.125694], [42.933821, 43.122011], [42.936985, 43.12354], [42.940587, 43.122473], [42.948789, 43.12531], [42.953505, 43.124168], [42.956402, 43.125324], [42.962055, 43.124279], [42.963523, 43.125137], [42.966321, 43.123543], [42.970807, 43.122842], [42.980157, 43.1179], [42.985737, 43.117021], [42.990075, 43.119118], [42.994611, 43.116137], [43.000811, 43.113473], [43.003329, 43.111134], [43.007331, 43.109215], [43.010052, 43.10574], [43.014858, 43.104174], [43.016858, 43.101874], [43.027746, 43.099018], [43.027503, 43.097812], [43.02924, 43.095101], [43.032147, 43.092639], [43.034954, 43.091349], [43.041231, 43.090764], [43.041782, 43.088727], [43.043054, 43.088005], [43.041859, 43.08615], [43.036141, 43.082488], [43.030627, 43.081199], [43.028648, 43.081517], [43.027065, 43.080021], [43.027075, 43.078934], [43.023771, 43.077248], [43.01918, 43.072964], [43.015619, 43.071149], [43.017935, 43.066727], [43.022911, 43.062984], [43.023574, 43.058536], [43.027544, 43.052815], [43.027611, 43.051149], [43.025994, 43.049739], [43.025768, 43.048008], [43.03581, 43.043205], [43.036317, 43.040952], [43.038654, 43.038725], [43.03758, 43.03312], [43.035035, 43.029871], [43.043586, 43.028765], [43.042932, 43.026828], [43.044109, 43.025243], [43.047835, 43.023505], [43.050925, 43.019212], [43.05748, 43.018317], [43.065376, 43.014348], [43.069614, 43.013948], [43.070772, 43.0128], [43.070365, 43.011308], [43.071697, 43.007798], [43.076402, 43.00827], [43.078466, 43.007707], [43.081491, 43.004749], [43.082221, 43.002929], [43.086658, 42.999725], [43.0897, 42.99887], [43.091168, 42.999696], [43.097284, 42.999037], [43.113133, 42.999316], [43.11342, 42.997015], [43.115727, 42.992338], [43.117049, 42.991332], [43.120461, 42.989127], [43.122455, 42.989222], [43.130603, 42.985266], [43.133334, 42.985133], [43.132724, 42.980504], [43.134588, 42.979086], [43.141486, 42.97648], [43.141873, 42.973486], [43.142916, 42.972903], [43.14231, 42.972283], [43.142833, 42.969914], [43.145649, 42.968823], [43.143799, 42.967017], [43.146234, 42.964466], [43.143949, 42.961309], [43.14412, 42.958687], [43.143412, 42.957635], [43.13425, 42.95326], [43.131289, 42.95327], [43.127364, 42.951949], [43.126984, 42.950605], [43.124823, 42.948599], [43.117594, 42.944877], [43.112203, 42.944522], [43.109839, 42.942002], [43.105862, 42.940364], [43.10273, 42.937926], [43.095103, 42.937751], [43.093025, 42.933691], [43.090214, 42.930668], [43.090228, 42.929488], [43.091197, 42.926824], [43.095323, 42.922966], [43.100244, 42.921582], [43.102336, 42.915479], [43.102502, 42.910101], [43.105584, 42.904457], [43.103386, 42.902265], [43.090548, 42.89656], [43.089285, 42.895353], [43.086839, 42.889822], [43.08549, 42.883756], [43.083295, 42.882183], [43.077359, 42.875051], [43.071404, 42.866473], [43.067263, 42.865845], [43.060212, 42.862835], [43.058227, 42.861204], [43.051177, 42.87011], [43.048507, 42.875603], [43.049397, 42.877735], [43.048884, 42.878763], [43.05436, 42.883302], [43.05343, 42.886573], [43.048336, 42.891653], [43.043511, 42.893082], [43.037316, 42.896266], [43.03006, 42.893057], [43.024995, 42.892681], [43.012466, 42.888002], [43.007714, 42.890676], [42.998979, 42.892393], [42.990072, 42.890039], [42.9877, 42.890183], [42.983973, 42.888833], [42.982231, 42.887344], [42.979238, 42.888052], [42.97367, 42.887028], [42.963402, 42.883693], [42.962341, 42.881887], [42.957311, 42.878957], [42.955258, 42.882393], [42.943505, 42.88043], [42.930232, 42.882982], [42.920652, 42.879593], [42.915362, 42.878831], [42.913334, 42.880335], [42.910115, 42.887694], [42.904646, 42.892127], [42.903484, 42.894822], [42.897966, 42.896453], [42.893852, 42.895779], [42.890561, 42.897339], [42.88143, 42.899387], [42.870716, 42.899963], [42.865634, 42.904466], [42.865053, 42.907337], [42.859729, 42.907727], [42.851307, 42.906096], [42.837465, 42.906238], [42.833786, 42.908082], [42.8273, 42.909252], [42.827784, 42.91425], [42.825703, 42.917334], [42.820137, 42.915987], [42.814232, 42.917228], [42.806681, 42.917653], [42.80068, 42.921481], [42.797582, 42.918504], [42.790661, 42.914924], [42.786256, 42.908507], [42.783836, 42.906345], [42.781464, 42.905777], [42.775801, 42.899963], [42.773139, 42.898261], [42.767912, 42.897056], [42.763557, 42.893521], [42.756918, 42.898786], [42.753153, 42.9037], [42.749453, 42.902979], [42.746034, 42.90024], [42.735278, 42.896214], [42.725826, 42.894939], [42.721567, 42.895861], [42.716113, 42.891606], [42.701431, 42.887209], [42.694848, 42.89115], [42.683756, 42.893584], [42.678538, 42.89618], [42.675301, 42.899276], [42.669874, 42.900081], [42.659661, 42.906498], [42.643737, 42.90703], [42.641096, 42.911246], [42.637484, 42.912579], [42.619895, 42.913084], [42.609953, 42.909972], [42.606111, 42.910206], [42.588914, 42.905916], [42.585084, 42.910391], [42.574588, 42.90777], [42.569974, 42.908448], [42.559229, 42.914368], [42.55555, 42.915112], [42.556421, 42.91809], [42.55588, 42.920561], [42.546886, 42.921386], [42.53919, 42.920039], [42.536369, 42.922089], [42.534048, 42.922282], [42.531186, 42.919823], [42.522083, 42.920851], [42.515741, 42.924832], [42.511199, 42.925287], [42.508221, 42.929722], [42.504286, 42.9309], [42.500863, 42.933005], [42.496585, 42.938092], [42.490151, 42.937603], [42.485168, 42.936029], [42.480548, 42.93227], [42.47935, 42.927785], [42.477981, 42.925855], [42.471375, 42.920968], [42.47182, 42.916607], [42.474764, 42.912371], [42.474455, 42.910717], [42.477091, 42.906505], [42.475927, 42.899135], [42.48575, 42.889331], [42.486702, 42.883987], [42.484997, 42.879977], [42.480548, 42.881281], [42.476235, 42.885118], [42.457822, 42.886573], [42.453423, 42.8859], [42.453613, 42.88341], [42.452022, 42.882327], [42.446905, 42.882535], [42.441839, 42.881532], [42.438417, 42.881983], [42.432974, 42.881228], [42.420243, 42.881382], [42.416449, 42.880501], [42.408162, 42.883087], [42.40361, 42.886297], [42.396525, 42.886949], [42.396728, 42.884266], [42.395736, 42.883062], [42.3854, 42.879727], [42.386837, 42.875839], [42.378413, 42.867033], [42.378534, 42.864869], [42.372696, 42.861078], [42.368384, 42.856361], [42.366501, 42.851393], [42.365201, 42.844016], [42.365166, 42.839022], [42.366946, 42.836663], [42.361607, 42.833953], [42.360204, 42.831669], [42.357705, 42.829937], [42.356644, 42.82562], [42.351209, 42.826041], [42.349714, 42.826688], [42.346648, 42.830595], [42.342661, 42.82978], [42.339288, 42.833013], [42.330472, 42.831917], [42.321349, 42.826435], [42.312877, 42.829668], [42.305633, 42.829246], [42.295446, 42.830632], [42.289227, 42.839197], [42.284244, 42.840349], [42.281676, 42.841951], [42.275236, 42.841614]]]}, "properties": {"name": "Mestia Municipality", "name_ru": "Местийский муниципалитет", "admin_level": "6", "osm_relation": 2016168, "fetched": "2026-09-22", "source": "OpenStreetMap (ODbL), relation 2016168, выгрузка 22.09.2026, упрощение 0.0005°", "note": "Верхняя Сванетия: княжество Дадешкелиани и Вольная Сванетия; единый пристав с конца июня 1858 года (АКАК т. 12, док. 312)"}}]}