{"type": "FeatureCollection", "features": [{"type": "Feature", "properties": {"name": "Województwo sandomierskie", "start_date": "1816-01-16", "end_date": "1837-03-07", "source": "OpenHistoricalMap (CC0), relation 2695721; выгрузка 19.09.2026 через overpass-api.openhistoricalmap.org; воеводство Царства Польского 1816-1837"}, "geometry": {"type": "Polygon", "coordinates": [[[21.83305, 51.54815], [21.83284, 51.54487], [21.83172, 51.53961], [21.83327, 51.53555], [21.83979, 51.53], [21.84288, 51.52263], [21.8464, 51.5191], [21.85344, 51.51264], [21.85636, 51.50714], [21.85541, 51.50271], [21.8488, 51.49458], [21.84769, 51.49026], [21.84906, 51.48395], [21.85155, 51.48069], [21.85867, 51.47684], [21.867, 51.47486], [21.87301, 51.47508], [21.88116, 51.4739], [21.90451, 51.47005], [21.91412, 51.46952], [21.92047, 51.46588], [21.92802, 51.45561], [21.93918, 51.44994], [21.94502, 51.4432], [21.94193, 51.43218], [21.94656, 51.41784], [21.94193, 51.40574], [21.94365, 51.39856], [21.94931, 51.39439], [21.95772, 51.39074], [21.96201, 51.38635], [21.96201, 51.37907], [21.96665, 51.375], [21.97849, 51.36932], [21.98364, 51.36428], [21.98502, 51.35774], [21.98004, 51.35077], [21.96802, 51.34434], [21.9603, 51.3408], [21.95498, 51.33168], [21.94382, 51.32557], [21.93129, 51.32439], [21.92287, 51.32203], [21.91292, 51.31473], [21.90639, 51.3113], [21.89249, 51.30948], [21.88442, 51.30658], [21.87756, 51.29971], [21.86605, 51.29488], [21.86348, 51.29198], [21.86176, 51.28876], [21.86211, 51.27964], [21.85949, 51.27462], [21.84863, 51.2707], [21.83936, 51.26917], [21.83052, 51.26683], [21.82228, 51.26326], [21.81267, 51.25816], [21.8082, 51.2544], [21.80786, 51.24472], [21.8125, 51.24053], [21.81627, 51.23022], [21.80838, 51.22731], [21.8046, 51.22043], [21.80117, 51.22054], [21.79619, 51.21043], [21.78778, 51.20075], [21.78349, 51.18408], [21.78349, 51.17891], [21.79155, 51.18042], [21.78932, 51.17525], [21.79087, 51.17181], [21.78623, 51.16115], [21.78452, 51.15222], [21.78795, 51.14403], [21.7943, 51.13822], [21.79893, 51.13466], [21.79945, 51.12734], [21.79224, 51.12734], [21.79018, 51.11484], [21.79344, 51.09899], [21.79808, 51.09511], [21.80022, 51.08722], [21.79838, 51.08242], [21.79975, 51.07605], [21.80295, 51.07213], [21.82048, 51.05995], [21.82417, 51.05467], [21.82537, 51.04722], [21.82425, 51.04215], [21.81816, 51.03745], [21.80546, 51.03254], [21.80254, 51.02741], [21.80314, 51.02191], [21.8076, 51.01791], [21.8179, 51.01051], [21.82022, 51.00506], [21.82022, 50.9969], [21.82134, 50.98918], [21.8179, 50.97967], [21.81919, 50.96589], [21.81335, 50.95535], [21.81147, 50.94561], [21.81378, 50.93398], [21.82091, 50.92484], [21.82589, 50.91564], [21.82992, 50.90417], [21.82992, 50.89221], [21.8331, 50.88127], [21.84374, 50.86979], [21.84751, 50.86069], [21.84666, 50.85429], [21.84202, 50.84161], [21.84322, 50.83825], [21.8494, 50.83337], [21.8652, 50.82372], [21.86914, 50.81841], [21.8688, 50.81114], [21.86331, 50.80279], [21.86431, 50.79586], [21.87134, 50.79345], [21.87017, 50.79216], [21.86726, 50.79031], [21.85996, 50.78673], [21.85726, 50.78502], [21.85533, 50.78368], [21.85112, 50.78087], [21.84953, 50.77954], [21.84908, 50.77803], [21.84876, 50.77516], [21.8473, 50.76955], [21.84685, 50.76505], [21.84685, 50.76218], [21.84633, 50.75701], [21.84696, 50.75347], [21.8467, 50.75013], [21.84565, 50.74718], [21.84462, 50.74425], [21.84436, 50.74248], [21.84395, 50.7406], [21.84402, 50.73644], [21.84378, 50.73549], [21.84331, 50.73455], [21.84221, 50.73362], [21.83938, 50.73013], [21.83719, 50.72832], [21.83576, 50.72744], [21.83134, 50.72384], [21.82887, 50.72145], [21.82722, 50.71918], [21.82604, 50.71677], [21.82481, 50.71406], [21.82423, 50.71099], [21.82363, 50.70774], [21.82357, 50.70495], [21.82325, 50.70207], [21.82303, 50.70074], [21.82224, 50.69934], [21.82121, 50.69685], [21.8193, 50.69393], [21.81606, 50.68942], [21.81464, 50.68849], [21.81305, 50.68784], [21.81041, 50.6864], [21.80773, 50.6853], [21.80599, 50.68471], [21.80048, 50.68315], [21.79874, 50.6829], [21.79681, 50.68235], [21.79533, 50.68222], [21.791, 50.68221], [21.78582, 50.68161], [21.78456, 50.6816], [21.7811, 50.68157], [21.77514, 50.68106], [21.77379, 50.68077], [21.77248, 50.67991], [21.76926, 50.67796], [21.76737, 50.67638], [21.76477, 50.67514], [21.76201, 50.67431], [21.7572, 50.67268], [21.75439, 50.67214], [21.75387, 50.67177], [21.75254, 50.66984], [21.75166, 50.66882], [21.75078, 50.66825], [21.74943, 50.66789], [21.74531, 50.66706], [21.74357, 50.66682], [21.74201, 50.66668], [21.73965, 50.66636], [21.73694, 50.66553], [21.73443, 50.66467], [21.73332, 50.66412], [21.72984, 50.66168], [21.72812, 50.66004], [21.72662, 50.65784], [21.72555, 50.65541], [21.72437, 50.65349], [21.72325, 50.65115], [21.72287, 50.64743], [21.72259, 50.64572], [21.72233, 50.64434], [21.72229, 50.64341], [21.7222, 50.64222], [21.72173, 50.64096], [21.72128, 50.64007], [21.72055, 50.63869], [21.71825, 50.63534], [21.71203, 50.62985], [21.70836, 50.62731], [21.68459, 50.61253], [21.68272, 50.61132], [21.68109, 50.61031], [21.67892, 50.60905], [21.67238, 50.60307], [21.66718, 50.59618], [21.6662, 50.59454], [21.65937, 50.58279], [21.65882, 50.58197], [21.65839, 50.58108], [21.65783, 50.57879], [21.6577, 50.57661], [21.6571, 50.57456], [21.6562, 50.57329], [21.65543, 50.57202], [21.64382, 50.56046], [21.643, 50.55981], [21.64199, 50.55909], [21.63212, 50.55299], [21.63066, 50.55185], [21.62901, 50.55068], [21.61661, 50.5385], [21.61605, 50.53759], [21.60732, 50.52658], [21.60208, 50.52129], [21.60031, 50.52005], [21.59616, 50.5176], [21.59118, 50.5158], [21.58676, 50.51495], [21.58431, 50.51486], [21.58298, 50.51493], [21.57899, 50.51588], [21.5753, 50.51757], [21.57286, 50.51865], [21.57112, 50.51905], [21.56485, 50.51951], [21.55865, 50.5195], [21.55196, 50.52015], [21.5505, 50.52034], [21.54917, 50.52041], [21.54428, 50.51995], [21.5399, 50.51905], [21.53591, 50.51703], [21.53271, 50.51489], [21.52988, 50.51362], [21.52754, 50.51225], [21.52511, 50.51154], [21.52316, 50.5103], [21.51956, 50.50939], [21.51572, 50.50891], [21.51269, 50.50827], [21.50823, 50.50613], [21.50363, 50.50318], [21.49994, 50.50075], [21.49649, 50.49914], [21.4937, 50.49817], [21.48954, 50.49732], [21.4852, 50.4968], [21.47986, 50.49672], [21.47467, 50.49604], [21.47207, 50.49553], [21.46939, 50.49487], [21.4655, 50.49394], [21.45776, 50.49192], [21.45003, 50.4893], [21.44566, 50.48703], [21.44364, 50.48526], [21.44205, 50.48255], [21.44175, 50.47952], [21.44235, 50.47739], [21.44381, 50.47592], [21.44561, 50.47493], [21.44742, 50.47324], [21.44952, 50.47047], [21.45132, 50.46779], [21.45278, 50.46453], [21.45287, 50.46259], [21.45209, 50.46084], [21.45042, 50.45895], [21.44759, 50.45709], [21.44514, 50.45603], [21.43982, 50.45423], [21.42525, 50.44935], [21.40969, 50.44362], [21.39874, 50.43947], [21.39582, 50.43883], [21.3918, 50.43835], [21.38793, 50.4381], [21.38611, 50.43818], [21.38487, 50.43859], [21.38373, 50.43887], [21.38175, 50.43913], [21.37939, 50.43921], [21.37731, 50.43925], [21.37407, 50.43982], [21.37025, 50.44058], [21.36637, 50.44126], [21.36341, 50.44134], [21.36152, 50.44115], [21.35854, 50.44044], [21.35521, 50.43929], [21.35137, 50.43762], [21.34766, 50.43531], [21.34059, 50.43186], [21.33096, 50.42792], [21.3276, 50.42655], [21.32747, 50.42665], [21.25923, 50.47455], [21.20018, 50.51386], [21.17409, 50.55707], [21.13598, 50.57125], [21.03504, 50.65164], [21.04774, 50.66731], [20.94887, 50.70603], [20.86887, 50.7082], [20.77858, 50.78358], [20.83042, 50.81092], [20.86922, 50.86339], [20.63885, 50.91667], [20.49705, 50.90563], [20.45757, 50.86404], [20.38307, 50.82763], [20.30342, 50.83435], [20.33398, 50.89394], [20.35973, 50.91169], [20.35217, 50.9355], [20.33054, 50.96102], [20.2478, 50.96297], [20.15476, 50.92749], [20.04524, 50.97378], [20.02464, 50.97097], [20.01812, 50.94999], [20.00542, 50.9355], [19.84268, 50.94567], [19.83341, 50.96816], [19.86568, 51.07721], [19.91306, 51.12464], [19.90791, 51.31066], [19.85779, 51.37842], [19.86225, 51.39535], [20.00233, 51.47219], [20.00336, 51.48988], [20.04112, 51.52936], [20.0549, 51.53446], [20.07133, 51.5411], [20.08627, 51.53854], [20.12077, 51.53886], [20.14875, 51.53427], [20.2066, 51.52156], [20.26977, 51.53267], [20.32196, 51.57536], [20.3968, 51.58219], [20.43045, 51.61333], [20.45036, 51.61716], [20.47508, 51.60565], [20.6179, 51.60565], [20.67009, 51.62143], [20.75867, 51.62399], [20.87128, 51.66106], [20.93857, 51.66106], [20.95985, 51.65637], [21.00655, 51.69001], [21.0759, 51.70916], [21.11846, 51.7386], [21.11753, 51.74276], [21.1189, 51.7443], [21.12285, 51.74515], [21.12971, 51.74324], [21.13375, 51.74393], [21.13667, 51.74627], [21.13031, 51.74999], [21.13392, 51.75307], [21.14169, 51.75626], [21.16379, 51.77336], [21.18988, 51.77634], [21.24279, 51.79861], [21.247, 51.79897], [21.25039, 51.80077], [21.25333, 51.80294], [21.25711, 51.80433], [21.26037, 51.80528], [21.26573, 51.80751], [21.26893, 51.80839], [21.27445, 51.81075], [21.27786, 51.8131], [21.28093, 51.81405], [21.28455, 51.81526], [21.28608, 51.81648], [21.28657, 51.81905], [21.28783, 51.82041], [21.28824, 51.8222], [21.28653, 51.82447], [21.28661, 51.82622], [21.28314, 51.82904], [21.28174, 51.82966], [21.27932, 51.82879], [21.27758, 51.82941], [21.27678, 51.83122], [21.27455, 51.83277], [21.27352, 51.83411], [21.27155, 51.83392], [21.26792, 51.83445], [21.26623, 51.83588], [21.26578, 51.8371], [21.26539, 51.84164], [21.26219, 51.8444], [21.25867, 51.84523], [21.25586, 51.84483], [21.25492, 51.84546], [21.25488, 51.8464], [21.25691, 51.84728], [21.26189, 51.84813], [21.26331, 51.84894], [21.26303, 51.84984], [21.26088, 51.85045], [21.26045, 51.85082], [21.26118, 51.853], [21.26535, 51.85426], [21.26822, 51.85471], [21.27264, 51.85643], [21.27442, 51.85766], [21.27638, 51.86029], [21.28575, 51.86149], [21.29339, 51.85216], [21.30944, 51.84251], [21.36249, 51.8275], [21.38248, 51.82161], [21.41064, 51.8049], [21.43227, 51.78908], [21.43845, 51.77634], [21.41441, 51.75297], [21.41613, 51.73723], [21.45699, 51.6964], [21.46831, 51.67043], [21.47964, 51.66361], [21.5181, 51.66659], [21.53732, 51.66574], [21.54762, 51.66191], [21.57268, 51.63187], [21.58504, 51.62377], [21.61532, 51.6175], [21.62968, 51.60901], [21.6483, 51.60336], [21.65174, 51.59808], [21.65259, 51.58539], [21.65774, 51.58102], [21.66993, 51.57814], [21.71302, 51.56373], [21.73267, 51.56203], [21.75267, 51.56042], [21.76443, 51.56176], [21.77885, 51.56816], [21.78829, 51.56917], [21.80134, 51.56629], [21.81172, 51.56453], [21.82168, 51.56304], [21.82795, 51.55893], [21.83078, 51.55487], [21.83305, 51.54815]]]}}]}