{"type": "FeatureCollection", "features": [{"type": "Feature", "properties": {"name": "Województwo płockie", "start_date": "1816-01-16", "end_date": "1837-03-07", "source": "OpenHistoricalMap (CC0), relation 2692624; выгрузка 19.09.2026 через overpass-api.openhistoricalmap.org; воеводство Царства Польского 1816-1837"}, "geometry": {"type": "Polygon", "coordinates": [[[20.21656, 52.38118], [20.21261, 52.38178], [20.20961, 52.38301], [20.20476, 52.38202], [20.19437, 52.37976], [20.18304, 52.38071], [20.17038, 52.38005], [20.16094, 52.37995], [20.15433, 52.38105], [20.13957, 52.38629], [20.13236, 52.38618], [20.12438, 52.38587], [20.10447, 52.38084], [20.09116, 52.37974], [20.06936, 52.38461], [20.06095, 52.38503], [20.04601, 52.38215], [20.03202, 52.38026], [20.02524, 52.38089], [20.01975, 52.38325], [20.01537, 52.38493], [20.01323, 52.38927], [20.00791, 52.3943], [19.99374, 52.39949], [19.984, 52.40783], [19.98183, 52.41123], [19.97881, 52.41461], [19.97679, 52.41899], [19.94018, 52.43843], [19.82825, 52.47317], [19.76687, 52.47512], [19.75714, 52.4753], [19.75204, 52.4786], [19.74518, 52.51121], [19.67239, 52.53961], [19.62918, 52.55261], [19.58301, 52.56369], [19.52712, 52.57688], [19.51035, 52.58296], [19.42606, 52.6116], [19.40263, 52.61962], [19.36789, 52.62839], [19.15878, 52.65889], [19.13856, 52.65584], [19.08922, 52.66089], [19.0708, 52.6655], [19.04857, 52.67019], [19.03822, 52.67504], [19.03244, 52.67971], [18.98254, 52.73598], [18.96377, 52.7471], [18.95897, 52.75084], [18.95485, 52.76975], [18.93906, 52.78273], [18.9303, 52.78875], [18.92961, 52.79851], [18.92241, 52.80717], [18.90773, 52.82522], [18.90656, 52.8356], [18.90472, 52.84508], [18.90103, 52.85213], [18.89339, 52.85726], [18.88756, 52.8596], [18.85554, 52.86763], [18.84653, 52.87203], [18.8376, 52.87928], [18.83091, 52.89399], [18.82585, 52.89938], [18.82009, 52.90341], [18.81151, 52.90647], [18.79769, 52.90776], [18.77006, 52.90994], [18.7523, 52.91642], [18.76006, 52.91773], [18.76039, 52.91781], [18.76275, 52.91929], [18.76443, 52.92041], [18.76507, 52.9224], [18.76502, 52.92261], [18.76439, 52.92315], [18.76444, 52.92356], [18.76485, 52.92648], [18.76527, 52.92684], [18.76606, 52.92728], [18.76636, 52.9281], [18.76684, 52.92931], [18.76669, 52.93089], [18.7657, 52.93394], [18.76572, 52.93443], [18.76534, 52.93649], [18.76474, 52.93759], [18.76503, 52.93801], [18.76569, 52.93831], [18.76677, 52.93912], [18.76744, 52.94129], [18.76765, 52.94161], [18.76836, 52.94361], [18.76859, 52.9442], [18.76824, 52.94443], [18.76564, 52.94545], [18.76246, 52.94704], [18.76122, 52.94786], [18.7608, 52.94824], [18.7601, 52.94863], [18.75782, 52.94998], [18.76052, 52.95157], [18.76202, 52.95352], [18.76233, 52.95441], [18.76189, 52.9551], [18.75966, 52.95541], [18.75826, 52.95595], [18.75717, 52.95677], [18.75889, 52.95896], [18.75991, 52.9612], [18.7591, 52.96194], [18.75855, 52.96224], [18.75664, 52.9625], [18.75338, 52.96222], [18.75279, 52.96209], [18.75255, 52.96239], [18.75243, 52.96272], [18.75224, 52.96296], [18.75246, 52.96312], [18.75311, 52.96342], [18.75415, 52.96414], [18.75445, 52.96453], [18.75417, 52.96508], [18.75309, 52.96626], [18.7527, 52.96668], [18.75219, 52.96706], [18.75303, 52.96807], [18.75442, 52.96931], [18.75576, 52.96984], [18.75681, 52.97189], [18.75371, 52.97252], [18.75464, 52.97388], [18.75404, 52.97403], [18.75304, 52.97407], [18.7545, 52.97658], [18.75369, 52.97672], [18.75419, 52.97787], [18.75623, 52.97759], [18.75572, 52.9764], [18.7598, 52.9758], [18.76032, 52.97629], [18.76101, 52.97616], [18.7624, 52.97752], [18.76714, 52.98103], [18.76117, 52.98316], [18.76169, 52.98433], [18.75512, 52.98993], [18.78024, 53.01117], [18.78161, 53.01208], [18.78414, 53.01441], [18.78577, 53.01641], [18.78274, 53.01819], [18.78027, 53.01982], [18.77963, 53.02032], [18.77928, 53.02049], [18.77791, 53.02095], [18.77767, 53.02085], [18.77731, 53.02086], [18.77641, 53.02104], [18.77608, 53.02107], [18.77575, 53.02103], [18.77492, 53.02106], [18.77389, 53.02105], [18.7735, 53.02102], [18.77204, 53.02087], [18.77133, 53.02076], [18.76926, 53.02057], [18.76893, 53.02038], [18.76822, 53.02009], [18.76748, 53.02013], [18.7665, 53.02047], [18.76561, 53.02052], [18.76463, 53.02047], [18.76407, 53.02026], [18.76361, 53.02016], [18.7626, 53.02008], [18.76237, 53.02006], [18.76176, 53.02018], [18.76006, 53.02074], [18.76013, 53.0209], [18.76001, 53.02111], [18.75949, 53.0216], [18.7589, 53.02187], [18.75853, 53.022], [18.75804, 53.02208], [18.75775, 53.02218], [18.75739, 53.02228], [18.75697, 53.02232], [18.75511, 53.02179], [18.7545, 53.02177], [18.75436, 53.02178], [18.75422, 53.02182], [18.7541, 53.02189], [18.75395, 53.0219], [18.7538, 53.02183], [18.75361, 53.02171], [18.7533, 53.02167], [18.75276, 53.02165], [18.75209, 53.02167], [18.75177, 53.02171], [18.75164, 53.02177], [18.7516, 53.02181], [18.75219, 53.02253], [18.75169, 53.02282], [18.75109, 53.02324], [18.75104, 53.0237], [18.7517, 53.02402], [18.75305, 53.02413], [18.75417, 53.02396], [18.75518, 53.02369], [18.75606, 53.02374], [18.75684, 53.02416], [18.75645, 53.02478], [18.7564, 53.0254], [18.75659, 53.02592], [18.75738, 53.02617], [18.75913, 53.02631], [18.76242, 53.026], [18.76286, 53.02618], [18.76321, 53.02642], [18.76304, 53.0268], [18.76269, 53.02701], [18.7618, 53.02721], [18.75912, 53.02792], [18.75865, 53.02818], [18.75823, 53.02842], [18.75841, 53.02885], [18.75855, 53.02899], [18.75948, 53.02922], [18.76087, 53.02926], [18.76235, 53.02926], [18.76283, 53.02945], [18.76503, 53.03104], [18.76594, 53.03218], [18.76724, 53.03298], [18.77186, 53.03536], [18.77377, 53.03665], [18.77466, 53.03738], [18.77574, 53.03849], [18.7785, 53.04042], [18.77894, 53.04093], [18.77893, 53.04141], [18.77863, 53.04185], [18.77817, 53.04198], [18.77723, 53.04198], [18.77676, 53.04201], [18.77653, 53.04214], [18.77644, 53.04232], [18.7765, 53.04271], [18.77668, 53.04297], [18.77694, 53.04309], [18.77717, 53.04309], [18.77763, 53.04315], [18.77799, 53.04329], [18.77818, 53.04341], [18.77971, 53.04448], [18.78008, 53.04523], [18.78038, 53.04574], [18.78069, 53.04602], [18.78168, 53.04644], [18.78227, 53.04677], [18.78258, 53.04698], [18.78306, 53.04752], [18.78347, 53.0481], [18.78387, 53.04842], [18.78497, 53.049], [18.78583, 53.04945], [18.78696, 53.05042], [18.78793, 53.05159], [18.78851, 53.05234], [18.78869, 53.05309], [18.78917, 53.05359], [18.7901, 53.05405], [18.79118, 53.05441], [18.79239, 53.05457], [18.79399, 53.05475], [18.79543, 53.055], [18.79651, 53.05531], [18.79713, 53.05564], [18.79735, 53.05599], [18.7978, 53.05682], [18.79812, 53.05726], [18.79853, 53.05756], [18.79908, 53.0578], [18.79997, 53.05811], [18.80068, 53.05855], [18.80126, 53.05911], [18.80209, 53.05962], [18.80267, 53.06007], [18.80295, 53.06042], [18.80319, 53.0616], [18.80338, 53.06216], [18.80382, 53.0626], [18.80461, 53.06276], [18.80617, 53.06292], [18.80659, 53.06316], [18.80712, 53.06366], [18.80784, 53.06553], [18.80786, 53.06607], [18.80839, 53.06679], [18.80898, 53.0672], [18.80925, 53.06727], [18.80953, 53.0673], [18.81027, 53.06739], [18.81067, 53.06737], [18.81122, 53.06719], [18.81228, 53.06674], [18.81286, 53.06663], [18.81326, 53.06665], [18.81374, 53.06675], [18.81423, 53.06716], [18.81485, 53.0681], [18.81544, 53.06864], [18.81625, 53.06916], [18.81683, 53.06933], [18.81783, 53.0695], [18.81868, 53.06961], [18.8194, 53.06952], [18.81989, 53.06928], [18.82009, 53.069], [18.82, 53.06862], [18.81999, 53.0683], [18.82009, 53.06813], [18.82045, 53.06792], [18.82072, 53.06781], [18.8211, 53.06786], [18.82144, 53.06803], [18.82183, 53.0683], [18.82336, 53.06878], [18.82428, 53.06908], [18.82461, 53.0692], [18.82496, 53.06944], [18.82532, 53.0697], [18.82558, 53.06971], [18.82591, 53.06964], [18.82615, 53.06947], [18.82626, 53.0692], [18.82627, 53.06898], [18.82541, 53.06808], [18.82536, 53.0678], [18.82551, 53.06757], [18.82561, 53.06748], [18.82606, 53.06733], [18.82657, 53.06731], [18.82938, 53.06748], [18.83016, 53.06759], [18.83059, 53.06775], [18.83089, 53.06797], [18.83135, 53.06837], [18.83201, 53.06878], [18.83286, 53.06913], [18.83433, 53.06939], [18.83597, 53.06961], [18.83792, 53.06984], [18.83864, 53.07004], [18.83964, 53.07061], [18.83983, 53.07088], [18.84048, 53.07104], [18.84219, 53.071], [18.84362, 53.07119], [18.84452, 53.07116], [18.84514, 53.07094], [18.84559, 53.07038], [18.84575, 53.06975], [18.84682, 53.06835], [18.84699, 53.0678], [18.84705, 53.06714], [18.84749, 53.0668], [18.84827, 53.06663], [18.84957, 53.06664], [18.85126, 53.06687], [18.85222, 53.06686], [18.85319, 53.06673], [18.85399, 53.06656], [18.85478, 53.06661], [18.85527, 53.06679], [18.85603, 53.06717], [18.8582, 53.06799], [18.85921, 53.06856], [18.85951, 53.06865], [18.85993, 53.06853], [18.86032, 53.06831], [18.86083, 53.06816], [18.86125, 53.06824], [18.86183, 53.06826], [18.86229, 53.06817], [18.8629, 53.06783], [18.86347, 53.06759], [18.86404, 53.06743], [18.8644, 53.06743], [18.86449, 53.06743], [18.86445, 53.06751], [18.86452, 53.06772], [18.86481, 53.06787], [18.86511, 53.06794], [18.86552, 53.06791], [18.86627, 53.06763], [18.8669, 53.06745], [18.86718, 53.06743], [18.86771, 53.06744], [18.86832, 53.06763], [18.86912, 53.06814], [18.86986, 53.06883], [18.87015, 53.06925], [18.87029, 53.0694], [18.87049, 53.06944], [18.87074, 53.06941], [18.8711, 53.06934], [18.87132, 53.06919], [18.8716, 53.06816], [18.87192, 53.0676], [18.87244, 53.06713], [18.8732, 53.0666], [18.87378, 53.06649], [18.87453, 53.06644], [18.87499, 53.06632], [18.87547, 53.06613], [18.87636, 53.066], [18.87688, 53.06596], [18.87724, 53.06612], [18.87768, 53.06624], [18.87793, 53.06622], [18.87821, 53.06606], [18.87891, 53.06562], [18.87942, 53.06544], [18.88, 53.06541], [18.88099, 53.06539], [18.88131, 53.06532], [18.88167, 53.06507], [18.88198, 53.06471], [18.88224, 53.06452], [18.88254, 53.06447], [18.88279, 53.06452], [18.88296, 53.06469], [18.88308, 53.06494], [18.8833, 53.06564], [18.88371, 53.06612], [18.88475, 53.06664], [18.88516, 53.06678], [18.88591, 53.06682], [18.88863, 53.06679], [18.88884, 53.06677], [18.8891, 53.06662], [18.88913, 53.06633], [18.8889, 53.06611], [18.88787, 53.06542], [18.88678, 53.06461], [18.88665, 53.06429], [18.88664, 53.06392], [18.88694, 53.06357], [18.8875, 53.0635], [18.88815, 53.06353], [18.88945, 53.06375], [18.89012, 53.06379], [18.89084, 53.0637], [18.8926, 53.06345], [18.89453, 53.06297], [18.89522, 53.06278], [18.89565, 53.06255], [18.8959, 53.06229], [18.89617, 53.06189], [18.89637, 53.06166], [18.8967, 53.06157], [18.89695, 53.06157], [18.89723, 53.0617], [18.89813, 53.06254], [18.89945, 53.06408], [18.90032, 53.06484], [18.90062, 53.06527], [18.90095, 53.06555], [18.90131, 53.06562], [18.90159, 53.0656], [18.90201, 53.06546], [18.90218, 53.0653], [18.9025, 53.06458], [18.90271, 53.06436], [18.90355, 53.06373], [18.90415, 53.06323], [18.90442, 53.06316], [18.90468, 53.06315], [18.90517, 53.06332], [18.90568, 53.06385], [18.90596, 53.06432], [18.90635, 53.0646], [18.9067, 53.06463], [18.90715, 53.06455], [18.9079, 53.06428], [18.90808, 53.06407], [18.90813, 53.06383], [18.90793, 53.0636], [18.90724, 53.06297], [18.90713, 53.06276], [18.90715, 53.06256], [18.90742, 53.06219], [18.90755, 53.06167], [18.90759, 53.06133], [18.90775, 53.06123], [18.90802, 53.06121], [18.90861, 53.06131], [18.90927, 53.06143], [18.90963, 53.06146], [18.91027, 53.06139], [18.91078, 53.06121], [18.91182, 53.06058], [18.91248, 53.06027], [18.91326, 53.06026], [18.9139, 53.06043], [18.91445, 53.06069], [18.91482, 53.06093], [18.91491, 53.06125], [18.91485, 53.06223], [18.91497, 53.06242], [18.91522, 53.06257], [18.91558, 53.0626], [18.91609, 53.06253], [18.9183, 53.06217], [18.91916, 53.06199], [18.9193, 53.06191], [18.91956, 53.06143], [18.91967, 53.06095], [18.91986, 53.06081], [18.92012, 53.06079], [18.92039, 53.06088], [18.92058, 53.06107], [18.92083, 53.06181], [18.92106, 53.06223], [18.92142, 53.06246], [18.92187, 53.06253], [18.92228, 53.06252], [18.92259, 53.06237], [18.92313, 53.06169], [18.92354, 53.06141], [18.92448, 53.06105], [18.92541, 53.06086], [18.92689, 53.06069], [18.9276, 53.06065], [18.92873, 53.0608], [18.9292, 53.06082], [18.93043, 53.06059], [18.93152, 53.06027], [18.93252, 53.06014], [18.93322, 53.0602], [18.93361, 53.06041], [18.93428, 53.06085], [18.93482, 53.061], [18.93522, 53.06106], [18.93564, 53.06107], [18.9369, 53.06094], [18.93731, 53.06096], [18.93853, 53.06126], [18.93953, 53.06138], [18.94107, 53.06149], [18.94194, 53.06141], [18.94248, 53.06142], [18.94302, 53.06157], [18.94342, 53.06183], [18.94387, 53.06236], [18.94438, 53.06353], [18.94484, 53.06391], [18.94558, 53.0641], [18.94621, 53.06419], [18.9468, 53.06401], [18.94696, 53.06379], [18.94693, 53.06329], [18.94712, 53.06304], [18.94756, 53.06282], [18.94837, 53.06277], [18.94902, 53.06275], [18.95141, 53.06231], [18.95238, 53.06228], [18.95315, 53.0624], [18.9541, 53.06253], [18.95593, 53.06258], [18.95796, 53.06272], [18.95937, 53.06268], [18.95984, 53.06285], [18.96027, 53.06312], [18.9608, 53.06372], [18.96104, 53.06467], [18.961, 53.066], [18.96063, 53.06669], [18.9594, 53.06816], [18.95876, 53.06926], [18.95881, 53.06968], [18.95946, 53.07011], [18.96034, 53.07077], [18.9612, 53.07122], [18.96199, 53.07138], [18.96308, 53.07138], [18.96366, 53.07124], [18.96422, 53.07078], [18.96448, 53.07024], [18.9648, 53.06951], [18.96507, 53.06913], [18.96535, 53.06865], [18.96556, 53.06791], [18.9654, 53.06748], [18.96481, 53.06712], [18.96387, 53.06683], [18.96374, 53.06662], [18.96388, 53.06626], [18.96426, 53.06596], [18.96482, 53.0657], [18.96533, 53.06554], [18.96549, 53.06533], [18.96539, 53.06492], [18.96549, 53.06471], [18.96584, 53.06457], [18.9664, 53.06448], [18.96709, 53.06458], [18.96841, 53.06502], [18.96895, 53.06513], [18.96983, 53.0652], [18.9705, 53.06534], [18.97083, 53.06554], [18.97102, 53.06573], [18.97104, 53.066], [18.97076, 53.06631], [18.97032, 53.06665], [18.96974, 53.06697], [18.96906, 53.06728], [18.96863, 53.06765], [18.96864, 53.06807], [18.96898, 53.06898], [18.96911, 53.06928], [18.96842, 53.06988], [18.96838, 53.07018], [18.96855, 53.07095], [18.96839, 53.07192], [18.96849, 53.07267], [18.96888, 53.07316], [18.9695, 53.07337], [18.96997, 53.07331], [18.97054, 53.07306], [18.97235, 53.07233], [18.97297, 53.07223], [18.97371, 53.07224], [18.97424, 53.07213], [18.97493, 53.07191], [18.9751, 53.07163], [18.97508, 53.07151], [18.97523, 53.0712], [18.97551, 53.0708], [18.97564, 53.07036], [18.97543, 53.07018], [18.97429, 53.0698], [18.97411, 53.06964], [18.97422, 53.0693], [18.97421, 53.06903], [18.97407, 53.06877], [18.9739, 53.06863], [18.9741, 53.06839], [18.97462, 53.06833], [18.97523, 53.06847], [18.97708, 53.06936], [18.97844, 53.0697], [18.98189, 53.07034], [18.98241, 53.07032], [18.98273, 53.07009], [18.98325, 53.06971], [18.98386, 53.06957], [18.98526, 53.06956], [18.98653, 53.06979], [18.98775, 53.07015], [18.98849, 53.07067], [18.98936, 53.07346], [18.98921, 53.07381], [18.98886, 53.07419], [18.98652, 53.07492], [18.98489, 53.07505], [18.98418, 53.07533], [18.98273, 53.07617], [18.9817, 53.07644], [18.98125, 53.07673], [18.98128, 53.07701], [18.98159, 53.07742], [18.98428, 53.07899], [18.98665, 53.08013], [18.98827, 53.081], [18.98938, 53.08139], [18.9916, 53.08335], [18.99202, 53.08367], [18.99377, 53.08393], [18.99426, 53.08419], [18.99489, 53.08469], [18.99548, 53.08571], [18.99599, 53.08618], [18.99645, 53.08645], [18.99769, 53.08661], [18.9985, 53.08695], [18.99904, 53.08768], [18.99917, 53.08826], [18.99892, 53.08863], [18.99774, 53.08928], [18.99743, 53.08965], [18.99745, 53.08983], [18.99768, 53.0899], [18.99815, 53.08986], [18.99876, 53.08993], [18.99942, 53.09018], [19.00073, 53.09013], [19.00096, 53.09022], [19.00087, 53.09044], [19.00043, 53.0907], [19.00033, 53.09097], [19.00057, 53.09123], [19.00107, 53.09158], [19.00121, 53.09189], [19.00129, 53.09219], [19.00162, 53.09233], [19.00207, 53.09213], [19.00292, 53.09185], [19.00363, 53.09177], [19.00372, 53.09158], [19.00368, 53.09132], [19.00341, 53.091], [19.00335, 53.09074], [19.00355, 53.0905], [19.00388, 53.0902], [19.00424, 53.09005], [19.00464, 53.09004], [19.0048, 53.09021], [19.00465, 53.09036], [19.00449, 53.09051], [19.00432, 53.09082], [19.00442, 53.09121], [19.00468, 53.09139], [19.00501, 53.09135], [19.00521, 53.09115], [19.00528, 53.0909], [19.00558, 53.09075], [19.00606, 53.09073], [19.00635, 53.09087], [19.00644, 53.09109], [19.00623, 53.09138], [19.00597, 53.09176], [19.00605, 53.09227], [19.00658, 53.0928], [19.00697, 53.09292], [19.00741, 53.09271], [19.0075, 53.09249], [19.00744, 53.09219], [19.00714, 53.09184], [19.00701, 53.09174], [19.0069, 53.09158], [19.007, 53.09141], [19.00761, 53.09121], [19.00824, 53.0911], [19.0086, 53.09119], [19.0088, 53.09141], [19.0087, 53.09157], [19.00851, 53.09174], [19.00852, 53.09195], [19.00877, 53.09215], [19.00924, 53.09215], [19.01001, 53.09195], [19.01042, 53.092], [19.01094, 53.09213], [19.0112, 53.09229], [19.01105, 53.09251], [19.00956, 53.09279], [19.00935, 53.09297], [19.00943, 53.09343], [19.00963, 53.09361], [19.00985, 53.09368], [19.0103, 53.09362], [19.01086, 53.0931], [19.01122, 53.09312], [19.01164, 53.09338], [19.01183, 53.09357], [19.01228, 53.09364], [19.01211, 53.09433], [19.01237, 53.09466], [19.01303, 53.09489], [19.01365, 53.09501], [19.0141, 53.09497], [19.01475, 53.09469], [19.01501, 53.09444], [19.01468, 53.09405], [19.01431, 53.09368], [19.0143, 53.09345], [19.01471, 53.09278], [19.01502, 53.09262], [19.01567, 53.09259], [19.01654, 53.09275], [19.01684, 53.09291], [19.01671, 53.09307], [19.01616, 53.09324], [19.01574, 53.09347], [19.01556, 53.09371], [19.01553, 53.09393], [19.01585, 53.0941], [19.0163, 53.09423], [19.01665, 53.09424], [19.01689, 53.09409], [19.01699, 53.09362], [19.01736, 53.09328], [19.01781, 53.0931], [19.01876, 53.09302], [19.01946, 53.09301], [19.02027, 53.09279], [19.02068, 53.09278], [19.02097, 53.09287], [19.02116, 53.09314], [19.02111, 53.09327], [19.02075, 53.09338], [19.02003, 53.09353], [19.01973, 53.0937], [19.01956, 53.0939], [19.01956, 53.09408], [19.0197, 53.09432], [19.01985, 53.09451], [19.02022, 53.0948], [19.02059, 53.09489], [19.02085, 53.09487], [19.02097, 53.09481], [19.02108, 53.09468], [19.02124, 53.09454], [19.02225, 53.0941], [19.02238, 53.09397], [19.02257, 53.09373], [19.02274, 53.09362], [19.02305, 53.09355], [19.02352, 53.09356], [19.02399, 53.09369], [19.02433, 53.09385], [19.02445, 53.09398], [19.02441, 53.09417], [19.02425, 53.09455], [19.02426, 53.09482], [19.02442, 53.09506], [19.02473, 53.09525], [19.02512, 53.09537], [19.02615, 53.09555], [19.02655, 53.09563], [19.02746, 53.0959], [19.02797, 53.09604], [19.02842, 53.09626], [19.02856, 53.09645], [19.02859, 53.09661], [19.02848, 53.09678], [19.02768, 53.09759], [19.02733, 53.09781], [19.02709, 53.09787], [19.02666, 53.09791], [19.0262, 53.09783], [19.02583, 53.0977], [19.02553, 53.09767], [19.02517, 53.0977], [19.02477, 53.09779], [19.02448, 53.09793], [19.02429, 53.09806], [19.02412, 53.09819], [19.0241, 53.09831], [19.02429, 53.09842], [19.0246, 53.0985], [19.02483, 53.09854], [19.02524, 53.09872], [19.02569, 53.09882], [19.0259, 53.09881], [19.02656, 53.09865], [19.02696, 53.09863], [19.02727, 53.09867], [19.02753, 53.09891], [19.02782, 53.09921], [19.02789, 53.0994], [19.02786, 53.09953], [19.02769, 53.09963], [19.02739, 53.09983], [19.02705, 53.10029], [19.02692, 53.10057], [19.02692, 53.10084], [19.02719, 53.10108], [19.02748, 53.1013], [19.02763, 53.10147], [19.02778, 53.10193], [19.02781, 53.10217], [19.02775, 53.10233], [19.02758, 53.10248], [19.02736, 53.10257], [19.02681, 53.10264], [19.02649, 53.10275], [19.02626, 53.10293], [19.02594, 53.10304], [19.02529, 53.10325], [19.02502, 53.1034], [19.02486, 53.10358], [19.02476, 53.1038], [19.02479, 53.10401], [19.02499, 53.10417], [19.0254, 53.10424], [19.02578, 53.10413], [19.02633, 53.10397], [19.02667, 53.10396], [19.02699, 53.10404], [19.02735, 53.1042], [19.0277, 53.10439], [19.02809, 53.10475], [19.02843, 53.10519], [19.02855, 53.10546], [19.02839, 53.10563], [19.02842, 53.10585], [19.02869, 53.10605], [19.02897, 53.10609], [19.0293, 53.10603], [19.02945, 53.10599], [19.02952, 53.10591], [19.02972, 53.10544], [19.02993, 53.10513], [19.03025, 53.10494], [19.03074, 53.10471], [19.03113, 53.10464], [19.03154, 53.10468], [19.03212, 53.10481], [19.03262, 53.10475], [19.03321, 53.10464], [19.03429, 53.10446], [19.03546, 53.10436], [19.03608, 53.10426], [19.03686, 53.10406], [19.03745, 53.10385], [19.03793, 53.10356], [19.03828, 53.10347], [19.03869, 53.10346], [19.03916, 53.10354], [19.03959, 53.10365], [19.03984, 53.10383], [19.04028, 53.10422], [19.04073, 53.10451], [19.04118, 53.10469], [19.0419, 53.10485], [19.04397, 53.1052], [19.04451, 53.10536], [19.04479, 53.10558], [19.04491, 53.10586], [19.0448, 53.1062], [19.0445, 53.10672], [19.04443, 53.10715], [19.04452, 53.10758], [19.04489, 53.10872], [19.04504, 53.10941], [19.04522, 53.11019], [19.04554, 53.11095], [19.04572, 53.11134], [19.04589, 53.11174], [19.04616, 53.11201], [19.04663, 53.11229], [19.04719, 53.11243], [19.04846, 53.11268], [19.04867, 53.11277], [19.04925, 53.11307], [19.04971, 53.11338], [19.05003, 53.11352], [19.0503, 53.11352], [19.05064, 53.11344], [19.05104, 53.11326], [19.05164, 53.11287], [19.05196, 53.11255], [19.05231, 53.11212], [19.05279, 53.11182], [19.05316, 53.11166], [19.05389, 53.11142], [19.05487, 53.11131], [19.05599, 53.11117], [19.05759, 53.11118], [19.05996, 53.11129], [19.06033, 53.11131], [19.0605, 53.11136], [19.06063, 53.11144], [19.06085, 53.1117], [19.06099, 53.11204], [19.06101, 53.11229], [19.0609, 53.11261], [19.06068, 53.11295], [19.06047, 53.1132], [19.06015, 53.11335], [19.05978, 53.11342], [19.05935, 53.11344], [19.05821, 53.11319], [19.05789, 53.11311], [19.0577, 53.11313], [19.05753, 53.1132], [19.0571, 53.11356], [19.05632, 53.11432], [19.05621, 53.11454], [19.05621, 53.11474], [19.05633, 53.11492], [19.05659, 53.11504], [19.057, 53.11507], [19.05764, 53.11503], [19.05855, 53.11489], [19.05899, 53.11489], [19.05959, 53.11499], [19.06033, 53.11515], [19.06053, 53.11523], [19.06072, 53.11539], [19.06112, 53.11586], [19.06128, 53.11605], [19.0615, 53.11616], [19.06184, 53.11625], [19.06246, 53.11629], [19.06295, 53.11626], [19.06379, 53.11618], [19.06422, 53.11617], [19.06502, 53.11626], [19.06548, 53.11624], [19.06598, 53.11616], [19.06637, 53.11602], [19.06654, 53.11586], [19.0666, 53.1157], [19.06658, 53.1156], [19.06645, 53.11549], [19.06597, 53.11516], [19.06571, 53.11487], [19.06554, 53.11443], [19.0655, 53.11395], [19.06561, 53.11335], [19.06577, 53.11306], [19.06608, 53.1128], [19.06643, 53.11268], [19.06671, 53.11262], [19.06699, 53.11263], [19.06733, 53.11277], [19.06767, 53.11297], [19.06797, 53.11325], [19.0684, 53.11375], [19.06881, 53.11412], [19.06968, 53.11464], [19.06982, 53.11477], [19.06986, 53.11489], [19.06974, 53.11528], [19.06953, 53.11568], [19.06945, 53.11606], [19.06945, 53.11642], [19.06974, 53.117], [19.06988, 53.11731], [19.06987, 53.11769], [19.06993, 53.11807], [19.07009, 53.11844], [19.07036, 53.11877], [19.07048, 53.11913], [19.07051, 53.11965], [19.07051, 53.11999], [19.07067, 53.12021], [19.07098, 53.1204], [19.07151, 53.12051], [19.0721, 53.12056], [19.0735, 53.12048], [19.07412, 53.12049], [19.07484, 53.12067], [19.07539, 53.12088], [19.07731, 53.12175], [19.07784, 53.12205], [19.07844, 53.12224], [19.07921, 53.12226], [19.08048, 53.12207], [19.08124, 53.12191], [19.08194, 53.12168], [19.08246, 53.12134], [19.08327, 53.12068], [19.08349, 53.1204], [19.08362, 53.12001], [19.08386, 53.11968], [19.08448, 53.11927], [19.08507, 53.11899], [19.08549, 53.11887], [19.08604, 53.11882], [19.08652, 53.11893], [19.08765, 53.11925], [19.08827, 53.11947], [19.08881, 53.11954], [19.08927, 53.11951], [19.08966, 53.11939], [19.09006, 53.11909], [19.09054, 53.11883], [19.09088, 53.11874], [19.09132, 53.11879], [19.09162, 53.11893], [19.09211, 53.11925], [19.09252, 53.11948], [19.09287, 53.11959], [19.09339, 53.11962], [19.09372, 53.11955], [19.09391, 53.11939], [19.0941, 53.11917], [19.0944, 53.11898], [19.09471, 53.11893], [19.09518, 53.11898], [19.09602, 53.11916], [19.09704, 53.11933], [19.09778, 53.11942], [19.09875, 53.11943], [19.09987, 53.11934], [19.10056, 53.11938], [19.10106, 53.11946], [19.10149, 53.11963], [19.10197, 53.12002], [19.10218, 53.1203], [19.10233, 53.12067], [19.10246, 53.12148], [19.10262, 53.12237], [19.1026, 53.12272], [19.10269, 53.12299], [19.10286, 53.12314], [19.10398, 53.12355], [19.10422, 53.12372], [19.10442, 53.12451], [19.10458, 53.12496], [19.10456, 53.12526], [19.10471, 53.1254], [19.10502, 53.1254], [19.10546, 53.12524], [19.10573, 53.125], [19.10586, 53.12481], [19.10606, 53.12435], [19.1059, 53.12403], [19.10598, 53.12379], [19.10619, 53.12359], [19.10664, 53.12344], [19.10706, 53.12343], [19.10728, 53.12355], [19.10784, 53.1242], [19.10803, 53.12466], [19.10873, 53.12513], [19.10953, 53.12582], [19.11033, 53.12621], [19.11174, 53.12672], [19.11292, 53.12707], [19.11346, 53.1271], [19.11361, 53.12698], [19.11366, 53.12666], [19.11395, 53.12608], [19.11405, 53.12581], [19.11405, 53.12566], [19.11387, 53.12533], [19.11374, 53.12514], [19.11374, 53.12489], [19.11391, 53.12462], [19.1143, 53.12442], [19.11526, 53.12427], [19.11623, 53.12419], [19.11681, 53.1243], [19.11866, 53.12499], [19.11591, 53.12599], [19.11647, 53.12682], [19.11746, 53.12669], [19.11964, 53.12532], [19.12055, 53.12602], [19.12218, 53.12744], [19.12248, 53.12986], [19.12634, 53.13181], [19.1281, 53.13377], [19.12982, 53.13434], [19.13132, 53.1357], [19.13372, 53.13665], [19.13591, 53.13652], [19.13754, 53.13786], [19.13926, 53.1381], [19.1414, 53.14044], [19.14428, 53.1407], [19.14604, 53.14118], [19.14805, 53.14082], [19.14938, 53.14149], [19.14896, 53.14288], [19.15011, 53.14355], [19.1523, 53.1436], [19.15393, 53.14363], [19.15441, 53.14427], [19.15428, 53.14538], [19.15535, 53.14592], [19.15694, 53.14605], [19.1581, 53.14685], [19.15964, 53.14705], [19.16071, 53.1487], [19.16466, 53.14983], [19.16526, 53.15037], [19.16595, 53.15032], [19.16831, 53.14855], [19.17093, 53.14883], [19.17303, 53.14837], [19.17406, 53.1488], [19.17483, 53.14994], [19.17715, 53.15019], [19.1784, 53.152], [19.17964, 53.15228], [19.18123, 53.15228], [19.1832, 53.15287], [19.18633, 53.15269], [19.18829, 53.15279], [19.18975, 53.15346], [19.19048, 53.15326], [19.19153, 53.15203], [19.19447, 53.1517], [19.19578, 53.15232], [19.19623, 53.1529], [19.19593, 53.15381], [19.19432, 53.15429], [19.19434, 53.1547], [19.1955, 53.15562], [19.19563, 53.15658], [19.1953, 53.15776], [19.19419, 53.15903], [19.1941, 53.15973], [19.19462, 53.16035], [19.19646, 53.16101], [19.19749, 53.16056], [19.19925, 53.16035], [19.20125, 53.15965], [19.20269, 53.15941], [19.20442, 53.15959], [19.20623, 53.16018], [19.20719, 53.16077], [19.20867, 53.16185], [19.20884, 53.16246], [19.20809, 53.16275], [19.20771, 53.16267], [19.20732, 53.16188], [19.20678, 53.16179], [19.20653, 53.16211], [19.20685, 53.16257], [19.2061, 53.16328], [19.205, 53.1639], [19.20176, 53.16648], [19.19985, 53.16738], [19.19979, 53.16776], [19.20058, 53.16805], [19.20292, 53.16777], [19.20359, 53.16738], [19.20447, 53.16756], [19.20477, 53.16791], [19.20414, 53.16826], [19.2044, 53.16859], [19.20492, 53.1688], [19.2052, 53.16918], [19.20492, 53.16984], [19.20552, 53.17011], [19.20623, 53.1701], [19.20831, 53.16952], [19.20942, 53.16957], [19.21037, 53.17008], [19.21041, 53.17069], [19.2099, 53.17137], [19.20944, 53.17203], [19.20985, 53.17294], [19.21022, 53.17392], [19.21191, 53.17411], [19.21614, 53.17403], [19.21796, 53.17345], [19.21863, 53.17318], [19.21942, 53.17347], [19.21925, 53.17464], [19.21974, 53.17505], [19.22026, 53.17534], [19.22015, 53.17592], [19.22032, 53.17604], [19.22163, 53.17597], [19.22249, 53.17642], [19.22286, 53.17693], [19.22292, 53.17807], [19.22217, 53.17815], [19.22234, 53.17864], [19.22376, 53.17889], [19.22464, 53.1794], [19.22489, 53.17985], [19.2244, 53.18048], [19.22494, 53.1809], [19.22549, 53.18094], [19.22668, 53.18036], [19.22764, 53.18044], [19.22839, 53.18078], [19.22843, 53.18126], [19.22762, 53.18157], [19.22732, 53.18204], [19.22755, 53.18251], [19.22818, 53.18278], [19.23436, 53.18361], [19.2373, 53.18442], [19.23792, 53.18486], [19.23758, 53.18537], [19.23575, 53.18657], [19.23547, 53.18705], [19.23594, 53.18737], [19.23738, 53.18801], [19.23762, 53.18837], [19.23659, 53.18959], [19.23691, 53.19022], [19.23764, 53.19065], [19.23953, 53.19097], [19.24137, 53.19182], [19.24223, 53.19183], [19.24418, 53.19108], [19.24564, 53.19036], [19.24687, 53.18941], [19.24708, 53.18868], [19.24594, 53.1878], [19.24642, 53.18701], [19.24779, 53.18698], [19.24963, 53.18888], [19.24985, 53.18973], [19.25268, 53.19068], [19.25285, 53.19346], [19.25101, 53.19403], [19.25066, 53.19678], [19.24968, 53.19729], [19.25114, 53.19904], [19.2536, 53.19964], [19.25534, 53.20042], [19.25678, 53.2002], [19.25858, 53.20142], [19.25991, 53.20101], [19.26152, 53.20281], [19.2597, 53.20338], [19.26015, 53.20417], [19.26154, 53.20461], [19.26302, 53.20291], [19.26508, 53.20273], [19.26637, 53.2039], [19.2698, 53.20498], [19.2668, 53.2065], [19.27011, 53.20796], [19.27058, 53.20883], [19.27238, 53.20876], [19.2786, 53.2075], [19.28113, 53.20868], [19.28135, 53.20991], [19.28212, 53.21035], [19.28427, 53.20991], [19.28646, 53.20817], [19.29212, 53.20937], [19.29221, 53.2105], [19.29006, 53.21212], [19.29075, 53.21266], [19.29298, 53.213], [19.29667, 53.21356], [19.29774, 53.21413], [19.2986, 53.214], [19.30032, 53.21534], [19.3013, 53.21618], [19.30229, 53.21588], [19.30302, 53.21503], [19.30315, 53.2131], [19.2995, 53.2131], [19.2998, 53.21241], [19.30354, 53.21128], [19.30697, 53.2114], [19.3071, 53.21475], [19.31096, 53.21503], [19.3119, 53.21408], [19.31448, 53.21487], [19.31504, 53.21618], [19.31705, 53.21521], [19.31766, 53.21552], [19.31761, 53.21613], [19.31959, 53.21734], [19.32783, 53.21636], [19.34225, 53.20868], [19.34302, 53.20588], [19.34521, 53.20467], [19.34437, 53.20331], [19.34293, 53.2011], [19.34615, 53.19986], [19.3522, 53.19521], [19.35722, 53.18616], [19.36688, 53.18516], [19.37031, 53.18765], [19.37216, 53.19002], [19.37529, 53.18955], [19.37911, 53.19148], [19.38181, 53.19164], [19.39911, 53.1887], [19.4143, 53.18552], [19.42245, 53.18485], [19.43893, 53.18881], [19.44305, 53.18917], [19.45421, 53.192], [19.46443, 53.18901], [19.46649, 53.1869], [19.46769, 53.18356], [19.46417, 53.1794], [19.46168, 53.17811], [19.46297, 53.17276], [19.46992, 53.16576], [19.48588, 53.16468], [19.4906, 53.16283], [19.49481, 53.16417], [19.50314, 53.16468], [19.51, 53.16571], [19.51498, 53.16967], [19.52133, 53.17014], [19.52476, 53.16993], [19.52562, 53.17173], [19.53258, 53.17307], [19.53386, 53.17435], [19.54185, 53.17523], [19.54468, 53.17739], [19.54562, 53.17873], [19.54245, 53.18603], [19.5427, 53.18917], [19.53961, 53.19585], [19.54545, 53.19657], [19.55275, 53.20207], [19.5518, 53.20603], [19.55292, 53.20752], [19.55214, 53.20917], [19.54897, 53.20912], [19.54554, 53.21138], [19.54828, 53.21996], [19.55266, 53.22094], [19.55455, 53.22418], [19.60613, 53.20891], [19.59686, 53.18865], [19.5997, 53.18649], [19.60064, 53.18382], [19.60613, 53.18089], [19.60665, 53.17775], [19.62424, 53.17405], [19.63617, 53.17425], [19.64347, 53.17574], [19.65025, 53.1761], [19.65368, 53.16797], [19.66986, 53.15925], [19.67008, 53.1557], [19.67325, 53.1497], [19.67604, 53.14711], [19.67952, 53.13642], [19.67879, 53.13215], [19.67759, 53.12898], [19.68145, 53.12726], [19.68965, 53.12556], [19.69827, 53.12738], [19.70218, 53.12932], [19.70394, 53.13086], [19.71153, 53.13452], [19.73282, 53.14466], [19.76157, 53.15197], [19.77779, 53.15506], [19.84088, 53.14064], [19.84097, 53.15048], [19.83839, 53.16298], [19.82552, 53.17338], [19.84603, 53.19194], [19.86174, 53.19688], [19.86568, 53.19781], [19.87307, 53.19884], [19.87066, 53.20171], [19.88302, 53.20295], [19.88302, 53.2086], [19.89315, 53.21323], [19.89418, 53.21472], [19.90551, 53.21976], [19.90748, 53.21991], [19.91092, 53.21688], [19.91478, 53.2177], [19.91735, 53.22798], [19.9189, 53.22813], [19.92705, 53.2271], [19.96877, 53.20696], [19.98173, 53.19668], [19.98276, 53.19503], [19.99512, 53.19503], [20.01022, 53.20572], [20.01142, 53.20973], [20.02705, 53.21457], [20.07065, 53.20223], [20.07717, 53.20213], [20.12009, 53.18572], [20.12022, 53.18174], [20.14369, 53.16257], [20.15742, 53.15732], [20.1653, 53.15579], [20.17292, 53.15426], [20.18257, 53.15318], [20.19103, 53.15287], [20.19566, 53.1523], [20.19841, 53.15145], [20.20918, 53.15086], [20.2151, 53.15138], [20.23124, 53.14896], [20.23377, 53.14821], [20.23673, 53.14783], [20.24111, 53.14608], [20.24621, 53.1452], [20.25707, 53.14134], [20.25834, 53.14112], [20.26789, 53.14023], [20.2754, 53.14273], [20.30544, 53.15233], [20.31157, 53.15459], [20.31342, 53.15583], [20.32537, 53.16033], [20.32784, 53.16167], [20.32999, 53.16296], [20.33565, 53.16525], [20.34101, 53.16661], [20.3496, 53.16996], [20.35758, 53.17284], [20.37007, 53.17734], [20.37479, 53.17754], [20.37625, 53.17747], [20.37917, 53.18356], [20.38234, 53.18598], [20.382, 53.18814], [20.38251, 53.18901], [20.38938, 53.19187], [20.39329, 53.19277], [20.39689, 53.19457], [20.40007, 53.19729], [20.40625, 53.20562], [20.41431, 53.21179], [20.41496, 53.21238], [20.42144, 53.21832], [20.42161, 53.22068], [20.42355, 53.222], [20.43131, 53.22731], [20.45362, 53.24308], [20.45835, 53.24683], [20.46358, 53.25089], [20.46573, 53.25441], [20.46708, 53.25872], [20.46847, 53.26159], [20.47307, 53.26709], [20.47577, 53.26927], [20.47517, 53.27435], [20.48315, 53.28477], [20.50109, 53.30965], [20.50933, 53.32154], [20.51302, 53.3342], [20.5168, 53.33805], [20.52521, 53.34302], [20.53894, 53.3486], [20.56636, 53.34269], [20.57756, 53.33933], [20.58284, 53.33802], [20.59121, 53.33728], [20.59937, 53.3352], [20.60451, 53.33169], [20.62091, 53.32852], [20.62147, 53.32682], [20.63069, 53.32541], [20.64048, 53.32452], [20.65288, 53.31988], [20.6552, 53.31757], [20.66284, 53.31775], [20.66899, 53.31898], [20.69884, 53.32534], [20.7058, 53.32313], [20.72099, 53.32585], [20.74262, 53.31798], [20.7479, 53.31611], [20.74845, 53.31503], [20.75163, 53.31313], [20.75568, 53.31287], [20.75572, 53.3134], [20.75543, 53.31399], [20.75948, 53.31592], [20.7643, 53.31563], [20.76995, 53.31157], [20.77927, 53.31198], [20.7821, 53.3097], [20.78527, 53.30883], [20.78759, 53.31093], [20.79137, 53.30957], [20.79802, 53.30593], [20.80356, 53.30731], [20.80793, 53.30547], [20.81381, 53.3058], [20.82493, 53.30426], [20.84733, 53.29308], [20.85141, 53.29255], [20.85315, 53.29232], [20.85849, 53.29036], [20.86578, 53.28631], [20.86956, 53.28261], [20.87085, 53.28112], [20.87214, 53.27835], [20.87359, 53.27702], [20.87437, 53.27527], [20.87282, 53.27255], [20.87548, 53.27194], [20.8796, 53.27322], [20.88947, 53.27517], [20.89694, 53.27876], [20.91007, 53.28338], [20.91771, 53.28672], [20.94852, 53.29534], [20.97771, 53.30175], [20.99298, 53.31021], [20.99844, 53.30967], [21.01444, 53.31742], [21.02376, 53.32306], [21.03071, 53.32723], [21.04187, 53.33031], [21.04581, 53.3328], [21.05328, 53.33428], [21.07109, 53.33971], [21.08182, 53.34369], [21.08182, 53.3464], [21.09178, 53.34973], [21.10568, 53.35188], [21.11435, 53.3546], [21.12431, 53.36126], [21.13632, 53.36556], [21.14113, 53.37119], [21.14182, 53.37734], [21.17546, 53.39341], [21.20009, 53.39894], [21.2043, 53.40283], [21.21975, 53.40866], [21.23357, 53.41281], [21.2388, 53.41582], [21.25056, 53.41992], [21.27065, 53.42524], [21.28131, 53.42671], [21.43113, 53.46236], [21.45458, 53.4483], [21.48514, 53.43817], [21.49612, 53.40216], [21.48102, 53.37432], [21.49887, 53.33907], [21.48651, 53.30585], [21.51466, 53.28328], [21.64925, 53.23522], [21.68667, 53.17785], [21.70521, 53.16674], [21.84357, 53.0767], [21.90468, 53.06845], [21.94347, 53.01292], [21.8367, 52.93912], [21.90674, 52.88446], [22.06226, 52.8596], [22.3455, 52.90186], [22.43202, 52.88488], [22.41863, 52.84322], [22.45022, 52.79217], [22.45777, 52.77079], [22.43511, 52.69553], [22.44301, 52.66639], [22.45048, 52.65332], [22.47228, 52.64947], [22.4738, 52.64767], [22.47294, 52.64608], [22.47095, 52.64426], [22.46942, 52.64378], [22.46603, 52.64631], [22.46361, 52.64584], [22.46193, 52.64526], [22.46166, 52.64414], [22.46198, 52.6424], [22.46477, 52.64179], [22.46492, 52.64099], [22.46206, 52.63908], [22.45854, 52.63916], [22.45648, 52.64009], [22.45361, 52.63957], [22.45078, 52.64012], [22.44919, 52.63989], [22.44962, 52.6316], [22.4509, 52.62699], [22.44979, 52.62395], [22.44515, 52.62257], [22.44228, 52.62382], [22.44061, 52.62371], [22.43992, 52.62134], [22.43782, 52.62064], [22.43421, 52.62121], [22.43284, 52.62118], [22.43224, 52.62066], [22.43224, 52.61855], [22.43172, 52.61761], [22.42447, 52.61517], [22.42189, 52.61517], [22.41992, 52.61535], [22.41923, 52.61438], [22.42116, 52.6129], [22.42112, 52.61115], [22.41876, 52.60956], [22.41108, 52.61019], [22.40789, 52.60954], [22.37228, 52.6241], [22.37263, 52.6364], [22.3455, 52.65785], [22.31323, 52.66722], [22.27444, 52.67097], [22.25555, 52.68138], [22.22191, 52.68887], [22.21676, 52.69844], [22.1814, 52.69886], [22.16286, 52.69282], [22.15874, 52.69386], [22.16045, 52.70239], [22.14878, 52.69782], [22.09514, 52.69059], [22.07085, 52.68429], [22.05986, 52.67867], [22.04278, 52.67623], [21.99463, 52.67388], [21.98021, 52.68429], [21.96613, 52.68096], [21.94004, 52.68492], [21.93266, 52.68278], [21.9303, 52.68109], [21.92832, 52.68065], [21.92592, 52.68062], [21.92335, 52.6819], [21.92236, 52.68281], [21.92116, 52.68762], [21.92047, 52.68913], [21.91781, 52.69017], [21.91266, 52.69142], [21.90704, 52.69329], [21.90343, 52.69581], [21.89884, 52.70323], [21.88992, 52.70239], [21.88442, 52.6949], [21.87618, 52.69241], [21.87035, 52.69844], [21.84082, 52.69366], [21.81988, 52.68429], [21.80949, 52.67172], [21.8034, 52.67014], [21.80039, 52.67055], [21.79456, 52.67466], [21.78863, 52.67409], [21.77902, 52.67076], [21.77319, 52.66483], [21.74503, 52.65806], [21.73473, 52.65827], [21.72727, 52.64254], [21.81267, 52.58741], [21.74881, 52.46417], [21.72649, 52.4175], [21.82606, 52.4175], [21.91292, 52.33072], [21.84048, 52.26248], [21.93077, 52.18825], [22.05128, 52.16635], [22.04716, 52.13602], [21.92287, 52.13939], [21.87035, 51.98678], [21.71963, 52.00454], [21.59946, 52.05101], [21.53423, 52.04679], [21.48514, 52.05671], [21.46831, 52.07296], [21.46728, 52.0833], [21.46866, 52.09491], [21.45458, 52.11283], [21.41441, 52.13054], [21.36188, 52.12948], [21.31382, 52.14887], [21.27777, 52.1455], [21.22868, 52.11873], [21.21125, 52.09617], [21.16477, 52.14471], [21.09306, 52.21476], [21.05392, 52.22443], [20.98457, 52.29336], [20.92895, 52.32317], [20.92533, 52.32956], [20.92591, 52.337], [20.9246, 52.34214], [20.92327, 52.34437], [20.91539, 52.35422], [20.90458, 52.37057], [20.88776, 52.37958], [20.86269, 52.38], [20.8263, 52.37686], [20.82064, 52.3789], [20.81634, 52.38084], [20.80605, 52.39069], [20.79884, 52.39404], [20.7748, 52.39823], [20.75592, 52.4064], [20.73699, 52.40656], [20.72124, 52.40828], [20.70717, 52.41289], [20.69618, 52.42504], [20.68451, 52.42964], [20.67292, 52.43163], [20.65121, 52.42818], [20.63679, 52.41792], [20.6258, 52.41708], [20.61207, 52.41896], [20.59456, 52.42671], [20.56332, 52.43111], [20.49752, 52.42187], [20.40535, 52.38424], [20.3921, 52.38151], [20.36694, 52.38964], [20.25098, 52.38833], [20.24394, 52.38875], [20.23913, 52.38723], [20.23364, 52.3854], [20.22274, 52.3821], [20.21656, 52.38118]]]}}]}