{"type": "FeatureCollection", "features": [{"type": "Feature", "properties": {"name": "Województwo augustowskie", "start_date": "1816-01-16", "end_date": "1837-03-07", "source": "OpenHistoricalMap (CC0), relation 2692623; выгрузка 19.09.2026 через overpass-api.openhistoricalmap.org; воеводство Царства Польского 1816-1837"}, "geometry": {"type": "Polygon", "coordinates": [[[22.47228, 52.64947], [22.45048, 52.65332], [22.44301, 52.66639], [22.43511, 52.69553], [22.45777, 52.77079], [22.45022, 52.79217], [22.41863, 52.84322], [22.43202, 52.88488], [22.3455, 52.90186], [22.06226, 52.8596], [21.90674, 52.88446], [21.8367, 52.93912], [21.94347, 53.01292], [21.90468, 53.06845], [21.84357, 53.0767], [21.70521, 53.16674], [21.68667, 53.17785], [21.64925, 53.23522], [21.51466, 53.28328], [21.48651, 53.30585], [21.49887, 53.33907], [21.48102, 53.37432], [21.49612, 53.40216], [21.48514, 53.43817], [21.45458, 53.4483], [21.43113, 53.46236], [21.43274, 53.46281], [21.47201, 53.46961], [21.49303, 53.47242], [21.51741, 53.47701], [21.53149, 53.47655], [21.54294, 53.4775], [21.5502, 53.47783], [21.55168, 53.47815], [21.56556, 53.481], [21.57243, 53.48008], [21.58753, 53.48028], [21.59818, 53.48187], [21.60453, 53.48192], [21.61293, 53.48084], [21.64616, 53.48079], [21.66718, 53.48672], [21.67894, 53.49111], [21.68641, 53.49274], [21.69474, 53.49218], [21.71431, 53.48917], [21.73164, 53.48845], [21.75233, 53.48314], [21.7719, 53.48161], [21.77602, 53.48166], [21.78014, 53.48044], [21.79069, 53.47947], [21.80237, 53.47517], [21.82709, 53.46414], [21.84129, 53.4614], [21.85009, 53.46046], [21.85442, 53.45944], [21.85893, 53.45888], [21.86605, 53.45944], [21.87296, 53.46189], [21.88, 53.46123], [21.88172, 53.46158], [21.89198, 53.467], [21.89751, 53.47402], [21.89803, 53.47681], [21.90215, 53.48263], [21.90309, 53.48623], [21.90133, 53.48902], [21.90155, 53.4929], [21.90734, 53.49736], [21.91485, 53.49956], [21.92034, 53.50303], [21.92077, 53.50423], [21.92111, 53.50676], [21.92202, 53.5077], [21.92339, 53.50847], [21.93107, 53.51038], [21.93472, 53.5112], [21.93648, 53.5114], [21.9415, 53.51013], [21.95236, 53.50951], [21.9548, 53.5101], [21.95631, 53.51105], [21.95982, 53.51176], [21.96188, 53.51309], [21.96583, 53.51459], [21.97304, 53.51477], [21.97613, 53.51538], [21.97802, 53.51806], [21.97884, 53.51829], [21.98145, 53.51814], [21.98652, 53.52056], [21.98969, 53.52215], [21.99317, 53.5212], [21.9948, 53.51936], [21.99858, 53.51794], [22.00064, 53.51628], [22.00772, 53.51477], [22.00978, 53.5135], [22.01403, 53.50788], [22.01441, 53.50489], [22.01596, 53.50311], [22.01557, 53.5013], [22.01888, 53.49885], [22.01973, 53.49749], [22.02411, 53.49578], [22.02669, 53.49611], [22.02827, 53.4968], [22.03038, 53.49685], [22.03222, 53.49854], [22.03231, 53.49953], [22.04205, 53.50862], [22.04171, 53.51087], [22.04467, 53.51426], [22.04827, 53.51549], [22.05076, 53.52551], [22.05866, 53.5297], [22.06604, 53.53072], [22.07531, 53.53561], [22.08389, 53.53592], [22.09574, 53.53225], [22.12904, 53.54163], [22.162, 53.55581], [22.17453, 53.55765], [22.19736, 53.56774], [22.21401, 53.58048], [22.22757, 53.58537], [22.23942, 53.59597], [22.27255, 53.61064], [22.27907, 53.62082], [22.28662, 53.62347], [22.2995, 53.62408], [22.30568, 53.62678], [22.32473, 53.6341], [22.32654, 53.63176], [22.35314, 53.64723], [22.34997, 53.6484], [22.35357, 53.65161], [22.35984, 53.65586], [22.36254, 53.65509], [22.38619, 53.66356], [22.39031, 53.66603], [22.3961, 53.66816], [22.39765, 53.66712], [22.40078, 53.66727], [22.41099, 53.67348], [22.41426, 53.67589], [22.41507, 53.67782], [22.42299, 53.68153], [22.46734, 53.69897], [22.47185, 53.6996], [22.47253, 53.69894], [22.47923, 53.70011], [22.49159, 53.70031], [22.50429, 53.69645], [22.50867, 53.6966], [22.51502, 53.69828], [22.51382, 53.69915], [22.56643, 53.7215], [22.56489, 53.7219], [22.58411, 53.7346], [22.58532, 53.72708], [22.59647, 53.71876], [22.6066, 53.71683], [22.61021, 53.71916], [22.61209, 53.72556], [22.61639, 53.73226], [22.62119, 53.73551], [22.62111, 53.73785], [22.62282, 53.73919], [22.62385, 53.74034], [22.62686, 53.74178], [22.62274, 53.74353], [22.62274, 53.74526], [22.62617, 53.74759], [22.62394, 53.75003], [22.62445, 53.75287], [22.6284, 53.75632], [22.63596, 53.75673], [22.64111, 53.7549], [22.64076, 53.75115], [22.63853, 53.74952], [22.64025, 53.7477], [22.64132, 53.74759], [22.64428, 53.74929], [22.65175, 53.75044], [22.65861, 53.7545], [22.66325, 53.7545], [22.6684, 53.75683], [22.67612, 53.75724], [22.68007, 53.75653], [22.68805, 53.7583], [22.68943, 53.75937], [22.69672, 53.76201], [22.7029, 53.76718], [22.70445, 53.77367], [22.71887, 53.79183], [22.72316, 53.80014], [22.72625, 53.80481], [22.72436, 53.82569], [22.72762, 53.82812], [22.72539, 53.83105], [22.72711, 53.83359], [22.73603, 53.83764], [22.74668, 53.8425], [22.75818, 53.8503], [22.75921, 53.85455], [22.77912, 53.86579], [22.77964, 53.86984], [22.7853, 53.8838], [22.78084, 53.88714], [22.78101, 53.89078], [22.77758, 53.89169], [22.77552, 53.89695], [22.77964, 53.89878], [22.78049, 53.90141], [22.77526, 53.90368], [22.77629, 53.90848], [22.78279, 53.91549], [22.78204, 53.91688], [22.78159, 53.91978], [22.78047, 53.92039], [22.78004, 53.92132], [22.77837, 53.92284], [22.77704, 53.92304], [22.77582, 53.92341], [22.77485, 53.924], [22.77359, 53.92561], [22.77341, 53.92624], [22.77238, 53.92719], [22.76996, 53.92858], [22.7667, 53.93022], [22.76502, 53.9317], [22.76005, 53.93517], [22.75878, 53.93684], [22.75691, 53.93806], [22.75258, 53.94004], [22.7526, 53.94183], [22.7511, 53.94324], [22.7467, 53.94552], [22.74571, 53.94634], [22.74477, 53.94645], [22.74221, 53.94763], [22.74063, 53.94789], [22.73683, 53.9496], [22.73462, 53.94967], [22.73301, 53.94949], [22.73084, 53.9499], [22.72917, 53.95076], [22.72861, 53.95289], [22.72809, 53.95304], [22.72722, 53.95314], [22.72625, 53.95289], [22.72372, 53.9526], [22.72213, 53.95326], [22.72035, 53.95462], [22.71835, 53.9553], [22.7179, 53.95598], [22.71567, 53.95648], [22.71445, 53.95702], [22.71378, 53.95821], [22.71243, 53.95912], [22.71039, 53.96194], [22.70915, 53.96254], [22.70938, 53.96468], [22.70887, 53.96572], [22.70913, 53.96651], [22.70805, 53.96798], [22.70666, 53.96841], [22.70501, 53.96857], [22.70396, 53.96926], [22.70363, 53.97142], [22.70061, 53.97188], [22.69657, 53.97353], [22.69351, 53.97858], [22.69428, 53.9804], [22.69355, 53.98267], [22.69591, 53.98441], [22.69565, 53.98592], [22.69475, 53.98676], [22.69372, 53.99049], [22.69436, 53.99226], [22.69308, 53.9948], [22.69063, 53.99647], [22.6902, 53.99758], [22.6908, 54.0005], [22.6896, 54.00108], [22.68612, 54.00353], [22.68466, 54.00411], [22.682, 54.00439], [22.67977, 54.00547], [22.67806, 54.00961], [22.67518, 54.01264], [22.67282, 54.01712], [22.67183, 54.01922], [22.67089, 54.02076], [22.67179, 54.02141], [22.672, 54.02325], [22.67076, 54.02479], [22.67149, 54.02633], [22.67067, 54.02895], [22.6699, 54.02958], [22.66784, 54.03021], [22.66595, 54.03139], [22.66432, 54.03147], [22.6608, 54.03303], [22.65947, 54.03422], [22.65595, 54.0357], [22.65115, 54.03664], [22.64849, 54.03878], [22.64514, 54.03966], [22.64141, 54.04135], [22.6363, 54.0447], [22.62862, 54.0475], [22.62578, 54.04793], [22.62308, 54.04767], [22.62132, 54.04919], [22.61699, 54.0506], [22.61295, 54.0507], [22.60999, 54.05007], [22.60519, 54.0512], [22.60081, 54.05201], [22.59978, 54.05281], [22.60004, 54.05568], [22.59879, 54.05629], [22.59832, 54.05813], [22.59892, 54.05916], [22.59785, 54.06352], [22.59703, 54.0645], [22.59673, 54.06667], [22.60034, 54.06793], [22.60162, 54.06823], [22.60197, 54.0711], [22.6036, 54.07241], [22.60338, 54.07274], [22.60467, 54.07377], [22.60373, 54.08188], [22.61029, 54.08525], [22.61149, 54.08558], [22.6133, 54.08568], [22.61591, 54.08553], [22.61909, 54.08618], [22.62167, 54.08643], [22.62338, 54.08709], [22.62445, 54.08802], [22.6245, 54.08875], [22.62372, 54.09018], [22.62411, 54.09129], [22.62467, 54.09174], [22.62815, 54.09265], [22.63033, 54.09275], [22.63235, 54.09222], [22.63428, 54.09232], [22.63548, 54.09298], [22.6357, 54.09391], [22.63501, 54.09529], [22.63518, 54.09617], [22.63613, 54.09693], [22.6372, 54.0972], [22.63733, 54.09763], [22.63643, 54.10075], [22.63694, 54.10256], [22.6363, 54.10533], [22.63669, 54.10657], [22.63613, 54.10785], [22.63192, 54.10908], [22.62832, 54.11059], [22.62639, 54.11077], [22.62257, 54.1125], [22.62051, 54.11298], [22.61978, 54.11369], [22.62003, 54.11484], [22.6175, 54.11728], [22.61282, 54.12002], [22.61119, 54.12183], [22.61012, 54.12377], [22.60802, 54.12523], [22.60699, 54.1278], [22.603, 54.13338], [22.60192, 54.13652], [22.59377, 54.14117], [22.5933, 54.14474], [22.59141, 54.15075], [22.58841, 54.17228], [22.58669, 54.17922], [22.57845, 54.19373], [22.57055, 54.20372], [22.55347, 54.20939], [22.53991, 54.21481], [22.53725, 54.21803], [22.5309, 54.22114], [22.52781, 54.22962], [22.52695, 54.23298], [22.53137, 54.24765], [22.5321, 54.24908], [22.53485, 54.25475], [22.53588, 54.25826], [22.53777, 54.26432], [22.54223, 54.26893], [22.56729, 54.27079], [22.57047, 54.26964], [22.57596, 54.26703], [22.57622, 54.26689], [22.57948, 54.26512], [22.58995, 54.26287], [22.61072, 54.25991], [22.61227, 54.26021], [22.61501, 54.26197], [22.61484, 54.26372], [22.61836, 54.26522], [22.62497, 54.26903], [22.63115, 54.27505], [22.63132, 54.27665], [22.6333, 54.27836], [22.63381, 54.27986], [22.63716, 54.28181], [22.6393, 54.28387], [22.64016, 54.28557], [22.64256, 54.28627], [22.64445, 54.28798], [22.65183, 54.28557], [22.66162, 54.28387], [22.66411, 54.28201], [22.67218, 54.27976], [22.67896, 54.27941], [22.69423, 54.27525], [22.69827, 54.27775], [22.70016, 54.27695], [22.7035, 54.27931], [22.72754, 54.28432], [22.74582, 54.29128], [22.75129, 54.29821], [22.75384, 54.29776], [22.75612, 54.30305], [22.7602, 54.31267], [22.76414, 54.32158], [22.77431, 54.32601], [22.77641, 54.328], [22.78187, 54.33349], [22.7974, 54.33985], [22.80298, 54.34095], [22.80444, 54.3469], [22.80556, 54.3492], [22.80092, 54.3522], [22.792, 54.36332], [22.78873, 54.36886], [22.76642, 54.38516], [22.73603, 54.44289], [22.70144, 54.45372], [22.70273, 54.45602], [22.70205, 54.45722], [22.70359, 54.46854], [22.69638, 54.49018], [22.69793, 54.49377], [22.69552, 54.50544], [22.69913, 54.50643], [22.69861, 54.50823], [22.69278, 54.51052], [22.69054, 54.5156], [22.68385, 54.51949], [22.6811, 54.52477], [22.68333, 54.52985], [22.68042, 54.53314], [22.68539, 54.54011], [22.69123, 54.5417], [22.69484, 54.55056], [22.70239, 54.55435], [22.71235, 54.56373], [22.70801, 54.56485], [22.70303, 54.56731], [22.70102, 54.56933], [22.70153, 54.5737], [22.70067, 54.57617], [22.69702, 54.57649], [22.68647, 54.57985], [22.68402, 54.58261], [22.68428, 54.58728], [22.68535, 54.58999], [22.68625, 54.59094], [22.6978, 54.59469], [22.70089, 54.59904], [22.70569, 54.60297], [22.72007, 54.60663], [22.72183, 54.61202], [22.72119, 54.61657], [22.72346, 54.61893], [22.72453, 54.61853], [22.72543, 54.61893], [22.72505, 54.62057], [22.72659, 54.62273], [22.7293, 54.62345], [22.73071, 54.62298], [22.73612, 54.62529], [22.74505, 54.6269], [22.74552, 54.62864], [22.74942, 54.63167], [22.74934, 54.63498], [22.75084, 54.63672], [22.7504, 54.63879], [22.74783, 54.63974], [22.74716, 54.64042], [22.74529, 54.64087], [22.74387, 54.64163], [22.74225, 54.64203], [22.74165, 54.64253], [22.745, 54.64667], [22.74655, 54.64727], [22.75505, 54.6473], [22.75741, 54.65142], [22.75689, 54.6533], [22.74213, 54.65819], [22.73664, 54.66246], [22.73698, 54.66455], [22.73191, 54.66554], [22.72943, 54.66882], [22.73123, 54.67001], [22.7387, 54.67056], [22.73792, 54.67259], [22.74084, 54.67319], [22.74033, 54.67487], [22.73664, 54.67676], [22.73758, 54.67969], [22.72943, 54.67889], [22.72428, 54.68678], [22.73011, 54.69809], [22.73921, 54.69923], [22.73784, 54.70271], [22.74144, 54.7033], [22.74548, 54.70647], [22.74874, 54.70647], [22.74711, 54.71272], [22.74273, 54.71257], [22.73878, 54.71872], [22.73977, 54.71932], [22.74556, 54.72546], [22.74324, 54.7268], [22.74148, 54.72816], [22.74479, 54.7302], [22.74303, 54.73114], [22.74505, 54.73173], [22.74904, 54.73181], [22.75118, 54.73275], [22.75698, 54.73384], [22.77019, 54.74048], [22.77294, 54.74583], [22.77414, 54.75039], [22.77813, 54.75212], [22.78165, 54.7493], [22.79006, 54.75286], [22.79976, 54.75338], [22.79697, 54.75202], [22.79985, 54.74739], [22.8059, 54.74811], [22.80672, 54.75272], [22.80839, 54.75338], [22.81212, 54.75187], [22.81491, 54.75638], [22.81393, 54.75693], [22.80478, 54.75398], [22.80521, 54.75507], [22.80745, 54.75608], [22.80792, 54.75893], [22.81285, 54.76292], [22.81242, 54.76656], [22.82135, 54.76683], [22.8265, 54.76408], [22.83062, 54.76913], [22.84023, 54.76869], [22.84349, 54.76656], [22.84946, 54.77146], [22.84791, 54.77389], [22.84916, 54.77495], [22.85873, 54.77676], [22.85946, 54.77772], [22.85165, 54.78366], [22.8483, 54.78485], [22.84847, 54.78584], [22.85259, 54.78767], [22.85431, 54.7897], [22.85585, 54.78945], [22.86109, 54.78831], [22.86787, 54.78896], [22.87242, 54.78851], [22.87688, 54.79049], [22.8786, 54.79173], [22.87723, 54.79366], [22.87276, 54.79549], [22.87156, 54.79757], [22.87465, 54.80009], [22.87336, 54.80613], [22.87602, 54.80786], [22.878, 54.81201], [22.88521, 54.81117], [22.88701, 54.81389], [22.88547, 54.81572], [22.8804, 54.81597], [22.87894, 54.81859], [22.87663, 54.81933], [22.87259, 54.81928], [22.87053, 54.82022], [22.87148, 54.82294], [22.87371, 54.82378], [22.87765, 54.82309], [22.87997, 54.82551], [22.87783, 54.82858], [22.87628, 54.83407], [22.87156, 54.83565], [22.86461, 54.83639], [22.8586, 54.83876], [22.8586, 54.84242], [22.86169, 54.84558], [22.86427, 54.84593], [22.86504, 54.84954], [22.86881, 54.85008], [22.86967, 54.85245], [22.86847, 54.85369], [22.86418, 54.85443], [22.86349, 54.85626], [22.85954, 54.85808], [22.85517, 54.85843], [22.84847, 54.8613], [22.84392, 54.86115], [22.84109, 54.86288], [22.83972, 54.86451], [22.84058, 54.86885], [22.84349, 54.87009], [22.8441, 54.873], [22.84367, 54.87503], [22.84839, 54.8813], [22.85491, 54.88549], [22.85508, 54.88781], [22.85156, 54.89028], [22.84736, 54.89033], [22.84727, 54.89665], [22.8447, 54.89813], [22.84083, 54.89927], [22.83697, 54.89843], [22.83543, 54.89991], [22.8362, 54.904], [22.82607, 54.90632], [22.82049, 54.912], [22.81457, 54.91175], [22.80942, 54.90983], [22.8023, 54.90583], [22.80144, 54.90336], [22.79886, 54.90223], [22.79509, 54.90302], [22.79062, 54.90539], [22.78822, 54.90771], [22.78822, 54.91072], [22.78968, 54.9117], [22.78736, 54.91328], [22.78805, 54.91733], [22.78873, 54.91925], [22.78753, 54.92098], [22.78513, 54.9229], [22.78427, 54.92458], [22.78204, 54.92492], [22.77749, 54.92517], [22.76917, 54.92364], [22.76659, 54.92236], [22.76238, 54.91708], [22.76015, 54.91693], [22.75869, 54.91757], [22.75612, 54.91782], [22.75329, 54.91881], [22.7532, 54.92112], [22.74934, 54.9228], [22.74891, 54.92438], [22.75183, 54.92739], [22.75543, 54.92956], [22.76608, 54.93252], [22.76745, 54.93336], [22.76693, 54.93469], [22.76505, 54.93681], [22.76281, 54.9376], [22.74582, 54.93809], [22.74393, 54.93848], [22.74136, 54.93967], [22.7405, 54.94149], [22.74067, 54.94415], [22.73955, 54.94534], [22.73492, 54.94662], [22.73294, 54.94834], [22.72762, 54.95549], [22.72977, 54.95825], [22.72943, 54.96052], [22.72548, 54.96372], [22.71741, 54.9665], [22.7138, 54.96771], [22.71204, 54.96892], [22.70994, 54.97227], [22.70831, 54.97325], [22.70475, 54.97389], [22.70136, 54.97367], [22.69938, 54.97286], [22.69891, 54.97192], [22.69745, 54.97104], [22.69565, 54.97052], [22.69312, 54.97079], [22.69016, 54.97155], [22.68887, 54.97333], [22.68775, 54.9786], [22.68775, 54.9804], [22.68698, 54.9815], [22.68569, 54.98222], [22.68162, 54.98591], [22.67801, 54.98771], [22.67316, 54.9884], [22.67119, 54.98828], [22.66836, 54.9869], [22.66544, 54.98613], [22.66222, 54.9837], [22.65939, 54.98215], [22.65874, 54.98077], [22.65969, 54.97924], [22.66252, 54.97749], [22.66424, 54.97471], [22.66475, 54.97264], [22.66381, 54.97089], [22.66449, 54.97052], [22.66746, 54.97], [22.6684, 54.96926], [22.66776, 54.96811], [22.66604, 54.96717], [22.66411, 54.96476], [22.66269, 54.96431], [22.66089, 54.96444], [22.65973, 54.96505], [22.6593, 54.96678], [22.65801, 54.96764], [22.65681, 54.96771], [22.65587, 54.96705], [22.65535, 54.96545], [22.65492, 54.96495], [22.65299, 54.96508], [22.64862, 54.9666], [22.64771, 54.96818], [22.64703, 54.96887], [22.64454, 54.96966], [22.64214, 54.97151], [22.64166, 54.97266], [22.64252, 54.97545], [22.64123, 54.97786], [22.64226, 54.98054], [22.64355, 54.98148], [22.64368, 54.98276], [22.64282, 54.98409], [22.64162, 54.98458], [22.64055, 54.98448], [22.63909, 54.98387], [22.63776, 54.98407], [22.63617, 54.98508], [22.63497, 54.98796], [22.63517, 54.98941], [22.6354, 54.98956], [22.63419, 54.99012], [22.63336, 54.991], [22.63158, 54.99167], [22.62639, 54.99551], [22.6284, 54.9978], [22.62613, 55.00155], [22.62609, 55.00243], [22.62454, 55.00455], [22.62291, 55.00504], [22.61467, 55.01001], [22.61506, 55.01097], [22.61488, 55.01213], [22.61398, 55.01279], [22.61012, 55.01309], [22.60583, 55.01284], [22.60347, 55.01356], [22.60248, 55.01592], [22.60265, 55.01848], [22.60235, 55.02008], [22.60145, 55.02106], [22.5975, 55.0235], [22.5963, 55.02569], [22.59656, 55.02834], [22.59637, 55.02931], [22.59525, 55.03137], [22.59471, 55.03429], [22.59622, 55.03547], [22.59707, 55.03727], [22.5966, 55.03948], [22.59729, 55.04113], [22.59669, 55.04445], [22.59759, 55.04597], [22.59531, 55.04698], [22.5939, 55.04806], [22.59433, 55.04895], [22.5924, 55.05045], [22.59038, 55.05345], [22.59107, 55.05628], [22.59244, 55.05905], [22.58914, 55.07049], [22.62085, 55.06087], [22.63321, 55.05281], [22.65003, 55.04927], [22.66411, 55.04868], [22.68848, 55.05556], [22.71526, 55.05851], [22.73861, 55.05891], [22.77534, 55.07483], [22.78702, 55.0764], [22.80453, 55.07483], [22.8186, 55.07699], [22.84058, 55.08701], [22.8653, 55.08996], [22.878, 55.08878], [22.901, 55.08348], [22.92744, 55.08289], [22.94632, 55.08367], [22.96623, 55.08819], [22.98889, 55.09586], [23.02185, 55.10253], [23.05275, 55.10568], [23.06648, 55.10391], [23.11729, 55.09271], [23.13549, 55.08898], [23.17394, 55.09035], [23.19832, 55.08721], [23.21789, 55.08171], [23.23505, 55.07955], [23.25943, 55.07738], [23.31402, 55.06795], [23.33702, 55.06677], [23.35865, 55.06874], [23.38097, 55.07483], [23.39642, 55.07542], [23.41392, 55.07424], [23.43178, 55.0707], [23.44208, 55.06618], [23.45959, 55.05556], [23.47092, 55.05124], [23.49735, 55.04494], [23.5516, 55.04337], [23.57048, 55.03963], [23.58215, 55.03432], [23.58627, 55.03038], [23.58662, 55.0231], [23.58344, 55.0141], [23.58808, 55.00824], [23.59074, 55.00519], [23.59863, 54.98806], [23.60138, 54.96205], [23.62816, 54.94154], [23.63983, 54.93444], [23.65047, 54.93148], [23.66627, 54.92951], [23.67794, 54.93128], [23.69751, 54.93543], [23.71742, 54.9374], [23.7291, 54.93582], [23.75828, 54.9305], [23.78403, 54.91708], [23.7981, 54.91274], [23.8084, 54.9078], [23.82145, 54.90563], [23.84171, 54.90701], [23.85509, 54.90583], [23.87157, 54.9003], [23.87913, 54.89497], [23.89767, 54.8926], [23.91724, 54.88767], [23.92651, 54.88036], [23.92857, 54.86456], [23.93612, 54.85962], [23.94745, 54.85902], [23.95603, 54.86396], [23.96221, 54.87404], [23.96015, 54.88569], [23.96496, 54.893], [23.97388, 54.89478], [23.98556, 54.89162], [23.99998, 54.87345], [24.01337, 54.86752], [24.02847, 54.86337], [24.035, 54.87266], [24.04152, 54.8853], [24.06349, 54.89734], [24.08787, 54.9003], [24.0992, 54.89714], [24.10606, 54.89596], [24.12392, 54.89221], [24.12975, 54.87878], [24.13662, 54.87424], [24.16168, 54.86772], [24.18434, 54.8612], [24.19292, 54.84934], [24.21284, 54.83451], [24.2355, 54.827], [24.24236, 54.82067], [24.24099, 54.80959], [24.23511, 54.80552], [24.21558, 54.80266], [24.19498, 54.80445], [24.17129, 54.81315], [24.15585, 54.8177], [24.13902, 54.81374], [24.13525, 54.80504], [24.13731, 54.78802], [24.15104, 54.77535], [24.14932, 54.76643], [24.13628, 54.7593], [24.1325, 54.74781], [24.11499, 54.7379], [24.1016, 54.72621], [24.08306, 54.70023], [24.08066, 54.6913], [24.09164, 54.68137], [24.12632, 54.67661], [24.13387, 54.67105], [24.13181, 54.66331], [24.10812, 54.65199], [24.08409, 54.65119], [24.07345, 54.64821], [24.06177, 54.61761], [24.06624, 54.60568], [24.05354, 54.59633], [24.04255, 54.59454], [24.03706, 54.59812], [24.03843, 54.60866], [24.03568, 54.61244], [24.01405, 54.61761], [24.0089, 54.62258], [23.9962, 54.64186], [23.98384, 54.64762], [23.96942, 54.64563], [23.95843, 54.64047], [23.95191, 54.63311], [23.94985, 54.62834], [23.97526, 54.60807], [23.9859, 54.60369], [23.99483, 54.6031], [24.00684, 54.60469], [24.01577, 54.59693], [24.01783, 54.59156], [24.00925, 54.58619], [24.00135, 54.58897], [23.98933, 54.58878], [23.98144, 54.57744], [23.95672, 54.56032], [23.94462, 54.55882], [23.93603, 54.55858], [23.93088, 54.55753], [23.92376, 54.55415], [23.91672, 54.5525], [23.91166, 54.54927], [23.90419, 54.54558], [23.89389, 54.54295], [23.89024, 54.54085], [23.88647, 54.53605], [23.88548, 54.53388], [23.88642, 54.53184], [23.89466, 54.52895], [23.90264, 54.52547], [23.92616, 54.5167], [23.95157, 54.49936], [23.9677, 54.49517], [23.97663, 54.49118], [23.99002, 54.49138], [24.00787, 54.50155], [24.01302, 54.50633], [24.00993, 54.51251], [24.00101, 54.51172], [23.99174, 54.51411], [24.01131, 54.54558], [24.05045, 54.55415], [24.06864, 54.55454], [24.08272, 54.55136], [24.09988, 54.5414], [24.10332, 54.53025], [24.10057, 54.5171], [24.09336, 54.51331], [24.05525, 54.51311], [24.04839, 54.50454], [24.05731, 54.48001], [24.05869, 54.46365], [24.05457, 54.45687], [24.0731, 54.44489], [24.07345, 54.4387], [24.0604, 54.43111], [24.0477, 54.43012], [24.04255, 54.42332], [24.0453, 54.40914], [24.05766, 54.39975], [24.07654, 54.39615], [24.08752, 54.38576], [24.09336, 54.36816], [24.08134, 54.35956], [24.06555, 54.36036], [24.0556, 54.36636], [24.03259, 54.37676], [24.01405, 54.37856], [24.00684, 54.37316], [24.01131, 54.36576], [24.02916, 54.35776], [24.035, 54.34655], [24.03023, 54.3301], [24.02676, 54.31813], [24.04049, 54.31112], [24.03362, 54.3037], [24.00066, 54.30511], [23.98968, 54.3009], [23.98727, 54.29309], [23.99757, 54.28287], [23.99963, 54.26542], [23.97079, 54.24938], [23.96461, 54.23152], [23.96496, 54.21788], [23.95088, 54.19378], [23.95157, 54.18755], [23.99071, 54.16746], [24.01062, 54.16927], [24.00822, 54.17751], [24.01543, 54.18353], [24.0477, 54.1759], [24.06383, 54.18574], [24.0786, 54.18474], [24.09988, 54.16625], [24.12117, 54.16063], [24.16512, 54.16163], [24.18228, 54.1566], [24.18056, 54.14736], [24.17129, 54.13891], [24.1404, 54.1369], [24.12701, 54.13147], [24.12804, 54.11919], [24.1555, 54.11094], [24.16014, 54.07294], [24.14726, 54.06533], [24.13619, 54.06357], [24.12683, 54.06443], [24.11696, 54.0675], [24.10761, 54.0677], [24.08607, 54.07178], [24.07611, 54.07168], [24.0677, 54.07364], [24.05259, 54.07969], [24.04839, 54.08094], [24.03611, 54.07928], [24.03182, 54.07264], [24.02435, 54.06584], [24.01706, 54.06196], [24.01354, 54.05203], [24.0053, 54.04447], [24.00307, 54.0349], [23.99071, 54.02209], [23.98642, 54.01937], [23.97989, 54.02028], [23.97491, 54.02562], [23.9677, 54.03117], [23.96238, 54.02965], [23.95569, 54.02451], [23.94487, 54.02098], [23.93595, 54.01554], [23.93578, 54.00262], [23.92479, 53.99304], [23.91312, 53.98658], [23.91312, 53.98234], [23.91809, 53.97547], [23.91706, 53.97174], [23.91303, 53.96969], [23.9097, 53.96796], [23.90831, 53.96714], [23.90775, 53.96677], [23.90762, 53.96664], [23.90748, 53.96645], [23.90736, 53.96625], [23.90722, 53.96596], [23.90719, 53.9657], [23.90721, 53.96537], [23.90723, 53.96529], [23.9073, 53.96511], [23.90735, 53.96503], [23.90749, 53.96476], [23.90826, 53.96337], [23.90841, 53.96308], [23.90856, 53.96277], [23.90864, 53.96253], [23.90868, 53.96229], [23.90873, 53.9603], [23.9087, 53.96], [23.90853, 53.95919], [23.90838, 53.9586], [23.90817, 53.95815], [23.90795, 53.95756], [23.90783, 53.95731], [23.90768, 53.95708], [23.9076, 53.95694], [23.90754, 53.95676], [23.90764, 53.95622], [23.90765, 53.95603], [23.90772, 53.95579], [23.90779, 53.95563], [23.90812, 53.95517], [23.9083, 53.9549], [23.90843, 53.95458], [23.90843, 53.95445], [23.90843, 53.95436], [23.9084, 53.95425], [23.90805, 53.95396], [23.90776, 53.95369], [23.90729, 53.95325], [23.90669, 53.9526], [23.90575, 53.95186], [23.90481, 53.95126], [23.90423, 53.95095], [23.90318, 53.95047], [23.90193, 53.95004], [23.90045, 53.94957], [23.90012, 53.94945], [23.89989, 53.9494], [23.89951, 53.94929], [23.89738, 53.94869], [23.89475, 53.9479], [23.89388, 53.94762], [23.8933, 53.94742], [23.89281, 53.9472], [23.89213, 53.94679], [23.89137, 53.94635], [23.89091, 53.9461], [23.89069, 53.94595], [23.88869, 53.94474], [23.88822, 53.94445], [23.88795, 53.9443], [23.88756, 53.94414], [23.88712, 53.94399], [23.88638, 53.94376], [23.88592, 53.94362], [23.88532, 53.94346], [23.88448, 53.94329], [23.8835, 53.94317], [23.88307, 53.94313], [23.8827, 53.94311], [23.88191, 53.94307], [23.8814, 53.94307], [23.88089, 53.9431], [23.87935, 53.94316], [23.878, 53.94329], [23.87774, 53.94334], [23.87762, 53.94335], [23.87734, 53.9434], [23.87725, 53.94342], [23.87695, 53.94348], [23.87647, 53.94358], [23.87628, 53.94363], [23.87611, 53.94368], [23.87558, 53.94381], [23.87404, 53.9443], [23.87349, 53.94454], [23.87279, 53.94493], [23.87215, 53.9453], [23.87164, 53.9456], [23.87081, 53.94602], [23.86971, 53.94659], [23.8692, 53.94688], [23.86888, 53.94708], [23.86832, 53.94752], [23.8679, 53.94789], [23.86758, 53.94818], [23.86716, 53.94858], [23.86674, 53.94902], [23.86653, 53.94922], [23.86644, 53.94932], [23.86638, 53.94937], [23.86548, 53.95012], [23.86511, 53.95051], [23.86447, 53.95113], [23.86391, 53.95163], [23.86347, 53.95197], [23.86265, 53.95248], [23.86188, 53.95294], [23.86152, 53.95316], [23.86116, 53.95332], [23.86074, 53.95347], [23.8604, 53.9536], [23.85946, 53.95385], [23.85929, 53.9539], [23.85797, 53.95412], [23.85749, 53.95419], [23.85646, 53.95431], [23.85617, 53.95435], [23.8559, 53.95437], [23.85567, 53.95439], [23.85527, 53.95443], [23.85498, 53.95444], [23.85422, 53.95445], [23.85396, 53.95447], [23.85371, 53.9545], [23.85327, 53.95458], [23.85155, 53.95495], [23.8507, 53.95517], [23.84896, 53.95556], [23.84851, 53.95565], [23.84785, 53.95574], [23.84639, 53.95591], [23.84615, 53.95593], [23.84423, 53.95603], [23.84364, 53.95603], [23.84249, 53.956], [23.84203, 53.95597], [23.84131, 53.95588], [23.84055, 53.95571], [23.83977, 53.9555], [23.83942, 53.95539], [23.83818, 53.95489], [23.83751, 53.95464], [23.83618, 53.95401], [23.83523, 53.95359], [23.83329, 53.95269], [23.83103, 53.95172], [23.82956, 53.95093], [23.82814, 53.95011], [23.82723, 53.94956], [23.82637, 53.94908], [23.82588, 53.94879], [23.82524, 53.94855], [23.82485, 53.94838], [23.82451, 53.94822], [23.82432, 53.94812], [23.82352, 53.94761], [23.82297, 53.94716], [23.82253, 53.94673], [23.82143, 53.94573], [23.8197, 53.94393], [23.81911, 53.94329], [23.81882, 53.94303], [23.81828, 53.94259], [23.81799, 53.94238], [23.81741, 53.94205], [23.81619, 53.94151], [23.81506, 53.94098], [23.81423, 53.94068], [23.81327, 53.94037], [23.8119, 53.93999], [23.81053, 53.93964], [23.80962, 53.93945], [23.80874, 53.93926], [23.80737, 53.93888], [23.80725, 53.93884], [23.80717, 53.9388], [23.80645, 53.93851], [23.80346, 53.93728], [23.8023, 53.93684], [23.7994, 53.93582], [23.79906, 53.93567], [23.79879, 53.93553], [23.79865, 53.93546], [23.79842, 53.93531], [23.79825, 53.93519], [23.79791, 53.93487], [23.79757, 53.93443], [23.7972, 53.93385], [23.79711, 53.93368], [23.79691, 53.93319], [23.79684, 53.93299], [23.79679, 53.9327], [23.79677, 53.93237], [23.79692, 53.9313], [23.79722, 53.9302], [23.79743, 53.92954], [23.79784, 53.92872], [23.79814, 53.92823], [23.79845, 53.92785], [23.79937, 53.92681], [23.79968, 53.9265], [23.80024, 53.92606], [23.80073, 53.92578], [23.80242, 53.92506], [23.80281, 53.9249], [23.80322, 53.92478], [23.80382, 53.92464], [23.80438, 53.9245], [23.80619, 53.92387], [23.80647, 53.92378], [23.80663, 53.92373], [23.80677, 53.92369], [23.80728, 53.92351], [23.80751, 53.92342], [23.80857, 53.92303], [23.80867, 53.92299], [23.80899, 53.92288], [23.80943, 53.9227], [23.80999, 53.92248], [23.81165, 53.9218], [23.81233, 53.92147], [23.81294, 53.92111], [23.81375, 53.92059], [23.81422, 53.92027], [23.8145, 53.9201], [23.81493, 53.9198], [23.815, 53.91975], [23.8154, 53.91944], [23.81562, 53.91926], [23.81573, 53.91916], [23.81589, 53.91902], [23.81611, 53.91882], [23.81627, 53.91864], [23.81676, 53.91789], [23.81702, 53.91736], [23.81792, 53.91532], [23.81808, 53.91462], [23.81814, 53.91399], [23.81816, 53.91359], [23.81821, 53.91288], [23.81822, 53.91238], [23.81812, 53.9118], [23.8179, 53.91119], [23.81781, 53.91101], [23.81718, 53.91002], [23.81701, 53.90983], [23.81672, 53.90958], [23.81594, 53.90896], [23.81565, 53.90882], [23.81545, 53.90874], [23.8149, 53.90855], [23.81428, 53.90834], [23.81391, 53.90825], [23.81343, 53.90816], [23.81228, 53.90802], [23.81113, 53.90793], [23.80977, 53.90776], [23.80926, 53.90765], [23.80881, 53.90754], [23.80853, 53.90749], [23.80809, 53.90739], [23.80763, 53.90725], [23.80728, 53.90711], [23.80707, 53.90701], [23.80661, 53.90677], [23.80612, 53.90643], [23.80582, 53.90627], [23.80557, 53.9061], [23.80457, 53.9054], [23.80404, 53.90504], [23.80365, 53.90475], [23.80319, 53.90439], [23.80263, 53.90397], [23.80126, 53.90286], [23.80061, 53.90228], [23.80015, 53.90178], [23.79912, 53.90083], [23.7986, 53.90041], [23.79816, 53.90004], [23.79779, 53.89987], [23.79742, 53.89979], [23.79675, 53.8997], [23.79606, 53.89962], [23.79501, 53.89952], [23.79413, 53.89953], [23.79386, 53.89954], [23.79358, 53.89956], [23.79325, 53.8996], [23.79275, 53.89968], [23.79207, 53.89985], [23.7915, 53.89996], [23.79015, 53.90014], [23.78904, 53.90021], [23.7883, 53.90022], [23.78791, 53.90022], [23.78737, 53.9002], [23.78697, 53.90016], [23.78643, 53.90007], [23.78162, 53.89802], [23.77738, 53.89324], [23.77283, 53.89134], [23.77077, 53.88684], [23.76879, 53.88565], [23.76386, 53.88595], [23.76098, 53.8859], [23.75892, 53.88512], [23.75708, 53.88279], [23.7563, 53.88039], [23.75532, 53.87879], [23.75682, 53.87652], [23.76317, 53.87287], [23.77819, 53.86619], [23.78815, 53.86346], [23.79467, 53.85921], [23.79699, 53.85632], [23.79759, 53.85258], [23.79948, 53.84645], [23.80111, 53.84356], [23.80591, 53.84144], [23.81772, 53.83777], [23.82076, 53.8362], [23.82312, 53.83116], [23.82497, 53.82916], [23.83329, 53.82477], [23.83608, 53.82133], [23.83681, 53.81839], [23.8348, 53.81421], [23.836, 53.8119], [23.83879, 53.81015], [23.84797, 53.80929], [23.85136, 53.80798], [23.85471, 53.806], [23.856, 53.80364], [23.8554, 53.80113], [23.84548, 53.79084], [23.83733, 53.77728], [23.83308, 53.77327], [23.82986, 53.7718], [23.82274, 53.77147], [23.81866, 53.77028], [23.81372, 53.76797], [23.81106, 53.765], [23.80918, 53.7596], [23.80373, 53.75341], [23.80227, 53.75003], [23.7993, 53.74534], [23.79536, 53.74318], [23.79536, 53.74232], [23.79506, 53.74127], [23.79175, 53.73805], [23.78703, 53.73655], [23.78424, 53.73417], [23.78098, 53.7331], [23.77858, 53.73137], [23.77823, 53.72993], [23.77961, 53.72846], [23.78098, 53.72564], [23.78025, 53.72345], [23.77755, 53.72122], [23.77386, 53.71936], [23.77017, 53.71827], [23.76785, 53.71708], [23.76828, 53.71484], [23.77077, 53.71093], [23.77562, 53.70712], [23.77583, 53.70583], [23.7742, 53.70176], [23.77489, 53.69902], [23.77652, 53.69389], [23.77517, 53.68861], [23.7724, 53.68289], [23.77265, 53.6816], [23.77504, 53.67988], [23.77853, 53.67838], [23.77785, 53.67718], [23.7778, 53.67651], [23.77823, 53.67566], [23.77778, 53.67457], [23.77746, 53.67326], [23.77795, 53.67261], [23.78006, 53.67257], [23.78111, 53.67241], [23.78111, 53.67101], [23.78177, 53.67063], [23.78201, 53.67032], [23.78145, 53.6695], [23.78216, 53.66893], [23.78122, 53.66844], [23.77898, 53.67011], [23.77849, 53.67007], [23.77821, 53.66957], [23.77746, 53.66919], [23.77589, 53.66951], [23.77501, 53.66923], [23.77489, 53.66877], [23.77572, 53.66816], [23.77446, 53.66771], [23.77227, 53.66758], [23.77169, 53.66716], [23.77257, 53.66628], [23.77152, 53.66554], [23.76922, 53.66511], [23.76875, 53.66443], [23.76892, 53.66295], [23.76755, 53.66249], [23.76712, 53.6617], [23.7645, 53.66132], [23.7666, 53.65888], [23.7663, 53.65723], [23.76287, 53.65542], [23.76343, 53.65359], [23.7618, 53.65303], [23.76201, 53.65189], [23.76085, 53.65163], [23.75866, 53.65257], [23.75729, 53.65191], [23.75733, 53.65128], [23.75841, 53.65051], [23.75802, 53.65016], [23.75682, 53.65018], [23.75635, 53.64945], [23.75484, 53.64899], [23.75334, 53.65041], [23.75107, 53.65001], [23.7506, 53.64914], [23.75077, 53.64817], [23.74982, 53.64805], [23.74901, 53.64906], [23.74605, 53.64787], [23.74652, 53.64525], [23.74549, 53.64459], [23.7248, 53.62968], [23.69991, 53.62632], [23.68395, 53.63324], [23.68309, 53.64962], [23.67983, 53.65919], [23.65854, 53.66814], [23.5619, 53.68309], [23.52413, 53.68817], [23.50997, 53.69269], [23.4668, 53.7026], [23.43933, 53.70484], [23.42457, 53.70199], [23.40774, 53.7024], [23.40054, 53.70626], [23.37891, 53.7347], [23.36655, 53.7347], [23.32569, 53.7152], [23.29411, 53.70849], [23.27007, 53.71134], [23.24741, 53.7091], [23.22681, 53.71683], [23.20312, 53.71256], [23.16227, 53.69061], [23.15025, 53.69122], [23.10905, 53.66885], [23.09566, 53.6719], [23.07541, 53.66315], [23.0555, 53.63731], [22.96143, 53.6196], [22.92881, 53.60778], [22.93018, 53.57824], [22.90306, 53.55234], [22.86976, 53.54643], [22.8471, 53.53174], [22.82684, 53.5297], [22.80913, 53.52032], [22.77981, 53.50479], [22.71286, 53.49377], [22.63458, 53.48233], [22.60403, 53.46455], [22.57347, 53.4531], [22.56523, 53.43838], [22.55253, 53.4392], [22.5388, 53.43061], [22.54532, 53.41915], [22.54017, 53.40442], [22.52609, 53.39009], [22.52163, 53.37555], [22.51133, 53.37165], [22.49622, 53.3569], [22.49755, 53.34853], [22.4818, 53.33231], [22.47219, 53.33128], [22.46601, 53.3118], [22.46738, 53.28472], [22.42859, 53.21755], [22.49931, 53.2157], [22.54497, 53.22042], [22.56729, 53.21117], [22.60437, 53.212], [22.62325, 53.20357], [22.65896, 53.21056], [22.70119, 53.21405], [22.79114, 53.20871], [22.82925, 53.2157], [22.85568, 53.22885], [22.89722, 53.2233], [22.90993, 53.21549], [22.93156, 53.20747], [22.92606, 53.19554], [22.94048, 53.17538], [22.96314, 53.16468], [22.95456, 53.15583], [22.88246, 53.14224], [22.84847, 53.14203], [22.81551, 53.13194], [22.8035, 53.10165], [22.81483, 53.08887], [22.85053, 53.07299], [22.8931, 53.07547], [22.90203, 53.07629], [22.91782, 53.06845], [22.94289, 53.06577], [22.94323, 53.05566], [22.92744, 53.04163], [22.90272, 53.03853], [22.88246, 53.02717], [22.91714, 52.99288], [22.91576, 52.97966], [22.93671, 52.9536], [22.9192, 52.94171], [22.91319, 52.92588], [22.90014, 52.90507], [22.88572, 52.90072], [22.87628, 52.89265], [22.83731, 52.8797], [22.81483, 52.87752], [22.79749, 52.87265], [22.7829, 52.8653], [22.7599, 52.86198], [22.75354, 52.84353], [22.7665, 52.82346], [22.76307, 52.819], [22.74942, 52.81864], [22.74505, 52.81158], [22.73715, 52.81127], [22.7217, 52.80577], [22.70119, 52.80193], [22.69123, 52.78823], [22.69363, 52.77536], [22.67338, 52.75583], [22.66188, 52.75318], [22.65553, 52.75183], [22.64995, 52.75401], [22.63802, 52.75089], [22.6254, 52.7497], [22.61776, 52.74253], [22.60454, 52.73572], [22.59896, 52.72688], [22.59381, 52.72449], [22.59132, 52.7208], [22.58557, 52.7207], [22.58085, 52.71846], [22.57579, 52.71898], [22.57004, 52.71368], [22.55845, 52.71373], [22.55854, 52.71129], [22.5309, 52.71259], [22.52532, 52.70598], [22.51974, 52.70078], [22.51176, 52.69647], [22.51099, 52.69241], [22.50112, 52.6832], [22.4897, 52.67852], [22.48198, 52.67748], [22.47725, 52.67045], [22.47897, 52.66701], [22.47477, 52.66415], [22.47382, 52.65931], [22.47768, 52.65936], [22.47743, 52.6552], [22.47228, 52.64947]]]}}]}