{"type": "FeatureCollection", "features": [{"type": "Feature", "properties": {"name": "Województwo podlaskie", "start_date": "1816-01-16", "end_date": "1837-03-07", "source": "OpenHistoricalMap (CC0), relation 2695719; выгрузка 19.09.2026 через overpass-api.openhistoricalmap.org; воеводство Царства Польского 1816-1837"}, "geometry": {"type": "Polygon", "coordinates": [[[23.63968, 51.31101], [23.58662, 51.31473], [23.51315, 51.37007], [23.34423, 51.35206], [23.22166, 51.35313], [22.95559, 51.38078], [22.81002, 51.49271], [22.81036, 51.60075], [22.65655, 51.71725], [22.61879, 51.71171], [22.60451, 51.70293], [22.55836, 51.67468], [22.43683, 51.61034], [22.18689, 51.58411], [22.15359, 51.57366], [22.13865, 51.57323], [22.13608, 51.56853], [22.12543, 51.56597], [22.12028, 51.57174], [22.08286, 51.56981], [22.06432, 51.57451], [22.0578, 51.56864], [22.03411, 51.57515], [22.03016, 51.56704], [22.00853, 51.5744], [21.99117, 51.57128], [21.98476, 51.56427], [21.97652, 51.56485], [21.97935, 51.55722], [21.96613, 51.54996], [21.95498, 51.54132], [21.95601, 51.53876], [21.94948, 51.53475], [21.94674, 51.53523], [21.94725, 51.53822], [21.94064, 51.54222], [21.93429, 51.5442], [21.92536, 51.5434], [21.92081, 51.54206], [21.9179, 51.53785], [21.90845, 51.53689], [21.90056, 51.53929], [21.89644, 51.53662], [21.88871, 51.53566], [21.88768, 51.53048], [21.88567, 51.52861], [21.8464, 51.5191], [21.84288, 51.52263], [21.83979, 51.53], [21.83327, 51.53555], [21.83172, 51.53961], [21.83284, 51.54487], [21.83305, 51.54815], [21.83078, 51.55487], [21.82795, 51.55893], [21.82168, 51.56304], [21.81172, 51.56453], [21.80134, 51.56629], [21.78829, 51.56917], [21.77885, 51.56816], [21.76443, 51.56176], [21.75267, 51.56042], [21.73267, 51.56203], [21.71302, 51.56373], [21.66993, 51.57814], [21.65774, 51.58102], [21.65259, 51.58539], [21.65174, 51.59808], [21.6483, 51.60336], [21.62968, 51.60901], [21.61532, 51.6175], [21.58504, 51.62377], [21.57268, 51.63187], [21.54762, 51.66191], [21.53732, 51.66574], [21.5181, 51.66659], [21.47964, 51.66361], [21.46831, 51.67043], [21.45699, 51.6964], [21.41613, 51.73723], [21.41441, 51.75297], [21.43845, 51.77634], [21.43227, 51.78908], [21.41064, 51.8049], [21.38248, 51.82161], [21.36249, 51.8275], [21.30944, 51.84251], [21.29339, 51.85216], [21.28575, 51.86149], [21.28082, 51.87127], [21.27575, 51.87689], [21.23932, 51.90192], [21.24069, 51.91802], [21.28155, 51.95336], [21.27537, 51.96944], [21.23074, 51.99424], [21.22524, 51.99714], [21.22387, 52.01342], [21.22627, 52.03116], [21.20155, 52.0603], [21.21125, 52.09617], [21.22868, 52.11873], [21.27777, 52.1455], [21.31382, 52.14887], [21.36188, 52.12948], [21.41441, 52.13054], [21.45458, 52.11283], [21.46866, 52.09491], [21.46728, 52.0833], [21.46831, 52.07296], [21.48514, 52.05671], [21.53423, 52.04679], [21.59946, 52.05101], [21.71963, 52.00454], [21.87035, 51.98678], [21.92287, 52.13939], [22.04716, 52.13602], [22.05128, 52.16635], [21.93077, 52.18825], [21.84048, 52.26248], [21.91292, 52.33072], [21.82606, 52.4175], [21.72649, 52.4175], [21.74881, 52.46417], [21.81267, 52.58741], [21.72727, 52.64254], [21.73473, 52.65827], [21.74503, 52.65806], [21.77319, 52.66483], [21.77902, 52.67076], [21.78863, 52.67409], [21.79456, 52.67466], [21.80039, 52.67055], [21.8034, 52.67014], [21.80949, 52.67172], [21.81988, 52.68429], [21.84082, 52.69366], [21.87035, 52.69844], [21.87618, 52.69241], [21.88442, 52.6949], [21.88992, 52.70239], [21.89884, 52.70323], [21.90343, 52.69581], [21.90704, 52.69329], [21.91266, 52.69142], [21.91781, 52.69017], [21.92047, 52.68913], [21.92116, 52.68762], [21.92236, 52.68281], [21.92335, 52.6819], [21.92592, 52.68062], [21.92832, 52.68065], [21.9303, 52.68109], [21.93266, 52.68278], [21.94004, 52.68492], [21.96613, 52.68096], [21.98021, 52.68429], [21.99463, 52.67388], [22.04278, 52.67623], [22.05986, 52.67867], [22.07085, 52.68429], [22.09514, 52.69059], [22.14878, 52.69782], [22.16045, 52.70239], [22.15874, 52.69386], [22.16286, 52.69282], [22.1814, 52.69886], [22.21676, 52.69844], [22.22191, 52.68887], [22.25555, 52.68138], [22.27444, 52.67097], [22.31323, 52.66722], [22.3455, 52.65785], [22.37263, 52.6364], [22.37228, 52.6241], [22.40789, 52.60954], [22.41417, 52.60013], [22.43374, 52.5945], [22.44369, 52.58803], [22.4588, 52.58678], [22.45743, 52.5776], [22.46738, 52.56738], [22.48386, 52.56112], [22.48867, 52.55089], [22.52644, 52.52103], [22.50996, 52.49093], [22.51476, 52.48069], [22.52541, 52.47128], [22.5309, 52.46145], [22.54395, 52.46814], [22.55459, 52.46375], [22.54669, 52.45496], [22.54326, 52.42336], [22.55493, 52.41896], [22.56321, 52.41072], [22.56351, 52.40786], [22.56356, 52.40619], [22.56613, 52.40354], [22.56763, 52.4032], [22.57369, 52.40391], [22.57875, 52.40279], [22.58047, 52.4009], [22.57793, 52.39475], [22.57944, 52.39331], [22.58188, 52.39302], [22.58514, 52.39404], [22.58883, 52.3976], [22.59424, 52.39896], [22.59939, 52.39826], [22.60484, 52.39888], [22.60926, 52.39747], [22.61235, 52.39464], [22.61287, 52.3916], [22.61231, 52.38896], [22.61407, 52.38752], [22.61767, 52.3877], [22.62149, 52.39202], [22.62703, 52.3932], [22.63385, 52.39153], [22.64175, 52.38796], [22.64518, 52.38849], [22.65153, 52.39179], [22.65707, 52.39336], [22.65934, 52.39294], [22.65986, 52.39116], [22.65896, 52.38859], [22.66025, 52.38686], [22.66334, 52.38542], [22.6669, 52.38582], [22.67428, 52.39027], [22.68539, 52.39257], [22.69269, 52.39315], [22.70496, 52.39242], [22.70831, 52.39095], [22.71037, 52.38718], [22.71329, 52.38524], [22.72026, 52.38369], [22.73998, 52.38168], [22.75475, 52.38293], [22.76504, 52.38021], [22.76504, 52.37371], [22.77294, 52.37036], [22.79354, 52.37371], [22.84847, 52.35841], [22.86049, 52.36344], [22.8883, 52.36323], [22.92435, 52.37476], [22.96143, 52.3668], [22.977, 52.34643], [22.97841, 52.34621], [22.98224, 52.3473], [22.98432, 52.34723], [22.98581, 52.34647], [22.98712, 52.34512], [22.98712, 52.34429], [22.98592, 52.34154], [22.98588, 52.34028], [22.98705, 52.33826], [22.99312, 52.33381], [22.99465, 52.33256], [22.99533, 52.33193], [22.99592, 52.33179], [22.9966, 52.3319], [22.9971, 52.33245], [22.99728, 52.3335], [22.999, 52.33569], [23.00058, 52.33649], [23.00248, 52.33688], [23.00488, 52.3369], [23.00913, 52.33635], [23.01099, 52.33555], [23.01519, 52.33298], [23.01719, 52.33232], [23.01931, 52.3322], [23.02212, 52.33243], [23.02402, 52.33287], [23.02583, 52.33281], [23.0294, 52.33176], [23.03107, 52.33104], [23.03388, 52.33079], [23.03587, 52.33024], [23.03795, 52.32983], [23.04035, 52.32867], [23.04469, 52.3254], [23.04691, 52.32397], [23.04845, 52.32305], [23.04917, 52.32236], [23.04953, 52.32153], [23.04966, 52.31903], [23.05015, 52.31535], [23.05082, 52.31374], [23.0542, 52.3089], [23.05732, 52.30604], [23.05853, 52.30457], [23.05891, 52.30319], [23.05857, 52.30157], [23.05839, 52.30108], [23.05824, 52.30016], [23.0572, 52.29906], [23.05361, 52.29715], [23.05128, 52.29526], [23.04882, 52.29263], [23.04815, 52.29108], [23.04799, 52.28924], [23.04877, 52.28753], [23.05036, 52.28594], [23.05338, 52.28475], [23.05994, 52.28299], [23.06304, 52.28259], [23.06765, 52.28193], [23.07125, 52.28135], [23.07464, 52.2814], [23.07759, 52.28197], [23.07954, 52.28321], [23.08701, 52.28957], [23.08884, 52.29031], [23.09168, 52.29099], [23.09854, 52.29425], [23.10072, 52.29568], [23.10356, 52.29812], [23.10563, 52.29908], [23.10946, 52.30041], [23.11073, 52.30048], [23.11421, 52.30018], [23.11678, 52.29938], [23.11885, 52.29809], [23.12107, 52.29624], [23.1218, 52.29535], [23.12218, 52.29437], [23.1228, 52.29305], [23.12368, 52.29212], [23.12544, 52.29115], [23.12701, 52.28968], [23.1286, 52.28816], [23.13103, 52.2858], [23.13824, 52.28706], [23.15334, 52.2795], [23.17849, 52.28323], [23.18231, 52.28333], [23.19351, 52.27995], [23.20059, 52.2785], [23.20347, 52.27719], [23.20467, 52.27598], [23.20471, 52.27409], [23.19986, 52.2707], [23.19948, 52.268], [23.20098, 52.26466], [23.20574, 52.25847], [23.20523, 52.25568], [23.20304, 52.25166], [23.19819, 52.24717], [23.19458, 52.24076], [23.19501, 52.23842], [23.19896, 52.23363], [23.20055, 52.22848], [23.20308, 52.2268], [23.20724, 52.22578], [23.21815, 52.22575], [23.22523, 52.2238], [23.23437, 52.22089], [23.24158, 52.21931], [23.25076, 52.21926], [23.25522, 52.2182], [23.25964, 52.21605], [23.26673, 52.215], [23.27252, 52.2151], [23.29629, 52.22157], [23.30539, 52.22196], [23.30762, 52.22094], [23.30792, 52.21855], [23.30531, 52.21505], [23.29895, 52.21376], [23.2981, 52.21266], [23.29926, 52.21174], [23.30342, 52.21113], [23.31161, 52.20832], [23.31573, 52.20797], [23.31955, 52.20897], [23.32402, 52.21068], [23.32689, 52.21071], [23.33264, 52.20742], [23.33509, 52.20655], [23.33788, 52.20613], [23.34011, 52.20671], [23.3447, 52.20992], [23.34942, 52.21071], [23.35311, 52.21076], [23.35496, 52.20958], [23.35466, 52.20829], [23.35161, 52.20598], [23.35178, 52.20458], [23.35436, 52.20416], [23.36114, 52.20769], [23.365, 52.20826], [23.36826, 52.20734], [23.37037, 52.20545], [23.37097, 52.19945], [23.37041, 52.19788], [23.37135, 52.19617], [23.37397, 52.19517], [23.38067, 52.19453], [23.38762, 52.19698], [23.38933, 52.19885], [23.38946, 52.1999], [23.39079, 52.2004], [23.39247, 52.20032], [23.39453, 52.20122], [23.39616, 52.20077], [23.39689, 52.1998], [23.39667, 52.19856], [23.4256, 52.17604], [23.45444, 52.18467], [23.4692, 52.17309], [23.48602, 52.1813], [23.50731, 52.1752], [23.48362, 52.16761], [23.48808, 52.15266], [23.53426, 52.1328], [23.53641, 52.12996], [23.54078, 52.12906], [23.54319, 52.12558], [23.54233, 52.12147], [23.54353, 52.11863], [23.54774, 52.11663], [23.54868, 52.11499], [23.54705, 52.11236], [23.54816, 52.1103], [23.55143, 52.10951], [23.55443, 52.10972], [23.557, 52.11162], [23.55529, 52.11721], [23.55649, 52.11926], [23.55941, 52.11984], [23.56138, 52.11952], [23.56336, 52.11721], [23.56619, 52.11599], [23.56885, 52.11578], [23.57863, 52.12], [23.58104, 52.11995], [23.58473, 52.11757], [23.58902, 52.1171], [23.59623, 52.11789], [23.59923, 52.11694], [23.60327, 52.11468], [23.60696, 52.11041], [23.60859, 52.10856], [23.61116, 52.1084], [23.61631, 52.1094], [23.61872, 52.10877], [23.62018, 52.10761], [23.62035, 52.10587], [23.6188, 52.10487], [23.61348, 52.10471], [23.61116, 52.10339], [23.60996, 52.10118], [23.61151, 52.09812], [23.61511, 52.09412], [23.62, 52.09106], [23.62498, 52.08847], [23.63597, 52.08689], [23.63975, 52.08573], [23.63932, 52.08404], [23.64078, 52.08278], [23.64035, 52.0804], [23.64232, 52.07935], [23.64326, 52.07697], [23.6467, 52.07613], [23.6479, 52.07471], [23.65133, 52.0755], [23.65365, 52.07328], [23.65356, 52.07107], [23.65005, 52.06811], [23.6485, 52.06743], [23.64429, 52.0669], [23.64395, 52.06579], [23.64507, 52.06405], [23.64738, 52.06305], [23.65228, 52.06341], [23.65459, 52.06247], [23.65554, 52.06072], [23.65545, 52.05872], [23.65296, 52.0583], [23.65082, 52.06004], [23.64627, 52.06078], [23.64275, 52.06083], [23.64138, 52.05935], [23.64266, 52.05766], [23.64799, 52.05719], [23.65382, 52.0545], [23.66558, 52.03855], [23.6594, 52.01912], [23.68858, 51.99186], [23.65597, 51.96437], [23.63193, 51.95125], [23.64498, 51.93601], [23.6309, 51.9231], [23.61683, 51.92373], [23.61786, 51.90319], [23.63846, 51.89599], [23.6285, 51.87458], [23.6079, 51.87713], [23.61168, 51.84596], [23.60241, 51.84193], [23.60241, 51.83069], [23.61992, 51.83047], [23.64258, 51.80267], [23.62644, 51.78059], [23.5825, 51.75913], [23.56293, 51.75977], [23.53203, 51.74361], [23.52859, 51.72958], [23.55022, 51.71725], [23.55239, 51.70484], [23.55915, 51.66617], [23.54061, 51.66084], [23.54211, 51.63559], [23.54265, 51.62657], [23.54278, 51.62562], [23.54482, 51.62369], [23.54555, 51.62316], [23.54653, 51.62272], [23.54688, 51.62199], [23.5469, 51.62124], [23.54604, 51.61971], [23.54445, 51.61826], [23.54437, 51.61764], [23.54482, 51.6166], [23.54417, 51.61554], [23.54014, 51.61243], [23.54005, 51.61191], [23.54061, 51.6117], [23.54248, 51.61182], [23.54299, 51.61143], [23.54319, 51.6105], [23.54211, 51.6086], [23.54213, 51.60765], [23.54254, 51.60705], [23.54383, 51.6065], [23.54441, 51.60588], [23.54439, 51.60512], [23.54323, 51.60429], [23.54213, 51.60384], [23.54085, 51.60336], [23.54012, 51.60208], [23.54055, 51.60123], [23.54443, 51.59972], [23.54724, 51.59936], [23.54842, 51.59877], [23.54926, 51.59756], [23.54926, 51.59605], [23.5505, 51.59136], [23.5514, 51.5905], [23.55273, 51.58971], [23.55411, 51.58954], [23.55486, 51.58898], [23.55501, 51.58839], [23.55364, 51.5862], [23.55336, 51.58395], [23.55422, 51.58278], [23.5554, 51.58206], [23.55739, 51.5817], [23.55984, 51.58144], [23.56286, 51.58172], [23.56434, 51.58136], [23.56565, 51.58052], [23.56761, 51.57863], [23.56831, 51.57652], [23.56773, 51.5749], [23.56396, 51.57112], [23.5637, 51.57025], [23.56424, 51.56908], [23.56535, 51.56855], [23.56726, 51.5688], [23.56866, 51.56832], [23.56906, 51.56752], [23.56879, 51.56653], [23.56739, 51.56364], [23.56769, 51.56213], [23.56838, 51.56121], [23.57018, 51.56026], [23.57342, 51.56041], [23.57537, 51.55981], [23.57745, 51.55841], [23.57812, 51.5576], [23.5778, 51.55692], [23.57668, 51.55644], [23.57316, 51.55545], [23.57018, 51.55433], [23.56567, 51.55082], [23.56492, 51.54799], [23.56436, 51.54666], [23.56254, 51.54351], [23.56288, 51.54257], [23.56479, 51.54085], [23.56492, 51.53929], [23.56434, 51.5367], [23.56464, 51.53483], [23.566, 51.53376], [23.56864, 51.53268], [23.57209, 51.53195], [23.57374, 51.53203], [23.57615, 51.53254], [23.57778, 51.53235], [23.57943, 51.53155], [23.58054, 51.53035], [23.58267, 51.52938], [23.58529, 51.52878], [23.58681, 51.5289], [23.58782, 51.52963], [23.58827, 51.53041], [23.58818, 51.53176], [23.58863, 51.53334], [23.59046, 51.53486], [23.59187, 51.5355], [23.59359, 51.53569], [23.59494, 51.53522], [23.59674, 51.53344], [23.59728, 51.53242], [23.59868, 51.53108], [23.60104, 51.5298], [23.6026, 51.52866], [23.60503, 51.5284], [23.60769, 51.52874], [23.61146, 51.52888], [23.61284, 51.52889], [23.61344, 51.52829], [23.61297, 51.52659], [23.61342, 51.52386], [23.614, 51.52247], [23.61807, 51.52039], [23.6197, 51.51921], [23.62309, 51.51509], [23.62417, 51.51469], [23.62462, 51.51427], [23.6246, 51.51346], [23.62423, 51.51263], [23.62344, 51.51246], [23.62106, 51.51259], [23.62, 51.51255], [23.61852, 51.51219], [23.61758, 51.51139], [23.61724, 51.51043], [23.61784, 51.5087], [23.61782, 51.50798], [23.61636, 51.50382], [23.61667, 51.50281], [23.61796, 51.5018], [23.62007, 51.5015], [23.62367, 51.50158], [23.62486, 51.50076], [23.62502, 51.50003], [23.62439, 51.4993], [23.62304, 51.49865], [23.62144, 51.49858], [23.62135, 51.49858], [23.62015, 51.4981], [23.61957, 51.49717], [23.62018, 51.49648], [23.62191, 51.49545], [23.62639, 51.49474], [23.6286, 51.49341], [23.62928, 51.49229], [23.63093, 51.49108], [23.63225, 51.49096], [23.63376, 51.49124], [23.63551, 51.49085], [23.63646, 51.48994], [23.63683, 51.48866], [23.63678, 51.48749], [23.63732, 51.48619], [23.63857, 51.48548], [23.64006, 51.48542], [23.64107, 51.48564], [23.64313, 51.48487], [23.64442, 51.485], [23.64593, 51.48582], [23.64847, 51.48586], [23.65067, 51.48572], [23.65276, 51.48639], [23.65411, 51.48725], [23.65429, 51.48904], [23.65578, 51.49003], [23.65816, 51.49066], [23.65996, 51.49048], [23.66235, 51.489], [23.66375, 51.48741], [23.66343, 51.48576], [23.66472, 51.48479], [23.66802, 51.48396], [23.66918, 51.4836], [23.6701, 51.48288], [23.67117, 51.48069], [23.6715, 51.47955], [23.67158, 51.47835], [23.67108, 51.47727], [23.67114, 51.47634], [23.67182, 51.47454], [23.67473, 51.47362], [23.67593, 51.47257], [23.67665, 51.47139], [23.6763, 51.47037], [23.67458, 51.46959], [23.67191, 51.47016], [23.67058, 51.47096], [23.66856, 51.47116], [23.66713, 51.47095], [23.6661, 51.47026], [23.66581, 51.4694], [23.66603, 51.46786], [23.66537, 51.46652], [23.66335, 51.46567], [23.66098, 51.46531], [23.65984, 51.46445], [23.65937, 51.46356], [23.65885, 51.46236], [23.65566, 51.46036], [23.65254, 51.4589], [23.65058, 51.4588], [23.64884, 51.45967], [23.64737, 51.45947], [23.64625, 51.45841], [23.64659, 51.45688], [23.64855, 51.45536], [23.65085, 51.45421], [23.65133, 51.4529], [23.65055, 51.45232], [23.64897, 51.45165], [23.64859, 51.45073], [23.64928, 51.4503], [23.65108, 51.45015], [23.65146, 51.44931], [23.65133, 51.44889], [23.64946, 51.44785], [23.64933, 51.44629], [23.65035, 51.44564], [23.65216, 51.44531], [23.65384, 51.4455], [23.65613, 51.44531], [23.66064, 51.44403], [23.66257, 51.44408], [23.66484, 51.44488], [23.66804, 51.4454], [23.66917, 51.44517], [23.67045, 51.4442], [23.67308, 51.4428], [23.67433, 51.44174], [23.67598, 51.441], [23.67757, 51.44116], [23.67954, 51.44216], [23.681, 51.44317], [23.68219, 51.44451], [23.6835, 51.44526], [23.68521, 51.44524], [23.68658, 51.44456], [23.68681, 51.44356], [23.68592, 51.44221], [23.68386, 51.44075], [23.6824, 51.43888], [23.68139, 51.43794], [23.68195, 51.43687], [23.68489, 51.43516], [23.68595, 51.4345], [23.68605, 51.4338], [23.68538, 51.43303], [23.68308, 51.43281], [23.68144, 51.4333], [23.67994, 51.43362], [23.67857, 51.43339], [23.67727, 51.43259], [23.6769, 51.43102], [23.67731, 51.42991], [23.67898, 51.42794], [23.68106, 51.42769], [23.68303, 51.42752], [23.68474, 51.4267], [23.68701, 51.42276], [23.68824, 51.4208], [23.6881, 51.41947], [23.68901, 51.41886], [23.69028, 51.41874], [23.69418, 51.41857], [23.69687, 51.41935], [23.69877, 51.41982], [23.6996, 51.42054], [23.701, 51.42084], [23.70217, 51.42054], [23.703, 51.41989], [23.70294, 51.41862], [23.70065, 51.41717], [23.69743, 51.41604], [23.69613, 51.41579], [23.69454, 51.41558], [23.6936, 51.41516], [23.69308, 51.41454], [23.69328, 51.41339], [23.69427, 51.41265], [23.69586, 51.41189], [23.69776, 51.41148], [23.6987, 51.41167], [23.69987, 51.41215], [23.70158, 51.4122], [23.70253, 51.41151], [23.70233, 51.41062], [23.69899, 51.40955], [23.69747, 51.40906], [23.69689, 51.40847], [23.69622, 51.40732], [23.69661, 51.40626], [23.69771, 51.40555], [23.69826, 51.40551], [23.6997, 51.40576], [23.70111, 51.40569], [23.70225, 51.40492], [23.70291, 51.404], [23.70277, 51.40355], [23.70191, 51.40319], [23.69813, 51.40299], [23.69656, 51.40251], [23.69531, 51.40137], [23.69135, 51.39853], [23.69061, 51.39845], [23.68937, 51.39904], [23.68864, 51.39953], [23.68793, 51.39969], [23.68705, 51.39969], [23.68555, 51.39937], [23.68467, 51.39912], [23.68283, 51.39852], [23.68208, 51.398], [23.68202, 51.39734], [23.68289, 51.39677], [23.68425, 51.39672], [23.68608, 51.39609], [23.68741, 51.39516], [23.68762, 51.39443], [23.6874, 51.3939], [23.68673, 51.3936], [23.68477, 51.39343], [23.68247, 51.39491], [23.67984, 51.39536], [23.67779, 51.39468], [23.67688, 51.39384], [23.67687, 51.39263], [23.6776, 51.39164], [23.67883, 51.39088], [23.68083, 51.39], [23.68267, 51.39002], [23.6858, 51.38915], [23.68835, 51.3889], [23.68929, 51.38831], [23.68924, 51.38756], [23.68861, 51.3871], [23.68671, 51.38719], [23.68518, 51.3868], [23.68499, 51.38666], [23.68457, 51.38595], [23.68524, 51.38478], [23.68525, 51.38398], [23.68432, 51.38348], [23.68329, 51.38353], [23.68132, 51.38467], [23.68022, 51.38484], [23.6793, 51.38448], [23.67849, 51.3838], [23.6792, 51.38312], [23.68129, 51.38179], [23.68072, 51.37984], [23.67955, 51.37888], [23.67804, 51.3775], [23.67801, 51.37688], [23.6789, 51.37591], [23.67961, 51.37572], [23.68035, 51.37598], [23.68089, 51.37678], [23.68081, 51.37751], [23.68176, 51.37824], [23.68296, 51.37852], [23.68402, 51.37834], [23.68476, 51.37767], [23.68466, 51.37633], [23.68366, 51.3747], [23.68333, 51.37351], [23.68298, 51.37284], [23.68295, 51.37214], [23.68348, 51.37176], [23.6845, 51.37149], [23.68513, 51.37128], [23.68555, 51.37079], [23.68562, 51.37039], [23.68543, 51.37011], [23.6853, 51.36964], [23.68569, 51.36933], [23.68666, 51.36914], [23.68688, 51.36864], [23.68572, 51.36788], [23.68391, 51.3675], [23.68054, 51.36828], [23.67959, 51.36921], [23.67813, 51.36918], [23.67725, 51.36855], [23.67715, 51.36767], [23.6764, 51.36688], [23.67466, 51.36654], [23.67183, 51.36734], [23.6673, 51.36808], [23.66571, 51.36743], [23.66496, 51.36622], [23.66536, 51.36512], [23.66668, 51.36394], [23.66916, 51.36249], [23.66965, 51.36179], [23.66918, 51.36091], [23.66737, 51.36036], [23.66594, 51.36067], [23.66288, 51.36277], [23.66114, 51.36267], [23.66081, 51.36152], [23.66284, 51.36056], [23.66363, 51.3595], [23.66346, 51.35846], [23.66228, 51.35801], [23.66063, 51.3583], [23.65931, 51.35977], [23.65823, 51.35997], [23.65703, 51.3598], [23.65635, 51.35892], [23.6568, 51.35738], [23.65657, 51.35562], [23.65673, 51.35489], [23.65636, 51.35415], [23.65527, 51.35387], [23.65489, 51.3532], [23.65524, 51.35236], [23.65611, 51.35222], [23.65746, 51.35237], [23.65819, 51.35217], [23.65842, 51.35165], [23.65811, 51.35125], [23.65728, 51.35096], [23.655, 51.35086], [23.65419, 51.35059], [23.65422, 51.35003], [23.65483, 51.3493], [23.65485, 51.34839], [23.65415, 51.34757], [23.65356, 51.34725], [23.65351, 51.34685], [23.6541, 51.34637], [23.65578, 51.34621], [23.65609, 51.34594], [23.65597, 51.34522], [23.65538, 51.34473], [23.65327, 51.34463], [23.65111, 51.34492], [23.65006, 51.34453], [23.64972, 51.34387], [23.65027, 51.34319], [23.65177, 51.34281], [23.65285, 51.34222], [23.65387, 51.34208], [23.65546, 51.34221], [23.65722, 51.34249], [23.65762, 51.34245], [23.65788, 51.342], [23.65779, 51.34148], [23.65694, 51.34055], [23.65674, 51.34011], [23.65677, 51.33957], [23.65648, 51.33919], [23.65597, 51.33905], [23.65513, 51.33923], [23.65458, 51.33976], [23.6539, 51.34012], [23.65286, 51.3403], [23.65212, 51.34025], [23.65079, 51.33987], [23.6503, 51.33988], [23.6499, 51.34001], [23.64885, 51.34014], [23.64806, 51.34008], [23.64748, 51.33995], [23.647, 51.33966], [23.64677, 51.33926], [23.64693, 51.33862], [23.64742, 51.33806], [23.64766, 51.33749], [23.64755, 51.33698], [23.64727, 51.33657], [23.64683, 51.33637], [23.64645, 51.33597], [23.64631, 51.33529], [23.64554, 51.33462], [23.64458, 51.3343], [23.64327, 51.33402], [23.64233, 51.33357], [23.64214, 51.33286], [23.6417, 51.33261], [23.64108, 51.33264], [23.64029, 51.33246], [23.63976, 51.33202], [23.63943, 51.33119], [23.63822, 51.33067], [23.63715, 51.33014], [23.63595, 51.32881], [23.6356, 51.32788], [23.63593, 51.32717], [23.63641, 51.32697], [23.63692, 51.32679], [23.63826, 51.32676], [23.6393, 51.32708], [23.64054, 51.32736], [23.64162, 51.32713], [23.64251, 51.32645], [23.64237, 51.32584], [23.64157, 51.32524], [23.63796, 51.32387], [23.63724, 51.32315], [23.63715, 51.32227], [23.63742, 51.32162], [23.63703, 51.32083], [23.63582, 51.31996], [23.63572, 51.31939], [23.63608, 51.31874], [23.63785, 51.31763], [23.63848, 51.31743], [23.63962, 51.31724], [23.63994, 51.31681], [23.64009, 51.31631], [23.63975, 51.31517], [23.64011, 51.31487], [23.64074, 51.31473], [23.64176, 51.31484], [23.643, 51.31453], [23.64381, 51.31393], [23.64407, 51.31328], [23.64415, 51.3123], [23.6439, 51.31073], [23.64351, 51.31042], [23.64304, 51.31043], [23.64282, 51.31065], [23.64278, 51.3111], [23.64226, 51.31143], [23.64174, 51.31152], [23.64102, 51.3115], [23.64003, 51.31131], [23.63968, 51.31101]]]}}]}