{"type": "FeatureCollection", "features": [{"type": "Feature", "geometry": {"type": "Polygon", "coordinates": [[[41.7406077, 56.4921272], [41.7024382, 56.496004], [41.701574, 56.5000361], [41.7090621, 56.5047884], [41.7112039, 56.508067], [41.7112162, 56.5100081], [41.7090881, 56.5123517], [41.7058935, 56.5132847], [41.6971091, 56.5138607], [41.6880207, 56.5101538], [41.6821329, 56.503204], [41.6791089, 56.5016198], [41.6729167, 56.5001797], [41.677381, 56.4983076], [41.677957, 56.4975876], [41.677381, 56.4965796], [41.6681648, 56.4932673], [41.6207873, 56.4797299], [41.609699, 56.4771377], [41.6030746, 56.4769936], [41.5958742, 56.4782895], [41.5932822, 56.4761293], [41.585362, 56.4736812], [41.5798793, 56.4737029], [41.5711071, 56.477661], [41.5719964, 56.4789153], [41.5718438, 56.4815511], [41.5683115, 56.4844577], [41.5666739, 56.4841011], [41.5631151, 56.4859579], [41.5581887, 56.4861625], [41.5549471, 56.4847786], [41.5570096, 56.4837405], [41.5635415, 56.4837013], [41.5618799, 56.4830812], [41.5609335, 56.4803341], [41.5599807, 56.4806755], [41.5597522, 56.4794495], [41.5554914, 56.4753924], [41.5498177, 56.4731257], [41.5448079, 56.4723391], [41.5456222, 56.4731798], [41.5448712, 56.4735946], [41.5456336, 56.4739418], [41.545736, 56.4759326], [41.5434081, 56.4789411], [41.5373364, 56.4802233], [41.5333707, 56.4792601], [41.5331304, 56.4804931], [41.5337483, 56.4848559], [41.5381283, 56.4895175], [41.5440904, 56.4898446], [41.5440904, 56.4922672], [41.5415352, 56.4913677], [41.5398688, 56.4926965], [41.5390356, 56.4952006], [41.5356102, 56.4941581], [41.5349551, 56.4968745], [41.5375612, 56.4976819], [41.5355523, 56.5001461], [41.5403857, 56.5024925], [41.5420521, 56.5055478], [41.5348142, 56.5019056], [41.5291981, 56.5003215], [41.5268938, 56.5029136], [41.5266057, 56.5062257], [41.5153232, 56.5049139], [41.5029398, 56.4980413], [41.4985251, 56.4935527], [41.4917569, 56.4912485], [41.477068, 56.4951364], [41.4584232, 56.4919888], [41.451003, 56.491824], [41.4462506, 56.4944159], [41.4351621, 56.4932638], [41.430842, 56.4921117], [41.4252258, 56.4928316], [41.4141373, 56.4925434], [41.4017784, 56.4938788], [41.3922478, 56.5013274], [41.3702148, 56.5010391], [41.3666148, 56.499311], [41.3661829, 56.4972949], [41.3532224, 56.4926865], [41.3333496, 56.4921102], [41.3294614, 56.4929741], [41.3294613, 56.4947022], [41.3284531, 56.4959983], [41.3260052, 56.4945581], [41.3238449, 56.4962862], [41.3205329, 56.49427], [41.320677, 56.491966], [41.3190931, 56.4896618], [41.316213, 56.4879337], [41.3058444, 56.4911017], [41.2892837, 56.4898054], [41.2790595, 56.485197], [41.2789536, 56.4820473], [41.2675442, 56.4822914], [41.2674133, 56.4870636], [41.2658909, 56.4908955], [41.2512569, 56.4865214], [41.2440365, 56.4890288], [41.2327395, 56.4854373], [41.202735, 56.4936942], [41.2016516, 56.4948128], [41.2050825, 56.4962859], [41.204601, 56.4966403], [41.2059653, 56.5012694], [41.2018121, 56.502266], [41.1972174, 56.496009], [41.1972174, 56.49499], [41.1930842, 56.4929078], [41.191459, 56.490338], [41.1832729, 56.4885768], [41.1745002, 56.4993605], [41.1731964, 56.4990935], [41.1738273, 56.4979328], [41.1686964, 56.4949033], [41.1673926, 56.488948], [41.164743, 56.4858946], [41.1648482, 56.4832705], [41.1623668, 56.4791714], [41.1584135, 56.4803327], [41.1568154, 56.4756875], [41.1511167, 56.4762798], [41.1502136, 56.4737173], [41.1496014, 56.4751403], [41.1461419, 56.4759786], [41.1458538, 56.4768426], [41.1457097, 56.4795787], [41.1495978, 56.4813069], [41.1503016, 56.4845546], [41.1468005, 56.4891343], [41.1334686, 56.489371], [41.1291484, 56.490523], [41.1248281, 56.492971], [41.1184918, 56.4919629], [41.1132223, 56.4887198], [41.1078354, 56.4912426], [41.1039471, 56.4918187], [41.1010671, 56.4918187], [41.0951629, 56.4892264], [41.0784582, 56.4893702], [41.07601, 56.4905222], [41.0712578, 56.4905221], [41.0653535, 56.489658], [41.0626175, 56.4880739], [41.0610335, 56.4857697], [41.0558183, 56.4846181], [41.0546067, 56.4835108], [41.0524133, 56.485437], [41.0348242, 56.4889375], [41.032232, 56.4903775], [41.0306477, 56.4948416], [41.0342479, 56.4958498], [41.0338156, 56.499738], [41.0306473, 56.5039141], [41.025895, 56.504058], [41.027047, 56.5062181], [41.0267589, 56.5073702], [41.0247427, 56.5086662], [41.0238786, 56.5118343], [41.0247425, 56.5142825], [41.0237341, 56.5203307], [41.0195579, 56.5209066], [41.0149497, 56.5194665], [41.0113497, 56.5173063], [41.0035734, 56.5151462], [40.9969356, 56.5150735], [40.9853393, 56.5122649], [40.9838446, 56.5138499], [40.9853616, 56.518711], [40.9775079, 56.5216261], [40.9659875, 56.5198978], [40.9518749, 56.5200416], [40.951155, 56.5168734], [40.9527392, 56.5131293], [40.9515872, 56.5121212], [40.9462589, 56.5158653], [40.9446747, 56.5158653], [40.9286904, 56.5092407], [40.9250902, 56.5092407], [40.9209142, 56.5050644], [40.9180342, 56.5034804], [40.9106898, 56.5034803], [40.9039214, 56.5052082], [40.8859206, 56.5056399], [40.8857764, 56.5085201], [40.8844802, 56.5118322], [40.8856322, 56.5132723], [40.8889443, 56.5142804], [40.8800154, 56.5243607], [40.8722391, 56.5247926], [40.8576943, 56.5273845], [40.8578382, 56.5283925], [40.8605742, 56.5306967], [40.8682065, 56.5334329], [40.8656141, 56.5384731], [40.8627338, 56.5402012], [40.8599975, 56.5436573], [40.8533732, 56.5443772], [40.8477567, 56.5491293], [40.8360923, 56.5478331], [40.8352283, 56.546105], [40.8291799, 56.547689], [40.832636, 56.5497051], [40.8339319, 56.5531613], [40.8297556, 56.5554653], [40.8296115, 56.5573374], [40.8282012, 56.5582719], [40.8222272, 56.5607556], [40.8215641, 56.5628436], [40.8245007, 56.5637831], [40.8271629, 56.5662658], [40.8273068, 56.5678498], [40.8298989, 56.56929], [40.8301867, 56.5737542], [40.8175142, 56.5714498], [40.8162182, 56.5694338], [40.8146342, 56.5685696], [40.8088739, 56.5684256], [40.8057058, 56.5700096], [40.8028256, 56.5701536], [40.7989374, 56.5715936], [40.7982173, 56.5727457], [40.7992253, 56.5744737], [40.796345, 56.5769218], [40.7894325, 56.5793698], [40.7904404, 56.5818179], [40.7819434, 56.5900292], [40.7672337, 56.594363], [40.7108734, 56.5929057], [40.7102164, 56.5900822], [40.6959434, 56.5910832], [40.6914684, 56.5928323], [40.6797075, 56.5905255], [40.6731495, 56.590209], [40.6596825, 56.5835439], [40.6596969, 56.5813146], [40.6579283, 56.5800644], [40.6529142, 56.5825358], [40.6529141, 56.585416], [40.6483232, 56.5910995], [40.6355599, 56.5902687], [40.6126292, 56.5878285], [40.6069294, 56.5798924], [40.588902, 56.5857843], [40.5837501, 56.5855189], [40.5785966, 56.5873306], [40.5821656, 56.5912616], [40.5812571, 56.592896], [40.5777706, 56.5951403], [40.5798815, 56.5976406], [40.5745287, 56.6000899], [40.568789, 56.6009337], [40.5650852, 56.6032884], [40.5567304, 56.6014133], [40.5570047, 56.600059], [40.5535289, 56.5989156], [40.5540648, 56.5985936], [40.5488793, 56.5958894], [40.5458808, 56.5912931], [40.5404391, 56.5919438], [40.5391951, 56.5906205], [40.5414876, 56.5880531], [40.5407906, 56.5866208], [40.5344602, 56.5843661], [40.5186546, 56.5836459], [40.5114998, 56.5850807], [40.5040228, 56.5836804], [40.4906011, 56.5836981], [40.486857, 56.5830028], [40.4808266, 56.579797], [40.4824108, 56.578357], [40.4753898, 56.5648726], [40.4735871, 56.5583032], [40.468092, 56.5554803], [40.4725276, 56.5532083], [40.4702237, 56.5499167], [40.4697435, 56.5466901], [40.4639829, 56.5444553], [40.4612697, 56.5415476], [40.4584371, 56.5349351], [40.4500115, 56.5335706], [40.441408, 56.5361973], [40.43351, 56.5366849], [40.4376756, 56.5428549], [40.4344161, 56.5451742], [40.4331552, 56.5449348], [40.4279955, 56.5430338], [40.423536, 56.5386566], [40.4208972, 56.5346099], [40.4141974, 56.5295128], [40.417252, 56.5276396], [40.4142347, 56.5220536], [40.4124397, 56.5247431], [40.407275, 56.5270758], [40.4028489, 56.5315498], [40.4022088, 56.5356313], [40.3943113, 56.5332759], [40.3905569, 56.5359844], [40.3882294, 56.5360046], [40.3791388, 56.5295513], [40.3813984, 56.5287427], [40.3615951, 56.5170564], [40.3600095, 56.5099791], [40.3512517, 56.5126429], [40.3455286, 56.5063004], [40.3419468, 56.5068666], [40.3391763, 56.5051654], [40.330674, 56.5066845], [40.3262089, 56.5085685], [40.3192144, 56.5074276], [40.3123127, 56.5081005], [40.3092145, 56.5060525], [40.311423, 56.5012118], [40.3072359, 56.4908384], [40.3041652, 56.4883402], [40.2957506, 56.4894364], [40.2942212, 56.4881598], [40.2878626, 56.4860459], [40.2829664, 56.4860459], [40.2786462, 56.4879178], [40.2674137, 56.4880618], [40.2655417, 56.4854696], [40.2537336, 56.4758209], [40.2476854, 56.4739488], [40.2504217, 56.4722207], [40.2596382, 56.4691967], [40.2596386, 56.4595483], [40.2484062, 56.4595482], [40.2358777, 56.4582519], [40.2361659, 56.4550838], [40.2337178, 56.4529236], [40.2286777, 56.4519155], [40.2298299, 56.4478834], [40.22911, 56.4450032], [40.2255101, 56.4398189], [40.222918, 56.4392428], [40.2196059, 56.4409709], [40.2131256, 56.4408268], [40.2023252, 56.4383785], [40.1980051, 56.4359303], [40.1928209, 56.4357862], [40.1886446, 56.4372263], [40.1860523, 56.4396743], [40.1830283, 56.4392422], [40.181444, 56.4428424], [40.187492, 56.4484587], [40.190228, 56.452347], [40.1879237, 56.4556591], [40.1850434, 56.4578191], [40.176691, 56.4599791], [40.168398, 56.4555795], [40.1509679, 56.4559198], [40.1383501, 56.4522791], [40.1357578, 56.4532685], [40.1346406, 56.454978], [40.1378345, 56.4577084], [40.1338386, 56.4576213], [40.1128123, 56.4635483], [40.102725, 56.4802229], [40.0780997, 56.4803393], [40.0680825, 56.4788747], [40.0622208, 56.4798158], [40.063175, 56.477339], [40.0496347, 56.4791409], [40.046509, 56.4844564], [40.0433718, 56.4847059], [40.0394826, 56.4808017], [40.0333483, 56.4823827], [40.0263414, 56.4802599], [40.0260006, 56.4754493], [40.0235469, 56.4717976], [40.0137046, 56.4746211], [40.0071949, 56.470057], [39.9929384, 56.4670326], [39.9925064, 56.4657365], [39.9965387, 56.4631445], [39.9974029, 56.4604083], [39.9842983, 56.4609841], [39.9874663, 56.4644404], [39.9873222, 56.4655924], [39.9903462, 56.4670325], [39.9906341, 56.4687606], [39.988474, 56.4704887], [39.9794013, 56.4748087], [39.9773853, 56.4749527], [39.9661531, 56.4694802], [39.9562166, 56.4689041], [39.9493044, 56.4668879], [39.9415277, 56.4750961], [39.9423915, 56.4788403], [39.9400872, 56.4833045], [39.9353214, 56.4886502], [39.9245342, 56.4886325], [39.922086, 56.4910805], [39.9173338, 56.4919446], [39.9142016, 56.4958445], [39.9186296, 56.4965528], [39.9253977, 56.499577], [39.9324538, 56.5057693], [39.9289973, 56.5110976], [39.9265489, 56.5177218], [39.931013, 56.5180099], [39.9517692, 56.5222706], [39.9561144, 56.5340093], [39.9401998, 56.5363899], [39.9303795, 56.5392139], [39.932308, 56.5411949], [39.9320495, 56.5440572], [39.9261627, 56.5451462], [39.93001, 56.5475691], [39.9276993, 56.5481072], [39.9281311, 56.5540114], [39.9160346, 56.5528592], [39.9032276, 56.5642457], [39.9024473, 56.5666471], [39.8899525, 56.5720314], [39.8876843, 56.579132], [39.8902898, 56.5853616], [39.8882777, 56.5892873], [39.8832337, 56.592388], [39.8806351, 56.5962937], [39.862355, 56.5945352], [39.8601127, 56.5887248], [39.8421026, 56.5865031], [39.837561, 56.587313], [39.8398967, 56.5920629], [39.8476571, 56.5948542], [39.8495144, 56.5975318], [39.8484674, 56.6012812], [39.8390478, 56.6037757], [39.8217179, 56.6021015], [39.8218615, 56.6094599], [39.8309564, 56.614404], [39.8363959, 56.6165088], [39.8461882, 56.6183811], [39.8507961, 56.6227013], [39.8569884, 56.6237094], [39.8694539, 56.6238615], [39.8668526, 56.6293085], [39.8676227, 56.6320359], [39.8665035, 56.637218], [39.8670623, 56.6399047], [39.8687977, 56.6416047], [39.8671986, 56.6440076], [39.8757074, 56.6526606], [39.8717088, 56.6595612], [39.8803148, 56.6746881], [39.8836268, 56.6771363], [39.8853548, 56.6798724], [39.8847783, 56.6902408], [39.880746, 56.6934089], [39.8836259, 56.6962891], [39.891546, 56.7011854], [39.892842, 56.7033456], [39.8928418, 56.7065137], [39.896586, 56.7066578], [39.9001843, 56.7417953], [39.8993217, 56.7573346], [39.9006634, 56.7635848], [39.9009418, 56.7702051], [39.8980776, 56.7722261], [39.8785099, 56.7693003], [39.8743338, 56.7678601], [39.8654053, 56.7703081], [39.8612291, 56.77002], [39.8508608, 56.7655557], [39.8470448, 56.7631075], [39.8443807, 56.7633955], [39.8378283, 56.7662035], [39.8319241, 56.7644754], [39.8227076, 56.7658433], [39.8204754, 56.7672113], [39.8023307, 56.7654109], [39.7951303, 56.7664909], [39.790666, 56.7684349], [39.7850496, 56.772971], [39.7699288, 56.7758509], [39.7682727, 56.7745548], [39.7664727, 56.7746268], [39.7511676, 56.7853853], [39.7407669, 56.787947], [39.7386786, 56.789963], [39.7321263, 56.790539], [39.7265098, 56.7960111], [39.7232695, 56.7977392], [39.7205334, 56.797235], [39.7095169, 56.798459], [39.7137448, 56.7956372], [39.7128985, 56.7937448], [39.7065572, 56.7958643], [39.7011745, 56.7980587], [39.6977802, 56.8011949], [39.6966281, 56.803715], [39.6882034, 56.807459], [39.6861153, 56.8094751], [39.681075, 56.8101951], [39.6769707, 56.811923], [39.6740906, 56.8124271], [39.6689784, 56.8107709], [39.6676825, 56.8083947], [39.6677547, 56.8046506], [39.6666027, 56.8033545], [39.6584664, 56.8025624], [39.6524181, 56.8040743], [39.6537859, 56.8081065], [39.6507617, 56.8090426], [39.6366773, 56.8126105], [39.6250127, 56.8126823], [39.6294771, 56.8098023], [39.6245096, 56.7964095], [39.6214855, 56.7954735], [39.5936117, 56.7944088], [39.580011, 56.7985658], [39.5812675, 56.8089967], [39.582603, 56.8100175], [39.581883, 56.8113855], [39.5805148, 56.8114575], [39.5730266, 56.8085774], [39.5741788, 56.8064892], [39.5684906, 56.8051931], [39.5685629, 56.8008009], [39.565467, 56.7956886], [39.5575468, 56.7928083], [39.5551964, 56.7907327], [39.5534086, 56.7905997], [39.5485466, 56.786976], [39.5482587, 56.7854639], [39.5468187, 56.7845998], [39.5347901, 56.7823385], [39.5295244, 56.7770276], [39.5297846, 56.7754552], [39.532155, 56.7726726], [39.5322259, 56.7715404], [39.5304468, 56.7701989], [39.5226982, 56.773079], [39.5205636, 56.7729854], [39.5199623, 56.7701988], [39.5213829, 56.7683687], [39.5196745, 56.7663826], [39.5187183, 56.7632044], [39.5152119, 56.7655745], [39.5124805, 56.7651166], [39.5059492, 56.7658576], [39.4967686, 56.762513], [39.498488, 56.7609432], [39.4983063, 56.7593974], [39.4955754, 56.7578442], [39.4981018, 56.7559729], [39.4939419, 56.7554875], [39.4962422, 56.7538395], [39.4915742, 56.7496435], [39.498125, 56.7479406], [39.4979432, 56.746304], [39.4916692, 56.7472131], [39.4897598, 56.7470313], [39.489026, 56.7461442], [39.4785757, 56.7473948], [39.4751205, 56.7484859], [39.4709881, 56.7463249], [39.4667555, 56.7452124], [39.4592869, 56.7443205], [39.4526994, 56.7448454], [39.4383674, 56.7486], [39.4382919, 56.7512926], [39.4368401, 56.7528498], [39.4291114, 56.7529406], [39.4261483, 56.7537971], [39.4259287, 56.7571232], [39.4275652, 56.7607603], [39.4268377, 56.7627606], [39.4208363, 56.7667613], [39.4193405, 56.7692557], [39.4071526, 56.7685148], [39.4020479, 56.7710162], [39.4053191, 56.7724164], [39.4055128, 56.774889], [39.4045493, 56.7772019], [39.406581, 56.7781914], [39.4063176, 56.778748], [39.4027852, 56.7780827], [39.3966726, 56.7791937], [39.3910797, 56.7768927], [39.387561, 56.7771238], [39.3847865, 56.7785791], [39.382539, 56.7768515], [39.3790692, 56.7772356], [39.3784554, 56.7851799], [39.3835172, 56.7854467], [39.385127, 56.7868991], [39.3828353, 56.7946472], [39.3785198, 56.7999778], [39.381823, 56.8014656], [39.3957024, 56.8009829], [39.3972469, 56.8029986], [39.3772702, 56.8112034], [39.3740366, 56.8199614], [39.378529, 56.8210447], [39.3793084, 56.8232356], [39.3785737, 56.8266248], [39.3846032, 56.8272863], [39.3844681, 56.8294379], [39.3796744, 56.8331918], [39.3825659, 56.8366595], [39.3882823, 56.8389975], [39.3894612, 56.8424794], [39.3938874, 56.8447851], [39.3960333, 56.8475057], [39.4098567, 56.8474416], [39.4131735, 56.8512489], [39.4004257, 56.864658], [39.417262, 56.8684314], [39.4187992, 56.8697305], [39.4225681, 56.8659596], [39.4270633, 56.8651084], [39.4384015, 56.8701874], [39.4443889, 56.8695634], [39.4588533, 56.8579524], [39.4678713, 56.8568225], [39.4708438, 56.8585849], [39.4684837, 56.8600269], [39.4674733, 56.8629574], [39.4725892, 56.8653846], [39.4753706, 56.8658458], [39.4788988, 56.8705804], [39.4845791, 56.8739683], [39.4846769, 56.8767135], [39.4812988, 56.8776571], [39.4795655, 56.8760456], [39.47901, 56.8734953], [39.4765654, 56.8723415], [39.4744941, 56.8732574], [39.4727551, 56.886659], [39.459202, 56.8910843], [39.4457891, 56.8903835], [39.4419851, 56.8974903], [39.4373805, 56.9015941], [39.4393821, 56.906599], [39.4470132, 56.9075455], [39.4539468, 56.9123866], [39.4608521, 56.9186108], [39.4634674, 56.919712], [39.4693169, 56.9250807], [39.4711616, 56.9285206], [39.473343, 56.9301685], [39.4793693, 56.9303224], [39.481693, 56.9254418], [39.4872202, 56.9276132], [39.4913461, 56.931613], [39.4948255, 56.9318085], [39.5018412, 56.9359813], [39.5100198, 56.9435676], [39.5195, 56.9568605], [39.5179817, 56.9615317], [39.5219448, 56.9625975], [39.5318663, 56.9625994], [39.5362212, 56.9592068], [39.5443634, 56.955732], [39.5534212, 56.9599244], [39.5528333, 56.9675315], [39.5535264, 56.9749314], [39.5479363, 56.9811137], [39.5441397, 56.9891853], [39.5486447, 56.9894073], [39.5553297, 56.9987645], [39.5462008, 57.002758], [39.5339133, 57.0027931], [39.5333015, 57.0051528], [39.5256499, 57.0133992], [39.519802, 57.0159502], [39.5241043, 57.018293], [39.5337887, 57.0192408], [39.5395944, 57.0182399], [39.541893, 57.0257004], [39.5627688, 57.0350097], [39.5686215, 57.0330546], [39.5871394, 57.0332551], [39.5856788, 57.0273429], [39.6058105, 57.0294049], [39.6055099, 57.0348555], [39.6093278, 57.0333958], [39.6205649, 57.0385867], [39.6203814, 57.0480634], [39.615705, 57.0513002], [39.6205232, 57.0573984], [39.6212206, 57.0604883], [39.6316473, 57.0642745], [39.6371823, 57.0695754], [39.6312798, 57.0722933], [39.6308436, 57.0740305], [39.6420058, 57.0714632], [39.6461149, 57.0725908], [39.6476426, 57.0767815], [39.6576105, 57.0826657], [39.6595411, 57.0807199], [39.6580627, 57.0784286], [39.6661196, 57.0740739], [39.6719152, 57.0734266], [39.6737079, 57.0747232], [39.6882248, 57.0754095], [39.6978512, 57.0773466], [39.7032989, 57.0763545], [39.7086535, 57.0732168], [39.7198947, 57.0738304], [39.723018, 57.0746971], [39.7245032, 57.0794332], [39.7336299, 57.0804384], [39.7383823, 57.0835058], [39.7424863, 57.0833057], [39.7516803, 57.0810482], [39.7650777, 57.0765804], [39.7621049, 57.0878103], [39.7589017, 57.0910133], [39.7571998, 57.0962183], [39.7737503, 57.1052983], [39.7891804, 57.0986211], [39.7953868, 57.0909138], [39.8055964, 57.0958187], [39.8076984, 57.0949179], [39.8097003, 57.096119], [39.8575827, 57.0848417], [39.854744, 57.0898137], [39.8538427, 57.0983218], [39.8561448, 57.1002237], [39.8547432, 57.1063296], [39.8598321, 57.1090549], [39.8595725, 57.1162706], [39.8588966, 57.1175405], [39.8375574, 57.1162775], [39.8363071, 57.1244885], [39.8243777, 57.1280626], [39.8238086, 57.1305944], [39.8246127, 57.1417559], [39.8216463, 57.1431047], [39.824462, 57.1456669], [39.8430126, 57.1456074], [39.8480471, 57.1482635], [39.8475351, 57.1583703], [39.8500858, 57.1606818], [39.8487844, 57.1632843], [39.8458816, 57.1645855], [39.8459118, 57.1709044], [39.8505407, 57.1727807], [39.8532674, 57.1729982], [39.8533345, 57.1741903], [39.855738, 57.1729993], [39.8575777, 57.1735231], [39.8591524, 57.1724237], [39.8619824, 57.1733451], [39.8731629, 57.1726295], [39.8770035, 57.1710711], [39.8823345, 57.1708113], [39.8842973, 57.1715506], [39.888922, 57.1708752], [39.892364, 57.172033], [39.8964206, 57.1705179], [39.9017504, 57.1719969], [39.9043089, 57.1696786], [39.9059379, 57.1699388], [39.9093086, 57.1724447], [39.9131483, 57.1724402], [39.9123824, 57.17127], [39.914715, 57.1700055], [39.9163672, 57.1715389], [39.9188435, 57.1706042], [39.9273645, 57.1714799], [39.9287795, 57.170707], [39.9268181, 57.1693186], [39.9272454, 57.168441], [39.9340388, 57.1697591], [39.9348199, 57.1692902], [39.9346788, 57.1677212], [39.9368324, 57.1671225], [39.9421102, 57.1716546], [39.9449975, 57.1716666], [39.9478879, 57.1702074], [39.9543263, 57.1740545], [39.9573551, 57.1730362], [39.9584005, 57.1750975], [39.9607046, 57.1743685], [39.9623821, 57.1750861], [39.9600178, 57.1776248], [39.96247, 57.1798291], [39.9701075, 57.180834], [39.971549, 57.1794825], [39.974618, 57.1813076], [39.9815706, 57.1811651], [39.9881058, 57.1822051], [39.9916975, 57.1828667], [39.9941867, 57.1862784], [39.9972016, 57.1854935], [40.0005611, 57.1861324], [40.0015131, 57.1875241], [39.9983561, 57.1879194], [39.9970096, 57.1890342], [39.9969399, 57.1901577], [40.0016801, 57.1914138], [40.0032191, 57.1931569], [40.0168982, 57.1934926], [40.0191489, 57.1921839], [40.0216689, 57.1947435], [40.0202935, 57.1954097], [40.0191727, 57.1996324], [40.0239068, 57.2001729], [40.0260713, 57.204401], [40.0260028, 57.206929], [40.031508, 57.2087308], [40.0419006, 57.2034874], [40.0479766, 57.2018652], [40.0492254, 57.2000227], [40.052497, 57.1989988], [40.0590685, 57.2022909], [40.0800477, 57.2007814], [40.0812087, 57.2000639], [40.0846595, 57.2006239], [40.0873641, 57.2001532], [40.088746, 57.1961857], [40.0934683, 57.1951187], [40.1037781, 57.1977213], [40.1084341, 57.197903], [40.1197477, 57.2023667], [40.1254344, 57.2011844], [40.1289989, 57.1977935], [40.1405128, 57.2010843], [40.1494861, 57.197291], [40.1502209, 57.1908299], [40.1604095, 57.1946729], [40.1800584, 57.1969274], [40.1889788, 57.2000912], [40.1910102, 57.2012317], [40.193111, 57.2038735], [40.1885273, 57.2148846], [40.180229, 57.2202893], [40.1758551, 57.2260752], [40.1826047, 57.2296168], [40.1840162, 57.2323451], [40.1877224, 57.2341916], [40.193809, 57.2326151], [40.1986765, 57.233348], [40.1999054, 57.2327198], [40.2015906, 57.2289174], [40.2096223, 57.2256322], [40.210908, 57.2262733], [40.2078607, 57.2293665], [40.2110803, 57.2317312], [40.2194802, 57.2358314], [40.2287485, 57.2435592], [40.2345361, 57.2439485], [40.2435296, 57.246199], [40.2349289, 57.2511259], [40.2325594, 57.2574829], [40.222086, 57.2574785], [40.21972, 57.2554808], [40.2085055, 57.2555126], [40.2069699, 57.2519539], [40.1937904, 57.2520879], [40.1914095, 57.2555784], [40.1764235, 57.2560104], [40.176393, 57.2604083], [40.1798265, 57.261079], [40.1829323, 57.2634175], [40.1974125, 57.263584], [40.1996495, 57.2648937], [40.213795, 57.2652473], [40.2134945, 57.2704931], [40.2176347, 57.2737431], [40.2232391, 57.2754981], [40.2284466, 57.2723928], [40.2323871, 57.2711287], [40.2367328, 57.271532], [40.2432685, 57.2760226], [40.2472302, 57.2771422], [40.250431, 57.2760653], [40.2527961, 57.2730916], [40.2621731, 57.2753493], [40.2578692, 57.2800114], [40.2625083, 57.2862511], [40.2671622, 57.2869478], [40.2709845, 57.286109], [40.2850985, 57.2773007], [40.286102, 57.280686], [40.2916165, 57.2844861], [40.2979604, 57.2876109], [40.3238438, 57.2881817], [40.3275239, 57.2847144], [40.3348158, 57.2813077], [40.3445323, 57.2806174], [40.3488157, 57.2816665], [40.3584759, 57.2817531], [40.3616883, 57.2833643], [40.3664307, 57.282945], [40.3671604, 57.2799325], [40.3668858, 57.2751795], [40.3701015, 57.2730893], [40.3733723, 57.2730726], [40.3842049, 57.268734], [40.3865413, 57.2711302], [40.4004896, 57.2701957], [40.404191, 57.2661727], [40.4171554, 57.274634], [40.4217685, 57.2791341], [40.419359, 57.2824623], [40.4219023, 57.2850307], [40.4274293, 57.2862742], [40.430464, 57.2858292], [40.4306975, 57.2849729], [40.4340328, 57.2834767], [40.4407369, 57.2825032], [40.4504595, 57.2831342], [40.4544619, 57.2809258], [40.4631506, 57.2781043], [40.4674865, 57.2754055], [40.4706218, 57.2721688], [40.4733067, 57.2737466], [40.4713222, 57.2759555], [40.4722728, 57.2783264], [40.4771591, 57.2801294], [40.4798941, 57.2797417], [40.4810781, 57.2772086], [40.4846636, 57.2756309], [40.4926018, 57.2757391], [40.4923016, 57.2749998], [40.4963541, 57.2766767], [40.4999229, 57.2767668], [40.5029248, 57.2783264], [40.504459, 57.2808685], [40.5075109, 57.2824279], [40.5126807, 57.2833654], [40.5141983, 57.2843749], [40.5204854, 57.2846633], [40.527473, 57.2869526], [40.5299078, 57.2908278], [40.5267392, 57.2931258], [40.5210134, 57.2933682], [40.5218153, 57.2953116], [40.5326885, 57.3040073], [40.5367214, 57.3058878], [40.5424777, 57.3063998], [40.5457178, 57.3102815], [40.5525772, 57.3093507], [40.5543523, 57.3106911], [40.5576097, 57.3104212], [40.563659, 57.3135486], [40.5657616, 57.3125248], [40.5639692, 57.3106539], [40.5653997, 57.309509], [40.5646414, 57.3083919], [40.5681125, 57.3079472], [40.5752751, 57.3092762], [40.5784049, 57.3078728], [40.5825118, 57.3079781], [40.5855677, 57.3102046], [40.5966099, 57.3132268], [40.5984257, 57.3095279], [40.5965321, 57.3052286], [40.6012131, 57.3020446], [40.6027383, 57.3012253], [40.6076071, 57.3024124], [40.6105197, 57.3006061], [40.6103991, 57.298446], [40.6354064, 57.2915923], [40.6350617, 57.2897669], [40.6326317, 57.2882954], [40.6308565, 57.2859296], [40.6390602, 57.2860041], [40.6416798, 57.2874758], [40.6432654, 57.2917879], [40.6483324, 57.2915551], [40.653451, 57.2882395], [40.6539853, 57.2888728], [40.6535285, 57.2935974], [40.6633247, 57.2958685], [40.6805124, 57.2941652], [40.6798929, 57.2947654], [40.6806476, 57.2958693], [40.6841263, 57.2964461], [40.6859301, 57.3022534], [40.6885806, 57.3018556], [40.6924459, 57.3028102], [40.6902739, 57.3052759], [40.6911532, 57.3061363], [40.6939904, 57.3078445], [40.705984, 57.3096721], [40.7066339, 57.3111131], [40.705051, 57.3117791], [40.7045633, 57.3107055], [40.7028331, 57.3102781], [40.702623, 57.3122538], [40.7042417, 57.3157174], [40.7165679, 57.3186487], [40.7204074, 57.3174329], [40.7240255, 57.3193726], [40.7368584, 57.3192109], [40.7439388, 57.3233314], [40.7511138, 57.3246618], [40.7524482, 57.3271531], [40.7554346, 57.3286931], [40.763939, 57.3290617], [40.7732404, 57.32599], [40.7788838, 57.3285113], [40.781358, 57.3286989], [40.7844716, 57.3264403], [40.7813302, 57.3245718], [40.7798846, 57.3212393], [40.7852644, 57.3194274], [40.7910355, 57.3228267], [40.7903266, 57.3247403], [40.7948872, 57.3268911], [40.798746, 57.3241134], [40.8033373, 57.3240421], [40.810478, 57.3256763], [40.8158669, 57.3238132], [40.82274, 57.3182176], [40.8302237, 57.3195818], [40.8317284, 57.3206195], [40.8300698, 57.3216765], [40.8302482, 57.3222773], [40.82828, 57.3219939], [40.8276082, 57.3229716], [40.8254877, 57.3233995], [40.8270361, 57.3244564], [40.8256977, 57.3256749], [40.8267421, 57.3272163], [40.8261018, 57.3280975], [40.8272933, 57.32933], [40.8297654, 57.33001], [40.8303795, 57.3313416], [40.8318806, 57.3313302], [40.8315604, 57.3321518], [40.8331612, 57.332302], [40.8325367, 57.3331405], [40.8369193, 57.3325796], [40.8373917, 57.3339989], [40.8397116, 57.3356958], [40.8485021, 57.3343318], [40.8429037, 57.3416815], [40.8482628, 57.3425947], [40.8491464, 57.3440273], [40.8475526, 57.3450588], [40.8463866, 57.344841], [40.8467678, 57.345585], [40.848584, 57.3456334], [40.8482253, 57.3473877], [40.845983, 57.3473998], [40.8471676, 57.350081], [40.8487371, 57.3505528], [40.848625, 57.3516838], [40.8549593, 57.3516233], [40.8568632, 57.3526653], [40.8642465, 57.3531176], [40.8611878, 57.3436172], [40.8617365, 57.3422669], [40.8668503, 57.3407854], [40.8692383, 57.3389038], [40.8764471, 57.3372399], [40.878779, 57.3353339], [40.8871378, 57.3366248], [40.8913278, 57.336239], [40.8909512, 57.3369362], [40.893784, 57.337277], [40.8962229, 57.3367893], [40.8959854, 57.3358826], [40.8991657, 57.3345944], [40.910381, 57.3332198], [40.9123038, 57.3301302], [40.9103521, 57.32929], [40.911765, 57.3283657], [40.9191646, 57.3285726], [40.9209606, 57.3235856], [40.9234152, 57.3227], [40.9202542, 57.3218887], [40.9208469, 57.3212325], [40.9234052, 57.3195379], [40.9280949, 57.3197718], [40.9257068, 57.3172395], [40.9276764, 57.3150547], [40.9300629, 57.3159639], [40.9309348, 57.31831], [40.92803, 57.3210454], [40.9306199, 57.3208706], [40.9350647, 57.3232468], [40.9394156, 57.3243343], [40.9445136, 57.3280618], [40.9488692, 57.329164], [40.9489559, 57.3283223], [40.9514371, 57.3277646], [40.9472065, 57.3247887], [40.9498297, 57.3239491], [40.9490966, 57.3215166], [40.9671696, 57.320596], [40.9696013, 57.3220017], [40.9703017, 57.3232717], [40.9728787, 57.3233288], [40.9785744, 57.3218671], [40.9779177, 57.3209181], [40.9811529, 57.3200525], [40.9798491, 57.3186029], [40.9860145, 57.3169241], [40.9911027, 57.3206138], [41.0183095, 57.3181797], [41.0174839, 57.3189189], [41.0180625, 57.320245], [41.0171706, 57.3220842], [41.020311, 57.3234215], [41.0134756, 57.3352319], [41.0198968, 57.3374499], [41.0208869, 57.3395205], [41.0204125, 57.3411792], [41.0193501, 57.3418749], [41.0197833, 57.3430771], [41.0228696, 57.3456963], [41.0224366, 57.346984], [41.0285711, 57.3499992], [41.0288793, 57.3511228], [41.0339578, 57.3498033], [41.0459107, 57.352092], [41.0496727, 57.3484356], [41.0573553, 57.3440631], [41.0630473, 57.3465815], [41.0683067, 57.3518635], [41.0704241, 57.3507089], [41.0742255, 57.3515442], [41.0799822, 57.3543625], [41.0852683, 57.3585208], [41.0851506, 57.3597201], [41.0870767, 57.3616759], [41.0957615, 57.3658772], [41.0966556, 57.3689092], [41.0995184, 57.37049], [41.1019773, 57.370611], [41.0994204, 57.3733175], [41.0999858, 57.3746486], [41.0988361, 57.3754548], [41.0991251, 57.3764438], [41.097542, 57.3770859], [41.1004278, 57.3793178], [41.1066933, 57.3791228], [41.1086708, 57.3805459], [41.1105928, 57.3853471], [41.1140445, 57.3842761], [41.1204919, 57.386289], [41.1256986, 57.3862529], [41.1308919, 57.3842638], [41.1420815, 57.3858325], [41.1445973, 57.3854876], [41.1453085, 57.3881274], [41.1503139, 57.3889302], [41.1528351, 57.3901176], [41.1518504, 57.3908126], [41.1531124, 57.391702], [41.1509767, 57.3939066], [41.1451521, 57.397075], [41.1429748, 57.4052115], [41.1394338, 57.4093061], [41.1492872, 57.4106811], [41.1500909, 57.4123055], [41.1519183, 57.4132047], [41.1529287, 57.4144436], [41.1521261, 57.4150842], [41.1543834, 57.4171373], [41.1532655, 57.4189664], [41.1505711, 57.4208688], [41.1519684, 57.4225395], [41.1515756, 57.4229566], [41.1566759, 57.4230373], [41.1598661, 57.4241141], [41.1681332, 57.4169888], [41.1785707, 57.4215599], [41.1796216, 57.4190716], [41.1936165, 57.4139713], [41.1904281, 57.4119703], [41.1986626, 57.4084202], [41.1977337, 57.4057453], [41.2029137, 57.4060436], [41.2144527, 57.4109697], [41.2184181, 57.4061398], [41.2272777, 57.4045137], [41.2283316, 57.4048889], [41.2363338, 57.4027239], [41.2374591, 57.4003758], [41.239031, 57.399577], [41.2429785, 57.4004239], [41.2474798, 57.4030703], [41.2449791, 57.4069192], [41.2479621, 57.4101424], [41.252374, 57.4117202], [41.2517667, 57.4129997], [41.2523204, 57.4131824], [41.2593403, 57.4112103], [41.2672175, 57.4129612], [41.2725225, 57.4126918], [41.2727012, 57.4137693], [41.2822138, 57.4152462], [41.2887592, 57.4135191], [41.2948502, 57.4141444], [41.3030489, 57.4128842], [41.3084433, 57.4147601], [41.3126409, 57.4148082], [41.3173208, 57.4206373], [41.3226794, 57.4219261], [41.3246443, 57.4276771], [41.3310747, 57.43036], [41.3437568, 57.4286868], [41.3517054, 57.4299657], [41.3547956, 57.4310138], [41.3621012, 57.4388111], [41.3654057, 57.4365519], [41.3703178, 57.4364846], [41.3707465, 57.4371672], [41.3748726, 57.4374941], [41.3797687, 57.4318013], [41.3879785, 57.4316993], [41.3919697, 57.4346228], [41.4182537, 57.438892], [41.4236216, 57.4426101], [41.4205903, 57.444989], [41.4209095, 57.4486378], [41.4139375, 57.4559698], [41.4103536, 57.4572132], [41.4057687, 57.4613965], [41.4203391, 57.4627443], [41.4180867, 57.4689364], [41.4199114, 57.4755604], [41.4222371, 57.4797553], [41.4373596, 57.4769739], [41.4463712, 57.4741919], [41.4611918, 57.4717247], [41.4836965, 57.4698259], [41.5158167, 57.4637589], [41.5360826, 57.4608801], [41.5673867, 57.4525305], [41.5753897, 57.4588881], [41.5716922, 57.460776], [41.5739696, 57.4625438], [41.5780601, 57.4683412], [41.5844458, 57.4710163], [41.5821773, 57.4743443], [41.5851603, 57.4763803], [41.5875181, 57.4765916], [41.5955561, 57.4799814], [41.6017899, 57.4858193], [41.6035047, 57.4901396], [41.6030403, 57.4904707], [41.6058268, 57.4924099], [41.6087919, 57.4933074], [41.6070278, 57.4976362], [41.6083156, 57.5017527], [41.6067259, 57.5035833], [41.6093095, 57.5163278], [41.6052101, 57.5177134], [41.6103097, 57.5196031], [41.6159185, 57.5196943], [41.6173296, 57.5204233], [41.6179371, 57.5251836], [41.6221241, 57.5278348], [41.6189202, 57.529155], [41.6229776, 57.5309654], [41.62527, 57.5306586], [41.6267443, 57.5327681], [41.6313229, 57.5333425], [41.632585, 57.5384816], [41.6243955, 57.5384141], [41.6204469, 57.5391819], [41.617643, 57.5408325], [41.6042421, 57.542656], [41.6028211, 57.5440015], [41.6032443, 57.5447843], [41.601836, 57.5456824], [41.5983067, 57.5458667], [41.5942144, 57.5493503], [41.5919536, 57.5490792], [41.5902907, 57.5514136], [41.5927736, 57.5527505], [41.5931308, 57.5548875], [41.5978347, 57.5572132], [41.5933844, 57.5614355], [41.5930876, 57.562892], [41.6030676, 57.5649206], [41.6098061, 57.5644152], [41.6196307, 57.5666596], [41.6200285, 57.5701684], [41.6129934, 57.5721055], [41.6117745, 57.5744217], [41.6182603, 57.5771137], [41.6149132, 57.5781464], [41.6122737, 57.5768217], [41.6009334, 57.5769025], [41.5966877, 57.5748284], [41.5988349, 57.5733215], [41.5959425, 57.5725088], [41.5945531, 57.5775136], [41.5971278, 57.5792676], [41.612681, 57.5799374], [41.6166595, 57.5823615], [41.6172532, 57.5829302], [41.6156013, 57.5845802], [41.6122164, 57.5839626], [41.6121718, 57.5874909], [41.6157553, 57.5873318], [41.6169983, 57.589853], [41.6159438, 57.5908743], [41.6245314, 57.5964015], [41.6134748, 57.5977942], [41.6045836, 57.5948247], [41.6021522, 57.5957723], [41.6033837, 57.5968959], [41.6022412, 57.5985625], [41.5971764, 57.5989449], [41.5949439, 57.5999601], [41.5919429, 57.5985295], [41.5884285, 57.5987055], [41.5914147, 57.605216], [41.5972238, 57.6041401], [41.60717, 57.6123737], [41.6061741, 57.614206], [41.6097565, 57.6174768], [41.6126712, 57.6165115], [41.614502, 57.6181796], [41.6129774, 57.6207993], [41.6191815, 57.6236414], [41.6167834, 57.6250012], [41.6143078, 57.6252312], [41.6119052, 57.6279586], [41.6059644, 57.6270345], [41.6052008, 57.6313559], [41.6016913, 57.6339246], [41.5980173, 57.6352606], [41.5887738, 57.6359825], [41.5817177, 57.6321599], [41.5762462, 57.6308195], [41.5698979, 57.6341409], [41.5720615, 57.6394588], [41.5777372, 57.6402682], [41.5814673, 57.6438205], [41.5779082, 57.6452759], [41.5790961, 57.6485904], [41.5813316, 57.6501225], [41.5807304, 57.6565611], [41.5853513, 57.6587399], [41.5882053, 57.6622733], [41.5879638, 57.6638635], [41.5813749, 57.6660876], [41.5824687, 57.6697302], [41.580879, 57.670098], [41.5820311, 57.6720897], [41.5859965, 57.6737421], [41.5857285, 57.6755569], [41.5904415, 57.6763171], [41.5903218, 57.6808885], [41.5911333, 57.6816465], [41.5883894, 57.6830292], [41.5928553, 57.6879525], [41.5892382, 57.6906831], [41.5829596, 57.6901723], [41.5830398, 57.6933716], [41.5843515, 57.6951557], [41.5897062, 57.6951692], [41.5886256, 57.6972979], [41.5894294, 57.6991687], [41.5884737, 57.7008343], [41.5839487, 57.7022141], [41.5840559, 57.7028154], [41.5790009, 57.7038413], [41.588295, 57.7159969], [41.5847422, 57.7183851], [41.5873542, 57.7203122], [41.5906747, 57.7206078], [41.5962875, 57.7227791], [41.597269, 57.7282391], [41.5966049, 57.7330256], [41.602717, 57.7369082], [41.5963805, 57.7376108], [41.5991776, 57.7401278], [41.6018777, 57.7405038], [41.6041474, 57.7391252], [41.6133548, 57.7396751], [41.6208205, 57.7368665], [41.62718, 57.7381345], [41.6319657, 57.7375357], [41.6340553, 57.7360072], [41.6371678, 57.7354429], [41.6405629, 57.7335659], [41.6464237, 57.7323518], [41.6514533, 57.7295967], [41.6580572, 57.72829], [41.6742489, 57.7285248], [41.6848255, 57.7271473], [41.6938892, 57.7274411], [41.7012136, 57.7291983], [41.7060247, 57.7279101], [41.7164151, 57.727966], [41.7261639, 57.7287345], [41.7308672, 57.7302108], [41.7398924, 57.7257618], [41.7468368, 57.7266758], [41.7529149, 57.7257438], [41.7578147, 57.7203511], [41.7646453, 57.7190312], [41.7655741, 57.7209749], [41.7720767, 57.7234654], [41.7814302, 57.7214139], [41.7910189, 57.7219908], [41.8079444, 57.7089615], [41.803355, 57.7060627], [41.8267969, 57.7053809], [41.8205937, 57.6998284], [41.8247871, 57.6988609], [41.8957246, 57.6934025], [41.8930264, 57.6766919], [41.9060542, 57.6752557], [41.9021118, 57.6577738], [41.9344629, 57.655292], [41.9303393, 57.6346484], [41.9421904, 57.6339853], [41.9654808, 57.6270893], [41.9768918, 57.6284853], [41.9790638, 57.631467], [41.9830821, 57.6323351], [41.9989001, 57.6318734], [42.0043869, 57.6308054], [42.0187875, 57.6299181], [42.0182373, 57.6254082], [42.0096694, 57.6188007], [42.0084573, 57.6137592], [42.0067266, 57.611005], [42.0078876, 57.6065799], [42.0233117, 57.6063947], [42.0232118, 57.588587], [42.0862185, 57.5885885], [42.089398, 57.5876965], [42.1010814, 57.5874204], [42.107677, 57.5897543], [42.1122265, 57.5895607], [42.1127928, 57.5858652], [42.1059184, 57.582697], [42.1118599, 57.5768056], [42.1223538, 57.5820328], [42.1218823, 57.5616181], [42.1226978, 57.560613], [42.1260992, 57.5645823], [42.1308732, 57.5654814], [42.1349869, 57.5651133], [42.1377314, 57.5629451], [42.1712918, 57.5669448], [42.189164, 57.5635927], [42.1953535, 57.5644054], [42.1994299, 57.5674158], [42.2150223, 57.562136], [42.2121978, 57.5601065], [42.2100678, 57.5560979], [42.2176499, 57.5569377], [42.2227533, 57.5608282], [42.2328936, 57.5635006], [42.2364168, 57.5695284], [42.2463584, 57.5717415], [42.2472541, 57.5715292], [42.2519155, 57.5652245], [42.2577968, 57.5635804], [42.2655945, 57.563226], [42.2665433, 57.5648041], [42.2666998, 57.5673878], [42.2717338, 57.5691709], [42.2730854, 57.5687974], [42.273789, 57.5673195], [42.2828426, 57.5673871], [42.283802, 57.5659187], [42.2892109, 57.5644198], [42.2920026, 57.5649168], [42.2900238, 57.5688232], [42.2914474, 57.569307], [42.2897458, 57.5710741], [42.2915697, 57.5720637], [42.2990683, 57.5707176], [42.3011032, 57.5693634], [42.3110135, 57.5683527], [42.3187113, 57.5762212], [42.3301077, 57.5766659], [42.3345494, 57.5729266], [42.3390341, 57.5714423], [42.3372531, 57.5703146], [42.3391748, 57.5692855], [42.3471408, 57.5714886], [42.3542261, 57.5715114], [42.3596549, 57.573525], [42.3618865, 57.5757801], [42.3727655, 57.5775978], [42.3753704, 57.5792381], [42.3764133, 57.5787483], [42.3768425, 57.5765854], [42.3761773, 57.5752623], [42.3775077, 57.5733524], [42.3807907, 57.5728461], [42.3809624, 57.5713503], [42.3801684, 57.5704067], [42.3806405, 57.5679211], [42.3817426, 57.5671557], [42.3834514, 57.5695091], [42.3837948, 57.5723743], [42.3859834, 57.573617], [42.3857384, 57.5743538], [42.386713, 57.5749402], [42.3808121, 57.5763898], [42.3766258, 57.5801844], [42.3870902, 57.587427], [42.3845243, 57.5883301], [42.3848676, 57.5904463], [42.3807526, 57.5905633], [42.3798894, 57.5918034], [42.380898, 57.5931801], [42.393794, 57.5969781], [42.4073319, 57.5995558], [42.4110634, 57.6045579], [42.4147796, 57.6053021], [42.4162686, 57.6087889], [42.4141359, 57.610268], [42.4059153, 57.6126081], [42.4198007, 57.6157159], [42.4218607, 57.6182442], [42.4259805, 57.6195772], [42.424143, 57.6243879], [42.4248218, 57.6288151], [42.4291133, 57.6303775], [42.4337384, 57.6337956], [42.4647892, 57.6397149], [42.4682577, 57.6384579], [42.4699925, 57.6234713], [42.5244575, 57.6327749], [42.5294494, 57.6287232], [42.5359149, 57.6263929], [42.5969825, 57.6327974], [42.6015792, 57.6353794], [42.6168767, 57.6362073], [42.66777, 57.629143], [42.6756726, 57.6326766], [42.6869797, 57.6218281], [42.7012116, 57.6211117], [42.7038199, 57.6183356], [42.7059173, 57.6192325], [42.7063718, 57.6208106], [42.7097416, 57.6185742], [42.7118046, 57.6183809], [42.7114693, 57.6173727], [42.713055, 57.6167135], [42.7126959, 57.6141823], [42.7150058, 57.6137916], [42.7188777, 57.6153251], [42.7173328, 57.6157848], [42.7199935, 57.6173938], [42.7231902, 57.6181459], [42.7217261, 57.6187203], [42.7216296, 57.6198034], [42.729233, 57.6214895], [42.726684, 57.6232143], [42.7215242, 57.6292156], [42.7242084, 57.6301319], [42.7246533, 57.6317341], [42.7271658, 57.6322018], [42.7260909, 57.6335971], [42.7219544, 57.635221], [42.7216527, 57.6373401], [42.7198664, 57.6383577], [42.7196882, 57.6406576], [42.721115, 57.6414242], [42.7192416, 57.6430179], [42.7211626, 57.6430308], [42.7207272, 57.643946], [42.7223881, 57.6448741], [42.724405, 57.6442213], [42.7250837, 57.6453109], [42.7219535, 57.6466897], [42.7267211, 57.6489696], [42.7242919, 57.6492653], [42.7266576, 57.6507651], [42.7223395, 57.651915], [42.722178, 57.6532062], [42.723235, 57.654356], [42.7210481, 57.6574025], [42.7274958, 57.6602875], [42.7295979, 57.6624864], [42.7300051, 57.665997], [42.7316188, 57.6693862], [42.7350081, 57.6714844], [42.7351694, 57.6729371], [42.7377517, 57.6739054], [42.7390669, 57.6794247], [42.7422705, 57.6805228], [42.7419294, 57.6845409], [42.7443684, 57.6847191], [42.7479261, 57.68832], [42.7558708, 57.6864186], [42.7624797, 57.6863727], [42.7651415, 57.6885344], [42.7784667, 57.68894], [42.780075, 57.6856386], [42.791504, 57.6824258], [42.8036657, 57.6838292], [42.81268, 57.6809698], [42.8190529, 57.6813025], [42.8237692, 57.6830585], [42.8328188, 57.6839487], [42.8336763, 57.6829085], [42.830959, 57.6825644], [42.8310393, 57.6808397], [42.8301267, 57.6801788], [42.8311344, 57.6799349], [42.8282254, 57.6796299], [42.8343672, 57.6769274], [42.8336827, 57.6758701], [42.8354319, 57.6749652], [42.8324849, 57.6738571], [42.8343482, 57.6738367], [42.8348996, 57.6717016], [42.8330553, 57.6706441], [42.8335687, 57.6700544], [42.8313441, 57.6692918], [42.8306597, 57.6676648], [42.83123, 57.6666682], [42.8378086, 57.6650717], [42.8375234, 57.664431], [42.83836, 57.6636988], [42.8395008, 57.6646445], [42.8420105, 57.6632411], [42.8449956, 57.6643801], [42.8467257, 57.6636784], [42.8492545, 57.6643293], [42.8509086, 57.665631], [42.8535324, 57.6657225], [42.8542169, 57.6666987], [42.8554908, 57.6657022], [42.8583808, 57.667675], [42.861575, 57.6679699], [42.8627728, 57.666892], [42.8627348, 57.6648276], [42.8648453, 57.6648988], [42.8650734, 57.6638411], [42.8692943, 57.6643191], [42.871766, 57.6633123], [42.8704922, 57.6626309], [42.8781354, 57.6618071], [42.8802269, 57.6603527], [42.8792572, 57.6588677], [42.8803219, 57.6574844], [42.8831169, 57.6550838], [42.8839154, 57.6553585], [42.8822233, 57.6517472], [42.8811205, 57.6515234], [42.8819761, 57.6508417], [42.878934, 57.6496514], [42.878896, 57.6487968], [42.87612, 57.648105], [42.8773559, 57.6475047], [42.8747131, 57.6468128], [42.8723935, 57.6480032], [42.8699027, 57.6460192], [42.8645981, 57.6450424], [42.8635241, 57.6418294], [42.8643577, 57.6411098], [42.8626637, 57.6410091], [42.862608, 57.6401316], [42.8686542, 57.636529], [42.8685021, 57.6354298], [42.8662205, 57.6344323], [42.8653382, 57.6319085], [42.8620756, 57.6300555], [42.8631404, 57.627307], [42.8603264, 57.623703], [42.8514283, 57.6223387], [42.8546605, 57.6211984], [42.8552309, 57.6208929], [42.8548126, 57.6200173], [42.8560675, 57.6198544], [42.8556872, 57.6182659], [42.8522649, 57.6159442], [42.8543183, 57.6141112], [42.8529493, 57.6135205], [42.8535197, 57.6127873], [42.8601838, 57.612079], [42.8628727, 57.6105811], [42.8629802, 57.6087662], [42.8609905, 57.6057989], [42.8621736, 57.6036956], [42.8683704, 57.6035578], [42.870145, 57.6015409], [42.8737481, 57.6026358], [42.8736943, 57.5994662], [42.8666495, 57.5977373], [42.8662193, 57.5968151], [42.8671335, 57.5956912], [42.8752001, 57.5937315], [42.8756303, 57.5927516], [42.8742858, 57.5924057], [42.8778889, 57.5911087], [42.8789645, 57.5920599], [42.8797174, 57.5896388], [42.8772974, 57.5882552], [42.8735867, 57.5883705], [42.8716508, 57.5871022], [42.8694459, 57.5877652], [42.8674561, 57.5852861], [42.8649824, 57.584479], [42.8627237, 57.5816249], [42.8619076, 57.5792268], [42.8575114, 57.5759522], [42.8654717, 57.573996], [42.8660681, 57.5725894], [42.8673539, 57.5722225], [42.8722576, 57.5722157], [42.871776, 57.5696494], [42.8745736, 57.5689845], [42.873057, 57.5677974], [42.8737743, 57.5671269], [42.8713046, 57.5660552], [42.8661501, 57.5678908], [42.8616514, 57.5668136], [42.8606369, 57.5652967], [42.8591408, 57.5655276], [42.8590998, 57.5646977], [42.8573577, 57.5640106], [42.8576959, 57.5627135], [42.8604115, 57.5608336], [42.8589666, 57.5576728], [42.8594585, 57.5571505], [42.8554004, 57.5565403], [42.8546011, 57.5569966], [42.8552775, 57.5577717], [42.8518138, 57.558228], [42.8521212, 57.5567272], [42.8499795, 57.5568977], [42.8482887, 57.5557817], [42.8490572, 57.5544018], [42.8466388, 57.5546437], [42.8462365, 57.5533123], [42.8445695, 57.5531969], [42.8440855, 57.5509319], [42.8391069, 57.5488431], [42.8362785, 57.5487551], [42.8358868, 57.5495399], [42.8338947, 57.5483061], [42.8339484, 57.5475702], [42.8363146, 57.5461273], [42.8358307, 57.5454636], [42.8370138, 57.54353], [42.8365835, 57.542924], [42.832908, 57.5418018], [42.8328191, 57.5408026], [42.8280509, 57.5395156], [42.8280356, 57.5383652], [42.8268069, 57.5374439], [42.8195272, 57.5366292], [42.8173145, 57.5326986], [42.8151262, 57.5317611], [42.8134596, 57.5321307], [42.8139161, 57.530987], [42.8106348, 57.5306912], [42.8100163, 57.5303158], [42.811293, 57.529855], [42.8107278, 57.5292248], [42.8075251, 57.529147], [42.8069539, 57.5261522], [42.813506, 57.5233552], [42.8122456, 57.5205544], [42.8144898, 57.5202352], [42.8143054, 57.5190906], [42.8163036, 57.5192997], [42.8157503, 57.5182651], [42.8185068, 57.5175497], [42.8183634, 57.516449], [42.8226366, 57.5165645], [42.8247988, 57.5153923], [42.8262232, 57.5170654], [42.828078, 57.5174891], [42.830435, 57.5156565], [42.8323923, 57.5154638], [42.8342881, 57.5125633], [42.8371266, 57.5117597], [42.8403443, 57.5130586], [42.8419532, 57.5126183], [42.8425373, 57.5116331], [42.8463597, 57.5109065], [42.8467388, 57.5085561], [42.8434289, 57.5041465], [42.8444024, 57.5024343], [42.8419737, 57.5023738], [42.8412871, 57.5015314], [42.8415126, 57.4995768], [42.8442999, 57.496306], [42.8424553, 57.4929524], [42.8438221, 57.4916465], [42.841078, 57.4903376], [42.8428461, 57.4864983], [42.8465591, 57.4842756], [42.8539045, 57.4833663], [42.8598149, 57.4803421], [42.8657172, 57.4808852], [42.8647724, 57.4775394], [42.8664166, 57.476765], [42.8670145, 57.4752746], [42.865, 57.4705], [42.86075, 57.46925], [42.86125, 57.46875], [42.85925, 57.46625], [42.857, 57.4675], [42.85075, 57.4665], [42.849, 57.46775], [42.8429227, 57.4692481], [42.8405, 57.469], [42.836101, 57.4668179], [42.838, 57.4645], [42.83675, 57.46325], [42.83725, 57.46275], [42.83575, 57.4595], [42.82525, 57.45275], [42.825, 57.45025], [42.8285, 57.44725], [42.84175, 57.4455], [42.8459351, 57.4432769], [42.8479362, 57.4406756], [42.847333, 57.4365822], [42.8483683, 57.4354268], [42.8489911, 57.4324254], [42.8437262, 57.4315514], [42.8384996, 57.4317214], [42.8358058, 57.4301846], [42.8351162, 57.4310692], [42.8259713, 57.4303927], [42.8183619, 57.4310312], [42.8144824, 57.433209], [42.8137488, 57.4309174], [42.8160873, 57.4281354], [42.8205416, 57.4272428], [42.8224862, 57.4260717], [42.8272498, 57.4171694], [42.83427, 57.4135126], [42.8535569, 57.4004999], [42.8610673, 57.3938561], [42.8650314, 57.3889721], [42.8672452, 57.3874354], [42.8681388, 57.385488], [42.8716611, 57.3838336], [42.8842843, 57.3743809], [42.8934628, 57.3713122], [42.9231119, 57.3716824], [42.9293011, 57.3732351], [42.9334762, 57.3761956], [42.9517418, 57.379014], [42.9598394, 57.3784298], [42.9628488, 57.3794188], [42.9664752, 57.3787031], [42.9758656, 57.3799393], [42.9963174, 57.379896], [43.005048, 57.3816917], [43.0099457, 57.3814445], [43.0256313, 57.3844069], [43.0320364, 57.3836001], [43.0334821, 57.3843967], [43.0318084, 57.3858959], [43.0325836, 57.3878215], [43.0387124, 57.3912271], [43.0398524, 57.3937348], [43.0453563, 57.3977426], [43.0465458, 57.4001964], [43.048414, 57.3966962], [43.0522093, 57.3943766], [43.0620342, 57.3952553], [43.0823117, 57.3939791], [43.0852514, 57.3948405], [43.0874723, 57.3965517], [43.0880624, 57.3990143], [43.0878907, 57.3993395], [43.0871236, 57.3997542], [43.0877137, 57.3992845], [43.0872846, 57.3987932], [43.0862009, 57.3998496], [43.0866972, 57.4016978], [43.0937782, 57.4043681], [43.0991399, 57.4049129], [43.1053171, 57.4039968], [43.1141818, 57.39901], [43.1165636, 57.3984493], [43.1214693, 57.3993048], [43.1217762, 57.3999538], [43.1291646, 57.4020793], [43.1565124, 57.4040661], [43.1639421, 57.4070108], [43.1653225, 57.4083993], [43.1742634, 57.4128872], [43.1728739, 57.4136809], [43.1724608, 57.4156729], [43.1761273, 57.4183539], [43.1718329, 57.4210265], [43.1720799, 57.4218201], [43.1736517, 57.423195], [43.1780237, 57.4247382], [43.1786942, 57.4273251], [43.1845, 57.4305], [43.18325, 57.43175], [43.184, 57.433], [43.18125, 57.44025], [43.17925, 57.44175], [43.1775, 57.44525], [43.1705, 57.449], [43.17075, 57.4505], [43.1725, 57.4525], [43.17875, 57.4560826], [43.1801633, 57.4577645], [43.1725352, 57.4593222], [43.1765, 57.4595], [43.1767012, 57.4616343], [43.177907, 57.4623766], [43.1874483, 57.4632859], [43.1870248, 57.465336], [43.1882588, 57.466544], [43.1889529, 57.4691453], [43.18775, 57.47125], [43.1835, 57.4745], [43.183, 57.476], [43.1845, 57.4785], [43.1902276, 57.4798563], [43.1920623, 57.4812125], [43.18575, 57.48375], [43.18975, 57.48275], [43.1906673, 57.4832372], [43.193636, 57.4874337], [43.19975, 57.49225], [43.201, 57.494], [43.20075, 57.4985], [43.20425, 57.50325], [43.2025461, 57.5066564], [43.2056248, 57.5088944], [43.2086373, 57.5096877], [43.1924002, 57.5164355], [43.203, 57.514], [43.2100962, 57.5162625], [43.2097596, 57.5172242], [43.2067158, 57.5173266], [43.2085576, 57.5177168], [43.2052751, 57.5193666], [43.2043114, 57.5212463], [43.2051873, 57.5233777], [43.2021683, 57.5241782], [43.1999154, 57.5260557], [43.2012788, 57.5267438], [43.2006899, 57.5276371], [43.2016417, 57.5283138], [43.200086, 57.5298282], [43.1980699, 57.5302749], [43.1983067, 57.5309886], [43.1969924, 57.5310995], [43.1987386, 57.531674], [43.1973491, 57.5320167], [43.1994566, 57.5322238], [43.1969332, 57.5325839], [43.1915, 57.5355], [43.1879446, 57.5340225], [43.185, 57.5345], [43.184, 57.535], [43.1843737, 57.5354315], [43.1822221, 57.5354138], [43.1813512, 57.534529], [43.1794637, 57.5353377], [43.1796634, 57.5362431], [43.1807798, 57.536291], [43.17975, 57.53725], [43.1819178, 57.5359894], [43.1864016, 57.5369837], [43.188, 57.53575], [43.1898058, 57.5374835], [43.1898978, 57.5383103], [43.1867868, 57.5398049], [43.1880389, 57.5407718], [43.182992, 57.542157], [43.1843464, 57.5424655], [43.1855583, 57.543904], [43.1851606, 57.5447294], [43.18725, 57.54425], [43.188522, 57.5464026], [43.1850623, 57.5477345], [43.1848227, 57.5489664], [43.1888268, 57.5516472], [43.1919481, 57.5521453], [43.1930726, 57.5533303], [43.1903349, 57.5586504], [43.18325, 57.56275], [43.183, 57.564], [43.1858648, 57.5656211], [43.1840751, 57.5671694], [43.1850497, 57.56859], [43.1819554, 57.5708052], [43.1839308, 57.5730386], [43.1860622, 57.5735889], [43.1835711, 57.5755282], [43.1857677, 57.5772886], [43.1883366, 57.5773971], [43.1902179, 57.5764846], [43.1938793, 57.5776424], [43.1904244, 57.5761222], [43.1911567, 57.5752161], [43.1978372, 57.5748131], [43.1950954, 57.5719508], [43.1975548, 57.5720233], [43.1896555, 57.5707302], [43.1938019, 57.5690117], [43.1971695, 57.5658562], [43.1972746, 57.564789], [43.1959816, 57.5631622], [43.1970996, 57.5619855], [43.1963807, 57.5601699], [43.1939037, 57.5596312], [43.1947462, 57.5583929], [43.1964816, 57.5583477], [43.1993196, 57.5540605], [43.1974589, 57.5514145], [43.1992954, 57.5507817], [43.1963805, 57.5511343], [43.1934748, 57.5504677], [43.1931758, 57.5489435], [43.1939165, 57.5482723], [43.195376, 57.5496162], [43.1977906, 57.5483786], [43.1968896, 57.5477308], [43.1969617, 57.5463578], [43.1955791, 57.5461721], [43.1944768, 57.5442147], [43.2006302, 57.5448904], [43.2035419, 57.5447393], [43.204768, 57.5437861], [43.2003425, 57.5407135], [43.1964094, 57.5411192], [43.1969162, 57.5398584], [43.1986189, 57.5383382], [43.202368, 57.5378385], [43.200411, 57.5355708], [43.2024118, 57.5355708], [43.2039838, 57.5372584], [43.2084307, 57.538292], [43.2063141, 57.5350717], [43.2122235, 57.5291497], [43.221543, 57.5244068], [43.227748, 57.5204402], [43.2284213, 57.5189799], [43.2234408, 57.5157659], [43.2265891, 57.5135732], [43.2218187, 57.506993], [43.2257569, 57.5012791], [43.216753, 57.4927378], [43.2143301, 57.486632], [43.218591, 57.4809829], [43.2190568, 57.4749316], [43.2183545, 57.4724729], [43.2243191, 57.472449], [43.2281574, 57.4707377], [43.2316899, 57.4674087], [43.2291001, 57.4656324], [43.2275035, 57.463414], [43.216251, 57.4609588], [43.2048803, 57.4605054], [43.2018216, 57.4585266], [43.1976294, 57.4532218], [43.1991047, 57.4501111], [43.1989856, 57.444504], [43.2023202, 57.4478043], [43.2051785, 57.4481888], [43.2080331, 57.4466578], [43.2252923, 57.4170762], [43.2380864, 57.4135321], [43.248893, 57.4120774], [43.2571328, 57.4122782], [43.2634011, 57.4108726], [43.2651794, 57.4118997], [43.266086, 57.4141027], [43.2706082, 57.4148077], [43.283802, 57.4189286], [43.2890698, 57.4221075], [43.2967597, 57.4233235], [43.2962179, 57.4234578], [43.3028027, 57.4285713], [43.30578, 57.4329217], [43.3054922, 57.4480598], [43.3067359, 57.4558016], [43.3046079, 57.4597145], [43.3043423, 57.4695173], [43.3049364, 57.4704448], [43.3038944, 57.476086], [43.3051161, 57.4787295], [43.3048022, 57.4794942], [43.3073544, 57.4830362], [43.3113617, 57.4858938], [43.3152726, 57.4871608], [43.3151382, 57.4887281], [43.3158751, 57.489469], [43.3205724, 57.490259], [43.3210766, 57.4897285], [43.320144, 57.4891135], [43.3207096, 57.488867], [43.324585, 57.4899361], [43.3296275, 57.4929949], [43.3302986, 57.4943095], [43.3269238, 57.4965868], [43.3269077, 57.4975438], [43.3320844, 57.4953386], [43.3365369, 57.49727], [43.3395808, 57.4966768], [43.3365852, 57.4940933], [43.3406622, 57.4958316], [43.3471853, 57.5012764], [43.352716, 57.5038645], [43.3543467, 57.5068329], [43.3564818, 57.5083429], [43.3559587, 57.5095935], [43.3568991, 57.5120397], [43.3567164, 57.518635], [43.3580267, 57.5220512], [43.3607676, 57.5266077], [43.3644962, 57.5297688], [43.371411, 57.5335399], [43.3821385, 57.5378901], [43.4018522, 57.5445122], [43.4210801, 57.5497646], [43.4243564, 57.5531284], [43.4350169, 57.5609554], [43.4414193, 57.5614575], [43.4463169, 57.5643406], [43.4512105, 57.5693901], [43.4521106, 57.571973], [43.4560743, 57.5770864], [43.4595283, 57.57934], [43.4634012, 57.5800271], [43.467434, 57.5825603], [43.4680705, 57.585486], [43.467522, 57.5884574], [43.4718248, 57.5924955], [43.4961787, 57.6038826], [43.5002771, 57.6041529], [43.5110164, 57.6026374], [43.5122705, 57.602727], [43.5127184, 57.6039812], [43.5093143, 57.6054143], [43.5182721, 57.6054145], [43.5189888, 57.6039812], [43.5210492, 57.6027272], [43.5221243, 57.6001294], [43.5229305, 57.6001294], [43.5255285, 57.596188], [43.5360985, 57.5991443], [43.533949, 57.5911718], [43.5260438, 57.5894553], [43.5264339, 57.5884167], [43.5320529, 57.5857479], [43.5309934, 57.5812286], [43.5281271, 57.5787204], [43.5253848, 57.5776247], [43.5208989, 57.5770388], [43.5088681, 57.5730767], [43.5082412, 57.5707477], [43.5088684, 57.5685083], [43.5101225, 57.5674334], [43.5297112, 57.5700682], [43.5297949, 57.5711453], [43.5361895, 57.5727188], [43.5383028, 57.5724616], [43.5392352, 57.5721814], [43.539056, 57.5708378], [43.5413851, 57.5701211], [43.5398627, 57.5625965], [43.540395, 57.5614807], [43.5477034, 57.5567372], [43.5513298, 57.5553305], [43.5583161, 57.5552515], [43.5726699, 57.5528124], [43.584473, 57.5538186], [43.5871604, 57.5533708], [43.5878281, 57.5523494], [43.5941475, 57.5525647], [43.6049868, 57.5471005], [43.6154675, 57.5458466], [43.6318997, 57.5471574], [43.6375049, 57.5414369], [43.6430579, 57.5388599], [43.6471046, 57.5358221], [43.6475924, 57.5346137], [43.646523, 57.5333549], [43.6493613, 57.5325479], [43.6510255, 57.5309077], [43.6501117, 57.5296752], [43.6516258, 57.5259221], [43.6529578, 57.5252774], [43.65377, 57.5224656], [43.6546517, 57.5102544], [43.6560532, 57.5081093], [43.6556029, 57.5068999], [43.6582294, 57.5050153], [43.6584732, 57.5019917], [43.6612873, 57.4982218], [43.6680784, 57.4945726], [43.6745047, 57.4896356], [43.6858414, 57.4888346], [43.692964, 57.4872529], [43.6961158, 57.4856117], [43.7107819, 57.4823373], [43.7179815, 57.4791158], [43.7475103, 57.4563602], [43.7373585, 57.4366687], [43.731359, 57.4280711], [43.7011333, 57.4087785], [43.7060164, 57.4082005], [43.7089288, 57.4073513], [43.7088193, 57.4067851], [43.7153667, 57.4062071], [43.7162864, 57.4058414], [43.7156733, 57.4054522], [43.716155, 57.4050157], [43.7215856, 57.4053932], [43.7292717, 57.4029395], [43.7322717, 57.403258], [43.7346366, 57.4024676], [43.73433, 57.4020076], [43.7352059, 57.4015357], [43.7386001, 57.4025384], [43.739673, 57.4010638], [43.7437022, 57.3987632], [43.7461328, 57.398716], [43.7468774, 57.3978193], [43.7505124, 57.3967811], [43.7497459, 57.3959905], [43.751016, 57.3956719], [43.7519576, 57.3962265], [43.753578, 57.3957899], [43.7551985, 57.3972648], [43.7584393, 57.3980671], [43.7583736, 57.398716], [43.7604007, 57.3992293], [43.7598576, 57.4008054], [43.7629934, 57.4010036], [43.7645174, 57.4019097], [43.7660941, 57.4013717], [43.7682838, 57.4022778], [43.7702283, 57.4014755], [43.7723656, 57.4017209], [43.7745378, 57.4010886], [43.7742225, 57.400258], [43.775729, 57.400494], [43.7747655, 57.3998333], [43.7763071, 57.3995785], [43.7755188, 57.3985591], [43.7772881, 57.3987101], [43.7780342, 57.3977293], [43.7800411, 57.3929205], [43.7787856, 57.3912552], [43.7819529, 57.3899939], [43.78491, 57.3912023], [43.7890582, 57.3914138], [43.792448, 57.3900996], [43.7942761, 57.3867361], [43.8013723, 57.385685], [43.8103952, 57.3876479], [43.8233657, 57.3855077], [43.8319188, 57.3862802], [43.8307439, 57.3826327], [43.8348089, 57.3789721], [43.8476619, 57.3781994], [43.8567701, 57.368058], [43.8846144, 57.3555118], [43.8837391, 57.346746], [43.8731653, 57.3411039], [43.8543675, 57.3603407], [43.8108388, 57.3625743], [43.811015, 57.3560474], [43.806433, 57.3518169], [43.7929808, 57.3522289], [43.7774726, 57.3387104], [43.7983265, 57.3255834], [43.8034665, 57.3123249], [43.7918941, 57.3111986], [43.7816728, 57.3056779], [43.7612889, 57.3170991], [43.754269, 57.3185107], [43.7465737, 57.3182252], [43.7275409, 57.3315451], [43.6875661, 57.3220789], [43.6850402, 57.3188596], [43.6791952, 57.3059476], [43.6851577, 57.2953323], [43.6862444, 57.2833011], [43.6843646, 57.2631979], [43.6701488, 57.2572729], [43.6605443, 57.2584802], [43.6470333, 57.2571617], [43.6398373, 57.2529357], [43.6048851, 57.2557795], [43.5994513, 57.2611965], [43.5927546, 57.2612601], [43.5826214, 57.2635791], [43.5657327, 57.2583054], [43.5654977, 57.2521413], [43.5561576, 57.2461827], [43.554924, 57.2365833], [43.5503714, 57.2357726], [43.5502832, 57.2341513], [43.5558639, 57.2317986], [43.5625606, 57.2256299], [43.5650865, 57.2182994], [43.5466412, 57.217377], [43.5509882, 57.2145302], [43.5444085, 57.2121512], [43.541449, 57.2094474], [43.5413167, 57.2073168], [43.5396564, 57.2054272], [43.5391271, 57.2027294], [43.5305613, 57.1992494], [43.5228015, 57.1971899], [43.5214301, 57.1948891], [43.5219, 57.1925368], [43.5211902, 57.1908551], [43.5150426, 57.1868067], [43.5144771, 57.1853072], [43.5131537, 57.185066], [43.5127808, 57.1837816], [43.5095686, 57.1821516], [43.508137, 57.1797912], [43.501472, 57.1761133], [43.4945905, 57.1742286], [43.4904881, 57.1718482], [43.4914584, 57.1710127], [43.494839, 57.1704714], [43.4955969, 57.171104], [43.5001685, 57.1706789], [43.495896, 57.1692343], [43.4934297, 57.1694561], [43.5005924, 57.1659562], [43.5126471, 57.1634056], [43.5223678, 57.1593738], [43.5286719, 57.1592629], [43.5348176, 57.1548855], [43.5348374, 57.1537563], [43.5298597, 57.1518068], [43.5322207, 57.1502407], [43.5050033, 57.1406959], [43.5100318, 57.1397397], [43.5150357, 57.1359896], [43.5120732, 57.1346839], [43.5121334, 57.1325621], [43.5132011, 57.1308237], [43.5113814, 57.1288322], [43.5123871, 57.1239418], [43.5101643, 57.1219954], [43.5062919, 57.1207912], [43.504055, 57.1185665], [43.4968366, 57.1149536], [43.4918928, 57.1102686], [43.4945809, 57.1085843], [43.5018744, 57.1061649], [43.5104463, 57.1075226], [43.5112922, 57.1083291], [43.5065363, 57.1108913], [43.5091868, 57.1130858], [43.5171007, 57.1158926], [43.5315374, 57.1132695], [43.5347894, 57.1142596], [43.5407672, 57.1131266], [43.5512939, 57.116954], [43.5505608, 57.1210259], [43.5474592, 57.1227734], [43.5445455, 57.1283726], [43.5537095, 57.1290485], [43.5647077, 57.1137252], [43.557447, 57.1116073], [43.557071, 57.1050996], [43.5583411, 57.1046629], [43.5588374, 57.1054959], [43.5613638, 57.1046302], [43.5647775, 57.1054551], [43.5667926, 57.1047282], [43.5711537, 57.1052917], [43.574417, 57.1043852], [43.5740516, 57.1030855], [43.576606, 57.098116], [43.5804859, 57.0952977], [43.5895389, 57.0937373], [43.5959302, 57.0958614], [43.5960053, 57.0983693], [43.6049832, 57.1014896], [43.608848, 57.1017714], [43.6179274, 57.0996987], [43.620841, 57.1005972], [43.6265368, 57.1005666], [43.6314242, 57.1016182], [43.6383694, 57.1050645], [43.6384634, 57.0951859], [43.6403432, 57.09442], [43.6369126, 57.0903988], [43.6301454, 57.0860707], [43.6280306, 57.0815506], [43.6279131, 57.079584], [43.6295814, 57.0780388], [43.6306623, 57.0746416], [43.632965, 57.0734922], [43.6442437, 57.0723937], [43.6455361, 57.0688555], [43.6475803, 57.0679358], [43.6661197, 57.0672204], [43.6709366, 57.0691877], [43.6802416, 57.0709121], [43.6879957, 57.0687533], [43.6933061, 57.0717423], [43.707099, 57.0678847], [43.7050782, 57.0674376], [43.6998618, 57.0641034], [43.6992274, 57.0614587], [43.6967367, 57.0578684], [43.69817, 57.0554406], [43.6996738, 57.0468269], [43.6968776, 57.0459066], [43.6942459, 57.0429411], [43.6884186, 57.040883], [43.6859044, 57.0408191], [43.6800771, 57.0382623], [43.6649213, 57.0291204], [43.6608093, 57.028903], [43.6586946, 57.0256292], [43.6578252, 57.0201169], [43.6612482, 57.014384], [43.6500208, 57.0140739], [43.6408189, 57.0115085], [43.6370433, 57.0096275], [43.6354905, 57.0012475], [43.6400324, 56.9998373], [43.6416983, 56.9985131], [43.6411805, 56.9952135], [43.6430266, 56.9918817], [43.6424818, 56.9901115], [43.6404667, 56.9894858], [43.6335311, 56.990154], [43.6265467, 56.9884652], [43.6222441, 56.9885923], [43.6206445, 56.9876543], [43.6165086, 56.9882494], [43.6042525, 56.9864963], [43.6029491, 56.9850296], [43.6005978, 56.9841116], [43.6007496, 56.983232], [43.5977578, 56.9799452], [43.5919852, 56.9786236], [43.5911188, 56.9771848], [43.592611, 56.9767328], [43.5926994, 56.9758377], [43.5917716, 56.9755309], [43.5981752, 56.9727662], [43.6012224, 56.9692756], [43.6000007, 56.966445], [43.5945617, 56.9621726], [43.5654715, 56.9450167], [43.5619481, 56.9436913], [43.558309, 56.9430853], [43.552099, 56.9434939], [43.5348648, 56.9386983], [43.5312108, 56.9386667], [43.52436, 56.9263671], [43.5171621, 56.920352], [43.5128387, 56.9182257], [43.5154774, 56.9157226], [43.5141239, 56.91394], [43.5045218, 56.9112723], [43.4910792, 56.9090917], [43.485993, 56.9047576], [43.4862707, 56.9040136], [43.478469, 56.8987854], [43.4773349, 56.8963982], [43.4774274, 56.8937413], [43.4704854, 56.8933145], [43.4703986, 56.8925435], [43.4678646, 56.8926067], [43.4651396, 56.8909349], [43.4550727, 56.888394], [43.4488706, 56.8849963], [43.4487202, 56.8838742], [43.4473374, 56.8841745], [43.4474763, 56.8835012], [43.4442479, 56.8829354], [43.4437388, 56.8818291], [43.4395212, 56.8818544], [43.4393302, 56.8808618], [43.4357374, 56.8803244], [43.4357374, 56.8810957], [43.4314275, 56.8814193], [43.4297378, 56.8803497], [43.4285865, 56.8806279], [43.427898, 56.8795436], [43.4264921, 56.8803307], [43.4221471, 56.880571], [43.4198098, 56.8794361], [43.4168996, 56.8795847], [43.4165872, 56.8788734], [43.4145276, 56.8789524], [43.4150309, 56.8784782], [43.4074981, 56.8775393], [43.4077006, 56.8767711], [43.4037838, 56.8759649], [43.4043392, 56.8752693], [43.4029854, 56.8743367], [43.4038359, 56.8738845], [43.4020944, 56.8727147], [43.3998901, 56.8724238], [43.3996645, 56.8716966], [43.3923296, 56.8685516], [43.389775, 56.8682825], [43.389289, 56.8678208], [43.389827, 56.8671536], [43.3842729, 56.8664958], [43.3838679, 56.865623], [43.3844407, 56.8654617], [43.3823956, 56.8648316], [43.3782506, 56.8650645], [43.3748266, 56.8640761], [43.3725748, 56.8645523], [43.3697074, 56.8634412], [43.3678078, 56.8638433], [43.3667368, 56.8628362], [43.3644789, 56.8625781], [43.3661933, 56.8617606], [43.3662269, 56.8608434], [43.3632456, 56.8593433], [43.360282, 56.859279], [43.3602766, 56.8583842], [43.3522073, 56.8570571], [43.3444782, 56.8516468], [43.3394265, 56.8494265], [43.3265242, 56.8480501], [43.3248637, 56.8462751], [43.3269095, 56.8252158], [43.326275, 56.8236781], [43.324017, 56.8225532], [43.3213251, 56.8223607], [43.3115818, 56.8254217], [43.3078005, 56.8255093], [43.3030622, 56.8238789], [43.3005965, 56.8208312], [43.2908821, 56.8146659], [43.2873325, 56.8139186], [43.2772441, 56.814292], [43.2729472, 56.8133578], [43.2697715, 56.8086873], [43.2700577, 56.7975369], [43.2594967, 56.8006538], [43.2553865, 56.8030824], [43.2495948, 56.8085002], [43.2499681, 56.8148521], [43.244599, 56.8243885], [43.2365155, 56.8432487], [43.2365151, 56.8512821], [43.2271304, 56.8541091], [43.2133038, 56.8558971], [43.1982312, 56.860434], [43.1897379, 56.8597573], [43.1812484, 56.8551211], [43.179343, 56.8570715], [43.1794417, 56.8603295], [43.1770428, 56.866187], [43.1730238, 56.8706858], [43.1622678, 56.8763175], [43.1574244, 56.8782672], [43.1523363, 56.8790274], [43.144221, 56.8778167], [43.1405112, 56.8748252], [43.1401448, 56.8733702], [43.150379, 56.8716673], [43.1518084, 56.8710111], [43.1518942, 56.8702143], [43.1487782, 56.8664643], [43.147263, 56.8661987], [43.1442042, 56.862167], [43.1430607, 56.8576348], [43.1401448, 56.8531802], [43.1327121, 56.8478965], [43.128081, 56.8427059], [43.1167604, 56.8342618], [43.1052791, 56.8292296], [43.0844435, 56.8241907], [43.0670691, 56.8253114], [43.0558599, 56.8240035], [43.0517496, 56.8268057], [43.0461449, 56.826432], [43.0274631, 56.8208271], [43.0223254, 56.822882], [43.0163471, 56.8221346], [43.009995, 56.8243764], [43.005885, 56.8238159], [42.9905655, 56.8266179], [42.9877631, 56.8277388], [42.9830925, 56.8279257], [42.9679601, 56.8243758], [42.9532016, 56.8174631], [42.9395638, 56.813166], [42.9229369, 56.8096162], [42.9184534, 56.8032642], [42.9124752, 56.8032642], [42.9053762, 56.799154], [42.8909166, 56.8098834], [42.8708136, 56.8094286], [42.8620336, 56.7972851], [42.8321644, 56.7731846], [42.8334177, 56.7572872], [42.8257953, 56.7520737], [42.8323219, 56.7444787], [42.8254595, 56.7399302], [42.8239844, 56.7368901], [42.8434585, 56.7288582], [42.8403295, 56.7266048], [42.8377189, 56.7280365], [42.8263667, 56.7283231], [42.824681, 56.7176358], [42.8196319, 56.7171108], [42.8175153, 56.714508], [42.8108487, 56.7105992], [42.8025958, 56.7079827], [42.7970485, 56.6986423], [42.7974469, 56.6917274], [42.8106631, 56.6868728], [42.8143012, 56.6863386], [42.8095101, 56.6786577], [42.8133518, 56.6763565], [42.8152448, 56.6731105], [42.822149, 56.6716755], [42.8275914, 56.6680035], [42.8252867, 56.6661557], [42.8258552, 56.6640937], [42.821307, 56.6629689], [42.8228989, 56.6617192], [42.8220606, 56.6582893], [42.8229792, 56.654869], [42.8265446, 56.6530584], [42.8343912, 56.6517508], [42.8504584, 56.641289], [42.8591458, 56.6366186], [42.8653109, 56.6377396], [42.8739047, 56.6358715], [42.8774544, 56.6362452], [42.8817512, 56.637553], [42.8899711, 56.6433446], [42.8983779, 56.6457734], [42.9056641, 56.6437185], [42.9030488, 56.6401688], [42.9108953, 56.639048], [42.9164998, 56.642224], [42.9222914, 56.6388613], [42.9206101, 56.6379272], [42.9273358, 56.6349382], [42.9273362, 56.6278389], [42.9174348, 56.6242892], [42.9133249, 56.6201791], [42.9140723, 56.6179372], [42.9181826, 56.6138272], [42.918416, 56.6064681], [42.924127, 56.6018026], [42.9134458, 56.5923711], [42.9200522, 56.5848699], [42.9194918, 56.5831885], [42.9243495, 56.5773972], [42.9249104, 56.5693638], [42.9146352, 56.5697373], [42.9123934, 56.567869], [42.902305, 56.5678689], [42.8946455, 56.5633851], [42.8825022, 56.5624508], [42.8531716, 56.5529225], [42.852416, 56.5507475], [42.8505564, 56.5488124], [42.8431334, 56.5303562], [42.8335568, 56.5234043], [42.8250565, 56.5207888], [42.8211335, 56.5159313], [42.8213205, 56.513129], [42.8252437, 56.5146237], [42.8416841, 56.5127557], [42.8510253, 56.510514], [42.8687734, 56.5092064], [42.8807299, 56.5110748], [42.8867082, 56.5105145], [42.9010426, 56.5157262], [42.8919863, 56.4849157], [42.9013575, 56.4698517], [42.8102722, 56.4690972], [42.7990641, 56.4764915], [42.7757754, 56.4687221], [42.6497519, 56.4686417], [42.6447993, 56.4667004], [42.6454004, 56.465283], [42.6472903, 56.4650616], [42.6490657, 56.4634669], [42.6456295, 56.4610812], [42.6480379, 56.4579725], [42.6478038, 56.4546651], [42.6557537, 56.4497113], [42.6580088, 56.4500735], [42.6596885, 56.4518104], [42.6625546, 56.4528381], [42.6699892, 56.4532551], [42.6742446, 56.4521661], [42.6797651, 56.4525729], [42.6812065, 56.4509961], [42.6810301, 56.4500324], [42.6787303, 56.4490417], [42.6757941, 56.4490393], [42.6744665, 56.4475563], [42.6754474, 56.4456116], [42.67851, 56.4428745], [42.6780561, 56.441325], [42.6760876, 56.4404521], [42.6715146, 56.4409354], [42.6686406, 56.4381796], [42.6579746, 56.4377993], [42.6564339, 56.436527], [42.6555208, 56.4327241], [42.6532659, 56.4317237], [42.6500369, 56.43176], [42.6489146, 56.4325979], [42.6490949, 56.434486], [42.6473626, 56.4346751], [42.6458857, 56.4332971], [42.6445591, 56.4288729], [42.6408067, 56.4278276], [42.630076, 56.4277058], [42.6250663, 56.4261375], [42.6220844, 56.4280463], [42.619764, 56.4272005], [42.6170973, 56.4304306], [42.615176, 56.4306336], [42.6141304, 56.426645], [42.6158794, 56.4251543], [42.6144741, 56.4229549], [42.611245, 56.4223392], [42.6123201, 56.4212533], [42.615805, 56.4202397], [42.6201702, 56.415223], [42.6198236, 56.4128526], [42.615614, 56.4115204], [42.6073705, 56.410577], [42.6062591, 56.4097513], [42.607081, 56.4090563], [42.6134287, 56.4085835], [42.6142427, 56.4074444], [42.6131505, 56.4049651], [42.609007, 56.4059305], [42.6067411, 56.407896], [42.6050288, 56.407157], [42.6062576, 56.4058896], [42.6053989, 56.4047002], [42.602194, 56.4036872], [42.5968088, 56.403615], [42.5969495, 56.4027157], [42.6010258, 56.4014078], [42.6012001, 56.3998043], [42.6005099, 56.3991902], [42.5957338, 56.3999514], [42.5941866, 56.4022546], [42.5915548, 56.4028388], [42.588327, 56.4020263], [42.5851564, 56.3998875], [42.5820331, 56.4025092], [42.5800183, 56.4015106], [42.5710207, 56.4016371], [42.5692187, 56.4003967], [42.5657625, 56.4025567], [42.5543854, 56.412925], [42.5504972, 56.414077], [42.546033, 56.414653], [42.5435849, 56.4139328], [42.5373926, 56.4140768], [42.5222718, 56.4155167], [42.5155034, 56.4172446], [42.4962064, 56.4199804], [42.484542, 56.4165241], [42.4731655, 56.4172439], [42.453868, 56.4309243], [42.4498357, 56.4316443], [42.4455153, 56.4339483], [42.4383151, 56.4339482], [42.4152736, 56.4408602], [42.4103773, 56.4427322], [42.4057689, 56.4477724], [42.4028888, 56.4469082], [42.3998646, 56.4470522], [42.3890106, 56.4487394], [42.3680392, 56.4447477], [42.3604069, 56.4456116], [42.340534, 56.4458993], [42.3267092, 56.4490672], [42.3213809, 56.4494991], [42.3136047, 56.447771], [42.293588, 56.4408584], [42.2855239, 56.43625], [42.2791876, 56.4349539], [42.2729954, 56.4352418], [42.2676671, 56.4365378], [42.260911, 56.4402964], [42.2536575, 56.4403148], [42.2434514, 56.4435733], [42.23517, 56.4423313], [42.2304767, 56.4407999], [42.2184686, 56.4404814], [42.2119331, 56.4438094], [42.2042403, 56.4501808], [42.2058382, 56.4087117], [42.1887358, 56.4083067], [42.1891351, 56.3987696], [42.1376284, 56.3976832], [42.1388928, 56.3785092], [42.1132393, 56.3780118], [42.1146035, 56.3723553], [42.1173319, 56.3685408], [42.0721138, 56.3673799], [42.0758071, 56.3616481], [42.0797, 56.3622563], [42.077504, 56.3592887], [42.0748754, 56.3600445], [42.0718143, 56.357556], [42.0665239, 56.3622932], [42.0612668, 56.3559523], [42.0572954, 56.3566386], [42.052237, 56.3524411], [42.0464022, 56.3523629], [42.0477432, 56.3581766], [42.0451527, 56.3584485], [42.0451527, 56.359675], [42.0469435, 56.3599997], [42.0482133, 56.3615328], [42.0412456, 56.3648693], [42.0377944, 56.3643102], [42.0324221, 56.3657349], [42.0315756, 56.3676285], [42.0358408, 56.3729659], [42.0346687, 56.3746608], [42.0305988, 56.3771669], [42.0314454, 56.3797269], [42.0297197, 56.3801235], [42.0106843, 56.3688374], [42.0020031, 56.3684034], [41.9981066, 56.3670926], [41.9991665, 56.370444], [41.9883424, 56.3728534], [41.9794375, 56.3735747], [41.980577, 56.3711134], [41.9766699, 56.3692291], [41.9707279, 56.3698692], [41.9668697, 56.3638641], [41.9604393, 56.3608972], [41.9638164, 56.3708663], [41.9776408, 56.3759067], [41.9809526, 56.3806589], [41.9806642, 56.3890113], [41.9769198, 56.3924675], [41.9697186, 56.4107562], [41.9648223, 56.4137801], [41.964822, 56.4185324], [41.966838, 56.4224206], [41.9590617, 56.4222765], [41.9560375, 56.4228525], [41.9558934, 56.4242925], [41.9535892, 56.4244365], [41.9635254, 56.4312049], [41.9638133, 56.4332211], [41.9609332, 56.433077], [41.959925, 56.4356691], [41.9535887, 56.436101], [41.942356, 56.4402771], [41.9424997, 56.4454613], [41.9393958, 56.4479005], [41.9386757, 56.4504925], [41.9406917, 56.4532287], [41.9411235, 56.4566849], [41.9438593, 56.4624452], [41.9500516, 56.4620132], [41.9522117, 56.4634533], [41.9514915, 56.4656134], [41.9477472, 56.4683495], [41.947891, 56.4720936], [41.9463069, 56.4733897], [41.9485421, 56.4815856], [41.95497, 56.4818944], [41.9599871, 56.4836143], [41.959843, 56.4854864], [41.9575388, 56.4863504], [41.9533627, 56.4850543], [41.9478904, 56.4850543], [41.9388179, 56.4863501], [41.9326251, 56.4968625], [41.9236965, 56.5011826], [41.915056, 56.5039186], [41.9150559, 56.5055026], [41.9172159, 56.5063667], [41.9272964, 56.5066549], [41.9310404, 56.509535], [41.9308963, 56.5124152], [41.928304, 56.5160153], [41.9238397, 56.5186074], [41.9195194, 56.5199034], [41.9105038, 56.5201191], [41.8927338, 56.5259513], [41.8829413, 56.5281111], [41.8767679, 56.5254578], [41.8727091, 56.5194007], [41.8692164, 56.5168041], [41.858893, 56.5115501], [41.849533, 56.5040616], [41.8336924, 56.4997412], [41.8215959, 56.4981569], [41.7949548, 56.4964285], [41.7578014, 56.4921077], [41.7406077, 56.4921272]]]}, "properties": {"land_id": "IVANOVO_LANDS", "label": "Суздальские и костромские волости: Шуя, Кинешма, Юрьевец, Лух, Плёс", "units": ["Ивановская область: городской округ Кохма (osm r389791)", "Ивановская область: городской округ Шуя (osm r389792)", "Ивановская область: городской округ Вичуга (osm r389793)", "Ивановская область: городской округ Тейково (osm r389794)", "Ивановская область: городской округ Кинешма (osm r389795)", "Ивановская область: Заволжский район (osm r389796)", "Ивановская область: Кинешемский район (osm r389797)", "Ивановская область: Юрьевецкий район (osm r389798)", "Ивановская область: Пучежский район (osm r389799)", "Ивановская область: Пестяковский район (osm r389800)", "Ивановская область: Верхнеландеховский муниципальный округ (osm r389801)", "Ивановская область: Лухский район (osm r389802)", "Ивановская область: Палехский муниципальный округ (osm r389803)", "Ивановская область: Южский район (osm r389804)", "Ивановская область: Савинский район (osm r389805)", "Ивановская область: Шуйский район (osm r389806)", "Ивановская область: Родниковский район (osm r389807)", "Ивановская область: Вичугский муниципальный округ (osm r389808)", "Ивановская область: Приволжский район (osm r389809)", "Ивановская область: Фурмановский район (osm r389810)", "Ивановская область: Ивановский муниципальный округ (osm r389811)", "Ивановская область: Лежневский район (osm r389812)", "Ивановская область: Тейковский район (osm r389813)", "Ивановская область: Комсомольский район (osm r389814)", "Ивановская область: Ильинский район (osm r389815)", "Ивановская область: Гаврилово-Посадский район (osm r389816)", "Ивановская область: городской округ Иваново (osm r543140)", "Нижегородская область: Сокольский муниципальный округ (osm r1159289)"], "source": "OpenStreetMap, отношения admin_level=6 (ODbL), выгрузка Overpass 28.09.2026; где помечено geoBoundaries - gbOpen RUS ADM2 (OSM/Wambacher, 2023); упрощение 0,0005°"}}]}