{"type": "FeatureCollection", "features": [{"type": "Feature", "geometry": {"type": "Polygon", "coordinates": [[[35.9434596, 55.2355633], [35.9439786, 55.2334521], [35.9371622, 55.2336322], [35.9305037, 55.2324186], [35.9289306, 55.2351736], [35.9219501, 55.2397662], [35.9151412, 55.2391722], [35.9078466, 55.2404413], [35.9018904, 55.2405542], [35.9018338, 55.2445191], [35.9005887, 55.2455229], [35.8885982, 55.2478985], [35.8865895, 55.242819], [35.8866238, 55.2380954], [35.8642856, 55.2383288], [35.8637475, 55.2391023], [35.8603866, 55.239271], [35.861134, 55.2371215], [35.8579025, 55.2359934], [35.8509873, 55.2359584], [35.8486092, 55.2324972], [35.8428331, 55.2323148], [35.8144267, 55.2460111], [35.8155827, 55.250342], [35.8173797, 55.2511618], [35.8185619, 55.2530584], [35.8176762, 55.2576027], [35.8212498, 55.258147], [35.8229579, 55.2552595], [35.8267411, 55.254675], [35.8278469, 55.2556746], [35.8293316, 55.2610418], [35.8289113, 55.262209], [35.8244521, 55.2648768], [35.814615, 55.2620904], [35.8083211, 55.2619473], [35.8034223, 55.2630924], [35.8004825, 55.262757], [35.7974279, 55.2643333], [35.7954766, 55.2644735], [35.7934115, 55.2611045], [35.787069, 55.2668762], [35.7779354, 55.2706752], [35.7757946, 55.273357], [35.7705146, 55.273452], [35.7645904, 55.2788685], [35.7669654, 55.2817228], [35.7636568, 55.2856906], [35.7529777, 55.2900596], [35.7485294, 55.2947159], [35.7411561, 55.2955777], [35.7349081, 55.2920146], [35.726497, 55.2868472], [35.721289, 55.2826087], [35.7224166, 55.2794001], [35.718431, 55.2794779], [35.7177659, 55.2838656], [35.7163525, 55.2855733], [35.7114392, 55.2891847], [35.7067615, 55.2909036], [35.6973778, 55.2887879], [35.6979079, 55.2884704], [35.6923347, 55.2870551], [35.6786395, 55.2816081], [35.6640767, 55.2780646], [35.6475906, 55.2831445], [35.644942, 55.2846351], [35.642689, 55.2846868], [35.6429763, 55.2864263], [35.6421597, 55.2876477], [35.6368902, 55.2895168], [35.6327174, 55.2867589], [35.6295128, 55.2877689], [35.6163315, 55.2882532], [35.6160756, 55.292077], [35.6100763, 55.2956693], [35.6068317, 55.2927865], [35.599991, 55.2897039], [35.5730798, 55.2902669], [35.575861, 55.286684], [35.5748567, 55.280911], [35.5606366, 55.2758549], [35.5768354, 55.2690493], [35.5761556, 55.2657885], [35.5764925, 55.2622457], [35.5735542, 55.2617252], [35.5701956, 55.2596711], [35.5647239, 55.2531333], [35.5623649, 55.2526797], [35.5606456, 55.2504208], [35.5565469, 55.2505135], [35.5554678, 55.2525253], [35.5508337, 55.2532866], [35.5482251, 55.2550906], [35.5423204, 55.2556225], [35.5422954, 55.2563663], [35.5350043, 55.2583874], [35.5261616, 55.2576742], [35.5133086, 55.2543553], [35.5038151, 55.2552962], [35.5032188, 55.253088], [35.5009587, 55.2534937], [35.4969598, 55.2500285], [35.500638, 55.2469081], [35.5026889, 55.2465882], [35.5056823, 55.2432455], [35.5094217, 55.2414137], [35.5082323, 55.240189], [35.4975817, 55.2388058], [35.481539, 55.239919], [35.4815489, 55.237455], [35.4608247, 55.2359401], [35.4462712, 55.2290131], [35.4414992, 55.2300783], [35.422191, 55.2317244], [35.4203748, 55.2311252], [35.4184993, 55.2287057], [35.4085326, 55.2375461], [35.4018149, 55.237918], [35.3961473, 55.234589], [35.3823235, 55.2381269], [35.3799048, 55.2409293], [35.3732362, 55.2442606], [35.371399, 55.2436702], [35.3709838, 55.2445245], [35.3694819, 55.2448002], [35.36341, 55.2426461], [35.3597759, 55.2440604], [35.3588887, 55.2448614], [35.3607395, 55.2465406], [35.360092, 55.2477859], [35.3566056, 55.2492616], [35.3584998, 55.2509754], [35.3585, 55.2532192], [35.3591509, 55.2537707], [35.3577936, 55.2547555], [35.3595389, 55.25922], [35.3566145, 55.2607129], [35.3508862, 55.2690624], [35.3471195, 55.2703818], [35.3462355, 55.2720795], [35.3430604, 55.2730587], [35.3342215, 55.271752], [35.3343746, 55.27902], [35.3179265, 55.2831449], [35.318975, 55.286477], [35.3098869, 55.2911575], [35.2939244, 55.2910955], [35.290455, 55.2964109], [35.2993634, 55.304631], [35.2976739, 55.306287], [35.2954035, 55.3107693], [35.2864576, 55.3144881], [35.2796935, 55.3197689], [35.2737859, 55.3223184], [35.2614247, 55.3225536], [35.2616265, 55.3235429], [35.2598412, 55.3260445], [35.2622678, 55.3282267], [35.2586455, 55.3298816], [35.2617524, 55.3309181], [35.2634693, 55.3306771], [35.2656972, 55.3322307], [35.2675322, 55.3318349], [35.2695354, 55.3301274], [35.274107, 55.3310688], [35.2828003, 55.3419032], [35.2831294, 55.3434849], [35.2806169, 55.3439137], [35.2807584, 55.349625], [35.2909614, 55.351858], [35.2895733, 55.3593712], [35.2895512, 55.3677394], [35.2884674, 55.3730839], [35.2892757, 55.3804063], [35.2857447, 55.3821689], [35.2861922, 55.3890081], [35.2935766, 55.3894709], [35.2945779, 55.3915307], [35.3002768, 55.3915624], [35.3055139, 55.3976523], [35.3049653, 55.4046002], [35.3026888, 55.4060313], [35.2977928, 55.4124335], [35.3090341, 55.4172662], [35.3113174, 55.4238908], [35.319917, 55.4265619], [35.3254777, 55.4268793], [35.3296583, 55.4286921], [35.3293734, 55.4296144], [35.3279145, 55.4295352], [35.3259877, 55.430747], [35.319676, 55.4321636], [35.3190851, 55.4316111], [35.3190524, 55.4328669], [35.3137295, 55.4337188], [35.3132429, 55.4342327], [35.3140324, 55.4347541], [35.3127166, 55.4353398], [35.3038736, 55.4350076], [35.3062867, 55.4395581], [35.3095057, 55.4422302], [35.3122836, 55.4460225], [35.3133942, 55.4504663], [35.3093444, 55.4574941], [35.2910364, 55.4631608], [35.2907101, 55.4709021], [35.2890047, 55.4723554], [35.2915922, 55.4729648], [35.2940675, 55.4760754], [35.2950269, 55.4754894], [35.3142561, 55.475294], [35.3154512, 55.4779656], [35.3190309, 55.4780645], [35.319141, 55.4795473], [35.3247616, 55.4802053], [35.3226552, 55.4811755], [35.3203313, 55.4836311], [35.3240827, 55.4867197], [35.3261087, 55.4872064], [35.318356, 55.4922939], [35.3188675, 55.4964364], [35.3240387, 55.4983574], [35.3254352, 55.501841], [35.3231077, 55.5054558], [35.3135699, 55.5146266], [35.3153441, 55.5173952], [35.3258561, 55.5169532], [35.3252921, 55.5191425], [35.3260669, 55.5204525], [35.3259009, 55.5225375], [35.3300041, 55.5249032], [35.3446851, 55.5275857], [35.3399057, 55.5322456], [35.3382285, 55.5350764], [35.3391622, 55.5373912], [35.3388021, 55.538373], [35.317566, 55.5424613], [35.3148246, 55.544234], [35.3094365, 55.5443951], [35.3066302, 55.5465234], [35.31052, 55.5469957], [35.3098401, 55.5481672], [35.312295, 55.5485327], [35.3150192, 55.5505755], [35.3143266, 55.5518028], [35.303805, 55.549027], [35.2981469, 55.5507207], [35.2943085, 55.555006], [35.2956272, 55.558792], [35.2953228, 55.5673958], [35.2971443, 55.5720656], [35.3000629, 55.5725356], [35.296951, 55.5756835], [35.3000589, 55.5814279], [35.3010622, 55.5817885], [35.3022329, 55.580595], [35.3034006, 55.580839], [35.3038616, 55.5819928], [35.3081896, 55.5804841], [35.3102971, 55.581802], [35.3285611, 55.5814139], [35.3413642, 55.5822278], [35.3485767, 55.572621], [35.3721381, 55.575828], [35.3693739, 55.5829183], [35.3646213, 55.5878664], [35.3868566, 55.5946437], [35.3950027, 55.5940825], [35.3932926, 55.596941], [35.38877, 55.5988579], [35.3895254, 55.60444], [35.3911279, 55.6058903], [35.3901589, 55.6111495], [35.3870697, 55.6175426], [35.3858239, 55.6229782], [35.3828011, 55.6265621], [35.3826398, 55.63067], [35.3784786, 55.631262], [35.3605309, 55.6378587], [35.3542896, 55.6355454], [35.3520819, 55.6375187], [35.3553403, 55.6392117], [35.3542168, 55.6421525], [35.3567001, 55.6413835], [35.3572674, 55.6428017], [35.3599277, 55.6442499], [35.3595412, 55.6452435], [35.3511319, 55.6430166], [35.3478117, 55.6557811], [35.3459667, 55.6562424], [35.3465558, 55.6579433], [35.3426592, 55.6582151], [35.3429862, 55.6597442], [35.3370767, 55.665767], [35.3268774, 55.6652219], [35.3232503, 55.6659814], [35.3271099, 55.6726629], [35.3355544, 55.6835805], [35.3316067, 55.6846723], [35.3316513, 55.687851], [35.3349509, 55.6888016], [35.3383906, 55.6915197], [35.3332162, 55.6918128], [35.3308538, 55.6930003], [35.3297507, 55.697327], [35.3320537, 55.6997861], [35.33759, 55.7005944], [35.3370212, 55.7027704], [35.3274274, 55.7080488], [35.3244636, 55.7056901], [35.3228965, 55.7061202], [35.3222557, 55.7078278], [35.3165005, 55.7081532], [35.3147866, 55.7127667], [35.3129268, 55.7145698], [35.3130312, 55.7174163], [35.3143467, 55.7199313], [35.3169305, 55.7196512], [35.3173746, 55.7210403], [35.316319, 55.7219162], [35.3060406, 55.7218457], [35.3128108, 55.7284302], [35.3105261, 55.7283197], [35.3065809, 55.7296433], [35.3059594, 55.7307094], [35.3049369, 55.7304492], [35.304097, 55.734377], [35.3088494, 55.7383199], [35.3135368, 55.7407949], [35.3161982, 55.7411833], [35.3164323, 55.7449815], [35.3240202, 55.7446012], [35.3267723, 55.7426939], [35.329763, 55.7439666], [35.3324653, 55.743191], [35.3365617, 55.7435844], [35.3425737, 55.7415193], [35.3447524, 55.7437299], [35.343622, 55.7442761], [35.3429003, 55.7515163], [35.3384508, 55.7520851], [35.3383708, 55.7535163], [35.3345863, 55.7537048], [35.3332008, 55.7577503], [35.3270644, 55.7583363], [35.3304902, 55.7640087], [35.3297685, 55.7652941], [35.3387111, 55.7694144], [35.3360006, 55.7721618], [35.3317834, 55.773311], [35.335618, 55.7766237], [35.3345547, 55.7784908], [35.3325119, 55.7778352], [35.3281242, 55.7848928], [35.3322134, 55.7873387], [35.3300364, 55.7879327], [35.3306465, 55.7899082], [35.3300692, 55.7906942], [35.3308812, 55.7908761], [35.3310746, 55.7921633], [35.3295031, 55.7925434], [35.3292031, 55.7932399], [35.3301221, 55.7939413], [35.3281744, 55.7948929], [35.3242794, 55.7937915], [35.323622, 55.7945914], [35.3194226, 55.7937521], [35.3192863, 55.7949115], [35.3171623, 55.7959683], [35.3170566, 55.7967184], [35.3145401, 55.7965954], [35.3137681, 55.7974806], [35.3074897, 55.7958972], [35.3078193, 55.7966211], [35.3061952, 55.796563], [35.3029334, 55.7997813], [35.2976461, 55.7979416], [35.2946146, 55.799122], [35.2892775, 55.7982327], [35.2864623, 55.7985342], [35.2831689, 55.7998299], [35.2814683, 55.8090731], [35.28298, 55.8125986], [35.2865159, 55.8139831], [35.2883075, 55.8158409], [35.2876732, 55.8164189], [35.2881876, 55.817104], [35.2873996, 55.8173047], [35.2878286, 55.8178979], [35.28598, 55.8179017], [35.2844016, 55.8194788], [35.2852696, 55.8208239], [35.2843666, 55.8213088], [35.2845987, 55.8224592], [35.280328, 55.8249418], [35.28063, 55.8267251], [35.2792166, 55.8274358], [35.2740389, 55.8261761], [35.2692718, 55.8273263], [35.2681335, 55.8306198], [35.2694183, 55.8329646], [35.2699489, 55.8367457], [35.2675722, 55.8387161], [35.2630625, 55.8397377], [35.2622458, 55.840378], [35.2624758, 55.841143], [35.2596456, 55.8422384], [35.2588847, 55.8433458], [35.2555656, 55.8440384], [35.2543904, 55.8451903], [35.2519919, 55.8450477], [35.2500778, 55.847059], [35.2469354, 55.8519057], [35.2495066, 55.8555098], [35.2495471, 55.8600748], [35.2472133, 55.8621832], [35.2398662, 55.8652321], [35.2379202, 55.8672984], [35.2345224, 55.86836], [35.2356561, 55.8713323], [35.2311281, 55.8728787], [35.2289812, 55.8769043], [35.2234361, 55.8802176], [35.22436, 55.883492], [35.2305795, 55.8869161], [35.2274569, 55.8926045], [35.2182383, 55.8969063], [35.2086372, 55.8941466], [35.2088786, 55.8954623], [35.2109025, 55.8967351], [35.2099649, 55.8978814], [35.2121004, 55.89917], [35.2128951, 55.901035], [35.2271854, 55.9077402], [35.2269271, 55.9088826], [35.2206735, 55.9080273], [35.2170061, 55.9066102], [35.2130267, 55.9033521], [35.2042015, 55.8988388], [35.1992791, 55.8891257], [35.189813, 55.9071534], [35.1947868, 55.9088561], [35.2044284, 55.9148296], [35.2044862, 55.9194568], [35.2014051, 55.9216575], [35.1985106, 55.9211498], [35.1968209, 55.9243612], [35.1880928, 55.9286932], [35.1875058, 55.9316501], [35.1855306, 55.9329605], [35.1739069, 55.937766], [35.1583496, 55.9463564], [35.158618, 55.948456], [35.1575084, 55.9502733], [35.1542599, 55.9538013], [35.1484955, 55.9575013], [35.1508931, 55.9593684], [35.1491349, 55.9713509], [35.1538709, 55.977983], [35.1630167, 55.9783426], [35.1674577, 55.9800482], [35.1691896, 55.979863], [35.1704517, 55.9816543], [35.1738409, 55.9834971], [35.1748837, 55.9857265], [35.1721507, 55.9884193], [35.1734889, 55.9907474], [35.1730295, 55.9911646], [35.1736851, 55.9912508], [35.1732158, 55.9920142], [35.1770453, 55.9941104], [35.1761554, 55.9961887], [35.1786375, 55.9973768], [35.1787787, 55.9985981], [35.1824444, 56.0001199], [35.1818619, 56.0007676], [35.1843918, 56.0020217], [35.1836786, 56.0024486], [35.1887423, 56.0042342], [35.1885667, 56.0048366], [35.1903208, 56.0062344], [35.1894189, 56.0063291], [35.1947078, 56.0093413], [35.195019, 56.0107825], [35.1968215, 56.0120788], [35.2006985, 56.0116157], [35.2048334, 56.0136439], [35.206543, 56.0127549], [35.2092125, 56.012745], [35.2097282, 56.0116262], [35.2119598, 56.0116864], [35.2122312, 56.0109542], [35.2163371, 56.0108074], [35.2223625, 56.0139727], [35.2226037, 56.0158616], [35.2218949, 56.0163718], [35.2256354, 56.0165594], [35.2250399, 56.0170244], [35.2256283, 56.017634], [35.2248439, 56.0178457], [35.2262604, 56.0180363], [35.2265085, 56.0188981], [35.2246933, 56.0192637], [35.2250516, 56.0205524], [35.22376, 56.0206563], [35.2246576, 56.0214365], [35.224125, 56.021957], [35.2253544, 56.021675], [35.2270482, 56.0231482], [35.2309562, 56.0242625], [35.2314892, 56.0263595], [35.2358468, 56.0283911], [35.2355747, 56.0295678], [35.2373401, 56.0298993], [35.2368044, 56.0303427], [35.2392415, 56.0299031], [35.239784, 56.0306015], [35.2389347, 56.0332409], [35.2360951, 56.0342624], [35.2378663, 56.0348151], [35.2354788, 56.0357328], [35.235337, 56.0369257], [35.2340926, 56.0372945], [35.2346218, 56.0383979], [35.2335915, 56.0400334], [35.2322613, 56.0405462], [35.2325815, 56.0417637], [35.2314049, 56.0428073], [35.2384453, 56.0452773], [35.2387901, 56.046528], [35.2439937, 56.0466883], [35.2451495, 56.0458411], [35.2483687, 56.0457485], [35.2501484, 56.0432748], [35.2528802, 56.0420275], [35.2557765, 56.0421791], [35.2572277, 56.0414588], [35.2598068, 56.0421687], [35.2590322, 56.043072], [35.2605251, 56.0430668], [35.2616231, 56.0417413], [35.2639444, 56.0418601], [35.2638039, 56.0405087], [35.2649905, 56.0403488], [35.2653902, 56.0389371], [35.2667585, 56.039058], [35.287845, 56.0625881], [35.3047358, 56.0583108], [35.308157, 56.0622485], [35.3143687, 56.0638605], [35.314524, 56.0653436], [35.3199727, 56.0699874], [35.3200643, 56.0726198], [35.3223609, 56.0749136], [35.3234065, 56.0774323], [35.3219305, 56.0800673], [35.3208093, 56.0805518], [35.3215904, 56.0809602], [35.3213518, 56.0816602], [35.3201159, 56.0814773], [35.3200688, 56.0821692], [35.317324, 56.0835908], [35.3380258, 56.0926377], [35.3389916, 56.0942144], [35.3339764, 56.0974494], [35.3215194, 56.0992753], [35.3203915, 56.1028151], [35.3089808, 56.1066348], [35.3015838, 56.1045773], [35.2872795, 56.1033886], [35.2834149, 56.1115943], [35.2864772, 56.1126418], [35.2890218, 56.1149998], [35.2840317, 56.12065], [35.2845501, 56.1249956], [35.3089851, 56.1304535], [35.3086016, 56.1381649], [35.2919089, 56.1404339], [35.2945957, 56.1452611], [35.3049316, 56.1544679], [35.3141384, 56.1565577], [35.3205171, 56.1535193], [35.3360222, 56.1588536], [35.3413651, 56.1598093], [35.3349586, 56.1630795], [35.3461677, 56.1694375], [35.3516674, 56.1710068], [35.3556939, 56.1752725], [35.3631294, 56.1788714], [35.3541452, 56.1801503], [35.348939, 56.1839573], [35.3500827, 56.1866926], [35.356299, 56.1923986], [35.3638601, 56.1969745], [35.3587844, 56.1964974], [35.3558757, 56.1969452], [35.3518566, 56.1990739], [35.3505275, 56.1985826], [35.3382695, 56.199408], [35.3367403, 56.2007157], [35.3331314, 56.2018303], [35.3333552, 56.2086181], [35.3246852, 56.2076802], [35.320227, 56.2092479], [35.3198745, 56.2184138], [35.3180591, 56.219725], [35.3216152, 56.2221752], [35.3185144, 56.2240186], [35.3157909, 56.2279909], [35.3182028, 56.2294652], [35.3243226, 56.2305419], [35.3304331, 56.2331115], [35.3387644, 56.2339433], [35.3471043, 56.2333859], [35.3534831, 56.2346477], [35.354074, 56.2356604], [35.3565643, 56.2366137], [35.3629376, 56.2374402], [35.3713159, 56.2355], [35.3793268, 56.2372733], [35.3831756, 56.2365268], [35.3855757, 56.2350078], [35.391113, 56.2347193], [35.3938001, 56.2361948], [35.3982003, 56.2432666], [35.4067694, 56.2442577], [35.4125099, 56.2404217], [35.4169295, 56.2242357], [35.439889, 56.2104774], [35.4525054, 56.1996837], [35.4580346, 56.2001165], [35.4601268, 56.2008133], [35.4599141, 56.2013376], [35.4619756, 56.2015149], [35.4611907, 56.2017574], [35.4624722, 56.2018617], [35.4625196, 56.2031963], [35.4686001, 56.2037708], [35.4717378, 56.2052374], [35.468419, 56.2082585], [35.4916168, 56.2126339], [35.4945814, 56.2099506], [35.510616, 56.2029612], [35.5146532, 56.2027477], [35.5178137, 56.2009687], [35.5174712, 56.1968379], [35.5161682, 56.1945439], [35.5067651, 56.1896533], [35.4993436, 56.1876045], [35.4990959, 56.1846006], [35.4997078, 56.1836246], [35.5021287, 56.1829645], [35.5046224, 56.1836695], [35.5083354, 56.1821887], [35.5079356, 56.181498], [35.5106343, 56.1827122], [35.5147877, 56.1800611], [35.5204049, 56.1806442], [35.5202305, 56.1799343], [35.5224171, 56.1801626], [35.5231406, 56.1794307], [35.5249585, 56.1795087], [35.5251151, 56.1788562], [35.5256417, 56.1793436], [35.5250811, 56.1807455], [35.5273068, 56.180298], [35.5285967, 56.1813836], [35.5311754, 56.181354], [35.5327311, 56.1833736], [35.5358034, 56.1838435], [35.5356493, 56.1726892], [35.5504189, 56.1724145], [35.5489962, 56.1683453], [35.545203, 56.1682654], [35.5422272, 56.1655742], [35.5275605, 56.1679499], [35.5293134, 56.1641951], [35.5346851, 56.1583365], [35.5366631, 56.1525822], [35.538195, 56.1521516], [35.5408382, 56.1534577], [35.5449802, 56.1525188], [35.5467692, 56.1537077], [35.5493828, 56.1533296], [35.550853, 56.155508], [35.5585626, 56.1556161], [35.56098, 56.1559986], [35.5611072, 56.1567839], [35.5639988, 56.1563378], [35.5639031, 56.1551827], [35.570889, 56.1545823], [35.5939494, 56.1553432], [35.5955445, 56.1478495], [35.5976951, 56.146817], [35.6037351, 56.1485204], [35.6094586, 56.1483355], [35.6084748, 56.1418033], [35.6144891, 56.1386924], [35.6169179, 56.1363619], [35.6195095, 56.1363518], [35.6186837, 56.1327736], [35.6322207, 56.1301095], [35.6335166, 56.1379715], [35.6518974, 56.140886], [35.6566017, 56.1449882], [35.6582449, 56.1451292], [35.6645887, 56.1422432], [35.6734845, 56.1366316], [35.6766735, 56.1380747], [35.6819923, 56.1360457], [35.6807155, 56.1342198], [35.6816569, 56.1303108], [35.6788686, 56.1270569], [35.6808403, 56.1235832], [35.6791274, 56.1212633], [35.6845785, 56.1206331], [35.6891942, 56.1217653], [35.700155, 56.1167929], [35.7132787, 56.1194013], [35.7146693, 56.1216941], [35.7141933, 56.1226155], [35.7157063, 56.1232913], [35.7135937, 56.1249242], [35.7146611, 56.1254439], [35.7135259, 56.1256744], [35.7138809, 56.1263623], [35.7124168, 56.1269248], [35.7132275, 56.1271371], [35.7137571, 56.128969], [35.7156767, 56.1289728], [35.7161844, 56.130238], [35.7152326, 56.1303036], [35.7167741, 56.1305985], [35.7135956, 56.1314688], [35.7159538, 56.1336941], [35.7154727, 56.1345722], [35.7175266, 56.1360838], [35.7161267, 56.1366875], [35.7113518, 56.1359413], [35.7091343, 56.1365197], [35.7097056, 56.1371726], [35.7081017, 56.1370188], [35.7092151, 56.1376549], [35.7062947, 56.1367835], [35.7037052, 56.1369886], [35.7046905, 56.1401278], [35.7072927, 56.1422561], [35.7111822, 56.1503315], [35.7111476, 56.1522327], [35.7072989, 56.1620897], [35.7098401, 56.1640667], [35.7145875, 56.1647587], [35.7171561, 56.1659765], [35.7275115, 56.1670808], [35.728557, 56.1677268], [35.7291303, 56.1699883], [35.7353922, 56.1744171], [35.7374703, 56.1728982], [35.7473734, 56.1744022], [35.749586, 56.1734159], [35.7569037, 56.1789809], [35.7716689, 56.177164], [35.7793235, 56.1749704], [35.7849851, 56.1777172], [35.7910906, 56.1772937], [35.795723, 56.1751123], [35.7988206, 56.1775935], [35.7997797, 56.1822061], [35.8073099, 56.1830062], [35.8098434, 56.1800685], [35.8150982, 56.1809347], [35.8228487, 56.1841354], [35.8217601, 56.1840432], [35.8203477, 56.1854903], [35.8239133, 56.185052], [35.8283788, 56.18587], [35.8283605, 56.1904155], [35.8290691, 56.1917003], [35.8361269, 56.1910493], [35.8429644, 56.1914828], [35.8594373, 56.1897461], [35.8636947, 56.1899002], [35.864746, 56.1911456], [35.8690955, 56.1911984], [35.8760883, 56.1930573], [35.8787509, 56.1924789], [35.8815935, 56.1951752], [35.8736682, 56.1971359], [35.874843, 56.198632], [35.8833495, 56.201187], [35.894503, 56.1964858], [35.893909, 56.195816], [35.8953775, 56.195874], [35.9176663, 56.1864875], [35.9182412, 56.1856702], [35.9250882, 56.1854128], [35.9283093, 56.1863888], [35.9406543, 56.1876837], [35.9450382, 56.1982135], [35.9487369, 56.1987814], [35.9497791, 56.2016413], [35.9690918, 56.2010909], [35.9692352, 56.2023965], [35.971088, 56.2037819], [35.9753953, 56.2047581], [35.9735229, 56.2053238], [35.9742246, 56.205588], [35.9728399, 56.2079312], [35.9805955, 56.2105236], [35.9801862, 56.2128561], [36.0132924, 56.2105839], [36.0135861, 56.2087895], [36.0259352, 56.2118387], [36.0314584, 56.2120961], [36.0319954, 56.2148633], [36.0352807, 56.2163406], [36.0335576, 56.2194091], [36.0305561, 56.2202134], [36.0256053, 56.2253872], [36.0266529, 56.2259238], [36.0247713, 56.2275301], [36.0261181, 56.2315933], [36.0197732, 56.2342399], [36.0217957, 56.2455581], [36.0346004, 56.2503095], [36.0383583, 56.2533718], [36.0489764, 56.2563287], [36.0496405, 56.2544873], [36.0507318, 56.2545201], [36.0513753, 56.2535768], [36.0532246, 56.2538143], [36.0531218, 56.2528008], [36.0560814, 56.2531244], [36.0624879, 56.2519122], [36.0642022, 56.2523777], [36.0655642, 56.2516253], [36.0746287, 56.2532262], [36.0901786, 56.2503311], [36.0891196, 56.3047858], [36.1042173, 56.3053406], [36.1042028, 56.3149164], [36.1242887, 56.3154785], [36.1397624, 56.3063201], [36.1419714, 56.3058443], [36.1428902, 56.3046649], [36.1511451, 56.3023875], [36.1539458, 56.3023322], [36.1561878, 56.2998689], [36.1526624, 56.2975409], [36.1544429, 56.2880734], [36.1561415, 56.2870669], [36.1555333, 56.2845881], [36.1570217, 56.283805], [36.1794793, 56.2864903], [36.2006226, 56.2866977], [36.1969945, 56.284387], [36.1931288, 56.2835317], [36.1868466, 56.2796101], [36.1836769, 56.2757319], [36.1875873, 56.2687887], [36.1862093, 56.2622058], [36.185402, 56.2613878], [36.1857173, 56.2605299], [36.202895, 56.2588162], [36.2128989, 56.2441199], [36.2098234, 56.2409311], [36.2059605, 56.243015], [36.1984758, 56.2445278], [36.1919797, 56.2434824], [36.1897593, 56.2374979], [36.1853206, 56.2396544], [36.1787379, 56.2384271], [36.181242, 56.2331937], [36.204365, 56.220163], [36.1985907, 56.2170158], [36.2016559, 56.2154286], [36.2054889, 56.2153426], [36.2062133, 56.2108942], [36.2100641, 56.20828], [36.210419, 56.2066622], [36.2115134, 56.2057902], [36.2241641, 56.2044959], [36.2301887, 56.2060247], [36.239306, 56.205591], [36.2539036, 56.2084467], [36.2591077, 56.2078312], [36.2634701, 56.2059634], [36.2670102, 56.2085607], [36.2729595, 56.205823], [36.2670755, 56.2011264], [36.267907, 56.1958032], [36.2668103, 56.194117], [36.263544, 56.1920572], [36.2643216, 56.1909146], [36.2631284, 56.1901136], [36.2634336, 56.1872199], [36.2613161, 56.1856966], [36.2617423, 56.1848413], [36.2656416, 56.1846805], [36.2749868, 56.1810072], [36.2806694, 56.182145], [36.2897876, 56.1807711], [36.3046815, 56.1864392], [36.3053718, 56.1828304], [36.3000482, 56.179431], [36.3027891, 56.1781546], [36.3037169, 56.176552], [36.3078739, 56.1735214], [36.3116854, 56.1716982], [36.3110814, 56.1690209], [36.3127361, 56.1677301], [36.3192859, 56.1679591], [36.3265654, 56.165171], [36.3317109, 56.1662236], [36.3356396, 56.1647761], [36.3407156, 56.1661379], [36.3400694, 56.1680279], [36.3500148, 56.1686942], [36.3491927, 56.1649527], [36.3388718, 56.1641307], [36.3360298, 56.1603415], [36.3398578, 56.1591415], [36.3429126, 56.1600846], [36.3477763, 56.1588938], [36.350466, 56.159203], [36.3487735, 56.1553432], [36.3496666, 56.1473493], [36.345648, 56.1456051], [36.3333213, 56.1471128], [36.3336823, 56.1435447], [36.3445913, 56.1295342], [36.341727, 56.1268685], [36.3347105, 56.1232695], [36.3315393, 56.1203053], [36.3280334, 56.1188489], [36.328496, 56.1168273], [36.3334578, 56.1143704], [36.3362204, 56.1120317], [36.3367047, 56.1086119], [36.332534, 56.104597], [36.3357185, 56.0982902], [36.3344132, 56.095311], [36.3342058, 56.0905388], [36.3393807, 56.0879407], [36.3408915, 56.086398], [36.3408138, 56.0843158], [36.3394376, 56.0818774], [36.3309986, 56.0785361], [36.3317155, 56.0736367], [36.3394767, 56.0659615], [36.3360115, 56.0623468], [36.3321133, 56.059915], [36.324387, 56.0578997], [36.3140509, 56.0569739], [36.3117081, 56.0611242], [36.3028855, 56.0605503], [36.2998655, 56.0642981], [36.2956179, 56.0667888], [36.2928516, 56.0699299], [36.2923387, 56.0712377], [36.2933541, 56.0727993], [36.2931086, 56.0743405], [36.2841816, 56.0748708], [36.279733, 56.074181], [36.2782897, 56.0724442], [36.2711624, 56.0688725], [36.2618834, 56.0670538], [36.259638, 56.0676965], [36.2570757, 56.0670901], [36.2553012, 56.0679275], [36.2545938, 56.0669314], [36.2512187, 56.06654], [36.2511345, 56.0644768], [36.2646734, 56.0627642], [36.2629276, 56.0615041], [36.2628631, 56.0599117], [36.2612165, 56.0580438], [36.2579261, 56.0568108], [36.2601636, 56.0546946], [36.2589411, 56.0526481], [36.2604255, 56.0514406], [36.2606857, 56.0499614], [36.2635856, 56.0500094], [36.2649438, 56.049036], [36.2644533, 56.0475954], [36.2650216, 56.046868], [36.2642297, 56.0465931], [36.2649474, 56.0461283], [36.2637041, 56.0434138], [36.2676259, 56.0386341], [36.2664958, 56.0374469], [36.2664382, 56.0359665], [36.2681278, 56.0304407], [36.2739666, 56.025285], [36.2843072, 56.0221883], [36.2910178, 56.018021], [36.2898954, 56.0147239], [36.2880862, 56.0136145], [36.2898683, 56.0085234], [36.2924443, 56.0074896], [36.2992453, 56.0085332], [36.3015458, 56.0072008], [36.3036771, 56.004553], [36.3054951, 56.0000454], [36.2987893, 55.9980045], [36.3032018, 55.9965206], [36.3063971, 55.9933335], [36.3054134, 55.9916525], [36.3103401, 55.990729], [36.3112895, 55.9886016], [36.3139279, 55.9870555], [36.3122564, 55.9856909], [36.2932834, 55.986979], [36.2331756, 55.9936733], [36.2315013, 55.9927197], [36.2283613, 55.9927183], [36.2273748, 55.9912145], [36.2220684, 55.9876063], [36.2156851, 55.9791899], [36.2154112, 55.9773631], [36.2191921, 55.9718186], [36.2224671, 55.9688266], [36.2314182, 55.9652936], [36.2346298, 55.9609548], [36.2380979, 55.9599809], [36.2323831, 55.9560059], [36.2338826, 55.9558257], [36.2339402, 55.9542523], [36.2306989, 55.9540146], [36.2329281, 55.949437], [36.2313454, 55.9466151], [36.2339702, 55.9442316], [36.2299809, 55.9437959], [36.2241067, 55.9417769], [36.2200523, 55.9416224], [36.2205754, 55.9401956], [36.2135836, 55.9387156], [36.2019911, 55.939633], [36.1964071, 55.9385449], [36.1893813, 55.9328142], [36.1843308, 55.9329366], [36.1765716, 55.9280261], [36.1858611, 55.9241682], [36.1885576, 55.9206783], [36.1902827, 55.9202979], [36.1900029, 55.9190919], [36.1918307, 55.9177035], [36.1902161, 55.9166404], [36.192116, 55.9151819], [36.1946065, 55.9091697], [36.1944819, 55.907907], [36.1873109, 55.9033326], [36.1803977, 55.9012561], [36.1742909, 55.9012257], [36.1652109, 55.8972804], [36.1626705, 55.8951153], [36.1658203, 55.8935933], [36.1678823, 55.8937582], [36.1736453, 55.8916971], [36.1803233, 55.8974226], [36.1856892, 55.8964262], [36.1892627, 55.893275], [36.1911616, 55.8941626], [36.1951024, 55.8940917], [36.201293, 55.8967111], [36.1995905, 55.8921504], [36.1981003, 55.890912], [36.2021893, 55.8901484], [36.1971633, 55.8817679], [36.1884769, 55.8788334], [36.178011, 55.8734115], [36.1785349, 55.872695], [36.168872, 55.8692418], [36.1643546, 55.8691509], [36.1577191, 55.8669696], [36.1551921, 55.8642311], [36.148258, 55.8639893], [36.1474878, 55.8627846], [36.1432943, 55.8608716], [36.1392063, 55.8613986], [36.1362031, 55.8576201], [36.1359367, 55.8552861], [36.1325322, 55.8546094], [36.1313849, 55.8524303], [36.1287648, 55.8501019], [36.1319982, 55.8470116], [36.1393762, 55.8472595], [36.141217, 55.8467967], [36.1420933, 55.8449636], [36.1428367, 55.8420743], [36.136667, 55.8398236], [36.1384986, 55.8348078], [36.1367696, 55.8328992], [36.1330248, 55.8353312], [36.1306709, 55.8343217], [36.1302232, 55.8326083], [36.1268472, 55.8337685], [36.1245862, 55.8368809], [36.124554, 55.8399614], [36.1268063, 55.8423298], [36.1250651, 55.8440206], [36.1216156, 55.8444385], [36.1204972, 55.8422789], [36.1110633, 55.8430036], [36.1103607, 55.8438124], [36.1109084, 55.8450981], [36.110115, 55.8471762], [36.1152726, 55.8483686], [36.120977, 55.8515168], [36.1192163, 55.8543509], [36.1193943, 55.8572604], [36.1148587, 55.8618937], [36.1068607, 55.864044], [36.101931, 55.8642957], [36.1008169, 55.8614513], [36.0979303, 55.859831], [36.0982159, 55.8580003], [36.1002697, 55.8565857], [36.095112, 55.8536901], [36.0960207, 55.8513453], [36.0987792, 55.8505634], [36.1009178, 55.8454833], [36.0906427, 55.8448099], [36.0854134, 55.8461112], [36.0828655, 55.8453475], [36.0810531, 55.844149], [36.0806116, 55.8418953], [36.0815067, 55.8379856], [36.0764736, 55.8389247], [36.0719924, 55.8326525], [36.0635762, 55.8291088], [36.0491987, 55.8315806], [36.0449144, 55.8255621], [36.0412514, 55.8231094], [36.0372859, 55.8254628], [36.0293084, 55.8332408], [36.0221589, 55.8304233], [36.0198241, 55.8307193], [36.0207641, 55.8320704], [36.0195816, 55.8329338], [36.0178305, 55.8323513], [36.0140559, 55.8344988], [36.0112493, 55.8329318], [36.0085563, 55.8339061], [36.0047611, 55.830647], [36.0068771, 55.8293595], [36.0063927, 55.8286158], [36.0015885, 55.8267562], [35.9961143, 55.8285725], [35.9958666, 55.8274564], [35.9871794, 55.8251219], [35.9914028, 55.8228626], [35.9836505, 55.8173005], [35.9822171, 55.8105058], [35.9688246, 55.8104589], [35.9648554, 55.8088094], [35.9679017, 55.8056086], [35.9620533, 55.8040997], [35.9584462, 55.8046392], [35.9569076, 55.8041341], [35.9552558, 55.8052263], [35.9525367, 55.8046095], [35.9526741, 55.8036933], [35.949279, 55.8023722], [35.9446422, 55.8035086], [35.9380619, 55.8034831], [35.9205118, 55.8005084], [35.9157124, 55.7976309], [35.9139154, 55.7982198], [35.9126696, 55.796478], [35.9077427, 55.7944621], [35.9084814, 55.7928944], [35.9075774, 55.7906886], [35.9125576, 55.789709], [35.9133283, 55.7884689], [35.9068834, 55.7847099], [35.909498, 55.7833054], [35.9068335, 55.7834504], [35.9058649, 55.7826047], [35.9073693, 55.781824], [35.9060789, 55.7809484], [35.9047222, 55.7816191], [35.8973193, 55.7767259], [35.8983882, 55.7744091], [35.8959607, 55.7725368], [35.8996154, 55.7689941], [35.8985309, 55.7664517], [35.8942359, 55.764574], [35.8922516, 55.7618478], [35.8927671, 55.7607042], [35.8919932, 55.7584315], [35.8863931, 55.7586977], [35.8860796, 55.7600035], [35.8841624, 55.7604845], [35.882276, 55.7625107], [35.8803349, 55.7632048], [35.8745521, 55.7631034], [35.8740106, 55.764769], [35.8702393, 55.7655636], [35.8704064, 55.7671586], [35.8723755, 55.7681244], [35.8712836, 55.769067], [35.8699327, 55.769501], [35.8682778, 55.7677606], [35.8627099, 55.7697836], [35.8628571, 55.7713949], [35.8683451, 55.7710689], [35.8694577, 55.7721743], [35.8693419, 55.7748938], [35.8647839, 55.7779485], [35.8608523, 55.7786048], [35.8588808, 55.7809115], [35.853635, 55.7813863], [35.8536826, 55.784672], [35.8551865, 55.7844789], [35.8558823, 55.7854029], [35.851334, 55.7862197], [35.8487803, 55.7863921], [35.8472364, 55.7809874], [35.8185449, 55.7755616], [35.8069478, 55.7710587], [35.8094206, 55.7688927], [35.8093545, 55.7681432], [35.8147935, 55.7639642], [35.8226931, 55.7603168], [35.860406, 55.759924], [35.8582596, 55.7568688], [35.8609116, 55.7535212], [35.8624084, 55.7523406], [35.8641689, 55.7521836], [35.8633427, 55.7444299], [35.8517694, 55.7437206], [35.8480169, 55.7427459], [35.8432401, 55.7394083], [35.8462876, 55.7367946], [35.8503384, 55.7353039], [35.8529663, 55.7328626], [35.8559675, 55.7330661], [35.8584309, 55.7315595], [35.8596683, 55.7304631], [35.8590814, 55.7295495], [35.8596565, 55.7269222], [35.8652427, 55.7254291], [35.8651892, 55.7237691], [35.8695821, 55.722205], [35.8751743, 55.7238617], [35.8783798, 55.7224501], [35.8781599, 55.7204111], [35.876731, 55.7191493], [35.877621, 55.718177], [35.8746024, 55.7171957], [35.8701122, 55.7139713], [35.8664012, 55.7123704], [35.8673659, 55.7087126], [35.8641806, 55.7054837], [35.8680997, 55.7060719], [35.8943735, 55.7036647], [35.8978827, 55.7022311], [35.9007412, 55.6994963], [35.90116, 55.6980858], [35.9001264, 55.6977983], [35.9024135, 55.6954043], [35.9026609, 55.6931562], [35.9042412, 55.6911189], [35.9054222, 55.6909309], [35.9051458, 55.6899521], [35.9075406, 55.6886454], [35.915681, 55.6894175], [35.919032, 55.690574], [35.9206101, 55.6899989], [35.9234793, 55.6920492], [35.9230824, 55.6933832], [35.920635, 55.6948079], [35.9245343, 55.6970023], [35.9285582, 55.6979691], [35.9302228, 55.7032407], [35.9278359, 55.703795], [35.9280416, 55.7045683], [35.9309312, 55.7075471], [35.9321308, 55.7099685], [35.9363061, 55.7117204], [35.9432531, 55.7120672], [35.9495615, 55.7138802], [35.9526441, 55.7130991], [35.9603955, 55.7143302], [35.97205, 55.7175456], [35.9739376, 55.7154218], [35.9780625, 55.713675], [35.9784778, 55.7143822], [35.9872186, 55.7124509], [35.9832794, 55.7086288], [35.9769684, 55.7002818], [35.9799854, 55.6984262], [35.9811789, 55.700422], [35.9833628, 55.701956], [35.9950804, 55.7019524], [35.9987023, 55.7009201], [36.0077799, 55.7004839], [36.0152348, 55.6931245], [36.020737, 55.6913712], [36.018535, 55.6734026], [36.0209427, 55.6687834], [36.0265001, 55.6683552], [36.0491443, 55.6742797], [36.0510383, 55.674027], [36.0500234, 55.6716211], [36.0505875, 55.6686178], [36.0550848, 55.665272], [36.0555979, 55.6632375], [36.0574663, 55.6630703], [36.053864, 55.6605627], [36.0500142, 55.6592798], [36.0494823, 55.6570357], [36.0472468, 55.6571032], [36.0466159, 55.6559522], [36.0455579, 55.6558046], [36.0466392, 55.6547187], [36.0449604, 55.6525894], [36.0425803, 55.6521561], [36.0426868, 55.6512509], [36.0406008, 55.6505676], [36.077837, 55.6446982], [36.0771996, 55.6432863], [36.0781005, 55.6405014], [36.0764386, 55.6365697], [36.0751475, 55.6362337], [36.0723357, 55.631167], [36.0697948, 55.6296013], [36.0749963, 55.6240239], [36.07737, 55.6227465], [36.084412, 55.6236963], [36.0929347, 55.622703], [36.0977166, 55.6235834], [36.0999848, 55.6220787], [36.0984739, 55.6217798], [36.1003125, 55.6195855], [36.0971643, 55.6191219], [36.0975119, 55.6179339], [36.0967025, 55.6167243], [36.1036401, 55.6111738], [36.1053735, 55.6079305], [36.1070767, 55.6074086], [36.1057914, 55.6044951], [36.1088544, 55.6044509], [36.107208, 55.6006798], [36.1089944, 55.6000565], [36.1031646, 55.5966856], [36.1041108, 55.5957674], [36.0967489, 55.5963519], [36.0927662, 55.5958694], [36.0891269, 55.5946803], [36.0869792, 55.5910142], [36.0901191, 55.5898471], [36.0915623, 55.5905105], [36.0926547, 55.5896759], [36.0945729, 55.5904857], [36.0937461, 55.5910581], [36.0989086, 55.5926327], [36.102857, 55.5895826], [36.1121554, 55.5878396], [36.116952, 55.5883697], [36.1264721, 55.5919466], [36.1282122, 55.5952689], [36.127004, 55.5976845], [36.130991, 55.597821], [36.1360431, 55.5956425], [36.139019, 55.5957617], [36.1417286, 55.5924109], [36.1485298, 55.590623], [36.1501504, 55.5893261], [36.1528276, 55.5895356], [36.1537559, 55.5885019], [36.1558018, 55.5880482], [36.1653871, 55.5803944], [36.1682042, 55.5813949], [36.1699371, 55.5800378], [36.1692431, 55.5775443], [36.1708861, 55.5733543], [36.1718776, 55.5725413], [36.1745933, 55.5723808], [36.1771035, 55.5694526], [36.1783889, 55.5691936], [36.1874921, 55.5805267], [36.1912122, 55.5827843], [36.199345, 55.5825322], [36.21701, 55.5692603], [36.2246593, 55.5645134], [36.2294094, 55.5637999], [36.2306438, 55.5628963], [36.2331606, 55.5583191], [36.2324449, 55.557339], [36.2328047, 55.5562177], [36.245128, 55.5536285], [36.2460041, 55.5488299], [36.2476255, 55.5479657], [36.2485635, 55.5444765], [36.2605265, 55.5440508], [36.2646088, 55.5414698], [36.2638678, 55.5334152], [36.2568402, 55.5289857], [36.2571406, 55.5266104], [36.2583719, 55.5259354], [36.2622119, 55.5286323], [36.2658277, 55.5259156], [36.2635076, 55.5249337], [36.2625966, 55.5229104], [36.2652746, 55.5215285], [36.2629309, 55.5182843], [36.2677703, 55.5147109], [36.2662887, 55.5136057], [36.2686518, 55.5121992], [36.2673606, 55.5106765], [36.2681777, 55.5096039], [36.2652842, 55.5066687], [36.2654962, 55.4997869], [36.258904, 55.4996502], [36.2582101, 55.4992606], [36.2585837, 55.4975962], [36.2566485, 55.4968762], [36.2547199, 55.4979297], [36.2508026, 55.4968574], [36.2512931, 55.4958802], [36.2449723, 55.4955126], [36.2434946, 55.4945977], [36.2421223, 55.5010359], [36.2371271, 55.5016989], [36.228185, 55.5012923], [36.2273983, 55.5005317], [36.2283716, 55.4990091], [36.2271951, 55.4973153], [36.2217114, 55.4941922], [36.217201, 55.4971231], [36.2079286, 55.4954807], [36.210808, 55.4912322], [36.2264832, 55.4832078], [36.2122528, 55.4773506], [36.2150605, 55.4732599], [36.2128781, 55.4718789], [36.1992132, 55.4693205], [36.1878996, 55.4718817], [36.1817694, 55.4583679], [36.1562007, 55.4564133], [36.1565384, 55.4551944], [36.1535732, 55.4520307], [36.1443185, 55.449707], [36.1470693, 55.4454398], [36.1553253, 55.4455724], [36.1582008, 55.442793], [36.1541235, 55.4399518], [36.1538907, 55.4361244], [36.1545636, 55.4344425], [36.1527445, 55.4340046], [36.1533925, 55.4330036], [36.1485265, 55.4324569], [36.1440471, 55.4362719], [36.1401734, 55.4360128], [36.1367461, 55.4336701], [36.140409, 55.4316384], [36.1405419, 55.4291765], [36.142603, 55.4277372], [36.1473455, 55.4289153], [36.1479505, 55.4282563], [36.1503247, 55.428932], [36.1517914, 55.4303114], [36.1537515, 55.430434], [36.1561187, 55.4274392], [36.1639703, 55.4210901], [36.1621146, 55.4204694], [36.1676739, 55.4139946], [36.2216037, 55.4112452], [36.2225979, 55.4119371], [36.2254681, 55.4112237], [36.2266181, 55.4099813], [36.2248506, 55.4079745], [36.2345715, 55.4071669], [36.2372954, 55.4106225], [36.2396873, 55.4114044], [36.2441329, 55.4086182], [36.2417285, 55.4047436], [36.2418512, 55.4031381], [36.2404329, 55.4027282], [36.2428259, 55.3995913], [36.2438711, 55.3997418], [36.2452551, 55.3983727], [36.2457312, 55.3912184], [36.2527857, 55.3930407], [36.2518156, 55.3951922], [36.2533245, 55.3987061], [36.2515492, 55.3988568], [36.2488769, 55.4008183], [36.251307, 55.4021897], [36.2596456, 55.4035007], [36.260956, 55.4023569], [36.2612377, 55.4031169], [36.2631137, 55.3999591], [36.2665315, 55.3980842], [36.2676792, 55.3987113], [36.26961, 55.3971569], [36.2812064, 55.4017697], [36.2823537, 55.4044084], [36.2888579, 55.4062651], [36.2913573, 55.4048554], [36.2990401, 55.4081651], [36.3059851, 55.4100182], [36.3076191, 55.4126008], [36.3191779, 55.4132917], [36.3219094, 55.4059614], [36.3223897, 55.4049829], [36.3237751, 55.4046999], [36.3239876, 55.4034506], [36.3185758, 55.4021311], [36.3209773, 55.3961849], [36.3260533, 55.396447], [36.3262236, 55.3969931], [36.3379696, 55.3969599], [36.3400965, 55.3951332], [36.3373244, 55.3935401], [36.3400629, 55.3900395], [36.3465979, 55.3910374], [36.346649, 55.393769], [36.3481113, 55.3935341], [36.3488978, 55.394484], [36.353409, 55.3953911], [36.3536662, 55.3966318], [36.3558091, 55.3975132], [36.3561095, 55.4000584], [36.3651322, 55.4037333], [36.3707874, 55.3999288], [36.3724757, 55.397157], [36.3750143, 55.396461], [36.3867764, 55.3982042], [36.3866837, 55.40002], [36.3924265, 55.4011077], [36.3950862, 55.403592], [36.4069611, 55.4029611], [36.4131283, 55.3980086], [36.4203351, 55.3991245], [36.4258173, 55.3973862], [36.4357852, 55.4030301], [36.4416627, 55.4089112], [36.438822, 55.4095062], [36.4410454, 55.4108548], [36.4309559, 55.4205672], [36.4354849, 55.4225553], [36.4317911, 55.4257184], [36.4317656, 55.4269], [36.4305602, 55.4280794], [36.4280426, 55.4289843], [36.4284932, 55.4317734], [36.4273096, 55.4325178], [36.4316811, 55.4346533], [36.4318331, 55.432947], [36.4308012, 55.432455], [36.4321592, 55.4304048], [36.4360056, 55.4311161], [36.4434997, 55.4282131], [36.4459327, 55.4285558], [36.4462078, 55.4307291], [36.4478491, 55.4323253], [36.4500362, 55.4321395], [36.4519148, 55.4346704], [36.4543308, 55.4352914], [36.4530982, 55.4374202], [36.4543839, 55.4415428], [36.4557201, 55.4429725], [36.4595292, 55.4428594], [36.4590157, 55.4439062], [36.4656017, 55.4428635], [36.4816316, 55.4440927], [36.4816984, 55.4470221], [36.4807404, 55.4476549], [36.4818087, 55.4483803], [36.4818005, 55.4526321], [36.4779271, 55.4518812], [36.4775843, 55.4494443], [36.4753844, 55.4501219], [36.4695286, 55.449529], [36.4664455, 55.4529132], [36.4665005, 55.4551326], [36.4691304, 55.458991], [36.4716732, 55.4607505], [36.46778, 55.4627214], [36.4635073, 55.4635953], [36.4631338, 55.4655781], [36.461761, 55.4670088], [36.4542311, 55.470028], [36.4551135, 55.4715609], [36.4587419, 55.4728158], [36.4603299, 55.4725934], [36.4634832, 55.4748263], [36.4630976, 55.4755017], [36.4606957, 55.4751963], [36.4619311, 55.4767462], [36.4565948, 55.4770755], [36.4561338, 55.4762347], [36.4532702, 55.4771715], [36.4515269, 55.479295], [36.4540939, 55.4797622], [36.4537757, 55.4813917], [36.4513395, 55.4828624], [36.45342, 55.4830263], [36.4530035, 55.4825184], [36.4540267, 55.4821487], [36.456243, 55.4829706], [36.4551832, 55.4836522], [36.4559388, 55.4843257], [36.4581602, 55.4848505], [36.4615305, 55.4842448], [36.4611783, 55.4889234], [36.4597169, 55.4890036], [36.4607952, 55.4937464], [36.4603804, 55.4972712], [36.461416, 55.4998949], [36.4587563, 55.5014328], [36.5040038, 55.5202892], [36.5199617, 55.5117719], [36.5275103, 55.5094504], [36.5290479, 55.5072367], [36.5328797, 55.504943], [36.5464173, 55.5000567], [36.5586537, 55.4978726], [36.5586792, 55.4946602], [36.5596625, 55.4921733], [36.5587791, 55.4923508], [36.5571876, 55.488901], [36.5551128, 55.4884188], [36.5554836, 55.4866052], [36.5558917, 55.48516], [36.5622126, 55.4816687], [36.5687016, 55.4814771], [36.5762604, 55.4825958], [36.5779914, 55.4857327], [36.5685877, 55.4888276], [36.5733678, 55.4942316], [36.5731967, 55.5070251], [36.5741365, 55.5061092], [36.5794704, 55.5070868], [36.5855352, 55.5104663], [36.5901957, 55.5102986], [36.589786, 55.508772], [36.6060014, 55.5040725], [36.6059449, 55.5054919], [36.6131579, 55.5065273], [36.6145789, 55.5075547], [36.6179982, 55.5071863], [36.6199768, 55.5084657], [36.6255964, 55.5079052], [36.6269041, 55.5073421], [36.6258976, 55.5065702], [36.625869, 55.5048503], [36.6275756, 55.5041977], [36.6219238, 55.500642], [36.627655, 55.4989478], [36.6249874, 55.4958447], [36.6238979, 55.4929823], [36.6300197, 55.49158], [36.6317285, 55.4937965], [36.6319717, 55.4956742], [36.633883, 55.49664], [36.6337008, 55.4973269], [36.6363807, 55.5008576], [36.635222, 55.5019876], [36.6354386, 55.5038989], [36.637619, 55.5038055], [36.6401569, 55.5052078], [36.6455713, 55.5059538], [36.6508944, 55.5050383], [36.6567719, 55.5060044], [36.6647209, 55.5026493], [36.6719744, 55.4967086], [36.6746801, 55.4965695], [36.6839104, 55.4926456], [36.6918824, 55.4915051], [36.6929851, 55.5018945], [36.7024616, 55.5035776], [36.7197559, 55.5031418], [36.7299178, 55.5094881], [36.7341481, 55.505152], [36.739638, 55.5053207], [36.7429968, 55.5077519], [36.7466158, 55.5089532], [36.7494317, 55.5114883], [36.7527848, 55.5128126], [36.7564896, 55.5129174], [36.7593332, 55.5099938], [36.7627451, 55.5092785], [36.7688026, 55.5093837], [36.7776393, 55.514153], [36.7866104, 55.512452], [36.8129852, 55.5285461], [36.8201916, 55.5295646], [36.8203896, 55.5311165], [36.8182093, 55.5347618], [36.8175554, 55.5422799], [36.8221166, 55.5482902], [36.8320707, 55.5520982], [36.8357175, 55.5525257], [36.8512407, 55.5532998], [36.861605, 55.5529568], [36.8643797, 55.5550576], [36.8843238, 55.5546142], [36.8850399, 55.5641948], [36.9012221, 55.563941], [36.8999181, 55.5702562], [36.9997459, 55.5773174], [36.9968763, 55.5668631], [37.0023997, 55.5709512], [37.0089152, 55.5727756], [37.0166581, 55.5736732], [37.0287327, 55.5781358], [37.0255396, 55.5834423], [37.0352827, 55.5840009], [37.0365262, 55.5811245], [37.0448457, 55.5810443], [37.0442218, 55.5805706], [37.0454227, 55.579171], [37.0434045, 55.5786914], [37.0430936, 55.5750812], [37.0388274, 55.5739589], [37.0816181, 55.5734024], [37.0832275, 55.5740466], [37.0829156, 55.575705], [37.0749157, 55.5757252], [37.0749161, 55.5772896], [37.083045, 55.5775656], [37.0831788, 55.5805445], [37.0786424, 55.580562], [37.078579, 55.5826738], [37.0750155, 55.5821035], [37.0750681, 55.5842425], [37.0794003, 55.5851951], [37.0792612, 55.5866914], [37.0812673, 55.5888831], [37.0831526, 55.5887061], [37.0872002, 55.5904847], [37.0964945, 55.5774029], [37.1146925, 55.5655511], [37.1254702, 55.5499634], [37.1151768, 55.5474463], [37.1135595, 55.538946], [37.1225083, 55.5383655], [37.122165, 55.5351445], [37.119922, 55.5314093], [37.1159062, 55.5299985], [37.1174219, 55.5279294], [37.1169508, 55.5268847], [37.1188548, 55.523517], [37.1199489, 55.5191305], [37.1173937, 55.5188677], [37.1175802, 55.5176335], [37.1185107, 55.5176212], [37.1186307, 55.5131369], [37.1363952, 55.5130264], [37.1360858, 55.5157095], [37.1384665, 55.5148805], [37.1361965, 55.5000219], [37.125581, 55.4972324], [37.1239598, 55.4961362], [37.1265898, 55.4952001], [37.1238807, 55.4927453], [37.1250587, 55.492263], [37.1241813, 55.4915532], [37.1286974, 55.4885441], [37.1268983, 55.4874488], [37.1356016, 55.482645], [37.1382807, 55.4826559], [37.1360554, 55.4820958], [37.1391906, 55.4733418], [37.1126288, 55.469838], [37.1126712, 55.4689037], [37.0933611, 55.4704043], [37.0922795, 55.4649172], [37.1500939, 55.4389602], [37.1488482, 55.4381762], [37.1413975, 55.4426533], [37.1358267, 55.4406366], [37.1371055, 55.4396022], [37.1357377, 55.4381618], [37.1339945, 55.443159], [37.1305574, 55.4415681], [37.1244078, 55.4419544], [37.118207, 55.4398839], [37.1195159, 55.439197], [37.1170058, 55.4380571], [37.1113948, 55.4397999], [37.1084991, 55.4395122], [37.1125655, 55.4412924], [37.1079402, 55.4450667], [37.1131066, 55.4482097], [37.1127784, 55.4492266], [37.0998116, 55.4457102], [37.100764, 55.4451234], [37.0970779, 55.4426935], [37.0960453, 55.4432768], [37.0892834, 55.4412316], [37.0872679, 55.4462724], [37.0825219, 55.4454923], [37.0806183, 55.4466848], [37.0814225, 55.4482436], [37.0786002, 55.4500415], [37.0805144, 55.4507438], [37.0803245, 55.4526986], [37.0767899, 55.4535678], [37.0586117, 55.4546905], [37.0606131, 55.4626603], [37.0368186, 55.464061], [37.0355766, 55.4584408], [37.0321283, 55.4559566], [37.0200709, 55.4567858], [37.0192337, 55.4451288], [37.0063088, 55.4461697], [37.0046416, 55.4471541], [37.0034712, 55.4495971], [37.0055731, 55.4505198], [37.002084, 55.4525958], [36.999775, 55.452502], [36.9963253, 55.4564468], [36.9933152, 55.4566522], [36.9940174, 55.4583184], [36.9895955, 55.459224], [36.9892874, 55.4568512], [36.9840096, 55.4577873], [36.9829592, 55.454873], [36.9734462, 55.4554605], [36.9777907, 55.4937419], [36.9350578, 55.4961553], [36.9380657, 55.4990019], [36.9369095, 55.4994809], [36.9352278, 55.505233], [36.9379678, 55.5070078], [36.9371283, 55.5082756], [36.9377862, 55.5094618], [36.9360189, 55.5090215], [36.9419815, 55.5153293], [36.9399755, 55.5165588], [36.9335939, 55.5159321], [36.9356096, 55.5150132], [36.9197539, 55.5154461], [36.9194745, 55.5058449], [36.8445171, 55.5070693], [36.8278753, 55.507513], [36.8279763, 55.5084235], [36.8162398, 55.5083513], [36.8152077, 55.4659722], [36.8045117, 55.465508], [36.8031012, 55.4408329], [36.8113604, 55.436299], [36.8191279, 55.426764], [36.8219237, 55.4292788], [36.8282363, 55.4286426], [36.8260484, 55.4281616], [36.8226024, 55.4248663], [36.8211988, 55.4252289], [36.8245509, 55.4233368], [36.8242945, 55.4226464], [36.8258145, 55.4214344], [36.8420879, 55.4186994], [36.8342961, 55.4139868], [36.8618745, 55.4010347], [36.8482657, 55.3920817], [36.8628646, 55.3848405], [36.8557881, 55.3805025], [36.9040847, 55.3570066], [36.9029439, 55.3556966], [36.9155903, 55.3540829], [36.9151419, 55.3526258], [36.9161441, 55.3525398], [36.9156603, 55.3517006], [36.9162405, 55.3507965], [36.936134, 55.3412569], [36.9368876, 55.3365924], [36.9391706, 55.3366222], [36.9402706, 55.3342711], [36.9422175, 55.3325707], [36.9466292, 55.3306699], [36.94473, 55.3293694], [36.9604066, 55.3219045], [36.9636827, 55.3240984], [36.9864415, 55.3155888], [36.9883868, 55.3083172], [36.9846594, 55.301825], [36.9873663, 55.299957], [36.9838119, 55.296971], [36.9927361, 55.2927428], [36.9933511, 55.2910392], [36.9977408, 55.2915579], [36.9983397, 55.290279], [37.0025673, 55.2890093], [37.0126627, 55.2898928], [37.0216065, 55.2887924], [37.021409, 55.2844293], [37.0259868, 55.2843746], [37.0260365, 55.2830207], [36.9900377, 55.2761388], [36.9867967, 55.2763316], [36.9834123, 55.2681383], [36.9804835, 55.2690665], [36.9750672, 55.2662075], [36.9693269, 55.2672127], [36.9662549, 55.2663311], [36.9619392, 55.2673536], [36.9569738, 55.2654009], [36.9525171, 55.2648355], [36.9571023, 55.2607625], [36.9536543, 55.2590903], [36.9505631, 55.2589776], [36.9490731, 55.2572346], [36.9477649, 55.2497062], [36.9526161, 55.2492727], [36.9514323, 55.2456509], [36.9427793, 55.2474012], [36.9437066, 55.2456669], [36.9428914, 55.2452632], [36.9433328, 55.2447825], [36.9410426, 55.2440012], [36.9417323, 55.2434277], [36.9410473, 55.242942], [36.9392591, 55.2428495], [36.9372604, 55.2416096], [36.9421866, 55.239473], [36.9407403, 55.2375365], [36.9385088, 55.2387841], [36.9366495, 55.2375016], [36.9304717, 55.2391904], [36.9280587, 55.2380622], [36.9261016, 55.2349284], [36.9191043, 55.2358585], [36.9112274, 55.234157], [36.9073919, 55.2324212], [36.9012279, 55.2332818], [36.8996459, 55.2365839], [36.8853032, 55.2293279], [36.8834731, 55.2300114], [36.8821353, 55.2291978], [36.8777376, 55.2302088], [36.875221, 55.2298993], [36.8719855, 55.2326085], [36.8558391, 55.2273425], [36.8592099, 55.2247784], [36.8637742, 55.2254651], [36.8673432, 55.223848], [36.8722187, 55.2182589], [36.8721011, 55.2150762], [36.8589644, 55.2149629], [36.8580954, 55.2136073], [36.8608216, 55.2115669], [36.8591613, 55.2098086], [36.8497154, 55.2115605], [36.8500342, 55.210664], [36.8410156, 55.2078701], [36.840879, 55.2051931], [36.8356822, 55.2022981], [36.8316434, 55.1972705], [36.8295177, 55.1973585], [36.8290102, 55.1957943], [36.8248916, 55.1944441], [36.814461, 55.1941061], [36.8040533, 55.1978108], [36.8076288, 55.2014631], [36.8057072, 55.2037695], [36.8026413, 55.2032827], [36.8017903, 55.2060893], [36.805164, 55.2107422], [36.8117168, 55.2125197], [36.8133835, 55.2148325], [36.8118915, 55.2150435], [36.8072595, 55.219756], [36.8050391, 55.2236819], [36.8059459, 55.2251829], [36.7939986, 55.2252075], [36.794543, 55.2354343], [36.799951, 55.2424725], [36.7875271, 55.2466289], [36.788843, 55.2478026], [36.7905557, 55.2517355], [36.787924, 55.2560451], [36.7884971, 55.2567365], [36.777875, 55.2582275], [36.7765691, 55.2600308], [36.7632458, 55.2698276], [36.757279, 55.2696225], [36.7424199, 55.2639652], [36.7370844, 55.2641629], [36.7262673, 55.2597715], [36.7191177, 55.261561], [36.7188425, 55.2622648], [36.7145629, 55.2636624], [36.7114612, 55.2639684], [36.7068262, 55.2633088], [36.7054543, 55.2642681], [36.6964939, 55.2619891], [36.6928028, 55.2660314], [36.6936258, 55.2664074], [36.691963, 55.2674825], [36.6877638, 55.269125], [36.6805512, 55.2682113], [36.6754015, 55.2691661], [36.6728577, 55.268415], [36.661577, 55.2751933], [36.6593265, 55.2774903], [36.6429877, 55.2773842], [36.6390989, 55.2672848], [36.6321301, 55.2660235], [36.6216514, 55.2650423], [36.619281, 55.2685264], [36.6141387, 55.2694668], [36.611736, 55.2740063], [36.6005531, 55.2829004], [36.6060648, 55.286703], [36.6084231, 55.2902316], [36.6065512, 55.2916543], [36.6129895, 55.2943104], [36.6094323, 55.3025941], [36.6078371, 55.3111815], [36.6136545, 55.313149], [36.6197178, 55.3133271], [36.6182443, 55.3100813], [36.6240861, 55.3080798], [36.6259384, 55.3104262], [36.6224187, 55.3138134], [36.625819, 55.3146893], [36.627067, 55.3160181], [36.6229338, 55.316037], [36.6165013, 55.3214491], [36.6158074, 55.3229991], [36.609386, 55.3268861], [36.6051063, 55.3312525], [36.6003288, 55.3346929], [36.6029342, 55.3362918], [36.6018606, 55.3344601], [36.6049412, 55.3330679], [36.6086285, 55.335376], [36.6121067, 55.3364301], [36.6131547, 55.3381791], [36.6112642, 55.3387138], [36.6107579, 55.3400634], [36.6093332, 55.340548], [36.6200798, 55.3446215], [36.6173433, 55.3487205], [36.6100707, 55.3496693], [36.6093045, 55.3483171], [36.6008253, 55.3512798], [36.5926539, 55.3462302], [36.5900255, 55.3377039], [36.5815609, 55.3365674], [36.5742675, 55.3320245], [36.5738327, 55.3305856], [36.5593289, 55.3281057], [36.5565265, 55.3220337], [36.5497923, 55.3196515], [36.5451766, 55.3231262], [36.5369936, 55.3240668], [36.5326287, 55.3208227], [36.5328966, 55.3195197], [36.5343381, 55.3187401], [36.5342721, 55.3149038], [36.5383563, 55.3121686], [36.5351953, 55.3070732], [36.530872, 55.3047925], [36.5261287, 55.3009064], [36.5164304, 55.2963007], [36.5085542, 55.3027873], [36.5091936, 55.3032812], [36.5023577, 55.3047069], [36.4998738, 55.3035009], [36.4931231, 55.3023364], [36.4855382, 55.3045008], [36.4832948, 55.3024583], [36.4797313, 55.3014854], [36.4785358, 55.3027568], [36.4611429, 55.3011737], [36.4625726, 55.2931344], [36.4491155, 55.2924144], [36.446395, 55.2910625], [36.4413108, 55.2911888], [36.4413038, 55.2917078], [36.4374356, 55.2905597], [36.435488, 55.2909082], [36.4361782, 55.293058], [36.4354793, 55.2946705], [36.431434, 55.2955124], [36.4277413, 55.2940162], [36.4234732, 55.2943878], [36.4173662, 55.3039839], [36.4229031, 55.3060086], [36.4205241, 55.306761], [36.4178158, 55.3088775], [36.4154938, 55.3086231], [36.4167889, 55.3052625], [36.4089683, 55.3010053], [36.3849938, 55.2944235], [36.3843398, 55.2939774], [36.3856261, 55.2925809], [36.3888763, 55.2918616], [36.389821, 55.2902124], [36.3835941, 55.2873494], [36.3859548, 55.2846978], [36.3895068, 55.282997], [36.3898542, 55.2811038], [36.3848081, 55.2798485], [36.3798815, 55.2770874], [36.3752481, 55.2799308], [36.3720566, 55.280774], [36.3692903, 55.280448], [36.3696222, 55.2790071], [36.371013, 55.2778426], [36.368929, 55.2772182], [36.3741886, 55.2741349], [36.379921, 55.2728847], [36.3754799, 55.2712837], [36.3721372, 55.2644687], [36.3757363, 55.2630185], [36.3804726, 55.2649463], [36.3830394, 55.2611332], [36.381199, 55.2592958], [36.3835472, 55.2583722], [36.37965, 55.2566583], [36.3799392, 55.2555095], [36.3790773, 55.2549701], [36.3756233, 55.2534934], [36.3689128, 55.2524231], [36.366667, 55.2499121], [36.3638133, 55.249118], [36.3625283, 55.2491348], [36.3638421, 55.2503714], [36.3626249, 55.2514724], [36.3634694, 55.2524131], [36.3627867, 55.2542293], [36.3570043, 55.251949], [36.3501309, 55.2550621], [36.3481637, 55.2551682], [36.3468341, 55.2538003], [36.3434699, 55.255067], [36.3412056, 55.2510473], [36.3404182, 55.2458934], [36.3334702, 55.2376917], [36.3309666, 55.2290266], [36.3344356, 55.2243022], [36.3332969, 55.220969], [36.3273066, 55.2143911], [36.3246201, 55.2144979], [36.3106797, 55.2105447], [36.3122459, 55.2103031], [36.3050836, 55.2027728], [36.295486, 55.1908393], [36.2954166, 55.190131], [36.2979479, 55.1881404], [36.3012284, 55.1895702], [36.3134816, 55.1857403], [36.2947095, 55.1809976], [36.2794908, 55.1789646], [36.2755815, 55.1769914], [36.2777934, 55.1738933], [36.2746937, 55.172982], [36.264784, 55.1714839], [36.2628082, 55.1728212], [36.2539373, 55.1793593], [36.2542787, 55.1833114], [36.250729, 55.1891482], [36.2484951, 55.1910412], [36.2449697, 55.190822], [36.2383928, 55.1886409], [36.2329373, 55.1898328], [36.2304554, 55.1891283], [36.2289498, 55.1899691], [36.2280669, 55.1885492], [36.2302775, 55.188517], [36.2314115, 55.1873478], [36.230703, 55.1865452], [36.2258946, 55.1871838], [36.2248341, 55.1890269], [36.2230143, 55.1898287], [36.2145301, 55.189722], [36.1999012, 55.1928213], [36.1904508, 55.1933753], [36.174593, 55.1930257], [36.1661934, 55.1909725], [36.159967, 55.1881895], [36.157489, 55.1856723], [36.1510577, 55.1838415], [36.1469686, 55.1809055], [36.1401766, 55.1739498], [36.1229158, 55.1792256], [36.1230291, 55.18007], [36.126512, 55.1820738], [36.1155942, 55.1849882], [36.1158468, 55.1881686], [36.1124474, 55.1975697], [36.1086284, 55.2012499], [36.1059624, 55.2058237], [36.0981175, 55.2067015], [36.097152, 55.2076649], [36.0982032, 55.2094037], [36.1040561, 55.2094143], [36.1037506, 55.2108536], [36.1093377, 55.2088681], [36.1119316, 55.2087718], [36.1135756, 55.2100824], [36.1098282, 55.209909], [36.1014411, 55.2130658], [36.0956729, 55.2142822], [36.0935645, 55.2099391], [36.0843759, 55.2105611], [36.0768261, 55.214526], [36.0742944, 55.2166003], [36.0751829, 55.2180899], [36.0731893, 55.2187668], [36.0659947, 55.2154388], [36.0625162, 55.216263], [36.0614855, 55.2174448], [36.0545397, 55.2156223], [36.0486529, 55.215264], [36.0454946, 55.2176108], [36.0455132, 55.2183435], [36.0466887, 55.2182124], [36.0453791, 55.2207604], [36.0477986, 55.2226664], [36.0438323, 55.2239424], [36.0453665, 55.2264422], [36.0386649, 55.227703], [36.0311588, 55.225357], [36.0262504, 55.2212309], [36.020911, 55.2204367], [36.0220261, 55.2143613], [36.0166199, 55.2149862], [36.009075, 55.2174448], [36.0073201, 55.2195245], [35.9987656, 55.2200747], [35.9984829, 55.2188295], [35.9959832, 55.2175168], [35.993353, 55.2200325], [35.9857094, 55.2229523], [35.984997, 55.224658], [35.9723376, 55.2369711], [35.9649896, 55.2377601], [35.9588793, 55.2417997], [35.9498894, 55.2393715], [35.9434596, 55.2355633]], [[36.9027222, 55.3129817], [36.9071485, 55.3111144], [36.9110651, 55.3135704], [36.9120709, 55.3167452], [36.9176683, 55.3163625], [36.9228058, 55.3239412], [36.9224056, 55.3247544], [36.9137544, 55.3258954], [36.9158469, 55.3303256], [36.910332, 55.3313028], [36.9096726, 55.3297985], [36.9084432, 55.3298934], [36.9091167, 55.32684], [36.9101209, 55.3261704], [36.909091, 55.3199197], [36.9061728, 55.3167452], [36.9039411, 55.3172336], [36.9007522, 55.3148568], [36.9027222, 55.3129817]], [[36.7860413, 55.3337961], [36.7810383, 55.3331395], [36.7819648, 55.3315696], [36.7783222, 55.3307152], [36.7796505, 55.3273309], [36.7809007, 55.3274211], [36.7807619, 55.3181531], [36.8285428, 55.3189442], [36.827498, 55.3370188], [36.7898145, 55.3363881], [36.7860413, 55.3337961]]]}, "properties": {"land_id": "MOZHAYSK_VEREYA", "label": "Можайск, Верея, Боровск, Волок Ламский", "units": ["Московская область: Можайский муниципальный округ (osm r184075)", "Московская область: Наро-Фоминский городской округ (osm r184744)", "Московская область: Волоколамский муниципальный округ (osm r178921)", "Московская область: муниципальный округ Шаховская (osm r184074)"], "source": "OpenStreetMap, отношения admin_level=6 (ODbL), выгрузка Overpass 28.09.2026; где помечено geoBoundaries - gbOpen RUS ADM2 (OSM/Wambacher, 2023); упрощение 0,0005°"}}]}