{"type": "FeatureCollection", "features": [{"type": "Feature", "geometry": {"type": "Polygon", "coordinates": [[[39.4263699, 57.7830215], [39.4199733, 57.7845825], [39.4161894, 57.7869719], [39.4112794, 57.7873561], [39.392495, 57.7960836], [39.3759855, 57.7989883], [39.3756702, 57.7932507], [39.3689133, 57.7932867], [39.3574039, 57.7952313], [39.3561877, 57.7965757], [39.3553318, 57.8028769], [39.3454891, 57.804185], [39.3416553, 57.8058326], [39.3398358, 57.8087209], [39.3216596, 57.8028649], [39.3187091, 57.8027688], [39.3115016, 57.805709], [39.2819512, 57.807641], [39.2826494, 57.8104488], [39.2568837, 57.8229041], [39.2673562, 57.8255398], [39.2596758, 57.8322916], [39.2472204, 57.8304689], [39.2433239, 57.8308166], [39.2387968, 57.8325554], [39.2277604, 57.8395696], [39.2291568, 57.8416556], [39.2325353, 57.8439932], [39.2423329, 57.8474215], [39.2444501, 57.8526591], [39.233729, 57.8611671], [39.2178023, 57.8604647], [39.2195141, 57.8642605], [39.2102373, 57.8662111], [39.2083229, 57.8673372], [39.2104626, 57.8704757], [39.1866908, 57.873188], [39.1830804, 57.862472], [39.1682145, 57.8602398], [39.1674555, 57.8581806], [39.1685791, 57.8567528], [39.152935, 57.8565456], [39.1524373, 57.8553785], [39.14879, 57.856037], [39.1490057, 57.8574429], [39.1357753, 57.8607673], [39.1266029, 57.8617628], [39.1274894, 57.8646264], [39.1304616, 57.8681337], [39.1356603, 57.8709056], [39.1370449, 57.8725783], [39.1421381, 57.8745235], [39.1185999, 57.8869014], [39.1147546, 57.8836431], [39.0962093, 57.8808065], [39.0901772, 57.8780498], [39.0813481, 57.8759043], [39.0823596, 57.8753613], [39.0771625, 57.8755665], [39.0713889, 57.8746042], [39.068694, 57.872489], [39.070507, 57.8721004], [39.0746576, 57.866627], [39.078745, 57.8634692], [39.0768181, 57.8621798], [39.0628988, 57.8583271], [39.045678, 57.8579413], [39.0446887, 57.8598592], [39.0346742, 57.8600727], [39.0351284, 57.8587966], [39.033644, 57.8561813], [39.0348515, 57.8545237], [39.0351296, 57.8518607], [39.0292967, 57.8519598], [39.0142219, 57.8503949], [39.0025492, 57.8525513], [38.9941003, 57.8501836], [38.9939151, 57.8480382], [38.9900551, 57.8457111], [38.9798383, 57.8498288], [38.9740562, 57.8479234], [38.9649541, 57.8469078], [38.9599707, 57.8476596], [38.9565576, 57.8472901], [38.9505129, 57.8448709], [38.9536597, 57.8442613], [38.9535697, 57.8435617], [38.9439485, 57.8437579], [38.9505174, 57.8604773], [38.9011207, 57.8634409], [38.9021011, 57.8650622], [38.9011673, 57.8676259], [38.9027869, 57.869347], [38.9020003, 57.8705089], [38.9045259, 57.8738913], [38.9029256, 57.8750998], [38.8851513, 57.8785217], [38.8812914, 57.8778031], [38.8775558, 57.8801147], [38.8753677, 57.8801579], [38.8742924, 57.8793107], [38.8633147, 57.8809889], [38.8475205, 57.8804843], [38.8445756, 57.8789167], [38.8402796, 57.8796378], [38.840121, 57.880761], [38.8344717, 57.8804438], [38.8350681, 57.8795113], [38.8253612, 57.8751674], [38.8166504, 57.8731964], [38.7911391, 57.8913755], [38.7928815, 57.901548], [38.7898927, 57.9050864], [38.7822894, 57.9048935], [38.781611, 57.9062707], [38.7835582, 57.9095349], [38.7814868, 57.9104243], [38.7771072, 57.9102745], [38.7730847, 57.9111418], [38.7712287, 57.906526], [38.7689895, 57.9057754], [38.7663695, 57.9030144], [38.7594475, 57.9041936], [38.7459975, 57.9035624], [38.7460146, 57.8954785], [38.7317218, 57.895993], [38.7236114, 57.8974589], [38.7149004, 57.8958551], [38.7070676, 57.8981935], [38.6942527, 57.8947023], [38.6956595, 57.8922613], [38.6879026, 57.8876368], [38.6838755, 57.8877814], [38.6745514, 57.8841074], [38.6765223, 57.8807441], [38.6806019, 57.8812253], [38.6799931, 57.8796758], [38.6765855, 57.8789571], [38.6754277, 57.8749051], [38.6812902, 57.8767583], [38.6860468, 57.8756019], [38.6825985, 57.8710114], [38.6829996, 57.8684802], [38.6868113, 57.8655655], [38.6837457, 57.8634475], [38.697245, 57.8545262], [38.6971096, 57.8531211], [38.6925602, 57.8504729], [38.6845708, 57.8483325], [38.679209, 57.8492646], [38.6766541, 57.8482383], [38.6757107, 57.8442293], [38.6674118, 57.840254], [38.6661413, 57.8382483], [38.6688256, 57.8368018], [38.6690301, 57.8357362], [38.6711902, 57.8353337], [38.6736672, 57.8259348], [38.6457449, 57.8136091], [38.5705705, 57.8578325], [38.5684518, 57.8568173], [38.5541714, 57.8635717], [38.5553106, 57.8652606], [38.5437229, 57.8677792], [38.5451812, 57.8706634], [38.5364627, 57.8736821], [38.5371679, 57.8756884], [38.5108541, 57.8806042], [38.510634, 57.8822559], [38.5093429, 57.8835827], [38.5045514, 57.8814573], [38.4911776, 57.8852696], [38.4915966, 57.8974079], [38.4931349, 57.9023822], [38.4942315, 57.9112811], [38.4926031, 57.9216781], [38.4905443, 57.9257189], [38.4865222, 57.930366], [38.4816314, 57.9341414], [38.4738686, 57.9384335], [38.4639619, 57.9417738], [38.4541486, 57.9462878], [38.4455899, 57.9531413], [38.4393857, 57.9630554], [38.4362383, 57.9889137], [38.4295981, 58.0102522], [38.4126957, 58.0273886], [38.348137, 58.0536867], [38.322718, 58.0604109], [38.3089974, 58.0679743], [38.2969189, 58.0769931], [38.2931035, 58.0809158], [38.2929459, 58.08226], [38.297595, 58.090756], [38.2979858, 58.1732156], [38.2737848, 58.1734815], [38.2742627, 58.1873568], [38.2789286, 58.1940322], [38.2789286, 58.1964912], [38.278662, 58.1983881], [38.2763957, 58.1996526], [38.2714632, 58.2052721], [38.2717298, 58.2062554], [38.2734629, 58.2068875], [38.2712578, 58.2122234], [38.270496, 58.2167651], [38.2572181, 58.2255864], [38.1745867, 58.391508], [38.9228792, 58.3913938], [39.0095645, 58.3498374], [39.0232495, 58.3479967], [39.0158616, 58.3441699], [39.0138941, 58.3446524], [39.0120432, 58.3436661], [39.0104677, 58.344466], [39.0078687, 58.3430879], [39.0093794, 58.3423392], [39.0080034, 58.3416272], [39.0081696, 58.3400654], [39.004108, 58.3394735], [39.0048376, 58.3377888], [39.0038129, 58.3354232], [39.0059442, 58.3334013], [39.0054501, 58.3285456], [39.0163342, 58.3280819], [39.0210953, 58.3241845], [39.0237677, 58.3259958], [39.0242685, 58.3273696], [39.0266911, 58.3285588], [39.0334447, 58.3283666], [39.0394008, 58.3267228], [39.0435985, 58.3278569], [39.0481824, 58.3276156], [39.0493699, 58.3282878], [39.0472551, 58.3291474], [39.0472137, 58.3304184], [39.0435647, 58.3329692], [39.038783, 58.3317155], [39.0320899, 58.3325385], [39.0329178, 58.3319499], [39.0323684, 58.3314137], [39.0275232, 58.3314589], [39.0287396, 58.3323314], [39.0272461, 58.3328461], [39.0277252, 58.3335574], [39.0268987, 58.3344331], [39.0283972, 58.3347806], [39.0280909, 58.3352058], [39.0241233, 58.3350746], [39.0219441, 58.3361898], [39.0189475, 58.3355572], [39.0184293, 58.33637], [39.0190012, 58.3366939], [39.0134679, 58.3400785], [39.0147746, 58.3414725], [39.0143753, 58.3423227], [39.0244043, 58.347676], [39.0400978, 58.3455245], [39.0426772, 58.3441281], [39.0433424, 58.3388553], [39.0463426, 58.3363327], [39.0559949, 58.3317217], [39.0704395, 58.3263188], [39.0700593, 58.3182344], [39.075381, 58.3146692], [39.0796574, 58.3142485], [39.0824014, 58.3120434], [39.0864755, 58.3111869], [39.09435, 58.3041447], [39.0975323, 58.2973999], [39.0999872, 58.2967951], [39.1119349, 58.2986632], [39.1155572, 58.2960414], [39.127262, 58.2960622], [39.1381521, 58.29148], [39.1382717, 58.2895615], [39.1362961, 58.287552], [39.1301264, 58.2849052], [39.1364518, 58.2793509], [39.1425192, 58.275715], [39.1426912, 58.2745877], [39.1412115, 58.2719775], [39.1412467, 58.2708264], [39.142691, 58.2694801], [39.1532372, 58.2681824], [39.1670246, 58.2680265], [39.1711908, 58.2659291], [39.1709201, 58.2614937], [39.1777475, 58.2617389], [39.1787972, 58.2620716], [39.1785783, 58.2629355], [39.1847404, 58.2648607], [39.1845241, 58.2659643], [39.1877167, 58.2666746], [39.1879744, 58.2696234], [39.191006, 58.2723243], [39.1895258, 58.2744388], [39.1919563, 58.2762063], [39.1981378, 58.2840056], [39.2087996, 58.2847654], [39.2126821, 58.2817562], [39.2201253, 58.2796953], [39.2239462, 58.2794196], [39.2384008, 58.2658494], [39.229469, 58.2607225], [39.2338582, 58.2586223], [39.2427201, 58.2616631], [39.2476297, 58.2574745], [39.2578692, 58.2540111], [39.2574818, 58.2520701], [39.2503455, 58.248713], [39.2494959, 58.2461261], [39.2584856, 58.2448729], [39.2608747, 58.2468551], [39.264299, 58.2479225], [39.2685298, 58.2443589], [39.2677156, 58.2410526], [39.2780928, 58.2382106], [39.280748, 58.2360669], [39.2876358, 58.2342917], [39.2846738, 58.2302498], [39.2783978, 58.2264835], [39.2814163, 58.2243866], [39.272711, 58.2152572], [39.2707487, 58.2145926], [39.2590343, 58.2153283], [39.2544832, 58.2147443], [39.246473, 58.2059944], [39.2459968, 58.2041256], [39.247207, 58.2027547], [39.2513841, 58.202597], [39.2572756, 58.2055809], [39.2609879, 58.2055683], [39.2655864, 58.2034323], [39.2640805, 58.1997433], [39.2644908, 58.198489], [39.2669636, 58.1971995], [39.2701368, 58.196918], [39.2714328, 58.1981307], [39.2717226, 58.2008079], [39.2727135, 58.202184], [39.2754963, 58.2034186], [39.2784169, 58.2035343], [39.2804292, 58.2070868], [39.2907689, 58.2107577], [39.2966709, 58.2107916], [39.2990384, 58.217105], [39.3014466, 58.2185237], [39.3057049, 58.2164312], [39.3096012, 58.2213297], [39.3127393, 58.2221149], [39.3151337, 58.2199181], [39.317353, 58.2203174], [39.3223834, 58.2232458], [39.3256663, 58.2267926], [39.3400165, 58.22757], [39.3424368, 58.2320655], [39.3714174, 58.2309066], [39.3734699, 58.2318063], [39.3766341, 58.2363907], [39.3820185, 58.2367567], [39.3885212, 58.2389158], [39.3903526, 58.2413365], [39.3928028, 58.242846], [39.4006685, 58.2443867], [39.4095229, 58.2439942], [39.4081217, 58.240033], [39.410008, 58.2371507], [39.4096861, 58.2346862], [39.4081558, 58.229261], [39.4065466, 58.2275811], [39.406787, 58.2250771], [39.4109643, 58.2226664], [39.4102695, 58.2210194], [39.4109821, 58.2194773], [39.4112347, 58.2134876], [39.4078648, 58.206542], [39.4135322, 58.2040571], [39.4124118, 58.198858], [39.4130568, 58.1975784], [39.417874, 58.1952801], [39.4198582, 58.1950341], [39.422532, 58.1975281], [39.4225288, 58.1996687], [39.4204516, 58.2031069], [39.4252242, 58.2065683], [39.4277536, 58.2104058], [39.4307909, 58.2108681], [39.4384295, 58.2095252], [39.443565, 58.2095476], [39.4462813, 58.2086443], [39.448183, 58.2099454], [39.4489299, 58.2143382], [39.4599253, 58.215044], [39.4653135, 58.2138296], [39.4775923, 58.212929], [39.485003, 58.2141513], [39.4966256, 58.2097936], [39.4989321, 58.2102565], [39.5017776, 58.2125119], [39.5080212, 58.2122898], [39.5117975, 58.2127186], [39.5138069, 58.2138027], [39.5153145, 58.2097994], [39.5117221, 58.2077262], [39.5113119, 58.2053152], [39.5092264, 58.2049105], [39.5072898, 58.1998895], [39.5314651, 58.1990769], [39.5405122, 58.2000522], [39.5436662, 58.1992029], [39.5428587, 58.1958598], [39.5454603, 58.1933882], [39.5452601, 58.1920426], [39.5411667, 58.1878], [39.5368519, 58.1848485], [39.5356707, 58.181379], [39.5367168, 58.1785055], [39.5446029, 58.173635], [39.5386, 58.172], [39.5381612, 58.168108], [39.539529, 58.1662783], [39.5240018, 58.1582737], [39.5228806, 58.1560894], [39.5187095, 58.1543735], [39.5177762, 58.1520398], [39.5292179, 58.1439121], [39.5468329, 58.1453658], [39.5542973, 58.1505089], [39.5636593, 58.1486396], [39.5796119, 58.1481611], [39.5886317, 58.1460818], [39.5964448, 58.1470841], [39.5984237, 58.1512275], [39.6746333, 58.14695], [39.6864046, 58.1453611], [39.6870518, 58.1445134], [39.6905043, 58.1437836], [39.6926103, 58.1411994], [39.6982167, 58.1398894], [39.6997067, 58.1413969], [39.7025437, 58.1420016], [39.7021, 58.1316667], [39.6983595, 58.1168469], [39.7056376, 58.1189232], [39.7104593, 58.1114338], [39.7084025, 58.1111731], [39.7127992, 58.1040682], [39.7226167, 58.1058333], [39.7232378, 58.1071204], [39.7265667, 58.10875], [39.7352908, 58.1164268], [39.7465188, 58.1121066], [39.7469833, 58.1103833], [39.7506, 58.1082333], [39.7592667, 58.1072], [39.7592667, 58.1007667], [39.7627, 58.0991333], [39.7695667, 58.0985333], [39.7753167, 58.0991333], [39.7766833, 58.0943333], [39.7803, 58.0939], [39.7864667, 58.0950167], [39.7965167, 58.0925333], [39.8094872, 58.0909211], [39.8075443, 58.0841476], [39.8136247, 58.0813463], [39.8168119, 58.0819361], [39.8189489, 58.0834842], [39.8261333, 58.0812833], [39.8309333, 58.0812833], [39.8367667, 58.0788833], [39.8357333, 58.07305], [39.8332386, 58.0666512], [39.8402002, 58.059916], [39.836746, 58.0600756], [39.8240296, 58.0570119], [39.8218188, 58.0533326], [39.8247164, 58.0481551], [39.8231126, 58.0467417], [39.8383889, 58.0439391], [39.8445445, 58.0479107], [39.8554651, 58.0479875], [39.8536223, 58.044094], [39.8547809, 58.0414915], [39.8526297, 58.0396224], [39.8472782, 58.0373582], [39.8431607, 58.0381772], [39.8412454, 58.0360974], [39.8388333, 58.0304667], [39.8333333, 58.0218833], [39.8299, 58.0174333], [39.8244167, 58.0153667], [39.8244167, 58.0129667], [39.83745, 58.0129667], [39.8474167, 58.0064333], [39.85325, 58.0054167], [39.8553167, 58.0023167], [39.8608, 58.0026667], [39.8625167, 58.0047167], [39.87865, 58.0078167], [39.8848333, 58.0054167], [39.8906667, 58.00575], [39.8941, 58.0043833], [39.8961729, 57.9995827], [39.8952752, 57.9979897], [39.8962902, 57.996306], [39.9015329, 57.9964672], [39.9022243, 57.9958235], [39.9086628, 57.9973142], [39.9154452, 57.9937144], [39.9113113, 57.9900302], [39.9139865, 57.9892712], [39.9119108, 57.9878641], [39.9132879, 57.9872081], [39.914685, 57.9877054], [39.9143667, 57.9855], [39.9164167, 57.9820667], [39.9057833, 57.9769167], [39.90475, 57.9745167], [39.9074665, 57.9670185], [39.9064667, 57.9642167], [39.9037818, 57.9631324], [39.8999808, 57.9591873], [39.9016131, 57.9583142], [39.8945891, 57.9553919], [39.89205, 57.9532167], [39.893073, 57.9516038], [39.8956176, 57.9522316], [39.8951265, 57.9496587], [39.8973143, 57.9504225], [39.8991262, 57.9472909], [39.9030013, 57.9476563], [39.8985667, 57.93915], [39.89205, 57.9381167], [39.8985362, 57.9325415], [39.9006333, 57.9283829], [39.9059751, 57.9284462], [39.9122523, 57.925346], [39.9133449, 57.9221953], [39.9163728, 57.919461], [39.9149233, 57.9116619], [39.9132925, 57.911015], [39.9188996, 57.9099327], [39.919501, 57.908907], [39.9217475, 57.9090857], [39.9218137, 57.9069052], [39.920225, 57.9060962], [39.9224498, 57.9049374], [39.9214827, 57.9030011], [39.9252271, 57.9004253], [39.9241306, 57.8997297], [39.9244398, 57.8972212], [39.9199911, 57.8933092], [39.9194254, 57.8913671], [39.9144995, 57.8901287], [39.9143133, 57.884412], [39.9152246, 57.8787779], [39.9087547, 57.8780184], [39.901767, 57.869095], [39.8996727, 57.8693598], [39.8970471, 57.8664269], [39.8938336, 57.8674933], [39.8918705, 57.8643982], [39.8850944, 57.8665412], [39.8813597, 57.8628012], [39.8771781, 57.8618457], [39.8756234, 57.8580962], [39.8692496, 57.8584186], [39.8661343, 57.8593659], [39.8598705, 57.8548351], [39.8634142, 57.8554757], [39.866748, 57.8550346], [39.8759333, 57.8481301], [39.8719894, 57.8448151], [39.872619, 57.8387859], [39.8689808, 57.8330908], [39.8644579, 57.8336694], [39.8617612, 57.8367822], [39.8599559, 57.8376309], [39.8521006, 57.8367503], [39.851886, 57.8341859], [39.8501964, 57.8322908], [39.8505726, 57.8312175], [39.8578165, 57.8300147], [39.8473461, 57.8280835], [39.8336804, 57.8198488], [39.8275598, 57.8231805], [39.8228429, 57.8247403], [39.8217566, 57.8266385], [39.8138952, 57.8251831], [39.806241, 57.8256967], [39.7965584, 57.8238567], [39.7885395, 57.8256126], [39.7796689, 57.822071], [39.778621, 57.8199145], [39.7673166, 57.8188324], [39.7630405, 57.8229891], [39.7629976, 57.8238233], [39.7597468, 57.8241147], [39.7530556, 57.8232158], [39.7552434, 57.8223049], [39.7525424, 57.8215065], [39.7482777, 57.8167209], [39.744978, 57.8150635], [39.7433072, 57.8152597], [39.7434366, 57.8171774], [39.7417395, 57.8178525], [39.7342094, 57.8176432], [39.7320878, 57.813432], [39.7324794, 57.8122519], [39.7309559, 57.8112432], [39.7297882, 57.8082571], [39.7315389, 57.8071497], [39.7310398, 57.8059676], [39.7316093, 57.8049143], [39.7367282, 57.8025619], [39.7394577, 57.802746], [39.7431696, 57.7998714], [39.7414742, 57.7982375], [39.736226, 57.798036], [39.7375524, 57.7954643], [39.7370117, 57.7932181], [39.7259558, 57.7940691], [39.7120733, 57.7935484], [39.68207, 57.7881869], [39.6825294, 57.7849165], [39.6870053, 57.7843509], [39.6835167, 57.7755097], [39.6810596, 57.7740905], [39.6763157, 57.7740325], [39.6721083, 57.7749971], [39.667682, 57.7733104], [39.6644854, 57.768876], [39.6638389, 57.765724], [39.6598308, 57.7639659], [39.6476169, 57.7657907], [39.6362566, 57.7655678], [39.6368372, 57.762089], [39.6357536, 57.7594505], [39.6371097, 57.7504261], [39.635067, 57.745866], [39.6254721, 57.730967], [39.5980724, 57.7382161], [39.5956065, 57.7361647], [39.591981, 57.725691], [39.5699741, 57.7192075], [39.5686074, 57.7198974], [39.5649246, 57.7183186], [39.5663308, 57.7155605], [39.5586521, 57.715015], [39.5569849, 57.715982], [39.5484599, 57.715972], [39.5451539, 57.7148841], [39.543868, 57.7160932], [39.5365231, 57.7163232], [39.5306389, 57.7124913], [39.5306917, 57.7086127], [39.525722, 57.7087452], [39.5247087, 57.7076316], [39.5340929, 57.702305], [39.5344877, 57.6984929], [39.5316416, 57.6952836], [39.529455, 57.6951127], [39.5279939, 57.6918842], [39.5249582, 57.6930037], [39.5112938, 57.6939292], [39.5104509, 57.6920464], [39.5021411, 57.6873211], [39.4943906, 57.6862486], [39.4938089, 57.6844739], [39.4983257, 57.6849552], [39.4967727, 57.6828029], [39.4885118, 57.6820261], [39.4907767, 57.6751636], [39.483733, 57.6751331], [39.4823641, 57.6724216], [39.4857276, 57.6706961], [39.486543, 57.6694223], [39.4858657, 57.663435], [39.4783831, 57.6636315], [39.4702319, 57.6649353], [39.463985, 57.6679295], [39.458344, 57.668697], [39.4551927, 57.6682021], [39.4498145, 57.6702282], [39.4479846, 57.6697281], [39.4460985, 57.6703774], [39.4392532, 57.6699012], [39.4360167, 57.667881], [39.4316456, 57.6681685], [39.4185656, 57.6663604], [39.4156791, 57.670446], [39.41173, 57.6703497], [39.4026368, 57.667929], [39.3995136, 57.6658004], [39.3939619, 57.6675322], [39.3924373, 57.6698569], [39.388621, 57.6703676], [39.3878189, 57.6649783], [39.3849832, 57.6655309], [39.3795383, 57.6649628], [39.3759951, 57.6657031], [39.3757725, 57.6674303], [39.3771236, 57.6699715], [39.3725853, 57.6716695], [39.3678004, 57.6692672], [39.3658502, 57.6716859], [39.3609837, 57.6728545], [39.3607729, 57.6812345], [39.3676205, 57.6802233], [39.3678176, 57.6850698], [39.3707456, 57.6867404], [39.3781219, 57.6886938], [39.3863853, 57.6883865], [39.3899228, 57.6892928], [39.3956377, 57.6892434], [39.4002216, 57.6965118], [39.4046964, 57.6972214], [39.4072411, 57.701133], [39.4161357, 57.7065687], [39.4162104, 57.7081089], [39.412257, 57.7151666], [39.3994129, 57.7169779], [39.3976022, 57.7136495], [39.3896835, 57.7135255], [39.3891449, 57.71675], [39.3938037, 57.7205712], [39.3947891, 57.72887], [39.4039673, 57.7314855], [39.4046148, 57.7337551], [39.4030382, 57.7364754], [39.4034324, 57.737828], [39.4068168, 57.7411586], [39.4170307, 57.7391355], [39.4204524, 57.7415307], [39.4247777, 57.7430753], [39.4261029, 57.7466023], [39.433094, 57.7514935], [39.4380504, 57.7504317], [39.4416541, 57.7511755], [39.4411973, 57.7528037], [39.433929, 57.7595405], [39.4356968, 57.7733528], [39.4321213, 57.7757099], [39.4313476, 57.7805359], [39.4263699, 57.7830215]]]}, "properties": {"land_id": "ROMANOV_SHEKSNA", "label": "Романов и Усть-Шексна (купли великой княгини Марии Ярославны)", "units": ["Ярославская область: Тутаевский муниципальный округ (osm r1549157)", "Ярославская область: городской округ Рыбинск (osm r1431914)", "Ярославская область: Рыбинский муниципальный округ (osm r1432258)"], "source": "OpenStreetMap, отношения admin_level=6 (ODbL), выгрузка Overpass 28.09.2026; где помечено geoBoundaries - gbOpen RUS ADM2 (OSM/Wambacher, 2023); упрощение 0,0005°"}}]}