{"type": "FeatureCollection", "features": [{"type": "Feature", "geometry": {"type": "Polygon", "coordinates": [[[38.9208576, 53.6823838], [38.9187147, 53.7034536], [38.9270641, 53.7182469], [38.9367769, 53.7220939], [38.949852, 53.7254287], [38.9515452, 53.7302697], [38.9439083, 53.7460059], [38.9214174, 53.7662632], [38.9251249, 53.7718093], [38.8938678, 53.7676907], [38.8877735, 53.7638828], [38.8672941, 53.7644963], [38.855917, 53.7595634], [38.8549273, 53.7561649], [38.852576, 53.7544588], [38.8504655, 53.7581532], [38.8353547, 53.770167], [38.8155601, 53.7809022], [38.8179147, 53.7832369], [38.8214008, 53.7846013], [38.8356003, 53.7868946], [38.8392061, 53.788004], [38.8418222, 53.7902764], [38.8448288, 53.7934177], [38.8493173, 53.8002906], [38.8494292, 53.8123664], [38.8427258, 53.8150323], [38.8412332, 53.8178654], [38.8383015, 53.8198677], [38.8285861, 53.8209162], [38.8237953, 53.8203825], [38.8176643, 53.8158582], [38.8159176, 53.8154697], [38.8019651, 53.8158977], [38.7988234, 53.8145052], [38.7939194, 53.8168692], [38.7930535, 53.819748], [38.7905942, 53.8232959], [38.7897212, 53.8266462], [38.7933036, 53.828851], [38.7936268, 53.8310299], [38.8171237, 53.8292509], [38.8269641, 53.8436851], [38.8301528, 53.8436237], [38.8317387, 53.8451848], [38.8344367, 53.8455542], [38.8382902, 53.8437947], [38.8427597, 53.8449434], [38.8450309, 53.8435867], [38.8475189, 53.8441808], [38.8498023, 53.8423292], [38.8505033, 53.842689], [38.8502014, 53.8449709], [38.8525779, 53.844612], [38.8552572, 53.8476217], [38.8538105, 53.8539777], [38.8506093, 53.8552275], [38.8491373, 53.8579055], [38.840693, 53.8608806], [38.8342323, 53.8662483], [38.8304529, 53.8669433], [38.8259066, 53.8663209], [38.8241679, 53.870192], [38.7939594, 53.8808356], [38.7934535, 53.8958579], [38.7977565, 53.9102483], [38.8451771, 53.9000713], [38.8590475, 53.9184423], [38.8634429, 53.9194826], [38.8880655, 53.9193043], [38.8899688, 53.9313418], [38.8810743, 53.9358873], [38.87531, 53.9473773], [38.8667212, 53.9482207], [38.8528378, 53.9480609], [38.849753, 53.9459748], [38.8439882, 53.9451665], [38.8390929, 53.9426834], [38.8366436, 53.9424931], [38.8358581, 53.9396412], [38.8308453, 53.9398614], [38.826565, 53.9389265], [38.8241379, 53.9398549], [38.8215349, 53.9391294], [38.8219043, 53.9421373], [38.8197096, 53.9449729], [38.8172562, 53.9444202], [38.8138772, 53.9451194], [38.8125011, 53.9469755], [38.8090664, 53.9480912], [38.8074352, 53.9512437], [38.8052874, 53.9516098], [38.8017931, 53.9551351], [38.7996924, 53.9557736], [38.7965886, 53.9554265], [38.7942199, 53.9611505], [38.7907134, 53.964841], [38.7875131, 53.9655601], [38.7793215, 53.9694579], [38.7790851, 53.9701192], [38.7809942, 53.9717354], [38.7805928, 53.9729292], [38.7813645, 53.9749651], [38.7782432, 53.9784701], [38.7816601, 53.980041], [38.783887, 53.9793584], [38.7844926, 53.9811373], [38.7859814, 53.9819961], [38.7856439, 53.984882], [38.7841551, 53.9860078], [38.7827546, 53.985112], [38.7818273, 53.9858705], [38.7815245, 53.9872244], [38.7830984, 53.9893738], [38.7804584, 53.9900451], [38.7801044, 53.9916572], [38.7785744, 53.9927167], [38.7834053, 53.9937263], [38.783557, 53.9953337], [38.7863338, 53.9960575], [38.7858958, 53.9967749], [38.7838215, 53.9969847], [38.7842676, 53.9986654], [38.7883715, 53.9978788], [38.787002, 53.9995884], [38.7912263, 53.9991321], [38.793214, 54.0010494], [38.7958288, 54.0013034], [38.7971655, 54.0032976], [38.7994681, 54.0038797], [38.8004459, 54.0070014], [38.7997835, 54.008121], [38.8013831, 54.0091887], [38.8002251, 54.0101681], [38.8008203, 54.0132353], [38.7971558, 54.0149699], [38.7958278, 54.0169368], [38.7929502, 54.0159451], [38.789633, 54.0181608], [38.7911639, 54.0192583], [38.794014, 54.0188397], [38.7945496, 54.0203368], [38.7958466, 54.0210089], [38.7948303, 54.0218834], [38.7915323, 54.0222025], [38.7894135, 54.0233007], [38.7883137, 54.0248905], [38.7860024, 54.0235185], [38.7862692, 54.022076], [38.7835178, 54.0215238], [38.7843664, 54.0201044], [38.7834005, 54.0195446], [38.776932, 54.0217866], [38.7762974, 54.0226224], [38.7771129, 54.0244394], [38.7803483, 54.0270071], [38.7787851, 54.0287969], [38.7761768, 54.0292865], [38.7760976, 54.0298517], [38.7775729, 54.0302931], [38.7777853, 54.0330037], [38.7741374, 54.0344157], [38.7697835, 54.0338273], [38.7663123, 54.0288849], [38.7597225, 54.028826], [38.7570988, 54.0255782], [38.7547806, 54.0205887], [38.7547807, 54.0169996], [38.7561341, 54.0155287], [38.7691372, 54.0110573], [38.7603121, 54.0024081], [38.7501334, 53.9982894], [38.7217448, 53.9926994], [38.7145097, 54.0057191], [38.7248625, 54.0072911], [38.742013, 54.0188822], [38.7512501, 54.0277079], [38.7533681, 54.0306498], [38.753368, 54.0318854], [38.7517794, 54.0326503], [38.7484257, 54.0320618], [38.7477784, 54.0343565], [38.7450129, 54.0380043], [38.7454835, 54.0394753], [38.7516025, 54.0412993], [38.7520143, 54.0426526], [38.7463071, 54.0418288], [38.7424826, 54.0447706], [38.7439534, 54.0466534], [38.7499548, 54.0468888], [38.750602, 54.0479479], [38.7484249, 54.050772], [38.7438355, 54.0519487], [38.7371279, 54.0559495], [38.7352451, 54.0578323], [38.7339799, 54.0617744], [38.7306261, 54.0635983], [38.7286256, 54.0658341], [38.7103863, 54.0596559], [38.7024432, 54.0626565], [38.7030903, 54.0654218], [38.7022076, 54.0678341], [38.7033842, 54.0724234], [38.7056199, 54.0738356], [38.7051492, 54.0747181], [38.7036783, 54.0749534], [38.7017367, 54.0737178], [38.6977946, 54.0740708], [38.6964414, 54.0721291], [38.694794, 54.0715996], [38.6927347, 54.0721291], [38.6918521, 54.0736], [38.6887925, 54.0744237], [38.6883806, 54.0752474], [38.6912047, 54.0770714], [38.6919695, 54.0788953], [38.6957938, 54.0807782], [38.6954996, 54.0819549], [38.682614, 54.0888387], [38.6830257, 54.0913098], [38.6842613, 54.0927219], [38.6848325, 54.0981832], [38.7008236, 54.0990766], [38.7055893, 54.101489], [38.7122379, 54.1009596], [38.7207103, 54.1033132], [38.7242404, 54.1061374], [38.7255347, 54.1093146], [38.7303004, 54.1107856], [38.7413027, 54.1180228], [38.7431264, 54.1230239], [38.7451856, 54.1244949], [38.751187, 54.1253776], [38.7568942, 54.1248481], [38.7651313, 54.126731], [38.7714857, 54.1260839], [38.7729566, 54.1272607], [38.7737799, 54.1362039], [38.7819579, 54.143441], [38.7821344, 54.1446766], [38.7801337, 54.1490893], [38.7816632, 54.1562087], [38.7814278, 54.1575619], [38.7708364, 54.1739773], [38.7655408, 54.1804493], [38.7509781, 54.1922165], [38.748507, 54.1917458], [38.7466242, 54.190216], [38.744624, 54.1854501], [38.7397995, 54.1819198], [38.7359162, 54.1833907], [38.730209, 54.1840967], [38.7291499, 54.1833906], [38.725149, 54.1831552], [38.7238547, 54.1816254], [38.7196184, 54.1823902], [38.7089101, 54.1805073], [38.6920826, 54.1836842], [38.6869018, 54.1864778], [38.6910521, 54.1867089], [38.6939335, 54.1886103], [38.6980792, 54.1893305], [38.6989213, 54.1906949], [38.698727, 54.1933099], [38.7002168, 54.1942195], [38.7110994, 54.1953185], [38.7142087, 54.1972511], [38.7137553, 54.1988427], [38.7143382, 54.201533], [38.7214907, 54.2070385], [38.7201679, 54.2091108], [38.7130261, 54.2092978], [38.7151944, 54.2120803], [38.7151364, 54.2141501], [38.7167245, 54.216364], [38.7140864, 54.2181143], [38.7098172, 54.2192747], [38.7090804, 54.2205542], [38.715101, 54.2240082], [38.7230436, 54.2250635], [38.7260423, 54.2266485], [38.7229536, 54.2282371], [38.7174293, 54.2274582], [38.7150274, 54.2281947], [38.7135809, 54.2299141], [38.7127836, 54.2316828], [38.7140417, 54.2333457], [38.720233, 54.2355446], [38.7223875, 54.237904], [38.7151148, 54.2405212], [38.7117021, 54.2444044], [38.697287, 54.2438158], [38.6824599, 54.2477577], [38.6711632, 54.2470515], [38.6659818, 54.256714], [38.6581138, 54.2556959], [38.6391906, 54.2644709], [38.6321728, 54.2805076], [38.6312367, 54.2791966], [38.6277821, 54.2780299], [38.6081432, 54.2764764], [38.5939111, 54.2842212], [38.5935981, 54.286134], [38.5755887, 54.2876022], [38.570939, 54.2904647], [38.528514, 54.2891088], [38.5294118, 54.290374], [38.5294469, 54.2929646], [38.528362, 54.2941443], [38.5129104, 54.2941034], [38.5127334, 54.2956634], [38.5105459, 54.2973993], [38.513045, 54.3008457], [38.5171328, 54.3031727], [38.5189983, 54.3061053], [38.5163787, 54.3079713], [38.5107436, 54.3083947], [38.5078617, 54.3122813], [38.5150209, 54.318351], [38.5190733, 54.3202496], [38.5195038, 54.3217836], [38.5176193, 54.3238864], [38.5164236, 54.3234233], [38.5133295, 54.3249948], [38.5107018, 54.3250697], [38.5103824, 54.327095], [38.5071843, 54.3277617], [38.5085156, 54.3307635], [38.510874, 54.3321307], [38.5147419, 54.3322979], [38.5168604, 54.3341345], [38.514319, 54.3355462], [38.51376, 54.3370558], [38.5115505, 54.3375208], [38.5106334, 54.3386184], [38.5118731, 54.3399171], [38.5117433, 54.3411097], [38.51384, 54.3421918], [38.5063624, 54.3449196], [38.5039226, 54.3449298], [38.5049967, 54.3460088], [38.5043202, 54.3470547], [38.5111197, 54.3520626], [38.5130111, 54.3544945], [38.5129214, 54.3576501], [38.5089583, 54.3606957], [38.5090403, 54.3620008], [38.5177175, 54.3652539], [38.5184401, 54.3672411], [38.5160846, 54.3685096], [38.5159644, 54.3694603], [38.5183871, 54.3688954], [38.5283512, 54.3806485], [38.5271891, 54.3811064], [38.5280454, 54.3812904], [38.528089, 54.382158], [38.5245488, 54.383183], [38.5233342, 54.3847912], [38.5266121, 54.385833], [38.5280583, 54.3876916], [38.5269505, 54.3924008], [38.5273654, 54.3950475], [38.4844957, 54.3977465], [38.4838051, 54.3982373], [38.4843656, 54.4016187], [38.4831202, 54.4025161], [38.4808784, 54.4020447], [38.4807538, 54.4028243], [38.4799441, 54.402788], [38.475554, 54.4018178], [38.4536547, 54.4160738], [38.4702551, 54.4231912], [38.4609978, 54.4300992], [38.460654, 54.4317399], [38.4581911, 54.434051], [38.450335, 54.438355], [38.4507226, 54.4400104], [38.4422948, 54.4416451], [38.4317623, 54.4416816], [38.4318555, 54.4433578], [38.4201261, 54.4568375], [38.4094626, 54.4628507], [38.4035481, 54.4609161], [38.4003052, 54.4610046], [38.3868971, 54.4662703], [38.3868171, 54.4669738], [38.3938613, 54.4703641], [38.39772, 54.475176], [38.397588, 54.4779815], [38.3983771, 54.4796464], [38.3963846, 54.4800632], [38.3949938, 54.4852298], [38.3975396, 54.4861046], [38.3956334, 54.4906401], [38.3945433, 54.4992266], [38.3995122, 54.5015587], [38.4002689, 54.503249], [38.3988515, 54.5072996], [38.3889536, 54.5131017], [38.3880805, 54.513545], [38.3823682, 54.5124379], [38.3799194, 54.5139641], [38.3804679, 54.5146864], [38.3800228, 54.5160951], [38.3791741, 54.5161652], [38.3789915, 54.5251304], [38.3761724, 54.5264833], [38.385376, 54.5309172], [38.3862396, 54.5334972], [38.3889417, 54.5328416], [38.406899, 54.5375674], [38.4142642, 54.5407219], [38.4193048, 54.539993], [38.4238409, 54.5415877], [38.4224796, 54.5424183], [38.4219483, 54.545924], [38.4292911, 54.5447127], [38.4287341, 54.5438344], [38.4293954, 54.5423711], [38.4338073, 54.5386725], [38.4509561, 54.5366771], [38.4537231, 54.5406203], [38.4392399, 54.5428523], [38.4420665, 54.5491748], [38.4366853, 54.5500877], [38.4391868, 54.5537411], [38.4430257, 54.5531902], [38.4452298, 54.55138], [38.4556114, 54.5493955], [38.4579978, 54.5491694], [38.4587504, 54.5504071], [38.4589729, 54.551254], [38.4571932, 54.5521149], [38.4519959, 54.5534405], [38.4533066, 54.5544714], [38.4543769, 54.557089], [38.4582339, 54.5576286], [38.4522698, 54.5633463], [38.4544344, 54.5648825], [38.4461348, 54.5725404], [38.4471061, 54.5728315], [38.4548814, 54.5691087], [38.4644324, 54.5698727], [38.4712925, 54.5713611], [38.4798609, 54.5751548], [38.4808948, 54.5767134], [38.4825128, 54.5770428], [38.493516, 54.584808], [38.5019671, 54.5863407], [38.5094685, 54.5902033], [38.5165881, 54.5914905], [38.5185359, 54.5936556], [38.5189586, 54.5962053], [38.5150838, 54.5962765], [38.5137466, 54.5971056], [38.5113467, 54.5967133], [38.5115379, 54.5990088], [38.4954583, 54.6144114], [38.4920103, 54.6144117], [38.490895, 54.6154985], [38.4858918, 54.6134134], [38.4823764, 54.6164777], [38.4798741, 54.6235266], [38.4837274, 54.6299891], [38.4828553, 54.6307859], [38.4845704, 54.6308417], [38.4844442, 54.6317725], [38.4871233, 54.6328017], [38.4869599, 54.6335454], [38.4887616, 54.6353962], [38.4918579, 54.6362308], [38.4961391, 54.6304085], [38.5249606, 54.6402803], [38.5244716, 54.6427247], [38.525787, 54.6462567], [38.5252174, 54.6469667], [38.5273114, 54.6485251], [38.5288375, 54.6512275], [38.5337261, 54.6552804], [38.5400469, 54.6552112], [38.5404541, 54.6567565], [38.547932, 54.6580749], [38.5501885, 54.6572657], [38.562753, 54.6628413], [38.5779656, 54.6897495], [38.5723194, 54.6901288], [38.5732742, 54.6932857], [38.5749031, 54.6934476], [38.5757417, 54.6982283], [38.5766077, 54.6981148], [38.5787727, 54.70019], [38.5781318, 54.7015988], [38.5689461, 54.7009654], [38.5688302, 54.7023037], [38.56516, 54.7035304], [38.5656686, 54.7048527], [38.5649262, 54.7068833], [38.5598655, 54.7090294], [38.5612972, 54.7104758], [38.5602584, 54.7106269], [38.5587245, 54.7135688], [38.5569599, 54.7136221], [38.5570263, 54.7116976], [38.5587485, 54.7105338], [38.5572953, 54.7100617], [38.5552434, 54.712122], [38.5490763, 54.7154181], [38.5509822, 54.7163453], [38.5495407, 54.7183949], [38.5502463, 54.7186509], [38.5499309, 54.7214707], [38.5481015, 54.7221743], [38.5510674, 54.7233891], [38.5531987, 54.7272607], [38.5497012, 54.7272986], [38.5507478, 54.7309687], [38.545899, 54.7320994], [38.5391292, 54.7376377], [38.5356812, 54.7437511], [38.5382625, 54.7448705], [38.5329999, 54.7473135], [38.5369393, 54.7497664], [38.5396763, 54.7526354], [38.5375511, 54.7548938], [38.5362406, 54.7547134], [38.5351875, 54.7560471], [38.5366684, 54.7575006], [38.5363713, 54.7580765], [38.5375388, 54.7579111], [38.5384961, 54.7594259], [38.5405188, 54.759906], [38.5449289, 54.7627841], [38.5506387, 54.7624995], [38.5582264, 54.7666438], [38.5644871, 54.7652676], [38.5743821, 54.7649277], [38.5783916, 54.7694063], [38.578349, 54.7708632], [38.5819823, 54.7736927], [38.582905, 54.7768376], [38.6005119, 54.7758712], [38.6007393, 54.7773831], [38.6035016, 54.7792776], [38.6042268, 54.7811895], [38.6099569, 54.7819525], [38.6147202, 54.7850055], [38.6144374, 54.785947], [38.6246465, 54.791311], [38.6262489, 54.7936117], [38.629259, 54.7938336], [38.6310178, 54.7954485], [38.6423845, 54.7962029], [38.6392031, 54.8050244], [38.6446677, 54.805199], [38.6549163, 54.8086663], [38.6572439, 54.8086397], [38.6582761, 54.8077168], [38.6624686, 54.8088094], [38.6670519, 54.808762], [38.6729818, 54.8077404], [38.6773581, 54.8046694], [38.6802617, 54.8052984], [38.6848364, 54.7974336], [38.6872075, 54.7987312], [38.7004426, 54.7989475], [38.713218, 54.8009838], [38.7144816, 54.7962134], [38.7225774, 54.7962806], [38.7230509, 54.8007209], [38.7194063, 54.8093466], [38.7196249, 54.8149968], [38.71813, 54.8185862], [38.7240209, 54.8191421], [38.7280879, 54.818325], [38.7309902, 54.8204542], [38.7394788, 54.8228508], [38.7509488, 54.8228321], [38.7484414, 54.8256051], [38.7487227, 54.8263316], [38.7515746, 54.8264133], [38.7519078, 54.8256444], [38.7532298, 54.8255685], [38.7529306, 54.821924], [38.7540931, 54.8211888], [38.7659315, 54.8183813], [38.7690703, 54.8166168], [38.7707365, 54.8179127], [38.7693663, 54.822138], [38.7629037, 54.8312874], [38.7607643, 54.8308907], [38.7597659, 54.8333038], [38.7613437, 54.8351702], [38.7584553, 54.8372847], [38.7430303, 54.8329868], [38.7460738, 54.8391311], [38.7650657, 54.8433582], [38.7532221, 54.8579493], [38.7537514, 54.8605131], [38.7545337, 54.8620903], [38.7569757, 54.8623571], [38.7616765, 54.8581531], [38.7636508, 54.8574919], [38.7668542, 54.8599035], [38.7636792, 54.8642866], [38.7866231, 54.860132], [38.7903121, 54.8627227], [38.7973515, 54.8610834], [38.8031427, 54.8684819], [38.8028689, 54.8696083], [38.7975411, 54.8693848], [38.7925775, 54.8730258], [38.7932708, 54.8737297], [38.7925648, 54.8751726], [38.7929442, 54.8761801], [38.791746, 54.8769487], [38.7958242, 54.8773831], [38.7962276, 54.8793727], [38.8034872, 54.8871307], [38.8032363, 54.8884992], [38.8008118, 54.8893687], [38.7884417, 54.8874495], [38.7741843, 54.8896196], [38.7592178, 54.8947695], [38.7578718, 54.8959657], [38.7558617, 54.900335], [38.7631316, 54.9046262], [38.7645751, 54.9046305], [38.7704613, 54.899507], [38.7733823, 54.8986824], [38.7985621, 54.9025275], [38.805057, 54.8964178], [38.8151321, 54.8933043], [38.8173491, 54.8949178], [38.8279628, 54.8952588], [38.8360013, 54.8969423], [38.8440578, 54.895233], [38.870664, 54.8965252], [38.8721254, 54.8908043], [38.8709797, 54.8874833], [38.8675877, 54.8861127], [38.865576, 54.8828836], [38.8632582, 54.8815998], [38.8603544, 54.8813911], [38.8517543, 54.8762759], [38.8541886, 54.8734035], [38.8650465, 54.8654093], [38.8813562, 54.8699007], [38.8859091, 54.8664461], [38.9122355, 54.873395], [38.9100743, 54.8683623], [38.9108479, 54.8663541], [38.9132158, 54.8666838], [38.9141229, 54.8642626], [38.9122239, 54.8638576], [38.9107508, 54.8621812], [38.9133621, 54.8592613], [38.9183485, 54.8599082], [38.9188982, 54.8586953], [38.9265177, 54.8589826], [38.9274884, 54.8582516], [38.9305104, 54.8584888], [38.9308257, 54.8576588], [38.9349731, 54.8574963], [38.931231, 54.8539242], [38.9294712, 54.8511002], [38.931214, 54.8508259], [38.9324626, 54.8528028], [38.9373579, 54.8523487], [38.938338, 54.8517576], [38.9376692, 54.8482451], [38.9471002, 54.8457284], [38.9498295, 54.8476241], [38.9493034, 54.8461974], [38.9614178, 54.8496074], [38.9874328, 54.8537591], [38.9910947, 54.8489713], [38.9920289, 54.8453346], [39.0075656, 54.8446365], [39.0167244, 54.8429545], [39.0176191, 54.8409565], [39.0448893, 54.8438813], [39.0666468, 54.8388818], [39.070713, 54.8397274], [39.0760442, 54.8363361], [39.0779749, 54.8335152], [39.0753619, 54.8308616], [39.070761, 54.829356], [39.0770821, 54.8236773], [39.0809628, 54.8241034], [39.0819034, 54.8191978], [39.0844843, 54.8186503], [39.0899413, 54.822149], [39.0998286, 54.8260643], [39.1072385, 54.8275411], [39.1220523, 54.8196493], [39.1305331, 54.8253748], [39.1448941, 54.8302995], [39.1465328, 54.8262069], [39.1457073, 54.8250922], [39.1474977, 54.818682], [39.1508838, 54.8164269], [39.1514562, 54.8146322], [39.1521122, 54.8147012], [39.1532896, 54.8056708], [39.1547618, 54.8057516], [39.1548054, 54.8050166], [39.1575539, 54.8058731], [39.1594324, 54.8054621], [39.1601493, 54.8042385], [39.1647157, 54.8042751], [39.1653342, 54.8054377], [39.1646909, 54.8064528], [39.163112, 54.8068187], [39.163113, 54.8078454], [39.1676155, 54.8093441], [39.1686182, 54.8080244], [39.1677523, 54.805892], [39.1697807, 54.8048091], [39.167751, 54.8028781], [39.1672386, 54.8007302], [39.1712328, 54.7986921], [39.1712736, 54.797705], [39.1750663, 54.7968078], [39.1866032, 54.7984748], [39.1861306, 54.79677], [39.190071, 54.7933615], [39.1842371, 54.7926028], [39.1882955, 54.7902835], [39.1899172, 54.7900257], [39.1930315, 54.7915776], [39.1952835, 54.790319], [39.1998994, 54.7926641], [39.2040028, 54.7936598], [39.2141121, 54.7948102], [39.2223134, 54.7797537], [39.2244823, 54.7803593], [39.22504, 54.7795958], [39.225198, 54.7770353], [39.2244747, 54.7768755], [39.2255824, 54.7743895], [39.222086, 54.7743666], [39.2230931, 54.7734136], [39.2223334, 54.7725199], [39.2173242, 54.7711254], [39.2164407, 54.7702131], [39.2184972, 54.7683538], [39.219464, 54.7699929], [39.2211036, 54.7696617], [39.2224043, 54.7679751], [39.2208197, 54.7618459], [39.2088855, 54.757466], [39.2033822, 54.757093], [39.1968256, 54.7555083], [39.1965324, 54.7538576], [39.199021, 54.7503852], [39.1990655, 54.7480468], [39.2011961, 54.7473815], [39.2036712, 54.7444007], [39.2050816, 54.7442023], [39.2110452, 54.7444642], [39.2118194, 54.7450336], [39.2109838, 54.7478148], [39.2186959, 54.7477848], [39.2225745, 54.7490005], [39.2231843, 54.7503395], [39.2262465, 54.7506347], [39.2315666, 54.7475037], [39.2346874, 54.7490501], [39.2376922, 54.7485687], [39.2410487, 54.744739], [39.2418736, 54.7422635], [39.2398446, 54.7391365], [39.2394022, 54.7360822], [39.2400553, 54.7343514], [39.2384445, 54.7317667], [39.2174479, 54.7165727], [39.2205733, 54.7162115], [39.2213008, 54.7140423], [39.2154804, 54.7127366], [39.2137026, 54.7136151], [39.2132043, 54.7126821], [39.2100041, 54.7134119], [39.2093058, 54.7123693], [39.1999354, 54.7122914], [39.1931142, 54.7139459], [39.1964193, 54.7100697], [39.2045973, 54.7076683], [39.2044398, 54.7062252], [39.2056563, 54.7058206], [39.2089469, 54.7079698], [39.2146792, 54.704631], [39.2230436, 54.7057092], [39.2245871, 54.7089545], [39.2316183, 54.7101241], [39.2330325, 54.711244], [39.2313706, 54.7127814], [39.2333543, 54.7133187], [39.2338826, 54.7142055], [39.2333113, 54.7151648], [39.2349309, 54.7155066], [39.2320554, 54.7186113], [39.2349077, 54.7193586], [39.2412331, 54.7236156], [39.2439992, 54.7233968], [39.2441312, 54.7243536], [39.2458066, 54.7251705], [39.24421, 54.7277568], [39.2456112, 54.7318686], [39.2522306, 54.7323474], [39.2543589, 54.7337641], [39.2669057, 54.7335602], [39.2682163, 54.7358397], [39.3004914, 54.7352702], [39.3046872, 54.7243383], [39.3274501, 54.725509], [39.3369071, 54.7190354], [39.3422897, 54.721357], [39.3357746, 54.725372], [39.330501, 54.7313979], [39.3513877, 54.7367461], [39.370879, 54.7473725], [39.3689267, 54.752981], [39.3612879, 54.7556456], [39.3543919, 54.7547643], [39.3219552, 54.7537104], [39.3218998, 54.7549436], [39.3203363, 54.7551868], [39.3182586, 54.7568972], [39.3278724, 54.7589614], [39.329766, 54.7621125], [39.3335547, 54.7614936], [39.3352334, 54.7629478], [39.3356882, 54.767516], [39.3336821, 54.7717521], [39.3334952, 54.775429], [39.3377418, 54.7745161], [39.3404549, 54.7753583], [39.3413154, 54.7770972], [39.3446897, 54.7768181], [39.3490565, 54.7793144], [39.3521212, 54.7799555], [39.3533656, 54.7821104], [39.3555725, 54.7812317], [39.362668, 54.7828719], [39.3581068, 54.7852218], [39.3608327, 54.7995629], [39.3618143, 54.8003606], [39.3637888, 54.799932], [39.3697159, 54.8081378], [39.3747757, 54.811578], [39.3760909, 54.8141682], [39.3872116, 54.8239073], [39.3874042, 54.8247191], [39.3851502, 54.8254986], [39.3857913, 54.8269635], [39.4151771, 54.8399126], [39.3894861, 54.8543], [39.3893515, 54.8559663], [39.3926763, 54.8588809], [39.3986015, 54.866246], [39.4057165, 54.8662997], [39.4079332, 54.8685795], [39.4171788, 54.8697824], [39.4353774, 54.877063], [39.4299351, 54.8864411], [39.4470823, 54.8880981], [39.4488535, 54.8899891], [39.4509692, 54.890557], [39.4608406, 54.8912369], [39.466207, 54.892387], [39.4605497, 54.8983659], [39.4613828, 54.9019581], [39.4645077, 54.9026925], [39.4864987, 54.9014258], [39.4736724, 54.9095008], [39.4809362, 54.9128292], [39.4821487, 54.9148553], [39.4819863, 54.9170415], [39.4795505, 54.9196681], [39.4764213, 54.9212549], [39.4694293, 54.9185467], [39.4662298, 54.9218227], [39.4655498, 54.9314455], [39.4748021, 54.9368395], [39.4751663, 54.9458661], [39.4788948, 54.9478789], [39.4836072, 54.9489002], [39.5002372, 54.9570365], [39.5041557, 54.957786], [39.5122031, 54.9641755], [39.5144304, 54.9673597], [39.5205833, 54.9697545], [39.5219652, 54.9723909], [39.5216674, 54.9762392], [39.5175185, 54.9838773], [39.5237562, 54.9860569], [39.5321342, 54.9844227], [39.5376897, 54.9873261], [39.5490974, 54.988852], [39.559414, 54.9886243], [39.565195, 54.9875875], [39.5802649, 54.988441], [39.6028846, 54.9880133], [39.6068483, 54.9905747], [39.6175838, 55.0003833], [39.6179972, 55.0050534], [39.6224966, 55.0166813], [39.6221304, 55.0192456], [39.625181, 55.0234977], [39.6253677, 55.0250803], [39.6695682, 55.0254255], [39.6692176, 55.0139728], [39.7011517, 55.0078952], [39.7013299, 55.0059462], [39.7534946, 55.0045967], [39.7658922, 55.0089831], [39.763476, 55.0177477], [39.7575901, 55.0290626], [39.7555686, 55.0351168], [39.7803575, 55.0313993], [39.7874284, 55.0238519], [39.7985362, 55.0096281], [39.8047924, 55.0053824], [39.8740635, 54.9963457], [39.8795202, 54.9929351], [39.8927548, 54.9933089], [39.9243151, 54.9860164], [39.9265564, 54.9839378], [39.9379298, 54.9796396], [39.9417524, 54.9768084], [39.9363881, 54.9738338], [39.9438558, 54.97135], [39.9435958, 54.9703512], [39.9376912, 54.9680605], [39.9375283, 54.9671021], [39.9354107, 54.9660267], [39.9354922, 54.9652085], [39.9317051, 54.9643903], [39.9362252, 54.9601821], [39.9334968, 54.9579376], [39.9317952, 54.9523102], [39.9428628, 54.9518345], [39.9517864, 54.9415358], [39.9737106, 54.9320353], [39.9749616, 54.9297592], [39.9783497, 54.928097], [39.9792618, 54.9287448], [39.9763787, 54.934], [39.9846304, 54.9372555], [40.0305134, 54.9098113], [40.0696308, 54.9152897], [40.0550507, 54.9067039], [40.1514219, 54.8504421], [40.1684913, 54.8516705], [40.1848495, 54.8588352], [40.2218333, 54.8635428], [40.2527716, 54.8471663], [40.254194, 54.8514658], [40.2741084, 54.8467568], [40.3359851, 54.8774576], [40.3413193, 54.8727516], [40.4344899, 54.8594493], [40.4366236, 54.8633381], [40.4437358, 54.8678405], [40.4487144, 54.8698869], [40.4515593, 54.8758208], [40.4828533, 54.8801172], [40.5045457, 54.869273], [40.5479305, 54.8690683], [40.5945158, 54.8477805], [40.5866923, 54.8295542], [40.5788688, 54.8076307], [40.5795801, 54.7957419], [40.6826176, 54.7965682], [40.7601616, 54.7905595], [40.7881655, 54.7866963], [40.7893444, 54.7907345], [40.8268069, 54.7797309], [40.8532107, 54.7849384], [40.8615326, 54.787807], [40.8718526, 54.7900963], [40.8748177, 54.7899848], [40.8851042, 54.7928572], [40.8858499, 54.79385], [40.8842531, 54.7939636], [40.8849097, 54.7942558], [40.8831324, 54.7951], [40.8831072, 54.7970268], [40.9113034, 54.8002306], [40.9173607, 54.7927163], [40.9466082, 54.8100635], [40.9563421, 54.8098743], [40.9564875, 54.812527], [40.9607127, 54.8129783], [40.9731179, 54.8107302], [40.9844264, 54.8123881], [41.0073612, 54.8114437], [41.0241848, 54.80513], [41.0163183, 54.7990128], [40.9903279, 54.8011058], [40.9833532, 54.7932982], [40.9826989, 54.7904634], [40.986897, 54.7897244], [40.9873914, 54.7843548], [40.9903431, 54.7848435], [40.9925284, 54.7807802], [41.0007584, 54.7811013], [41.004454, 54.778141], [41.0111004, 54.7790535], [41.0188317, 54.7779307], [41.02284, 54.7750735], [41.0285659, 54.7652509], [41.0261557, 54.765772], [41.0318347, 54.7621863], [41.0346309, 54.7614694], [41.0392383, 54.7609928], [41.0439416, 54.7620391], [41.0464337, 54.7638091], [41.0484156, 54.7667196], [41.0547562, 54.7709038], [41.0604175, 54.7667498], [41.0918757, 54.737972], [41.095058, 54.7419907], [41.0953414, 54.7446544], [41.0951846, 54.7460361], [41.0927932, 54.7494477], [41.1040975, 54.7546347], [41.1053985, 54.7572934], [41.1090419, 54.760997], [41.1124547, 54.7627861], [41.1083215, 54.765333], [41.1069746, 54.7640157], [41.1050483, 54.7645753], [41.1032746, 54.7662884], [41.0999308, 54.7667191], [41.0981149, 54.7678274], [41.09815, 54.768775], [41.099065, 54.7691921], [41.0975961, 54.770886], [41.1031281, 54.7728053], [41.1003801, 54.7823747], [41.0976152, 54.7827945], [41.1000458, 54.7836961], [41.0824071, 54.7846841], [41.078001, 54.7890085], [41.0777646, 54.7912184], [41.0788363, 54.7954126], [41.0795641, 54.7968816], [41.0818765, 54.7979903], [41.0808212, 54.8005598], [41.0822883, 54.8015283], [41.0880891, 54.8018196], [41.0956593, 54.8057211], [41.0973367, 54.8086838], [41.097477, 54.8105708], [41.0936793, 54.8148857], [41.0972313, 54.8170322], [41.1005611, 54.8174623], [41.1057418, 54.8168071], [41.1128225, 54.8126731], [41.1200062, 54.8111008], [41.1239233, 54.8111426], [41.1264247, 54.8129252], [41.1268225, 54.8138057], [41.1238493, 54.82642], [41.1058477, 54.8519207], [41.1194936, 54.8541339], [41.1227474, 54.8570212], [41.1299053, 54.8571059], [41.1455122, 54.8550991], [41.1488392, 54.8528857], [41.1474726, 54.8501066], [41.1401702, 54.8524804], [41.1316574, 54.8529084], [41.1277366, 54.8519356], [41.1427931, 54.8421223], [41.152842, 54.8331212], [41.171416, 54.827373], [41.191906, 54.8305465], [41.1980286, 54.8268751], [41.1989046, 54.8247849], [41.2054482, 54.8217516], [41.2087507, 54.8214897], [41.2077317, 54.8212829], [41.2091628, 54.8167505], [41.2053783, 54.8128455], [41.204179, 54.8088145], [41.210364, 54.8082758], [41.2140258, 54.8098666], [41.2154437, 54.8081927], [41.223282, 54.8060014], [41.2229957, 54.8048177], [41.2379372, 54.8011995], [41.2425603, 54.8019071], [41.2432752, 54.7592758], [41.2367486, 54.7327196], [41.2360061, 54.7175026], [41.2370418, 54.7172249], [41.2366076, 54.7110543], [41.2375947, 54.705245], [41.258829, 54.7061083], [41.2476406, 54.6984254], [41.2519258, 54.6954336], [41.2621572, 54.6923185], [41.2848331, 54.6892063], [41.2850842, 54.6916356], [41.3097446, 54.7017472], [41.3334289, 54.6928046], [41.3280368, 54.6918622], [41.3266897, 54.6903457], [41.3254644, 54.6903072], [41.325236, 54.6828811], [41.3918189, 54.6816729], [41.3907674, 54.6623177], [41.4402424, 54.6611355], [41.4389366, 54.6424692], [41.4558116, 54.6422474], [41.454474, 54.6128304], [41.4709967, 54.6124437], [41.470826, 54.596161], [41.4697165, 54.5942965], [41.4667039, 54.5943617], [41.466481, 54.5931754], [41.4652, 54.5926447], [41.4675073, 54.5902677], [41.4710195, 54.5915406], [41.4690115, 54.5719678], [41.4783261, 54.5715277], [41.4774223, 54.5566226], [41.474951, 54.5555162], [41.4756221, 54.5493499], [41.4744905, 54.5433886], [41.4872537, 54.5366137], [41.4828229, 54.5323533], [41.4780425, 54.5236127], [41.4837697, 54.512574], [41.4832588, 54.5109583], [41.4823253, 54.5104568], [41.4698046, 54.511739], [41.4646528, 54.5105562], [41.4578493, 54.5123011], [41.4551984, 54.5120125], [41.4503003, 54.5082205], [41.4426916, 54.5095762], [41.4331673, 54.5026483], [41.4234591, 54.499568], [41.4172277, 54.4997199], [41.4099065, 54.5023522], [41.4092955, 54.5010819], [41.3844011, 54.5016907], [41.3791587, 54.4922324], [41.3790215, 54.4862956], [41.3799587, 54.4829434], [41.378628, 54.4825734], [41.3740224, 54.4765585], [41.3700667, 54.4739591], [41.3680862, 54.4750452], [41.3626327, 54.4754696], [41.3418512, 54.4724432], [41.3440519, 54.471559], [41.3469259, 54.4725398], [41.3501368, 54.4712399], [41.3536387, 54.4719026], [41.3599304, 54.470108], [41.3557072, 54.4674324], [41.3554693, 54.4641204], [41.3583305, 54.4643513], [41.3623981, 54.462234], [41.3382287, 54.4508677], [41.3293797, 54.4478801], [41.3332788, 54.4358987], [41.3385229, 54.4071162], [41.3353487, 54.4073932], [41.3327507, 54.4061608], [41.3365254, 54.403398], [41.3366443, 54.4024209], [41.3353505, 54.4020007], [41.3372452, 54.4004428], [41.3381825, 54.3976263], [41.3376717, 54.3966], [41.3342104, 54.3980022], [41.2858992, 54.3959646], [41.2881435, 54.3834808], [41.2847313, 54.3834722], [41.2489635, 54.3631267], [41.2524133, 54.3405521], [41.2562216, 54.3368101], [41.2630676, 54.327577], [41.2655209, 54.3267567], [41.2720622, 54.3181272], [41.2718859, 54.316201], [41.2785805, 54.3104889], [41.2770607, 54.3102005], [41.2851506, 54.3011269], [41.2464975, 54.2981732], [41.2043816, 54.293305], [41.208383, 54.2690048], [41.209464, 54.268772], [41.2035027, 54.267433], [41.2021792, 54.2661145], [41.2009027, 54.2660966], [41.1907429, 54.2603137], [41.179911, 54.2551481], [41.1733198, 54.2530017], [41.1696791, 54.2508007], [41.171939, 54.2480397], [41.1718145, 54.2467396], [41.1642864, 54.2415015], [41.1583495, 54.2446303], [41.1579267, 54.2457115], [41.1593409, 54.2467607], [41.1593642, 54.2478699], [41.1572237, 54.2485064], [41.1545924, 54.2472441], [41.1520689, 54.2480801], [41.1508337, 54.2496175], [41.149431, 54.2483804], [41.1476718, 54.2493753], [41.1442547, 54.2490179], [41.142595, 54.2501735], [41.1440656, 54.2507015], [41.1429302, 54.2518983], [41.140274, 54.2515805], [41.1406736, 54.2527691], [41.1361688, 54.2536062], [41.1363794, 54.254848], [41.1352669, 54.2557536], [41.1376892, 54.2564335], [41.1357228, 54.2572432], [41.1383624, 54.2573866], [41.1371985, 54.2592296], [41.1347363, 54.2598601], [41.1357974, 54.2615384], [41.1349651, 54.2621466], [41.1303243, 54.2620933], [41.1278605, 54.2608925], [41.1230357, 54.2627809], [41.1221884, 54.2624526], [41.1229992, 54.2616043], [41.1224007, 54.2611733], [41.1193831, 54.2619355], [41.1203514, 54.2641046], [41.1176438, 54.2642664], [41.1198871, 54.2652454], [41.1167284, 54.2690314], [41.1176154, 54.2704799], [41.1171263, 54.2721917], [41.113913, 54.2726545], [41.1129912, 54.2735897], [41.1134007, 54.2746062], [41.1126612, 54.2760003], [41.1091313, 54.2755279], [41.1083239, 54.277767], [41.1057871, 54.2777938], [41.102283, 54.2811085], [41.101226, 54.2803651], [41.1019415, 54.2787216], [41.1000501, 54.2779958], [41.0988771, 54.2756941], [41.094754, 54.2768398], [41.095538, 54.2782418], [41.0934144, 54.2791835], [41.0844499, 54.2790919], [41.0761304, 54.2692482], [41.0726271, 54.2598234], [41.0542634, 54.2488862], [41.039748, 54.2355398], [41.0246715, 54.2485819], [41.0248594, 54.2470425], [41.0215743, 54.2436274], [41.0221636, 54.2410394], [41.0202533, 54.2401823], [41.0192871, 54.2369499], [41.0067994, 54.2297398], [41.0059481, 54.2269154], [41.0025775, 54.2253116], [40.9962743, 54.2254415], [40.9918122, 54.2233541], [40.9896637, 54.2193173], [40.9901864, 54.216776], [40.9896701, 54.2155238], [40.9854758, 54.2135491], [40.9792168, 54.2133582], [40.9758357, 54.2111725], [40.972161, 54.2102944], [40.9600724, 54.2112022], [40.9539045, 54.2146448], [40.9380933, 54.2165186], [40.922826, 54.2158265], [40.9190302, 54.2146778], [40.9085322, 54.2135669], [40.9056374, 54.2119085], [40.8948815, 54.2091476], [40.8932627, 54.2052933], [40.8982016, 54.2044091], [40.898377, 54.2036781], [40.8951213, 54.2028994], [40.8986034, 54.2014335], [40.8945276, 54.1994494], [40.8974748, 54.1965553], [40.899337, 54.1959019], [40.8985792, 54.1940877], [40.8960284, 54.1921174], [40.8914625, 54.1913367], [40.8916741, 54.1897947], [40.8886523, 54.1899206], [40.8882843, 54.1914781], [40.8863542, 54.1934221], [40.8799388, 54.1936998], [40.8781454, 54.1964981], [40.8727988, 54.1984132], [40.8634274, 54.2034089], [40.8630164, 54.2058321], [40.860278, 54.2070393], [40.8516919, 54.2085338], [40.8393793, 54.2078545], [40.8362929, 54.2066511], [40.8281152, 54.2064649], [40.8214347, 54.2023235], [40.7610325, 54.1955576], [40.751823, 54.1955141], [40.7573597, 54.1801711], [40.7423924, 54.1780237], [40.7362939, 54.1763894], [40.7387227, 54.1695093], [40.7351851, 54.1691082], [40.7318224, 54.1673132], [40.7372047, 54.1660143], [40.7023649, 54.164964], [40.6957334, 54.1606178], [40.6940828, 54.1572292], [40.6902137, 54.1530617], [40.6889486, 54.1503371], [40.6883215, 54.1444213], [40.6870154, 54.1404418], [40.685419, 54.1393125], [40.6871905, 54.1358306], [40.6858543, 54.1350269], [40.6855307, 54.1312443], [40.6893045, 54.1289798], [40.6911497, 54.1264303], [40.6858306, 54.124675], [40.645429, 54.1285146], [40.6026893, 54.1213616], [40.5997972, 54.1215418], [40.5944874, 54.1196272], [40.5911715, 54.1199997], [40.5820428, 54.1188522], [40.5716283, 54.1148468], [40.5719153, 54.1089078], [40.5084743, 54.1040705], [40.4794224, 54.0987823], [40.4650355, 54.10677], [40.4667848, 54.1084232], [40.4652178, 54.1093473], [40.4721173, 54.1136213], [40.4692809, 54.1153304], [40.4622212, 54.1108168], [40.4558813, 54.1135954], [40.4594924, 54.1158561], [40.4615286, 54.1159266], [40.4631272, 54.1174656], [40.4626293, 54.1181682], [40.4636267, 54.1183374], [40.4463122, 54.1278987], [40.4231536, 54.1151714], [40.3985996, 54.1415328], [40.3845153, 54.1413609], [40.3925626, 54.1326762], [40.3804892, 54.1240329], [40.4047937, 54.1032541], [40.4353028, 54.0740752], [40.4249788, 54.0670775], [40.4267938, 54.0648463], [40.4144733, 54.0566287], [40.4227464, 54.0511309], [40.4201897, 54.0492926], [40.4213241, 54.0460476], [40.4099486, 54.0388462], [40.4172868, 54.0353838], [40.3958054, 54.0228258], [40.3873144, 54.013821], [40.3801539, 54.0149758], [40.3819606, 54.0195402], [40.3773163, 54.0202792], [40.3701609, 54.026386], [40.3656463, 54.0275046], [40.3611773, 54.0229165], [40.3576512, 54.0208533], [40.3563689, 54.0182427], [40.356313, 54.0160362], [40.3577231, 54.0140721], [40.3647295, 54.0116501], [40.3604887, 54.0097461], [40.3659073, 54.0083046], [40.3683145, 54.0104354], [40.3728647, 54.0071527], [40.3667827, 54.0055003], [40.3670556, 54.0047616], [40.3612383, 54.0025836], [40.3637735, 54.0013552], [40.3618631, 53.9985522], [40.3502033, 53.9949646], [40.3498083, 53.9959314], [40.3451995, 53.996153], [40.3446213, 53.9968496], [40.3501092, 54.0011087], [40.3471663, 54.0035428], [40.3466082, 54.0014551], [40.3400225, 53.9920012], [40.3369567, 53.9918018], [40.3378665, 53.9913573], [40.3373548, 53.9904194], [40.334611, 53.9893403], [40.3343983, 53.9881715], [40.336458, 53.9869791], [40.3360138, 53.9855796], [40.3337687, 53.9838572], [40.3349473, 53.9833383], [40.3346972, 53.9824584], [40.330243, 53.9801299], [40.329921, 53.976649], [40.3287539, 53.9757885], [40.3491942, 53.9733951], [40.3664708, 53.9727559], [40.3928084, 53.974702], [40.3932309, 53.9713576], [40.3922076, 53.9702332], [40.393825, 53.9684362], [40.3788896, 53.9605407], [40.3781986, 53.961055], [40.3710222, 53.9602395], [40.3705582, 53.9590665], [40.3754561, 53.9585886], [40.3665434, 53.948231], [40.3783995, 53.937455], [40.3713706, 53.9348767], [40.3638943, 53.9336637], [40.3608214, 53.931508], [40.3531214, 53.9321249], [40.3449976, 53.9360272], [40.3381217, 53.9349321], [40.3316109, 53.9310435], [40.316623, 53.9304959], [40.3096883, 53.8814721], [40.3021178, 53.8848449], [40.292381, 53.8905464], [40.2864993, 53.8968543], [40.2774719, 53.9004428], [40.2708954, 53.8650241], [40.2558433, 53.8661298], [40.2543549, 53.8594367], [40.2572625, 53.859465], [40.2565425, 53.8572838], [40.2391905, 53.8562826], [40.2343286, 53.8525039], [40.2317449, 53.8491173], [40.2263236, 53.8496953], [40.2280844, 53.852265], [40.2251414, 53.8547129], [40.2270334, 53.8556066], [40.2264756, 53.8562728], [40.2201333, 53.8565037], [40.2200787, 53.8589486], [40.2222745, 53.8614292], [40.2211825, 53.8614917], [40.2222215, 53.863106], [40.2178594, 53.8622069], [40.2181958, 53.8593447], [40.2147861, 53.8587461], [40.2135953, 53.8566041], [40.2108285, 53.8561527], [40.2110522, 53.8550416], [40.1991844, 53.855111], [40.1973241, 53.8533471], [40.1921084, 53.8533679], [40.1915315, 53.8547083], [40.1895299, 53.8553958], [40.1855504, 53.855618], [40.1820557, 53.8519546], [40.1829049, 53.8508054], [40.1799744, 53.8508447], [40.1803243, 53.8481373], [40.1795417, 53.8467818], [40.1704838, 53.848928], [40.1657782, 53.8481654], [40.1636644, 53.8468801], [40.1627219, 53.8472129], [40.1625526, 53.8464584], [40.1604701, 53.8461971], [40.160504, 53.8454695], [40.1592156, 53.8450133], [40.1543382, 53.8465213], [40.1539399, 53.8461246], [40.1552236, 53.8443384], [40.1538999, 53.8439982], [40.1514585, 53.8446306], [40.1489172, 53.8475051], [40.1484697, 53.8457738], [40.1455517, 53.8454693], [40.1444216, 53.8461937], [40.1454685, 53.8477666], [40.142794, 53.8479557], [40.141872, 53.8462293], [40.1440657, 53.844568], [40.1438575, 53.8438533], [40.1417617, 53.8436618], [40.1413329, 53.8450285], [40.1392474, 53.8450739], [40.13875, 53.843911], [40.1363731, 53.8434506], [40.1351431, 53.8420924], [40.1302342, 53.8399246], [40.1285015, 53.8381348], [40.1179806, 53.8358697], [40.1161032, 53.8334378], [40.1144361, 53.8330251], [40.1129979, 53.8336687], [40.1103883, 53.837742], [40.1154563, 53.8413673], [40.1061268, 53.8442674], [40.1053996, 53.8440769], [40.10587, 53.8422708], [40.1051989, 53.8413235], [40.1016815, 53.8406991], [40.0950868, 53.8376181], [40.0877212, 53.8370759], [40.0802235, 53.8429107], [40.0697632, 53.8581406], [40.0675206, 53.859377], [40.0650744, 53.8580258], [40.0463521, 53.85515], [40.0485515, 53.8513636], [40.0398486, 53.8494417], [40.0542439, 53.8374676], [40.0061361, 53.835409], [40.0013678, 53.8212286], [39.9761003, 53.8189141], [39.9774751, 53.8166748], [39.97639, 53.8154558], [39.9796376, 53.8148458], [39.9798363, 53.8116], [39.9831736, 53.8085789], [39.9812333, 53.8071467], [39.9690908, 53.8114027], [39.948258, 53.8122211], [39.9487852, 53.8206831], [39.9430917, 53.8215263], [39.941888, 53.8224771], [39.9376717, 53.8217933], [39.9171677, 53.8232586], [39.9152571, 53.8078951], [39.9163209, 53.8060675], [39.9148543, 53.7986832], [39.9073494, 53.7881616], [39.8870206, 53.7669936], [39.8998952, 53.7645648], [39.9375241, 53.759594], [39.9370481, 53.758665], [39.9558435, 53.757631], [39.9591203, 53.740613], [39.9644757, 53.7360727], [39.9632519, 53.7358813], [39.9660146, 53.734577], [39.9651821, 53.7340568], [39.9620369, 53.7351439], [39.9559703, 53.7385879], [39.9533401, 53.7368978], [39.9576112, 53.7333761], [39.9538263, 53.731309], [39.9512878, 53.7325512], [39.9489382, 53.732479], [39.9443354, 53.7307937], [39.9411527, 53.7282469], [39.9352486, 53.7316094], [39.9314686, 53.727866], [39.9144276, 53.7223125], [39.9159423, 53.7199801], [39.9153846, 53.7194341], [39.9182962, 53.7191693], [39.9214471, 53.7163722], [39.9192335, 53.7131572], [39.9089359, 53.7124624], [39.9063142, 53.716515], [39.9043034, 53.7167152], [39.9003915, 53.7153697], [39.8960021, 53.7149964], [39.8948109, 53.7130109], [39.8879481, 53.7121949], [39.8881581, 53.7113341], [39.88675, 53.7101696], [39.8816842, 53.7103622], [39.880419, 53.7089959], [39.8783638, 53.7093046], [39.8773706, 53.7081299], [39.8772983, 53.708834], [39.8752964, 53.7092303], [39.8734581, 53.7078906], [39.8750985, 53.7070704], [39.8737542, 53.7062339], [39.8677557, 53.7052599], [39.874304, 53.6916839], [39.8791547, 53.6849544], [39.8788276, 53.6787131], [39.8688268, 53.680328], [39.8654427, 53.6790699], [39.8641774, 53.6770153], [39.8552575, 53.6795275], [39.8546447, 53.6776964], [39.8525344, 53.6779595], [39.8517736, 53.676893], [39.8473567, 53.6773069], [39.8346637, 53.6751576], [39.827324, 53.6702977], [39.8245699, 53.6648946], [39.8219019, 53.6619919], [39.8216747, 53.6602845], [39.8248212, 53.6601294], [39.8252791, 53.6559411], [39.8216574, 53.6545864], [39.8223253, 53.6535866], [39.824625, 53.6530194], [39.8195161, 53.6519054], [39.8136051, 53.6528725], [39.8124312, 53.6448674], [39.8059143, 53.647606], [39.801266, 53.6471706], [39.7987254, 53.6449401], [39.7996325, 53.6429554], [39.7935511, 53.6396644], [39.7938041, 53.6387929], [39.7922687, 53.6374672], [39.7899055, 53.6319456], [39.7794087, 53.6255794], [39.7594111, 53.6271172], [39.7603374, 53.6398272], [39.7384679, 53.6387314], [39.7445515, 53.6582509], [39.6932548, 53.6605304], [39.6927278, 53.6561331], [39.6730885, 53.6567611], [39.6699787, 53.6418028], [39.6622659, 53.6428011], [39.6549523, 53.6423719], [39.6549876, 53.6489231], [39.6455154, 53.650688], [39.6403612, 53.6599966], [39.6290813, 53.6612096], [39.6295697, 53.6640964], [39.6341506, 53.6721131], [39.640466, 53.6742314], [39.6384811, 53.6780522], [39.6396637, 53.6806562], [39.6316939, 53.6819573], [39.6308263, 53.6837658], [39.6270412, 53.6853891], [39.6248688, 53.6892862], [39.619824, 53.6939526], [39.6166427, 53.6936243], [39.6069833, 53.6972795], [39.6047223, 53.6995384], [39.6070197, 53.7014527], [39.6095921, 53.7061339], [39.6080514, 53.7092571], [39.6020159, 53.7087204], [39.59204, 53.7064016], [39.5855377, 53.7073342], [39.5794567, 53.7055371], [39.5769661, 53.70381], [39.5625659, 53.7042135], [39.551172, 53.7010065], [39.5482315, 53.6993465], [39.5472024, 53.6925399], [39.5485007, 53.6907835], [39.5540405, 53.6867785], [39.5545109, 53.6854691], [39.5541194, 53.6846886], [39.549707, 53.6830916], [39.5525435, 53.6815864], [39.5459899, 53.6782511], [39.5448197, 53.6742163], [39.5438862, 53.6737772], [39.5294868, 53.6789177], [39.5301254, 53.6827684], [39.5283714, 53.6844891], [39.5293306, 53.68791], [39.5244619, 53.6869338], [39.5210859, 53.6874752], [39.5213435, 53.6884599], [39.5226342, 53.6885998], [39.5225342, 53.6900751], [39.5274094, 53.6917107], [39.5274752, 53.6925423], [39.5286306, 53.6929362], [39.5255014, 53.6966412], [39.5235153, 53.6970255], [39.5030061, 53.6870681], [39.4960935, 53.6962154], [39.4756578, 53.7014285], [39.4736813, 53.6990218], [39.4643888, 53.6995538], [39.4555199, 53.6928756], [39.4442257, 53.6892139], [39.4089556, 53.699492], [39.4031611, 53.7004529], [39.400624, 53.6982412], [39.4012458, 53.6972157], [39.4002689, 53.6961464], [39.3799438, 53.6976647], [39.3796643, 53.6962009], [39.3810413, 53.6942904], [39.3790612, 53.6905903], [39.3697046, 53.6887977], [39.3700349, 53.6864822], [39.3758774, 53.6870284], [39.3844065, 53.6827823], [39.3798527, 53.6817621], [39.3792871, 53.6830926], [39.3777252, 53.6840214], [39.3694372, 53.6820344], [39.370662, 53.6811311], [39.3647263, 53.6776478], [39.3613391, 53.6793457], [39.3509011, 53.6714627], [39.3422595, 53.6685098], [39.3364717, 53.6725669], [39.3306646, 53.672664], [39.3291799, 53.6741908], [39.326429, 53.6819572], [39.3215582, 53.6867395], [39.3212786, 53.6879955], [39.3226315, 53.6918681], [39.3222716, 53.6936207], [39.3187781, 53.6963755], [39.3094123, 53.6996832], [39.30813, 53.7028718], [39.3081879, 53.7056169], [39.3333306, 53.710893], [39.3368438, 53.7110383], [39.3388825, 53.7138833], [39.3402214, 53.7175605], [39.3499546, 53.7213363], [39.349577, 53.7224924], [39.3444303, 53.7237635], [39.3412538, 53.7258829], [39.3421555, 53.7284107], [39.3487371, 53.7341159], [39.3533745, 53.7414759], [39.3531206, 53.7514342], [39.3552995, 53.7564258], [39.3516519, 53.7590458], [39.3519283, 53.7627903], [39.3493531, 53.7640002], [39.3296877, 53.7577321], [39.3099404, 53.7660634], [39.304823, 53.7671701], [39.2957333, 53.7618912], [39.2922111, 53.7637772], [39.2901296, 53.7588767], [39.2751817, 53.7551983], [39.2662329, 53.7517936], [39.2614245, 53.7567057], [39.2521349, 53.7694293], [39.2297608, 53.7643279], [39.2222482, 53.7743795], [39.217308, 53.7712934], [39.2093557, 53.7686286], [39.2092304, 53.766429], [39.2060011, 53.7662463], [39.2040417, 53.764765], [39.1992405, 53.7670445], [39.1749162, 53.7545933], [39.1279355, 53.7700304], [39.0916917, 53.7312825], [39.0877775, 53.7298281], [39.085605, 53.7280181], [39.0846538, 53.7259761], [39.0739201, 53.7225288], [39.0690546, 53.7230403], [39.0638196, 53.7303433], [39.0420644, 53.7305999], [39.0427074, 53.7266904], [39.0421507, 53.7217144], [39.0273607, 53.72039], [39.0245725, 53.7141544], [39.0179803, 53.7116677], [39.0140149, 53.7076408], [39.01324, 53.7063065], [39.0163123, 53.7052721], [39.016512, 53.6920455], [38.987274, 53.6863993], [38.9886559, 53.6836719], [38.9208576, 53.6823838]]]}, "properties": {"land_id": "RYAZAN_NAMESTNIKI", "label": "Рязанское великое княжество под московскими наместниками", "units": ["Рязанская область: городской округ Рязань (osm r1066115)", "Рязанская область: Рязанский муниципальный округ (osm r1066111)", "Рязанская область: Рыбновский муниципальный округ (osm r1029226)", "Рязанская область: Спасский муниципальный округ (osm r1066114)", "Рязанская область: Старожиловский муниципальный округ (osm r1066113)", "Рязанская область: Пронский муниципальный округ (osm r1059427)", "Рязанская область: Михайловский муниципальный округ (osm r1059365)", "Рязанская область: Захаровский муниципальный округ (osm r1059366)", "Рязанская область: Скопинский муниципальный округ (osm r1059367)", "Рязанская область: Шиловский район (osm r1066112)", "Рязанская область: Кораблинский муниципальный округ (osm r1059470)", "Московская область: муниципальный округ Зарайск (osm r184665)", "Московская область: муниципальный округ Серебряные Пруды (osm r1026234)"], "source": "OpenStreetMap, отношения admin_level=6 (ODbL), выгрузка Overpass 28.09.2026; где помечено geoBoundaries - gbOpen RUS ADM2 (OSM/Wambacher, 2023); упрощение 0,0005°"}}]}