{"type": "FeatureCollection", "features": [{"type": "Feature", "geometry": {"type": "Polygon", "coordinates": [[[35.0457669, 55.9803964], [35.0342901, 55.9790807], [35.0305415, 55.9795469], [35.0234516, 55.977719], [35.0171764, 55.9774564], [35.0121372, 55.9782446], [35.003851, 55.977718], [34.9977453, 55.9794859], [34.9938334, 55.9759295], [34.9788969, 55.9710689], [34.9702429, 55.9721356], [34.9636933, 55.9714243], [34.9570548, 55.9692903], [34.9529056, 55.9715426], [34.9447255, 55.9794851], [34.9378498, 55.9805519], [34.9316851, 55.9854122], [34.9321296, 55.9876646], [34.925254, 55.9848194], [34.9195643, 55.9756912], [34.9101282, 55.9646136], [34.8934249, 55.9743868], [34.8753296, 55.9746532], [34.8698045, 55.9761646], [34.869212, 55.9728453], [34.8593004, 55.972885], [34.8586619, 55.9628872], [34.8528239, 55.9555373], [34.8449996, 55.9587379], [34.8136735, 55.9662058], [34.8270685, 55.9797203], [34.823275, 55.9799574], [34.8156883, 55.975571], [34.8073902, 55.9727258], [34.806768, 55.9701177], [34.80416, 55.9686951], [34.7982327, 55.9691692], [34.7964547, 55.9643088], [34.7913573, 55.963716], [34.7847188, 55.961345], [34.7794731, 55.9620562], [34.7754424, 55.9643085], [34.7760349, 55.9704729], [34.7673807, 55.9760444], [34.7571561, 55.9759257], [34.7450448, 55.9778568], [34.7370034, 55.9731988], [34.7294168, 55.9659674], [34.7232526, 55.9631222], [34.720052, 55.9593286], [34.71875, 55.9564546], [34.6979736, 55.9446878], [34.6875585, 55.9382748], [34.6845487, 55.9355892], [34.6961667, 55.9262242], [34.6827418, 55.9163846], [34.6742065, 55.9156732], [34.6670936, 55.9181626], [34.6576988, 55.919585], [34.6315004, 55.9131831], [34.6311447, 55.9154354], [34.6284181, 55.9150797], [34.6267251, 55.9122011], [34.6232565, 55.9105165], [34.6212826, 55.9117775], [34.6055389, 55.9118786], [34.6011229, 55.9144569], [34.60053, 55.9189617], [34.6169142, 55.9167807], [34.6204056, 55.9233482], [34.6176004, 55.9240298], [34.6190228, 55.926875], [34.5969724, 55.9430858], [34.5872516, 55.9426115], [34.5764049, 55.9370989], [34.5739879, 55.9345871], [34.5624412, 55.9344853], [34.5569634, 55.9366244], [34.5534539, 55.9342467], [34.5486016, 55.932717], [34.5394188, 55.9314081], [34.537996, 55.9366241], [34.5326021, 55.9383429], [34.5232369, 55.9391726], [34.515294, 55.9450998], [34.5179015, 55.9548207], [34.5103143, 55.9600366], [34.492387, 55.9657298], [34.4876244, 55.9658212], [34.479644, 55.961686], [34.4725372, 55.961931], [34.4705441, 55.9637795], [34.4683705, 55.9738165], [34.4606813, 55.9814746], [34.4480607, 55.9791463], [34.4318554, 55.9900513], [34.4111403, 55.9898471], [34.4073128, 55.9991447], [34.4027246, 55.9987699], [34.3954008, 56.001224], [34.39495, 56.0021049], [34.3965475, 56.0053504], [34.3976809, 56.0058459], [34.3910207, 56.012964], [34.3867045, 56.0155972], [34.3841589, 56.0144802], [34.3805535, 56.0147335], [34.3797935, 56.015537], [34.3798231, 56.0172783], [34.3817527, 56.0215696], [34.3815485, 56.0226778], [34.3772097, 56.02385], [34.3728308, 56.0228593], [34.3670702, 56.0281767], [34.3582691, 56.0402083], [34.3487035, 56.0426261], [34.346847, 56.0443852], [34.3440282, 56.0440239], [34.3421912, 56.0466115], [34.3424153, 56.0481652], [34.3321001, 56.0504163], [34.3280705, 56.0474394], [34.3318977, 56.0604432], [34.3282255, 56.0801042], [34.3326655, 56.0800942], [34.3374475, 56.0827964], [34.3370843, 56.0863091], [34.3398688, 56.0915098], [34.3369027, 56.0940762], [34.3372659, 56.0973852], [34.3330286, 56.0967437], [34.3304863, 56.0941437], [34.3293362, 56.0915436], [34.3298204, 56.0894161], [34.3315759, 56.0874911], [34.3305468, 56.0853296], [34.3278834, 56.0843164], [34.3222539, 56.1121372], [34.3125687, 56.1169633], [34.3077342, 56.1211279], [34.3146874, 56.1251291], [34.3172903, 56.1252978], [34.3264424, 56.1224089], [34.3310916, 56.1231384], [34.3366001, 56.125399], [34.342169, 56.1250279], [34.3424111, 56.1324161], [34.3629008, 56.1421344], [34.3633553, 56.1437825], [34.3550624, 56.1476942], [34.3539728, 56.1512009], [34.3540939, 56.1561906], [34.3572415, 56.1607078], [34.3673504, 56.1596291], [34.3789121, 56.1613146], [34.3823019, 56.1630673], [34.3805465, 56.1681903], [34.3773988, 56.1705494], [34.3727378, 56.172268], [34.3792148, 56.1757725], [34.3816966, 56.1755366], [34.3842389, 56.1791755], [34.3832474, 56.1821019], [34.3874471, 56.1820729], [34.3904132, 56.1829489], [34.3990088, 56.179344], [34.4020354, 56.1807253], [34.4090571, 56.1804558], [34.4154736, 56.1787038], [34.416321, 56.1765475], [34.4186818, 56.1746942], [34.4249166, 56.1764127], [34.4316357, 56.1769855], [34.4412644, 56.1796355], [34.4451344, 56.1845659], [34.4478583, 56.189686], [34.4585725, 56.1980721], [34.4546379, 56.2004294], [34.4627492, 56.2106984], [34.468606, 56.2244792], [34.4724344, 56.2244647], [34.4727371, 56.2252387], [34.4700737, 56.2257434], [34.4701721, 56.2277855], [34.477277, 56.2287383], [34.4764295, 56.2316992], [34.4839693, 56.2322724], [34.4833993, 56.2357276], [34.4815153, 56.2377345], [34.4854404, 56.2420971], [34.488561, 56.2422546], [34.4918776, 56.2437547], [34.491857, 56.245307], [34.4875356, 56.2451035], [34.4857045, 56.2441267], [34.4843861, 56.2459581], [34.4868764, 56.24665], [34.4881215, 56.2495799], [34.4873245, 56.2520417], [34.4826143, 56.2533501], [34.4865394, 56.256141], [34.4885805, 56.2590189], [34.5080491, 56.2677386], [34.5104042, 56.2716618], [34.5239066, 56.2799428], [34.5362894, 56.2833477], [34.5376824, 56.2824627], [34.5502428, 56.2842849], [34.5472454, 56.2857902], [34.5508137, 56.2891174], [34.5603767, 56.2913354], [34.5693688, 56.2950582], [34.5735404, 56.2934994], [34.5814849, 56.2938827], [34.5833846, 56.2925409], [34.616026, 56.2998243], [34.6231069, 56.3045195], [34.6269879, 56.3045727], [34.6244243, 56.3064012], [34.6259318, 56.3077617], [34.6325544, 56.3079046], [34.640831, 56.3039632], [34.6499133, 56.3014031], [34.67174, 56.3068888], [34.678039, 56.3055073], [34.6782587, 56.3020939], [34.6912961, 56.3027441], [34.6998657, 56.305426], [34.7044801, 56.302866], [34.7178105, 56.3072545], [34.7275519, 56.3074982], [34.7281379, 56.2976643], [34.7301887, 56.2890066], [34.7279181, 56.2890473], [34.7305549, 56.2872993], [34.7311409, 56.2853479], [34.7334114, 56.2841689], [34.7330452, 56.2794932], [34.7351693, 56.2783547], [34.7318001, 56.2760775], [34.7361947, 56.2724582], [34.7488659, 56.2724989], [34.7538465, 56.2635915], [34.7460827, 56.2556585], [34.7404429, 56.2568384], [34.7409556, 56.2536241], [34.7385385, 56.253258], [34.7408823, 56.2494737], [34.7393442, 56.2491482], [34.7442177, 56.2438994], [34.7493054, 56.2417006], [34.7556776, 56.2425553], [34.7586884, 56.2447798], [34.7616879, 56.2450298], [34.7646123, 56.2473214], [34.7691115, 56.2471964], [34.7721859, 56.2528621], [34.7773599, 56.2551532], [34.7888327, 56.253237], [34.8012804, 56.247863], [34.8156196, 56.2433714], [34.8194195, 56.2429557], [34.8220234, 56.2442908], [34.8263893, 56.2496685], [34.8343602, 56.2550829], [34.8370189, 56.2645251], [34.8325876, 56.2707441], [34.8353054, 56.2800096], [34.8352971, 56.2829031], [34.8327482, 56.2849077], [34.8134114, 56.287366], [34.8077592, 56.2899802], [34.8088583, 56.294511], [34.8197526, 56.3006873], [34.8257423, 56.3011872], [34.8350535, 56.3089486], [34.8261042, 56.3187889], [34.820138, 56.3187889], [34.818882, 56.3219232], [34.8067926, 56.316525], [34.7936041, 56.3133901], [34.7940752, 56.3093841], [34.7860679, 56.30651], [34.7810437, 56.3090357], [34.7752345, 56.3088615], [34.7684833, 56.3113001], [34.7650292, 56.3195725], [34.7665993, 56.3206173], [34.7499567, 56.3579506], [34.7711524, 56.365778], [34.7744495, 56.3706477], [34.7802587, 56.3731692], [34.7832418, 56.3723866], [34.7852829, 56.3820367], [34.7771186, 56.3824713], [34.7719374, 56.3798635], [34.7629882, 56.3823844], [34.75922, 56.3869042], [34.7523118, 56.3880341], [34.7466596, 56.3860351], [34.7414785, 56.3788203], [34.7419495, 56.3769946], [34.7326862, 56.373517], [34.7339422, 56.3675172], [34.7293891, 56.3669086], [34.7248359, 56.3702999], [34.6902948, 56.3722127], [34.6901378, 56.3779509], [34.696261, 56.3847313], [34.6780484, 56.389164], [34.66643, 56.3836883], [34.6603068, 56.387165], [34.6543407, 56.3929878], [34.6554397, 56.4025458], [34.6442923, 56.403154], [34.6230966, 56.4153149], [34.6204276, 56.4200914], [34.5803913, 56.4220887], [34.5750531, 56.4216545], [34.5794492, 56.4248673], [34.5808623, 56.4275588], [34.5810193, 56.4327678], [34.5635917, 56.4288611], [34.5494613, 56.4634864], [34.540198, 56.4645271], [34.5334468, 56.4800501], [34.5259414, 56.4816466], [34.5303067, 56.4844717], [34.5456932, 56.488546], [34.5301497, 56.4953934], [34.5260675, 56.4947], [34.5249685, 56.4980799], [34.5199443, 56.5011129], [34.5356448, 56.5073516], [34.5331327, 56.5113368], [34.5297393, 56.5137634], [34.5248115, 56.5146286], [34.5194996, 56.5131869], [34.5230522, 56.5094971], [34.5119766, 56.5059222], [34.5036176, 56.5002711], [34.5017368, 56.4881585], [34.4954676, 56.4883892], [34.4914971, 56.4896583], [34.4820933, 56.4898891], [34.4680921, 56.4958878], [34.4660023, 56.4939269], [34.4486575, 56.500963], [34.4409144, 56.4990816], [34.4409255, 56.5127257], [34.4488665, 56.5174528], [34.4459409, 56.525983], [34.4407165, 56.5249457], [34.4400896, 56.5362399], [34.4315217, 56.5360095], [34.4194012, 56.5394662], [34.4093705, 56.5341657], [34.3913987, 56.5292102], [34.381591, 56.5336917], [34.384438, 56.5473208], [34.3721058, 56.544838], [34.3719985, 56.538571], [34.365886, 56.5382162], [34.3634196, 56.5402265], [34.3637413, 56.5508084], [34.3570926, 56.55335], [34.3447604, 56.5546503], [34.3389697, 56.5583145], [34.3047113, 56.5586195], [34.3028305, 56.5739328], [34.2970598, 56.5767413], [34.2923084, 56.5770556], [34.292114, 56.572644], [34.2877548, 56.5707061], [34.2892056, 56.5691903], [34.2875723, 56.5678655], [34.2774994, 56.5758044], [34.2758552, 56.5791127], [34.2562294, 56.5792278], [34.2405563, 56.5748538], [34.2386756, 56.5762351], [34.2277297, 56.5735529], [34.2127628, 56.5852125], [34.2102551, 56.6010904], [34.1839245, 56.6258143], [34.1764014, 56.6273087], [34.1734758, 56.6296077], [34.1814168, 56.6340903], [34.1747296, 56.6360441], [34.1776552, 56.6411006], [34.1751476, 56.6439732], [34.1682514, 56.6422497], [34.1229041, 56.6523601], [34.1249939, 56.6612045], [34.1105747, 56.663157], [34.1063952, 56.6541981], [34.0890504, 56.6505221], [34.0720416, 56.6498927], [34.0745382, 56.645], [34.0740951, 56.6346194], [34.0620421, 56.6336933], [34.0614217, 56.6252598], [34.0545039, 56.6263941], [34.0511411, 56.6250648], [34.0405061, 56.6259911], [34.045026, 56.6310124], [34.0394426, 56.6311098], [34.035809, 56.6347656], [34.0324412, 56.6332058], [34.0164887, 56.6346681], [34.0101077, 56.6303786], [34.0062968, 56.6328647], [33.999384, 56.6349119], [33.9988522, 56.6436843], [34.0081579, 56.6472901], [34.0076261, 56.6526983], [33.9958888, 56.652497], [33.9998127, 56.6605264], [33.9986565, 56.6649888], [33.9852155, 56.6683712], [33.9800703, 56.673094], [33.9536782, 56.6747569], [33.9416323, 56.6836019], [33.9195986, 56.6814739], [33.9181458, 56.6870595], [33.9223225, 56.6941732], [33.9309181, 56.691082], [33.9367897, 56.6943394], [33.9406032, 56.6921457], [33.9416928, 56.6896858], [33.9550705, 56.6900847], [33.9568259, 56.6924449], [33.9674796, 56.6956358], [33.9688113, 56.6951372], [33.9812809, 56.7018175], [33.9777095, 56.7031799], [33.9749856, 56.7057054], [33.9659347, 56.7033363], [33.9557217, 56.7046024], [33.9571134, 56.707859], [33.9916113, 56.7082611], [33.9979103, 56.7097888], [33.9982033, 56.7161804], [33.9941016, 56.7216466], [33.9945411, 56.7249419], [34.0076517, 56.7241383], [34.0143596, 56.7220422], [34.0201032, 56.7344246], [34.0132915, 56.7347461], [34.0091899, 56.7386027], [34.0034036, 56.7366343], [33.9982765, 56.7389642], [33.9931494, 56.7369557], [33.9823826, 56.7365138], [33.9807712, 56.7477205], [33.9757906, 56.7500499], [33.9843601, 56.7621358], [33.9810692, 56.7764734], [33.986495, 56.7765255], [33.9875507, 56.793222], [33.982822, 56.792113], [33.9770357, 56.7932362], [33.9700776, 56.7972072], [33.9712495, 56.8091978], [33.9792331, 56.8126859], [33.9777682, 56.8146504], [33.9742525, 56.8159733], [33.9749117, 56.8182584], [33.9724214, 56.819942], [33.9664886, 56.8196614], [33.9635721, 56.8217239], [33.9570963, 56.8229753], [33.9564614, 56.824951], [33.9523289, 56.8264046], [33.9490596, 56.8301767], [33.9501303, 56.8340452], [33.9486571, 56.8376759], [33.9576429, 56.8408764], [33.9442521, 56.8481294], [33.9858485, 56.8515605], [33.9963462, 56.8425063], [34.0135328, 56.8480743], [34.0229555, 56.8444042], [34.0546584, 56.8559741], [34.0660209, 56.8522528], [34.0975707, 56.851496], [34.1092792, 56.858087], [34.1370223, 56.8552173], [34.1428126, 56.8522297], [34.1559406, 56.8539243], [34.1607278, 56.8564472], [34.1746239, 56.8564099], [34.1697832, 56.8588122], [34.1674761, 56.8619338], [34.1671301, 56.8656226], [34.1769353, 56.8669783], [34.1903742, 56.8637625], [34.1993719, 56.8679241], [34.2094411, 56.8660579], [34.2251539, 56.856731], [34.230864, 56.8495089], [34.256639, 56.827151], [34.2659321, 56.8236367], [34.2804399, 56.8211387], [34.2950057, 56.8266664], [34.3037945, 56.8339407], [34.3204591, 56.8344219], [34.3376629, 56.8487591], [34.3476817, 56.8437712], [34.3497099, 56.8444491], [34.3539088, 56.8355343], [34.3538267, 56.8321935], [34.3809816, 56.8189685], [34.386221, 56.813264], [34.3845872, 56.8073427], [34.3802492, 56.7986749], [34.3843215, 56.7948525], [34.3803619, 56.791764], [34.3737703, 56.7909309], [34.3693196, 56.7939238], [34.3562492, 56.7942632], [34.3573197, 56.7882154], [34.3550661, 56.7839876], [34.3542774, 56.7774443], [34.3635732, 56.773771], [34.3645309, 56.7687388], [34.3723055, 56.7684918], [34.3739393, 56.7700664], [34.3936576, 56.7741105], [34.3948732, 56.7734863], [34.4114041, 56.778216], [34.420276, 56.7664982], [34.4257139, 56.7700355], [34.4328688, 56.7696033], [34.4361364, 56.7658056], [34.4487561, 56.7705603], [34.4497702, 56.7730918], [34.4574885, 56.7760553], [34.4618829, 56.7727214], [34.4644744, 56.7696341], [34.4639674, 56.7647249], [34.4680237, 56.7602165], [34.4783336, 56.7547192], [34.4734322, 56.7519085], [34.4791729, 56.7459008], [34.4788373, 56.7406013], [34.4695385, 56.7382698], [34.4672254, 56.7254436], [34.4715673, 56.7199985], [34.4785881, 56.7208922], [34.4834907, 56.7166097], [34.4939918, 56.7128974], [34.5011456, 56.7133642], [34.5025463, 56.7117442], [34.5113485, 56.7096089], [34.5279362, 56.7084671], [34.5331169, 56.7189666], [34.5401013, 56.7202806], [34.5453896, 56.7188571], [34.5487821, 56.7207734], [34.5592588, 56.717543], [34.5552507, 56.7160611], [34.5868322, 56.710403], [34.5847179, 56.7053642], [34.5903323, 56.7045468], [34.5911534, 56.7033565], [34.6053374, 56.7041213], [34.6114161, 56.7074434], [34.6061508, 56.7165426], [34.6023018, 56.7170332], [34.6030654, 56.7215255], [34.6153075, 56.7255027], [34.6331718, 56.7198995], [34.6426852, 56.7289871], [34.6691533, 56.7327239], [34.6764064, 56.7229969], [34.6544552, 56.720807], [34.6551536, 56.7185073], [34.678402, 56.7211902], [34.6844233, 56.7189687], [34.6892126, 56.7119596], [34.7027825, 56.7091666], [34.7087329, 56.7099535], [34.7206388, 56.7205404], [34.7131851, 56.7348934], [34.7113266, 56.7435838], [34.7036093, 56.743399], [34.701417, 56.7483732], [34.7071868, 56.7475636], [34.7071984, 56.749505], [34.6979167, 56.7510637], [34.699114, 56.75451], [34.7019078, 56.7576826], [34.7058989, 56.7593625], [34.7116265, 56.7577643], [34.7168837, 56.7585421], [34.7148737, 56.7643845], [34.7584913, 56.7694505], [34.747868, 56.7567918], [34.7316086, 56.7497693], [34.7355843, 56.7338396], [34.7551573, 56.7348351], [34.7589582, 56.7277779], [34.7548649, 56.7246766], [34.7530131, 56.7255322], [34.7454112, 56.7217889], [34.7430722, 56.7217355], [34.743882, 56.7151675], [34.7538188, 56.7135093], [34.7564503, 56.7084947], [34.7600914, 56.7061886], [34.766499, 56.7062421], [34.7566067, 56.6985327], [34.7549905, 56.6858374], [34.7620884, 56.6848819], [34.7627374, 56.6816996], [34.7725313, 56.6796277], [34.7781455, 56.6815981], [34.7816283, 56.6795501], [34.7795591, 56.674406], [34.7831792, 56.6713525], [34.7875692, 56.670646], [34.7927988, 56.6679469], [34.7965313, 56.660182], [34.7964048, 56.6541434], [34.8067834, 56.652437], [34.8129253, 56.6496805], [34.8210624, 56.6488416], [34.8197601, 56.6529363], [34.8395509, 56.660436], [34.8586406, 56.6541184], [34.8356532, 56.6342195], [34.8489513, 56.621281], [34.8479365, 56.6177188], [34.8525573, 56.6148039], [34.8559868, 56.614436], [34.8604007, 56.6105936], [34.8629557, 56.6096376], [34.8727944, 56.5990072], [34.8862542, 56.6008468], [34.8855087, 56.5951101], [34.8885744, 56.5951685], [34.8936745, 56.590541], [34.9011024, 56.5903296], [34.9021041, 56.5919108], [34.9068883, 56.5947345], [34.9086242, 56.5935683], [34.9166182, 56.5922811], [34.9206443, 56.5935225], [34.9302962, 56.5986466], [34.9302777, 56.5998204], [34.9335384, 56.6014506], [34.9350187, 56.6005732], [34.9405025, 56.6038647], [34.9479365, 56.6017678], [34.9518297, 56.6028123], [34.9514383, 56.6046362], [34.9617948, 56.6047575], [34.9635458, 56.6038315], [34.9693694, 56.6048771], [34.9873821, 56.6041437], [34.9895263, 56.6080059], [34.9776361, 56.6089177], [34.9881232, 56.6193746], [34.9884597, 56.6212463], [34.9926653, 56.6210733], [34.9984191, 56.6195962], [34.9919628, 56.6130476], [35.000052, 56.6113313], [35.0021961, 56.616748], [35.0260719, 56.6200113], [35.0295826, 56.6229681], [35.0291927, 56.6263995], [35.0333835, 56.6311171], [35.0372819, 56.6326181], [35.0401083, 56.6347086], [35.0415702, 56.6399611], [35.0374769, 56.6422119], [35.0381591, 56.6437124], [35.0485874, 56.644677], [35.0507315, 56.6456416], [35.0534355, 56.6511461], [35.0610143, 56.6493226], [35.0671568, 56.6584681], [35.0699831, 56.6576646], [35.0705679, 56.6597536], [35.0793849, 56.6605889], [35.080457, 56.6626778], [35.087864, 56.6644989], [35.0974151, 56.664606], [35.1085256, 56.6663734], [35.1106698, 56.6681407], [35.1226069, 56.6706451], [35.1227549, 56.6725854], [35.1378466, 56.6800898], [35.1287, 56.6852739], [35.1274112, 56.6947767], [35.1421538, 56.6977711], [35.1553449, 56.6951095], [35.168269, 56.7030948], [35.1872602, 56.7099682], [35.1931939, 56.7093256], [35.2012892, 56.7110748], [35.2265393, 56.7106348], [35.2524758, 56.7157853], [35.2799236, 56.7184904], [35.3097747, 56.7297046], [35.3033283, 56.7358777], [35.3049452, 56.7380489], [35.3243884, 56.7458014], [35.3404278, 56.7470702], [35.3437161, 56.7501999], [35.3579907, 56.7506482], [35.3624078, 56.7383532], [35.3808641, 56.7412335], [35.3903348, 56.73812], [35.3936627, 56.7414804], [35.3824608, 56.7548821], [35.3533644, 56.7632314], [35.3535789, 56.767463], [35.3476809, 56.7686384], [35.3488605, 56.7733395], [35.3346557, 56.7907999], [35.3357312, 56.7942303], [35.3293132, 56.7959071], [35.3056442, 56.793724], [35.3041268, 56.7959933], [35.3002682, 56.7974985], [35.3000188, 56.7987083], [35.3038211, 56.8007707], [35.2943843, 56.802356], [35.2895587, 56.7977173], [35.2835534, 56.798833], [35.2778699, 56.7986568], [35.2776554, 56.796719], [35.2743714, 56.796872], [35.2703379, 56.7911046], [35.2568515, 56.7894952], [35.2491609, 56.7879873], [35.2463357, 56.7866007], [35.2418002, 56.7919597], [35.2358683, 56.7952412], [35.2323804, 56.7999414], [35.2333924, 56.8050702], [35.2290345, 56.8057295], [35.2193405, 56.8042303], [35.2117049, 56.8086968], [35.2137424, 56.8103404], [35.2111687, 56.8122776], [35.2196927, 56.81441], [35.219088, 56.8176768], [35.2199012, 56.8190729], [35.2246805, 56.8208467], [35.2204424, 56.8246668], [35.215351, 56.8265388], [35.2178941, 56.8300075], [35.2171066, 56.8332214], [35.2191042, 56.8404428], [35.2177135, 56.8415463], [35.2216719, 56.8459654], [35.2293486, 56.8473033], [35.2385312, 56.846364], [35.2394016, 56.8520802], [35.2431999, 56.8522885], [35.2446803, 56.8552642], [35.2470985, 56.8556028], [35.2545826, 56.8625984], [35.2516217, 56.8632359], [35.2499409, 56.8647555], [35.2489115, 56.8699456], [35.2225293, 56.866941], [35.2220834, 56.8642323], [35.2151334, 56.8633438], [35.2200694, 56.8764985], [35.2175457, 56.8817013], [35.2076902, 56.8923921], [35.1967588, 56.9019416], [35.2259052, 56.9080573], [35.2485667, 56.9033111], [35.2651648, 56.9029632], [35.2783168, 56.9045805], [35.2875463, 56.9089673], [35.2945307, 56.9096917], [35.2968836, 56.9120833], [35.3066494, 56.9159898], [35.3114633, 56.9199363], [35.3158828, 56.9274924], [35.3203129, 56.9306716], [35.3279803, 56.9317893], [35.3338896, 56.9314393], [35.3400031, 56.9294251], [35.3465692, 56.9307615], [35.3574908, 56.9304175], [35.3607094, 56.9308506], [35.363102, 56.9331718], [35.3661577, 56.9336577], [35.3642891, 56.9369336], [35.367951, 56.9451527], [35.383144, 56.9481954], [35.3849284, 56.9501985], [35.3435643, 56.9470065], [35.342669, 56.9518852], [35.3401676, 56.9550476], [35.3416007, 56.9597813], [35.3510422, 56.9694624], [35.3575059, 56.9675464], [35.3750953, 56.9696676], [35.383678, 56.9768765], [35.3731736, 56.9795145], [35.3673575, 56.9833304], [35.3682333, 56.9855565], [35.3685208, 56.9961537], [35.3710371, 56.9967803], [35.3861114, 57.0066708], [35.3842122, 57.0070585], [35.3785149, 57.0136506], [35.3726988, 57.0131982], [35.3702062, 57.0146845], [35.3660519, 57.0136506], [35.3604732, 57.0141029], [35.3596424, 57.0175278], [35.3769992, 57.0226294], [35.366602, 57.0235196], [35.3618526, 57.031791], [35.3540636, 57.0328248], [35.3540636, 57.0404739], [35.3445648, 57.0391302], [35.3420951, 57.0405773], [35.334306, 57.0405773], [35.3316464, 57.0352023], [35.3179681, 57.0361327], [35.3173982, 57.0465714], [35.3061896, 57.0506014], [35.3016302, 57.057317], [35.2904706, 57.0586233], [35.2905137, 57.0679016], [35.2833174, 57.0738223], [35.2839624, 57.0801413], [35.2651447, 57.0837078], [35.2674511, 57.0849752], [35.2674588, 57.0860016], [35.2695438, 57.0867445], [35.2684087, 57.0888218], [35.270655, 57.0899506], [35.2705288, 57.0909123], [35.2722617, 57.0912409], [35.2714198, 57.0924533], [35.2753644, 57.0929066], [35.2763878, 57.0938945], [35.2788313, 57.0931201], [35.2820953, 57.0944093], [35.2836653, 57.0956274], [35.2871712, 57.1014439], [35.2804, 57.1068975], [35.281567, 57.1093267], [35.2761614, 57.1118068], [35.2708232, 57.1107837], [35.2647, 57.1141938], [35.263287, 57.1174331], [35.2546766, 57.1211441], [35.2551227, 57.1259563], [35.2664271, 57.1316656], [35.2697242, 57.1359258], [35.2438183, 57.143167], [35.2499415, 57.1446151], [35.2464874, 57.1490441], [35.2375381, 57.1494699], [35.2372241, 57.1508325], [35.2237217, 57.1506622], [35.2227797, 57.1550905], [35.2296879, 57.1620725], [35.2400502, 57.1648819], [35.2450744, 57.1641158], [35.2515116, 57.1650522], [35.2600313, 57.1736084], [35.2487526, 57.1793036], [35.2496105, 57.1810472], [35.2596907, 57.1836044], [35.2595835, 57.1857547], [35.2577604, 57.1859872], [35.255294, 57.1879048], [35.2503611, 57.1872656], [35.247573, 57.1901711], [35.2442486, 57.1876142], [35.2318092, 57.1934249], [35.2332033, 57.1944706], [35.2257493, 57.2094372], [35.222754, 57.2097413], [35.2178338, 57.2141871], [35.2327962, 57.2204725], [35.2324382, 57.2327215], [35.2302995, 57.236536], [35.2268739, 57.2372312], [35.224733, 57.2499737], [35.1941883, 57.2487384], [35.1966148, 57.2630979], [35.2046078, 57.2643328], [35.2042162, 57.2695382], [35.2001831, 57.2698897], [35.1966148, 57.2744426], [35.1988322, 57.2764056], [35.1955291, 57.2773696], [35.1739204, 57.2735166], [35.1692103, 57.2843953], [35.1622164, 57.286401], [35.1620737, 57.290489], [35.151226, 57.2888693], [35.1432331, 57.2850124], [35.1403784, 57.285861], [35.140093, 57.288715], [35.1370956, 57.2887921], [35.1376665, 57.2863238], [35.1298163, 57.2839324], [35.1305299, 57.2828524], [35.1265334, 57.2802294], [35.1303872, 57.2768346], [35.1255343, 57.2749827], [35.1215378, 57.2767574], [35.1206814, 57.281078], [35.1162567, 57.2823895], [35.1131166, 57.2843181], [35.1223942, 57.3059887], [35.1289599, 57.3071452], [35.1313863, 57.3096893], [35.1355255, 57.3103059], [35.1245352, 57.315085], [35.1288171, 57.319093], [35.1243924, 57.3220214], [35.1281035, 57.3251809], [35.1226797, 57.3301122], [35.1172559, 57.3311908], [35.1122602, 57.3307286], [35.1028469, 57.3324389], [35.1038391, 57.3384322], [35.1084065, 57.3421295], [35.1138303, 57.3400498], [35.116114, 57.3369687], [35.1242497, 57.3321924], [35.129959, 57.3325776], [35.1305539, 57.3349651], [35.194902, 57.2937283], [35.2019609, 57.2934213], [35.2051787, 57.2962732], [35.202895, 57.2976613], [35.2047505, 57.299435], [35.219207, 57.293353], [35.223091, 57.290362], [35.2280158, 57.2902576], [35.2327114, 57.2926703], [35.2386411, 57.2917017], [35.2404335, 57.2941911], [35.2354378, 57.2959647], [35.2345814, 57.2988952], [35.2354378, 57.3022108], [35.234296, 57.3052948], [35.2248757, 57.3076849], [35.2164545, 57.3086871], [35.2140281, 57.3104601], [35.2088897, 57.3106913], [35.2080333, 57.3079161], [35.2096034, 57.306991], [35.2006113, 57.3044468], [35.1941883, 57.3072994], [35.1909055, 57.3063742], [35.1774887, 57.3116164], [35.1800579, 57.3148538], [35.1840544, 57.3127727], [35.1817707, 57.3162412], [35.1837689, 57.3218673], [35.1867663, 57.3234086], [35.194902, 57.3243332], [35.2013249, 57.3237939], [35.2020672, 57.3258944], [35.2199736, 57.3113211], [35.2424214, 57.3217612], [35.2430702, 57.3246334], [35.2380097, 57.3297469], [35.254359, 57.3392015], [35.2415131, 57.344313], [35.2419024, 57.3483736], [35.2381395, 57.3496338], [35.239956, 57.3518039], [35.2468331, 57.3512439], [35.2535804, 57.3542538], [35.2559161, 57.3520838], [35.27512, 57.3520138], [35.2742117, 57.3467635], [35.2700595, 57.3468335], [35.2661706, 57.3361904], [35.3313349, 57.327417], [35.3366244, 57.3296069], [35.3415552, 57.3345796], [35.3454479, 57.3343695], [35.3471347, 57.3382912], [35.3627055, 57.3371708], [35.3684147, 57.3400418], [35.3680255, 57.3417224], [35.3742538, 57.3475335], [35.3598508, 57.359993], [35.3577747, 57.3712589], [35.3611484, 57.3716787], [35.3675064, 57.3679705], [35.373086, 57.3681104], [35.3747728, 57.370909], [35.3942362, 57.3748969], [35.3941065, 57.3786044], [35.3721777, 57.3827312], [35.3706206, 57.3869974], [35.3595913, 57.3858784], [35.3610186, 57.3891653], [35.3562176, 57.3917525], [35.3569962, 57.3976957], [35.3544011, 57.3990239], [35.3494703, 57.3993036], [35.3473942, 57.4010513], [35.3527142, 57.4031485], [35.349081, 57.4053853], [35.3599806, 57.4076919], [35.3663386, 57.4104177], [35.3717884, 57.4104177], [35.3759406, 57.4123047], [35.3873591, 57.4133528], [35.389046, 57.4225064], [35.3859318, 57.4246024], [35.3894352, 57.4278159], [35.390603, 57.43061], [35.409807, 57.431518], [35.4104557, 57.4435999], [35.4265455, 57.4431111], [35.427213, 57.4607831], [35.4421163, 57.4618199], [35.4544431, 57.45484], [35.4639153, 57.4593073], [35.4643046, 57.4690076], [35.4670295, 57.4692169], [35.4671592, 57.4828906], [35.4693651, 57.4835881], [35.477929, 57.48024], [35.48805, 57.4861688], [35.4968734, 57.4838671], [35.502972, 57.490144], [35.5393037, 57.4944674], [35.5400822, 57.5001847], [35.539693, 57.5056223], [35.5530579, 57.5086196], [35.5605837, 57.5064587], [35.5703154, 57.5121741], [35.5744676, 57.5158677], [35.5738189, 57.5185855], [35.5691476, 57.5229753], [35.5757652, 57.523254], [35.5731701, 57.5279218], [35.5670715, 57.5296633], [35.5672013, 57.5378128], [35.5796579, 57.5345393], [35.5809555, 57.5370467], [35.5843291, 57.5366985], [35.5888706, 57.5468656], [35.5819935, 57.5491633], [35.5900384, 57.5534101], [35.5902979, 57.5566819], [35.5950989, 57.5575868], [35.597175, 57.5564731], [35.603014, 57.5584917], [35.6041818, 57.5598142], [35.6087233, 57.5605799], [35.603533, 57.5709491], [35.6165087, 57.5722015], [35.6233857, 57.5711579], [35.6335067, 57.5679569], [35.6405136, 57.5569604], [35.6545272, 57.5590485], [35.6654268, 57.5587005], [35.7313353, 57.5716983], [35.7297953, 57.5672636], [35.7323904, 57.5648975], [35.7281084, 57.56274], [35.7284977, 57.5591207], [35.7335582, 57.5580766], [35.735245, 57.5561276], [35.7377104, 57.5568933], [35.7416031, 57.5558491], [35.7467933, 57.5559187], [35.7492587, 57.5541088], [35.7600285, 57.5552922], [35.7671648, 57.5588079], [35.7880621, 57.5576868], [35.7974659, 57.5630675], [35.7978839, 57.5655333], [35.8123031, 57.5636279], [35.8095864, 57.55892], [35.8187813, 57.5552205], [35.8166915, 57.5543236], [35.8137659, 57.5469233], [35.8035262, 57.5387364], [35.7945403, 57.5372783], [35.7985108, 57.5339131], [35.8106313, 57.534474], [35.8148108, 57.5330156], [35.8214979, 57.5357079], [35.8221248, 57.5297623], [35.8246325, 57.5296501], [35.8250505, 57.5248256], [35.821289, 57.5145012], [35.8227518, 57.5131544], [35.8566628, 57.5130148], [35.8596131, 57.5091358], [35.909712, 57.5106692], [35.9307267, 57.4834206], [35.9347786, 57.4840614], [35.9385319, 57.4864823], [35.9457167, 57.4884421], [35.9487193, 57.4876351], [35.9500062, 57.4855602], [35.9592285, 57.4869434], [35.9659844, 57.4837732], [35.9732765, 57.4853872], [35.9699522, 57.4894795], [35.9777804, 57.4938018], [35.9837857, 57.4940323], [35.9862521, 57.495012], [35.9837857, 57.5008318], [35.9918284, 57.5005437], [35.9947238, 57.502445], [36.0176724, 57.5030788], [36.0199244, 57.5167305], [36.037404, 57.5158667], [36.0421224, 57.5130445], [36.052846, 57.5141964], [36.0530605, 57.5165001], [36.0577789, 57.5169033], [36.0596019, 57.5152332], [36.085446, 57.5188038], [36.0833012, 57.5280168], [36.0855532, 57.5338889], [36.0736499, 57.5391268], [36.0759019, 57.5409111], [36.0787973, 57.5418895], [36.081371, 57.5451123], [36.0864111, 57.5458604], [36.0911295, 57.5439613], [36.0962768, 57.5432707], [36.1105393, 57.543098], [36.1166765, 57.5419891], [36.1182015, 57.5364251], [36.1480848, 57.5357521], [36.1482938, 57.5304797], [36.162086, 57.5300309], [36.1603296, 57.512447], [36.1683226, 57.512677], [36.1710345, 57.5142103], [36.1697499, 57.5181963], [36.1736036, 57.518043], [36.1784565, 57.5226419], [36.1853077, 57.5223354], [36.1825957, 57.5188096], [36.1844513, 57.5153602], [36.1875914, 57.513597], [36.1920161, 57.5145936], [36.1930152, 57.511527], [36.2024355, 57.5114505], [36.2031491, 57.51697], [36.2077166, 57.5170466], [36.2118558, 57.5194994], [36.2148531, 57.5170466], [36.2167087, 57.5175065], [36.2179201, 57.5225735], [36.2199659, 57.523515], [36.2205587, 57.5275839], [36.2263954, 57.524535], [36.2265415, 57.5232011], [36.2206965, 57.5217888], [36.2202581, 57.5163742], [36.2168972, 57.5163742], [36.2160204, 57.507819], [36.2126595, 57.5074265], [36.2113444, 57.5054641], [36.2049564, 57.5055346], [36.2081059, 57.5024652], [36.2085453, 57.4995532], [36.218946, 57.5017569], [36.2187262, 57.5035671], [36.2280282, 57.5055739], [36.2301523, 57.5048263], [36.2286874, 57.5032523], [36.2305918, 57.5011666], [36.2314225, 57.4987085], [36.2279687, 57.4981455], [36.2311181, 57.4955085], [36.2350733, 57.4951936], [36.2438626, 57.491848], [36.2423977, 57.4868092], [36.2399074, 57.4850769], [36.247598, 57.4793678], [36.2506011, 57.484132], [36.2571198, 57.4828328], [36.2591706, 57.4785803], [36.2857582, 57.4746817], [36.2909585, 57.4720825], [36.2961588, 57.4749968], [36.2998943, 57.4725551], [36.3039227, 57.4791709], [36.3160812, 57.4790528], [36.3167404, 57.4740122], [36.3266283, 57.4745242], [36.3300708, 57.4768477], [36.3284594, 57.4799585], [36.3341725, 57.4803522], [36.3354909, 57.482321], [36.3398123, 57.483069], [36.3265551, 57.4872029], [36.3269213, 57.489368], [36.3356374, 57.4944065], [36.3416434, 57.4942884], [36.3464775, 57.495351], [36.3592952, 57.4934618], [36.3612728, 57.4864942], [36.3631771, 57.4857462], [36.3639095, 57.4831084], [36.3663266, 57.481061], [36.3632504, 57.4795647], [36.3715269, 57.4758238], [36.3775329, 57.4772415], [36.3807557, 57.4746424], [36.3830995, 57.4656624], [36.3795105, 57.4634564], [36.3715269, 57.4685771], [36.3669126, 57.4665684], [36.3760441, 57.4615761], [36.3644955, 57.4532521], [36.3671323, 57.449075], [36.3702085, 57.4506907], [36.3809754, 57.4416653], [36.3808289, 57.4378812], [36.3858095, 57.4341359], [36.392548, 57.4307058], [36.4130563, 57.4301144], [36.4122506, 57.4266445], [36.4058784, 57.4185598], [36.431587, 57.4156016], [36.4476275, 57.4101972], [36.4531208, 57.4092504], [36.4673301, 57.4098421], [36.4677696, 57.4034899], [36.4715783, 57.4036083], [36.4721642, 57.4022272], [36.4693809, 57.3992676], [36.469088, 57.3973734], [36.4783167, 57.3945318], [36.4786097, 57.3962289], [36.4887839, 57.4002687], [36.508533, 57.4204368], [36.5355236, 57.428254], [36.5626252, 57.4238451], [36.5671096, 57.4208007], [36.5835851, 57.424475], [36.5920665, 57.4273092], [36.6065922, 57.4171259], [36.6179983, 57.4131357], [36.6217028, 57.4141858], [36.6184857, 57.4186483], [36.6185832, 57.4249474], [36.6234576, 57.4272044], [36.6262847, 57.4302483], [36.6454898, 57.4307731], [36.6600155, 57.4247375], [36.6642075, 57.4285164], [36.6640125, 57.4297235], [36.6901392, 57.4286738], [36.7009604, 57.4259447], [36.715771, 57.416163], [36.7110481, 57.4116704], [36.7286019, 57.4030028], [36.7404115, 57.3912402], [36.7412167, 57.388884], [36.7494029, 57.3891536], [36.7569069, 57.391384], [36.7560428, 57.3953786], [36.7645928, 57.3988093], [36.7604542, 57.40491], [36.7668213, 57.4038076], [36.7734612, 57.3961383], [36.7826912, 57.3889603], [36.7839301, 57.3892286], [36.7893823, 57.3931351], [36.7899579, 57.394488], [36.7918488, 57.3951949], [36.7918022, 57.3964512], [36.7928429, 57.3977274], [36.7939442, 57.3967091], [36.7974525, 57.3967287], [36.7961986, 57.3982352], [36.7987083, 57.3986719], [36.7971114, 57.4001331], [36.7994835, 57.4005824], [36.8014839, 57.4026437], [36.8067767, 57.4040157], [36.8110672, 57.4037152], [36.816188, 57.4022723], [36.8152428, 57.4009576], [36.8155068, 57.3996845], [36.8205555, 57.4018147], [36.8270419, 57.4020621], [36.8251066, 57.403769], [36.8276781, 57.4057718], [36.8274023, 57.4079721], [36.8313652, 57.4122515], [36.832999, 57.4157296], [36.8404316, 57.4196299], [36.8429158, 57.4226329], [36.8494179, 57.426466], [36.8550894, 57.4330376], [36.8579192, 57.4331286], [36.8577, 57.4337387], [36.8585463, 57.4338657], [36.8635952, 57.4335829], [36.8717508, 57.435191], [36.8825469, 57.4406703], [36.8812804, 57.4426264], [36.8804084, 57.4500832], [36.8830601, 57.4528905], [36.8828035, 57.4556285], [36.8808649, 57.4567017], [36.8857973, 57.4595856], [36.8808789, 57.4619551], [36.8815204, 57.4638414], [36.8798952, 57.4652905], [36.8811355, 57.4667626], [36.8792537, 57.4677746], [36.878997, 57.4704885], [36.8769013, 57.4708335], [36.8757038, 57.4719604], [36.8804859, 57.4742284], [36.8874359, 57.4756297], [36.8912451, 57.4737973], [36.8945864, 57.4742644], [36.8971258, 57.4776777], [36.895923, 57.4802285], [36.8928489, 57.4824917], [36.8803781, 57.4839987], [36.878789, 57.48599], [36.8790056, 57.4910928], [36.8818917, 57.4934616], [36.8921702, 57.4935493], [36.9042435, 57.5028419], [36.9171324, 57.5028419], [36.9244743, 57.5088019], [36.9240945, 57.5112686], [36.9281576, 57.5111537], [36.9304564, 57.5169252], [36.9280649, 57.5174643], [36.9451953, 57.5242394], [36.9510724, 57.5241055], [36.9548983, 57.5334823], [36.949064, 57.540073], [36.9484375, 57.5432673], [36.9436343, 57.5481982], [36.9454094, 57.549879], [36.9492728, 57.549935], [36.9555379, 57.5516718], [36.9566864, 57.5536326], [36.9560599, 57.55817], [36.9610165, 57.5658728], [36.9377674, 57.5721069], [36.9368994, 57.5754181], [36.9452807, 57.5751235], [36.9463499, 57.5783481], [36.9434097, 57.5807843], [36.9518295, 57.5809276], [36.9547697, 57.5785631], [36.959982, 57.576915], [36.9669316, 57.582074], [36.9704065, 57.5807843], [36.976287, 57.5808559], [36.9847068, 57.5839367], [36.9911218, 57.5822173], [37.0073017, 57.5925765], [37.0047015, 57.5980403], [37.0165633, 57.5995251], [37.0159767, 57.6039786], [37.0138748, 57.6079198], [37.0061679, 57.6084828], [37.0051612, 57.6113733], [36.9951329, 57.6110162], [36.9765185, 57.6167219], [36.9765185, 57.6226293], [36.9718551, 57.6233496], [36.957694, 57.6285289], [36.953039, 57.6345964], [36.9400352, 57.6411369], [36.9359996, 57.6491758], [36.9304996, 57.6546191], [36.915436, 57.6558373], [36.9080864, 57.6632097], [36.900912, 57.6659079], [36.8972126, 57.6779574], [36.9021451, 57.6778375], [36.9039387, 57.6784969], [36.8988941, 57.6822128], [36.8990062, 57.6850294], [36.8963158, 57.6871268], [36.8960916, 57.6998282], [36.8923923, 57.699289], [36.888805, 57.700547], [36.8818621, 57.6987626], [36.8774618, 57.7083894], [36.8737401, 57.714006], [36.8774565, 57.7144735], [36.8857358, 57.7138221], [36.8904997, 57.7152323], [36.8934012, 57.7180262], [36.8984808, 57.7169972], [36.9196749, 57.7189617], [36.9387671, 57.7473889], [36.9074179, 57.7679284], [36.9025451, 57.7771875], [36.9108405, 57.7898573], [36.9116252, 57.7999541], [36.9101679, 57.8026421], [36.9114418, 57.8081197], [36.9026081, 57.8158703], [36.894471, 57.8165674], [36.8936638, 57.8185735], [36.886607, 57.8197829], [36.8867947, 57.8297182], [36.8846061, 57.8315631], [36.8853235, 57.8377696], [36.8877449, 57.8412544], [36.8812388, 57.8450602], [36.8812879, 57.8480797], [36.8917805, 57.8522793], [36.8933051, 57.8576712], [36.8895385, 57.8580052], [36.8849172, 57.8658425], [36.9030795, 57.8735339], [36.9066667, 57.8731523], [36.9124063, 57.8770152], [36.9185046, 57.8836907], [36.9184149, 57.8866943], [36.9419873, 57.8945651], [36.9699388, 57.9016165], [36.9904066, 57.8998833], [36.9999566, 57.8814717], [37.0090247, 57.8834246], [37.0164858, 57.8686534], [37.052049, 57.8677975], [37.0542586, 57.8610161], [37.0618833, 57.8607835], [37.068914, 57.8626154], [37.081397, 57.874215], [37.1027759, 57.8749017], [37.1067934, 57.8814629], [37.1157306, 57.8848918], [37.1282554, 57.8872916], [37.1326173, 57.8869254], [37.1357165, 57.8848507], [37.1677419, 57.8817384], [37.1716446, 57.8806399], [37.173022, 57.8763675], [37.191847, 57.8753909], [37.1932244, 57.8790531], [37.1992232, 57.8788214], [37.2232117, 57.8891908], [37.2231759, 57.9032407], [37.2084892, 57.9139231], [37.209359, 57.9176432], [37.21352, 57.9196246], [37.2158158, 57.9227489], [37.2191159, 57.9242728], [37.222416, 57.9296822], [37.2208377, 57.930825], [37.2264335, 57.931663], [37.2331772, 57.9304441], [37.2366208, 57.9331103], [37.2419296, 57.9337959], [37.2435079, 57.9376806], [37.2518299, 57.9431642], [37.2568027, 57.9438969], [37.2601519, 57.9543572], [37.2475255, 57.9554992], [37.247382, 57.959686], [37.2447993, 57.9630351], [37.2356561, 57.9648242], [37.2260822, 57.9651053], [37.2203227, 57.9670381], [37.2239077, 57.9730226], [37.2370634, 57.9682096], [37.2532085, 57.9734337], [37.2602793, 57.9730928], [37.2621212, 57.9712077], [37.2683577, 57.9707292], [37.2709289, 57.9729499], [37.278716, 57.9730668], [37.2803321, 57.9753653], [37.2840788, 57.9759107], [37.2873846, 57.9753263], [37.2955537, 57.9772897], [37.2994913, 57.9766352], [37.3022251, 57.9806065], [37.3083069, 57.9797515], [37.321354, 57.9868244], [37.3252053, 57.9863123], [37.3309336, 57.9912481], [37.3466143, 57.9918558], [37.3540078, 57.9900455], [37.3521113, 57.9866566], [37.3476914, 57.9822364], [37.3494108, 57.973396], [37.3519895, 57.9698352], [37.3561642, 57.9687303], [37.3607072, 57.9706949], [37.3667238, 57.9673798], [37.3599712, 57.9566974], [37.359112, 57.9515405], [37.3619362, 57.9492076], [37.3675843, 57.947366], [37.3756267, 57.9474889], [37.3833618, 57.9522776], [37.3920797, 57.9478575], [37.3903608, 57.9471209], [37.3870455, 57.9487169], [37.3829019, 57.9471291], [37.3873973, 57.941936], [37.390219, 57.940518], [37.4075515, 57.939816], [37.406078, 57.9317731], [37.4031265, 57.9253924], [37.4144894, 57.9185126], [37.4244351, 57.9153203], [37.4238212, 57.9138469], [37.4251719, 57.9128646], [37.4609024, 57.9072171], [37.4609026, 57.9040248], [37.4616393, 57.902797], [37.4701115, 57.9007098], [37.4730584, 57.9009554], [37.4866871, 57.905253], [37.4881604, 57.9072176], [37.4919666, 57.9095506], [37.4932898, 57.9085337], [37.4925807, 57.9061126], [37.4833721, 57.9014467], [37.4854595, 57.9000961], [37.4847229, 57.8988683], [37.4752686, 57.8976403], [37.47048, 57.8977629], [37.4650774, 57.8998502], [37.4608414, 57.8997274], [37.4533513, 57.9046386], [37.4447563, 57.9072169], [37.4303906, 57.9073394], [37.4214272, 57.9095494], [37.4161475, 57.9099176], [37.4119727, 57.9120049], [37.4020775, 57.911011], [37.399081, 57.9025504], [37.3962571, 57.8994808], [37.3959325, 57.8974634], [37.3909161, 57.8983756], [37.3873551, 57.9023047], [37.3839171, 57.9029185], [37.3751995, 57.9013221], [37.3744628, 57.9016905], [37.3743399, 57.9040234], [37.3732348, 57.9050057], [37.3648854, 57.9053739], [37.3608336, 57.9042688], [37.3585007, 57.9050054], [37.3562907, 57.9031636], [37.3491224, 57.8910892], [37.3425139, 57.8881699], [37.3379592, 57.8850757], [37.33033, 57.8854603], [37.3312441, 57.8793432], [37.3341649, 57.8762002], [37.3664759, 57.8770498], [37.381321, 57.884145], [37.3975593, 57.8845538], [37.4032568, 57.8809405], [37.4118517, 57.8803267], [37.4163951, 57.8732053], [37.4229027, 57.8724687], [37.4276915, 57.8700131], [37.4338307, 57.8692765], [37.4281827, 57.8676802], [37.4197109, 57.8625232], [37.4119756, 57.8617864], [37.4011368, 57.8562203], [37.4031356, 57.8538052], [37.4067736, 57.8523824], [37.3911645, 57.8461042], [37.3799674, 57.837475], [37.3789736, 57.8271917], [37.3802192, 57.8204457], [37.437394, 57.8215136], [37.4478311, 57.8154974], [37.4537246, 57.8159886], [37.4658805, 57.8119369], [37.4813513, 57.8105865], [37.4889265, 57.8114976], [37.4813518, 57.8018689], [37.4817203, 57.7991676], [37.4840533, 57.7964664], [37.4906839, 57.7937653], [37.4973142, 57.7937654], [37.5012435, 57.7899592], [37.5016119, 57.7870123], [37.4994022, 57.7811187], [37.5073832, 57.7814871], [37.5147503, 57.7801366], [37.5186794, 57.7785406], [37.5226087, 57.7738748], [37.5302214, 57.772647], [37.5338438, 57.768718], [37.547841, 57.7706828], [37.5498058, 57.7669994], [37.5597023, 57.7665233], [37.5561911, 57.7579134], [37.5510344, 57.7520197], [37.5610965, 57.7391194], [37.5851113, 57.7310373], [37.6491681, 57.7030034], [37.6427051, 57.6872355], [37.6506939, 57.6865829], [37.6366201, 57.6788649], [37.6423285, 57.6758951], [37.6360668, 57.672457], [37.6375403, 57.6697558], [37.637172, 57.6681597], [37.630542, 57.6631254], [37.6318927, 57.6614065], [37.635699, 57.6614065], [37.6442938, 57.6633712], [37.6533799, 57.6606701], [37.6603789, 57.6566183], [37.6632029, 57.6573551], [37.664799, 57.65625], [37.668237, 57.6566185], [37.6767093, 57.6542857], [37.6843216, 57.6571098], [37.6913206, 57.6524442], [37.6911979, 57.6508479], [37.6962321, 57.6502341], [37.6977056, 57.6483924], [37.7007752, 57.6476557], [37.7013892, 57.6456912], [37.7076515, 57.6409027], [37.714773, 57.6394294], [37.724596, 57.6357461], [37.7285253, 57.6320626], [37.7279116, 57.6276424], [37.728894, 57.6266601], [37.7327003, 57.6258007], [37.736998, 57.6210121], [37.7501358, 57.621258], [37.7545564, 57.6162238], [37.757012, 57.6158556], [37.7602043, 57.617329], [37.7736493, 57.6138913], [37.7786833, 57.6174521], [37.7785603, 57.6203989], [37.7834717, 57.6215041], [37.7982061, 57.6149967], [37.801644, 57.6158563], [37.8080005, 57.6254262], [37.8107295, 57.6246969], [37.8147816, 57.6217501], [37.8206865, 57.62016], [37.8160097, 57.616716], [37.8137998, 57.6125413], [37.8142911, 57.6083667], [37.8187115, 57.6068933], [37.8190801, 57.6001402], [37.8235005, 57.5978074], [37.8259782, 57.5952343], [37.828262, 57.5964882], [37.8332532, 57.5948431], [37.8364107, 57.5960676], [37.8379944, 57.5942167], [37.8376361, 57.5930815], [37.8393338, 57.5905355], [37.8393338, 57.5883401], [37.8407872, 57.5868814], [37.8460029, 57.5864611], [37.8533561, 57.5882183], [37.8576699, 57.5796996], [37.8494497, 57.5792713], [37.8488541, 57.5785791], [37.8515893, 57.5771939], [37.8518641, 57.5753497], [37.8479448, 57.5742189], [37.8451221, 57.5747182], [37.838068, 57.5736915], [37.8346969, 57.5691607], [37.8390281, 57.5653424], [37.8428582, 57.5661831], [37.8446908, 57.5653159], [37.8411665, 57.5642382], [37.8425303, 57.5620256], [37.8409355, 57.5609389], [37.8358169, 57.5600016], [37.8328609, 57.5565483], [37.8286732, 57.5557747], [37.8297228, 57.5533388], [37.8232723, 57.5515786], [37.8233919, 57.5484594], [37.8252819, 57.545986], [37.8326602, 57.5443819], [37.8304253, 57.5407308], [37.8333054, 57.5384628], [37.8323128, 57.5330399], [37.8339499, 57.5302381], [37.8174421, 57.5239558], [37.8195002, 57.5228401], [37.8207021, 57.520332], [37.8203858, 57.5180306], [37.8189402, 57.5160455], [37.8214494, 57.5129711], [37.8182326, 57.5114211], [37.8127072, 57.5112987], [37.8170061, 57.5083876], [37.8132354, 57.5046132], [37.8094447, 57.5041807], [37.8005823, 57.501326], [37.8038145, 57.4966555], [37.8102448, 57.4940538], [37.8107361, 57.4918437], [37.8144197, 57.4902476], [37.823291, 57.4907869], [37.8267394, 57.4927476], [37.8284636, 57.4913912], [37.8378715, 57.4898796], [37.8357853, 57.4870532], [37.8363601, 57.4845012], [37.8446813, 57.4818281], [37.8407581, 57.4780666], [37.8487619, 57.4755171], [37.8505642, 57.47432], [37.8504229, 57.4724389], [37.8522958, 57.4708427], [37.8439911, 57.4682582], [37.8438894, 57.4615166], [37.8382414, 57.4605343], [37.8387326, 57.4591837], [37.8370137, 57.4583242], [37.830032, 57.4606176], [37.8285415, 57.4586923], [37.8268515, 57.4579183], [37.8273152, 57.4561458], [37.8262903, 57.4536077], [37.8046768, 57.4478527], [37.8043095, 57.4436146], [37.8051116, 57.4402179], [37.8070653, 57.4398303], [37.8080316, 57.441002], [37.811799, 57.4405873], [37.8161413, 57.4418117], [37.8241731, 57.4365618], [37.8281171, 57.4363384], [37.8291204, 57.4348486], [37.8332721, 57.4329678], [37.8386346, 57.4324649], [37.8446805, 57.4330589], [37.8457407, 57.4322409], [37.8447159, 57.4309473], [37.845352, 57.4300341], [37.8539041, 57.4300151], [37.8578975, 57.428341], [37.8644706, 57.4277321], [37.8673684, 57.4249734], [37.8662376, 57.4228042], [37.8666263, 57.4216625], [37.8682873, 57.421301], [37.8680046, 57.4204066], [37.8719272, 57.4164483], [37.8709377, 57.4152303], [37.8716445, 57.4133651], [37.8752491, 57.4119757], [37.8755318, 57.4105672], [37.878465, 57.4081497], [37.8826351, 57.4062081], [37.8711144, 57.3991638], [37.9130831, 57.3826914], [37.9474018, 57.3729919], [37.9489981, 57.3702907], [37.9542166, 57.3674668], [37.955199, 57.3636605], [37.9545852, 57.3614504], [37.9574094, 57.3585036], [37.9602949, 57.3576442], [37.9617684, 57.3553113], [37.9704862, 57.3539608], [37.975389, 57.3553217], [37.9813392, 57.3528174], [37.9849191, 57.3502691], [37.9893854, 57.3490942], [37.9919072, 57.3455449], [37.9935958, 57.3453483], [37.9968404, 57.3428915], [38.0018914, 57.3433337], [38.0050648, 57.3408914], [38.0167971, 57.3362861], [38.0412777, 57.3521326], [38.0505022, 57.3472519], [38.0646879, 57.3421825], [38.0757331, 57.3349146], [38.0890671, 57.3319841], [38.1164879, 57.331665], [38.153589, 57.3385313], [38.1586458, 57.3399102], [38.1612557, 57.3414663], [38.165529, 57.3421766], [38.1683832, 57.35335], [38.1704089, 57.3567266], [38.2299589, 57.3608408], [38.2534412, 57.3655069], [38.2747475, 57.3679988], [38.2841513, 57.3658507], [38.2819963, 57.3628219], [38.286713, 57.3626159], [38.2918067, 57.3599039], [38.2931781, 57.3571564], [38.3025819, 57.3586358], [38.3097141, 57.3471626], [38.3206375, 57.3113287], [38.3253867, 57.3079139], [38.3247989, 57.3031341], [38.3268583, 57.3009324], [38.32641, 57.2822606], [38.3193501, 57.2782086], [38.3124746, 57.2705345], [38.310541, 57.2660528], [38.3129968, 57.2644567], [38.3140405, 57.2621852], [38.3134268, 57.2599137], [38.3048931, 57.2612642], [38.302192, 57.2596679], [38.2995521, 57.259361], [38.2756094, 57.2582555], [38.2675058, 57.2563522], [38.259402, 57.2559838], [38.2545523, 57.2524229], [38.2516056, 57.2486166], [38.2499484, 57.2429685], [38.2477829, 57.2399907], [38.2358898, 57.2382411], [38.2277862, 57.2354169], [38.2147713, 57.2330839], [38.2025546, 57.2284792], [38.1951876, 57.2278038], [38.1931616, 57.2282335], [38.1902146, 57.2304436], [38.1875748, 57.2307505], [38.1803306, 57.2293998], [38.1716128, 57.2302591], [38.1700781, 57.2301363], [38.1642767, 57.2266369], [38.1581989, 57.2265754], [38.1497269, 57.225286], [38.1550384, 57.2043514], [38.1616225, 57.1709925], [38.1674323, 57.1704182], [38.186031, 57.1637083], [38.189843, 57.1638081], [38.1935503, 57.1611752], [38.2043312, 57.1592961], [38.2049409, 57.1547147], [38.2086987, 57.1508157], [38.2085974, 57.1488046], [38.2068896, 57.1483941], [38.2052979, 57.1463356], [38.2065914, 57.1410722], [38.2083521, 57.1395515], [38.1973341, 57.1378797], [38.1999295, 57.1324523], [38.2060697, 57.1331508], [38.2086835, 57.1310049], [38.2100131, 57.1253226], [38.2063317, 57.123675], [38.2083237, 57.1204109], [38.2153301, 57.1207153], [38.2170986, 57.114847], [38.2210891, 57.113972], [38.2223769, 57.112686], [38.2355508, 57.116369], [38.2427185, 57.1173043], [38.243927, 57.1148255], [38.2477985, 57.1135161], [38.2462965, 57.1113393], [38.2492087, 57.1111427], [38.247694, 57.1102703], [38.2492623, 57.1098742], [38.2465005, 57.1090004], [38.2477858, 57.1080629], [38.2479222, 57.1067253], [38.2456016, 57.1059345], [38.2467898, 57.1046846], [38.2460072, 57.1036641], [38.2440021, 57.1033319], [38.2437905, 57.1019689], [38.2454668, 57.1009598], [38.245454, 57.1000525], [38.2476446, 57.1000622], [38.2488023, 57.0975142], [38.2479876, 57.0965489], [38.2509812, 57.0950892], [38.2514601, 57.094438], [38.2507284, 57.0938818], [38.2527832, 57.093825], [38.2520714, 57.0923076], [38.2432769, 57.0896512], [38.2419739, 57.0917176], [38.2304835, 57.0926993], [38.2219294, 57.0825629], [38.2175231, 57.0795777], [38.2092456, 57.0815611], [38.2045247, 57.0802579], [38.2054472, 57.0773321], [38.2053931, 57.0732155], [38.2090271, 57.0728519], [38.214909, 57.0737117], [38.226366, 57.0773965], [38.2304137, 57.0779172], [38.238699, 57.0814161], [38.2438197, 57.0768973], [38.2525653, 57.0739168], [38.2540602, 57.0721825], [38.2540002, 57.0696715], [38.2529263, 57.0687616], [38.2536162, 57.0684094], [38.2501367, 57.0659209], [38.2491769, 57.0643324], [38.2516845, 57.063866], [38.2499028, 57.0621862], [38.2551858, 57.0601807], [38.2537035, 57.059034], [38.2559291, 57.0580978], [38.2520537, 57.055726], [38.249936, 57.0522024], [38.252569, 57.0490624], [38.2548421, 57.0479662], [38.2556154, 57.0451364], [38.2567285, 57.044977], [38.256998, 57.0431349], [38.2581814, 57.0421342], [38.2573544, 57.0410435], [38.2520743, 57.038485], [38.2529556, 57.0377293], [38.2498511, 57.0358044], [38.2494171, 57.0333366], [38.2518659, 57.0286054], [38.248632, 57.0284332], [38.2492648, 57.0276106], [38.2484876, 57.0264986], [38.2447478, 57.0250339], [38.243772, 57.0253931], [38.2447856, 57.0268684], [38.2431846, 57.0272822], [38.2432038, 57.0253911], [38.2405755, 57.0244424], [38.2413663, 57.0227093], [38.2390937, 57.0234693], [38.2374379, 57.0220163], [38.2354666, 57.0230329], [38.2318443, 57.0229198], [38.2334065, 57.0221012], [38.2324463, 57.0214268], [38.2307012, 57.0226502], [38.227856, 57.0220225], [38.2280916, 57.0209195], [38.2267651, 57.01997], [38.2277204, 57.017372], [38.2305542, 57.0150662], [38.2339715, 57.0141823], [38.2323092, 57.0130109], [38.2355898, 57.0120141], [38.2361918, 57.0127416], [38.2374159, 57.0123916], [38.2372827, 57.0084593], [38.2380514, 57.0060807], [38.2374077, 56.9993017], [38.22602, 56.9901542], [38.2238712, 56.9915048], [38.2202492, 56.9896015], [38.2232575, 56.9872073], [38.2206792, 56.9846902], [38.2101198, 56.9848127], [38.1932368, 56.9867771], [38.1678821, 56.9851191], [38.1542342, 56.9852562], [38.1532712, 56.9780587], [38.1514296, 56.9748664], [38.1513523, 56.9691463], [38.1528778, 56.9668906], [38.1460327, 56.9675457], [38.1413715, 56.9671007], [38.1299555, 56.9640931], [38.1299446, 56.9628282], [38.1366672, 56.9587621], [38.1451676, 56.9578271], [38.1545699, 56.959175], [38.1616999, 56.9567326], [38.1683898, 56.9585713], [38.1806508, 56.9578534], [38.1826563, 56.9565673], [38.1853649, 56.9561184], [38.1862141, 56.9546678], [38.1904161, 56.9517882], [38.1961221, 56.9512545], [38.1985285, 56.9492409], [38.1978842, 56.9475153], [38.1938431, 56.9461476], [38.1910478, 56.9397596], [38.1811404, 56.934123], [38.1797887, 56.93264], [38.1807346, 56.9248842], [38.1847052, 56.9227172], [38.1860761, 56.9209148], [38.183693, 56.9180777], [38.1843881, 56.9148375], [38.1917555, 56.9095728], [38.1923782, 56.9046603], [38.1941995, 56.9025335], [38.1895762, 56.9012092], [38.1793617, 56.8940186], [38.179427, 56.8926397], [38.1661008, 56.8892161], [38.1547111, 56.8888472], [38.1539916, 56.8874358], [38.1504208, 56.8864736], [38.1362694, 56.8863373], [38.1292708, 56.883022], [38.1257716, 56.8805049], [38.108268, 56.87657], [38.1090784, 56.8720285], [38.1062182, 56.8702508], [38.1017514, 56.8712161], [38.1008779, 56.8665406], [38.101152, 56.8608422], [38.1000713, 56.8553097], [38.1029032, 56.8539806], [38.1055679, 56.8536808], [38.1091522, 56.8562963], [38.1185593, 56.8568075], [38.1221813, 56.8584037], [38.1244528, 56.8585265], [38.1350739, 56.8518964], [38.1428708, 56.8520807], [38.1466772, 56.8487042], [38.150238, 56.8475378], [38.1521719, 56.8458189], [38.121047, 56.8310842], [38.1108868, 56.8272777], [38.1142637, 56.8202177], [38.1184077, 56.8208931], [38.119697, 56.8184988], [38.1227052, 56.8199108], [38.1577377, 56.8194731], [38.1721509, 56.8289645], [38.1817331, 56.8282611], [38.1854782, 56.8248846], [38.1916175, 56.8232271], [38.1867677, 56.8199733], [38.1894077, 56.8171492], [38.2089301, 56.8205875], [38.2113858, 56.8218768], [38.2123679, 56.8245166], [38.2286981, 56.8245169], [38.2302944, 56.8235961], [38.2324433, 56.8208949], [38.2324434, 56.8178252], [38.2343773, 56.8166588], [38.2378153, 56.8164133], [38.2403939, 56.8144488], [38.2402712, 56.8106425], [38.2382454, 56.808678], [38.2317995, 56.8056696], [38.2324748, 56.8043804], [38.2403331, 56.8019863], [38.2450242, 56.7974305], [38.2442987, 56.7934634], [38.2507163, 56.7653759], [38.241535, 56.760653], [38.2175572, 56.7718949], [38.2060838, 56.7725115], [38.1971457, 56.7683303], [38.1641733, 56.7678386], [38.1563227, 56.7727552], [38.1390515, 56.7714032], [38.135014, 56.7691907], [38.1289579, 56.7700512], [38.1206587, 56.7646424], [38.1092193, 56.7636589], [38.1125838, 56.7615689], [38.1038361, 56.7597247], [38.0840975, 56.7599706], [38.0674991, 56.7614459], [38.0677303, 56.7600074], [38.060104, 56.7525067], [38.061499, 56.7500896], [38.0634089, 56.740009], [38.0455058, 56.7336674], [38.0343287, 56.727227], [38.0281087, 56.7140029], [38.0327563, 56.7141081], [38.0260247, 56.7054079], [38.027442, 56.7014199], [38.0498997, 56.6925292], [38.0205525, 56.676758], [38.0159516, 56.6788294], [38.0120992, 56.6788063], [37.9969195, 56.6928226], [37.9822771, 56.701414], [37.9758172, 56.7029113], [37.9738074, 56.7010987], [37.9324641, 56.6936897], [37.9287317, 56.6910095], [37.9264348, 56.690773], [37.9252864, 56.688329], [37.916099, 56.6854908], [37.9094955, 56.6815483], [37.8960015, 56.6798135], [37.8912643, 56.681706], [37.8461886, 56.6582007], [37.8187699, 56.6572539], [37.8101567, 56.6589897], [37.804271, 56.6614355], [37.7970933, 56.6626978], [37.7922125, 56.66183], [37.7912076, 56.6604099], [37.7874753, 56.6611988], [37.7834558, 56.6589108], [37.7810154, 56.6593053], [37.7792927, 56.6580429], [37.7762781, 56.6580429], [37.7731199, 56.6564648], [37.7617792, 56.6567805], [37.7581904, 56.6543343], [37.754458, 56.657964], [37.7576162, 56.6583585], [37.7561806, 56.6592264], [37.7525918, 56.6589897], [37.749003, 56.6563859], [37.7481417, 56.6529928], [37.7535967, 56.6492049], [37.7474239, 56.646995], [37.7468497, 56.6483367], [37.7452706, 56.6482578], [37.7454142, 56.6463636], [37.7418253, 56.6389438], [37.7461319, 56.6382333], [37.7484288, 56.635786], [37.7468497, 56.634286], [37.7436915, 56.6339702], [37.7423995, 56.6251265], [37.7455692, 56.6239761], [37.7454517, 56.6224172], [37.7464706, 56.6216165], [37.7465797, 56.6200249], [37.7500184, 56.6196145], [37.7539139, 56.6159009], [37.754687, 56.6134148], [37.7596241, 56.6127536], [37.7605389, 56.609787], [37.7658514, 56.6072938], [37.7652874, 56.6051809], [37.7710376, 56.5999058], [37.7748426, 56.6007166], [37.777283, 56.5938411], [37.7811589, 56.5938411], [37.7831687, 56.5919442], [37.7802976, 56.5862529], [37.7765652, 56.5823], [37.781446, 56.5796119], [37.7800105, 56.5783468], [37.7612555, 56.5702496], [37.7572863, 56.5657033], [37.7498075, 56.5629493], [37.7465114, 56.5591983], [37.7435753, 56.5589747], [37.736764, 56.5553524], [37.731183, 56.5558017], [37.7299409, 56.5551897], [37.7295937, 56.5534916], [37.7236285, 56.5501784], [37.7197268, 56.5501373], [37.719804, 56.5484328], [37.7162237, 56.547893], [37.717638, 56.5508731], [37.7156148, 56.5516092], [37.7105152, 56.5505714], [37.7100171, 56.55017], [37.710555, 56.5487165], [37.7093966, 56.5480698], [37.7071492, 56.5494697], [37.7084694, 56.5511919], [37.7068596, 56.551026], [37.704654, 56.5479887], [37.7044023, 56.5457103], [37.7034072, 56.5445894], [37.7013134, 56.5437768], [37.7000058, 56.5422654], [37.6962562, 56.5420526], [37.6960591, 56.5363143], [37.6943416, 56.5370088], [37.6950147, 56.5381789], [37.694601, 56.5391437], [37.6922275, 56.5398851], [37.6876364, 56.5348019], [37.6813397, 56.5308819], [37.6807771, 56.529384], [37.6820905, 56.5281184], [37.6788632, 56.5288417], [37.6774135, 56.5242234], [37.6740978, 56.5231963], [37.6756926, 56.5222839], [37.678568, 56.5224826], [37.6780168, 56.5215826], [37.6641461, 56.5193016], [37.6619417, 56.5167297], [37.6558416, 56.514874], [37.6564035, 56.5097477], [37.6548232, 56.506189], [37.6467605, 56.5060297], [37.6465588, 56.507794], [37.6427695, 56.5087564], [37.6415365, 56.5079536], [37.6427002, 56.505465], [37.6413555, 56.5044362], [37.638143, 56.5080265], [37.6384951, 56.5100962], [37.6352661, 56.5114974], [37.6316717, 56.5119056], [37.6328381, 56.5128994], [37.6354619, 56.5124273], [37.6359461, 56.5130142], [37.5964489, 56.5140473], [37.559781, 56.5319925], [37.5599855, 56.5357245], [37.5589008, 56.5354302], [37.5584551, 56.5371513], [37.5564002, 56.5373245], [37.5572375, 56.538651], [37.5572541, 56.5428013], [37.5051493, 56.5373684], [37.4859065, 56.5326628], [37.461197, 56.5282308], [37.4554746, 56.5278652], [37.44859, 56.5238389], [37.4399755, 56.5232632], [37.4377113, 56.5195358], [37.4255236, 56.5183062], [37.4217204, 56.5152615], [37.4101774, 56.5185572], [37.4044384, 56.5187106], [37.3798164, 56.5617367], [37.3729057, 56.5697646], [37.24391, 56.6642789], [37.2295842, 56.6730259], [37.1751984, 56.6940431], [37.1700809, 56.6924255], [37.1670698, 56.6939629], [37.1655728, 56.693734], [37.1542957, 56.6905627], [37.1538004, 56.6895839], [37.1586433, 56.6859615], [37.1592751, 56.6821648], [37.1552056, 56.682017], [37.1537077, 56.6784312], [37.1504829, 56.6789518], [37.1431822, 56.6782795], [37.1439519, 56.6771743], [37.1465975, 56.676401], [37.1448265, 56.6750243], [37.1401662, 56.6746495], [37.1404756, 56.6776756], [37.1371517, 56.6775805], [37.1355917, 56.6764172], [37.1348116, 56.6729137], [37.1361906, 56.6707701], [37.1315431, 56.6708242], [37.1297262, 56.6681456], [37.1313768, 56.6667648], [37.1347357, 56.6664866], [37.1401133, 56.6618907], [37.1429205, 56.6627778], [37.1431267, 56.665336], [37.1460784, 56.6666145], [37.1472705, 56.6663742], [37.146763, 56.6645713], [37.1488187, 56.6629298], [37.1556925, 56.6617692], [37.1587318, 56.6622705], [37.1597294, 56.6613418], [37.1594671, 56.6582141], [37.1569285, 56.655916], [37.1591022, 56.6519861], [37.157952, 56.6518017], [37.1524682, 56.6543716], [37.149564, 56.6548835], [37.1481795, 56.6541127], [37.148682, 56.653328], [37.15352, 56.6508411], [37.1544443, 56.6499663], [37.1542617, 56.6489768], [37.1430005, 56.6493533], [37.1338856, 56.6465708], [37.1285777, 56.6464881], [37.1225085, 56.6445187], [37.1224194, 56.6418637], [37.1213283, 56.6410808], [37.1149593, 56.6404261], [37.1201462, 56.633776], [37.1206509, 56.6320398], [37.1280147, 56.6269772], [37.1281583, 56.623803], [37.1316243, 56.6228751], [37.1339409, 56.6205078], [37.1340104, 56.6185586], [37.1311081, 56.6170741], [37.1277033, 56.6134154], [37.1349241, 56.6109958], [37.1352594, 56.6101459], [37.1334335, 56.6076528], [37.1291156, 56.6058322], [37.1262907, 56.6016119], [37.1339438, 56.5999543], [37.1444898, 56.5947984], [37.1428303, 56.5931528], [37.1478516, 56.5901943], [37.1475785, 56.5868672], [37.1440491, 56.5838828], [37.1431557, 56.5821698], [37.1381702, 56.5802524], [37.1393467, 56.5778415], [37.1392031, 56.5763967], [37.133346, 56.5755574], [37.1325406, 56.5730145], [37.1305438, 56.571477], [37.1262326, 56.5710923], [37.1227248, 56.5685034], [37.1214831, 56.5653661], [37.1219719, 56.5599719], [37.1209996, 56.5585729], [37.1182725, 56.5578776], [37.1177258, 56.5550484], [37.1051753, 56.5517809], [37.1008301, 56.5496785], [37.0988061, 56.5455062], [37.1010215, 56.5455246], [37.1023537, 56.5484334], [37.1037, 56.5490014], [37.1053147, 56.5486791], [37.1059048, 56.5470527], [37.1017212, 56.5430372], [37.0986502, 56.5421562], [37.0979578, 56.5402478], [37.0937498, 56.5400499], [37.0915866, 56.5408626], [37.0907264, 56.5424973], [37.0822676, 56.5450688], [37.0718349, 56.545359], [37.0712488, 56.5464295], [37.0710125, 56.544326], [37.0743552, 56.5424544], [37.0726397, 56.5397968], [37.0667626, 56.5367448], [37.0659413, 56.5352979], [37.0588483, 56.5312525], [37.0538871, 56.5313956], [37.0555477, 56.526247], [37.065958, 56.5264623], [37.0752469, 56.5300835], [37.08234, 56.5303468], [37.0894736, 56.5335213], [37.0999358, 56.5326067], [37.1028081, 56.5263428], [37.1015243, 56.5235498], [37.0990209, 56.5224797], [37.0951868, 56.5131993], [37.0973727, 56.5113525], [37.075371, 56.5057277], [37.0725734, 56.5029366], [37.063238, 56.5007214], [37.0415469, 56.5040455], [37.0336818, 56.5044085], [37.0329714, 56.4967752], [37.0238102, 56.4963495], [37.0219136, 56.4948634], [37.0168305, 56.4948705], [37.0168286, 56.4858885], [37.0149899, 56.4841953], [37.0150618, 56.482289], [37.0074411, 56.4811774], [37.0039718, 56.4787045], [37.002569, 56.4786964], [37.0035484, 56.4773521], [37.00133, 56.4758564], [37.001098, 56.4747767], [36.9933358, 56.4738362], [36.9932578, 56.4709677], [36.9891372, 56.4689737], [36.985904, 56.4661108], [36.9786929, 56.4637996], [36.9776029, 56.4623093], [36.9829982, 56.4587474], [36.9839165, 56.4572935], [36.9875973, 56.4556262], [36.9880036, 56.4537448], [36.9911143, 56.4534738], [36.9992697, 56.4505536], [37.0040883, 56.4516326], [37.0086198, 56.4500538], [37.0062083, 56.4471425], [37.0067003, 56.4424361], [37.0078987, 56.4410978], [37.0102644, 56.4396531], [37.0123955, 56.4396065], [37.0125703, 56.4387309], [37.0148122, 56.4384078], [37.0165069, 56.4366553], [37.0197614, 56.4358027], [37.0216765, 56.4321232], [37.0262618, 56.4308421], [37.0288317, 56.4180613], [37.0323485, 56.4177257], [37.0237755, 56.4081832], [37.0310706, 56.4072059], [37.0265997, 56.4019125], [37.0451463, 56.4020121], [37.0452478, 56.4009585], [37.0428896, 56.3998945], [37.031989, 56.3979048], [37.0290433, 56.3936279], [37.0234715, 56.3926125], [37.0227585, 56.3938409], [37.0189264, 56.3935572], [37.0183302, 56.3947538], [37.0130177, 56.3939639], [37.0245285, 56.380339], [37.0197154, 56.3784793], [37.0184727, 56.376021], [37.0156942, 56.3732379], [37.0160867, 56.3702027], [37.0188362, 56.3701912], [37.0217944, 56.3683094], [37.0244906, 56.365143], [37.0182243, 56.3646389], [37.017876, 56.3635495], [37.0149508, 56.3641114], [37.0151619, 56.3634665], [37.0138253, 56.3631211], [37.0114425, 56.3638035], [37.0121323, 56.3645624], [37.0106727, 56.3641307], [37.0105647, 56.3632739], [37.0077889, 56.3641355], [37.0046658, 56.36319], [37.0047249, 56.364319], [37.0037606, 56.364413], [37.0030616, 56.3634663], [37.0022281, 56.3649498], [37.0003558, 56.3645287], [37.0010959, 56.363376], [36.9993061, 56.3607763], [36.9977657, 56.3549397], [37.0036532, 56.3507739], [37.0121197, 56.3474222], [37.0163393, 56.3483774], [37.0174802, 56.3493264], [37.0195866, 56.3477722], [37.0222734, 56.3438211], [37.0145375, 56.3420097], [37.0165834, 56.3396603], [37.0057999, 56.3347396], [37.0017674, 56.334606], [36.996073, 56.3369366], [36.9849314, 56.3380041], [36.981746, 56.3405002], [36.9768224, 56.3396052], [36.9719335, 56.3333852], [36.9724878, 56.3321751], [36.9755587, 56.329984], [36.9962019, 56.325792], [36.9935462, 56.3208774], [36.999852, 56.3185041], [37.0101075, 56.3180181], [37.0075662, 56.3101085], [37.0179032, 56.3088623], [37.0125419, 56.305247], [37.0083382, 56.305699], [37.0021213, 56.3037234], [37.0015124, 56.3017843], [36.9977179, 56.3005068], [36.9938302, 56.3030383], [36.9939776, 56.3041733], [36.9831581, 56.308317], [36.9757407, 56.312524], [36.9701823, 56.3106955], [36.9651874, 56.3117448], [36.954064, 56.3158214], [36.9486155, 56.311434], [36.9457374, 56.3115505], [36.9456294, 56.313557], [36.9401794, 56.312972], [36.934218, 56.3094751], [36.9342137, 56.3082276], [36.9191748, 56.3052702], [36.9170247, 56.3077615], [36.9157465, 56.3064665], [36.9160872, 56.3054974], [36.9150991, 56.3042375], [36.9078492, 56.2995632], [36.9112438, 56.2988457], [36.9185049, 56.2988996], [36.9206916, 56.2922457], [36.909733, 56.2916859], [36.9081573, 56.2907482], [36.9056631, 56.2910791], [36.9056685, 56.2900937], [36.900703, 56.2902099], [36.9001752, 56.2893607], [36.8982737, 56.2890753], [36.8927987, 56.2907544], [36.8889381, 56.2894536], [36.8882774, 56.2907732], [36.8851925, 56.2893984], [36.8826043, 56.2902745], [36.8835981, 56.288058], [36.8817293, 56.2851572], [36.8818219, 56.2841255], [36.8792187, 56.2830642], [36.8780947, 56.2786115], [36.8789487, 56.2783615], [36.879718, 56.2760564], [36.8837605, 56.2764785], [36.882875, 56.2747634], [36.8846259, 56.2719529], [36.8785179, 56.2711141], [36.8803886, 56.2672168], [36.8779832, 56.2642726], [36.8779308, 56.2570462], [36.8747462, 56.2568986], [36.871745, 56.259614], [36.8679413, 56.2558522], [36.8699558, 56.2537599], [36.8698461, 56.2504441], [36.8650664, 56.2484575], [36.8624461, 56.2459797], [36.8652981, 56.2441315], [36.8664057, 56.2402573], [36.8645248, 56.2387149], [36.8638973, 56.2338227], [36.8681194, 56.2311004], [36.8680467, 56.227282], [36.8545601, 56.2310074], [36.8530579, 56.2293914], [36.8543784, 56.2278972], [36.8098595, 56.2265033], [36.8004053, 56.2182746], [36.7685598, 56.2175362], [36.7651476, 56.2134143], [36.7567816, 56.2135465], [36.7460479, 56.2074515], [36.746679, 56.2049166], [36.7424959, 56.2016217], [36.7478079, 56.2009089], [36.7478932, 56.1994703], [36.7493332, 56.1983086], [36.7513239, 56.1907507], [36.7462241, 56.1888458], [36.7482715, 56.186637], [36.741074, 56.1852693], [36.7424135, 56.1833456], [36.7399936, 56.1825733], [36.7360829, 56.1826546], [36.7338039, 56.1798703], [36.745599, 56.1793031], [36.7462358, 56.1781749], [36.747806, 56.1776567], [36.7471833, 56.1739048], [36.7443779, 56.172767], [36.7453077, 56.1713598], [36.738721, 56.1711094], [36.7347589, 56.168467], [36.7334861, 56.1667031], [36.7302835, 56.1650109], [36.7286043, 56.1647745], [36.7264293, 56.165877], [36.723699, 56.1640858], [36.7313268, 56.1609133], [36.7372146, 56.1546228], [36.7330378, 56.153263], [36.7505451, 56.1439025], [36.7560114, 56.1436659], [36.7558283, 56.1394266], [36.7547163, 56.1386494], [36.7533, 56.139083], [36.7472244, 56.1393919], [36.7461121, 56.1389976], [36.7545277, 56.138487], [36.7518655, 56.1333524], [36.7483927, 56.1333709], [36.747911, 56.1320073], [36.7432946, 56.1305936], [36.7431649, 56.1295793], [36.7445506, 56.129086], [36.7443591, 56.12802], [36.7362759, 56.1281868], [36.7361568, 56.1273885], [36.7322927, 56.1259455], [36.7401613, 56.1224207], [36.7367745, 56.1209731], [36.7348603, 56.1161303], [36.7322986, 56.1144033], [36.7314208, 56.1115244], [36.7250789, 56.1113005], [36.7240561, 56.1134604], [36.725894, 56.1147641], [36.7289784, 56.1154059], [36.7280473, 56.1187632], [36.7255101, 56.1189173], [36.7261306, 56.1181107], [36.7205263, 56.1172426], [36.7112088, 56.1176547], [36.7095765, 56.1162431], [36.7100066, 56.1147669], [36.7092908, 56.1142129], [36.705226, 56.1148716], [36.7044799, 56.1157198], [36.7043761, 56.1143954], [36.70559, 56.1129049], [36.711308, 56.1120112], [36.7155724, 56.1126617], [36.7165823, 56.1120744], [36.7172212, 56.1111223], [36.715082, 56.1080974], [36.7126987, 56.1063122], [36.716572, 56.1056851], [36.7229577, 56.1065586], [36.7285865, 56.1054447], [36.7268765, 56.1022308], [36.7244614, 56.1001665], [36.7213435, 56.1002234], [36.7214754, 56.1010431], [36.7154604, 56.1019816], [36.7180848, 56.1032899], [36.7177867, 56.1051358], [36.7133203, 56.1053825], [36.7114902, 56.1064025], [36.7163618, 56.1107599], [36.7163038, 56.1119178], [36.7104746, 56.1118058], [36.7048059, 56.1129615], [36.7039635, 56.1143002], [36.7037898, 56.1165399], [36.7016566, 56.1190607], [36.69955, 56.118933], [36.6998923, 56.1198408], [36.6976415, 56.1198205], [36.6934095, 56.118758], [36.6915517, 56.1218624], [36.6894468, 56.1235557], [36.6845621, 56.1236323], [36.6826258, 56.1228216], [36.6772385, 56.1253731], [36.6770491, 56.1244388], [36.6757021, 56.1244055], [36.6717456, 56.1257952], [36.6708251, 56.127147], [36.6686122, 56.1271208], [36.6702515, 56.1246679], [36.6776222, 56.1239532], [36.6799954, 56.12299], [36.6795277, 56.1223596], [36.680262, 56.1197749], [36.6790597, 56.1180392], [36.6768568, 56.1175648], [36.6764755, 56.114943], [36.6865159, 56.1146667], [36.6907127, 56.1162395], [36.6932816, 56.1150747], [36.6922672, 56.1142965], [36.6933928, 56.1128036], [36.6921944, 56.1123174], [36.6922439, 56.1112929], [36.6904234, 56.111429], [36.6875324, 56.1102128], [36.6917712, 56.1083337], [36.691669, 56.1068618], [36.6878575, 56.1074262], [36.683424, 56.1061929], [36.6779095, 56.1011234], [36.6690975, 56.1015229], [36.6679911, 56.1031233], [36.6686879, 56.1057401], [36.6703174, 56.1074635], [36.6656918, 56.106545], [36.6625818, 56.1042704], [36.6580132, 56.105735], [36.65911, 56.1074427], [36.6430439, 56.1101438], [36.6426726, 56.1124317], [36.6381112, 56.112804], [36.6351587, 56.1112319], [36.6362612, 56.1090109], [36.6329571, 56.1082036], [36.6333344, 56.1074949], [36.6367087, 56.1070923], [36.6373444, 56.1058611], [36.6417006, 56.1040207], [36.6405477, 56.10247], [36.644288, 56.1020118], [36.6463569, 56.098757], [36.6456599, 56.0976515], [36.6460379, 56.0960669], [36.6471942, 56.0958441], [36.6471795, 56.0951384], [36.651056, 56.0921409], [36.6530343, 56.0921534], [36.650553, 56.0862334], [36.6404267, 56.0829725], [36.6365551, 56.0822826], [36.6309355, 56.0869339], [36.6226787, 56.0880286], [36.6188043, 56.0854421], [36.616871, 56.082542], [36.6166572, 56.0790046], [36.6059915, 56.0816654], [36.606273, 56.0810712], [36.601353, 56.0795306], [36.6009169, 56.0788501], [36.601856, 56.0778492], [36.5984244, 56.0778969], [36.5983381, 56.07889], [36.5878857, 56.0790926], [36.5872534, 56.0808917], [36.57999, 56.083903], [36.5765407, 56.0839601], [36.5760956, 56.0818305], [36.5695742, 56.0814467], [36.5623037, 56.0837924], [36.5569465, 56.0779708], [36.5547049, 56.0801087], [36.5360435, 56.0787128], [36.5370802, 56.0778289], [36.5267265, 56.073217], [36.5184474, 56.072498], [36.5161872, 56.0765611], [36.5027666, 56.0758202], [36.4989813, 56.0753075], [36.4891217, 56.0701348], [36.4865552, 56.073283], [36.4800204, 56.0745036], [36.4784041, 56.0761885], [36.4791043, 56.0774066], [36.4770936, 56.0785714], [36.4782126, 56.0783692], [36.4777221, 56.0790462], [36.4784017, 56.080084], [36.4756716, 56.0796933], [36.474642, 56.080705], [36.4744374, 56.0800835], [36.4738511, 56.0806924], [36.4716644, 56.0804832], [36.4711975, 56.0815767], [36.4699036, 56.0809122], [36.4645239, 56.0808658], [36.4572828, 56.0744674], [36.4528506, 56.0726537], [36.4523029, 56.0705247], [36.4528117, 56.0689807], [36.3755503, 56.068296], [36.3381806, 56.0670737], [36.3317155, 56.0736367], [36.3309484, 56.0781219], [36.3394376, 56.0818774], [36.3408138, 56.0843158], [36.3408915, 56.086398], [36.3393807, 56.0879407], [36.3342058, 56.0905388], [36.3344132, 56.095311], [36.3357185, 56.0982902], [36.332534, 56.104597], [36.3367047, 56.1086119], [36.3367886, 56.1102038], [36.3362204, 56.1120317], [36.3334578, 56.1143704], [36.328496, 56.1168273], [36.3280334, 56.1188489], [36.3315393, 56.1203053], [36.3347105, 56.1232695], [36.341727, 56.1268685], [36.3445913, 56.1295342], [36.3336823, 56.1435447], [36.3333213, 56.1471128], [36.345648, 56.1456051], [36.3496666, 56.1473493], [36.3487735, 56.1553432], [36.350466, 56.159203], [36.3477763, 56.1588938], [36.3429126, 56.1600846], [36.3398578, 56.1591415], [36.3360298, 56.1603415], [36.3388718, 56.1641307], [36.3491927, 56.1649527], [36.3500148, 56.1686942], [36.3400694, 56.1680279], [36.3407156, 56.1661379], [36.3356396, 56.1647761], [36.3317109, 56.1662236], [36.3265654, 56.165171], [36.3192859, 56.1679591], [36.3127361, 56.1677301], [36.3110814, 56.1690209], [36.3116854, 56.1716982], [36.3078739, 56.1735214], [36.3037169, 56.176552], [36.3027891, 56.1781546], [36.3000482, 56.179431], [36.3053718, 56.1828304], [36.3046815, 56.1864392], [36.2897876, 56.1807711], [36.2806694, 56.182145], [36.2749868, 56.1810072], [36.2656416, 56.1846805], [36.2617423, 56.1848413], [36.2613161, 56.1856966], [36.2634336, 56.1872199], [36.2631284, 56.1901136], [36.2643216, 56.1909146], [36.263544, 56.1920572], [36.2668103, 56.194117], [36.267907, 56.1958032], [36.2670755, 56.2011264], [36.2729595, 56.205823], [36.2670102, 56.2085607], [36.2634701, 56.2059634], [36.2591077, 56.2078312], [36.2539036, 56.2084467], [36.239306, 56.205591], [36.2301887, 56.2060247], [36.2241641, 56.2044959], [36.2115134, 56.2057902], [36.210419, 56.2066622], [36.2100641, 56.20828], [36.2062133, 56.2108942], [36.2054889, 56.2153426], [36.2016559, 56.2154286], [36.1985907, 56.2170158], [36.204365, 56.220163], [36.181242, 56.2331937], [36.1787379, 56.2384271], [36.1853206, 56.2396544], [36.1897593, 56.2374979], [36.1919797, 56.2434824], [36.1984758, 56.2445278], [36.2059605, 56.243015], [36.2098234, 56.2409311], [36.2128989, 56.2441199], [36.202895, 56.2588162], [36.1857173, 56.2605299], [36.185402, 56.2613878], [36.1862093, 56.2622058], [36.1875873, 56.2687887], [36.1836769, 56.2757319], [36.1868466, 56.2796101], [36.1931288, 56.2835317], [36.1969945, 56.284387], [36.2006226, 56.2866977], [36.1794793, 56.2864903], [36.1570217, 56.283805], [36.1555333, 56.2845881], [36.1561415, 56.2870669], [36.1544429, 56.2880734], [36.1526624, 56.2975409], [36.1561878, 56.2998689], [36.1539458, 56.3023322], [36.1511451, 56.3023875], [36.1428902, 56.3046649], [36.1419714, 56.3058443], [36.1397624, 56.3063201], [36.1242887, 56.3154785], [36.1042028, 56.3149164], [36.1042173, 56.3053406], [36.0891196, 56.3047858], [36.0901786, 56.2503311], [36.0746287, 56.2532262], [36.0655642, 56.2516253], [36.0642022, 56.2523777], [36.0624879, 56.2519122], [36.0560814, 56.2531244], [36.0531218, 56.2528008], [36.0532246, 56.2538143], [36.0513753, 56.2535768], [36.0507318, 56.2545201], [36.0496405, 56.2544873], [36.0489764, 56.2563287], [36.0383583, 56.2533718], [36.0346004, 56.2503095], [36.0217957, 56.2455581], [36.0197732, 56.2342399], [36.0261181, 56.2315933], [36.0247713, 56.2275301], [36.0266529, 56.2259238], [36.0256053, 56.2253872], [36.0305561, 56.2202134], [36.0335576, 56.2194091], [36.0352807, 56.2163406], [36.0319954, 56.2148633], [36.0314584, 56.2120961], [36.0259352, 56.2118387], [36.0135861, 56.2087895], [36.0132924, 56.2105839], [35.9801862, 56.2128561], [35.9805955, 56.2105236], [35.9728399, 56.2079312], [35.9742246, 56.205588], [35.9735229, 56.2053238], [35.9753953, 56.2047581], [35.971088, 56.2037819], [35.9692352, 56.2023965], [35.9690918, 56.2010909], [35.9497791, 56.2016413], [35.9487369, 56.1987814], [35.9450382, 56.1982135], [35.9406543, 56.1876837], [35.9283093, 56.1863888], [35.9250882, 56.1854128], [35.9182412, 56.1856702], [35.9176663, 56.1864875], [35.8953775, 56.195874], [35.893909, 56.195816], [35.894503, 56.1964858], [35.8833495, 56.201187], [35.874843, 56.198632], [35.8736682, 56.1971359], [35.8815935, 56.1951752], [35.8787509, 56.1924789], [35.8760883, 56.1930573], [35.8690955, 56.1911984], [35.864746, 56.1911456], [35.8636947, 56.1899002], [35.8594373, 56.1897461], [35.8429644, 56.1914828], [35.8361269, 56.1910493], [35.8290691, 56.1917003], [35.8283605, 56.1904155], [35.8283788, 56.18587], [35.8239133, 56.185052], [35.8203477, 56.1854903], [35.8217601, 56.1840432], [35.8228487, 56.1841354], [35.8150982, 56.1809347], [35.8098434, 56.1800685], [35.8073099, 56.1830062], [35.7997797, 56.1822061], [35.7988206, 56.1775935], [35.795723, 56.1751123], [35.7910906, 56.1772937], [35.7849851, 56.1777172], [35.7793235, 56.1749704], [35.7716689, 56.177164], [35.7569037, 56.1789809], [35.749586, 56.1734159], [35.7473734, 56.1744022], [35.7374703, 56.1728982], [35.7353922, 56.1744171], [35.7291303, 56.1699883], [35.728557, 56.1677268], [35.7275115, 56.1670808], [35.7171561, 56.1659765], [35.7145875, 56.1647587], [35.7098401, 56.1640667], [35.7072989, 56.1620897], [35.7111476, 56.1522327], [35.7111822, 56.1503315], [35.7072927, 56.1422561], [35.7046905, 56.1401278], [35.7037052, 56.1369886], [35.7062947, 56.1367835], [35.7092151, 56.1376549], [35.7081017, 56.1370188], [35.7097056, 56.1371726], [35.7091343, 56.1365197], [35.7113518, 56.1359413], [35.7161267, 56.1366875], [35.7175266, 56.1360838], [35.7154727, 56.1345722], [35.7159538, 56.1336941], [35.7135956, 56.1314688], [35.7167741, 56.1305985], [35.7152326, 56.1303036], [35.7161844, 56.130238], [35.7156767, 56.1289728], [35.7137571, 56.128969], [35.7132275, 56.1271371], [35.7124168, 56.1269248], [35.7138809, 56.1263623], [35.7135259, 56.1256744], [35.7146611, 56.1254439], [35.7135937, 56.1249242], [35.7157063, 56.1232913], [35.7141933, 56.1226155], [35.7146693, 56.1216941], [35.7132787, 56.1194013], [35.700155, 56.1167929], [35.6891942, 56.1217653], [35.6845785, 56.1206331], [35.6791274, 56.1212633], [35.6808403, 56.1235832], [35.6788686, 56.1270569], [35.6816569, 56.1303108], [35.6807155, 56.1342198], [35.6819923, 56.1360457], [35.6766735, 56.1380747], [35.6734845, 56.1366316], [35.6645887, 56.1422432], [35.6582449, 56.1451292], [35.6566017, 56.1449882], [35.6518974, 56.140886], [35.6335166, 56.1379715], [35.6322207, 56.1301095], [35.6186837, 56.1327736], [35.6195095, 56.1363518], [35.6169179, 56.1363619], [35.6144891, 56.1386924], [35.6084748, 56.1418033], [35.6094586, 56.1483355], [35.6037351, 56.1485204], [35.5976951, 56.146817], [35.5955445, 56.1478495], [35.5939494, 56.1553432], [35.570889, 56.1545823], [35.5639031, 56.1551827], [35.5639988, 56.1563378], [35.5611072, 56.1567839], [35.56098, 56.1559986], [35.5585626, 56.1556161], [35.550853, 56.155508], [35.5493828, 56.1533296], [35.5467692, 56.1537077], [35.5449802, 56.1525188], [35.5408382, 56.1534577], [35.538195, 56.1521516], [35.5366631, 56.1525822], [35.5346851, 56.1583365], [35.5293134, 56.1641951], [35.5275605, 56.1679499], [35.5422272, 56.1655742], [35.545203, 56.1682654], [35.5489962, 56.1683453], [35.5504189, 56.1724145], [35.5356493, 56.1726892], [35.5358034, 56.1838435], [35.5327311, 56.1833736], [35.5311754, 56.181354], [35.5285967, 56.1813836], [35.5273068, 56.180298], [35.5250811, 56.1807455], [35.5256417, 56.1793436], [35.5251151, 56.1788562], [35.5249585, 56.1795087], [35.5231406, 56.1794307], [35.5224171, 56.1801626], [35.5202305, 56.1799343], [35.5204049, 56.1806442], [35.5147877, 56.1800611], [35.5106343, 56.1827122], [35.5079356, 56.181498], [35.5083354, 56.1821887], [35.5046224, 56.1836695], [35.5021287, 56.1829645], [35.4997078, 56.1836246], [35.4990959, 56.1846006], [35.4993436, 56.1876045], [35.5067651, 56.1896533], [35.5161682, 56.1945439], [35.5174712, 56.1968379], [35.5178137, 56.2009687], [35.5146532, 56.2027477], [35.510616, 56.2029612], [35.4945814, 56.2099506], [35.4916168, 56.2126339], [35.468419, 56.2082585], [35.4717378, 56.2052374], [35.4686001, 56.2037708], [35.4625196, 56.2031963], [35.4624722, 56.2018617], [35.4611907, 56.2017574], [35.4619756, 56.2015149], [35.4599141, 56.2013376], [35.4601268, 56.2008133], [35.4580346, 56.2001165], [35.4525054, 56.1996837], [35.439889, 56.2104774], [35.4169295, 56.2242357], [35.4125099, 56.2404217], [35.4067694, 56.2442577], [35.3982003, 56.2432666], [35.3938001, 56.2361948], [35.391113, 56.2347193], [35.3855757, 56.2350078], [35.3831756, 56.2365268], [35.3793268, 56.2372733], [35.3713159, 56.2355], [35.3629376, 56.2374402], [35.3565643, 56.2366137], [35.354074, 56.2356604], [35.3534831, 56.2346477], [35.3471043, 56.2333859], [35.3387644, 56.2339433], [35.3304331, 56.2331115], [35.3243226, 56.2305419], [35.3182028, 56.2294652], [35.3157909, 56.2279909], [35.3185144, 56.2240186], [35.3216152, 56.2221752], [35.3180591, 56.219725], [35.3198745, 56.2184138], [35.320227, 56.2092479], [35.3246852, 56.2076802], [35.3333552, 56.2086181], [35.3331314, 56.2018303], [35.3367403, 56.2007157], [35.3382695, 56.199408], [35.3505275, 56.1985826], [35.3518566, 56.1990739], [35.3558757, 56.1969452], [35.3587844, 56.1964974], [35.3638601, 56.1969745], [35.356299, 56.1923986], [35.3500827, 56.1866926], [35.348939, 56.1839573], [35.3541452, 56.1801503], [35.3631294, 56.1788714], [35.3556939, 56.1752725], [35.3516674, 56.1710068], [35.3461677, 56.1694375], [35.3349586, 56.1630795], [35.3413651, 56.1598093], [35.3360222, 56.1588536], [35.3205171, 56.1535193], [35.3141384, 56.1565577], [35.3049316, 56.1544679], [35.2945957, 56.1452611], [35.2919089, 56.1404339], [35.3086016, 56.1381649], [35.3089851, 56.1304535], [35.2845501, 56.1249956], [35.2840317, 56.12065], [35.2890218, 56.1149998], [35.2864772, 56.1126418], [35.2834149, 56.1115943], [35.2872795, 56.1033886], [35.3015838, 56.1045773], [35.3089808, 56.1066348], [35.3203915, 56.1028151], [35.3215194, 56.0992753], [35.3339764, 56.0974494], [35.3389916, 56.0942144], [35.336881, 56.0916148], [35.3290693, 56.0892403], [35.317324, 56.0835908], [35.3200688, 56.0821692], [35.3201159, 56.0814773], [35.3213518, 56.0816602], [35.3215904, 56.0809602], [35.3208093, 56.0805518], [35.3219305, 56.0800673], [35.3234065, 56.0774323], [35.3223609, 56.0749136], [35.3200643, 56.0726198], [35.3199727, 56.0699874], [35.314524, 56.0653436], [35.3143687, 56.0638605], [35.308157, 56.0622485], [35.3047358, 56.0583108], [35.287845, 56.0625881], [35.2667585, 56.039058], [35.2653902, 56.0389371], [35.2649905, 56.0403488], [35.2638039, 56.0405087], [35.2639444, 56.0418601], [35.2616231, 56.0417413], [35.2605251, 56.0430668], [35.2590322, 56.043072], [35.2598068, 56.0421687], [35.2572277, 56.0414588], [35.2557765, 56.0421791], [35.2528802, 56.0420275], [35.2501484, 56.0432748], [35.2483687, 56.0457485], [35.2451495, 56.0458411], [35.2439937, 56.0466883], [35.2387901, 56.046528], [35.2384453, 56.0452773], [35.2314049, 56.0428073], [35.2325815, 56.0417637], [35.2322613, 56.0405462], [35.2335915, 56.0400334], [35.2346218, 56.0383979], [35.2340926, 56.0372945], [35.235337, 56.0369257], [35.2354788, 56.0357328], [35.2378663, 56.0348151], [35.2360951, 56.0342624], [35.2389347, 56.0332409], [35.2395544, 56.0300835], [35.2368044, 56.0303427], [35.2373401, 56.0298993], [35.2355747, 56.0295678], [35.2361165, 56.0287156], [35.23481, 56.0283515], [35.2349313, 56.0275912], [35.2314892, 56.0263595], [35.2309562, 56.0242625], [35.2270482, 56.0231482], [35.2253544, 56.021675], [35.224125, 56.021957], [35.2246576, 56.0214365], [35.22376, 56.0206563], [35.2250516, 56.0205524], [35.2246933, 56.0192637], [35.2265085, 56.0188981], [35.2262604, 56.0180363], [35.2248439, 56.0178457], [35.2256283, 56.017634], [35.2250399, 56.0170244], [35.2256354, 56.0165594], [35.2218949, 56.0163718], [35.2226037, 56.0158616], [35.2223625, 56.0139727], [35.2201493, 56.0132608], [35.2176116, 56.0110251], [35.2122312, 56.0109542], [35.2119598, 56.0116864], [35.2097282, 56.0116262], [35.2092125, 56.012745], [35.206543, 56.0127549], [35.2048334, 56.0136439], [35.2006985, 56.0116157], [35.1969797, 56.0121503], [35.195019, 56.0107825], [35.1947078, 56.0093413], [35.1894189, 56.0063291], [35.1903208, 56.0062344], [35.1885667, 56.0048366], [35.1887423, 56.0042342], [35.1836786, 56.0024486], [35.1843918, 56.0020217], [35.1818619, 56.0007676], [35.1824444, 56.0001199], [35.1787787, 55.9985981], [35.1786375, 55.9973768], [35.1761554, 55.9961887], [35.177148, 55.9950669], [35.1764698, 55.9934083], [35.1732158, 55.9920142], [35.1736851, 55.9912508], [35.1730295, 55.9911646], [35.1734889, 55.9907474], [35.1721507, 55.9884193], [35.1748837, 55.9857265], [35.1738409, 55.9834971], [35.1704517, 55.9816543], [35.1691896, 55.979863], [35.1674577, 55.9800482], [35.1630167, 55.9783426], [35.1538709, 55.977983], [35.1491349, 55.9713509], [35.1508931, 55.9593684], [35.1484955, 55.9575013], [35.1434024, 55.9590666], [35.1375065, 55.9583337], [35.1350569, 55.9565839], [35.125731, 55.9539767], [35.1211116, 55.9562163], [35.1101934, 55.9527866], [35.1049442, 55.9527865], [35.1033275, 55.9538629], [35.1003772, 55.95829], [35.097065, 55.9597037], [35.0910087, 55.9605762], [35.0833582, 55.9668672], [35.0778051, 55.9686387], [35.0727655, 55.9761275], [35.0677087, 55.9768973], [35.0651889, 55.9808867], [35.0687582, 55.9842462], [35.0656084, 55.9898453], [35.0525731, 55.9859957], [35.0457669, 55.9803964]]]}, "properties": {"land_id": "TVER_1485", "label": "Великое княжество Тверское (Тверь, Кашин, Старица, Зубцов, Микулин, Клин)", "units": ["Тверская область: городской округ Тверь (osm r369838)", "Тверская область: Калининский муниципальный округ (osm r610775)", "Тверская область: Конаковский муниципальный округ (osm r570649)", "Тверская область: Кимрский муниципальный округ (osm r570646)", "Тверская область: Калязинский муниципальный округ (osm r570638)", "Тверская область: Кашинский муниципальный округ (osm r570637)", "Тверская область: Кесовогорский муниципальный округ (osm r570636)", "Тверская область: Рамешковский муниципальный округ (osm r570645)", "Тверская область: Лихославльский муниципальный округ (osm r570644)", "Тверская область: Старицкий муниципальный округ (osm r921388)", "Тверская область: Зубцовский муниципальный округ (osm r918729)", "Тверская область: Сонковский муниципальный округ (osm r569749)", "Московская область: городской округ Клин (osm r184071)", "Московская область: муниципальный округ Лотошино (osm r184073)", "Московская область: Талдомский городской округ (osm r171929)", "Московская область: городской округ Дубна (osm r184745)"], "source": "OpenStreetMap, отношения admin_level=6 (ODbL), выгрузка Overpass 28.09.2026; где помечено geoBoundaries - gbOpen RUS ADM2 (OSM/Wambacher, 2023); упрощение 0,0005°"}}]}