{"type": "FeatureCollection", "features": [{"type": "Feature", "geometry": {"type": "Polygon", "coordinates": [[[38.905786, 59.4913217], [38.8820334, 59.4990541], [38.8770232, 59.5436695], [38.9201877, 59.5559321], [38.9450111, 59.5514159], [38.9874103, 59.5965607], [38.9687726, 59.6212791], [38.9662332, 59.6437731], [38.9455672, 59.6444462], [38.9444021, 59.6516401], [38.9047665, 59.6547904], [38.9104783, 59.6850022], [38.8934498, 59.6913117], [38.903079, 59.7130674], [38.9457447, 59.7119216], [38.9518845, 59.7278189], [38.9413101, 59.7331474], [38.9532218, 59.7567974], [38.9358931, 59.7617626], [38.9096328, 59.775808], [38.874528, 59.7813621], [38.8744788, 59.7904369], [38.8961528, 59.7979931], [38.9189933, 59.8169209], [38.9550908, 59.8118947], [38.9609174, 59.8427958], [39.0102066, 59.8443508], [39.0667399, 59.8596031], [39.0538201, 59.8760259], [39.0629074, 59.8946124], [39.0276163, 59.9190298], [39.052157, 59.9637863], [39.0641254, 59.9690315], [39.0459204, 60.0062344], [39.0775118, 60.004515], [39.072354, 60.0313755], [39.0122402, 60.0419996], [39.0165858, 60.0709075], [38.9676401, 60.0704296], [38.9614658, 60.0883369], [38.9384658, 60.1070576], [38.9353647, 60.1417134], [38.9926958, 60.1893171], [38.9971003, 60.2125192], [38.9737562, 60.2199579], [38.9045913, 60.2554044], [38.8584265, 60.2620126], [38.8507759, 60.2785411], [38.8525208, 60.36004], [38.8869555, 60.3667541], [38.9060941, 60.3794751], [38.9477695, 60.3857952], [38.9600596, 60.39451], [38.9918149, 60.3979815], [39.005962, 60.3899773], [39.0164591, 60.3906037], [39.044596, 60.4006021], [39.0530379, 60.4062482], [39.0922383, 60.4401631], [39.1257128, 60.4746939], [39.1389264, 60.4966095], [39.1371646, 60.5410461], [39.1195465, 60.6076948], [39.1543423, 60.626496], [39.1850655, 60.6397667], [39.1859701, 60.6410738], [39.1852675, 60.6427056], [39.1863483, 60.6438159], [39.1908471, 60.6443036], [39.1954603, 60.6476667], [39.1999572, 60.648365], [39.1997329, 60.6496349], [39.1945468, 60.6530166], [39.1947481, 60.6543814], [39.1976599, 60.6555707], [39.1972989, 60.6563992], [39.1944623, 60.6568346], [39.1878169, 60.6560312], [39.185212, 60.6573522], [39.1844318, 60.6615834], [39.1817618, 60.6640245], [39.1828399, 60.6689754], [39.1824461, 60.6701333], [39.1797541, 60.6722624], [39.1783206, 60.6759469], [39.1802206, 60.6776099], [39.1802502, 60.679521], [39.170138, 60.6834104], [39.1697895, 60.6841339], [39.1709997, 60.6871993], [39.1703388, 60.6882437], [39.1648929, 60.6896177], [39.1640471, 60.6940897], [39.1626617, 60.6949104], [39.1597489, 60.6950115], [39.1591915, 60.6959239], [39.1769304, 60.7045734], [39.1776457, 60.7060594], [39.1829799, 60.7100611], [39.1887218, 60.7113758], [39.1900957, 60.7139185], [39.1882787, 60.7158173], [39.1906775, 60.7172973], [39.1901393, 60.7194917], [39.1947356, 60.7197462], [39.1927895, 60.7212881], [39.1927363, 60.7224054], [39.1966707, 60.7221249], [39.198922, 60.723444], [39.1998025, 60.7232799], [39.19924, 60.722444], [39.2000407, 60.7219768], [39.2036284, 60.7215584], [39.2096685, 60.7228103], [39.2096973, 60.7203915], [39.2114452, 60.7192853], [39.2132334, 60.7196957], [39.2121186, 60.7213654], [39.214777, 60.722377], [39.2190189, 60.7200559], [39.2214399, 60.7201316], [39.2220315, 60.7186943], [39.2262747, 60.7173209], [39.2347746, 60.7188637], [39.2431485, 60.7169751], [39.2444295, 60.714235], [39.2505308, 60.7135083], [39.2521207, 60.7122112], [39.2586824, 60.7121395], [39.258726, 60.7103796], [39.2616709, 60.7102031], [39.2607042, 60.7112088], [39.2659562, 60.714562], [39.2680071, 60.7141727], [39.2682214, 60.7164186], [39.2696906, 60.7160293], [39.27577, 60.7205701], [39.2785222, 60.7187499], [39.2803361, 60.7199583], [39.2813682, 60.718964], [39.2842142, 60.7191782], [39.2854652, 60.7209372], [39.2877483, 60.7208454], [39.288061, 60.7197594], [39.2925959, 60.7189181], [39.2943786, 60.714696], [39.2993513, 60.7135486], [39.3011966, 60.7116056], [39.3047932, 60.7102133], [39.3085149, 60.7096778], [39.3108293, 60.7103816], [39.312737, 60.7097543], [39.3147699, 60.7105193], [39.321713, 60.7098767], [39.3225261, 60.7084996], [39.3249343, 60.7081017], [39.3236208, 60.707505], [39.3255285, 60.7063267], [39.3255598, 60.7044904], [39.3285935, 60.7042455], [39.3317924, 60.7019781], [39.331551, 60.7012394], [39.3297705, 60.7012325], [39.3294155, 60.7007756], [39.3300818, 60.7006299], [39.3287795, 60.69939], [39.3298852, 60.6984376], [39.3314332, 60.6987623], [39.3310794, 60.6972904], [39.3327159, 60.6973986], [39.3318313, 60.6966193], [39.3339145, 60.6952365], [39.3328199, 60.694073], [39.3344775, 60.6940271], [39.3352594, 60.6927718], [39.3340709, 60.6921288], [39.3358223, 60.6915777], [39.3359269, 60.6908696], [39.3397161, 60.6910663], [39.3403259, 60.6907357], [39.3399872, 60.6897336], [39.3453541, 60.6896313], [39.3456427, 60.6885463], [39.3476897, 60.6880132], [39.3549768, 60.6900969], [39.3573254, 60.6895625], [39.3546186, 60.6888831], [39.3561631, 60.688106], [39.3593682, 60.6888964], [39.3599041, 60.6884544], [39.3594037, 60.688041], [39.3626891, 60.6868774], [39.3749161, 60.6861424], [39.3770015, 60.6869161], [39.3730083, 60.6881176], [39.3734462, 60.6895262], [39.3710067, 60.6912562], [39.3744157, 60.6936291], [39.3745606, 60.6956086], [39.3784189, 60.6950528], [39.3790331, 60.6959413], [39.3843299, 60.6974407], [39.385706, 60.6969815], [39.3843612, 60.6956038], [39.3879265, 60.6951599], [39.3890837, 60.6941802], [39.3924614, 60.6940884], [39.3948383, 60.6925422], [39.3942871, 60.6924119], [39.3950322, 60.6913954], [39.4020941, 60.6915624], [39.4058158, 60.6923125], [39.4070981, 60.6933842], [39.4101318, 60.6922513], [39.4126338, 60.6924044], [39.4138222, 60.6933689], [39.4147605, 60.6923432], [39.4186941, 60.6916097], [39.419483, 60.692435], [39.4282088, 60.6943486], [39.428459, 60.6951446], [39.4351518, 60.6961396], [39.4346514, 60.6967213], [39.4358297, 60.6978317], [39.4407285, 60.6991015], [39.4461294, 60.6994917], [39.4473804, 60.6986652], [39.453135, 60.6987111], [39.4577403, 60.6973303], [39.4623852, 60.6987835], [39.463292, 60.6975315], [39.4677822, 60.6989132], [39.4847506, 60.6993021], [39.4916155, 60.7010292], [39.4920904, 60.7014609], [39.4910973, 60.7021949], [39.4916586, 60.7024971], [39.4947673, 60.7018928], [39.4936877, 60.7039652], [39.4946263, 60.7048529], [39.5013233, 60.7071733], [39.4988254, 60.7091032], [39.5109015, 60.712079], [39.5124256, 60.713637], [39.5157071, 60.7138529], [39.5221402, 60.7157959], [39.526976, 60.7151484], [39.5286598, 60.7160119], [39.5305165, 60.7157961], [39.5323729, 60.7173936], [39.5372519, 60.717221], [39.5401878, 60.7184732], [39.5466643, 60.7187324], [39.5499455, 60.7201141], [39.5598329, 60.7205459], [39.5640641, 60.7221435], [39.5720949, 60.7221437], [39.5733902, 60.7237844], [39.5849615, 60.7213667], [39.5890633, 60.72141], [39.5940284, 60.7245619], [39.6451044, 60.7502095], [39.6479109, 60.749821], [39.6458818, 60.7467123], [39.6469181, 60.7458056], [39.6454502, 60.7435603], [39.6472205, 60.7428264], [39.6470479, 60.741747], [39.6483865, 60.7406676], [39.6505022, 60.7402358], [39.6506749, 60.7390269], [39.6531793, 60.737818], [39.6532224, 60.7369976], [39.655036, 60.7356592], [39.6541725, 60.7349252], [39.6549498, 60.7337163], [39.6540431, 60.7330255], [39.654993, 60.7320325], [39.6523594, 60.729485], [39.6536116, 60.7280602], [39.6529209, 60.7269807], [39.6533528, 60.725815], [39.6562456, 60.7246062], [39.6575842, 60.7231814], [39.6598294, 60.7231814], [39.6604769, 60.7242176], [39.6686805, 60.7237859], [39.6711849, 60.7217567], [39.6732574, 60.7217136], [39.6774025, 60.7194685], [39.6801657, 60.7196844], [39.6802522, 60.7186049], [39.6814179, 60.7183892], [39.6879376, 60.7185188], [39.690269, 60.7196414], [39.69368, 60.7199437], [39.6958386, 60.7212821], [39.6980839, 60.7212822], [39.7005448, 60.7227502], [39.7062871, 60.724132], [39.7068483, 60.7257295], [39.7119, 60.7262909], [39.7110795, 60.7271112], [39.7115113, 60.7274998], [39.7192831, 60.7276726], [39.7199738, 60.7286225], [39.7242051, 60.7286658], [39.7250255, 60.7279318], [39.7272274, 60.7290113], [39.7317179, 60.7280614], [39.7335311, 60.7293136], [39.7354741, 60.7294863], [39.7348264, 60.7306952], [39.7353877, 60.7309974], [39.7393598, 60.7316884], [39.7422957, 60.7331132], [39.7407414, 60.7341063], [39.7431592, 60.7345812], [39.7463972, 60.7384239], [39.7515352, 60.7383809], [39.7562845, 60.739374], [39.7564571, 60.7402807], [39.7588749, 60.7411875], [39.7609043, 60.741058], [39.7635812, 60.7405831], [39.7635382, 60.7385969], [39.7647472, 60.7373017], [39.7675969, 60.7370859], [39.7729079, 60.7330274], [39.777614, 60.7331138], [39.7779163, 60.7319048], [39.7800321, 60.7312141], [39.7815864, 60.7323799], [39.7803774, 60.7333297], [39.7820612, 60.7333729], [39.7851699, 60.7328981], [39.7865948, 60.7313006], [39.788581, 60.7313437], [39.78612, 60.7303074], [39.7882789, 60.7295304], [39.7876744, 60.7289258], [39.7856452, 60.7286668], [39.7877177, 60.7280623], [39.7855589, 60.727501], [39.7896176, 60.7260762], [39.7877611, 60.7249968], [39.7926832, 60.7252128], [39.7947989, 60.7240902], [39.7986416, 60.7239175], [39.7992893, 60.7233131], [39.7973895, 60.7224496], [39.7998075, 60.72232], [39.7979077, 60.7214134], [39.8017937, 60.7213702], [39.8022255, 60.7200317], [39.8043412, 60.7199023], [39.8036936, 60.718866], [39.8016643, 60.7183479], [39.8020098, 60.7177003], [39.8046867, 60.7179593], [39.801794, 60.7167936], [39.8023553, 60.7161891], [39.8054208, 60.7168799], [39.8073206, 60.7163618], [39.8071045, 60.7183912], [39.8097816, 60.7170959], [39.8088318, 60.7159302], [39.8098249, 60.715153], [39.8124586, 60.7154121], [39.8128473, 60.7142031], [39.810559, 60.7133827], [39.8112499, 60.7125192], [39.8131496, 60.7124329], [39.814186, 60.7095832], [39.8133226, 60.709022], [39.8144885, 60.7080289], [39.8124592, 60.7063019], [39.8175111, 60.7035818], [39.8157409, 60.7025023], [39.8177703, 60.7012504], [39.8141003, 60.7015525], [39.8163888, 60.6984007], [39.8166481, 60.6965873], [39.8192818, 60.6973645], [39.8194114, 60.6958101], [39.8206634, 60.6972349], [39.8237721, 60.6968033], [39.8241608, 60.6956375], [39.8226065, 60.6951193], [39.8301624, 60.6933492], [39.8341778, 60.6938674], [39.8354732, 60.6920109], [39.8372003, 60.6922699], [39.8360344, 60.6939106], [39.8378479, 60.6939106], [39.8401363, 60.6919245], [39.837373, 60.6914064], [39.8381935, 60.6904997], [39.8435905, 60.6908452], [39.8454906, 60.6863981], [39.8475199, 60.6863118], [39.8484267, 60.6849734], [39.850715, 60.6850165], [39.8580121, 60.681908], [39.8546876, 60.6808717], [39.8565874, 60.6795764], [39.8607323, 60.6797492], [39.8631072, 60.6769428], [39.8657409, 60.6768996], [39.8636688, 60.672107], [39.8796444, 60.6674874], [39.8791265, 60.6632561], [39.8854305, 60.6603202], [39.8840493, 60.6549663], [39.8856037, 60.6539301], [39.8965705, 60.6544484], [39.8981249, 60.6529804], [39.9655668, 60.6490093], [39.9728203, 60.6516], [39.9785198, 60.6486641], [40.0104704, 60.6467649], [40.0104701, 60.6521187], [40.0153055, 60.6574727], [40.0148736, 60.6585089], [40.0195364, 60.6640356], [40.0201405, 60.6674033], [40.0237672, 60.6701666], [40.0488092, 60.674312], [40.1859379, 60.6713781], [40.1885281, 60.6770775], [40.19319, 60.6945209], [40.214606, 60.6874403], [40.2349856, 60.6822594], [40.2513929, 60.6793237], [40.2567466, 60.6821734], [40.28248, 60.6796696], [40.285243, 60.6824329], [40.292151, 60.6864916], [40.3000089, 60.6883915], [40.3016495, 60.6912411], [40.3108026, 60.6947818], [40.333945, 60.6990998], [40.3340309, 60.7054035], [40.3364485, 60.7090304], [40.3380021, 60.7204289], [40.3538907, 60.7260421], [40.3548403, 60.7312233], [40.3639934, 60.735023], [40.3726277, 60.7497894], [40.4077726, 60.7596342], [40.4015548, 60.7649879], [40.4102761, 60.7709465], [40.407167, 60.7773365], [40.4289276, 60.7832952], [40.4535386, 60.7773373], [40.4781503, 60.7599808], [40.4904126, 60.7569586], [40.4940398, 60.7516048], [40.5050069, 60.7473737], [40.5140738, 60.7480646], [40.5259909, 60.7434881], [40.5330724, 60.7356301], [40.5467165, 60.7301901], [40.5625194, 60.7263045], [40.5748683, 60.7196556], [40.5907572, 60.7189651], [40.6560394, 60.728983], [40.6558662, 60.7363229], [40.6502531, 60.7393452], [40.6695095, 60.7436631], [40.6670914, 60.7477217], [40.6936006, 60.7644745], [40.7142386, 60.7695696], [40.7210597, 60.7806229], [40.7711447, 60.7754425], [40.7544812, 60.7382243], [40.7794374, 60.7358068], [40.7795239, 60.7327844], [40.7932538, 60.7343391], [40.7851379, 60.7153413], [40.8016315, 60.7137872], [40.7947234, 60.7109375], [40.7983504, 60.7089514], [40.8036177, 60.7118875], [40.8223566, 60.707052], [40.8262429, 60.7015255], [40.8322011, 60.7031663], [40.8395411, 60.7034254], [40.8448947, 60.7090385], [40.9035286, 60.7038583], [40.8951536, 60.6842561], [41.0851314, 60.6660387], [41.0761519, 60.6473], [41.0809878, 60.6461775], [41.0935093, 60.6403057], [41.1278778, 60.6406516], [41.1408311, 60.6358162], [41.197219, 60.6438478], [41.1988591, 60.6533466], [41.2163887, 60.6549876], [41.2612058, 60.6552474], [41.2703586, 60.6656962], [41.3099944, 60.6682874], [41.3149167, 60.6649197], [41.3269206, 60.6526578], [41.3495458, 60.6407416], [41.3617564, 60.6417353], [41.3738618, 60.5834551], [41.3936822, 60.56333], [41.4201094, 60.5436256], [41.4113003, 60.5056987], [41.4236331, 60.4805342], [41.4447748, 60.4592592], [41.447858, 60.4223206], [41.4457186, 60.4107976], [41.4324421, 60.3957859], [41.438168, 60.3783743], [41.4685593, 60.3572502], [41.4740609, 60.3628327], [41.4894767, 60.3606545], [41.4978454, 60.3534656], [41.4956431, 60.3412627], [41.5216299, 60.3377753], [41.5515807, 60.3460572], [41.5925429, 60.3340695], [41.5973879, 60.3161887], [41.5912216, 60.2993892], [41.615887, 60.3017897], [41.6484806, 60.3037535], [41.6832764, 60.2998257], [41.6956091, 60.3028807], [41.6982519, 60.3059355], [41.6797528, 60.3155343], [41.6890023, 60.3408268], [41.6947282, 60.3456214], [41.711025, 60.3440959], [41.7405354, 60.3362494], [41.7511063, 60.3414806], [41.7506659, 60.3456214], [41.7599154, 60.3473647], [41.7722481, 60.3460572], [41.7770931, 60.3410447], [41.7762122, 60.3325435], [41.7784145, 60.3190241], [41.8233408, 60.3170611], [41.8488871, 60.3179336], [41.8506489, 60.328183], [41.8550534, 60.3318894], [41.8704693, 60.3310174], [41.8780986, 60.3438139], [41.8786491, 60.3525301], [41.9237957, 60.3585211], [41.9315036, 60.3656], [41.9166383, 60.3835626], [41.9306227, 60.3856848], [41.9381104, 60.3808961], [41.9442768, 60.370881], [41.9689422, 60.37001], [41.994929, 60.3667434], [41.990084, 60.3769775], [41.990084, 60.3876437], [42.0072617, 60.3832905], [42.0099044, 60.3852495], [42.0728893, 60.3843789], [42.0715679, 60.400482], [42.0865434, 60.4009171], [42.0896265, 60.3950426], [42.1592183, 60.3798076], [42.175515, 60.3795899], [42.2116323, 60.3541097], [42.2292504, 60.3456118], [42.2750576, 60.341689], [42.3450898, 60.3314438], [42.3817461, 60.345176], [42.4010274, 60.3408172], [42.4221692, 60.341471], [42.419086, 60.3482268], [42.4452107, 60.3440863], [42.4476678, 60.3748851], [42.4791735, 60.3700747], [42.540462, 60.3687323], [42.5664061, 60.3612337], [42.7427451, 60.352034], [42.7178376, 60.2361957], [43.0237287, 60.2207542], [43.0262976, 60.2327344], [42.9946939, 60.2371534], [42.9790257, 60.245371], [42.9658583, 60.2555252], [42.9559481, 60.2735484], [42.9559481, 60.2847397], [42.9609032, 60.2948358], [42.9972407, 60.2994735], [43.0143083, 60.2751864], [43.0319264, 60.2609878], [43.036331, 60.2800999], [43.0385332, 60.2978368], [43.0511963, 60.3570338], [43.1549516, 60.3508428], [43.2358424, 60.3478496], [43.2457063, 60.3227384], [43.2929415, 60.312322], [43.4076123, 60.2983436], [43.4014353, 60.2774847], [43.3696302, 60.2562653], [43.3820872, 60.2257519], [43.4140131, 60.1904799], [43.4675005, 60.1839105], [43.4586389, 60.1663267], [43.4842855, 60.156101], [43.5041011, 60.1562047], [43.5172196, 60.1994579], [43.531873, 60.2064079], [43.4950619, 60.2376062], [43.5305102, 60.2448501], [43.5565582, 60.2183064], [43.5471584, 60.2090342], [43.5638467, 60.2059434], [43.5692134, 60.1826487], [43.6068632, 60.1902773], [43.6154649, 60.1798438], [43.6830403, 60.1796954], [43.6841103, 60.1699194], [43.7130994, 60.164378], [43.7120218, 60.1605388], [43.75988, 60.1426136], [43.7530286, 60.1093117], [43.8206812, 60.1087085], [43.9061428, 60.1057192], [43.9093356, 60.1323206], [43.9456014, 60.132559], [43.9448337, 60.121049], [44.0117023, 60.1185032], [44.013123, 60.1038949], [44.0616295, 60.0956907], [44.07152, 60.1373397], [44.1505755, 60.1317329], [44.1341519, 60.1138962], [44.1516841, 60.1093542], [44.1655935, 60.0896666], [44.1723893, 60.0647806], [44.2137974, 60.0340599], [44.3483816, 59.9874893], [44.3523094, 60.0127208], [44.3839964, 60.029948], [44.6366134, 60.0651153], [44.8544862, 60.0416485], [44.8448409, 60.0017868], [44.8239194, 59.994629], [44.837133, 59.9794825], [44.8151103, 59.9643291], [44.780618, 59.9362376], [44.7611547, 59.9295877], [44.7479411, 59.9053023], [44.7550984, 59.896743], [44.7808527, 59.8983384], [44.7831008, 59.8903988], [44.7847832, 59.8698926], [44.7903347, 59.8539133], [44.8239194, 59.8317861], [44.809054, 59.8209938], [44.7952727, 59.8038093], [44.7896537, 59.8024758], [44.7861015, 59.7917778], [44.7710649, 59.7872105], [44.7396826, 59.796075], [44.7281206, 59.791366], [44.7105025, 59.795244], [44.7049968, 59.8002294], [44.6884798, 59.7938591], [44.6796707, 59.784994], [44.6796707, 59.7708604], [44.6581986, 59.7633754], [44.6427827, 59.7669795], [44.6301197, 59.7436849], [44.62076, 59.7398008], [44.5948834, 59.7561661], [44.580018, 59.7545022], [44.5734112, 59.7503421], [44.5904788, 59.7456267], [44.5932316, 59.7367488], [44.5662539, 59.7373037], [44.5690067, 59.7417429], [44.563501, 59.74951], [44.5348715, 59.7500648], [44.5315681, 59.74313], [44.4930284, 59.7447945], [44.4864216, 59.7228723], [44.5034892, 59.7148214], [44.5012869, 59.7092678], [44.4924778, 59.7106563], [44.4902756, 59.7020469], [44.4792642, 59.69538], [44.4809159, 59.6753713], [44.4908261, 59.6739814], [44.5040397, 59.6745374], [44.5056914, 59.6631379], [44.4930284, 59.6406057], [44.4776125, 59.5966104], [44.4666169, 59.5246119], [44.4346539, 59.5151021], [44.4255476, 59.4957448], [44.4236827, 59.4768945], [44.4374555, 59.4648772], [44.4153984, 59.4497293], [44.4104433, 59.422853], [44.3983308, 59.3768899], [44.2678464, 59.3847417], [44.2628913, 59.3603392], [44.2799588, 59.363145], [44.2931725, 59.3606198], [44.3003298, 59.342096], [44.2838128, 59.3361999], [44.2656441, 59.3429382], [44.2502282, 59.2999588], [44.2232504, 59.2383447], [44.2166436, 59.2389079], [44.2077736, 59.2256995], [44.1711079, 59.2373288], [44.0906779, 59.2340881], [43.988093, 59.2132583], [43.9810036, 59.2081489], [43.9481697, 59.2080917], [43.9272927, 59.2283812], [43.900833, 59.2394256], [43.8686101, 59.2398504], [43.8444625, 59.2376032], [43.8063486, 59.2425641], [43.7763773, 59.268368], [43.7639887, 59.2674714], [43.7569709, 59.2693011], [43.7551091, 59.2688071], [43.7453455, 59.2593081], [43.7416788, 59.2585425], [43.7284064, 59.2581201], [43.7157537, 59.261367], [43.707026, 59.2593873], [43.7006222, 59.2605751], [43.6947348, 59.2602848], [43.6926174, 59.2591497], [43.6866784, 59.2524175], [43.6784154, 59.2485625], [43.6773826, 59.2468724], [43.6717534, 59.24439], [43.671082, 59.2428319], [43.6734577, 59.2397417], [43.6727863, 59.2368097], [43.6745422, 59.2335869], [43.6553319, 59.2342841], [43.6506821, 59.2368134], [43.6385178, 59.2321296], [43.6330662, 59.2372462], [43.6292158, 59.2371867], [43.6252488, 59.2390999], [43.6092634, 59.2345496], [43.6212811, 59.226838], [43.6336658, 59.2218684], [43.6369287, 59.2176174], [43.6356851, 59.2141181], [43.6360501, 59.2111518], [43.616033, 59.2079277], [43.6137367, 59.2023], [43.6146555, 59.1977392], [43.6108971, 59.1898009], [43.594674, 59.1889985], [43.5831791, 59.1862551], [43.5812314, 59.183174], [43.5669361, 59.1795438], [43.565566, 59.1807732], [43.5592482, 59.1794205], [43.5535053, 59.1823783], [43.5452695, 59.1781392], [43.5349616, 59.1785], [43.5313157, 59.1857146], [43.5206117, 59.191797], [43.5198029, 59.1943844], [43.5254101, 59.1961576], [43.5253884, 59.2075765], [43.5570651, 59.2176895], [43.5308793, 59.2402612], [43.5432766, 59.2496714], [43.5442958, 59.2573135], [43.5084544, 59.2595466], [43.5139017, 59.2977454], [43.5040479, 59.3058877], [43.4558347, 59.2893152], [43.4206936, 59.2913023], [43.3618991, 59.2799028], [43.3374304, 59.2661581], [43.3437596, 59.2462601], [43.3694494, 59.2308321], [43.3825706, 59.2044064], [43.3345686, 59.1981447], [43.3274444, 59.2115706], [43.2941497, 59.2276356], [43.2979503, 59.2334148], [43.284388, 59.2385869], [43.2842262, 59.2430211], [43.2639191, 59.2469369], [43.2463078, 59.2351135], [43.2382912, 59.2324229], [43.2404815, 59.2284149], [43.2358673, 59.2283686], [43.2316487, 59.2346077], [43.2177793, 59.2342715], [43.21068, 59.2358796], [43.2110673, 59.2390163], [43.1856813, 59.2544015], [43.1866877, 59.2563372], [43.1752058, 59.2630049], [43.1512486, 59.2682991], [43.1435174, 59.2679553], [43.1400638, 59.2806615], [43.1426965, 59.283333], [43.1412101, 59.2869231], [43.1467897, 59.2885166], [43.1438182, 59.2925476], [43.1359386, 59.2910272], [43.1324965, 59.2816895], [43.1367448, 59.266006], [43.1490958, 59.2632506], [43.151491, 59.2545142], [43.1408467, 59.2491462], [43.1227546, 59.2552322], [43.1107725, 59.2514788], [43.0844823, 59.2501429], [43.0753651, 59.241376], [43.0859468, 59.2367138], [43.0859772, 59.2337608], [43.0746624, 59.2354938], [43.076591, 59.2291355], [43.0656685, 59.2277066], [43.0607369, 59.2217598], [43.0528074, 59.2196458], [43.0497346, 59.216396], [43.0496983, 59.2128547], [43.0521889, 59.2112025], [43.0281811, 59.2028966], [43.0136167, 59.2062996], [43.0013289, 59.2127796], [42.9597768, 59.1953578], [42.9616156, 59.1913657], [42.928633, 59.1947296], [42.9175234, 59.191996], [42.9089787, 59.2006362], [42.9032002, 59.197071], [42.903206, 59.1836893], [42.8783776, 59.1743974], [42.8874607, 59.1699931], [42.8858563, 59.1662174], [42.8721406, 59.1667122], [42.8665321, 59.1611727], [42.8650656, 59.1651521], [42.8587271, 59.1667182], [42.8645517, 59.1775648], [42.823221, 59.1850859], [42.8065351, 59.1729824], [42.8104101, 59.169917], [42.7996912, 59.1700345], [42.7920814, 59.1739958], [42.7647394, 59.197224], [42.7645282, 59.2092333], [42.7573158, 59.2169195], [42.7335985, 59.2211452], [42.7119659, 59.2297242], [42.6923988, 59.2235034], [42.6549281, 59.2643086], [42.6832341, 59.2737415], [42.6731673, 59.2980313], [42.6527799, 59.3005117], [42.6684022, 59.3144969], [42.6734752, 59.3151408], [42.670596, 59.3169929], [42.6648397, 59.3171551], [42.636381, 59.3281847], [42.6339938, 59.3274644], [42.6287241, 59.3285951], [42.6164811, 59.3293294], [42.6102048, 59.3318646], [42.5925018, 59.3319607], [42.590437, 59.3306405], [42.5738038, 59.3299176], [42.5672893, 59.3155368], [42.5570649, 59.3134556], [42.5593185, 59.3202801], [42.5485507, 59.3203774], [42.5367741, 59.3218784], [42.5321099, 59.325153], [42.535042, 59.3274344], [42.5335879, 59.3282608], [42.5264939, 59.3266824], [42.523102, 59.3311027], [42.5476599, 59.3339773], [42.5498872, 59.3368679], [42.5076838, 59.338405], [42.5110379, 59.3335927], [42.5125448, 59.321258], [42.507236, 59.3191361], [42.3483884, 59.3046294], [42.3387117, 59.2844183], [42.3348381, 59.2841242], [42.3264205, 59.2766672], [42.3121208, 59.2719172], [42.3141782, 59.2575038], [42.3061278, 59.2616433], [42.2792226, 59.2615375], [42.29075, 59.2695089], [42.2890937, 59.2762394], [42.2714673, 59.280815], [42.2725231, 59.2918049], [42.2318353, 59.3006905], [42.2027667, 59.3275476], [42.216254, 59.4084831], [42.1249557, 59.411216], [42.1268113, 59.4200864], [42.0890842, 59.4314238], [42.0685755, 59.4309242], [42.0589921, 59.4274119], [42.0348625, 59.4295489], [42.0274891, 59.4224712], [41.9981262, 59.3983369], [41.986462, 59.3929004], [41.9776052, 59.3578948], [41.9622001, 59.2817075], [41.9384629, 59.27723], [41.9352135, 59.2796636], [41.9150524, 59.2866076], [41.9021166, 59.2938301], [41.8952711, 59.2947201], [41.8939433, 59.2930057], [41.8991004, 59.2922746], [41.9009396, 59.2901684], [41.9071455, 59.2885547], [41.9100849, 59.2858337], [41.9159263, 59.2833427], [41.9229936, 59.281709], [41.9332338, 59.2767579], [41.9388392, 59.2682229], [41.9483452, 59.2615168], [42.0291996, 59.2419639], [42.0316757, 59.254315], [42.0667661, 59.2458863], [42.0986631, 59.2498199], [42.0903393, 59.1559197], [42.075482, 59.1556512], [42.0525177, 59.1480908], [42.0478294, 59.1502664], [42.0382645, 59.136328], [42.0588695, 59.1259594], [42.0574483, 59.1228948], [42.0401482, 59.118728], [42.0399525, 59.1165197], [42.0281066, 59.1134884], [42.0235173, 59.1090848], [42.0013366, 59.1047317], [41.9586914, 59.1223817], [41.9270848, 59.1017081], [41.9380633, 59.0926085], [41.948905, 59.0786427], [41.916598, 59.0829141], [41.9068414, 59.0735503], [41.8782274, 59.0833291], [41.8612839, 59.0966856], [41.8261273, 59.1049799], [41.8084958, 59.1032976], [41.7706709, 59.1107493], [41.7285204, 59.1109051], [41.7276316, 59.1069411], [41.7298166, 59.1055676], [41.727935, 59.103542], [41.7152869, 59.0995296], [41.7166715, 59.0989105], [41.7132899, 59.0960311], [41.7163518, 59.0912468], [41.7160447, 59.0875682], [41.7144203, 59.0849444], [41.7055579, 59.0815894], [41.6837117, 59.0844036], [41.6660981, 59.0753264], [41.6160696, 59.0692655], [41.5735676, 59.0448935], [41.5252116, 59.0412723], [41.5310569, 59.0234583], [41.5281939, 59.0195317], [41.521382, 59.0202545], [41.5154815, 59.0138793], [41.4658435, 59.0036242], [41.4573117, 59.0002465], [41.3982096, 58.9889651], [41.3490271, 58.9519442], [41.3330707, 58.9723091], [41.3340834, 58.9830577], [41.3217728, 58.9826891], [41.3054874, 58.9912396], [41.2985582, 58.9901829], [41.283391, 58.9898614], [41.268229, 58.9920019], [41.2589357, 58.9873407], [41.2567605, 58.9802993], [41.2462381, 58.9766477], [41.2446964, 58.9749045], [41.228542, 58.9692315], [41.2249925, 58.961303], [41.1900058, 58.9560259], [41.1835448, 58.9519489], [41.1757432, 58.9335539], [41.1716237, 58.9315584], [41.1872611, 58.9217083], [41.1773586, 58.9139112], [41.1842095, 58.9095185], [41.1793465, 58.9047336], [41.1817115, 58.8954041], [41.2259234, 58.8843238], [41.25282, 58.8904947], [41.2530148, 58.8978657], [41.2636156, 58.8987128], [41.2646051, 58.8920585], [41.2624201, 58.889147], [41.2711076, 58.8869297], [41.2694626, 58.8835663], [41.2609449, 58.8840107], [41.2567689, 58.8811338], [41.2603237, 58.8788593], [41.2552756, 58.8757028], [41.2590954, 58.8731287], [41.2589801, 58.8713609], [41.2636629, 58.8602171], [41.2593588, 58.8597025], [41.2588102, 58.8381784], [41.2469218, 58.8391235], [41.246962, 58.8441374], [41.2429097, 58.8518773], [41.2297651, 58.8466479], [41.2129932, 58.8469366], [41.1995477, 58.848404], [41.221765, 58.8195003], [41.1992771, 58.8101513], [41.1859733, 58.8119214], [41.1558851, 58.8030865], [41.1682336, 58.7819168], [41.1875739, 58.779975], [41.2300566, 58.7410445], [41.2206638, 58.7133262], [41.1894114, 58.712239], [41.1940963, 58.7010974], [41.1678031, 58.6884164], [41.1707353, 58.6647928], [41.1599175, 58.6617058], [41.1607587, 58.6602711], [41.1640607, 58.6587407], [41.1653648, 58.6569489], [41.1534367, 58.651692], [41.1435604, 58.6521519], [41.1420899, 58.6558636], [41.1320955, 58.6544072], [41.1290304, 58.6551954], [41.1240181, 58.651886], [41.1052101, 58.6544074], [41.0915604, 58.6485831], [41.0920199, 58.6468058], [41.0657264, 58.6327771], [41.0650566, 58.6214315], [41.0522037, 58.6067719], [40.9890506, 58.59741], [40.9908818, 58.58986], [40.9998371, 58.5883936], [41.0002165, 58.585143], [40.9580242, 58.5781238], [40.9569014, 58.5833027], [40.932482, 58.5888714], [40.9300717, 58.5763356], [40.9180927, 58.5787024], [40.9090516, 58.5742429], [40.89986, 58.5741127], [40.8933344, 58.5756038], [40.8894461, 58.5779442], [40.8902914, 58.5912654], [40.8799702, 58.5912067], [40.8729261, 58.5886091], [40.8566795, 58.5769958], [40.8347389, 58.5746191], [40.8346047, 58.5795137], [40.8316866, 58.5834286], [40.8137213, 58.5908184], [40.8034195, 58.5879055], [40.793885, 58.59232], [40.7860187, 58.5912063], [40.7825567, 58.5941028], [40.7653388, 58.5911364], [40.7639426, 58.5870263], [40.7537581, 58.5863502], [40.7381658, 58.5873018], [40.7297102, 58.5895301], [40.7111031, 58.5842751], [40.6981153, 58.5901552], [40.6944401, 58.5943234], [40.6822836, 58.5938288], [40.6625994, 58.5912602], [40.6264432, 58.5880747], [40.6263868, 58.5841519], [40.6274437, 58.5813368], [40.624713, 58.5812291], [40.6222309, 58.5787004], [40.6160178, 58.5791058], [40.608548, 58.5854113], [40.6054649, 58.5850501], [40.5988969, 58.5823717], [40.5997629, 58.5805429], [40.5922842, 58.5790569], [40.5694486, 58.5679404], [40.5350296, 58.5671282], [40.5357096, 58.5610011], [40.524974, 58.5590991], [40.5127635, 58.5469068], [40.4962162, 58.5433334], [40.4901019, 58.5462583], [40.4892447, 58.5492338], [40.4794884, 58.5474975], [40.4676586, 58.5503897], [40.4579321, 58.5475594], [40.4681199, 58.543795], [40.4672583, 58.5408137], [40.4694087, 58.5382287], [40.4655889, 58.5381828], [40.4548305, 58.5419743], [40.4421592, 58.537225], [40.43008, 58.53736], [40.4322526, 58.5428395], [40.4179454, 58.5431649], [40.4113978, 58.5462648], [40.4065149, 58.5427163], [40.4014893, 58.5437905], [40.3924447, 58.5418504], [40.3789169, 58.5448501], [40.3697297, 58.5484015], [40.3685086, 58.5523552], [40.3619269, 58.5531275], [40.3465854, 58.5528909], [40.3430292, 58.5548665], [40.3397373, 58.5528637], [40.3333642, 58.547028], [40.3275728, 58.5366209], [40.3245107, 58.5393075], [40.3174626, 58.5343376], [40.3023233, 58.5352421], [40.2847616, 58.5397112], [40.2725274, 58.5463558], [40.2752385, 58.5468573], [40.2744156, 58.5494506], [40.2687621, 58.550062], [40.264165, 58.5523496], [40.2566318, 58.5501208], [40.2500144, 58.5492267], [40.2446004, 58.5505022], [40.2422717, 58.5494884], [40.2294039, 58.5478191], [40.2237118, 58.5493688], [40.2040018, 58.5492585], [40.1858729, 58.5551344], [40.1624692, 58.578585], [40.1515181, 58.5778683], [40.1472421, 58.5804135], [40.1415283, 58.5815522], [40.1414952, 58.5779432], [40.1300863, 58.5788738], [40.1235122, 58.580766], [40.1185114, 58.5830517], [40.117035, 58.5857143], [40.1111814, 58.5857651], [40.1112912, 58.5892292], [40.0996532, 58.5915714], [40.0883027, 58.5951981], [40.0908602, 58.5975573], [40.0808676, 58.6027374], [40.0832669, 58.6045516], [40.0767969, 58.6081788], [40.0910804, 58.6231941], [40.1060244, 58.6202566], [40.123609, 58.620308], [40.1359364, 58.6269261], [40.1302279, 58.6427459], [40.1256895, 58.6492955], [40.1151111, 58.6499336], [40.104903, 58.6589934], [40.1006591, 58.6608642], [40.0975304, 58.6608909], [40.0947291, 58.6588765], [40.0777628, 58.6541278], [40.0784379, 58.6506572], [40.0698428, 58.6509327], [40.0484921, 58.656204], [40.0463289, 58.6623364], [40.0477322, 58.6676897], [40.0537865, 58.6761356], [40.0542761, 58.6793928], [40.0515678, 58.6804341], [40.0486082, 58.6794535], [40.0457309, 58.6767365], [40.0357434, 58.6773081], [40.0386573, 58.6829004], [40.0297586, 58.6871713], [40.025633, 58.6902274], [40.025711, 58.6965538], [40.0190285, 58.7038357], [40.02056, 58.7115536], [40.0177096, 58.7139293], [40.0143919, 58.7210892], [40.0146054, 58.7284251], [40.0135009, 58.7308796], [40.0144329, 58.7359678], [40.0184178, 58.7381785], [40.0200751, 58.7412227], [40.0173728, 58.7426708], [40.0114454, 58.7410869], [40.0063612, 58.7415343], [40.0036995, 58.7444086], [39.9981761, 58.7432285], [39.997559, 58.7402315], [39.9942094, 58.7416286], [39.9907624, 58.7412161], [39.9899627, 58.7389584], [39.9831643, 58.7392675], [39.9796882, 58.7411283], [39.9733268, 58.7393508], [39.9732182, 58.7413664], [39.9758025, 58.7423807], [39.9770186, 58.7437983], [39.9738027, 58.7451529], [39.9542853, 58.7584397], [39.9146682, 58.758523], [39.8875687, 58.748857], [39.8831165, 58.7513864], [39.8789907, 58.7502548], [39.8709576, 58.7524058], [39.8695142, 58.7567971], [39.862677, 58.765811], [39.855681, 58.7685072], [39.8514277, 58.7746872], [39.8537782, 58.7794499], [39.8342664, 58.7824182], [39.8393667, 58.7862354], [39.8297614, 58.8004718], [39.8126884, 58.8093443], [39.8034925, 58.8193889], [39.8068204, 58.8234778], [39.8015519, 58.825915], [39.79191, 58.8284281], [39.793261, 58.8370574], [39.7823517, 58.8379686], [39.7585149, 58.8327969], [39.7394703, 58.8343135], [39.7197302, 58.8204385], [39.7114192, 58.8344016], [39.7127948, 58.8376109], [39.6963435, 58.8445726], [39.6885847, 58.8499844], [39.6885692, 58.8542523], [39.6567977, 58.8722322], [39.6462979, 58.8738549], [39.6363254, 58.87966], [39.6355854, 58.8861795], [39.6041195, 58.9049253], [39.5893391, 58.8890235], [39.5841614, 58.8902495], [39.5831295, 58.8874768], [39.5707751, 58.879758], [39.5714039, 58.8758566], [39.5501583, 58.8763563], [39.5371826, 58.8805782], [39.5006752, 58.8838945], [39.4718498, 58.8824566], [39.4678178, 58.8799501], [39.4545991, 58.8826381], [39.453867, 58.8889381], [39.4578094, 58.889348], [39.4573711, 58.8940286], [39.4517926, 58.8964284], [39.446128, 58.8973416], [39.4430036, 58.8993903], [39.4374771, 58.8983901], [39.4308407, 58.9056769], [39.4261341, 58.904746], [39.4307894, 58.8965018], [39.4146111, 58.8964274], [39.3924637, 58.8914359], [39.3893141, 58.8881501], [39.3778334, 58.8832788], [39.3759263, 58.8839443], [39.3743288, 58.8863028], [39.3769532, 58.8883832], [39.3775237, 58.8901687], [39.3770021, 58.8908846], [39.374989, 58.8916828], [39.3718964, 58.8951542], [39.3631222, 58.8975989], [39.3635003, 58.8991617], [39.3673472, 58.9003472], [39.3678166, 58.9018492], [39.3722503, 58.9046914], [39.3703334, 58.9061865], [39.3706939, 58.9079097], [39.3686557, 58.9099817], [39.3707514, 58.9110814], [39.3674783, 58.9122059], [39.3665133, 58.9120713], [39.3671392, 58.9114787], [39.3665915, 58.9111824], [39.3592924, 58.9117445], [39.3589856, 58.9130528], [39.3561891, 58.9136865], [39.3540462, 58.9125776], [39.3519979, 58.9125941], [39.3496721, 58.9143513], [39.3533207, 58.9156843], [39.3534808, 58.9171604], [39.3492454, 58.9187466], [39.3464716, 58.9173642], [39.3430257, 58.917199], [39.342503, 58.9167418], [39.3455221, 58.916213], [39.3437618, 58.9153703], [39.3409774, 58.9164829], [39.338481, 58.915475], [39.3322042, 58.9159241], [39.329324, 58.9170901], [39.3290949, 58.917659], [39.3314733, 58.9194613], [39.3277202, 58.92141], [39.3297713, 58.9213875], [39.3294658, 58.9225983], [39.3321933, 58.923184], [39.3342663, 58.9261631], [39.2907233, 58.9242786], [39.2611876, 58.9180239], [39.2578406, 58.91538], [39.2587853, 58.9130759], [39.2646811, 58.9110875], [39.2675279, 58.9084316], [39.267398, 58.9057831], [39.2594908, 58.9019269], [39.2582894, 58.8992798], [39.2448358, 58.8988953], [39.2425205, 58.8949327], [39.2398493, 58.8956842], [39.2401969, 58.9027794], [39.2351014, 58.9064572], [39.2348807, 58.9153342], [39.2253503, 58.9213521], [39.2166816, 58.9215707], [39.2104071, 58.9266761], [39.2021216, 58.9252627], [39.1950746, 58.9279236], [39.1902769, 58.9280442], [39.1864957, 58.9302906], [39.1753453, 58.930193], [39.1382701, 58.9438243], [39.1525844, 58.955405], [39.1804605, 58.9533946], [39.1958313, 58.9641245], [39.1823434, 58.971733], [39.1813332, 58.9766671], [39.2048027, 58.9762141], [39.2127825, 58.9812982], [39.2055272, 58.9848012], [39.2069761, 58.9905869], [39.1962468, 58.9955098], [39.2055272, 59.000663], [39.222915, 59.0001033], [39.2317715, 58.9971679], [39.2331092, 59.0096095], [39.2218282, 59.0101766], [39.2219539, 59.0155903], [39.2454462, 59.020911], [39.2507398, 59.027824], [39.2580917, 59.0308743], [39.234443, 59.0318021], [39.2322819, 59.037635], [39.251625, 59.0418829], [39.2444458, 59.0468884], [39.2636406, 59.0615236], [39.2102219, 59.0765017], [39.2038991, 59.0634748], [39.1748906, 59.0622834], [39.1783159, 59.0727955], [39.161344, 59.0710902], [39.1592406, 59.0601819], [39.1371396, 59.0643637], [39.1371809, 59.0684263], [39.1410213, 59.0914936], [39.1389643, 59.094344], [39.1465623, 59.0973326], [39.1481972, 59.1019848], [39.155283, 59.1064932], [39.1492512, 59.1085956], [39.1528359, 59.1154003], [39.1377204, 59.1233751], [39.1386772, 59.1256091], [39.1356866, 59.1297248], [39.1277007, 59.1285383], [39.1261912, 59.1307641], [39.1278162, 59.1324103], [39.122699, 59.1324331], [39.1181838, 59.1297723], [39.1146045, 59.1312802], [39.1110644, 59.131722], [39.1099163, 59.1344218], [39.1044184, 59.137584], [39.1139883, 59.1447632], [39.1122222, 59.1473036], [39.1130833, 59.1492908], [39.107534, 59.1505419], [39.1074339, 59.1567985], [39.1148533, 59.1568458], [39.1168974, 59.1589633], [39.113466, 59.1619224], [39.1016019, 59.1680771], [39.0992183, 59.1686724], [39.0933918, 59.1669644], [39.0838989, 59.1753786], [39.0957189, 59.1794737], [39.0916794, 59.1857764], [39.0891155, 59.1917612], [39.0767159, 59.1961646], [39.0719197, 59.1961504], [39.0787836, 59.2042245], [39.0947513, 59.1992023], [39.1079805, 59.197145], [39.1104895, 59.2029089], [39.1203925, 59.2020273], [39.1211762, 59.215371], [39.0828446, 59.2180635], [39.0855581, 59.2290138], [39.0501092, 59.2307034], [39.0480132, 59.2305894], [39.0490695, 59.2196213], [39.0336743, 59.2118008], [39.0244127, 59.2100035], [38.9980555, 59.191837], [38.968618, 59.1913638], [38.9441345, 59.2031377], [38.8985907, 59.2052579], [38.8889238, 59.2126934], [38.8834013, 59.2316708], [38.8684177, 59.2486982], [38.8545104, 59.2627192], [38.809405, 59.2948644], [38.790062, 59.3271178], [38.7813599, 59.3543386], [38.7693825, 59.3566431], [38.770107, 59.3634739], [38.7769897, 59.3675348], [38.77959, 59.3828962], [38.7948988, 59.3927859], [38.8041582, 59.3933654], [38.8042223, 59.3994082], [38.8161123, 59.4011108], [38.8353114, 59.3937343], [38.8325227, 59.3847955], [38.8375404, 59.3778453], [38.8523369, 59.3837735], [38.8699857, 59.3803026], [38.8763535, 59.3838457], [38.8882458, 59.3841918], [38.887463, 59.3910731], [38.870882, 59.3908157], [38.8654664, 59.3992434], [38.8711793, 59.4020211], [38.870946, 59.4160169], [38.854269, 59.4172568], [38.8434134, 59.4206338], [38.8402467, 59.4286822], [38.8650563, 59.4273118], [38.8647767, 59.4575455], [38.8930901, 59.4518966], [38.9046103, 59.465961], [38.8996409, 59.4775195], [38.905786, 59.4913217]]]}, "properties": {"land_id": "VOLOGDA_MOSCOW", "label": "Вологда, Кубена, Заозерье, Обнора, Комела, Тотьма", "units": ["Вологодская область: городской округ Вологда (geoBoundaries 50074027B90033070951488)", "Вологодская область: Вологодский район (geoBoundaries 50074027B21235649033503)", "Вологодская область: Грязовецкий район (geoBoundaries 50074027B70163705293593)", "Вологодская область: Сокольский район (geoBoundaries 50074027B29719141572028)", "Вологодская область: Усть-Кубинский район (geoBoundaries 50074027B69024023911401)", "Вологодская область: Харовский район (geoBoundaries 50074027B82098160440566)", "Вологодская область: Сямженский район (geoBoundaries 50074027B81414238636592)", "Вологодская область: Вожегодский район (geoBoundaries 50074027B41884175029467)", "Вологодская область: Междуреченский район (geoBoundaries 50074027B44480084064397)", "Вологодская область: Тотемский район (geoBoundaries 50074027B44706978372394)", "Вологодская область: Бабушкинский район (geoBoundaries 50074027B62324973885793)"], "source": "OpenStreetMap, отношения admin_level=6 (ODbL), выгрузка Overpass 28.09.2026; где помечено geoBoundaries - gbOpen RUS ADM2 (OSM/Wambacher, 2023); упрощение 0,0005°"}}]}