{"type": "FeatureCollection", "features": [{"type": "Feature", "geometry": {"type": "MultiPolygon", "coordinates": [[[[39.3484536, 57.4828909], [39.3424908, 57.4812563], [39.3325987, 57.4848697], [39.3313521, 57.4859848], [39.3262145, 57.4851694], [39.3203388, 57.49104], [39.316034, 57.4887067], [39.3010019, 57.487761], [39.3008004, 57.485658], [39.2560371, 57.4881491], [39.2571606, 57.4896655], [39.2518831, 57.4939119], [39.2542599, 57.5110282], [39.2569072, 57.5105988], [39.2611251, 57.511446], [39.26593, 57.513682], [39.26593, 57.516173], [39.267086, 57.519287], [39.269353, 57.5209091], [39.2711317, 57.5249306], [39.2688998, 57.526107], [39.2756266, 57.5325896], [39.2657949, 57.5332951], [39.2630802, 57.5314795], [39.2602061, 57.5328053], [39.2536133, 57.5329925], [39.2531756, 57.5294847], [39.2295913, 57.5307217], [39.2344487, 57.5531705], [39.2365672, 57.5676551], [39.233492, 57.5689079], [39.2302894, 57.5750495], [39.2312304, 57.5761687], [39.2253176, 57.5791068], [39.2238115, 57.5816286], [39.230725, 57.5831164], [39.2282983, 57.5862689], [39.2266313, 57.5870284], [39.2267147, 57.5881453], [39.2217972, 57.5904236], [39.2056278, 57.5893961], [39.1998769, 57.5900662], [39.1917922, 57.588458], [39.1925423, 57.5916744], [39.146618, 57.5946671], [39.130532, 57.5840797], [39.0587701, 57.5891728], [39.0603537, 57.5845712], [39.0586868, 57.5836329], [39.0500187, 57.5837223], [39.0432675, 57.5860009], [39.0416006, 57.5916744], [39.0250145, 57.5924338], [39.0182634, 57.5912277], [39.0165131, 57.5900215], [39.0164297, 57.5885473], [39.0148461, 57.5868497], [39.0115956, 57.5866263], [39.0070949, 57.5838563], [39.0072615, 57.5818457], [39.0089285, 57.5813095], [39.005974, 57.5779798], [39.0073449, 57.5766622], [39.0071782, 57.5738914], [39.0050945, 57.5721484], [38.9980934, 57.5691985], [38.9935926, 57.5663824], [38.9875083, 57.5666506], [38.985758, 57.5674552], [38.9849245, 57.5673658], [38.9866748, 57.564952], [38.9829242, 57.5646838], [38.9787568, 57.5656672], [38.9799237, 57.5641026], [38.9795069, 57.5629403], [38.9803404, 57.5610179], [38.9795069, 57.559319], [38.9805071, 57.5586036], [38.9805071, 57.5568152], [38.9791736, 57.5553396], [38.9787568, 57.5531933], [38.9731726, 57.5503313], [38.9712556, 57.5480952], [38.9673383, 57.5485424], [38.9621707, 57.550689], [38.9554196, 57.5498393], [38.955503, 57.552925], [38.9463348, 57.5518517], [38.9480017, 57.5503313], [38.9483351, 57.5477374], [38.9421674, 57.5474243], [38.9364998, 57.5457695], [38.9255813, 57.5450986], [38.9263314, 57.5427727], [38.9187468, 57.5423701], [38.9088285, 57.5395073], [38.9044945, 57.5358389], [38.9020774, 57.5324386], [38.9041193, 57.5299325], [38.8973266, 57.5293512], [38.8952442, 57.5280711], [38.8900816, 57.5273934], [38.8879079, 57.5243159], [38.8838086, 57.5227697], [38.8805534, 57.524232], [38.8834091, 57.5266797], [38.8740744, 57.5304758], [38.8600992, 57.5256914], [38.8525257, 57.5270381], [38.8455031, 57.5301057], [38.8430502, 57.5323174], [38.8498728, 57.533626], [38.8519036, 57.5358063], [38.847735, 57.5364947], [38.8466661, 57.5394206], [38.843994, 57.5405106], [38.8391841, 57.5402812], [38.8303124, 57.5433215], [38.8295642, 57.5453865], [38.8304193, 57.5469351], [38.8295642, 57.5506057], [38.8268921, 57.5513513], [38.8257163, 57.5495734], [38.8214408, 57.547394], [38.8217615, 57.5448702], [38.8181273, 57.5420595], [38.8120348, 57.5426331], [38.799529, 57.5492293], [38.796643, 57.5482543], [38.7935433, 57.5492293], [38.7856337, 57.5450997], [38.7811444, 57.5467057], [38.7794342, 57.5498028], [38.7775103, 57.5491719], [38.7736624, 57.5512939], [38.7714177, 57.550491], [38.7668216, 57.5511219], [38.7661803, 57.5558243], [38.7647907, 57.5586913], [38.7613703, 57.5581752], [38.7570949, 57.5556522], [38.7480095, 57.5574298], [38.731442, 57.5569138], [38.7211809, 57.5620741], [38.7165847, 57.5672336], [38.7157296, 57.5701571], [38.7032238, 57.5706729], [38.7001241, 57.571762], [38.7054685, 57.5738254], [38.7070718, 57.5719913], [38.7128437, 57.575774], [38.7143401, 57.5778371], [38.7147676, 57.580817], [38.7208602, 57.5829372], [38.7200051, 57.5872917], [38.7235324, 57.5868906], [38.7335797, 57.5905572], [38.7247081, 57.6000085], [38.7220359, 57.6018412], [38.7177605, 57.6022421], [38.7185087, 57.6056781], [38.7161572, 57.6117475], [38.7216084, 57.6126636], [38.717226, 57.6187891], [38.7232117, 57.6206781], [38.7251357, 57.6223381], [38.7130574, 57.6274319], [38.7190431, 57.6309799], [38.7147676, 57.6320099], [38.7122023, 57.6345849], [38.706858, 57.6361297], [38.7089957, 57.6404207], [38.706858, 57.6425373], [38.7123092, 57.6431094], [38.7122023, 57.6440819], [38.7145539, 57.6454547], [38.7185087, 57.6459695], [38.7192569, 57.6451115], [38.7336866, 57.6440819], [38.7347555, 57.6457407], [38.7374277, 57.6441391], [38.7402067, 57.6452831], [38.7377483, 57.6465987], [38.7360381, 57.6486007], [38.735183, 57.6524326], [38.7320833, 57.6550633], [38.7270596, 57.6548917], [38.7258839, 57.6581512], [38.7221931, 57.6594018], [38.7245399, 57.6616788], [38.7337322, 57.6604607], [38.7336393, 57.6613159], [38.7375346, 57.6630113], [38.7359313, 57.6666702], [38.73048, 57.6721007], [38.7223566, 57.6716435], [38.7212877, 57.6729581], [38.7111335, 57.6753587], [38.7040449, 57.6736914], [38.6967308, 57.674382], [38.694551, 57.6820358], [38.6948925, 57.6872783], [38.6965363, 57.6888726], [38.6962883, 57.6895973], [38.6886722, 57.6942719], [38.6858048, 57.6937255], [38.6866564, 57.6911869], [38.682274, 57.6903871], [38.6773572, 57.7031821], [38.6662014, 57.7049524], [38.6605759, 57.7017543], [38.6531571, 57.7006746], [38.6488229, 57.7056804], [38.6449393, 57.7068391], [38.646681, 57.7095085], [38.6443857, 57.7103043], [38.6372621, 57.7078279], [38.6355166, 57.7084405], [38.6366063, 57.7106234], [38.6360988, 57.7130037], [38.6307545, 57.7118618], [38.6280823, 57.7125469], [38.6273341, 57.7142027], [38.6278685, 57.7179135], [38.6263721, 57.7188269], [38.6184201, 57.7172999], [38.6158834, 57.7160282], [38.6138492, 57.7159421], [38.6096978, 57.7175593], [38.6023326, 57.7161845], [38.600415, 57.7164961], [38.5995787, 57.7182953], [38.600939, 57.7225372], [38.5941003, 57.7247436], [38.5920556, 57.7280574], [38.5926602, 57.7290905], [38.592065, 57.7303944], [38.5864769, 57.7292438], [38.5850667, 57.7310033], [38.5819257, 57.7312749], [38.5818236, 57.7321051], [38.583669, 57.7338681], [38.581614, 57.7352964], [38.5829186, 57.7366245], [38.5811297, 57.7384678], [38.5790141, 57.7450483], [38.585119, 57.7458112], [38.5854205, 57.7469869], [38.5777927, 57.7479659], [38.5755578, 57.7462165], [38.5686761, 57.7447642], [38.5620168, 57.7487137], [38.5979008, 57.7660445], [38.6081853, 57.7698105], [38.6289608, 57.7803912], [38.6056604, 57.7942836], [38.6401631, 57.8111015], [38.6736672, 57.8259348], [38.6711902, 57.8353337], [38.6690301, 57.8357362], [38.6688256, 57.8368018], [38.6661413, 57.8382483], [38.6674118, 57.840254], [38.6757107, 57.8442293], [38.6766541, 57.8482383], [38.679209, 57.8492646], [38.6845708, 57.8483325], [38.6925602, 57.8504729], [38.6971096, 57.8531211], [38.697245, 57.8545262], [38.6837457, 57.8634475], [38.6868113, 57.8655655], [38.6829996, 57.8684802], [38.6825985, 57.8710114], [38.6860468, 57.8756019], [38.6812902, 57.8767583], [38.6754277, 57.8749051], [38.6765855, 57.8789571], [38.6799931, 57.8796758], [38.6806019, 57.8812253], [38.6765223, 57.8807441], [38.6745514, 57.8841074], [38.6838755, 57.8877814], [38.6879026, 57.8876368], [38.6956595, 57.8922613], [38.6942527, 57.8947023], [38.7070676, 57.8981935], [38.7149004, 57.8958551], [38.7236114, 57.8974589], [38.7317218, 57.895993], [38.7460146, 57.8954785], [38.7459975, 57.9035624], [38.7594475, 57.9041936], [38.7663695, 57.9030144], [38.7689895, 57.9057754], [38.7712287, 57.906526], [38.7730847, 57.9111418], [38.7771072, 57.9102745], [38.7814868, 57.9104243], [38.7835582, 57.9095349], [38.781611, 57.9062707], [38.7822894, 57.9048935], [38.7898927, 57.9050864], [38.7928815, 57.901548], [38.7911391, 57.8913755], [38.8166504, 57.8731964], [38.8253612, 57.8751674], [38.8350681, 57.8795113], [38.8344717, 57.8804438], [38.840121, 57.880761], [38.8402796, 57.8796378], [38.8445756, 57.8789167], [38.8475205, 57.8804843], [38.8633147, 57.8809889], [38.8742924, 57.8793107], [38.8753677, 57.8801579], [38.8775558, 57.8801147], [38.8812914, 57.8778031], [38.8851513, 57.8785217], [38.9029256, 57.8750998], [38.9045259, 57.8738913], [38.9020003, 57.8705089], [38.9027869, 57.869347], [38.9011673, 57.8676259], [38.9021011, 57.8650622], [38.9011207, 57.8634409], [38.9505174, 57.8604773], [38.9439485, 57.8437579], [38.9535697, 57.8435617], [38.9536597, 57.8442613], [38.9505129, 57.8448709], [38.9565576, 57.8472901], [38.9599707, 57.8476596], [38.9649541, 57.8469078], [38.9740562, 57.8479234], [38.9798383, 57.8498288], [38.9900551, 57.8457111], [38.9939151, 57.8480382], [38.9941003, 57.8501836], [39.0025492, 57.8525513], [39.0142219, 57.8503949], [39.0292967, 57.8519598], [39.0351296, 57.8518607], [39.0348515, 57.8545237], [39.033644, 57.8561813], [39.0351284, 57.8587966], [39.0346742, 57.8600727], [39.0446887, 57.8598592], [39.045678, 57.8579413], [39.0628988, 57.8583271], [39.0768181, 57.8621798], [39.078745, 57.8634692], [39.0746576, 57.866627], [39.070507, 57.8721004], [39.068694, 57.872489], [39.0713889, 57.8746042], [39.0771625, 57.8755665], [39.0823596, 57.8753613], [39.0813481, 57.8759043], [39.0901772, 57.8780498], [39.0962093, 57.8808065], [39.1147546, 57.8836431], [39.1185999, 57.8869014], [39.1421381, 57.8745235], [39.1370449, 57.8725783], [39.1356603, 57.8709056], [39.1304616, 57.8681337], [39.1274894, 57.8646264], [39.1266029, 57.8617628], [39.1357753, 57.8607673], [39.1490057, 57.8574429], [39.14879, 57.856037], [39.1524373, 57.8553785], [39.152935, 57.8565456], [39.1685791, 57.8567528], [39.1674555, 57.8581806], [39.1682145, 57.8602398], [39.1830804, 57.862472], [39.1866908, 57.873188], [39.2104626, 57.8704757], [39.2083229, 57.8673372], [39.2102373, 57.8662111], [39.2195141, 57.8642605], [39.2178023, 57.8604647], [39.233729, 57.8611671], [39.2444501, 57.8526591], [39.2423329, 57.8474215], [39.2325353, 57.8439932], [39.2291568, 57.8416556], [39.2277604, 57.8395696], [39.2387968, 57.8325554], [39.2433239, 57.8308166], [39.2472204, 57.8304689], [39.2596758, 57.8322916], [39.2673562, 57.8255398], [39.2568837, 57.8229041], [39.2826494, 57.8104488], [39.2819512, 57.807641], [39.3115016, 57.805709], [39.3187091, 57.8027688], [39.3216596, 57.8028649], [39.3398358, 57.8087209], [39.3416553, 57.8058326], [39.3454891, 57.804185], [39.3553318, 57.8028769], [39.3561877, 57.7965757], [39.3574039, 57.7952313], [39.3689133, 57.7932867], [39.3756702, 57.7932507], [39.3759855, 57.7989883], [39.392495, 57.7960836], [39.4112794, 57.7873561], [39.4161894, 57.7869719], [39.4199733, 57.7845825], [39.4263699, 57.7830215], [39.4313476, 57.7805359], [39.4321213, 57.7757099], [39.4356968, 57.7733528], [39.433929, 57.7595405], [39.4411973, 57.7528037], [39.4416541, 57.7511755], [39.4380504, 57.7504317], [39.433094, 57.7514935], [39.4261029, 57.7466023], [39.4247777, 57.7430753], [39.4204524, 57.7415307], [39.4170307, 57.7391355], [39.4068168, 57.7411586], [39.4034324, 57.737828], [39.4030382, 57.7364754], [39.4046148, 57.7337551], [39.4039673, 57.7314855], [39.3947891, 57.72887], [39.3938037, 57.7205712], [39.3891449, 57.71675], [39.3896835, 57.7135255], [39.3976022, 57.7136495], [39.3994129, 57.7169779], [39.412257, 57.7151666], [39.4162104, 57.7081089], [39.4161357, 57.7065687], [39.4072411, 57.701133], [39.4046964, 57.6972214], [39.4002216, 57.6965118], [39.3956377, 57.6892434], [39.3899228, 57.6892928], [39.3863853, 57.6883865], [39.3781219, 57.6886938], [39.3707456, 57.6867404], [39.3678176, 57.6850698], [39.3676205, 57.6802233], [39.3607729, 57.6812345], [39.3609837, 57.6728545], [39.3658502, 57.6716859], [39.3678004, 57.6692672], [39.3725853, 57.6716695], [39.3771236, 57.6699715], [39.3757725, 57.6674303], [39.3759951, 57.6657031], [39.3795383, 57.6649628], [39.3849832, 57.6655309], [39.3878189, 57.6649783], [39.388621, 57.6703676], [39.3924373, 57.6698569], [39.3939619, 57.6675322], [39.3995136, 57.6658004], [39.4026368, 57.667929], [39.41173, 57.6703497], [39.4156791, 57.670446], [39.4185656, 57.6663604], [39.4316456, 57.6681685], [39.4360167, 57.667881], [39.4392532, 57.6699012], [39.4460985, 57.6703774], [39.4479846, 57.6697281], [39.4498145, 57.6702282], [39.4551927, 57.6682021], [39.458344, 57.668697], [39.463985, 57.6679295], [39.4702319, 57.6649353], [39.4783831, 57.6636315], [39.4858657, 57.663435], [39.486543, 57.6694223], [39.4857276, 57.6706961], [39.4823641, 57.6724216], [39.483733, 57.6751331], [39.4907767, 57.6751636], [39.4885118, 57.6820261], [39.4967727, 57.6828029], [39.4983257, 57.6849552], [39.4938089, 57.6844739], [39.4943906, 57.6862486], [39.5021411, 57.6873211], [39.5104509, 57.6920464], [39.5112938, 57.6939292], [39.5249582, 57.6930037], [39.5279939, 57.6918842], [39.529455, 57.6951127], [39.5316416, 57.6952836], [39.5344877, 57.6984929], [39.5340929, 57.702305], [39.5247087, 57.7076316], [39.525722, 57.7087452], [39.5306917, 57.7086127], [39.5306389, 57.7124913], [39.5365231, 57.7163232], [39.543868, 57.7160932], [39.5451539, 57.7148841], [39.5484599, 57.715972], [39.5569849, 57.715982], [39.5586521, 57.715015], [39.5663308, 57.7155605], [39.5649246, 57.7183186], [39.5686074, 57.7198974], [39.5699741, 57.7192075], [39.591981, 57.725691], [39.5956065, 57.7361647], [39.5980724, 57.7382161], [39.6254721, 57.730967], [39.635067, 57.745866], [39.6371097, 57.7504261], [39.6357536, 57.7594505], [39.6368372, 57.762089], [39.6362566, 57.7655678], [39.6476169, 57.7657907], [39.6598308, 57.7639659], [39.6638389, 57.765724], [39.6644854, 57.768876], [39.667682, 57.7733104], [39.6721083, 57.7749971], [39.6763157, 57.7740325], [39.6810596, 57.7740905], [39.6835167, 57.7755097], [39.6870053, 57.7843509], [39.6825294, 57.7849165], [39.68207, 57.7881869], [39.7120733, 57.7935484], [39.7259558, 57.7940691], [39.7370117, 57.7932181], [39.7375524, 57.7954643], [39.736226, 57.798036], [39.7414742, 57.7982375], [39.7431696, 57.7998714], [39.7394577, 57.802746], [39.7367282, 57.8025619], [39.7316093, 57.8049143], [39.7310398, 57.8059676], [39.7315389, 57.8071497], [39.7297882, 57.8082571], [39.7309559, 57.8112432], [39.7324794, 57.8122519], [39.7320878, 57.813432], [39.7342094, 57.8176432], [39.7417395, 57.8178525], [39.7434366, 57.8171774], [39.7433072, 57.8152597], [39.744978, 57.8150635], [39.7482777, 57.8167209], [39.7525424, 57.8215065], [39.7552434, 57.8223049], [39.7530556, 57.8232158], [39.7597468, 57.8241147], [39.7629976, 57.8238233], [39.7630405, 57.8229891], [39.7673166, 57.8188324], [39.778621, 57.8199145], [39.7796689, 57.822071], [39.7885395, 57.8256126], [39.7965584, 57.8238567], [39.806241, 57.8256967], [39.8138952, 57.8251831], [39.8217566, 57.8266385], [39.8228429, 57.8247403], [39.8275598, 57.8231805], [39.8336804, 57.8198488], [39.8473461, 57.8280835], [39.8578165, 57.8300147], [39.8505726, 57.8312175], [39.8501964, 57.8322908], [39.851886, 57.8341859], [39.8521006, 57.8367503], [39.8599559, 57.8376309], [39.8617612, 57.8367822], [39.8644579, 57.8336694], [39.8689808, 57.8330908], [39.872619, 57.8387859], [39.8719894, 57.8448151], [39.8759333, 57.8481301], [39.866748, 57.8550346], [39.8634142, 57.8554757], [39.8598705, 57.8548351], [39.8627018, 57.8572236], [39.8661343, 57.8593659], [39.8692496, 57.8584186], [39.8756234, 57.8580962], [39.8771781, 57.8618457], [39.8813597, 57.8628012], [39.8850944, 57.8665412], [39.8918705, 57.8643982], [39.8938336, 57.8674933], [39.8970471, 57.8664269], [39.8996727, 57.8693598], [39.901767, 57.869095], [39.9087547, 57.8780184], [39.9152246, 57.8787779], [39.9143133, 57.884412], [39.9144995, 57.8901287], [39.9194254, 57.8913671], [39.9199911, 57.8933092], [39.9244398, 57.8972212], [39.9241306, 57.8997297], [39.9252271, 57.9004253], [39.9214827, 57.9030011], [39.9224498, 57.9049374], [39.920225, 57.9060962], [39.9218137, 57.9069052], [39.9217475, 57.9090857], [39.919501, 57.908907], [39.9188996, 57.9099327], [39.9132925, 57.911015], [39.9149233, 57.9116619], [39.9163728, 57.919461], [39.9133449, 57.9221953], [39.9122523, 57.925346], [39.9059751, 57.9284462], [39.9006333, 57.9283829], [39.8985362, 57.9325415], [39.89205, 57.9381167], [39.8985667, 57.93915], [39.9030013, 57.9476563], [39.8991262, 57.9472909], [39.8973143, 57.9504225], [39.8951265, 57.9496587], [39.8956176, 57.9522316], [39.893073, 57.9516038], [39.89205, 57.9532167], [39.8945891, 57.9553919], [39.9016131, 57.9583142], [39.8999808, 57.9591873], [39.9037818, 57.9631324], [39.9064667, 57.9642167], [39.9074665, 57.9670185], [39.90475, 57.9745167], [39.9057833, 57.9769167], [39.9164167, 57.9820667], [39.9143667, 57.9855], [39.914685, 57.9877054], [39.9132879, 57.9872081], [39.9119108, 57.9878641], [39.9139865, 57.9892712], [39.9113113, 57.9900302], [39.9154452, 57.9937144], [39.9086628, 57.9973142], [39.9022243, 57.9958235], [39.9015329, 57.9964672], [39.8962902, 57.996306], [39.8952752, 57.9979897], [39.8961729, 57.9995827], [39.8941, 58.0043833], [39.8906667, 58.00575], [39.8848333, 58.0054167], [39.87865, 58.0078167], [39.8625167, 58.0047167], [39.8608, 58.0026667], [39.8553167, 58.0023167], [39.85325, 58.0054167], [39.8474167, 58.0064333], [39.83745, 58.0129667], [39.8244167, 58.0129667], [39.8244167, 58.0153667], [39.8299, 58.0174333], [39.8333333, 58.0218833], [39.8388333, 58.0304667], [39.8412454, 58.0360974], [39.8431607, 58.0381772], [39.8472782, 58.0373582], [39.8526297, 58.0396224], [39.8547809, 58.0414915], [39.8536223, 58.044094], [39.8554651, 58.0479875], [39.8445445, 58.0479107], [39.8383889, 58.0439391], [39.8231126, 58.0467417], [39.8247164, 58.0481551], [39.8218188, 58.0533326], [39.8240296, 58.0570119], [39.836746, 58.0600756], [39.8402002, 58.059916], [39.8332386, 58.0666512], [39.8357333, 58.07305], [39.8367667, 58.0788833], [39.8309333, 58.0812833], [39.8261333, 58.0812833], [39.8189489, 58.0834842], [39.8168119, 58.0819361], [39.8136247, 58.0813463], [39.8075443, 58.0841476], [39.8094872, 58.0909211], [39.7965167, 58.0925333], [39.7864667, 58.0950167], [39.7803, 58.0939], [39.7766833, 58.0943333], [39.7753167, 58.0991333], [39.7695667, 58.0985333], [39.7627, 58.0991333], [39.7592667, 58.1007667], [39.7592667, 58.1072], [39.7506, 58.1082333], [39.7469833, 58.1103833], [39.7465188, 58.1121066], [39.7352908, 58.1164268], [39.7265667, 58.10875], [39.7232378, 58.1071204], [39.7226167, 58.1058333], [39.7127992, 58.1040682], [39.7084025, 58.1111731], [39.7104593, 58.1114338], [39.7056376, 58.1189232], [39.6983595, 58.1168469], [39.7021, 58.1316667], [39.7025437, 58.1420016], [39.6997067, 58.1413969], [39.6982167, 58.1398894], [39.6926103, 58.1411994], [39.6905043, 58.1437836], [39.6870518, 58.1445134], [39.6864046, 58.1453611], [39.6746333, 58.14695], [39.5984237, 58.1512275], [39.5964448, 58.1470841], [39.5886317, 58.1460818], [39.5796119, 58.1481611], [39.5636593, 58.1486396], [39.5542973, 58.1505089], [39.5468329, 58.1453658], [39.5292179, 58.1439121], [39.5177762, 58.1520398], [39.5187095, 58.1543735], [39.5228806, 58.1560894], [39.5240018, 58.1582737], [39.539529, 58.1662783], [39.5381612, 58.168108], [39.5386, 58.172], [39.5446029, 58.173635], [39.5367168, 58.1785055], [39.5356707, 58.181379], [39.5368519, 58.1848485], [39.5411667, 58.1878], [39.5452601, 58.1920426], [39.5454603, 58.1933882], [39.5428587, 58.1958598], [39.5436662, 58.1992029], [39.5405122, 58.2000522], [39.5314651, 58.1990769], [39.5072898, 58.1998895], [39.5092264, 58.2049105], [39.5113119, 58.2053152], [39.5117221, 58.2077262], [39.5153145, 58.2097994], [39.5138069, 58.2138027], [39.5117975, 58.2127186], [39.5080212, 58.2122898], [39.5017776, 58.2125119], [39.4989321, 58.2102565], [39.4966256, 58.2097936], [39.485003, 58.2141513], [39.4775923, 58.212929], [39.4653135, 58.2138296], [39.4599253, 58.215044], [39.4489299, 58.2143382], [39.448183, 58.2099454], [39.4462813, 58.2086443], [39.443565, 58.2095476], [39.4384295, 58.2095252], [39.4307909, 58.2108681], [39.4277536, 58.2104058], [39.4252242, 58.2065683], [39.4204516, 58.2031069], [39.4225288, 58.1996687], [39.422532, 58.1975281], [39.4198582, 58.1950341], [39.417874, 58.1952801], [39.4130568, 58.1975784], [39.4124118, 58.198858], [39.4135322, 58.2040571], [39.4078648, 58.206542], [39.4112347, 58.2134876], [39.4109821, 58.2194773], [39.4102695, 58.2210194], [39.4109643, 58.2226664], [39.406787, 58.2250771], [39.4065466, 58.2275811], [39.4081558, 58.229261], [39.4096861, 58.2346862], [39.410008, 58.2371507], [39.4081217, 58.240033], [39.4095229, 58.2439942], [39.4006685, 58.2443867], [39.3928028, 58.242846], [39.3903526, 58.2413365], [39.3885212, 58.2389158], [39.3820185, 58.2367567], [39.3766341, 58.2363907], [39.3734699, 58.2318063], [39.3714174, 58.2309066], [39.3424368, 58.2320655], [39.3400165, 58.22757], [39.3256663, 58.2267926], [39.3223834, 58.2232458], [39.317353, 58.2203174], [39.3151337, 58.2199181], [39.3127393, 58.2221149], [39.3096012, 58.2213297], [39.3057049, 58.2164312], [39.3014466, 58.2185237], [39.2990384, 58.217105], [39.2966709, 58.2107916], [39.2907689, 58.2107577], [39.2804292, 58.2070868], [39.2784169, 58.2035343], [39.2754963, 58.2034186], [39.2727135, 58.202184], [39.2717226, 58.2008079], [39.2714328, 58.1981307], [39.2701368, 58.196918], [39.2669636, 58.1971995], [39.2644908, 58.198489], [39.2640805, 58.1997433], [39.2655864, 58.2034323], [39.2609879, 58.2055683], [39.2572756, 58.2055809], [39.2513841, 58.202597], [39.247207, 58.2027547], [39.2459968, 58.2041256], [39.246473, 58.2059944], [39.2544832, 58.2147443], [39.2590343, 58.2153283], [39.2707487, 58.2145926], [39.272711, 58.2152572], [39.2814163, 58.2243866], [39.2783978, 58.2264835], [39.2846738, 58.2302498], [39.2876358, 58.2342917], [39.280748, 58.2360669], [39.2780928, 58.2382106], [39.2677156, 58.2410526], [39.2685298, 58.2443589], [39.264299, 58.2479225], [39.2608747, 58.2468551], [39.2584856, 58.2448729], [39.2494959, 58.2461261], [39.2503455, 58.248713], [39.2574818, 58.2520701], [39.2578692, 58.2540111], [39.2476297, 58.2574745], [39.2427201, 58.2616631], [39.2338582, 58.2586223], [39.229469, 58.2607225], [39.2384008, 58.2658494], [39.2239462, 58.2794196], [39.2201253, 58.2796953], [39.2126821, 58.2817562], [39.2087996, 58.2847654], [39.1981378, 58.2840056], [39.1919563, 58.2762063], [39.1895258, 58.2744388], [39.191006, 58.2723243], [39.1879744, 58.2696234], [39.1877167, 58.2666746], [39.1845241, 58.2659643], [39.1847404, 58.2648607], [39.1785783, 58.2629355], [39.1787972, 58.2620716], [39.1777475, 58.2617389], [39.1709201, 58.2614937], [39.1711908, 58.2659291], [39.1670246, 58.2680265], [39.1532372, 58.2681824], [39.142691, 58.2694801], [39.1412467, 58.2708264], [39.1412115, 58.2719775], [39.1426912, 58.2745877], [39.1425192, 58.275715], [39.1364518, 58.2793509], [39.1301264, 58.2849052], [39.1362961, 58.287552], [39.1382717, 58.2895615], [39.1381521, 58.29148], [39.127262, 58.2960622], [39.1155572, 58.2960414], [39.1119349, 58.2986632], [39.0999872, 58.2967951], [39.0975323, 58.2973999], [39.09435, 58.3041447], [39.0864755, 58.3111869], [39.0824014, 58.3120434], [39.0796574, 58.3142485], [39.075381, 58.3146692], [39.0700593, 58.3182344], [39.0704395, 58.3263188], [39.0559949, 58.3317217], [39.0463426, 58.3363327], [39.0433424, 58.3388553], [39.0426772, 58.3441281], [39.0400978, 58.3455245], [39.0244043, 58.347676], [39.0143753, 58.3423227], [39.0147746, 58.3414725], [39.0134679, 58.3400785], [39.0190012, 58.3366939], [39.0184293, 58.33637], [39.0189475, 58.3355572], [39.0219441, 58.3361898], [39.0241233, 58.3350746], [39.0280909, 58.3352058], [39.0283972, 58.3347806], [39.0268987, 58.3344331], [39.0277252, 58.3335574], [39.0272461, 58.3328461], [39.0287396, 58.3323314], [39.0275232, 58.3314589], [39.0323684, 58.3314137], [39.0329178, 58.3319499], [39.0320899, 58.3325385], [39.038783, 58.3317155], [39.0435647, 58.3329692], [39.0472137, 58.3304184], [39.0472551, 58.3291474], [39.0493699, 58.3282878], [39.0481824, 58.3276156], [39.0435985, 58.3278569], [39.0394008, 58.3267228], [39.0334447, 58.3283666], [39.0266911, 58.3285588], [39.0242685, 58.3273696], [39.0237677, 58.3259958], [39.0210953, 58.3241845], [39.0163342, 58.3280819], [39.0054501, 58.3285456], [39.0059442, 58.3334013], [39.0038129, 58.3354232], [39.0048376, 58.3377888], [39.004108, 58.3394735], [39.0081696, 58.3400654], [39.0080034, 58.3416272], [39.0093794, 58.3423392], [39.0078687, 58.3430879], [39.0104677, 58.344466], [39.0120432, 58.3436661], [39.0138941, 58.3446524], [39.0158616, 58.3441699], [39.0232495, 58.3479967], [39.0095645, 58.3498374], [38.9228792, 58.3913938], [38.1745867, 58.391508], [38.2572181, 58.2255864], [38.270496, 58.2167651], [38.2712578, 58.2122234], [38.2637359, 58.2119688], [38.2631245, 58.2126897], [38.2570195, 58.2114084], [38.2590109, 58.2092868], [38.2511077, 58.2078096], [38.2510545, 58.2042403], [38.2451941, 58.2001637], [38.2402898, 58.2023158], [38.2329215, 58.2011437], [38.228999, 58.198671], [38.2339597, 58.1960979], [38.2369127, 58.193013], [38.2382192, 58.1896711], [38.236289, 58.182952], [38.233909, 58.180683], [38.2310181, 58.1805952], [38.2317874, 58.1790109], [38.2274933, 58.1776587], [38.2231416, 58.1733807], [38.2168384, 58.1723941], [38.212981, 58.1747702], [38.2119015, 58.1770577], [38.2139197, 58.1807541], [38.2080017, 58.1833101], [38.2091711, 58.1863925], [38.2078701, 58.1897592], [38.2087167, 58.1949017], [38.1968859, 58.1994506], [38.1818664, 58.1983936], [38.1804783, 58.1911456], [38.1755861, 58.1904839], [38.17394, 58.1891552], [38.1732554, 58.1865566], [38.1749975, 58.1822799], [38.1789241, 58.1807037], [38.1703029, 58.1782375], [38.1603086, 58.183813], [38.1598788, 58.1808832], [38.1547161, 58.1778201], [38.148408, 58.1790387], [38.1456223, 58.1767413], [38.1383208, 58.1778959], [38.1359121, 58.1744002], [38.1395268, 58.1735671], [38.1420411, 58.1746291], [38.1464505, 58.1729405], [38.1445442, 58.1703521], [38.1484739, 58.1702583], [38.1483005, 58.1677847], [38.1400404, 58.1642871], [38.1385128, 58.1611125], [38.1423313, 58.1593032], [38.1411018, 58.1562046], [38.1362362, 58.1563119], [38.1332984, 58.1541974], [38.1323164, 58.1518173], [38.1279527, 58.1505959], [38.1271922, 58.149282], [38.12405, 58.1501041], [38.1244361, 58.1538187], [38.11264, 58.159893], [38.1142524, 58.1615614], [38.1120529, 58.1614238], [38.1114289, 58.1624729], [38.1137776, 58.1629197], [38.1119679, 58.1635697], [38.1119096, 58.165935], [38.109054, 58.167457], [38.108451, 58.16967], [38.110824, 58.171943], [38.11082, 58.173854], [38.1055207, 58.1767216], [38.0911023, 58.1757632], [38.091041, 58.1739165], [38.0868056, 58.1730281], [38.0799464, 58.1736829], [38.0750289, 58.1713218], [38.0660423, 58.169246], [38.0482186, 58.1612957], [38.0414584, 58.1612725], [38.040119, 58.1624041], [38.0358206, 58.1617167], [38.0343306, 58.1632719], [38.0299494, 58.1644559], [38.0239569, 58.1626236], [38.0237728, 58.1598074], [38.0164842, 58.1574018], [38.0140173, 58.1587414], [38.0100623, 58.156975], [38.010433, 58.155601], [38.0077507, 58.1521177], [38.0025916, 58.1524758], [38.0037192, 58.1542255], [38.0015007, 58.156506], [37.9953244, 58.1573095], [37.9943126, 58.1553652], [37.989091, 58.1522289], [37.9790707, 58.1559661], [37.9791725, 58.1489094], [37.9862184, 58.148716], [37.9964655, 58.1425091], [37.9930398, 58.1399159], [37.9886416, 58.1381093], [37.9869845, 58.134233], [37.9912524, 58.1339422], [37.9923233, 58.1302007], [37.9825233, 58.1271193], [37.9832935, 58.1259896], [37.9820525, 58.1252409], [37.9700561, 58.1291011], [37.9687301, 58.1268133], [37.9690018, 58.1211539], [37.9708269, 58.118677], [37.9742651, 58.1184045], [37.9763365, 58.116433], [37.9769705, 58.1144786], [37.9787735, 58.1136102], [37.977135, 58.1121107], [37.9731254, 58.113324], [37.9671071, 58.1113972], [37.9622487, 58.1121782], [37.9649394, 58.1087611], [37.959085, 58.1057523], [37.963211, 58.10399], [37.9623523, 58.1030064], [37.9591527, 58.104253], [37.9589936, 58.1033843], [37.955742, 58.1026335], [37.9497164, 58.0982342], [37.9433875, 58.0982149], [37.9340972, 58.0994559], [37.9274275, 58.0986157], [37.9271443, 58.0972593], [37.9196458, 58.0981722], [37.9135826, 58.0996746], [37.9129537, 58.1021481], [37.9079018, 58.1058329], [37.9075237, 58.1078808], [37.9053467, 58.109964], [37.8982346, 58.1091456], [37.8930677, 58.1073077], [37.8898287, 58.1076553], [37.8836404, 58.1109434], [37.8789692, 58.1122381], [37.8617269, 58.1138041], [37.8611625, 58.1159186], [37.8400164, 58.1139141], [37.82805, 58.1160778], [37.8096351, 58.1101729], [37.7920219, 58.1074459], [37.7659304, 58.1095505], [37.7595842, 58.092448], [37.7844438, 58.0981136], [37.7731224, 58.0861792], [37.7570189, 58.0839757], [37.7563636, 58.0806885], [37.7624631, 58.0785566], [37.7648591, 58.0761322], [37.7570429, 58.0744638], [37.7527719, 58.0783089], [37.7500895, 58.0836144], [37.7462146, 58.0838377], [37.7440977, 58.0900196], [37.7317267, 58.0880029], [37.7292593, 58.0889347], [37.7284499, 58.0904407], [37.7246876, 58.0893501], [37.7236173, 58.0927485], [37.7164032, 58.0934794], [37.7158212, 58.0905021], [37.7065209, 58.0975011], [37.698834, 58.0930783], [37.693524, 58.0922222], [37.6897001, 58.0857487], [37.6769304, 58.0885725], [37.6763164, 58.0901687], [37.671405, 58.090537], [37.6700543, 58.0922559], [37.6705453, 58.0952028], [37.6438392, 58.1058845], [37.6488731, 58.1094454], [37.6346298, 58.1159526], [37.6262806, 58.1134969], [37.6124058, 58.1192674], [37.6149834, 58.133756], [37.5834277, 58.1362112], [37.5809104, 58.1407541], [37.5809103, 58.1425959], [37.5838569, 58.1462794], [37.5825062, 58.1478756], [37.5818921, 58.1515591], [37.5886451, 58.1537693], [37.5887678, 58.1557339], [37.5817691, 58.1545059], [37.5812778, 58.1574528], [37.5828353, 58.1618916], [37.5761206, 58.1622413], [37.5647016, 58.1643284], [37.5559838, 58.1664155], [37.5530368, 58.1683801], [37.541618, 58.1682571], [37.539408, 58.1661698], [37.5301991, 58.1672746], [37.5171834, 58.17722], [37.5130088, 58.1774654], [37.5084656, 58.1801666], [37.5068693, 58.1837273], [37.505273, 58.184464], [37.5052486, 58.1888428], [37.4929945, 58.1859373], [37.4886971, 58.1856916], [37.4856277, 58.1832359], [37.4767416, 58.1795262], [37.4575101, 58.1854455], [37.4376189, 58.1877781], [37.4306199, 58.1930577], [37.4269363, 58.1939171], [37.424235, 58.1961272], [37.4185869, 58.1964954], [37.4135523, 58.2034941], [37.4054484, 58.2058268], [37.3937839, 58.2069317], [37.3843298, 58.2027569], [37.3819967, 58.2065631], [37.3851886, 58.2142986], [37.3789265, 58.2174909], [37.3885646, 58.2228935], [37.3867226, 58.2286643], [37.3756636, 58.2339543], [37.3350307, 58.2252256], [37.3279086, 58.2366444], [37.3388364, 58.2365217], [37.3691637, 58.2415563], [37.3656027, 58.2462221], [37.3649886, 58.2503967], [37.3858618, 58.2505198], [37.3708812, 58.2684461], [37.4012087, 58.2704111], [37.4351021, 58.2760025], [37.4323954, 58.2785154], [37.4322108, 58.2852685], [37.4268079, 58.2923898], [37.4342976, 58.293495], [37.4330696, 58.298038], [37.4301225, 58.301967], [37.4313501, 58.305405], [37.421159, 58.3061415], [37.4180893, 58.308106], [37.4200537, 58.3108073], [37.4179662, 58.3133857], [37.4038463, 58.3098248], [37.4012677, 58.3124032], [37.3925499, 58.3136309], [37.3908306, 58.3200157], [37.3929177, 58.3232081], [37.3925492, 58.3257865], [37.3898478, 58.3286105], [37.3860415, 58.3286105], [37.3834628, 58.3329078], [37.3686056, 58.3384329], [37.3656342, 58.3418724], [37.3674179, 58.3436345], [37.366825, 58.3468497], [37.3683734, 58.3474476], [37.3700066, 58.3465675], [37.3766087, 58.3471504], [37.3749895, 58.3530443], [37.3754806, 58.3552543], [37.3817259, 58.3624402], [37.3953711, 58.3620078], [37.4021245, 58.3570966], [37.4113334, 58.356974], [37.4142799, 58.361517], [37.4146479, 58.367779], [37.4274172, 58.3717083], [37.4244702, 58.3739184], [37.4247157, 58.3757601], [37.4315915, 58.3772336], [37.4333102, 58.3809172], [37.4272938, 58.3820221], [37.4272936, 58.3858284], [37.4180513, 58.3907305], [37.427907, 58.3941778], [37.4306081, 58.396879], [37.4335549, 58.3965107], [37.4379751, 58.3976159], [37.4572525, 58.3929504], [37.4768974, 58.4016684], [37.4802126, 58.4004406], [37.4789849, 58.398476], [37.4813181, 58.391723], [37.4928598, 58.3923371], [37.4980171, 58.3875486], [37.5080856, 58.3833741], [37.5085768, 58.3807956], [37.5265032, 58.3828832], [37.5283447, 58.3871806], [37.5330104, 58.3876719], [37.5359571, 58.3908643], [37.5355886, 58.3929517], [37.5339922, 58.3951617], [37.5362021, 58.4005642], [37.5403765, 58.4038795], [37.5421565, 58.4083657], [37.5425862, 58.4111238], [37.5398848, 58.4141933], [37.5409897, 58.4157895], [37.543691, 58.4154213], [37.5497078, 58.4095277], [37.5605128, 58.4092823], [37.5641961, 58.4123519], [37.5720542, 58.4140711], [37.5731592, 58.4165268], [37.5752465, 58.4166496], [37.5828588, 58.4205788], [37.587893, 58.4200878], [37.5924358, 58.4230346], [37.5980839, 58.422298], [37.6068015, 58.4232804], [37.6122042, 58.4208249], [37.624237, 58.4204566], [37.6279204, 58.4224212], [37.6295164, 58.4254909], [37.63762, 58.42721], [37.6382338, 58.4304023], [37.628779, 58.4364187], [37.6259549, 58.4405932], [37.6260773, 58.4451363], [37.6290545, 58.450939], [37.6300059, 58.4547134], [37.6405652, 58.4554503], [37.6485463, 58.4526265], [37.6525984, 58.4495569], [37.6651223, 58.4507849], [37.6280474, 58.4830954], [37.6407203, 58.4848197], [37.6518526, 58.4906331], [37.67802, 58.5115974], [37.678653, 58.5142648], [37.6942583, 58.5233217], [37.7196194, 58.5472927], [37.7177122, 58.564089], [37.7026004, 58.5675438], [37.697463, 58.5714055], [37.7110668, 58.6089395], [37.7083915, 58.6136961], [37.7121462, 58.6256771], [37.7171098, 58.625959], [37.7236662, 58.6290681], [37.7470352, 58.6284282], [37.7647302, 58.6231637], [37.8332595, 58.6305436], [37.8655903, 58.6106128], [37.8739842, 58.6087299], [37.8876467, 58.6114577], [37.8922564, 58.6106279], [37.8968179, 58.6113194], [37.8984364, 58.6128551], [37.8983611, 58.6152461], [37.9198714, 58.6339088], [37.9266468, 58.6337657], [37.927378, 58.6474513], [37.939914, 58.652712], [37.9452994, 58.6574281], [37.953819, 58.6585329], [37.9665915, 58.6631202], [37.9657309, 58.665763], [37.9566357, 58.6666162], [37.9548165, 58.6774966], [37.9598303, 58.6799831], [37.9770535, 58.6799173], [37.985603, 58.6820232], [38.0141585, 58.6826526], [38.0229711, 58.6894458], [37.9961325, 58.6969847], [37.9834815, 58.7071152], [37.9961429, 58.7102332], [38.018375, 58.7136657], [38.0605268, 58.7292472], [38.0645543, 58.730111], [38.0954361, 58.7286364], [38.2842527, 58.7284778], [38.412961, 58.726816], [38.4825923, 58.6998916], [38.4862232, 58.6996141], [38.5121074, 58.7138398], [38.5103317, 58.7147502], [38.5155523, 58.7196614], [38.5199831, 58.7179965], [38.5211836, 58.7161667], [38.5235446, 58.7154112], [38.5273621, 58.7155781], [38.5280757, 58.7195586], [38.5391412, 58.7268148], [38.5410042, 58.7407412], [38.5481463, 58.744237], [38.5472145, 58.7480552], [38.5539432, 58.7508301], [38.5652212, 58.7517119], [38.5643384, 58.7595157], [38.5568489, 58.75956], [38.5500568, 58.763613], [38.556218, 58.7646714], [38.5577776, 58.7669312], [38.5563441, 58.770728], [38.5572912, 58.7728275], [38.5734219, 58.7694171], [38.5898866, 58.7706934], [38.5891717, 58.7647807], [38.6111181, 58.7668867], [38.6143426, 58.7591517], [38.6356041, 58.7611527], [38.6355479, 58.7595674], [38.6490137, 58.7509486], [38.6566686, 58.7558704], [38.6628915, 58.757303], [38.6738807, 58.7455923], [38.6766232, 58.7299639], [38.6871905, 58.7279625], [38.6945954, 58.7326679], [38.7019992, 58.7326463], [38.6906576, 58.7474716], [38.6983668, 58.7503654], [38.6971744, 58.751628], [38.7003011, 58.7528582], [38.7069991, 58.7492051], [38.719124, 58.7536022], [38.7287553, 58.7456798], [38.7387592, 58.749681], [38.7478051, 58.7454615], [38.7513238, 58.7474639], [38.7559362, 58.7458271], [38.8422986, 58.7469959], [38.8478417, 58.7347741], [38.9232629, 58.7333315], [38.9216677, 58.7700984], [38.91903, 58.7716171], [38.9158314, 58.7790622], [38.9320151, 58.7872241], [38.9382817, 58.7953795], [38.9200875, 58.8071583], [38.9410131, 58.8055711], [38.9706957, 58.8186621], [38.978709, 58.82311], [38.9904974, 58.826576], [38.9975713, 58.8316714], [39.005826, 58.8328942], [39.0003228, 58.8377856], [39.0156587, 58.8449177], [39.0219506, 58.8455282], [39.017627, 58.8491974], [39.0360621, 58.8556553], [39.0255003, 58.8599976], [39.0136985, 58.8602033], [39.0018965, 58.8583697], [38.998356, 58.8606115], [38.9922747, 58.861815], [38.9924539, 58.8657064], [38.9574578, 58.8913728], [38.9443844, 58.8935262], [38.9439498, 58.8951563], [38.9262167, 58.8969671], [38.9246651, 58.9064839], [38.9441779, 58.9074224], [38.9487615, 58.943357], [38.989808, 58.9560117], [38.9983744, 58.9490405], [39.0147576, 58.9511757], [39.0061145, 58.9442684], [39.0238179, 58.9280684], [39.0739179, 58.9321776], [39.1099596, 58.9379469], [39.1149767, 58.9480392], [39.1241245, 58.9509897], [39.1382701, 58.9438243], [39.1753453, 58.930193], [39.1864957, 58.9302906], [39.1902769, 58.9280442], [39.1950746, 58.9279236], [39.2021216, 58.9252627], [39.2104071, 58.9266761], [39.2166816, 58.9215707], [39.2253503, 58.9213521], [39.2348807, 58.9153342], [39.2351014, 58.9064572], [39.2401969, 58.9027794], [39.2398493, 58.8956842], [39.2425205, 58.8949327], [39.2448358, 58.8988953], [39.2582894, 58.8992798], [39.2594908, 58.9019269], [39.267398, 58.9057831], [39.2675279, 58.9084316], [39.2646811, 58.9110875], [39.2587853, 58.9130759], [39.2578406, 58.91538], [39.2611876, 58.9180239], [39.2907233, 58.9242786], [39.3342663, 58.9261631], [39.3321933, 58.923184], [39.3294658, 58.9225983], [39.3297713, 58.9213875], [39.3277202, 58.92141], [39.3314733, 58.9194613], [39.3290949, 58.917659], [39.329324, 58.9170901], [39.3322042, 58.9159241], [39.338481, 58.915475], [39.3409774, 58.9164829], [39.3437618, 58.9153703], [39.3455221, 58.916213], [39.342503, 58.9167418], [39.3430257, 58.917199], [39.3464716, 58.9173642], [39.3492454, 58.9187466], [39.3534808, 58.9171604], [39.3533207, 58.9156843], [39.3496721, 58.9143513], [39.3519979, 58.9125941], [39.3540462, 58.9125776], [39.3561891, 58.9136865], [39.3589856, 58.9130528], [39.3592924, 58.9117445], [39.3665915, 58.9111824], [39.3671392, 58.9114787], [39.3665133, 58.9120713], [39.3674783, 58.9122059], [39.3707514, 58.9110814], [39.3686557, 58.9099817], [39.3706939, 58.9079097], [39.3703334, 58.9061865], [39.3722503, 58.9046914], [39.3678166, 58.9018492], [39.3673472, 58.9003472], [39.3635003, 58.8991617], [39.3631222, 58.8975989], [39.3718964, 58.8951542], [39.374989, 58.8916828], [39.3770021, 58.8908846], [39.3775237, 58.8901687], [39.3769532, 58.8883832], [39.3743288, 58.8863028], [39.3759263, 58.8839443], [39.3784365, 58.8834304], [39.3805066, 58.8846182], [39.3810764, 58.885913], [39.3874669, 58.888839], [39.3893141, 58.8883053], [39.3945666, 58.8913029], [39.4002556, 58.8919987], [39.4146111, 58.8964274], [39.4306607, 58.8959919], [39.4259624, 58.9045022], [39.4285233, 58.9052336], [39.4356747, 58.8970821], [39.4425315, 58.8991465], [39.4443256, 58.8968095], [39.4508485, 58.8956081], [39.4570278, 58.8932304], [39.4575948, 58.8888158], [39.4530087, 58.8884281], [39.4554233, 58.8778388], [39.456582, 58.8766631], [39.4558954, 58.8751325], [39.4605732, 58.8738015], [39.4682121, 58.8766188], [39.4673538, 58.8777722], [39.4678178, 58.8799501], [39.4733518, 58.8819687], [39.4830179, 58.8826296], [39.4864511, 58.8815207], [39.4977999, 58.8822977], [39.5334005, 58.8795689], [39.5396288, 58.8799572], [39.542799, 58.8781493], [39.5501583, 58.8763563], [39.5575618, 58.8754653], [39.5714039, 58.8758566], [39.5695781, 58.8772621], [39.569316, 58.8790926], [39.5709943, 58.8810771], [39.5727968, 58.8814985], [39.5815845, 58.8879868], [39.5824448, 58.889806], [39.5874079, 58.8880256], [39.5994901, 58.9022076], [39.604377, 58.9006141], [39.6251374, 58.8921168], [39.6327101, 58.8871331], [39.6328783, 58.8832063], [39.6363254, 58.87966], [39.6462979, 58.8738549], [39.6567977, 58.8722322], [39.6885692, 58.8542523], [39.6885847, 58.8499844], [39.6963435, 58.8445726], [39.7127948, 58.8376109], [39.7114192, 58.8344016], [39.7197302, 58.8204385], [39.7394703, 58.8343135], [39.7585149, 58.8327969], [39.7823517, 58.8379686], [39.793261, 58.8370574], [39.79191, 58.8284281], [39.8015519, 58.825915], [39.8068204, 58.8234778], [39.8034925, 58.8193889], [39.8126884, 58.8093443], [39.8297614, 58.8004718], [39.8393667, 58.7862354], [39.8342664, 58.7824182], [39.8537782, 58.7794499], [39.8514277, 58.7746872], [39.855681, 58.7685072], [39.862677, 58.765811], [39.8695142, 58.7567971], [39.8709576, 58.7524058], [39.8789907, 58.7502548], [39.8831165, 58.7513864], [39.8875687, 58.748857], [39.9146682, 58.758523], [39.9542853, 58.7584397], [39.9738027, 58.7451529], [39.9770186, 58.7437983], [39.9758025, 58.7423807], [39.9732182, 58.7413664], [39.9733268, 58.7393508], [39.9796882, 58.7411283], [39.9831643, 58.7392675], [39.9899627, 58.7389584], [39.9907624, 58.7412161], [39.9942094, 58.7416286], [39.997559, 58.7402315], [39.9981761, 58.7432285], [40.0036995, 58.7444086], [40.0063612, 58.7415343], [40.0114454, 58.7410869], [40.0173728, 58.7426708], [40.0200751, 58.7412227], [40.0184178, 58.7381785], [40.0144329, 58.7359678], [40.0135009, 58.7308796], [40.0146054, 58.7284251], [40.0143919, 58.7210892], [40.0177096, 58.7139293], [40.02056, 58.7115536], [40.0190285, 58.7038357], [40.025711, 58.6965538], [40.025633, 58.6902274], [40.0297586, 58.6871713], [40.0386573, 58.6829004], [40.0357434, 58.6773081], [40.0457309, 58.6767365], [40.0486082, 58.6794535], [40.0515678, 58.6804341], [40.0542761, 58.6793928], [40.0537865, 58.6761356], [40.0477322, 58.6676897], [40.0463289, 58.6623364], [40.0484921, 58.656204], [40.0698428, 58.6509327], [40.0784379, 58.6506572], [40.0777628, 58.6541278], [40.0947291, 58.6588765], [40.0975304, 58.6608909], [40.1006591, 58.6608642], [40.104903, 58.6589934], [40.1151111, 58.6499336], [40.1256895, 58.6492955], [40.1302279, 58.6427459], [40.1359364, 58.6269261], [40.123609, 58.620308], [40.1060244, 58.6202566], [40.0910804, 58.6231941], [40.0767969, 58.6081788], [40.0832669, 58.6045516], [40.0808676, 58.6027374], [40.0908602, 58.5975573], [40.0883027, 58.5951981], [40.0996532, 58.5915714], [40.1112912, 58.5892292], [40.1111814, 58.5857651], [40.117035, 58.5857143], [40.1185114, 58.5830517], [40.1235122, 58.580766], [40.1300863, 58.5788738], [40.1414952, 58.5779432], [40.1415283, 58.5815522], [40.1472421, 58.5804135], [40.1515181, 58.5778683], [40.1624692, 58.578585], [40.1858729, 58.5551344], [40.2040018, 58.5492585], [40.2237118, 58.5493688], [40.2294039, 58.5478191], [40.2422717, 58.5494884], [40.2446004, 58.5505022], [40.2500144, 58.5492267], [40.2566318, 58.5501208], [40.264165, 58.5523496], [40.2687621, 58.550062], [40.2744156, 58.5494506], [40.2752385, 58.5468573], [40.2725274, 58.5463558], [40.2847616, 58.5397112], [40.3023233, 58.5352421], [40.3174626, 58.5343376], [40.3245107, 58.5393075], [40.3275728, 58.5366209], [40.3333642, 58.547028], [40.3397373, 58.5528637], [40.3430292, 58.5548665], [40.3465854, 58.5528909], [40.3619269, 58.5531275], [40.3685086, 58.5523552], [40.3697297, 58.5484015], [40.3789169, 58.5448501], [40.3924447, 58.5418504], [40.4014893, 58.5437905], [40.4065149, 58.5427163], [40.4113978, 58.5462648], [40.4179454, 58.5431649], [40.4322526, 58.5428395], [40.43008, 58.53736], [40.4421592, 58.537225], [40.4548305, 58.5419743], [40.4655889, 58.5381828], [40.4694087, 58.5382287], [40.4672583, 58.5408137], [40.4681199, 58.543795], [40.4579321, 58.5475594], [40.4676586, 58.5503897], [40.4794884, 58.5474975], [40.4892447, 58.5492338], [40.4901019, 58.5462583], [40.4962162, 58.5433334], [40.5127635, 58.5469068], [40.524974, 58.5590991], [40.5357096, 58.5610011], [40.5350296, 58.5671282], [40.5694486, 58.5679404], [40.5922842, 58.5790569], [40.5997629, 58.5805429], [40.5988969, 58.5823717], [40.6054649, 58.5850501], [40.608548, 58.5854113], [40.6160178, 58.5791058], [40.6222309, 58.5787004], [40.624713, 58.5812291], [40.6274437, 58.5813368], [40.6263868, 58.5841519], [40.6264432, 58.5880747], [40.6625994, 58.5912602], [40.6822836, 58.5938288], [40.6944401, 58.5943234], [40.6981153, 58.5901552], [40.7111031, 58.5842751], [40.7297102, 58.5895301], [40.7381658, 58.5873018], [40.7537581, 58.5863502], [40.7639426, 58.5870263], [40.7653388, 58.5911364], [40.7825567, 58.5941028], [40.7860187, 58.5912063], [40.793885, 58.59232], [40.8034195, 58.5879055], [40.8137213, 58.5908184], [40.8316866, 58.5834286], [40.8346047, 58.5795137], [40.8347389, 58.5746191], [40.8566795, 58.5769958], [40.8729261, 58.5886091], [40.8799702, 58.5912067], [40.8902914, 58.5912654], [40.8894461, 58.5779442], [40.8933344, 58.5756038], [40.89986, 58.5741127], [40.9090516, 58.5742429], [40.9180927, 58.5787024], [40.9300717, 58.5763356], [40.9425738, 58.5672741], [40.9380143, 58.5629677], [40.9681595, 58.5581552], [40.9671465, 58.5530888], [40.9795594, 58.547516], [40.9901987, 58.5495427], [41.0192011, 58.5417391], [41.0226242, 58.5333309], [41.0236379, 58.5277579], [41.0355442, 58.5204119], [41.0375709, 58.5171187], [41.0464373, 58.5128125], [41.0525173, 58.5069863], [41.0580903, 58.5067331], [41.0563172, 58.5039466], [41.0525177, 58.5004001], [41.0439051, 58.4955869], [41.0416549, 58.484808], [41.0708854, 58.4861355], [41.069111, 58.4825414], [41.0741774, 58.4833014], [41.0762041, 58.479755], [41.074431, 58.4777284], [41.0744312, 58.4739287], [41.0787379, 58.4688624], [41.0893774, 58.4655694], [41.0995101, 58.4658229], [41.1038093, 58.4631485], [41.0997638, 58.4592367], [41.1002706, 58.4567036], [41.0881114, 58.4554367], [41.0881112, 58.4584765], [41.0868446, 58.4589832], [41.0840583, 58.4551834], [41.0658198, 58.4485968], [41.0620203, 58.4437837], [41.0559408, 58.4415038], [41.0483412, 58.441757], [41.0675943, 58.4263049], [41.0820334, 58.4265584], [41.0898865, 58.4222522], [41.1015394, 58.4176926], [41.098753, 58.4151594], [41.1060995, 58.4093332], [41.1164857, 58.4078134], [41.1223121, 58.4060403], [41.116486, 58.4024937], [41.1362453, 58.3946412], [41.1458712, 58.3969846], [41.1506842, 58.3962247], [41.1532176, 58.3939449], [41.1537243, 58.3921716], [41.1580308, 58.3914118], [41.1706972, 58.3825458], [41.1785501, 58.382546], [41.1625915, 58.3749462], [41.1562582, 58.3784925], [41.1481531, 58.3753003], [41.1509391, 58.3703863], [41.1653786, 58.3622804], [41.1691787, 58.3569608], [41.1742451, 58.3567075], [41.1770317, 58.3549344], [41.1803252, 58.3491081], [41.1896979, 58.3503749], [41.1896981, 58.3465751], [41.1879251, 58.3430286], [41.1934982, 58.3410022], [41.1904586, 58.3356824], [41.1904587, 58.3339092], [41.1864056, 58.3339091], [41.1802232, 58.3359915], [41.1761918, 58.3363637], [41.1610739, 58.3321355], [41.1554886, 58.3278686], [41.1603143, 58.3247893], [41.1562614, 58.3232693], [41.1471425, 58.3144031], [41.13777, 58.3090832], [41.1387834, 58.3060434], [41.1061441, 58.2901512], [41.1054622, 58.2906187], [41.0929213, 58.2865046], [41.0880591, 58.285663], [41.0863395, 58.2863175], [41.0870214, 58.2873617], [41.0827474, 58.2900027], [41.0819193, 58.2896776], [41.0762001, 58.2920679], [41.0743828, 58.2916445], [41.0715003, 58.2893856], [41.0737434, 58.2874517], [41.0720713, 58.2870226], [41.0673137, 58.2890958], [41.0690443, 58.2902665], [41.0699745, 58.2918034], [41.0695002, 58.2921365], [41.0645898, 58.2917489], [41.0531199, 58.2883848], [41.056055, 58.2865127], [41.0561812, 58.2856223], [41.0591712, 58.285771], [41.0594146, 58.2850145], [41.0565851, 58.2841222], [41.0506741, 58.2840053], [41.0459268, 58.2820356], [41.045345, 58.2828851], [41.0425767, 58.2828091], [41.0427249, 58.2837852], [41.036835, 58.2840203], [41.0319498, 58.2792174], [41.0308549, 58.2747663], [41.0246019, 58.2693566], [41.0007712, 58.2579604], [40.9958517, 58.2527178], [40.9863526, 58.2466381], [40.9838197, 58.2427117], [40.9838198, 58.2395451], [40.9854666, 58.2354921], [40.9850869, 58.2315657], [40.9811606, 58.2276392], [40.9784446, 58.2225744], [40.9761594, 58.2205008], [40.972356, 58.2198058], [40.9688692, 58.2219783], [40.9682093, 58.2252016], [40.9719805, 58.2290544], [40.9704302, 58.2303593], [40.9671096, 58.2297916], [40.9626545, 58.2254699], [40.9604381, 58.2183229], [40.9612428, 58.2151217], [40.9654967, 58.2073419], [40.9664248, 58.2023985], [40.9655772, 58.1993343], [40.9614852, 58.1949881], [40.9584593, 58.193351], [40.9539582, 58.1923446], [40.9358969, 58.1940785], [40.9199914, 58.1911408], [40.9181568, 58.1920512], [40.9130445, 58.1991785], [40.9085437, 58.1996562], [40.9065428, 58.1989608], [40.9027555, 58.1942792], [40.8961412, 58.1897468], [40.8951219, 58.1877108], [40.896109, 58.1834321], [40.8941081, 58.1822556], [40.8875299, 58.1817762], [40.8835908, 58.179451], [40.8825662, 58.1767129], [40.8830738, 58.1701859], [40.8864614, 58.1509153], [40.8950615, 58.1341708], [40.8955336, 58.1298885], [40.8939028, 58.1235944], [40.8945894, 58.1186422], [40.8971, 58.1111048], [40.896585, 58.1083048], [40.8909202, 58.1061622], [40.8839893, 58.1062982], [40.8823586, 58.1074886], [40.8783646, 58.1133073], [40.8752854, 58.1149452], [40.8729572, 58.1143445], [40.8706291, 58.1119981], [40.8690626, 58.1067495], [40.8646853, 58.1052077], [40.8621855, 58.1056555], [40.8611555, 58.1069649], [40.862797, 58.1104508], [40.8623035, 58.1122078], [40.8578939, 58.1126046], [40.8527441, 58.110635], [40.8516605, 58.1093881], [40.8510382, 58.1062649], [40.8471115, 58.1001877], [40.8520789, 58.0927258], [40.8536238, 58.0858409], [40.851757, 58.0841564], [40.8430881, 58.083799], [40.8392579, 58.0819329], [40.8395798, 58.0776329], [40.8384854, 58.0726686], [40.8409745, 58.0681292], [40.8405346, 58.0666822], [40.8391077, 58.0658594], [40.8317262, 58.0637823], [40.82501, 58.0634531], [40.8177466, 58.0636063], [40.8044964, 58.0653997], [40.794068, 58.0639184], [40.77923, 58.0647697], [40.7738549, 58.0635042], [40.7708079, 58.0610069], [40.7709795, 58.0568975], [40.7750136, 58.0493925], [40.771752, 58.0447139], [40.7716984, 58.0428741], [40.7758719, 58.0359938], [40.7791174, 58.0328158], [40.7937139, 58.0267716], [40.798558, 58.0219683], [40.80157, 58.0201324], [40.804368, 58.0199523], [40.8140285, 58.023085], [40.8195763, 58.0225411], [40.8234547, 58.020736], [40.823426, 58.0195649], [40.8218226, 58.0188185], [40.8067118, 58.0167727], [40.8061028, 58.0147106], [40.8099398, 58.0089897], [40.8090874, 58.0066258], [40.8040473, 58.005161], [40.7907356, 58.0044777], [40.7897756, 58.0006722], [40.7901981, 57.996163], [40.786922, 57.9942067], [40.7788357, 57.9932757], [40.7777832, 57.9920264], [40.7793471, 57.9899049], [40.7785763, 57.9890445], [40.7738549, 57.9900817], [40.7713423, 57.9937235], [40.7675622, 57.9963515], [40.7628631, 57.9976163], [40.7601726, 57.9971764], [40.7563777, 57.9946506], [40.7475131, 57.9922975], [40.7475353, 57.9909461], [40.7511746, 57.9886988], [40.7392583, 57.9879629], [40.7361975, 57.9927495], [40.7258963, 57.992789], [40.7201743, 57.9920033], [40.7151852, 57.9912374], [40.7153746, 57.9895969], [40.7117373, 57.9892829], [40.7106461, 57.9928956], [40.7044525, 57.991558], [40.7028235, 57.9884125], [40.6920711, 57.9861249], [40.6887133, 57.9841191], [40.690925, 57.9819824], [40.6892064, 57.9812059], [40.6878856, 57.9817895], [40.6800838, 57.9816007], [40.6812267, 57.9828089], [40.6759877, 57.9855599], [40.6746709, 57.9826431], [40.6747154, 57.9786975], [40.6789566, 57.9684782], [40.6781218, 57.9650061], [40.6747261, 57.9600847], [40.6660535, 57.9540379], [40.6610237, 57.9514222], [40.6494513, 57.9473323], [40.6396098, 57.9414396], [40.6418695, 57.9397325], [40.6440278, 57.9364613], [40.6464167, 57.9353262], [40.641682, 57.9315198], [40.6404369, 57.9254354], [40.6266876, 57.9146594], [40.5976725, 57.8971095], [40.6029554, 57.8925965], [40.6130786, 57.8794768], [40.6232605, 57.8744625], [40.6268813, 57.8699183], [40.6382586, 57.8644941], [40.6397113, 57.8630826], [40.6400301, 57.8618051], [40.638896, 57.8579804], [40.622468, 57.8479405], [40.6221099, 57.8451184], [40.6317436, 57.8341274], [40.6390414, 57.8293342], [40.6508235, 57.8192283], [40.6525968, 57.8144604], [40.6496378, 57.8079846], [40.6510019, 57.8011347], [40.6507973, 57.7979818], [40.6467733, 57.7960918], [40.6417603, 57.7951831], [40.630668, 57.79832], [40.627326, 57.7957667], [40.6343146, 57.7921493], [40.6344592, 57.7870613], [40.6361592, 57.7858272], [40.6144663, 57.7820114], [40.6133069, 57.7812114], [40.6161388, 57.776206], [40.6245263, 57.7685004], [40.6574685, 57.7593144], [40.6470845, 57.7275182], [40.6484827, 57.7270539], [40.6554149, 57.7292485], [40.6602404, 57.7296612], [40.6749487, 57.7300979], [40.6775405, 57.7293917], [40.6778275, 57.7266614], [40.670729, 57.7260228], [40.6717276, 57.7233684], [40.6672021, 57.7231517], [40.6658587, 57.7200662], [40.6617338, 57.7156168], [40.655755, 57.6970053], [40.6734137, 57.6974755], [40.718094, 57.6621025], [40.7080519, 57.6526323], [40.7127408, 57.6514463], [40.7104331, 57.6426868], [40.7056162, 57.642924], [40.7026226, 57.6410654], [40.6972874, 57.6406317], [40.6973598, 57.638273], [40.7023485, 57.6389835], [40.7056252, 57.638153], [40.7086132, 57.6348296], [40.7026873, 57.6330579], [40.7048274, 57.6311086], [40.7033172, 57.6289123], [40.7040163, 57.6274973], [40.7073177, 57.6257759], [40.7008763, 57.6240347], [40.6959098, 57.6211648], [40.6929735, 57.6180566], [40.6885629, 57.6103413], [40.6777836, 57.6002153], [40.6734561, 57.5935083], [40.6503518, 57.5853312], [40.6465894, 57.5809315], [40.6448598, 57.5800232], [40.6433957, 57.5804341], [40.63876, 57.5781525], [40.6319845, 57.5688201], [40.6270293, 57.5691421], [40.6229435, 57.5703636], [40.616913, 57.5704854], [40.6163344, 57.5691673], [40.6125203, 57.5693765], [40.5987178, 57.5722121], [40.6048582, 57.5755343], [40.6075215, 57.5788755], [40.606777, 57.5819241], [40.6041316, 57.5845241], [40.6075178, 57.5873831], [40.6122956, 57.5898012], [40.6153467, 57.5932913], [40.6107474, 57.594628], [40.5918241, 57.5975205], [40.5884626, 57.5950821], [40.5847569, 57.5966153], [40.5798126, 57.5955492], [40.5757334, 57.5910364], [40.5724374, 57.5922414], [40.5704951, 57.591049], [40.5681324, 57.5909021], [40.564086, 57.5859], [40.5594135, 57.584262], [40.5581815, 57.5851464], [40.5489764, 57.5826126], [40.5472876, 57.5855242], [40.5397794, 57.5848391], [40.5389579, 57.5862459], [40.5248015, 57.5929701], [40.5157751, 57.5925406], [40.5173586, 57.5868464], [40.510933, 57.5817717], [40.5078064, 57.5840227], [40.5024549, 57.5819796], [40.4983128, 57.5818757], [40.5032167, 57.5722104], [40.5072421, 57.5680748], [40.5053707, 57.5663613], [40.4901946, 57.5595187], [40.4871822, 57.5615508], [40.4649999, 57.5658594], [40.4605726, 57.5636072], [40.4598879, 57.5616487], [40.4532329, 57.5568539], [40.4488292, 57.5580616], [40.4477373, 57.5594152], [40.4482819, 57.5540422], [40.4536931, 57.5512733], [40.4483446, 57.5506606], [40.4481815, 57.5485598], [40.4444904, 57.5472487], [40.4463111, 57.5448465], [40.4441301, 57.5441303], [40.4426182, 57.5446537], [40.4408639, 57.5431446], [40.4428921, 57.5427994], [40.4410933, 57.5418069], [40.4432802, 57.5402799], [40.4414224, 57.5396349], [40.4401927, 57.5381934], [40.4446488, 57.5384855], [40.4420502, 57.5364783], [40.4467015, 57.5367222], [40.4426037, 57.5344827], [40.4475599, 57.5353329], [40.447408, 57.5344956], [40.4455036, 57.5342432], [40.4465679, 57.5332128], [40.4509254, 57.5346486], [40.4515362, 57.5324688], [40.4542027, 57.5332352], [40.4563212, 57.5350065], [40.4578946, 57.5333732], [40.460827, 57.5339071], [40.4618859, 57.5325565], [40.4651242, 57.5329715], [40.4688427, 57.5301195], [40.4752715, 57.5294676], [40.4757026, 57.5283476], [40.479115, 57.5265526], [40.4730389, 57.5241448], [40.4719093, 57.5227844], [40.4672119, 57.5203897], [40.4704804, 57.5187323], [40.4764073, 57.5190743], [40.4828358, 57.5205346], [40.4962379, 57.5168694], [40.5045804, 57.5178487], [40.5066833, 57.5163378], [40.5056476, 57.5157045], [40.5069848, 57.5096222], [40.4992438, 57.5075889], [40.5024874, 57.5040635], [40.499485, 57.5023089], [40.4964096, 57.50375], [40.4931993, 57.5033558], [40.4884881, 57.5042786], [40.4864136, 57.5059401], [40.4827344, 57.5056677], [40.4809301, 57.5070613], [40.4705883, 57.5109127], [40.4651285, 57.510748], [40.4625931, 57.5116347], [40.4532456, 57.5106663], [40.4513588, 57.5095959], [40.4492598, 57.5068783], [40.4505856, 57.5064171], [40.4515169, 57.5071574], [40.4562456, 57.5057004], [40.4518678, 57.501794], [40.4429833, 57.5035923], [40.4381118, 57.5074499], [40.4369611, 57.5061106], [40.4343178, 57.5065406], [40.4350113, 57.5084461], [40.4310261, 57.5101397], [40.4309553, 57.512439], [40.429397, 57.5125759], [40.4247149, 57.5098483], [40.4242313, 57.5086068], [40.4209823, 57.5080951], [40.4184977, 57.502288], [40.4056299, 57.4934517], [40.4266527, 57.4859343], [40.4206587, 57.4833738], [40.4201281, 57.481003], [40.4255525, 57.4783531], [40.4256233, 57.4773514], [40.4279817, 57.4751767], [40.4320972, 57.4724376], [40.4318732, 57.4712075], [40.4261648, 57.4716259], [40.4155316, 57.4664276], [40.4181975, 57.4626439], [40.4167686, 57.4602816], [40.4199761, 57.4567548], [40.4230918, 57.4569699], [40.4288464, 57.4551556], [40.4287757, 57.4537727], [40.4296011, 57.45317], [40.429153, 57.4525546], [40.4307597, 57.4513238], [40.4353734, 57.451641], [40.4399272, 57.4495258], [40.4370049, 57.4481468], [40.4382493, 57.4467233], [40.4355102, 57.4453782], [40.4339165, 57.4425819], [40.4214327, 57.4383163], [40.4239592, 57.43692], [40.4283106, 57.4375515], [40.430669, 57.4385987], [40.4325027, 57.4406772], [40.4380215, 57.442635], [40.4402621, 57.4416387], [40.4407185, 57.4399688], [40.4445333, 57.4381093], [40.4388317, 57.4362845], [40.440801, 57.4353388], [40.4417678, 57.4333158], [40.4432912, 57.4324436], [40.4401995, 57.4319193], [40.4395863, 57.4343822], [40.4376378, 57.4361517], [40.4338175, 57.4355081], [40.4334991, 57.4345116], [40.4359082, 57.4304914], [40.4379247, 57.4295646], [40.4390453, 57.4252928], [40.4437328, 57.4242378], [40.4446484, 57.4205818], [40.4439773, 57.417478], [40.4333959, 57.4158345], [40.4344632, 57.4143256], [40.4318283, 57.4135532], [40.4331124, 57.4122509], [40.4294101, 57.411173], [40.4316281, 57.4103556], [40.4322452, 57.4089543], [40.4351803, 57.4092687], [40.4381988, 57.408056], [40.4383822, 57.4064211], [40.4353804, 57.4044896], [40.424874, 57.4039685], [40.422201, 57.4090292], [40.4213934, 57.4093364], [40.4137288, 57.4081081], [40.4131273, 57.4088703], [40.4055282, 57.4085968], [40.3933257, 57.4069329], [40.3945635, 57.4045627], [40.3923112, 57.4027458], [40.3935376, 57.4011957], [40.3908869, 57.4008836], [40.3918963, 57.3987722], [40.3901028, 57.3987284], [40.3944777, 57.3937528], [40.3946605, 57.3920879], [40.3981014, 57.3909078], [40.4012866, 57.3877891], [40.4036964, 57.3869128], [40.4030877, 57.3864364], [40.4055392, 57.3860139], [40.4054142, 57.3854432], [40.4107591, 57.3851106], [40.4109592, 57.3841893], [40.4125602, 57.3841488], [40.4137776, 57.3828724], [40.4284792, 57.3819438], [40.4356111, 57.3797384], [40.4401805, 57.3792799], [40.441183, 57.3802971], [40.4469013, 57.3788034], [40.4473368, 57.3769349], [40.4435344, 57.3751098], [40.4415666, 57.3763145], [40.4391159, 57.3743804], [40.4397897, 57.3739746], [40.4374193, 57.3691177], [40.4403497, 57.3689715], [40.446977, 57.3706247], [40.4481942, 57.3659574], [40.4454925, 57.3653278], [40.4437248, 57.3639788], [40.4391887, 57.3642306], [40.4367286, 57.3601212], [40.4387622, 57.3568417], [40.4381962, 57.3557286], [40.4333869, 57.3544701], [40.4267597, 57.3499661], [40.4259696, 57.3489227], [40.4298621, 57.346877], [40.4349324, 57.3473241], [40.434653, 57.3375822], [40.4246904, 57.3379953], [40.4243235, 57.3356012], [40.4266249, 57.3305424], [40.4252907, 57.3278597], [40.4295266, 57.3228899], [40.4295933, 57.3203507], [40.4335291, 57.3191441], [40.4370646, 57.3191441], [40.4403332, 57.3169649], [40.4381485, 57.3156996], [40.4374782, 57.312456], [40.4315697, 57.3130881], [40.4231028, 57.3124321], [40.4222774, 57.3112794], [40.42423, 57.3093603], [40.4277146, 57.3088412], [40.4243566, 57.3028656], [40.4274001, 57.2986159], [40.4355384, 57.2990033], [40.4367391, 57.2961381], [40.4338207, 57.2940116], [40.438807, 57.2912541], [40.4388737, 57.2891634], [40.4362221, 57.2893616], [40.4296181, 57.2876222], [40.430464, 57.2858292], [40.4274293, 57.2862742], [40.4219023, 57.2850307], [40.419359, 57.2824623], [40.4217685, 57.2791341], [40.4171554, 57.274634], [40.404191, 57.2661727], [40.4004896, 57.2701957], [40.3865413, 57.2711302], [40.3842049, 57.268734], [40.3733723, 57.2730726], [40.3701015, 57.2730893], [40.3668858, 57.2751795], [40.3671604, 57.2799325], [40.3664307, 57.282945], [40.3616883, 57.2833643], [40.3584759, 57.2817531], [40.3488157, 57.2816665], [40.3445323, 57.2806174], [40.3348158, 57.2813077], [40.3275239, 57.2847144], [40.3238438, 57.2881817], [40.2979604, 57.2876109], [40.2916165, 57.2844861], [40.286102, 57.280686], [40.2850985, 57.2773007], [40.2709845, 57.286109], [40.2671622, 57.2869478], [40.2625083, 57.2862511], [40.2578692, 57.2800114], [40.2621731, 57.2753493], [40.2527961, 57.2730916], [40.250431, 57.2760653], [40.2472302, 57.2771422], [40.2432685, 57.2760226], [40.2367328, 57.271532], [40.2323871, 57.2711287], [40.2284466, 57.2723928], [40.2232391, 57.2754981], [40.2176347, 57.2737431], [40.2134945, 57.2704931], [40.213795, 57.2652473], [40.1996495, 57.2648937], [40.1974125, 57.263584], [40.1829323, 57.2634175], [40.1798265, 57.261079], [40.176393, 57.2604083], [40.1764235, 57.2560104], [40.1914095, 57.2555784], [40.1937904, 57.2520879], [40.2069699, 57.2519539], [40.2085055, 57.2555126], [40.21972, 57.2554808], [40.222086, 57.2574785], [40.2325594, 57.2574829], [40.2349289, 57.2511259], [40.2435296, 57.246199], [40.2345361, 57.2439485], [40.2287485, 57.2435592], [40.2194802, 57.2358314], [40.2110803, 57.2317312], [40.2078607, 57.2293665], [40.210908, 57.2262733], [40.2096223, 57.2256322], [40.2015906, 57.2289174], [40.1999054, 57.2327198], [40.1986765, 57.233348], [40.193809, 57.2326151], [40.1877224, 57.2341916], [40.1840162, 57.2323451], [40.1826047, 57.2296168], [40.1758551, 57.2260752], [40.180229, 57.2202893], [40.1885273, 57.2148846], [40.193111, 57.2038735], [40.1910102, 57.2012317], [40.1889788, 57.2000912], [40.1800584, 57.1969274], [40.1604095, 57.1946729], [40.1502209, 57.1908299], [40.1494861, 57.197291], [40.1405128, 57.2010843], [40.1289989, 57.1977935], [40.1254344, 57.2011844], [40.1197477, 57.2023667], [40.1084341, 57.197903], [40.1037781, 57.1977213], [40.0934683, 57.1951187], [40.088746, 57.1961857], [40.0873641, 57.2001532], [40.0846595, 57.2006239], [40.0812087, 57.2000639], [40.0800477, 57.2007814], [40.0590685, 57.2022909], [40.052497, 57.1989988], [40.0492254, 57.2000227], [40.0479766, 57.2018652], [40.0419006, 57.2034874], [40.031508, 57.2087308], [40.0260028, 57.206929], [40.0260713, 57.204401], [40.0239068, 57.2001729], [40.0191727, 57.1996324], [40.0202935, 57.1954097], [40.0216689, 57.1947435], [40.0191489, 57.1921839], [40.0168982, 57.1934926], [40.0032191, 57.1931569], [40.0016801, 57.1914138], [39.9969399, 57.1901577], [39.9970096, 57.1890342], [39.9983561, 57.1879194], [40.0015131, 57.1875241], [40.0005611, 57.1861324], [39.9972016, 57.1854935], [39.9941867, 57.1862784], [39.9916975, 57.1828667], [39.9881058, 57.1822051], [39.9815706, 57.1811651], [39.974618, 57.1813076], [39.971549, 57.1794825], [39.9701075, 57.180834], [39.96247, 57.1798291], [39.9600178, 57.1776248], [39.9623821, 57.1750861], [39.9607046, 57.1743685], [39.9584005, 57.1750975], [39.9573551, 57.1730362], [39.9543263, 57.1740545], [39.9478879, 57.1702074], [39.9449975, 57.1716666], [39.9421102, 57.1716546], [39.9368324, 57.1671225], [39.9346788, 57.1677212], [39.9348199, 57.1692902], [39.9340388, 57.1697591], [39.9272454, 57.168441], [39.9268181, 57.1693186], [39.9287795, 57.170707], [39.9273645, 57.1714799], [39.9188435, 57.1706042], [39.9163672, 57.1715389], [39.914715, 57.1700055], [39.9123824, 57.17127], [39.9131483, 57.1724402], [39.9093086, 57.1724447], [39.9059379, 57.1699388], [39.9043089, 57.1696786], [39.9017504, 57.1719969], [39.8964206, 57.1705179], [39.892364, 57.172033], [39.888922, 57.1708752], [39.8842973, 57.1715506], [39.8823345, 57.1708113], [39.8770035, 57.1710711], [39.8731629, 57.1726295], [39.8619824, 57.1733451], [39.8591524, 57.1724237], [39.8575777, 57.1735231], [39.855738, 57.1729993], [39.8533345, 57.1741903], [39.8532674, 57.1729982], [39.8505407, 57.1727807], [39.8476056, 57.1762382], [39.8429774, 57.1777529], [39.8455436, 57.1813412], [39.8417889, 57.1824251], [39.8394285, 57.1847035], [39.8249339, 57.186132], [39.8207949, 57.1896565], [39.7912302, 57.1904575], [39.778813, 57.1923798], [39.7882737, 57.1979859], [39.7862042, 57.2032709], [39.7474745, 57.2074343], [39.7383094, 57.2141589], [39.7409702, 57.2176807], [39.7418572, 57.2240833], [39.7371268, 57.2309648], [39.7161359, 57.2324049], [39.680067, 57.2391249], [39.6753367, 57.2468034], [39.6794757, 57.2587978], [39.6638064, 57.2589577], [39.6655803, 57.2626351], [39.6717889, 57.2659925], [39.6679455, 57.2690299], [39.6691281, 57.273026], [39.6794757, 57.2722268], [39.6815452, 57.2680707], [39.6913016, 57.2680707], [39.6913016, 57.2738252], [39.6981015, 57.2738252], [39.7090404, 57.2869293], [39.7004666, 57.2862902], [39.6983971, 57.2907637], [39.6895277, 57.2941185], [39.6948493, 57.2998689], [39.6933711, 57.3064169], [39.6910059, 57.3116864], [39.6845017, 57.3209461], [39.6868669, 57.3233404], [39.6809539, 57.3244577], [39.6694237, 57.3249366], [39.6719665, 57.3316847], [39.6610918, 57.3369657], [39.662549, 57.3423272], [39.6602675, 57.3455828], [39.6555006, 57.3473271], [39.6312003, 57.3464958], [39.6309081, 57.3444379], [39.618418, 57.3473881], [39.6191588, 57.3499618], [39.6104701, 57.3498436], [39.6056817, 57.3495005], [39.6008337, 57.348073], [39.5982309, 57.3461505], [39.5950342, 57.341554], [39.5938754, 57.3383257], [39.5492518, 57.3422624], [39.5493223, 57.3431185], [39.5403187, 57.3486581], [39.5280219, 57.352094], [39.5305225, 57.3560875], [39.5312461, 57.3590131], [39.5270302, 57.3694149], [39.5309122, 57.3729907], [39.5373214, 57.3736666], [39.5393326, 57.3771126], [39.5312689, 57.3771357], [39.5334444, 57.3798319], [39.5384116, 57.3823835], [39.5388817, 57.3837259], [39.5350222, 57.3837222], [39.5259901, 57.3871669], [39.5288658, 57.3911613], [39.5221916, 57.4017891], [39.5082962, 57.4040189], [39.5065223, 57.401152], [39.5020876, 57.3992405], [39.4899661, 57.3907972], [39.4692708, 57.3976476], [39.4571493, 57.3907972], [39.4500538, 57.3927091], [39.4388192, 57.3974883], [39.4334976, 57.4025855], [39.4187152, 57.4027447], [39.4169413, 57.405293], [39.4020535, 57.4010876], [39.4022883, 57.3998906], [39.3987492, 57.3985837], [39.3954923, 57.3942659], [39.3915118, 57.3961411], [39.392148, 57.398198], [39.3767334, 57.4119815], [39.3661974, 57.410355], [39.3689295, 57.41399], [39.3677507, 57.4158585], [39.3505726, 57.4127025], [39.3383424, 57.4165186], [39.3361243, 57.4180838], [39.3355889, 57.422326], [39.3325294, 57.4233967], [39.3321469, 57.4246734], [39.3329883, 57.4277207], [39.3341356, 57.4277207], [39.3339826, 57.4303148], [39.3357134, 57.434159], [39.339194, 57.4337603], [39.3421562, 57.4318868], [39.3442297, 57.4316476], [39.3474141, 57.4325645], [39.347266, 57.4359128], [39.3482472, 57.4401078], [39.3462107, 57.4422001], [39.3430633, 57.4421503], [39.3388052, 57.4442425], [39.3406103, 57.4482271], [39.3363979, 57.4487576], [39.3363083, 57.4522295], [39.344285, 57.4509276], [39.3519928, 57.4510722], [39.3580873, 57.4526635], [39.3593421, 57.4538207], [39.3588043, 57.4559422], [39.3576392, 57.4564725], [39.3594317, 57.4688612], [39.3484536, 57.4828909]]], [[[38.8772003, 57.5168969], [38.8840513, 57.5201942], [38.8886822, 57.5182866], [38.8911365, 57.5159443], [38.8916214, 57.5125815], [38.899572, 57.5119022], [38.9045383, 57.5069998], [38.9005083, 57.5047806], [38.8964085, 57.5038974], [38.8836298, 57.5028846], [38.8728316, 57.5032194], [38.8733319, 57.5054468], [38.8700359, 57.5112006], [38.8659067, 57.5121518], [38.859399, 57.5170804], [38.8574546, 57.5167], [38.8555853, 57.5188702], [38.8502462, 57.520479], [38.8498729, 57.5189288], [38.8535336, 57.50997], [38.8538566, 57.5062478], [38.8552952, 57.5047494], [38.8502159, 57.50415], [38.8387067, 57.5054592], [38.8251717, 57.5106954], [38.8246432, 57.5122094], [38.8250836, 57.5160097], [38.8220144, 57.5173805], [38.8194002, 57.5196915], [38.8201819, 57.5216378], [38.8209637, 57.5214661], [38.8236642, 57.5242136], [38.8262226, 57.5248241], [38.8275728, 57.5266366], [38.8284256, 57.5257971], [38.8294206, 57.5271135], [38.8323698, 57.5270754], [38.8353546, 57.5258353], [38.8385064, 57.5275773], [38.8396288, 57.526767], [38.8432074, 57.5268464], [38.8560496, 57.5232891], [38.8582693, 57.5203847], [38.8625756, 57.5169736], [38.8658591, 57.517812], [38.8663974, 57.5192862], [38.8680122, 57.5198355], [38.8645134, 57.5228127], [38.8655478, 57.5240945], [38.8701812, 57.5253576], [38.8772003, 57.5168969]]]]}, "properties": {"land_id": "YAROSLAVL_1463", "label": "Ярославское великое княжество (с Шехонским и Моложским уделами)", "units": ["Ярославская область: городской округ Ярославль (osm r1701436)", "Ярославская область: Ярославский муниципальный округ (osm r942455)", "Ярославская область: Гаврилов-Ямский муниципальный округ (osm r1203359)", "Ярославская область: Некрасовский муниципальный округ (osm r1203372)", "Ярославская область: Даниловский муниципальный округ (osm r1277971)", "Ярославская область: Любимский муниципальный округ (osm r1188369)", "Ярославская область: Первомайский муниципальный округ (osm r1375570)", "Ярославская область: Пошехонский муниципальный округ (osm r1549144)", "Ярославская область: Большесельский муниципальный округ (osm r1553748)", "Ярославская область: Брейтовский муниципальный округ (osm r1561591)"], "source": "OpenStreetMap, отношения admin_level=6 (ODbL), выгрузка Overpass 28.09.2026; где помечено geoBoundaries - gbOpen RUS ADM2 (OSM/Wambacher, 2023); упрощение 0,0005°"}}]}