{"type":"FeatureCollection","features":[{"type":"Feature","properties":{"mid":true,"src":"data/years/1450.geojson"},"geometry":{"type":"MultiPolygon","coordinates":[[[[34.825,55.947],[35.048,55.98],[35.12,55.949],[35.177,55.944],[35.181,55.969],[35.222,56.023],[35.271,56.048],[35.334,56.055],[35.342,56.085],[35.314,56.107],[35.313,56.114],[35.333,56.129],[35.344,56.151],[35.387,56.176],[35.39,56.196],[35.365,56.214],[35.369,56.228],[35.421,56.239],[35.485,56.237],[35.525,56.253],[35.513,56.29],[35.531,56.327],[35.525,56.34],[35.51,56.346],[35.508,56.352],[35.517,56.358],[35.544,56.348],[35.553,56.353],[35.555,56.368],[35.533,56.404],[35.508,56.396],[35.502,56.4],[35.488,56.434],[35.469,56.448],[35.469,56.453],[35.477,56.459],[35.646,56.469],[35.7,56.447],[35.739,56.401],[35.764,56.389],[35.85,56.4],[35.914,56.375],[35.975,56.384],[36.055,56.358],[36.079,56.339],[36.099,56.343],[36.122,56.373],[36.172,56.403],[36.215,56.404],[36.328,56.435],[36.43,56.428],[36.523,56.432],[36.554,56.483],[36.676,56.527],[36.798,56.554],[36.826,56.578],[36.975,56.554],[36.988,56.528],[37.053,56.511],[37.068,56.53],[37.12,56.54],[37.151,56.574],[37.153,56.596],[37.134,56.624],[37.134,56.629],[37.159,56.65],[37.16,56.659],[37.154,56.663],[37.152,56.669],[37.164,56.683],[37.123,56.713],[37.128,56.729],[37.151,56.747],[37.164,56.745],[37.247,56.77],[37.256,56.769],[37.268,56.751],[37.374,56.775],[37.501,56.78],[37.52,56.811],[37.563,56.85],[37.559,56.863],[37.569,56.877],[37.553,56.891],[37.552,56.896],[37.556,56.901],[37.593,56.898],[37.604,56.906],[37.61,56.924],[37.711,56.948],[37.736,56.946],[37.747,56.921],[37.763,56.912],[37.857,56.893],[37.877,56.868],[37.94,56.872],[37.971,56.85],[37.996,56.812],[38.0,56.78],[38.013,56.769],[38.26,56.767],[38.264,56.787],[38.24,56.813],[38.224,56.824],[38.158,56.836],[38.151,56.861],[38.137,56.872],[38.141,56.879],[38.192,56.884],[38.206,56.895],[38.214,56.965],[38.173,56.98],[38.171,56.987],[38.175,56.991],[38.223,57.005],[38.256,57.05],[38.265,57.088],[38.249,57.14],[38.192,57.163],[38.151,57.197],[38.15,57.203],[38.16,57.226],[38.164,57.229],[38.228,57.231],[38.251,57.264],[38.31,57.273],[38.305,57.338],[38.29,57.369],[38.27,57.376],[38.165,57.363],[38.156,57.36],[38.147,57.343],[38.086,57.347],[38.04,57.361],[37.985,57.364],[37.864,57.422],[37.816,57.434],[37.814,57.442],[37.836,57.451],[37.845,57.466],[37.839,57.488],[37.802,57.512],[37.821,57.549],[37.813,57.601],[37.831,57.634],[37.773,57.633],[37.716,57.663],[37.66,57.679],[37.653,57.707],[37.614,57.728],[37.544,57.742],[37.527,57.775],[37.46,57.832],[37.398,57.836],[37.397,57.844],[37.417,57.852],[37.421,57.864],[37.405,57.878],[37.373,57.878],[37.361,57.887],[37.363,57.893],[37.384,57.899],[37.454,57.887],[37.498,57.889],[37.507,57.901],[37.498,57.922],[37.376,57.953],[37.373,57.956],[37.372,57.971],[37.517,57.982],[37.546,58.002],[37.531,58.028],[37.534,58.04],[37.624,58.065],[37.663,58.063],[37.678,58.083],[37.637,58.121],[37.582,58.145],[37.556,58.174],[37.483,58.193],[37.43,58.189],[37.378,58.205],[37.355,58.246],[37.383,58.26],[37.398,58.289],[37.423,58.305],[37.427,58.315],[37.411,58.338],[37.388,58.347],[37.387,58.356],[37.451,58.403],[37.477,58.409],[37.495,58.394],[37.535,58.392],[37.647,58.425],[37.659,58.451],[37.638,58.483],[37.638,58.489],[37.687,58.521],[37.724,58.621],[37.825,58.63],[37.853,58.626],[37.877,58.611],[37.893,58.612],[37.944,58.637],[37.979,58.665],[38.007,58.704],[38.05,58.731],[38.479,58.701],[38.534,58.74],[38.548,58.768],[38.562,58.774],[38.64,58.763],[38.654,58.749],[38.673,58.744],[38.823,58.748],[38.842,58.734],[38.901,58.733],[38.921,58.744],[38.908,58.791],[39.007,58.848],[39.005,58.857],[38.97,58.878],[38.928,58.889],[38.928,58.895],[38.943,58.91],[38.942,58.934],[38.945,58.938],[39.03,58.931],[39.118,58.949],[39.226,58.911],[39.264,58.921],[39.315,58.921],[39.37,58.899],[39.499,58.884],[39.53,58.872],[39.591,58.9],[39.597,58.9],[39.681,58.844],[39.804,58.816],[39.837,58.763],[39.968,58.754],[39.996,58.724],[40.016,58.677],[40.084,58.664],[40.101,58.595],[40.173,58.549],[40.293,58.539],[40.333,58.548],[40.496,58.551],[40.541,58.561],[40.569,58.587],[40.625,58.601],[40.674,58.582],[40.927,58.574],[40.934,58.589],[41.033,58.623],[41.064,58.648],[41.155,58.685],[41.224,58.727],[41.221,58.744],[41.147,58.794],[41.145,58.798],[41.148,58.804],[41.181,58.82],[41.187,58.846],[41.24,58.86],[41.252,58.876],[41.253,58.899],[41.241,58.91],[41.193,58.905],[41.171,58.912],[41.165,58.935],[41.181,58.959],[41.279,58.98],[41.343,58.952],[41.387,58.975],[41.501,59.014],[41.525,59.033],[41.689,59.075],[41.743,59.115],[41.826,59.085],[41.875,59.081],[41.935,59.109],[42.013,59.113],[42.037,59.123],[42.049,59.14],[42.082,59.158],[42.094,59.232],[42.081,59.248],[42.003,59.258],[41.977,59.269],[41.964,59.283],[41.964,59.287],[41.97,59.297],[41.998,59.31],[42.007,59.378],[42.051,59.422],[42.176,59.393],[42.176,59.333],[42.186,59.306],[42.282,59.257],[42.32,59.265],[42.348,59.293],[42.497,59.298],[42.542,59.313],[42.601,59.311],[42.629,59.304],[42.66,59.275],[42.662,59.265],[42.647,59.247],[42.669,59.224],[42.739,59.214],[42.797,59.166],[42.839,59.17],[42.853,59.157],[42.886,59.172],[42.904,59.19],[42.939,59.188],[43.028,59.203],[43.063,59.241],[43.113,59.258],[43.108,59.277],[43.115,59.285],[43.122,59.285],[43.133,59.265],[43.149,59.257],[43.216,59.235],[43.274,59.227],[43.306,59.209],[43.337,59.207],[43.361,59.213],[43.364,59.222],[43.34,59.256],[43.343,59.266],[43.489,59.291],[43.492,59.288],[43.495,59.257],[43.514,59.24],[43.496,59.188],[43.503,59.175],[43.525,59.164],[43.584,59.184],[43.674,59.237],[43.742,59.254],[43.771,59.238],[43.84,59.234],[43.935,59.202],[43.987,59.203],[44.103,59.225],[44.145,59.222],[44.17,59.214],[44.195,59.171],[44.272,59.159],[44.331,59.133],[44.392,59.147],[44.992,59.117],[45.032,59.12],[45.053,59.168],[45.066,59.177],[45.315,59.17],[45.346,59.191],[45.367,59.193],[45.45,59.185],[45.491,59.166],[45.526,59.183],[45.645,59.182],[45.692,59.199],[45.721,59.185],[45.763,59.179],[45.919,59.179],[45.954,59.19],[45.96,59.218],[45.977,59.244],[46.032,59.3],[46.145,59.308],[46.172,59.339],[46.314,59.336],[46.36,59.343],[46.378,59.453],[46.371,59.5],[46.411,59.627],[46.756,59.602],[46.805,59.621],[46.874,59.627],[47.103,59.607],[47.106,59.6],[47.052,59.375],[47.243,59.351],[47.245,59.345],[47.226,59.247],[47.236,59.216],[47.385,59.146],[47.436,59.158],[47.44,59.155],[47.454,59.121],[47.566,59.054],[47.545,58.997],[47.594,58.917],[47.591,58.909],[47.477,58.893],[47.474,58.896],[47.477,58.909],[47.453,58.926],[47.385,58.912],[47.298,58.918],[47.277,58.894],[47.294,58.86],[47.279,58.822],[47.284,58.812],[47.305,58.803],[47.304,58.795],[47.258,58.761],[47.223,58.756],[47.14,58.78],[47.105,58.773],[47.078,58.742],[47.004,58.696],[46.999,58.684],[47.007,58.638],[46.997,58.624],[46.967,58.614],[46.884,58.61],[46.814,58.59],[46.688,58.572],[46.656,58.585],[46.632,58.586],[46.59,58.565],[46.579,58.546],[46.582,58.52],[46.547,58.483],[46.553,58.469],[46.586,58.451],[46.586,58.441],[46.553,58.421],[46.537,58.401],[46.457,58.386],[46.412,58.364],[46.406,58.353],[46.414,58.345],[46.463,58.345],[46.466,58.338],[46.463,58.334],[46.41,58.311],[46.404,58.276],[46.407,58.216],[46.359,58.192],[46.308,58.11],[46.338,58.095],[46.338,58.071],[46.367,58.06],[46.404,58.025],[46.429,58.016],[46.479,58.019],[46.517,58.031],[46.596,58.021],[47.377,58.018],[47.451,57.982],[47.621,57.951],[47.703,57.953],[47.756,57.915],[47.763,57.894],[47.758,57.881],[47.705,57.874],[47.61,57.843],[47.56,57.802],[45.965,57.735],[45.43,57.467],[44.81,54.667],[44.807,54.663],[43.966,54.782],[43.962,54.79],[43.967,54.798],[43.95,54.812],[43.904,54.816],[43.858,54.809],[43.726,54.825],[43.677,54.845],[43.612,54.906],[43.463,54.929],[43.42,54.951],[43.389,54.955],[43.248,54.94],[43.145,54.9],[43.081,54.909],[42.531,54.834],[42.466,54.876],[42.393,54.815],[41.995,54.761],[40.568,54.761],[40.565,54.768],[40.76,55.452],[39.378,55.847],[38.687,55.452],[38.39,55.057],[37.452,55.106],[37.256,54.221],[37.253,54.218],[36.598,54.255],[36.221,54.267],[36.218,54.27],[36.169,54.761],[34.492,54.711],[34.097,55.104],[34.096,55.11],[34.368,56.003],[34.376,56.006],[34.63,55.913],[34.696,55.921],[34.746,55.955],[34.776,55.964],[34.825,55.947]]],[[[51.916,60.878],[52.356,60.839],[52.416,60.957],[52.433,60.973],[52.792,60.944],[52.88,61.088],[53.368,61.025],[53.375,61.018],[53.375,61.013],[53.334,60.91],[53.34,60.893],[53.353,60.888],[53.805,60.845],[53.819,60.859],[53.856,60.97],[53.863,60.974],[54.98,60.859],[55.003,60.88],[55.067,61.006],[55.084,61.011],[55.159,61.002],[55.201,61.005],[55.218,61.016],[55.253,61.062],[55.269,61.1],[55.289,61.116],[55.717,61.083],[55.748,61.111],[55.833,61.244],[56.257,61.201],[56.289,61.205],[56.336,61.266],[56.342,61.3],[56.329,61.324],[56.329,61.33],[56.336,61.344],[56.394,61.416],[56.457,61.428],[56.568,61.414],[56.599,61.485],[56.605,61.487],[56.641,61.484],[56.646,61.497],[56.675,61.516],[57.08,61.47],[57.091,61.484],[57.156,61.497],[58.846,61.491],[58.858,61.516],[58.92,61.527],[58.975,61.517],[58.997,61.53],[59.05,61.532],[59.123,61.589],[59.129,61.606],[59.151,61.625],[59.192,61.623],[59.209,61.634],[59.241,61.622],[59.282,61.636],[59.297,61.65],[59.351,61.659],[59.365,61.67],[59.36,61.687],[59.363,61.692],[59.375,61.698],[59.375,61.71],[59.404,61.725],[59.427,61.755],[59.347,61.802],[59.339,61.818],[59.343,61.844],[59.367,61.87],[59.406,61.88],[59.407,61.905],[59.41,61.908],[59.494,61.946],[59.484,61.977],[59.49,61.995],[59.442,62.06],[59.435,62.074],[59.437,62.098],[59.409,62.111],[59.41,62.14],[59.486,62.24],[59.506,62.256],[59.515,62.278],[59.507,62.289],[59.511,62.303],[59.525,62.316],[59.571,62.329],[59.602,62.365],[59.618,62.372],[59.624,62.409],[59.601,62.421],[59.598,62.429],[59.649,62.511],[59.636,62.528],[59.638,62.552],[59.551,62.551],[59.501,62.567],[59.476,62.608],[59.445,62.634],[59.439,62.651],[59.447,62.662],[59.435,62.665],[59.402,62.733],[59.404,62.741],[59.459,62.775],[59.461,62.818],[59.485,62.876],[59.486,62.903],[59.426,62.949],[59.306,62.963],[59.297,62.979],[59.268,62.989],[59.233,63.037],[59.247,63.08],[59.243,63.09],[59.296,63.121],[59.303,63.139],[59.269,63.199],[59.303,63.228],[59.339,63.285],[59.337,63.298],[59.297,63.321],[59.293,63.333],[59.296,63.337],[59.353,63.361],[59.35,63.377],[59.328,63.393],[59.329,63.402],[59.425,63.486],[59.498,63.608],[59.51,63.645],[59.519,63.774],[59.525,63.788],[59.573,63.833],[59.578,63.926],[59.587,63.934],[59.773,63.995],[59.804,64.043],[59.842,64.077],[59.863,64.141],[59.849,64.157],[59.778,64.151],[59.736,64.158],[59.592,64.236],[59.584,64.253],[59.587,64.278],[59.628,64.315],[59.639,64.336],[59.616,64.381],[59.611,64.456],[59.591,64.472],[59.501,64.48],[59.49,64.492],[59.491,64.497],[59.526,64.533],[59.583,64.565],[59.618,64.619],[59.687,64.644],[59.708,64.665],[59.645,64.725],[59.652,64.77],[59.678,64.799],[59.751,64.854],[59.892,64.897],[60.03,65.002],[60.096,65.042],[60.148,65.06],[60.22,65.066],[60.305,65.066],[60.418,65.048],[60.43,65.04],[60.425,65.016],[60.44,65.003],[60.596,64.934],[60.611,64.895],[60.626,64.885],[60.647,64.886],[60.67,64.899],[60.732,64.962],[60.783,64.996],[60.81,65.039],[60.83,65.046],[60.981,65.044],[61.089,65.123],[61.111,65.157],[61.243,65.188],[61.26,65.228],[61.322,65.263],[61.336,65.281],[61.327,65.297],[61.27,65.313],[61.269,65.32],[61.272,65.323],[61.41,65.387],[61.441,65.426],[61.484,65.459],[61.499,65.486],[61.586,65.545],[61.657,65.564],[61.663,65.561],[62.661,61.103],[62.661,61.098],[61.882,59.852],[58.292,58.424],[55.465,58.136],[53.978,58.073],[53.941,58.107],[53.933,58.142],[53.908,58.163],[53.896,58.188],[53.821,58.227],[53.82,58.235],[53.848,58.277],[53.891,58.32],[53.879,58.337],[53.791,58.404],[53.789,58.441],[53.776,58.486],[53.71,58.595],[53.71,58.61],[53.755,58.647],[53.754,58.693],[53.779,58.716],[53.871,58.748],[53.927,58.781],[53.893,58.808],[53.81,58.833],[53.757,58.878],[53.73,58.926],[53.741,58.976],[53.763,59.012],[53.843,59.029],[53.848,59.063],[53.878,59.084],[53.88,59.096],[53.853,59.119],[53.803,59.121],[53.755,59.146],[53.69,59.126],[53.688,59.11],[53.682,59.107],[53.499,59.153],[53.405,59.154],[53.339,59.188],[53.231,59.301],[53.212,59.36],[53.213,59.366],[53.235,59.391],[53.314,59.447],[53.359,59.498],[53.397,59.576],[53.427,59.68],[53.594,59.704],[53.628,59.752],[53.662,59.822],[53.685,59.933],[53.712,60.002],[53.611,60.146],[53.595,60.158],[53.458,60.21],[53.416,60.201],[53.359,60.172],[52.455,60.205],[52.307,60.246],[52.306,60.251],[52.351,60.384],[52.327,60.436],[52.261,60.463],[52.142,60.478],[52.138,60.492],[52.151,60.541],[52.135,60.552],[51.784,60.605],[51.783,60.612],[51.895,60.873],[51.916,60.878]]],[[[28.062,58.981],[28.123,58.987],[28.152,58.964],[28.188,58.908],[28.279,58.847],[28.322,58.855],[28.552,58.86],[28.756,58.822],[28.946,58.815],[28.966,58.81],[28.969,58.802],[28.959,58.789],[28.963,58.778],[29.027,58.768],[29.105,58.727],[29.252,58.692],[29.274,58.661],[29.287,58.652],[29.288,58.645],[29.285,58.642],[29.251,58.637],[29.243,58.631],[29.246,58.619],[29.46,58.584],[29.491,58.536],[29.544,58.531],[29.548,58.528],[29.548,58.522],[29.519,58.495],[29.544,58.472],[29.618,58.452],[29.658,58.446],[29.715,58.45],[29.785,58.435],[29.952,58.439],[29.954,58.431],[29.922,58.396],[29.823,58.353],[29.769,58.306],[29.655,58.247],[29.648,58.225],[29.655,58.207],[29.688,58.177],[29.69,58.167],[29.678,58.07],[29.709,58.064],[29.756,58.086],[29.799,58.087],[29.887,58.033],[29.925,58.019],[29.99,58.03],[29.992,58.026],[29.99,58.02],[29.914,57.978],[29.916,57.956],[29.936,57.941],[30.072,57.936],[30.167,57.907],[30.528,57.882],[30.539,57.873],[30.543,57.853],[30.515,57.811],[30.499,57.802],[30.415,57.788],[30.408,57.776],[30.427,57.764],[30.509,57.744],[30.511,57.736],[30.503,57.72],[30.468,57.694],[30.468,57.68],[30.515,57.646],[30.594,57.618],[30.597,57.614],[30.597,57.61],[30.54,57.535],[30.485,57.485],[30.481,57.459],[30.487,57.391],[30.437,57.364],[30.463,57.338],[30.514,57.313],[30.764,57.253],[30.764,57.247],[30.759,57.239],[30.727,57.23],[30.723,57.217],[30.661,57.203],[30.637,57.186],[30.665,57.143],[30.642,57.055],[30.64,56.973],[30.657,56.959],[30.747,56.951],[30.75,56.948],[30.796,56.809],[30.796,56.804],[30.782,56.789],[30.776,56.768],[30.79,56.757],[30.809,56.756],[30.813,56.752],[30.811,56.722],[30.837,56.687],[30.935,56.392],[30.691,55.901],[30.684,55.9],[29.948,56.538],[29.058,56.54],[28.813,56.882],[28.813,57.575],[28.418,57.92],[28.319,58.661],[27.662,58.939],[27.702,59.296],[27.894,59.346],[28.016,59.454],[27.979,59.508],[27.979,59.512],[28.011,59.552],[28.019,59.576],[28.01,59.596],[27.975,59.63],[27.961,59.65],[28.014,59.655],[28.048,59.622],[28.067,59.579],[28.051,59.53],[28.015,59.479],[28.036,59.458],[28.101,59.436],[28.135,59.396],[28.175,59.376],[28.177,59.369],[28.173,59.365],[28.156,59.369],[28.112,59.35],[28.032,59.347],[27.996,59.336],[27.999,59.329],[28.025,59.324],[28.028,59.318],[28.024,59.313],[27.959,59.311],[27.902,59.295],[27.879,59.28],[27.884,59.257],[27.869,59.239],[27.838,59.163],[27.781,59.08],[27.692,58.98],[27.693,58.973],[27.743,58.974],[27.874,59.009],[27.934,58.99],[27.974,58.998],[28.062,58.981]]]]}}]}