{"type":"FeatureCollection","features":[{"type":"Feature","properties":{"mid":true,"src":"data/years/1472-06-26.geojson"},"geometry":{"type":"MultiPolygon","coordinates":[[[[37.273,54.343],[37.257,54.338],[37.257,54.331],[37.27,54.323],[37.245,54.32],[37.242,54.303],[37.203,54.291],[37.205,54.283],[37.178,54.274],[37.121,54.274],[37.112,54.288],[37.078,54.298],[37.05,54.272],[37.01,54.289],[36.967,54.292],[36.902,54.29],[36.884,54.279],[36.845,54.288],[36.799,54.267],[36.789,54.277],[36.771,54.275],[36.757,54.283],[36.731,54.286],[36.715,54.277],[36.716,54.288],[36.688,54.306],[36.715,54.311],[36.706,54.317],[36.715,54.322],[36.708,54.354],[36.735,54.369],[36.738,54.384],[36.685,54.392],[36.675,54.408],[36.664,54.411],[36.67,54.42],[36.638,54.427],[36.608,54.42],[36.582,54.444],[36.541,54.437],[36.511,54.449],[36.393,54.449],[36.378,54.456],[36.293,54.445],[36.294,54.439],[36.278,54.443],[36.273,54.433],[36.247,54.423],[36.179,54.428],[36.17,54.416],[36.178,54.409],[36.2,54.412],[36.204,54.386],[36.22,54.383],[36.201,54.37],[36.204,54.359],[36.176,54.385],[36.177,54.395],[36.162,54.395],[36.176,54.406],[36.112,54.426],[36.119,54.458],[36.083,54.457],[36.071,54.464],[36.095,54.469],[36.067,54.475],[36.075,54.488],[36.043,54.483],[36.029,54.505],[35.999,54.499],[35.988,54.523],[35.973,54.52],[35.962,54.535],[35.936,54.532],[35.865,54.548],[35.881,54.537],[35.834,54.518],[35.787,54.535],[35.796,54.541],[35.751,54.564],[35.693,54.551],[35.707,54.559],[35.673,54.567],[35.681,54.575],[35.669,54.586],[35.681,54.59],[35.673,54.603],[35.649,54.613],[35.636,54.604],[35.627,54.614],[35.643,54.626],[35.657,54.622],[35.669,54.629],[35.643,54.633],[35.644,54.643],[35.633,54.639],[35.611,54.647],[35.611,54.658],[35.593,54.652],[35.585,54.656],[35.589,54.666],[35.576,54.658],[35.502,54.666],[35.502,54.677],[35.516,54.68],[35.537,54.7],[35.529,54.716],[35.532,54.734],[35.54,54.741],[35.558,54.739],[35.583,54.769],[35.543,54.774],[35.559,54.791],[35.534,54.818],[35.519,54.804],[35.49,54.799],[35.491,54.811],[35.482,54.813],[35.485,54.826],[35.429,54.823],[35.434,54.846],[35.42,54.848],[35.394,54.848],[35.407,54.837],[35.394,54.835],[35.379,54.848],[35.356,54.834],[35.321,54.849],[35.305,54.835],[35.28,54.839],[35.265,54.829],[35.251,54.842],[35.235,54.838],[35.246,54.849],[35.23,54.85],[35.188,54.828],[35.175,54.844],[35.155,54.842],[35.16,54.869],[35.155,54.878],[35.134,54.877],[35.13,54.893],[35.106,54.889],[35.055,54.905],[35.03,54.898],[35.024,54.909],[35.031,54.915],[35.017,54.918],[35.031,54.924],[35.007,54.943],[35.044,54.946],[35.03,54.958],[35.052,54.96],[35.051,54.97],[35.124,54.975],[35.115,54.983],[35.121,54.993],[35.105,54.997],[35.127,55.005],[35.1,55.009],[35.124,55.023],[35.115,55.038],[35.134,55.043],[35.154,55.037],[35.167,55.052],[35.188,55.05],[35.184,55.059],[35.199,55.054],[35.195,55.061],[35.209,55.063],[35.209,55.074],[35.224,55.072],[35.221,55.083],[35.232,55.092],[35.254,55.091],[35.246,55.096],[35.255,55.112],[35.276,55.113],[35.275,55.137],[35.29,55.161],[35.28,55.179],[35.345,55.206],[35.329,55.22],[35.343,55.234],[35.323,55.243],[35.308,55.239],[35.296,55.25],[35.321,55.254],[35.33,55.271],[35.351,55.269],[35.334,55.272],[35.334,55.279],[35.31,55.291],[35.294,55.291],[35.295,55.311],[35.261,55.323],[35.259,55.33],[35.274,55.331],[35.281,55.35],[35.291,55.352],[35.286,55.389],[35.306,55.398],[35.298,55.412],[35.33,55.429],[35.304,55.435],[35.313,55.45],[35.291,55.463],[35.289,55.472],[35.325,55.48],[35.318,55.492],[35.325,55.502],[35.314,55.515],[35.345,55.528],[35.339,55.538],[35.307,55.547],[35.314,55.552],[35.298,55.551],[35.297,55.576],[35.301,55.582],[35.341,55.582],[35.349,55.573],[35.372,55.576],[35.365,55.588],[35.395,55.594],[35.383,55.631],[35.354,55.636],[35.36,55.645],[35.351,55.643],[35.337,55.666],[35.323,55.666],[35.336,55.684],[35.332,55.688],[35.338,55.692],[35.33,55.697],[35.337,55.703],[35.317,55.708],[35.317,55.721],[35.306,55.722],[35.313,55.728],[35.304,55.734],[35.316,55.745],[35.345,55.744],[35.327,55.758],[35.339,55.769],[35.332,55.773],[35.33,55.794],[35.283,55.8],[35.285,55.822],[35.25,55.847],[35.25,55.86],[35.223,55.88],[35.227,55.893],[35.209,55.894],[35.227,55.909],[35.204,55.899],[35.199,55.889],[35.19,55.907],[35.204,55.919],[35.148,55.958],[35.149,55.971],[35.174,55.983],[35.176,55.996],[35.197,56.012],[35.226,56.017],[35.24,56.031],[35.231,56.043],[35.244,56.047],[35.267,56.039],[35.288,56.063],[35.305,56.058],[35.314,56.064],[35.323,56.077],[35.317,56.084],[35.338,56.093],[35.309,56.107],[35.287,56.103],[35.283,56.112],[35.289,56.115],[35.285,56.125],[35.309,56.13],[35.309,56.138],[35.292,56.14],[35.305,56.154],[35.341,56.16],[35.335,56.163],[35.363,56.179],[35.349,56.184],[35.364,56.197],[35.32,56.209],[35.316,56.228],[35.363,56.237],[35.391,56.235],[35.407,56.244],[35.417,56.224],[35.453,56.2],[35.492,56.213],[35.518,56.201],[35.499,56.185],[35.525,56.179],[35.536,56.184],[35.536,56.173],[35.55,56.172],[35.542,56.166],[35.528,56.168],[35.537,56.153],[35.594,56.155],[35.596,56.148],[35.609,56.148],[35.619,56.133],[35.632,56.13],[35.634,56.138],[35.658,56.145],[35.682,56.136],[35.679,56.121],[35.7,56.117],[35.716,56.123],[35.718,56.136],[35.704,56.137],[35.711,56.15],[35.707,56.162],[35.735,56.174],[35.796,56.175],[35.829,56.192],[35.879,56.192],[35.874,56.197],[35.883,56.201],[35.925,56.185],[35.941,56.188],[35.95,56.202],[35.969,56.201],[35.98,56.213],[36.031,56.212],[36.035,56.216],[36.02,56.234],[36.022,56.246],[36.049,56.256],[36.09,56.25],[36.089,56.305],[36.104,56.305],[36.104,56.315],[36.124,56.315],[36.154,56.302],[36.157,56.284],[36.201,56.287],[36.184,56.276],[36.185,56.261],[36.203,56.259],[36.213,56.244],[36.179,56.238],[36.204,56.22],[36.199,56.217],[36.212,56.206],[36.267,56.209],[36.273,56.206],[36.262,56.185],[36.29,56.181],[36.305,56.186],[36.3,56.179],[36.313,56.168],[36.35,56.169],[36.336,56.16],[36.35,56.159],[36.35,56.147],[36.333,56.147],[36.345,56.13],[36.328,56.119],[36.336,56.112],[36.334,56.091],[36.341,56.086],[36.331,56.079],[36.335,56.065],[36.453,56.069],[36.471,56.082],[36.489,56.07],[36.562,56.084],[36.617,56.079],[36.623,56.088],[36.651,56.086],[36.653,56.092],[36.633,56.108],[36.638,56.113],[36.67,56.107],[36.669,56.102],[36.692,56.107],[36.693,56.115],[36.676,56.115],[36.68,56.123],[36.669,56.127],[36.702,56.119],[36.705,56.113],[36.716,56.112],[36.711,56.106],[36.715,56.102],[36.724,56.1],[36.729,56.105],[36.713,56.106],[36.717,56.112],[36.704,56.116],[36.728,56.119],[36.724,56.113],[36.731,56.112],[36.74,56.122],[36.732,56.126],[36.756,56.139],[36.724,56.164],[36.747,56.174],[36.734,56.18],[36.751,56.191],[36.742,56.202],[36.746,56.207],[36.769,56.218],[36.8,56.218],[36.81,56.227],[36.868,56.227],[36.862,56.246],[36.872,56.26],[36.878,56.257],[36.883,56.29],[36.921,56.292],[36.908,56.3],[36.917,56.308],[36.954,56.316],[36.998,56.301],[37.018,56.308],[37.008,56.31],[37.01,56.318],[36.994,56.321],[36.996,56.326],[36.972,56.333],[36.982,56.341],[37.006,56.335],[37.022,56.344],[36.998,56.355],[37.0,56.365],[37.024,56.365],[37.016,56.37],[37.025,56.38],[37.013,56.394],[37.045,56.402],[37.027,56.402],[37.032,56.418],[37.026,56.431],[37.008,56.441],[37.009,56.45],[36.978,56.462],[37.015,56.482],[37.017,56.495],[37.033,56.497],[37.034,56.504],[37.063,56.501],[37.097,56.511],[37.1,56.533],[37.066,56.526],[37.054,56.531],[37.073,56.54],[37.071,56.546],[37.098,56.54],[37.148,56.587],[37.126,56.602],[37.135,56.61],[37.128,56.613],[37.134,56.621],[37.115,56.641],[37.154,56.649],[37.15,56.655],[37.159,56.652],[37.159,56.662],[37.13,56.668],[37.137,56.678],[37.159,56.682],[37.154,56.69],[37.167,56.694],[37.233,56.671],[37.378,56.564],[37.404,56.519],[37.422,56.515],[37.455,56.528],[37.557,56.543],[37.56,56.532],[37.596,56.514],[37.636,56.513],[37.641,56.504],[37.678,56.522],[37.707,56.551],[37.72,56.548],[37.781,56.58],[37.777,56.582],[37.783,56.592],[37.742,56.625],[37.753,56.659],[37.846,56.658],[37.891,56.682],[37.976,56.703],[38.021,56.677],[38.05,56.693],[38.027,56.701],[38.028,56.714],[38.034,56.727],[38.063,56.74],[38.06,56.753],[38.067,56.761],[38.104,56.76],[38.156,56.773],[38.218,56.772],[38.242,56.761],[38.251,56.765],[38.244,56.793],[38.232,56.806],[38.24,56.814],[38.23,56.824],[38.189,56.817],[38.192,56.823],[38.172,56.829],[38.158,56.819],[38.114,56.82],[38.111,56.827],[38.152,56.846],[38.124,56.859],[38.1,56.855],[38.102,56.871],[38.194,56.903],[38.18,56.933],[38.199,56.949],[38.13,56.964],[38.153,56.967],[38.154,56.985],[38.221,56.985],[38.237,56.999],[38.237,57.012],[38.228,57.022],[38.252,57.029],[38.258,57.042],[38.25,57.052],[38.256,57.058],[38.249,57.064],[38.253,57.074],[38.239,57.081],[38.205,57.073],[38.205,57.08],[38.218,57.08],[38.23,57.093],[38.252,57.092],[38.244,57.102],[38.249,57.111],[38.208,57.12],[38.209,57.131],[38.197,57.138],[38.208,57.14],[38.204,57.159],[38.162,57.171],[38.15,57.225],[38.203,57.228],[38.248,57.24],[38.259,57.256],[38.313,57.26],[38.312,57.271],[38.326,57.282],[38.327,57.301],[38.303,57.359],[38.275,57.368],[38.17,57.357],[38.166,57.342],[38.108,57.331],[38.076,57.335],[38.041,57.352],[38.017,57.336],[37.962,57.355],[37.947,57.373],[37.871,57.399],[37.883,57.406],[37.864,57.428],[37.805,57.44],[37.805,57.448],[37.852,57.471],[37.838,57.49],[37.814,57.49],[37.801,57.501],[37.821,57.513],[37.817,57.524],[37.834,57.53],[37.833,57.544],[37.823,57.552],[37.843,57.562],[37.838,57.574],[37.858,57.58],[37.853,57.588],[37.841,57.587],[37.836,57.596],[37.819,57.6],[37.814,57.613],[37.821,57.62],[37.811,57.625],[37.798,57.615],[37.783,57.622],[37.774,57.614],[37.755,57.616],[37.684,57.657],[37.632,57.661],[37.642,57.676],[37.637,57.679],[37.651,57.687],[37.643,57.687],[37.649,57.703],[37.561,57.739],[37.551,57.752],[37.56,57.767],[37.499,57.781],[37.501,57.79],[37.482,57.799],[37.489,57.811],[37.437,57.822],[37.38,57.82],[37.38,57.837],[37.407,57.852],[37.401,57.856],[37.434,57.869],[37.398,57.885],[37.334,57.876],[37.33,57.885],[37.349,57.891],[37.359,57.905],[37.396,57.897],[37.402,57.911],[37.412,57.912],[37.475,57.898],[37.493,57.909],[37.47,57.901],[37.425,57.913],[37.403,57.925],[37.408,57.94],[37.387,57.942],[37.383,57.947],[37.392,57.948],[37.383,57.952],[37.362,57.949],[37.367,57.967],[37.349,57.973],[37.354,57.99],[37.368,57.993],[37.331,57.991],[37.268,57.971],[37.224,57.973],[37.22,57.967],[37.26,57.954],[37.257,57.944],[37.221,57.931],[37.208,57.914],[37.223,57.903],[37.223,57.889],[37.192,57.875],[37.128,57.887],[37.054,57.861],[37.052,57.868],[37.016,57.869],[36.99,57.9],[36.97,57.902],[36.918,57.887],[36.907,57.873],[36.885,57.866],[36.893,57.858],[36.881,57.848],[36.888,57.841],[36.887,57.82],[36.911,57.808],[36.903,57.777],[36.939,57.747],[36.92,57.719],[36.874,57.714],[36.882,57.699],[36.896,57.7],[36.901,57.666],[36.93,57.655],[36.977,57.617],[37.014,57.608],[37.017,57.6],[37.005,57.598],[37.007,57.593],[36.991,57.582],[36.937,57.575],[36.961,57.566],[36.956,57.552],[36.944,57.548],[36.955,57.533],[36.951,57.524],[36.928,57.517],[36.917,57.503],[36.879,57.491],[36.897,57.478],[36.876,57.472],[36.886,57.46],[36.883,57.441],[36.855,57.433],[36.827,57.402],[36.801,57.403],[36.783,57.389],[36.76,57.405],[36.765,57.399],[36.757,57.391],[36.741,57.389],[36.701,57.426],[36.636,57.431],[36.619,57.425],[36.618,57.413],[36.592,57.427],[36.567,57.421],[36.536,57.428],[36.509,57.42],[36.478,57.395],[36.469,57.397],[36.467,57.41],[36.406,57.419],[36.413,57.43],[36.393,57.431],[36.367,57.449],[36.376,57.462],[36.367,57.467],[36.383,57.466],[36.378,57.477],[36.363,57.48],[36.359,57.493],[36.327,57.489],[36.34,57.483],[36.327,57.475],[36.248,57.479],[36.24,57.485],[36.244,57.492],[36.228,57.498],[36.23,57.505],[36.209,57.5],[36.205,57.506],[36.216,57.508],[36.227,57.523],[36.221,57.528],[36.202,57.511],[36.178,57.523],[36.16,57.512],[36.162,57.53],[36.118,57.536],[36.111,57.565],[36.148,57.58],[36.186,57.621],[36.21,57.628],[36.208,57.655],[36.223,57.664],[36.208,57.679],[36.253,57.681],[36.268,57.695],[36.208,57.721],[36.186,57.742],[36.2,57.756],[36.194,57.786],[36.239,57.793],[36.234,57.818],[36.22,57.816],[36.207,57.835],[36.19,57.843],[36.214,57.857],[36.222,57.879],[36.246,57.887],[36.255,57.908],[36.272,57.907],[36.266,57.925],[36.276,57.953],[36.249,57.953],[36.207,57.967],[36.206,57.975],[36.234,57.973],[36.233,57.983],[36.261,57.981],[36.255,57.99],[36.243,57.987],[36.241,57.994],[36.225,57.996],[36.236,58.012],[36.195,58.016],[36.201,58.033],[36.241,58.051],[36.174,58.064],[36.178,58.075],[36.217,58.068],[36.201,58.076],[36.202,58.083],[36.236,58.103],[36.243,58.12],[36.209,58.131],[36.197,58.15],[36.175,58.154],[36.164,58.168],[36.184,58.178],[36.173,58.184],[36.18,58.193],[36.148,58.183],[36.13,58.19],[36.114,58.186],[36.113,58.215],[36.12,58.214],[36.122,58.224],[36.109,58.217],[36.096,58.22],[36.099,58.226],[36.08,58.239],[36.092,58.263],[35.967,58.265],[35.963,58.279],[35.946,58.28],[35.947,58.305],[35.913,58.33],[35.909,58.34],[35.891,58.338],[35.843,58.353],[35.83,58.363],[35.842,58.369],[35.835,58.379],[35.805,58.389],[35.795,58.403],[35.766,58.405],[35.762,58.429],[35.83,58.43],[35.836,58.427],[35.83,58.421],[35.835,58.416],[35.889,58.422],[35.888,58.433],[35.903,58.435],[35.916,58.42],[35.94,58.423],[35.942,58.438],[35.918,58.44],[35.921,58.452],[35.942,58.465],[36.02,58.459],[36.015,58.473],[36.043,58.474],[36.083,58.49],[36.075,58.497],[36.102,58.505],[36.125,58.498],[36.182,58.512],[36.177,58.521],[36.189,58.524],[36.173,58.536],[36.2,58.535],[36.19,58.547],[36.213,58.56],[36.229,58.582],[36.229,58.6],[36.2,58.611],[36.199,58.619],[36.15,58.613],[36.128,58.624],[36.154,58.633],[36.116,58.674],[36.122,58.681],[36.107,58.716],[36.111,58.722],[36.066,58.722],[36.069,58.71],[36.02,58.728],[36.011,58.703],[35.995,58.704],[35.993,58.72],[35.971,58.723],[35.996,58.735],[35.945,58.725],[35.916,58.739],[35.966,58.735],[35.978,58.74],[35.973,58.749],[35.925,58.748],[35.9,58.755],[35.859,58.745],[35.835,58.756],[35.783,58.754],[35.775,58.772],[35.75,58.782],[35.745,58.822],[35.779,58.826],[35.797,58.812],[35.824,58.807],[35.829,58.813],[35.74,58.844],[35.727,58.913],[35.735,58.911],[35.739,58.923],[35.749,58.926],[35.749,58.933],[35.731,58.935],[35.751,58.946],[35.75,58.959],[35.695,58.99],[35.69,59.003],[35.715,59.006],[35.685,59.025],[35.707,59.031],[35.747,59.026],[35.81,59.01],[35.865,59.039],[35.824,59.051],[35.859,59.056],[35.849,59.063],[35.852,59.071],[35.876,59.07],[35.882,59.062],[35.906,59.065],[35.889,59.071],[35.889,59.082],[35.871,59.094],[35.875,59.103],[35.85,59.115],[35.846,59.127],[35.894,59.135],[35.911,59.183],[35.901,59.187],[35.907,59.208],[35.833,59.245],[35.806,59.249],[35.788,59.239],[35.777,59.249],[35.725,59.248],[35.537,59.27],[35.511,59.266],[35.508,59.257],[35.456,59.233],[35.377,59.253],[35.396,59.318],[35.383,59.321],[35.392,59.321],[35.391,59.327],[35.354,59.323],[35.3,59.341],[35.297,59.351],[35.314,59.372],[35.348,59.366],[35.393,59.381],[35.396,59.39],[35.442,59.404],[35.447,59.412],[35.426,59.409],[35.441,59.426],[35.419,59.421],[35.412,59.429],[35.39,59.429],[35.407,59.441],[35.373,59.473],[35.318,59.486],[35.316,59.52],[35.417,59.517],[35.513,59.503],[35.489,59.521],[35.425,59.518],[35.409,59.53],[35.466,59.547],[35.494,59.536],[35.495,59.652],[35.606,59.614],[35.615,59.712],[35.585,59.721],[35.565,59.711],[35.443,59.705],[35.407,59.719],[35.375,59.858],[35.422,59.906],[35.447,59.917],[35.446,59.978],[35.321,59.981],[35.323,59.995],[35.287,60.0],[35.283,60.014],[35.146,60.021],[35.14,60.043],[35.214,60.074],[35.207,60.114],[35.176,60.128],[35.156,60.152],[35.182,60.201],[35.175,60.212],[35.185,60.246],[35.163,60.256],[35.238,60.291],[35.253,60.314],[35.254,60.333],[35.274,60.336],[35.261,60.359],[35.278,60.479],[35.352,60.48],[35.35,60.459],[35.405,60.472],[35.472,60.469],[35.49,60.457],[35.549,60.462],[35.543,60.427],[35.562,60.421],[35.566,60.408],[35.697,60.414],[35.704,60.429],[35.847,60.43],[35.859,60.418],[35.92,60.452],[35.961,60.458],[36.073,60.445],[36.117,60.467],[36.162,60.468],[36.228,60.446],[36.242,60.45],[36.28,60.44],[36.277,60.452],[36.385,60.474],[36.39,60.456],[36.405,60.466],[36.395,60.475],[36.399,60.48],[36.442,60.511],[36.443,60.526],[36.462,60.525],[36.552,60.553],[36.689,60.528],[36.76,60.507],[36.77,60.495],[36.83,60.491],[36.894,60.499],[36.932,60.49],[36.992,60.55],[36.987,60.56],[37.038,60.546],[37.106,60.544],[37.142,60.567],[37.165,60.572],[37.173,60.585],[37.247,60.615],[37.496,60.612],[37.497,60.593],[37.639,60.592],[37.685,60.587],[37.684,60.58],[37.751,60.595],[37.769,60.583],[37.803,60.578],[37.812,60.599],[37.833,60.603],[37.879,60.632],[37.865,60.655],[37.875,60.672],[37.864,60.691],[37.914,60.711],[37.93,60.704],[38.107,60.695],[38.27,60.696],[38.281,60.82],[38.587,60.798],[38.578,60.78],[38.598,60.774],[38.589,60.762],[38.616,60.745],[38.611,60.743],[38.62,60.735],[38.62,60.716],[38.807,60.708],[38.813,60.735],[38.896,60.772],[38.888,60.773],[38.895,60.773],[38.907,60.768],[38.907,60.76],[38.927,60.767],[38.955,60.765],[39.002,60.736],[39.011,60.724],[39.006,60.719],[39.026,60.719],[39.052,60.71],[39.057,60.701],[39.086,60.7],[39.135,60.684],[39.184,60.64],[39.2,60.648],[39.197,60.656],[39.185,60.657],[39.18,60.68],[39.159,60.696],[39.199,60.723],[39.262,60.71],[39.288,60.721],[39.325,60.708],[39.336,60.691],[39.375,60.686],[39.375,60.696],[39.419,60.692],[39.485,60.699],[39.522,60.716],[39.589,60.721],[39.645,60.75],[39.653,60.726],[39.681,60.718],[39.761,60.741],[39.812,60.715],[39.817,60.697],[39.844,60.691],[39.88,60.667],[39.886,60.654],[40.01,60.647],[40.024,60.67],[40.049,60.674],[40.186,60.671],[40.193,60.695],[40.251,60.679],[40.282,60.68],[40.334,60.699],[40.338,60.72],[40.354,60.726],[40.373,60.75],[40.408,60.76],[40.402,60.765],[40.41,60.771],[40.407,60.777],[40.429,60.783],[40.547,60.73],[40.591,60.719],[40.656,60.729],[40.65,60.739],[40.714,60.77],[40.721,60.781],[40.771,60.775],[40.754,60.738],[40.793,60.734],[40.785,60.715],[40.826,60.702],[40.845,60.709],[40.904,60.704],[40.895,60.684],[41.085,60.666],[41.076,60.647],[41.141,60.636],[41.197,60.644],[41.199,60.653],[41.261,60.655],[41.27,60.666],[41.31,60.668],[41.35,60.641],[41.37,60.642],[41.36,60.674],[41.342,60.688],[41.361,60.733],[41.425,60.818],[41.383,60.839],[41.378,60.85],[41.426,60.87],[41.424,60.878],[41.39,60.891],[41.317,60.885],[41.337,60.972],[41.322,60.98],[41.338,60.98],[41.344,61.012],[41.323,61.015],[41.272,61.043],[41.264,61.06],[41.198,61.076],[41.197,61.056],[41.08,61.058],[41.081,61.095],[41.091,61.105],[41.083,61.118],[41.116,61.116],[41.142,61.134],[41.127,61.135],[41.133,61.154],[40.986,61.156],[40.994,61.194],[41.0,61.194],[41.002,61.232],[41.044,61.231],[41.048,61.269],[41.01,61.296],[41.035,61.308],[41.003,61.322],[40.99,61.369],[40.976,61.381],[40.946,61.388],[40.938,61.44],[40.958,61.469],[40.946,61.487],[40.953,61.494],[40.954,61.511],[40.944,61.517],[40.953,61.528],[40.952,61.544],[40.932,61.555],[41.073,61.56],[41.076,61.54],[41.256,61.548],[41.268,61.562],[41.27,61.701],[41.388,61.7],[41.387,61.863],[41.414,61.872],[41.426,61.915],[41.628,61.916],[41.638,61.931],[41.582,61.956],[41.514,61.965],[41.499,61.973],[41.499,61.989],[41.473,62.013],[41.43,62.033],[41.373,62.045],[41.394,62.058],[41.39,62.077],[41.4,62.09],[41.391,62.1],[41.393,62.12],[41.416,62.132],[41.471,62.123],[41.474,62.178],[41.386,62.217],[41.379,62.259],[41.393,62.265],[41.393,62.282],[41.333,62.321],[41.326,62.355],[41.256,62.368],[41.444,62.403],[41.517,62.389],[41.613,62.395],[41.662,62.422],[41.691,62.457],[41.689,62.478],[41.76,62.516],[41.819,62.567],[41.887,62.602],[41.882,62.609],[41.936,62.62],[41.929,62.634],[41.976,62.662],[41.971,62.669],[42.02,62.684],[42.013,62.692],[41.924,62.683],[41.877,62.691],[41.842,62.714],[41.813,62.75],[41.779,62.765],[41.779,62.791],[41.801,62.832],[41.867,62.859],[41.86,62.876],[41.829,62.892],[41.843,62.981],[41.967,62.978],[41.976,63.054],[42.02,63.053],[42.026,63.091],[42.037,63.092],[42.016,63.13],[41.989,63.131],[41.993,63.156],[42.019,63.149],[42.022,63.155],[41.997,63.197],[42.014,63.203],[42.014,63.215],[42.441,63.209],[42.452,63.241],[42.368,63.248],[42.398,63.317],[42.519,63.308],[42.53,63.337],[42.709,63.347],[42.74,63.452],[42.786,63.452],[42.8,63.511],[42.814,63.51],[42.799,63.525],[43.423,63.502],[43.409,63.447],[43.414,63.435],[43.386,63.419],[43.346,63.417],[43.336,63.403],[43.342,63.399],[43.336,63.399],[43.344,63.392],[43.338,63.384],[43.343,63.379],[43.327,63.36],[43.373,63.325],[43.382,63.298],[43.467,63.299],[43.498,63.222],[43.471,63.22],[43.587,63.194],[43.818,63.183],[44.007,63.193],[44.102,63.164],[44.586,63.197],[44.579,63.17],[45.071,63.147],[45.055,63.106],[45.184,63.099],[45.24,63.071],[45.225,63.067],[45.255,62.989],[45.244,62.916],[45.251,62.915],[45.229,62.898],[45.256,62.886],[45.216,62.832],[45.026,62.834],[44.977,62.791],[44.782,62.727],[44.597,62.719],[44.535,62.753],[44.457,62.76],[44.45,62.741],[44.286,62.754],[44.264,62.682],[44.223,62.684],[44.198,62.588],[44.433,62.582],[44.431,62.517],[44.214,62.52],[44.198,62.485],[44.155,62.45],[44.102,62.45],[44.057,62.426],[44.009,62.428],[44.001,62.394],[43.964,62.402],[43.942,62.429],[43.877,62.435],[43.854,62.452],[43.843,62.451],[43.723,62.403],[43.675,62.409],[43.554,62.349],[43.576,62.275],[43.557,62.254],[43.633,62.211],[43.669,62.206],[43.773,62.149],[43.766,62.133],[43.811,62.11],[43.875,62.097],[44.098,61.936],[44.03,61.878],[43.993,61.866],[44.301,61.846],[44.262,61.703],[44.664,61.678],[44.673,61.707],[44.852,61.636],[44.914,61.841],[45.115,61.823],[45.123,61.847],[45.11,61.859],[45.132,61.876],[45.129,61.902],[45.148,61.91],[45.129,61.937],[45.211,61.955],[45.252,61.951],[45.235,61.935],[45.236,61.921],[45.276,61.899],[45.429,61.888],[45.435,61.908],[45.47,61.906],[45.46,61.885],[45.559,61.878],[45.568,61.894],[46.3,61.889],[46.318,62.194],[47.223,62.185],[47.241,62.337],[47.403,62.334],[47.389,62.181],[47.643,62.176],[47.659,62.328],[48.323,62.307],[48.298,62.477],[48.254,62.507],[48.352,62.734],[48.681,62.702],[48.741,62.852],[49.818,62.754],[49.963,63.061],[50.049,63.056],[50.111,63.198],[50.612,63.158],[50.696,63.316],[50.593,63.321],[50.625,63.392],[50.467,63.401],[50.499,63.475],[50.399,63.481],[50.438,63.56],[49.969,63.62],[49.99,63.673],[49.751,63.706],[49.904,63.999],[50.653,63.937],[50.785,64.202],[50.916,64.196],[51.026,64.397],[51.276,64.377],[51.307,64.452],[51.383,64.446],[51.422,64.512],[51.94,64.469],[51.939,64.459],[51.981,64.455],[51.87,64.26],[52.133,64.234],[52.062,64.093],[52.386,64.062],[52.315,63.924],[52.625,63.895],[52.497,63.614],[52.563,63.606],[52.485,63.455],[52.585,63.445],[52.526,63.321],[52.826,63.291],[52.768,63.155],[53.012,63.129],[52.932,62.966],[53.258,62.933],[53.193,62.783],[53.519,62.749],[53.523,62.757],[55.03,62.59],[55.125,62.586],[55.132,62.568],[55.489,62.545],[55.243,62.252],[55.535,62.071],[55.544,62.054],[55.433,61.97],[55.54,61.873],[55.656,61.898],[55.728,61.93],[56.318,61.681],[56.18,61.419],[56.315,61.311],[56.312,61.301],[56.381,61.438],[56.568,61.414],[56.601,61.488],[56.642,61.484],[56.656,61.519],[57.08,61.47],[57.096,61.497],[58.846,61.491],[58.851,61.515],[58.921,61.527],[58.975,61.517],[58.999,61.53],[59.05,61.532],[59.123,61.589],[59.13,61.607],[59.15,61.625],[59.192,61.623],[59.208,61.634],[59.241,61.622],[59.282,61.636],[59.297,61.65],[59.35,61.658],[59.356,61.636],[59.406,61.618],[59.413,61.599],[59.403,61.592],[59.401,61.58],[59.414,61.554],[59.404,61.534],[59.447,61.514],[59.438,61.487],[59.4,61.464],[59.43,61.444],[59.445,61.416],[59.425,61.398],[59.368,61.394],[59.314,61.357],[59.321,61.336],[59.316,61.33],[59.253,61.312],[59.262,61.28],[59.252,61.261],[59.27,61.231],[59.289,61.225],[59.284,61.193],[59.293,61.178],[59.285,61.17],[59.318,61.149],[59.347,61.1],[59.348,61.084],[59.34,61.079],[59.36,61.066],[59.343,61.059],[59.344,61.052],[59.363,61.044],[59.359,61.036],[59.371,61.026],[59.375,60.997],[59.363,60.975],[59.384,60.959],[59.387,60.945],[59.436,60.948],[59.478,60.94],[59.471,60.925],[59.478,60.912],[59.47,60.85],[59.482,60.827],[59.425,60.751],[59.445,60.735],[59.43,60.721],[59.417,60.686],[59.429,60.639],[59.415,60.625],[59.409,60.602],[59.384,60.581],[59.359,60.524],[59.287,60.501],[59.247,60.474],[59.218,60.444],[59.222,60.419],[59.207,60.409],[59.211,60.399],[59.199,60.381],[59.182,60.372],[59.186,60.361],[59.14,60.331],[59.182,60.312],[59.157,60.29],[59.162,60.28],[59.15,60.261],[59.158,60.249],[59.148,60.243],[59.153,60.234],[59.147,60.22],[59.102,60.179],[59.088,60.128],[59.064,60.118],[59.076,60.105],[59.028,60.015],[58.986,59.984],[58.964,59.978],[58.981,59.967],[58.99,59.907],[58.84,59.933],[58.801,59.843],[58.45,59.879],[58.427,59.836],[58.35,59.844],[58.33,59.805],[57.951,59.846],[57.932,59.809],[57.78,59.83],[57.763,59.792],[57.688,59.8],[57.649,59.713],[57.664,59.71],[57.64,59.662],[57.622,59.652],[57.604,59.612],[57.524,59.621],[57.51,59.586],[57.405,59.598],[57.377,59.536],[57.245,59.511],[57.224,59.497],[57.227,59.491],[57.195,59.492],[57.216,59.471],[57.2,59.447],[57.182,59.437],[57.183,59.414],[57.164,59.403],[57.17,59.39],[57.226,59.364],[57.213,59.359],[57.199,59.369],[57.188,59.352],[57.163,59.352],[57.148,59.344],[57.149,59.336],[57.124,59.334],[57.131,59.321],[57.124,59.302],[57.086,59.284],[57.089,59.277],[57.139,59.261],[57.17,59.269],[57.165,59.263],[57.184,59.257],[57.17,59.253],[57.179,59.247],[57.166,59.239],[57.141,59.233],[57.142,59.221],[57.083,59.202],[57.074,59.174],[57.108,59.171],[57.125,59.163],[57.127,59.156],[57.055,59.151],[57.038,59.137],[57.051,59.115],[57.031,59.117],[57.013,59.104],[56.972,59.107],[56.956,59.086],[56.954,59.064],[56.923,59.025],[56.937,59.02],[56.916,59.017],[56.894,58.996],[56.859,59.005],[56.771,58.993],[56.741,58.996],[56.722,59.006],[56.618,59.023],[56.647,59.042],[56.641,59.056],[56.619,59.068],[56.558,59.06],[56.466,59.086],[56.432,59.075],[56.38,59.041],[56.186,59.018],[56.193,59.096],[56.235,59.159],[56.216,59.22],[56.234,59.243],[56.2,59.26],[56.125,59.275],[56.121,59.289],[56.118,59.28],[56.082,59.284],[56.074,59.272],[55.974,59.281],[55.968,59.267],[55.859,59.28],[55.831,59.226],[55.693,59.239],[55.69,59.26],[55.713,59.278],[55.652,59.286],[55.659,59.303],[55.625,59.308],[55.632,59.324],[55.578,59.332],[55.586,59.346],[55.554,59.352],[55.562,59.367],[55.525,59.372],[55.582,59.495],[55.397,59.53],[55.41,59.538],[55.449,59.621],[55.373,59.628],[55.43,59.756],[55.356,59.764],[55.384,59.834],[55.348,59.838],[55.399,59.948],[55.442,59.93],[55.478,59.93],[55.467,59.966],[55.403,59.959],[55.416,59.987],[55.565,59.961],[55.633,60.08],[55.412,60.102],[55.364,60.239],[55.314,60.228],[55.294,60.231],[55.233,60.209],[55.189,60.213],[55.168,60.2],[55.156,60.205],[55.243,60.386],[55.015,60.416],[55.058,60.511],[55.068,60.558],[55.055,60.56],[55.079,60.671],[55.101,60.718],[55.098,60.766],[55.125,60.778],[55.168,60.863],[54.99,60.884],[55.05,61.009],[54.977,60.86],[53.876,60.983],[53.814,60.832],[53.355,60.883],[53.414,61.033],[52.871,61.09],[52.806,60.938],[52.431,60.976],[52.361,60.83],[51.892,60.882],[51.772,60.58],[52.153,60.541],[52.124,60.465],[52.352,60.437],[52.33,60.374],[52.334,60.361],[52.371,60.357],[52.317,60.227],[52.065,60.308],[51.974,60.279],[51.858,60.191],[51.766,60.086],[51.665,60.028],[51.551,59.942],[51.467,59.916],[51.418,59.938],[51.39,59.994],[51.179,60.049],[51.124,60.035],[51.112,60.041],[51.048,60.032],[50.911,59.923],[50.873,59.912],[50.867,59.9],[50.873,59.886],[50.831,59.863],[50.781,59.86],[50.735,59.871],[50.474,59.835],[50.403,59.839],[50.29,59.806],[50.27,59.748],[49.991,59.779],[49.982,59.752],[49.974,59.751],[49.986,59.723],[50.085,59.68],[50.067,59.67],[50.017,59.674],[49.978,59.658],[49.859,59.655],[49.798,59.485],[49.872,59.479],[49.831,59.364],[49.869,59.36],[49.817,59.211],[49.804,59.212],[49.797,59.222],[49.795,59.215],[49.769,59.221],[49.728,59.198],[49.522,59.217],[49.532,59.235],[49.505,59.248],[49.531,59.272],[49.572,59.393],[49.344,59.409],[49.362,59.459],[49.35,59.459],[49.352,59.465],[49.216,59.475],[49.22,59.49],[49.197,59.488],[49.151,59.507],[49.118,59.5],[49.097,59.481],[49.04,59.482],[49.102,59.662],[48.847,59.679],[48.807,59.702],[48.801,59.687],[48.523,59.707],[48.512,59.778],[48.5,60.021],[48.484,60.031],[48.472,60.132],[48.492,60.195],[48.512,60.204],[48.301,60.242],[48.258,60.097],[47.99,60.111],[47.975,60.056],[47.94,60.044],[47.945,60.039],[47.923,60.022],[47.919,59.995],[47.822,60.019],[47.813,60.007],[47.818,60.0],[47.727,59.986],[47.716,59.958],[46.992,59.986],[46.922,59.765],[47.153,59.752],[47.138,59.664],[47.118,59.599],[46.797,59.624],[46.79,59.593],[46.719,59.598],[46.71,59.591],[46.699,59.592],[46.703,59.598],[46.409,59.619],[46.372,59.5],[46.406,59.496],[46.369,59.342],[46.166,59.354],[46.163,59.314],[46.02,59.324],[45.979,59.172],[45.72,59.191],[45.692,59.199],[45.694,59.191],[45.61,59.198],[45.606,59.177],[45.58,59.179],[45.57,59.201],[45.34,59.216],[45.292,58.875],[45.308,58.86],[45.338,58.865],[45.357,58.853],[45.347,58.847],[45.29,58.85],[45.321,58.807],[45.332,58.811],[45.336,58.806],[45.327,58.804],[45.333,58.797],[45.349,58.802],[45.334,58.792],[45.361,58.781],[45.348,58.772],[45.321,58.773],[45.311,58.758],[45.315,58.738],[45.308,58.727],[45.239,58.694],[45.253,58.636],[45.28,58.625],[45.364,58.619],[45.35,58.602],[45.304,58.577],[45.284,58.546],[45.227,58.545],[45.218,58.507],[45.225,58.491],[45.191,58.401],[45.168,58.383],[45.135,58.379],[45.16,58.36],[45.144,58.35],[45.115,58.349],[45.112,58.34],[45.047,58.331],[45.035,58.311],[45.041,58.29],[45.061,58.279],[45.06,58.273],[45.024,58.264],[45.018,58.251],[45.026,58.239],[45.016,58.233],[45.016,58.22],[44.991,58.186],[44.935,58.175],[44.927,58.168],[44.929,58.135],[44.919,58.126],[44.929,58.113],[44.917,58.081],[44.869,58.077],[44.85,58.062],[44.856,58.038],[44.813,58.014],[44.817,57.982],[44.827,57.971],[44.801,57.96],[44.843,57.906],[44.874,57.895],[44.881,57.882],[44.864,57.855],[44.869,57.846],[44.863,57.838],[44.835,57.82],[44.836,57.8],[44.761,57.753],[44.768,57.745],[44.759,57.736],[44.767,57.712],[44.711,57.691],[44.607,57.702],[44.579,57.694],[44.562,57.675],[44.501,57.656],[44.51,57.647],[44.493,57.628],[44.504,57.614],[44.448,57.583],[44.451,57.572],[44.405,57.56],[44.365,57.528],[44.323,57.517],[44.345,57.516],[44.343,57.505],[44.371,57.503],[44.369,57.495],[44.397,57.481],[44.421,57.474],[44.446,57.477],[44.442,57.443],[44.507,57.431],[44.505,57.42],[44.517,57.402],[44.563,57.399],[44.555,57.342],[44.591,57.34],[44.588,57.321],[44.657,57.317],[44.638,57.238],[44.674,57.236],[44.669,57.217],[44.705,57.214],[44.701,57.196],[44.69,57.194],[44.707,57.161],[44.802,57.131],[44.861,57.13],[44.867,57.115],[44.904,57.109],[44.917,57.087],[44.909,57.063],[44.937,57.057],[44.936,57.043],[44.898,57.04],[44.864,56.993],[44.879,56.974],[44.865,56.97],[44.888,56.952],[44.905,56.949],[44.897,56.947],[44.9,56.93],[45.009,56.934],[45.021,56.925],[45.022,56.911],[45.059,56.908],[45.082,56.93],[45.11,56.923],[45.11,56.915],[45.084,56.91],[45.073,56.891],[45.077,56.888],[45.07,56.888],[45.072,56.864],[45.042,56.858],[45.047,56.854],[45.009,56.843],[45.008,56.851],[44.901,56.846],[44.902,56.825],[44.895,56.818],[44.917,56.802],[44.892,56.795],[44.91,56.785],[44.928,56.793],[44.989,56.779],[44.999,56.783],[45.029,56.776],[45.029,56.77],[45.052,56.772],[45.02,56.738],[45.031,56.721],[45.009,56.679],[45.0,56.677],[45.004,56.652],[45.079,56.612],[45.165,56.543],[45.255,56.516],[45.257,56.502],[45.268,56.494],[45.264,56.467],[45.273,56.457],[45.157,56.431],[45.097,56.427],[45.057,56.413],[44.918,56.397],[44.87,56.376],[44.873,56.364],[44.893,56.366],[44.897,56.353],[44.914,56.355],[44.919,56.348],[44.909,56.331],[44.871,56.321],[44.876,56.314],[44.84,56.315],[44.834,56.295],[44.87,56.295],[44.86,56.218],[44.917,56.216],[44.927,56.201],[44.919,56.196],[44.939,56.184],[44.935,56.167],[44.946,56.163],[44.937,56.159],[44.948,56.156],[44.93,56.152],[44.951,56.142],[44.944,56.138],[44.955,56.122],[44.921,56.118],[44.92,56.111],[44.937,56.109],[44.935,56.092],[44.923,56.09],[44.928,56.073],[44.81,56.079],[44.813,56.074],[44.74,56.046],[44.753,56.034],[44.76,56.037],[44.735,56.02],[44.747,56.018],[44.706,56.019],[44.714,56.005],[44.748,55.999],[44.745,55.98],[44.726,55.968],[44.764,55.935],[44.759,55.921],[44.672,55.927],[44.65,55.94],[44.62,55.939],[44.614,55.928],[44.595,55.935],[44.569,55.923],[44.565,55.899],[44.555,55.893],[44.579,55.875],[44.526,55.868],[44.507,55.876],[44.491,55.86],[44.502,55.85],[44.462,55.842],[44.452,55.851],[44.41,55.849],[44.384,55.858],[44.381,55.881],[44.342,55.882],[44.34,55.889],[44.348,55.884],[44.355,55.898],[44.35,55.908],[44.299,55.921],[44.304,55.935],[44.296,55.942],[44.31,55.953],[44.267,55.971],[44.245,55.974],[44.206,55.951],[44.197,55.956],[44.202,55.976],[44.182,55.984],[44.161,55.988],[44.157,55.98],[44.145,55.98],[44.146,55.973],[44.122,55.97],[44.116,55.978],[44.123,55.98],[44.108,55.988],[44.121,55.998],[44.094,56.002],[44.106,56.003],[44.099,56.013],[44.06,56.007],[44.038,56.012],[44.02,56.028],[44.005,56.023],[44.01,56.013],[43.999,56.014],[43.987,56.023],[43.991,56.029],[43.966,56.038],[43.968,56.046],[43.987,56.044],[43.991,56.079],[43.988,56.092],[43.954,56.089],[43.96,56.116],[43.918,56.103],[43.937,56.081],[43.935,56.048],[43.953,56.049],[43.94,56.038],[43.955,56.039],[43.951,56.033],[43.962,56.028],[43.913,56.009],[43.896,55.986],[43.862,55.973],[43.9,55.96],[43.897,55.953],[43.921,55.937],[43.909,55.932],[43.948,55.913],[43.94,55.909],[43.948,55.901],[43.944,55.895],[43.919,55.889],[43.92,55.879],[43.917,55.889],[43.924,55.896],[43.883,55.893],[43.873,55.901],[43.878,55.908],[43.837,55.896],[43.827,55.884],[43.845,55.873],[43.837,55.862],[43.843,55.857],[43.821,55.848],[43.81,55.855],[43.816,55.851],[43.808,55.846],[43.743,55.849],[43.722,55.818],[43.706,55.821],[43.663,55.81],[43.662,55.804],[43.678,55.803],[43.662,55.798],[43.67,55.792],[43.661,55.793],[43.648,55.776],[43.652,55.763],[43.644,55.747],[43.602,55.744],[43.571,55.763],[43.571,55.782],[43.533,55.779],[43.533,55.793],[43.545,55.798],[43.539,55.806],[43.518,55.801],[43.517,55.812],[43.489,55.811],[43.483,55.821],[43.469,55.808],[43.459,55.809],[43.457,55.8],[43.439,55.801],[43.435,55.823],[43.466,55.83],[43.474,55.841],[43.455,55.868],[43.449,55.896],[43.44,55.896],[43.44,55.905],[43.451,55.91],[43.437,55.94],[43.408,55.935],[43.362,55.913],[43.348,55.917],[43.31,55.893],[43.286,55.903],[43.268,55.9],[43.279,55.91],[43.276,55.919],[43.249,55.924],[43.233,55.904],[43.189,55.89],[43.204,55.88],[43.193,55.867],[43.157,55.865],[43.156,55.854],[43.128,55.864],[43.083,55.841],[43.071,55.845],[43.076,55.85],[43.013,55.857],[43.038,55.848],[43.019,55.833],[43.002,55.836],[43.01,55.845],[43.0,55.854],[42.956,55.849],[42.948,55.841],[42.963,55.82],[42.945,55.809],[42.958,55.8],[42.953,55.785],[42.91,55.795],[42.908,55.807],[42.88,55.809],[42.878,55.798],[42.904,55.788],[42.91,55.768],[42.88,55.734],[42.881,55.7],[42.894,55.695],[42.887,55.706],[42.922,55.693],[42.907,55.67],[42.897,55.669],[42.898,55.66],[42.939,55.677],[42.972,55.674],[43.007,55.624],[42.961,55.613],[42.974,55.595],[42.942,55.587],[42.949,55.579],[42.934,55.575],[42.946,55.558],[42.885,55.542],[42.897,55.526],[42.889,55.45],[42.882,55.45],[42.897,55.441],[42.946,55.442],[42.961,55.431],[42.96,55.413],[42.972,55.408],[43.088,55.392],[43.05,55.369],[43.067,55.363],[42.994,55.378],[42.957,55.362],[42.927,55.36],[42.899,55.337],[42.884,55.348],[42.866,55.347],[42.878,55.316],[42.841,55.319],[42.843,55.28],[42.768,55.283],[42.767,55.271],[42.727,55.27],[42.725,55.257],[42.745,55.258],[42.737,55.191],[42.799,55.194],[42.781,55.163],[42.755,55.158],[42.763,55.14],[42.735,55.137],[42.738,55.123],[42.75,55.124],[42.746,55.115],[42.773,55.112],[42.767,55.092],[42.755,55.081],[42.694,55.08],[42.452,55.03],[42.414,55.007],[42.369,55.007],[42.322,54.988],[42.3,54.992],[42.255,54.979],[42.227,54.959],[42.112,54.98],[42.077,54.978],[42.053,54.963],[41.988,54.954],[41.955,54.931],[41.908,54.916],[41.895,54.919],[41.855,54.894],[41.91,54.842],[41.913,54.823],[41.88,54.828],[41.85,54.814],[41.819,54.814],[41.851,54.809],[41.863,54.796],[41.855,54.786],[41.872,54.773],[41.854,54.766],[41.815,54.773],[41.803,54.767],[41.741,54.784],[41.721,54.782],[41.713,54.778],[41.722,54.775],[41.703,54.767],[41.69,54.77],[41.664,54.74],[41.636,54.736],[41.644,54.724],[41.664,54.724],[41.668,54.714],[41.638,54.703],[41.608,54.734],[41.587,54.731],[41.567,54.739],[41.567,54.723],[41.548,54.697],[41.507,54.674],[41.514,54.642],[41.507,54.642],[41.505,54.614],[41.491,54.614],[41.471,54.599],[41.471,54.612],[41.454,54.613],[41.456,54.642],[41.439,54.642],[41.44,54.661],[41.391,54.662],[41.392,54.682],[41.325,54.683],[41.333,54.693],[41.31,54.702],[41.285,54.689],[41.248,54.698],[41.259,54.706],[41.238,54.705],[41.243,54.802],[41.204,54.809],[41.209,54.821],[41.192,54.831],[41.153,54.833],[41.128,54.852],[41.147,54.85],[41.146,54.855],[41.106,54.852],[41.126,54.813],[41.097,54.817],[41.096,54.806],[41.081,54.801],[41.078,54.789],[41.1,54.784],[41.098,54.768],[41.112,54.763],[41.093,54.749],[41.092,54.738],[41.055,54.771],[41.035,54.761],[41.019,54.778],[40.987,54.784],[40.983,54.79],[40.99,54.801],[41.016,54.799],[41.024,54.805],[41.007,54.811],[40.956,54.813],[40.917,54.793],[40.911,54.8],[40.883,54.797],[40.827,54.78],[40.789,54.791],[40.58,54.796],[40.595,54.848],[40.548,54.869],[40.505,54.869],[40.483,54.88],[40.452,54.876],[40.434,54.859],[40.336,54.877],[40.274,54.847],[40.253,54.847],[40.222,54.864],[40.151,54.85],[40.055,54.907],[40.07,54.915],[40.031,54.91],[39.985,54.937],[39.978,54.928],[39.932,54.952],[39.932,54.964],[39.944,54.971],[39.924,54.986],[39.805,55.005],[39.78,55.031],[39.756,55.035],[39.766,55.009],[39.753,55.005],[39.701,55.006],[39.669,55.014],[39.67,55.025],[39.625,55.025],[39.618,55.0],[39.603,54.988],[39.518,54.984],[39.521,54.97],[39.475,54.946],[39.466,54.931],[39.469,54.919],[39.482,54.917],[39.474,54.91],[39.486,54.901],[39.461,54.902],[39.466,54.892],[39.43,54.886],[39.435,54.877],[39.399,54.866],[39.389,54.854],[39.415,54.84],[39.386,54.827],[39.361,54.8],[39.363,54.783],[39.333,54.775],[39.335,54.763],[39.318,54.757],[39.369,54.753],[39.371,54.747],[39.331,54.731],[39.342,54.721],[39.337,54.719],[39.305,54.724],[39.3,54.735],[39.268,54.736],[39.246,54.732],[39.223,54.706],[39.206,54.706],[39.193,54.714],[39.221,54.714],[39.24,54.734],[39.238,54.749],[39.205,54.744],[39.197,54.754],[39.221,54.762],[39.216,54.77],[39.225,54.78],[39.214,54.795],[39.188,54.79],[39.187,54.798],[39.167,54.801],[39.168,54.809],[39.153,54.806],[39.145,54.83],[39.122,54.82],[39.107,54.828],[39.084,54.819],[39.071,54.829],[39.078,54.834],[39.071,54.84],[39.018,54.841],[38.992,54.845],[38.987,54.854],[38.947,54.846],[38.929,54.851],[38.935,54.857],[38.913,54.859],[38.912,54.873],[38.865,54.865],[38.852,54.876],[38.871,54.887],[38.871,54.897],[38.815,54.893],[38.799,54.903],[38.773,54.899],[38.764,54.905],[38.756,54.9],[38.759,54.895],[38.803,54.887],[38.792,54.877],[38.803,54.87],[38.797,54.861],[38.754,54.861],[38.765,54.843],[38.743,54.833],[38.758,54.837],[38.771,54.818],[38.752,54.826],[38.718,54.819],[38.723,54.796],[38.685,54.797],[38.667,54.809],[38.639,54.805],[38.642,54.796],[38.601,54.776],[38.583,54.777],[38.574,54.765],[38.536,54.758],[38.533,54.747],[38.553,54.727],[38.549,54.715],[38.578,54.702],[38.572,54.69],[38.578,54.69],[38.563,54.663],[38.534,54.655],[38.525,54.64],[38.483,54.63],[38.482,54.616],[38.495,54.614],[38.519,54.594],[38.471,54.571],[38.446,54.573],[38.459,54.55],[38.437,54.55],[38.451,54.537],[38.422,54.546],[38.376,54.526],[38.38,54.514],[38.4,54.503],[38.395,54.499],[38.398,54.475],[38.387,54.467],[38.409,54.463],[38.432,54.442],[38.451,54.44],[38.47,54.423],[38.454,54.416],[38.476,54.402],[38.527,54.395],[38.528,54.381],[38.509,54.362],[38.513,54.354],[38.504,54.345],[38.517,54.334],[38.507,54.328],[38.52,54.322],[38.508,54.312],[38.519,54.306],[38.513,54.294],[38.571,54.29],[38.608,54.276],[38.632,54.281],[38.639,54.264],[38.666,54.257],[38.671,54.247],[38.712,54.244],[38.722,54.238],[38.714,54.23],[38.726,54.227],[38.709,54.221],[38.721,54.207],[38.687,54.186],[38.74,54.182],[38.751,54.192],[38.781,54.158],[38.771,54.126],[38.748,54.125],[38.718,54.102],[38.685,54.098],[38.683,54.089],[38.696,54.081],[38.689,54.074],[38.706,54.074],[38.703,54.064],[38.679,54.06],[38.683,54.055],[38.675,54.043],[38.637,54.03],[38.631,54.048],[38.593,54.044],[38.573,54.06],[38.553,54.063],[38.54,54.062],[38.539,54.054],[38.509,54.051],[38.498,54.04],[38.425,54.035],[38.409,54.042],[38.41,54.049],[38.395,54.047],[38.401,54.043],[38.376,54.04],[38.385,54.031],[38.365,54.028],[38.325,54.006],[38.303,53.986],[38.307,53.979],[38.277,53.97],[38.29,53.962],[38.269,53.961],[38.269,53.951],[38.256,53.949],[38.267,53.933],[38.244,53.928],[38.273,53.919],[38.246,53.91],[38.262,53.91],[38.252,53.903],[38.266,53.897],[38.27,53.911],[38.282,53.911],[38.275,53.915],[38.296,53.919],[38.303,53.909],[38.309,53.919],[38.333,53.917],[38.303,53.93],[38.31,53.936],[38.306,53.942],[38.298,53.921],[38.272,53.927],[38.281,53.955],[38.387,53.96],[38.408,53.953],[38.414,53.943],[38.405,53.944],[38.401,53.923],[38.44,53.918],[38.407,53.956],[38.386,53.962],[38.37,53.961],[38.366,53.968],[38.385,53.982],[38.39,53.996],[38.405,53.998],[38.405,53.983],[38.443,53.963],[38.442,53.932],[38.449,53.924],[38.444,53.915],[38.453,53.905],[38.464,53.91],[38.481,53.885],[38.464,53.883],[38.475,53.869],[38.534,53.839],[38.538,53.826],[38.519,53.816],[38.51,53.802],[38.518,53.798],[38.511,53.784],[38.49,53.774],[38.491,53.763],[38.446,53.739],[38.437,53.743],[38.437,53.76],[38.339,53.777],[38.33,53.804],[38.338,53.83],[38.347,53.834],[38.336,53.837],[38.336,53.849],[38.322,53.852],[38.309,53.843],[38.281,53.847],[38.279,53.861],[38.267,53.846],[38.217,53.852],[38.165,53.847],[38.157,53.84],[38.183,53.84],[38.181,53.807],[38.149,53.812],[38.147,53.826],[38.13,53.834],[38.115,53.827],[38.107,53.832],[38.094,53.821],[38.076,53.828],[38.114,53.852],[38.099,53.864],[38.051,53.845],[38.03,53.847],[37.989,53.827],[37.954,53.826],[37.947,53.81],[37.958,53.798],[37.947,53.784],[37.928,53.792],[37.908,53.785],[37.887,53.79],[37.842,53.783],[37.829,53.795],[37.8,53.79],[37.791,53.799],[37.786,53.793],[37.778,53.797],[37.78,53.792],[37.768,53.795],[37.773,53.8],[37.748,53.793],[37.676,53.81],[37.67,53.825],[37.695,53.833],[37.697,53.845],[37.686,53.847],[37.699,53.855],[37.691,53.869],[37.697,53.881],[37.677,53.883],[37.68,53.891],[37.709,53.89],[37.722,53.9],[37.671,53.912],[37.673,53.926],[37.66,53.929],[37.664,53.944],[37.646,53.962],[37.674,53.974],[37.687,53.989],[37.708,53.99],[37.718,54.005],[37.695,54.009],[37.687,54.022],[37.709,54.038],[37.724,54.035],[37.724,54.045],[37.753,54.057],[37.747,54.059],[37.756,54.092],[37.75,54.098],[37.759,54.101],[37.735,54.116],[37.745,54.123],[37.788,54.114],[37.808,54.129],[37.834,54.118],[37.866,54.128],[37.873,54.137],[37.861,54.149],[37.868,54.161],[37.848,54.173],[37.825,54.171],[37.829,54.191],[37.823,54.204],[37.851,54.218],[37.9,54.213],[37.881,54.225],[37.891,54.243],[37.954,54.257],[37.963,54.276],[38.012,54.282],[38.036,54.293],[38.036,54.309],[38.021,54.318],[37.973,54.31],[37.95,54.298],[37.923,54.303],[37.912,54.293],[37.917,54.299],[37.906,54.304],[37.925,54.323],[37.899,54.315],[37.869,54.334],[37.881,54.339],[37.868,54.346],[37.886,54.36],[37.858,54.367],[37.852,54.383],[37.818,54.381],[37.792,54.392],[37.78,54.385],[37.789,54.364],[37.782,54.351],[37.722,54.34],[37.703,54.348],[37.671,54.347],[37.662,54.343],[37.657,54.319],[37.639,54.315],[37.633,54.321],[37.644,54.334],[37.622,54.336],[37.595,54.365],[37.615,54.384],[37.573,54.416],[37.58,54.446],[37.562,54.449],[37.555,54.444],[37.558,54.437],[37.538,54.436],[37.531,54.426],[37.493,54.415],[37.466,54.421],[37.418,54.448],[37.406,54.439],[37.37,54.434],[37.406,54.42],[37.406,54.413],[37.421,54.416],[37.427,54.397],[37.406,54.395],[37.395,54.404],[37.363,54.407],[37.342,54.401],[37.334,54.392],[37.342,54.38],[37.319,54.366],[37.3,54.375],[37.279,54.365],[37.273,54.343]]],[[[33.122,56.189],[33.118,56.204],[33.08,56.221],[33.078,56.229],[33.099,56.244],[33.089,56.249],[33.129,56.273],[33.138,56.306],[33.156,56.312],[33.159,56.326],[33.128,56.337],[33.125,56.348],[33.063,56.343],[33.047,56.349],[33.055,56.382],[33.038,56.385],[33.04,56.438],[33.101,56.428],[33.122,56.436],[33.12,56.45],[33.219,56.452],[33.202,56.46],[33.272,56.479],[33.29,56.472],[33.292,56.463],[33.303,56.463],[33.327,56.474],[33.326,56.483],[33.388,56.495],[33.394,56.5],[33.387,56.52],[33.404,56.523],[33.4,56.515],[33.421,56.51],[33.444,56.521],[33.451,56.514],[33.449,56.499],[33.467,56.491],[33.507,56.499],[33.528,56.497],[33.543,56.482],[33.569,56.485],[33.57,56.507],[33.601,56.511],[33.596,56.524],[33.666,56.52],[33.658,56.546],[33.681,56.542],[33.681,56.536],[33.695,56.54],[33.683,56.561],[33.708,56.58],[33.722,56.571],[33.75,56.583],[33.758,56.58],[33.76,56.587],[33.792,56.591],[33.814,56.582],[33.876,56.594],[33.861,56.608],[33.87,56.623],[33.895,56.628],[33.884,56.633],[33.887,56.643],[33.879,56.646],[33.945,56.647],[33.999,56.665],[33.996,56.652],[34.008,56.647],[33.999,56.644],[33.999,56.635],[34.036,56.635],[34.045,56.631],[34.041,56.626],[34.061,56.625],[34.062,56.634],[34.074,56.635],[34.072,56.65],[34.106,56.654],[34.111,56.663],[34.125,56.661],[34.123,56.652],[34.175,56.644],[34.181,56.634],[34.173,56.63],[34.21,56.601],[34.213,56.585],[34.228,56.574],[34.276,56.579],[34.288,56.568],[34.297,56.577],[34.305,56.559],[34.357,56.553],[34.366,56.538],[34.384,56.547],[34.382,56.534],[34.391,56.529],[34.419,56.539],[34.44,56.536],[34.449,56.517],[34.441,56.513],[34.441,56.499],[34.502,56.488],[34.504,56.5],[34.53,56.514],[34.536,56.507],[34.52,56.501],[34.546,56.489],[34.526,56.482],[34.549,56.463],[34.564,56.429],[34.581,56.433],[34.575,56.422],[34.62,56.42],[34.655,56.403],[34.654,56.393],[34.666,56.384],[34.678,56.389],[34.696,56.385],[34.69,56.372],[34.734,56.368],[34.752,56.388],[34.785,56.382],[34.783,56.372],[34.75,56.358],[34.768,56.311],[34.786,56.307],[34.819,56.322],[34.835,56.309],[34.808,56.29],[34.835,56.283],[34.834,56.255],[34.819,56.243],[34.777,56.255],[34.744,56.244],[34.739,56.253],[34.754,56.264],[34.749,56.272],[34.732,56.276],[34.728,56.307],[34.65,56.301],[34.626,56.308],[34.616,56.3],[34.569,56.295],[34.524,56.28],[34.489,56.259],[34.483,56.253],[34.492,56.244],[34.47,56.228],[34.459,56.198],[34.441,56.18],[34.419,56.175],[34.383,56.182],[34.373,56.172],[34.382,56.163],[34.357,56.161],[34.354,56.151],[34.363,56.142],[34.342,56.132],[34.342,56.125],[34.308,56.121],[34.322,56.112],[34.328,56.084],[34.333,56.097],[34.34,56.092],[34.328,56.08],[34.328,56.047],[34.358,56.04],[34.373,56.023],[34.368,56.015],[34.338,56.014],[34.339,56.005],[34.322,55.995],[34.302,55.997],[34.309,56.001],[34.304,56.007],[34.278,56.022],[34.261,56.026],[34.25,56.017],[34.243,56.022],[34.248,56.026],[34.224,56.031],[34.236,56.039],[34.216,56.035],[34.205,56.04],[34.209,56.052],[34.173,56.063],[34.119,56.052],[34.086,56.027],[34.017,56.048],[34.0,56.04],[33.929,56.054],[33.936,56.06],[33.916,56.067],[33.877,56.054],[33.864,56.06],[33.864,56.014],[33.793,56.01],[33.815,56.004],[33.802,55.994],[33.812,55.974],[33.796,55.968],[33.822,55.962],[33.803,55.933],[33.777,55.93],[33.769,55.934],[33.778,55.944],[33.734,55.951],[33.74,55.957],[33.639,55.96],[33.635,55.952],[33.647,55.949],[33.646,55.93],[33.673,55.93],[33.663,55.908],[33.676,55.899],[33.651,55.902],[33.627,55.893],[33.644,55.889],[33.644,55.881],[33.615,55.889],[33.549,55.888],[33.547,55.897],[33.484,55.908],[33.483,55.917],[33.468,55.916],[33.471,55.939],[33.446,55.942],[33.427,55.943],[33.414,55.931],[33.403,55.937],[33.377,55.916],[33.323,55.906],[33.326,55.926],[33.335,55.934],[33.332,55.947],[33.285,55.961],[33.291,56.009],[33.274,56.009],[33.251,56.024],[33.161,56.019],[33.129,56.01],[33.112,56.018],[33.113,56.032],[33.128,56.045],[33.085,56.072],[33.1,56.074],[33.101,56.09],[33.125,56.108],[33.097,56.105],[33.1,56.117],[33.123,56.124],[33.107,56.133],[33.118,56.149],[33.074,56.139],[33.047,56.155],[33.076,56.169],[33.064,56.178],[33.105,56.179],[33.122,56.189]]]]}}]}