{"type":"FeatureCollection","features":[{"type":"Feature","properties":{"mid":true,"src":"data/years/1485-09-12.geojson"},"geometry":{"type":"MultiPolygon","coordinates":[[[[28.441,59.794],[28.473,59.828],[28.544,59.849],[28.573,59.827],[28.673,59.809],[28.724,59.774],[28.779,59.782],[28.784,59.803],[28.808,59.78],[28.845,59.782],[28.88,59.81],[28.967,59.812],[29.037,59.845],[29.066,59.886],[28.988,59.914],[29.042,59.919],[29.057,59.958],[29.123,59.97],[29.126,59.986],[29.203,59.98],[29.208,59.993],[29.555,59.958],[29.637,59.929],[29.779,59.931],[29.766,59.92],[29.782,59.929],[29.772,59.919],[30.026,59.861],[30.176,59.87],[30.169,59.888],[30.193,59.889],[30.228,59.911],[30.232,59.933],[30.178,59.944],[30.216,59.964],[30.184,59.99],[30.011,59.993],[29.962,60.01],[29.964,60.056],[29.932,60.07],[29.956,60.074],[29.919,60.089],[29.946,60.103],[29.921,60.147],[29.721,60.187],[29.57,60.197],[29.449,60.171],[29.47,60.184],[29.426,60.191],[29.521,60.233],[29.579,60.22],[29.7,60.245],[29.712,60.227],[29.713,60.241],[29.74908,60.2426],[29.758,60.243],[29.76042,60.24072],[29.76312,60.24027],[29.833,60.203],[29.953,60.177],[29.938,60.182],[29.95059,60.19648],[29.95409,60.19425],[29.958,60.205],[29.948,60.207],[29.941,60.225],[29.928,60.227],[29.925,60.242],[29.915,60.244],[29.942,60.248],[29.949,60.268],[29.983,60.267],[30.027,60.284],[30.055,60.281],[30.037,60.301],[30.045,60.306],[30.037,60.312],[30.041,60.318],[30.005,60.338],[29.997,60.351],[30.005,60.358],[30.056,60.35],[30.105,60.396],[30.096,60.402],[30.102,60.414],[30.083,60.439],[30.093,60.449],[30.06,60.461],[30.063,60.469],[30.044,60.48],[30.009,60.475],[29.971,60.45],[29.926,60.434],[29.881,60.433],[29.859,60.418],[29.789,60.43],[29.758,60.423],[29.765,60.444],[29.704,60.443],[29.69,60.448],[29.693,60.459],[29.675,60.465],[29.755,60.495],[29.757,60.503],[29.75,60.508],[29.756,60.509],[29.756,60.52],[29.718,60.537],[29.73,60.548],[29.702,60.549],[29.718,60.54],[29.688,60.54],[29.683,60.529],[29.693,60.526],[29.673,60.529],[29.659,60.517],[29.636,60.521],[29.625,60.536],[29.528,60.591],[29.532,60.6],[29.52,60.62],[29.526,60.635],[29.579,60.631],[29.618,60.638],[29.604,60.643],[29.64,60.647],[29.648,60.667],[29.486,60.76],[29.494,60.764],[29.487,60.775],[29.491,60.789],[29.516,60.807],[29.514,60.823],[29.499,60.836],[29.577,60.84],[29.623,60.828],[29.694,60.845],[29.641,60.887],[29.626,60.911],[29.636,60.921],[29.587,60.947],[29.568,60.97],[29.567,60.983],[29.609,61.002],[29.615,61.021],[29.588,61.026],[29.597,61.028],[29.594,61.047],[29.551,61.057],[29.558,61.074],[29.558,61.133],[29.573,61.144],[29.566,61.155],[29.57,61.182],[29.562,61.192],[29.571,61.196],[29.551,61.216],[29.565,61.223],[29.551,61.241],[29.521,61.239],[29.501,61.254],[29.424,61.256],[29.367,61.278],[29.306,61.329],[29.328,61.352],[29.503,61.461],[29.496,61.492],[29.592,61.496],[29.645,61.52],[29.643,61.526],[29.741,61.576],[29.755,61.603],[29.81,61.636],[29.819,61.655],[29.845,61.671],[29.862,61.671],[29.873,61.685],[30.038,61.765],[30.071,61.818],[30.156,61.858],[30.196,61.882],[30.194,61.891],[30.211,61.893],[30.274,61.934],[30.301,61.935],[30.313,61.945],[30.305,61.964],[30.352,61.98],[30.444,62.033],[30.603,62.142],[30.636,62.174],[30.629,62.189],[30.657,62.209],[30.72,62.209],[30.809,62.261],[30.811,62.271],[30.904,62.311],[30.943,62.306],[30.962,62.328],[30.943,62.333],[31.138,62.442],[31.163,62.446],[31.173,62.482],[31.186,62.488],[31.185,62.494],[31.222,62.499],[31.346,62.644],[31.373,62.65],[31.376,62.671],[31.385,62.675],[31.38,62.69],[31.439,62.785],[31.467,62.784],[31.456,62.797],[31.587,62.909],[31.502,62.996],[31.449,63.006],[31.463,63.024],[31.425,63.043],[31.387,63.049],[31.361,63.072],[31.272,63.108],[31.255,63.142],[31.255,63.179],[31.238,63.195],[31.238,63.219],[31.165,63.244],[31.139,63.265],[31.102,63.271],[31.021,63.303],[30.979,63.308],[30.944,63.337],[30.934,63.355],[30.85,63.369],[30.788,63.405],[30.484,63.467],[30.385,63.545],[30.258,63.584],[30.244,63.607],[30.073,63.694],[30.061,63.704],[30.065,63.708],[29.972,63.757],[30.26,63.822],[30.321,63.91],[30.447,63.983],[30.528,64.049],[30.554,64.102],[30.553,64.132],[30.516,64.155],[30.466,64.204],[30.51,64.222],[30.482,64.262],[30.388,64.269],[30.361,64.281],[30.367,64.3],[30.21,64.35],[30.11,64.365],[30.045,64.402],[30.057,64.434],[30.05,64.442],[30.058,64.451],[30.046,64.472],[30.024,64.483],[30.03,64.501],[30.015,64.504],[29.987,64.534],[29.997,64.577],[29.989,64.588],[30.054,64.615],[30.119,64.626],[30.13,64.635],[30.136,64.649],[30.054,64.713],[30.041,64.741],[30.091,64.765],[30.087,64.774],[30.043,64.793],[29.74,64.79],[29.688,64.819],[29.7,64.837],[29.645,64.866],[29.615,64.917],[29.611,64.927],[29.619,64.96],[29.599,64.995],[29.614,65.013],[29.627,65.061],[29.733,65.091],[29.831,65.092],[29.897,65.105],[29.853,65.127],[29.864,65.132],[29.85,65.129],[29.819,65.144],[29.894,65.193],[29.886,65.206],[29.764,65.229],[29.634,65.232],[29.602,65.26],[29.609,65.276],[29.646,65.289],[29.747,65.347],[29.731,65.374],[29.727,65.4],[29.733,65.472],[29.749,65.483],[29.755,65.497],[29.864,65.56],[29.754,65.609],[29.722,65.637],[30.017,65.696],[30.138,65.669],[30.134,65.7],[30.068,65.895],[30.024,65.967],[29.997,65.979],[29.993,66.022],[29.984,66.025],[29.974,66.041],[29.981,66.044],[29.971,66.046],[29.923,66.127],[29.71,66.268],[29.697,66.268],[29.707,66.274],[29.697,66.277],[29.631,66.366],[29.52,66.496],[29.472,66.544],[29.411,66.583],[29.417,66.592],[29.376,66.604],[29.386,66.607],[29.36,66.626],[29.358,66.641],[29.323,66.662],[30.17,66.661],[30.16,66.653],[31.086,66.667],[31.094,66.659],[31.576,66.654],[31.621,66.502],[31.792,66.495],[31.83,66.371],[31.937,66.351],[32.343,66.345],[32.354,66.467],[32.36,66.475],[32.548,66.479],[32.557,66.576],[32.587,66.582],[32.76583,66.58267],[32.854,66.583],[32.882,66.566],[33.185,66.543],[33.196,66.538],[32.931,66.519],[33.056,66.498],[33.135,66.501],[33.237,66.52],[33.254,66.501],[33.311,66.498],[33.273,66.492],[33.295,66.484],[33.28,66.479],[33.544,66.441],[33.52,66.456],[33.536,66.453],[33.546,66.475],[33.627,66.469],[33.551,66.452],[33.591,66.43],[33.718,66.413],[33.53,66.4],[33.463,66.378],[33.605,66.367],[33.58,66.358],[33.677,66.34],[33.666,66.335],[33.414,66.325],[33.215,66.28],[33.077,66.276],[32.981,66.251],[33.251,66.273],[33.348,66.306],[33.377,66.298],[33.467,66.302],[33.435,66.291],[33.573,66.315],[33.632,66.306],[33.58,66.295],[33.611,66.292],[33.563,66.276],[33.75,66.277],[33.831,66.25],[33.787,66.243],[33.911,66.234],[33.871,66.221],[33.898,66.212],[33.879,66.2],[33.949,66.225],[34.109,66.227],[34.152,66.204],[34.135,66.195],[34.182,66.189],[34.141,66.167],[34.286,66.153],[34.558,66.052],[34.536,66.046],[34.584,66.048],[34.608,66.034],[34.583,66.032],[34.62,66.014],[34.606,66.01],[34.72,65.968],[34.663,65.956],[34.676,65.946],[34.663,65.94],[34.684,65.943],[34.634,65.92],[34.703,65.918],[34.661,65.902],[34.699,65.899],[34.683,65.876],[34.738,65.903],[34.826,65.886],[34.857,65.866],[34.814,65.847],[34.837,65.847],[34.816,65.839],[34.832,65.837],[34.807,65.821],[34.819,65.819],[34.775,65.81],[34.85,65.801],[34.897,65.817],[34.863,65.817],[34.876,65.831],[34.92,65.815],[34.888,65.813],[34.905,65.795],[34.886,65.795],[34.916,65.768],[34.863,65.776],[34.874,65.771],[34.853,65.762],[34.87,65.763],[34.837,65.754],[34.976,65.716],[34.947,65.711],[34.979,65.709],[34.948,65.698],[34.95,65.679],[34.896,65.684],[34.748,65.766],[34.703,65.763],[34.742,65.768],[34.698,65.766],[34.73,65.775],[34.674,65.789],[34.688,65.797],[34.66,65.794],[34.662,65.781],[34.711,65.777],[34.655,65.756],[34.695,65.74],[34.682,65.728],[34.713,65.731],[34.686,65.723],[34.683,65.71],[34.712,65.708],[34.683,65.694],[34.72,65.709],[34.773,65.686],[34.686,65.668],[34.727,65.664],[34.698,65.653],[34.757,65.653],[34.719,65.644],[34.734,65.642],[34.725,65.628],[34.753,65.627],[34.749,65.605],[34.797,65.581],[34.737,65.583],[34.71,65.558],[34.753,65.548],[34.737,65.533],[34.754,65.529],[34.633,65.487],[34.676,65.465],[34.665,65.458],[34.689,65.436],[34.456,65.43],[34.531,65.406],[34.474,65.407],[34.501,65.388],[34.441,65.41],[34.428,65.411],[34.452,65.395],[34.353,65.406],[34.443,65.367],[34.362,65.381],[34.307,65.38],[34.271,65.371],[34.5,65.328],[34.446,65.317],[34.478,65.309],[34.457,65.269],[34.473,65.256],[34.508,65.255],[34.497,65.247],[34.509,65.239],[34.533,65.255],[34.539,65.222],[34.524,65.22],[34.606,65.225],[34.607,65.207],[34.66,65.194],[34.599,65.196],[34.666,65.181],[34.655,65.165],[34.691,65.157],[34.637,65.141],[34.663,65.124],[34.646,65.113],[34.68,65.121],[34.662,65.102],[34.702,65.09],[34.686,65.079],[34.787,65.075],[34.756,65.037],[34.8,65.016],[34.774,64.995],[34.831,65.022],[34.782,64.981],[34.608,64.951],[34.769,64.953],[34.828,64.921],[34.821,64.902],[34.838,64.914],[34.844,64.899],[34.896,64.891],[34.88,64.872],[34.921,64.834],[34.961,64.836],[34.928,64.8],[34.877,64.783],[34.882,64.767],[34.819,64.761],[34.78,64.732],[34.818,64.724],[34.807,64.712],[34.841,64.678],[34.913,64.662],[34.9,64.655],[34.93,64.638],[34.913,64.633],[34.969,64.631],[34.969,64.614],[34.99,64.611],[34.816,64.544],[34.85,64.535],[34.812,64.541],[34.731,64.531],[34.7,64.524],[34.683,64.509],[34.772,64.525],[34.787,64.51],[34.83,64.514],[34.809,64.502],[34.868,64.503],[34.858,64.496],[34.889,64.48],[34.917,64.499],[34.979,64.485],[34.957,64.505],[35.011,64.506],[35.003,64.495],[35.03,64.482],[34.989,64.474],[34.998,64.456],[34.975,64.451],[34.983,64.43],[34.964,64.418],[35.019,64.406],[35.118,64.419],[35.145,64.35],[35.342,64.344],[35.325,64.3],[35.377,64.302],[35.404,64.284],[35.545,64.33],[35.614,64.324],[35.627,64.347],[35.582,64.374],[35.604,64.383],[35.698,64.362],[35.755,64.321],[35.832,64.321],[35.895,64.287],[35.922,64.267],[35.894,64.237],[35.938,64.227],[35.927,64.221],[35.96,64.208],[35.955,64.191],[36.008,64.184],[36.047,64.213],[36.14,64.176],[36.155,64.15],[36.241,64.128],[36.179,64.104],[36.172,64.09],[36.191,64.077],[36.176,64.074],[36.262,64.053],[36.249,64.005],[36.3,63.971],[36.317,63.99],[36.598,63.957],[36.646,63.937],[36.649,63.914],[36.767,63.903],[36.754,63.896],[36.795,63.918],[36.885,63.889],[36.934,63.898],[36.923,63.915],[36.995,63.884],[37.217,63.875],[37.251,63.825],[37.224,63.828],[37.205,63.819],[37.439,63.784],[37.621,63.817],[37.64,63.835],[37.637,63.882],[37.716,63.902],[37.874,63.891],[38.01,63.936],[38.002,63.954],[38.072,64.0],[38.044,64.028],[38.06,64.071],[38.007,64.115],[38.0,64.148],[37.935,64.161],[37.891,64.212],[38.01,64.288],[37.916,64.31],[37.915,64.325],[37.953,64.332],[37.94,64.343],[37.788,64.368],[37.791,64.438],[37.654,64.424],[37.615,64.355],[37.567,64.376],[37.455,64.38],[37.333,64.342],[37.11,64.401],[36.784,64.629],[36.738,64.689],[36.637,64.72],[36.534,64.717],[36.552,64.737],[36.522,64.763],[36.529,64.792],[36.5,64.822],[36.571,64.812],[36.463,64.859],[36.438,64.922],[36.523,64.933],[36.541,64.91],[36.607,64.897],[36.645,64.903],[36.657,64.928],[36.811,64.957],[36.83,64.977],[36.809,65.002],[36.842,65.017],[36.863,65.093],[36.818,65.123],[36.836,65.146],[37.0,65.169],[37.097,65.163],[37.677,65.029],[37.709,65.009],[37.701,64.963],[37.872,64.896],[38.087,64.847],[38.37,64.843],[38.338,64.803],[38.368,64.763],[38.333,64.774],[38.325,64.798],[38.279,64.804],[38.206,64.771],[38.148,64.79],[38.007,64.757],[38.004,64.727],[38.125,64.673],[37.994,64.614],[38.016,64.61],[37.982,64.592],[38.02,64.595],[38.008,64.585],[38.048,64.603],[38.057,64.637],[38.15,64.656],[38.133,64.686],[38.158,64.711],[38.365,64.743],[38.495,64.735],[38.395,64.799],[38.431,64.808],[38.544,64.774],[38.896,64.736],[39.141,64.657],[39.28,64.646],[39.527,64.55],[39.703,64.556],[39.756,64.539],[39.736,64.561],[39.785,64.573],[39.771,64.579],[39.827,64.646],[39.818,64.659],[39.799,64.636],[39.808,64.656],[39.818,64.661],[39.83,64.66],[39.814,64.68],[39.955,64.766],[39.997,64.753],[40.154,64.789],[40.25,64.763],[40.374,64.764],[40.419,64.788],[40.248,64.866],[40.231,64.906],[40.233,64.893],[40.215,64.901],[40.215,64.944],[40.177,64.978],[40.182,65.011],[40.151,65.053],[40.051,65.104],[40.012,65.167],[39.953,65.188],[39.841,65.282],[39.724,65.336],[39.707,65.475],[39.775,65.574],[39.879,65.628],[40.171,65.693],[40.486,65.812],[40.641,65.935],[40.743,65.984],[41.218,66.041],[41.523,66.121],[41.758,66.238],[41.859,66.322],[41.909,66.329],[41.985,66.375],[42.113,66.488],[42.248,66.514],[42.312,66.508],[42.596,66.442],[42.636,66.419],[42.632,66.393],[43.259,66.411],[43.331,66.37],[43.359,66.333],[43.349,66.32],[43.408,66.326],[43.6,66.294],[43.733,66.184],[43.839,66.192],[43.883,66.178],[43.958,66.098],[44.072,66.066],[44.025,66.017],[44.032,65.986],[44.025,65.988],[44.019,65.983],[44.118,65.933],[44.128,65.885],[44.194,65.812],[44.214,65.832],[44.18,65.869],[44.234,65.846],[44.222,65.861],[44.191,65.87],[44.189,65.876],[44.185,65.88],[44.167,65.885],[44.152,65.909],[44.187,65.895],[44.162,65.911],[44.166,65.929],[44.109,65.977],[44.084,65.986],[44.162,66.045],[44.162,66.041],[44.182,66.041],[44.163,66.042],[44.146,66.103],[44.075,66.193],[44.074,66.228],[44.12,66.309],[44.223,66.403],[44.30547,66.40373],[44.336,66.404],[44.474,66.365],[44.59,66.298],[44.855,66.231],[44.935,66.227],[45.74,66.063],[45.832,66.083],[46.347,66.023],[47.109,65.816],[47.154,65.811],[47.407,65.831],[47.661,65.803],[47.728,65.814],[47.844,65.855],[47.749,65.906],[47.807,65.964],[47.928,66.03],[48.029,66.013],[48.061,66.069],[48.075,66.072],[48.141,66.122],[48.995,66.114],[48.996,65.997],[49.011,65.856],[49.049,65.221],[49.634,65.283],[50.231,64.826],[50.367,64.812],[50.493,64.789],[50.495,64.768],[50.525,64.769],[50.647,64.732],[50.733,64.72],[50.739,64.713],[50.721,64.706],[50.727,64.688],[50.752,64.681],[50.751,64.669],[50.774,64.659],[50.854,64.663],[50.868,64.653],[50.89,64.653],[50.893,64.645],[50.925,64.644],[50.919,64.635],[50.924,64.619],[50.963,64.602],[50.98,64.589],[50.979,64.576],[50.988,64.571],[50.948,64.515],[50.983,64.504],[50.964,64.473],[51.055,64.462],[50.916,64.196],[51.026,64.397],[51.276,64.377],[51.307,64.452],[51.383,64.446],[51.422,64.512],[51.94,64.469],[51.939,64.459],[51.981,64.455],[51.87,64.26],[52.133,64.234],[52.062,64.093],[52.386,64.062],[52.315,63.924],[52.625,63.895],[52.497,63.614],[52.563,63.606],[52.485,63.455],[52.585,63.445],[52.526,63.321],[52.826,63.291],[52.768,63.155],[53.012,63.129],[52.932,62.966],[53.258,62.933],[53.193,62.783],[53.519,62.749],[53.523,62.757],[55.03,62.59],[55.125,62.586],[55.132,62.568],[55.489,62.545],[55.243,62.252],[55.535,62.071],[55.544,62.054],[55.433,61.97],[55.54,61.873],[55.656,61.898],[55.728,61.93],[56.318,61.681],[56.18,61.419],[56.315,61.311],[56.312,61.301],[56.381,61.438],[56.568,61.414],[56.601,61.488],[56.642,61.484],[56.656,61.519],[57.08,61.47],[57.096,61.497],[58.846,61.491],[58.851,61.515],[58.921,61.527],[58.975,61.517],[58.999,61.53],[59.05,61.532],[59.123,61.589],[59.13,61.607],[59.15,61.625],[59.192,61.623],[59.208,61.634],[59.241,61.622],[59.282,61.636],[59.297,61.65],[59.35,61.658],[59.356,61.636],[59.406,61.618],[59.413,61.599],[59.403,61.592],[59.401,61.58],[59.414,61.554],[59.404,61.534],[59.447,61.514],[59.438,61.487],[59.4,61.464],[59.43,61.444],[59.445,61.416],[59.425,61.398],[59.368,61.394],[59.314,61.357],[59.321,61.336],[59.316,61.33],[59.253,61.312],[59.262,61.28],[59.252,61.261],[59.27,61.231],[59.289,61.225],[59.284,61.193],[59.293,61.178],[59.285,61.17],[59.318,61.149],[59.347,61.1],[59.348,61.084],[59.34,61.079],[59.36,61.066],[59.343,61.059],[59.344,61.052],[59.363,61.044],[59.359,61.036],[59.371,61.026],[59.375,60.997],[59.363,60.975],[59.384,60.959],[59.387,60.945],[59.436,60.948],[59.478,60.94],[59.471,60.925],[59.478,60.912],[59.47,60.85],[59.482,60.827],[59.425,60.751],[59.445,60.735],[59.43,60.721],[59.417,60.686],[59.429,60.639],[59.415,60.625],[59.409,60.602],[59.384,60.581],[59.359,60.524],[59.287,60.501],[59.247,60.474],[59.218,60.444],[59.222,60.419],[59.207,60.409],[59.211,60.399],[59.199,60.381],[59.182,60.372],[59.186,60.361],[59.14,60.331],[59.182,60.312],[59.157,60.29],[59.162,60.28],[59.15,60.261],[59.158,60.249],[59.148,60.243],[59.153,60.234],[59.147,60.22],[59.102,60.179],[59.088,60.128],[59.064,60.118],[59.076,60.105],[59.028,60.015],[58.986,59.984],[58.964,59.978],[58.981,59.967],[58.99,59.907],[58.84,59.933],[58.801,59.843],[58.45,59.879],[58.427,59.836],[58.35,59.844],[58.33,59.805],[57.951,59.846],[57.932,59.809],[57.78,59.83],[57.763,59.792],[57.688,59.8],[57.649,59.713],[57.664,59.71],[57.64,59.662],[57.622,59.652],[57.604,59.612],[57.524,59.621],[57.51,59.586],[57.405,59.598],[57.377,59.536],[57.245,59.511],[57.224,59.497],[57.227,59.491],[57.195,59.492],[57.216,59.471],[57.2,59.447],[57.182,59.437],[57.183,59.414],[57.164,59.403],[57.17,59.39],[57.226,59.364],[57.213,59.359],[57.199,59.369],[57.188,59.352],[57.163,59.352],[57.148,59.344],[57.149,59.336],[57.124,59.334],[57.131,59.321],[57.124,59.302],[57.086,59.284],[57.089,59.277],[57.139,59.261],[57.17,59.269],[57.165,59.263],[57.184,59.257],[57.17,59.253],[57.179,59.247],[57.166,59.239],[57.141,59.233],[57.142,59.221],[57.083,59.202],[57.074,59.174],[57.108,59.171],[57.125,59.163],[57.127,59.156],[57.055,59.151],[57.038,59.137],[57.051,59.115],[57.031,59.117],[57.013,59.104],[56.972,59.107],[56.956,59.086],[56.954,59.064],[56.923,59.025],[56.937,59.02],[56.916,59.017],[56.894,58.996],[56.859,59.005],[56.771,58.993],[56.741,58.996],[56.722,59.006],[56.618,59.023],[56.647,59.042],[56.641,59.056],[56.619,59.068],[56.558,59.06],[56.466,59.086],[56.432,59.075],[56.38,59.041],[56.186,59.018],[56.193,59.096],[56.235,59.159],[56.216,59.22],[56.234,59.243],[56.2,59.26],[56.125,59.275],[56.121,59.289],[56.118,59.28],[56.082,59.284],[56.074,59.272],[55.974,59.281],[55.968,59.267],[55.859,59.28],[55.831,59.226],[55.693,59.239],[55.69,59.26],[55.713,59.278],[55.652,59.286],[55.659,59.303],[55.625,59.308],[55.632,59.324],[55.578,59.332],[55.586,59.346],[55.554,59.352],[55.562,59.367],[55.525,59.372],[55.582,59.495],[55.397,59.53],[55.41,59.538],[55.449,59.621],[55.373,59.628],[55.43,59.756],[55.356,59.764],[55.384,59.834],[55.348,59.838],[55.399,59.948],[55.442,59.93],[55.478,59.93],[55.467,59.966],[55.403,59.959],[55.416,59.987],[55.565,59.961],[55.633,60.08],[55.412,60.102],[55.364,60.239],[55.314,60.228],[55.294,60.231],[55.233,60.209],[55.189,60.213],[55.168,60.2],[55.156,60.205],[55.243,60.386],[55.015,60.416],[55.058,60.511],[55.068,60.558],[55.055,60.56],[55.079,60.671],[55.101,60.718],[55.098,60.766],[55.125,60.778],[55.168,60.863],[54.99,60.884],[55.05,61.009],[54.977,60.86],[53.876,60.983],[53.814,60.832],[53.355,60.883],[53.414,61.033],[52.871,61.09],[52.806,60.938],[52.431,60.976],[52.361,60.83],[51.892,60.882],[51.772,60.58],[52.153,60.541],[52.124,60.465],[52.352,60.437],[52.33,60.374],[52.334,60.361],[52.371,60.357],[52.317,60.227],[52.065,60.308],[51.974,60.279],[51.858,60.191],[51.766,60.086],[51.665,60.028],[51.551,59.942],[51.467,59.916],[51.418,59.938],[51.39,59.994],[51.179,60.049],[51.124,60.035],[51.112,60.041],[51.048,60.032],[50.911,59.923],[50.873,59.912],[50.867,59.9],[50.873,59.886],[50.831,59.863],[50.781,59.86],[50.735,59.871],[50.474,59.835],[50.403,59.839],[50.29,59.806],[50.27,59.748],[49.991,59.779],[49.982,59.752],[49.974,59.751],[49.986,59.723],[50.085,59.68],[50.067,59.67],[50.017,59.674],[49.978,59.658],[49.859,59.655],[49.798,59.485],[49.872,59.479],[49.831,59.364],[49.869,59.36],[49.817,59.211],[49.804,59.212],[49.797,59.222],[49.795,59.215],[49.769,59.221],[49.728,59.198],[49.522,59.217],[49.532,59.235],[49.505,59.248],[49.531,59.272],[49.572,59.393],[49.344,59.409],[49.362,59.459],[49.35,59.459],[49.352,59.465],[49.216,59.475],[49.22,59.49],[49.197,59.488],[49.151,59.507],[49.118,59.5],[49.097,59.481],[49.04,59.482],[49.102,59.662],[48.847,59.679],[48.807,59.702],[48.801,59.687],[48.523,59.707],[48.512,59.778],[48.5,60.021],[48.484,60.031],[48.472,60.132],[48.492,60.195],[48.512,60.204],[48.301,60.242],[48.258,60.097],[47.99,60.111],[47.975,60.056],[47.94,60.044],[47.945,60.039],[47.923,60.022],[47.919,59.995],[47.822,60.019],[47.813,60.007],[47.818,60.0],[47.727,59.986],[47.716,59.958],[46.992,59.986],[46.922,59.765],[47.153,59.752],[47.138,59.664],[47.118,59.599],[46.797,59.624],[46.79,59.593],[46.719,59.598],[46.71,59.591],[46.699,59.592],[46.703,59.598],[46.409,59.619],[46.372,59.5],[46.406,59.496],[46.369,59.342],[46.166,59.354],[46.163,59.314],[46.02,59.324],[45.979,59.172],[45.72,59.191],[45.692,59.199],[45.694,59.191],[45.61,59.198],[45.606,59.177],[45.58,59.179],[45.57,59.201],[45.34,59.216],[45.292,58.875],[45.308,58.86],[45.338,58.865],[45.357,58.853],[45.347,58.847],[45.29,58.85],[45.321,58.807],[45.332,58.811],[45.336,58.806],[45.327,58.804],[45.333,58.797],[45.349,58.802],[45.334,58.792],[45.361,58.781],[45.348,58.772],[45.321,58.773],[45.311,58.758],[45.315,58.738],[45.308,58.727],[45.239,58.694],[45.253,58.636],[45.28,58.625],[45.364,58.619],[45.35,58.602],[45.304,58.577],[45.284,58.546],[45.227,58.545],[45.218,58.507],[45.225,58.491],[45.191,58.401],[45.168,58.383],[45.135,58.379],[45.16,58.36],[45.144,58.35],[45.115,58.349],[45.112,58.34],[45.047,58.331],[45.035,58.311],[45.041,58.29],[45.061,58.279],[45.06,58.273],[45.024,58.264],[45.018,58.251],[45.026,58.239],[45.016,58.233],[45.016,58.22],[44.991,58.186],[44.935,58.175],[44.927,58.168],[44.929,58.135],[44.919,58.126],[44.929,58.113],[44.917,58.081],[44.869,58.077],[44.85,58.062],[44.856,58.038],[44.813,58.014],[44.817,57.982],[44.827,57.971],[44.801,57.96],[44.843,57.906],[44.874,57.895],[44.881,57.882],[44.864,57.855],[44.869,57.846],[44.863,57.838],[44.835,57.82],[44.836,57.8],[44.761,57.753],[44.768,57.745],[44.759,57.736],[44.767,57.712],[44.711,57.691],[44.607,57.702],[44.579,57.694],[44.562,57.675],[44.501,57.656],[44.51,57.647],[44.493,57.628],[44.504,57.614],[44.448,57.583],[44.451,57.572],[44.405,57.56],[44.365,57.528],[44.323,57.517],[44.345,57.516],[44.343,57.505],[44.371,57.503],[44.369,57.495],[44.397,57.481],[44.421,57.474],[44.446,57.477],[44.442,57.443],[44.507,57.431],[44.505,57.42],[44.517,57.402],[44.563,57.399],[44.555,57.342],[44.591,57.34],[44.588,57.321],[44.657,57.317],[44.638,57.238],[44.674,57.236],[44.669,57.217],[44.705,57.214],[44.701,57.196],[44.69,57.194],[44.707,57.161],[44.802,57.131],[44.861,57.13],[44.867,57.115],[44.904,57.109],[44.917,57.087],[44.909,57.063],[44.937,57.057],[44.936,57.043],[44.898,57.04],[44.864,56.993],[44.879,56.974],[44.865,56.97],[44.888,56.952],[44.905,56.949],[44.897,56.947],[44.9,56.93],[45.009,56.934],[45.021,56.925],[45.022,56.911],[45.059,56.908],[45.082,56.93],[45.11,56.923],[45.11,56.915],[45.084,56.91],[45.073,56.891],[45.077,56.888],[45.07,56.888],[45.072,56.864],[45.042,56.858],[45.047,56.854],[45.009,56.843],[45.008,56.851],[44.901,56.846],[44.902,56.825],[44.895,56.818],[44.917,56.802],[44.892,56.795],[44.91,56.785],[44.928,56.793],[44.989,56.779],[44.999,56.783],[45.029,56.776],[45.029,56.77],[45.052,56.772],[45.02,56.738],[45.031,56.721],[45.009,56.679],[45.0,56.677],[45.004,56.652],[45.079,56.612],[45.165,56.543],[45.255,56.516],[45.257,56.502],[45.268,56.494],[45.264,56.467],[45.273,56.457],[45.157,56.431],[45.097,56.427],[45.057,56.413],[44.918,56.397],[44.87,56.376],[44.873,56.364],[44.893,56.366],[44.897,56.353],[44.914,56.355],[44.919,56.348],[44.909,56.331],[44.871,56.321],[44.876,56.314],[44.84,56.315],[44.834,56.295],[44.87,56.295],[44.86,56.218],[44.917,56.216],[44.927,56.201],[44.919,56.196],[44.939,56.184],[44.935,56.167],[44.946,56.163],[44.937,56.159],[44.948,56.156],[44.93,56.152],[44.951,56.142],[44.944,56.138],[44.955,56.122],[44.921,56.118],[44.92,56.111],[44.937,56.109],[44.935,56.092],[44.923,56.09],[44.928,56.073],[44.81,56.079],[44.813,56.074],[44.74,56.046],[44.753,56.034],[44.76,56.037],[44.735,56.02],[44.747,56.018],[44.706,56.019],[44.714,56.005],[44.748,55.999],[44.745,55.98],[44.726,55.968],[44.764,55.935],[44.759,55.921],[44.672,55.927],[44.65,55.94],[44.62,55.939],[44.614,55.928],[44.595,55.935],[44.569,55.923],[44.565,55.899],[44.555,55.893],[44.579,55.875],[44.526,55.868],[44.507,55.876],[44.491,55.86],[44.502,55.85],[44.462,55.842],[44.452,55.851],[44.41,55.849],[44.384,55.858],[44.381,55.881],[44.342,55.882],[44.34,55.889],[44.348,55.884],[44.355,55.898],[44.35,55.908],[44.299,55.921],[44.304,55.935],[44.296,55.942],[44.31,55.953],[44.267,55.971],[44.245,55.974],[44.206,55.951],[44.197,55.956],[44.202,55.976],[44.182,55.984],[44.161,55.988],[44.157,55.98],[44.145,55.98],[44.146,55.973],[44.122,55.97],[44.116,55.978],[44.123,55.98],[44.108,55.988],[44.121,55.998],[44.094,56.002],[44.106,56.003],[44.099,56.013],[44.06,56.007],[44.038,56.012],[44.02,56.028],[44.005,56.023],[44.01,56.013],[43.999,56.014],[43.987,56.023],[43.991,56.029],[43.966,56.038],[43.968,56.046],[43.987,56.044],[43.991,56.079],[43.988,56.092],[43.954,56.089],[43.96,56.116],[43.918,56.103],[43.937,56.081],[43.935,56.048],[43.953,56.049],[43.94,56.038],[43.955,56.039],[43.951,56.033],[43.962,56.028],[43.913,56.009],[43.896,55.986],[43.862,55.973],[43.9,55.96],[43.897,55.953],[43.921,55.937],[43.909,55.932],[43.948,55.913],[43.94,55.909],[43.948,55.901],[43.944,55.895],[43.919,55.889],[43.92,55.879],[43.917,55.889],[43.924,55.896],[43.883,55.893],[43.873,55.901],[43.878,55.908],[43.837,55.896],[43.827,55.884],[43.845,55.873],[43.837,55.862],[43.843,55.857],[43.821,55.848],[43.81,55.855],[43.816,55.851],[43.808,55.846],[43.743,55.849],[43.722,55.818],[43.706,55.821],[43.663,55.81],[43.662,55.804],[43.678,55.803],[43.662,55.798],[43.67,55.792],[43.661,55.793],[43.648,55.776],[43.652,55.763],[43.644,55.747],[43.602,55.744],[43.571,55.763],[43.571,55.782],[43.533,55.779],[43.533,55.793],[43.545,55.798],[43.539,55.806],[43.518,55.801],[43.517,55.812],[43.489,55.811],[43.483,55.821],[43.469,55.808],[43.459,55.809],[43.457,55.8],[43.439,55.801],[43.435,55.823],[43.466,55.83],[43.474,55.841],[43.455,55.868],[43.449,55.896],[43.44,55.896],[43.44,55.905],[43.451,55.91],[43.437,55.94],[43.408,55.935],[43.362,55.913],[43.348,55.917],[43.31,55.893],[43.286,55.903],[43.268,55.9],[43.279,55.91],[43.276,55.919],[43.249,55.924],[43.233,55.904],[43.189,55.89],[43.204,55.88],[43.193,55.867],[43.157,55.865],[43.156,55.854],[43.128,55.864],[43.083,55.841],[43.071,55.845],[43.076,55.85],[43.013,55.857],[43.038,55.848],[43.019,55.833],[43.002,55.836],[43.01,55.845],[43.0,55.854],[42.956,55.849],[42.948,55.841],[42.963,55.82],[42.945,55.809],[42.958,55.8],[42.953,55.785],[42.91,55.795],[42.908,55.807],[42.88,55.809],[42.878,55.798],[42.904,55.788],[42.91,55.768],[42.88,55.734],[42.881,55.7],[42.894,55.695],[42.887,55.706],[42.922,55.693],[42.907,55.67],[42.897,55.669],[42.898,55.66],[42.939,55.677],[42.972,55.674],[43.007,55.624],[42.961,55.613],[42.974,55.595],[42.942,55.587],[42.949,55.579],[42.934,55.575],[42.946,55.558],[42.885,55.542],[42.897,55.526],[42.889,55.45],[42.882,55.45],[42.897,55.441],[42.946,55.442],[42.961,55.431],[42.96,55.413],[42.972,55.408],[43.088,55.392],[43.05,55.369],[43.067,55.363],[42.994,55.378],[42.957,55.362],[42.927,55.36],[42.899,55.337],[42.884,55.348],[42.866,55.347],[42.878,55.316],[42.841,55.319],[42.843,55.28],[42.768,55.283],[42.767,55.271],[42.727,55.27],[42.725,55.257],[42.745,55.258],[42.737,55.191],[42.799,55.194],[42.781,55.163],[42.755,55.158],[42.763,55.14],[42.735,55.137],[42.738,55.123],[42.75,55.124],[42.746,55.115],[42.773,55.112],[42.767,55.092],[42.755,55.081],[42.694,55.08],[42.452,55.03],[42.414,55.007],[42.369,55.007],[42.322,54.988],[42.3,54.992],[42.255,54.979],[42.227,54.959],[42.112,54.98],[42.077,54.978],[42.053,54.963],[41.988,54.954],[41.955,54.931],[41.908,54.916],[41.895,54.919],[41.855,54.894],[41.91,54.842],[41.913,54.823],[41.88,54.828],[41.85,54.814],[41.819,54.814],[41.851,54.809],[41.863,54.796],[41.855,54.786],[41.872,54.773],[41.854,54.766],[41.815,54.773],[41.803,54.767],[41.741,54.784],[41.721,54.782],[41.713,54.778],[41.722,54.775],[41.703,54.767],[41.69,54.77],[41.664,54.74],[41.636,54.736],[41.644,54.724],[41.664,54.724],[41.668,54.714],[41.638,54.703],[41.608,54.734],[41.587,54.731],[41.567,54.739],[41.567,54.723],[41.548,54.697],[41.507,54.674],[41.514,54.642],[41.507,54.642],[41.505,54.614],[41.491,54.614],[41.471,54.599],[41.471,54.612],[41.454,54.613],[41.456,54.642],[41.439,54.642],[41.44,54.661],[41.391,54.662],[41.392,54.682],[41.325,54.683],[41.333,54.693],[41.31,54.702],[41.285,54.689],[41.248,54.698],[41.259,54.706],[41.238,54.705],[41.243,54.802],[41.204,54.809],[41.209,54.821],[41.192,54.831],[41.153,54.833],[41.128,54.852],[41.147,54.85],[41.146,54.855],[41.106,54.852],[41.126,54.813],[41.097,54.817],[41.096,54.806],[41.081,54.801],[41.078,54.789],[41.1,54.784],[41.098,54.768],[41.112,54.763],[41.093,54.749],[41.092,54.738],[41.055,54.771],[41.035,54.761],[41.019,54.778],[40.987,54.784],[40.983,54.79],[40.99,54.801],[41.016,54.799],[41.024,54.805],[41.007,54.811],[40.956,54.813],[40.917,54.793],[40.911,54.8],[40.883,54.797],[40.827,54.78],[40.789,54.791],[40.58,54.796],[40.595,54.848],[40.548,54.869],[40.505,54.869],[40.483,54.88],[40.452,54.876],[40.434,54.859],[40.336,54.877],[40.274,54.847],[40.253,54.847],[40.222,54.864],[40.151,54.85],[40.055,54.907],[40.07,54.915],[40.031,54.91],[39.985,54.937],[39.978,54.928],[39.932,54.952],[39.932,54.964],[39.944,54.971],[39.924,54.986],[39.805,55.005],[39.78,55.031],[39.756,55.035],[39.766,55.009],[39.753,55.005],[39.701,55.006],[39.669,55.014],[39.67,55.025],[39.625,55.025],[39.618,55.0],[39.603,54.988],[39.518,54.984],[39.521,54.97],[39.475,54.946],[39.466,54.931],[39.469,54.919],[39.482,54.917],[39.474,54.91],[39.486,54.901],[39.461,54.902],[39.466,54.892],[39.43,54.886],[39.435,54.877],[39.399,54.866],[39.389,54.854],[39.415,54.84],[39.386,54.827],[39.361,54.8],[39.363,54.783],[39.333,54.775],[39.335,54.763],[39.318,54.757],[39.369,54.753],[39.371,54.747],[39.331,54.731],[39.342,54.721],[39.337,54.719],[39.305,54.724],[39.3,54.735],[39.268,54.736],[39.246,54.732],[39.223,54.706],[39.206,54.706],[39.193,54.714],[39.221,54.714],[39.24,54.734],[39.238,54.749],[39.205,54.744],[39.197,54.754],[39.221,54.762],[39.216,54.77],[39.225,54.78],[39.214,54.795],[39.188,54.79],[39.187,54.798],[39.167,54.801],[39.168,54.809],[39.153,54.806],[39.145,54.83],[39.122,54.82],[39.107,54.828],[39.084,54.819],[39.071,54.829],[39.078,54.834],[39.071,54.84],[39.018,54.841],[38.992,54.845],[38.987,54.854],[38.947,54.846],[38.929,54.851],[38.935,54.857],[38.913,54.859],[38.912,54.873],[38.865,54.865],[38.852,54.876],[38.871,54.887],[38.871,54.897],[38.815,54.893],[38.799,54.903],[38.773,54.899],[38.764,54.905],[38.756,54.9],[38.759,54.895],[38.803,54.887],[38.792,54.877],[38.803,54.87],[38.797,54.861],[38.754,54.861],[38.765,54.843],[38.743,54.833],[38.758,54.837],[38.771,54.818],[38.752,54.826],[38.718,54.819],[38.723,54.796],[38.685,54.797],[38.667,54.809],[38.639,54.805],[38.642,54.796],[38.601,54.776],[38.583,54.777],[38.574,54.765],[38.536,54.758],[38.533,54.747],[38.553,54.727],[38.549,54.715],[38.578,54.702],[38.572,54.69],[38.578,54.69],[38.563,54.663],[38.534,54.655],[38.525,54.64],[38.483,54.63],[38.482,54.616],[38.495,54.614],[38.519,54.594],[38.471,54.571],[38.446,54.573],[38.459,54.55],[38.437,54.55],[38.451,54.537],[38.422,54.546],[38.376,54.526],[38.38,54.514],[38.4,54.503],[38.395,54.499],[38.398,54.475],[38.387,54.467],[38.409,54.463],[38.432,54.442],[38.451,54.44],[38.47,54.423],[38.454,54.416],[38.476,54.402],[38.527,54.395],[38.528,54.381],[38.509,54.362],[38.513,54.354],[38.504,54.345],[38.517,54.334],[38.507,54.328],[38.52,54.322],[38.508,54.312],[38.519,54.306],[38.513,54.294],[38.571,54.29],[38.608,54.276],[38.632,54.281],[38.639,54.264],[38.666,54.257],[38.671,54.247],[38.712,54.244],[38.722,54.238],[38.714,54.23],[38.726,54.227],[38.709,54.221],[38.721,54.207],[38.687,54.186],[38.74,54.182],[38.751,54.192],[38.781,54.158],[38.771,54.126],[38.748,54.125],[38.718,54.102],[38.685,54.098],[38.683,54.089],[38.696,54.081],[38.689,54.074],[38.706,54.074],[38.703,54.064],[38.679,54.06],[38.683,54.055],[38.675,54.043],[38.637,54.03],[38.631,54.048],[38.593,54.044],[38.573,54.06],[38.553,54.063],[38.54,54.062],[38.539,54.054],[38.509,54.051],[38.498,54.04],[38.425,54.035],[38.409,54.042],[38.41,54.049],[38.395,54.047],[38.401,54.043],[38.376,54.04],[38.385,54.031],[38.365,54.028],[38.325,54.006],[38.303,53.986],[38.307,53.979],[38.277,53.97],[38.29,53.962],[38.269,53.961],[38.269,53.951],[38.256,53.949],[38.267,53.933],[38.244,53.928],[38.273,53.919],[38.246,53.91],[38.262,53.91],[38.252,53.903],[38.266,53.897],[38.27,53.911],[38.282,53.911],[38.275,53.915],[38.296,53.919],[38.303,53.909],[38.309,53.919],[38.333,53.917],[38.303,53.93],[38.31,53.936],[38.306,53.942],[38.298,53.921],[38.272,53.927],[38.281,53.955],[38.387,53.96],[38.408,53.953],[38.414,53.943],[38.405,53.944],[38.401,53.923],[38.44,53.918],[38.407,53.956],[38.386,53.962],[38.37,53.961],[38.366,53.968],[38.385,53.982],[38.39,53.996],[38.405,53.998],[38.405,53.983],[38.443,53.963],[38.442,53.932],[38.449,53.924],[38.444,53.915],[38.453,53.905],[38.464,53.91],[38.481,53.885],[38.464,53.883],[38.475,53.869],[38.534,53.839],[38.538,53.826],[38.519,53.816],[38.51,53.802],[38.518,53.798],[38.511,53.784],[38.49,53.774],[38.491,53.763],[38.446,53.739],[38.437,53.743],[38.437,53.76],[38.339,53.777],[38.33,53.804],[38.338,53.83],[38.347,53.834],[38.336,53.837],[38.336,53.849],[38.322,53.852],[38.309,53.843],[38.281,53.847],[38.279,53.861],[38.267,53.846],[38.217,53.852],[38.165,53.847],[38.157,53.84],[38.183,53.84],[38.181,53.807],[38.149,53.812],[38.147,53.826],[38.13,53.834],[38.115,53.827],[38.107,53.832],[38.094,53.821],[38.076,53.828],[38.114,53.852],[38.099,53.864],[38.051,53.845],[38.03,53.847],[37.989,53.827],[37.954,53.826],[37.947,53.81],[37.958,53.798],[37.947,53.784],[37.928,53.792],[37.908,53.785],[37.887,53.79],[37.842,53.783],[37.829,53.795],[37.8,53.79],[37.791,53.799],[37.786,53.793],[37.778,53.797],[37.78,53.792],[37.768,53.795],[37.773,53.8],[37.748,53.793],[37.715,53.797],[37.676,53.81],[37.67,53.825],[37.695,53.833],[37.697,53.845],[37.686,53.847],[37.699,53.855],[37.691,53.869],[37.697,53.881],[37.677,53.883],[37.68,53.891],[37.709,53.89],[37.722,53.9],[37.671,53.912],[37.673,53.926],[37.66,53.929],[37.664,53.944],[37.646,53.962],[37.674,53.974],[37.687,53.989],[37.708,53.99],[37.718,54.005],[37.695,54.009],[37.687,54.022],[37.709,54.038],[37.724,54.035],[37.724,54.045],[37.753,54.057],[37.747,54.059],[37.756,54.092],[37.75,54.098],[37.759,54.101],[37.735,54.116],[37.745,54.123],[37.788,54.114],[37.808,54.129],[37.834,54.118],[37.866,54.128],[37.873,54.137],[37.861,54.149],[37.868,54.161],[37.848,54.173],[37.825,54.171],[37.829,54.191],[37.823,54.204],[37.851,54.218],[37.9,54.213],[37.881,54.225],[37.891,54.243],[37.954,54.257],[37.963,54.276],[38.012,54.282],[38.036,54.293],[38.036,54.309],[38.021,54.318],[37.973,54.31],[37.95,54.298],[37.923,54.303],[37.912,54.293],[37.917,54.299],[37.906,54.304],[37.925,54.323],[37.899,54.315],[37.869,54.334],[37.881,54.339],[37.868,54.346],[37.886,54.36],[37.858,54.367],[37.852,54.383],[37.818,54.381],[37.792,54.392],[37.78,54.385],[37.789,54.364],[37.782,54.351],[37.722,54.34],[37.703,54.348],[37.671,54.347],[37.662,54.343],[37.657,54.319],[37.639,54.315],[37.633,54.321],[37.644,54.334],[37.622,54.336],[37.595,54.365],[37.615,54.384],[37.573,54.416],[37.58,54.446],[37.562,54.449],[37.555,54.444],[37.558,54.437],[37.538,54.436],[37.531,54.426],[37.493,54.415],[37.466,54.421],[37.418,54.448],[37.406,54.439],[37.37,54.434],[37.406,54.42],[37.406,54.413],[37.421,54.416],[37.427,54.397],[37.406,54.395],[37.395,54.404],[37.363,54.407],[37.342,54.401],[37.334,54.392],[37.342,54.38],[37.319,54.366],[37.3,54.375],[37.279,54.365],[37.273,54.343],[37.257,54.338],[37.257,54.331],[37.27,54.323],[37.245,54.32],[37.242,54.303],[37.203,54.291],[37.205,54.283],[37.178,54.274],[37.121,54.274],[37.112,54.288],[37.078,54.298],[37.05,54.272],[37.01,54.289],[36.967,54.292],[36.902,54.29],[36.884,54.279],[36.845,54.288],[36.799,54.267],[36.789,54.277],[36.771,54.275],[36.757,54.283],[36.731,54.286],[36.715,54.277],[36.716,54.288],[36.688,54.306],[36.715,54.311],[36.706,54.317],[36.715,54.322],[36.708,54.354],[36.735,54.369],[36.738,54.384],[36.685,54.392],[36.675,54.408],[36.664,54.411],[36.67,54.42],[36.638,54.427],[36.608,54.42],[36.582,54.444],[36.541,54.437],[36.511,54.449],[36.393,54.449],[36.378,54.456],[36.293,54.445],[36.294,54.439],[36.278,54.443],[36.273,54.433],[36.247,54.423],[36.179,54.428],[36.17,54.416],[36.178,54.409],[36.2,54.412],[36.204,54.386],[36.22,54.383],[36.201,54.37],[36.204,54.359],[36.176,54.385],[36.177,54.395],[36.162,54.395],[36.176,54.406],[36.112,54.426],[36.119,54.458],[36.083,54.457],[36.071,54.464],[36.095,54.469],[36.067,54.475],[36.075,54.488],[36.043,54.483],[36.029,54.505],[35.999,54.499],[35.988,54.523],[35.973,54.52],[35.962,54.535],[35.936,54.532],[35.865,54.548],[35.881,54.537],[35.834,54.518],[35.787,54.535],[35.796,54.541],[35.751,54.564],[35.693,54.551],[35.707,54.559],[35.673,54.567],[35.681,54.575],[35.669,54.586],[35.681,54.59],[35.673,54.603],[35.649,54.613],[35.636,54.604],[35.627,54.614],[35.643,54.626],[35.657,54.622],[35.669,54.629],[35.643,54.633],[35.644,54.643],[35.633,54.639],[35.611,54.647],[35.611,54.658],[35.593,54.652],[35.585,54.656],[35.589,54.666],[35.576,54.658],[35.502,54.666],[35.502,54.677],[35.516,54.68],[35.537,54.7],[35.529,54.716],[35.532,54.734],[35.54,54.741],[35.558,54.739],[35.583,54.769],[35.543,54.774],[35.559,54.791],[35.534,54.818],[35.519,54.804],[35.49,54.799],[35.491,54.811],[35.482,54.813],[35.485,54.826],[35.429,54.823],[35.434,54.846],[35.42,54.848],[35.394,54.848],[35.407,54.837],[35.394,54.835],[35.379,54.848],[35.356,54.834],[35.321,54.849],[35.305,54.835],[35.28,54.839],[35.265,54.829],[35.251,54.842],[35.235,54.838],[35.246,54.849],[35.23,54.85],[35.188,54.828],[35.175,54.844],[35.155,54.842],[35.16,54.869],[35.155,54.878],[35.134,54.877],[35.13,54.893],[35.106,54.889],[35.055,54.905],[35.03,54.898],[35.024,54.909],[35.031,54.915],[35.017,54.918],[35.031,54.924],[35.007,54.943],[35.044,54.946],[35.03,54.958],[35.052,54.96],[35.051,54.97],[35.124,54.975],[35.115,54.983],[35.121,54.993],[35.105,54.997],[35.127,55.005],[35.1,55.009],[35.124,55.023],[35.115,55.038],[35.134,55.043],[35.154,55.037],[35.167,55.052],[35.188,55.05],[35.184,55.059],[35.199,55.054],[35.195,55.061],[35.209,55.063],[35.209,55.074],[35.224,55.072],[35.221,55.083],[35.232,55.092],[35.254,55.091],[35.246,55.096],[35.255,55.112],[35.276,55.113],[35.275,55.137],[35.29,55.161],[35.28,55.179],[35.345,55.206],[35.329,55.22],[35.343,55.234],[35.323,55.243],[35.308,55.239],[35.296,55.25],[35.321,55.254],[35.33,55.271],[35.351,55.269],[35.334,55.272],[35.334,55.279],[35.31,55.291],[35.294,55.291],[35.295,55.311],[35.261,55.323],[35.259,55.33],[35.274,55.331],[35.281,55.35],[35.291,55.352],[35.286,55.389],[35.306,55.398],[35.298,55.412],[35.33,55.429],[35.304,55.435],[35.313,55.45],[35.291,55.463],[35.289,55.472],[35.325,55.48],[35.318,55.492],[35.325,55.502],[35.314,55.515],[35.345,55.528],[35.339,55.538],[35.307,55.547],[35.314,55.552],[35.298,55.551],[35.297,55.576],[35.301,55.582],[35.341,55.582],[35.349,55.573],[35.372,55.576],[35.365,55.588],[35.395,55.594],[35.383,55.631],[35.354,55.636],[35.36,55.645],[35.351,55.643],[35.337,55.666],[35.323,55.666],[35.336,55.684],[35.332,55.688],[35.338,55.692],[35.33,55.697],[35.337,55.703],[35.317,55.708],[35.317,55.721],[35.306,55.722],[35.313,55.728],[35.304,55.734],[35.316,55.745],[35.345,55.744],[35.327,55.758],[35.339,55.769],[35.332,55.773],[35.33,55.794],[35.283,55.8],[35.285,55.822],[35.25,55.847],[35.25,55.86],[35.223,55.88],[35.227,55.893],[35.209,55.894],[35.227,55.909],[35.204,55.899],[35.199,55.889],[35.19,55.907],[35.204,55.919],[35.148,55.958],[35.105,55.953],[35.068,55.977],[35.066,55.99],[35.046,55.98],[34.998,55.979],[34.957,55.969],[34.932,55.988],[34.91,55.965],[34.893,55.974],[34.859,55.973],[34.853,55.956],[34.814,55.966],[34.827,55.98],[34.785,55.961],[34.767,55.976],[34.745,55.978],[34.685,55.936],[34.696,55.926],[34.683,55.916],[34.606,55.912],[34.601,55.919],[34.617,55.917],[34.62,55.923],[34.597,55.943],[34.539,55.931],[34.515,55.945],[34.518,55.955],[34.51,55.96],[34.473,55.962],[34.461,55.981],[34.411,55.99],[34.358,56.04],[34.373,56.023],[34.368,56.015],[34.338,56.014],[34.339,56.005],[34.322,55.995],[34.302,55.997],[34.309,56.001],[34.304,56.007],[34.278,56.022],[34.261,56.026],[34.25,56.017],[34.243,56.022],[34.248,56.026],[34.224,56.031],[34.236,56.039],[34.216,56.035],[34.205,56.04],[34.209,56.052],[34.173,56.063],[34.119,56.052],[34.086,56.027],[34.017,56.048],[34.0,56.04],[33.929,56.054],[33.936,56.06],[33.916,56.067],[33.877,56.054],[33.864,56.06],[33.864,56.014],[33.793,56.01],[33.815,56.004],[33.802,55.994],[33.812,55.974],[33.796,55.968],[33.822,55.962],[33.803,55.933],[33.777,55.93],[33.769,55.934],[33.778,55.944],[33.734,55.951],[33.74,55.957],[33.639,55.96],[33.635,55.952],[33.647,55.949],[33.646,55.93],[33.673,55.93],[33.663,55.908],[33.676,55.899],[33.651,55.902],[33.627,55.893],[33.644,55.889],[33.644,55.881],[33.615,55.889],[33.549,55.888],[33.547,55.897],[33.484,55.908],[33.483,55.917],[33.468,55.916],[33.471,55.939],[33.446,55.942],[33.427,55.943],[33.414,55.931],[33.403,55.937],[33.377,55.916],[33.323,55.906],[33.326,55.926],[33.335,55.934],[33.332,55.947],[33.285,55.961],[33.291,56.009],[33.274,56.009],[33.251,56.024],[33.161,56.019],[33.129,56.01],[33.112,56.018],[33.113,56.032],[33.128,56.045],[33.085,56.072],[33.1,56.074],[33.101,56.09],[33.125,56.108],[33.097,56.105],[33.1,56.117],[33.123,56.124],[33.107,56.133],[33.118,56.149],[33.074,56.139],[33.047,56.155],[33.076,56.169],[33.064,56.178],[33.105,56.179],[33.122,56.189],[33.118,56.204],[33.08,56.221],[33.078,56.229],[33.099,56.244],[33.089,56.249],[33.129,56.273],[33.138,56.306],[33.156,56.312],[33.159,56.326],[33.128,56.337],[33.125,56.348],[33.063,56.343],[33.047,56.349],[33.055,56.382],[33.038,56.385],[33.04,56.438],[33.101,56.428],[33.122,56.436],[33.12,56.45],[33.219,56.452],[33.202,56.46],[33.272,56.479],[33.198,56.46],[33.242,56.497],[33.208,56.511],[33.204,56.526],[33.173,56.525],[33.149,56.539],[33.117,56.524],[33.085,56.525],[33.08,56.531],[33.093,56.533],[33.027,56.549],[33.011,56.533],[33.009,56.551],[32.994,56.548],[32.943,56.565],[32.934,56.6],[32.902,56.599],[32.9,56.613],[32.883,56.613],[32.924,56.637],[32.916,56.643],[32.923,56.646],[32.915,56.658],[32.902,56.659],[32.902,56.668],[32.894,56.67],[32.892,56.676],[32.906,56.678],[32.908,56.685],[32.891,56.706],[32.937,56.709],[32.934,56.714],[32.949,56.722],[32.958,56.766],[32.978,56.776],[32.971,56.793],[32.94,56.801],[32.943,56.808],[32.969,56.805],[32.96,56.869],[32.919,56.874],[32.872,56.892],[32.806,56.898],[32.799,56.924],[32.812,56.935],[32.819,56.972],[32.902,57.014],[32.88,57.028],[32.899,57.052],[32.88,57.063],[32.844,57.067],[32.83,57.059],[32.781,57.067],[32.774,57.082],[32.747,57.085],[32.727,57.102],[32.696,57.094],[32.696,57.087],[32.666,57.088],[32.683,57.106],[32.646,57.108],[32.636,57.121],[32.658,57.125],[32.666,57.131],[32.661,57.136],[32.632,57.134],[32.608,57.142],[32.573,57.119],[32.539,57.13],[32.535,57.149],[32.551,57.154],[32.555,57.19],[32.522,57.19],[32.524,57.203],[32.542,57.213],[32.52,57.224],[32.475,57.213],[32.423,57.227],[32.327,57.226],[32.32,57.237],[32.292,57.241],[32.294,57.247],[32.274,57.253],[32.276,57.26],[32.262,57.263],[32.233,57.252],[32.23,57.243],[32.239,57.236],[32.231,57.23],[32.249,57.226],[32.244,57.219],[32.253,57.21],[32.226,57.189],[32.191,57.191],[32.182,57.179],[32.103,57.187],[32.083,57.177],[32.081,57.159],[32.02,57.15],[32.016,57.129],[32.002,57.124],[32.002,57.114],[31.968,57.115],[31.964,57.106],[31.923,57.095],[31.935,57.084],[31.927,57.08],[31.882,57.095],[31.896,57.102],[31.892,57.113],[31.901,57.115],[31.898,57.125],[31.88,57.131],[31.856,57.114],[31.802,57.1],[31.779,57.099],[31.756,57.114],[31.744,57.107],[31.744,57.093],[31.725,57.092],[31.711,57.073],[31.69,57.072],[31.671,57.058],[31.672,57.044],[31.647,57.026],[31.654,57.013],[31.679,57.012],[31.703,56.993],[31.647,57.003],[31.64,56.992],[31.564,56.978],[31.56,56.963],[31.547,56.963],[31.531,56.947],[31.476,56.953],[31.466,56.943],[31.442,56.954],[31.434,56.925],[31.396,56.909],[31.369,56.928],[31.34,56.925],[31.335,56.939],[31.308,56.938],[31.323,56.951],[31.307,56.947],[31.299,56.956],[31.277,56.948],[31.241,56.952],[31.225,56.937],[31.205,56.942],[31.205,56.937],[31.101,56.931],[31.098,56.939],[31.07,56.943],[31.069,56.957],[31.049,56.958],[31.037,56.978],[31.029,56.977],[31.031,56.988],[31.005,56.987],[31.013,56.983],[30.979,56.975],[30.986,56.96],[30.968,56.946],[30.976,56.912],[30.942,56.896],[30.962,56.889],[30.935,56.866],[30.896,56.871],[30.906,56.88],[30.9,56.89],[30.88,56.886],[30.873,56.858],[30.887,56.86],[30.89,56.848],[30.87,56.828],[30.877,56.806],[30.829,56.811],[30.818,56.824],[30.794,56.801],[30.771,56.8],[30.763,56.794],[30.768,56.791],[30.728,56.781],[30.751,56.775],[30.758,56.784],[30.785,56.79],[30.789,56.785],[30.772,56.773],[30.779,56.77],[30.763,56.759],[30.778,56.752],[30.793,56.767],[30.789,56.756],[30.806,56.761],[30.797,56.753],[30.835,56.755],[30.83,56.746],[30.836,56.742],[30.776,56.734],[30.798,56.733],[30.81,56.715],[30.833,56.716],[30.81,56.699],[30.855,56.668],[30.89,56.66],[30.888,56.645],[30.943,56.643],[30.953,56.655],[31.024,56.648],[31.059,56.655],[31.063,56.63],[31.056,56.625],[31.065,56.621],[31.048,56.608],[31.056,56.598],[31.041,56.587],[31.05,56.572],[31.036,56.57],[31.028,56.553],[31.014,56.546],[31.023,56.54],[31.009,56.531],[31.021,56.523],[31.002,56.525],[31.004,56.507],[31.019,56.502],[31.012,56.493],[30.987,56.486],[31.12,56.447],[31.119,56.44],[31.16,56.44],[31.213,56.427],[31.207,56.414],[31.23,56.408],[31.223,56.375],[31.228,56.374],[31.229,56.34],[31.246,56.341],[31.262,56.33],[31.297,56.322],[31.319,56.329],[31.361,56.326],[31.356,56.32],[31.373,56.318],[31.373,56.304],[31.388,56.302],[31.405,56.314],[31.43,56.305],[31.518,56.306],[31.517,56.29],[31.494,56.289],[31.496,56.271],[31.463,56.254],[31.474,56.246],[31.465,56.242],[31.462,56.198],[31.501,56.184],[31.508,56.158],[31.488,56.144],[31.451,56.14],[31.449,56.133],[31.469,56.115],[31.471,56.107],[31.461,56.1],[31.467,56.087],[31.505,56.066],[31.5,56.06],[31.508,56.049],[31.493,56.045],[31.502,56.036],[31.489,56.032],[31.491,56.024],[31.483,56.03],[31.464,56.024],[31.426,56.001],[31.428,55.991],[31.418,55.984],[31.368,55.969],[31.35,55.945],[31.389,55.927],[31.402,55.915],[31.396,55.904],[31.416,55.891],[31.409,55.873],[31.395,55.868],[31.406,55.862],[31.4,55.858],[31.415,55.836],[31.404,55.811],[31.44,55.774],[31.448,55.744],[31.473,55.734],[31.471,55.724],[31.489,55.707],[31.456,55.702],[31.422,55.716],[31.467,55.729],[31.456,55.74],[31.436,55.741],[31.419,55.724],[31.388,55.735],[31.372,55.732],[31.367,55.741],[31.343,55.737],[31.311,55.742],[31.313,55.73],[31.305,55.726],[31.26,55.744],[31.217,55.731],[31.216,55.72],[31.181,55.746],[31.17,55.746],[31.177,55.737],[31.167,55.737],[31.139,55.75],[31.14,55.758],[31.074,55.759],[31.078,55.748],[31.07,55.76],[31.038,55.761],[31.024,55.778],[31.014,55.778],[31.013,55.77],[30.989,55.77],[30.976,55.83],[30.985,55.834],[30.984,55.844],[30.969,55.845],[30.975,55.867],[30.994,55.882],[30.978,55.884],[30.982,55.89],[30.95,55.917],[30.994,55.924],[31.001,55.935],[30.978,55.95],[30.943,55.957],[30.945,55.97],[30.932,55.974],[30.931,55.981],[30.955,55.99],[30.956,56.003],[30.94,55.998],[30.913,56.008],[30.85,55.978],[30.799,55.974],[30.797,55.96],[30.776,55.955],[30.735,55.965],[30.741,55.983],[30.712,55.967],[30.697,55.975],[30.625,55.976],[30.62,55.983],[30.595,55.972],[30.592,55.964],[30.534,55.958],[30.538,55.946],[30.527,55.935],[30.508,55.934],[30.518,55.92],[30.509,55.916],[30.502,55.916],[30.509,55.92],[30.503,55.93],[30.473,55.928],[30.446,55.913],[30.416,55.924],[30.396,55.912],[30.39,55.918],[30.342,55.912],[30.315,55.936],[30.317,55.946],[30.28,55.957],[30.279,55.975],[30.258,55.987],[30.263,55.993],[30.25,55.994],[30.235,56.023],[30.253,56.034],[30.208,56.041],[30.2,56.051],[30.186,56.043],[30.203,56.056],[30.237,56.068],[30.231,56.08],[30.202,56.075],[30.169,56.079],[30.161,56.088],[30.183,56.095],[30.193,56.108],[30.252,56.107],[30.247,56.109],[30.256,56.112],[30.25,56.118],[30.262,56.12],[30.269,56.13],[30.235,56.14],[30.258,56.152],[30.264,56.146],[30.296,56.154],[30.285,56.168],[30.27,56.157],[30.254,56.164],[30.263,56.173],[30.246,56.187],[30.219,56.192],[30.216,56.185],[30.2,56.198],[30.167,56.194],[30.136,56.204],[30.078,56.197],[30.068,56.199],[30.069,56.21],[30.054,56.198],[30.041,56.208],[30.003,56.208],[30.0,56.216],[29.992,56.215],[29.967,56.234],[29.984,56.244],[29.983,56.252],[29.896,56.252],[29.888,56.26],[29.852,56.262],[29.799,56.278],[29.774,56.269],[29.762,56.278],[29.77,56.285],[29.754,56.304],[29.767,56.309],[29.728,56.324],[29.748,56.345],[29.784,56.35],[29.795,56.359],[29.785,56.365],[29.794,56.363],[29.795,56.385],[29.755,56.419],[29.769,56.414],[29.788,56.421],[29.745,56.439],[29.743,56.449],[29.713,56.448],[29.69,56.46],[29.71,56.473],[29.695,56.494],[29.727,56.495],[29.715,56.516],[29.68,56.539],[29.663,56.538],[29.664,56.549],[29.641,56.555],[29.624,56.569],[29.588,56.565],[29.558,56.571],[29.554,56.58],[29.531,56.567],[29.529,56.557],[29.515,56.555],[29.522,56.563],[29.504,56.569],[29.51,56.58],[29.492,56.593],[29.503,56.609],[29.462,56.602],[29.444,56.625],[29.447,56.63],[29.411,56.63],[29.408,56.619],[29.398,56.615],[29.385,56.624],[29.342,56.621],[29.334,56.628],[29.351,56.633],[29.347,56.639],[29.352,56.645],[29.332,56.652],[29.288,56.655],[29.254,56.647],[29.265,56.679],[29.281,56.69],[29.298,56.734],[29.286,56.746],[29.309,56.771],[29.351,56.789],[29.347,56.796],[29.358,56.801],[29.344,56.803],[29.354,56.811],[29.343,56.822],[29.355,56.828],[29.342,56.835],[29.347,56.842],[29.335,56.875],[29.317,56.88],[29.29,56.869],[29.275,56.877],[29.25,56.862],[29.242,56.869],[29.21,56.867],[29.196,56.851],[29.183,56.848],[29.185,56.833],[29.129,56.841],[29.11,56.835],[29.108,56.844],[29.096,56.848],[29.07,56.841],[29.075,56.848],[29.07,56.86],[29.013,56.875],[29.029,56.888],[29.04,56.887],[29.033,56.893],[29.059,56.899],[29.065,56.921],[29.056,56.918],[29.059,56.923],[29.037,56.931],[29.04,56.94],[29.055,56.936],[29.035,56.96],[29.049,56.967],[29.047,56.978],[29.087,56.99],[29.088,57.0],[29.105,57.008],[29.097,57.015],[29.103,57.024],[29.085,57.036],[29.101,57.046],[29.076,57.104],[29.057,57.115],[29.061,57.12],[29.029,57.124],[29.015,57.119],[28.978,57.132],[28.963,57.124],[28.879,57.119],[28.909,57.133],[28.895,57.143],[28.874,57.142],[28.9,57.157],[28.897,57.168],[28.875,57.171],[28.883,57.181],[28.947,57.187],[28.945,57.194],[28.974,57.224],[28.995,57.231],[29.027,57.231],[29.03,57.237],[29.056,57.23],[29.131,57.25],[29.143,57.278],[29.126,57.283],[29.142,57.29],[29.147,57.308],[29.197,57.308],[29.2,57.316],[29.231,57.325],[29.231,57.335],[29.197,57.352],[29.2,57.358],[29.168,57.383],[29.126,57.388],[29.102,57.378],[29.08,57.393],[29.063,57.394],[29.07,57.397],[29.05,57.413],[29.051,57.423],[29.024,57.429],[28.973,57.423],[28.953,57.437],[28.918,57.432],[28.904,57.448],[28.876,57.448],[28.892,57.462],[28.873,57.468],[28.874,57.475],[28.801,57.463],[28.773,57.483],[28.754,57.471],[28.688,57.477],[28.721,57.498],[28.721,57.528],[28.751,57.537],[28.735,57.548],[28.758,57.586],[28.802,57.597],[28.812,57.594],[28.814,57.584],[28.815,57.592],[28.83,57.599],[28.923,57.622],[28.936,57.63],[28.927,57.636],[28.937,57.647],[28.932,57.65],[28.993,57.666],[28.994,57.679],[29.014,57.68],[29.018,57.688],[29.01,57.702],[28.988,57.703],[28.992,57.715],[28.976,57.715],[28.969,57.724],[29.037,57.741],[29.097,57.728],[29.088,57.744],[29.103,57.749],[29.113,57.777],[29.143,57.793],[29.169,57.797],[29.162,57.813],[29.136,57.83],[29.115,57.831],[29.146,57.851],[29.143,57.856],[29.162,57.861],[29.167,57.886],[29.154,57.89],[29.18,57.898],[29.208,57.891],[29.25,57.901],[29.21,57.912],[29.219,57.919],[29.196,57.916],[29.184,57.927],[29.159,57.93],[29.172,57.942],[29.176,57.952],[29.168,57.957],[29.181,57.982],[29.218,57.998],[29.22,58.006],[29.237,58.005],[29.236,58.017],[29.253,58.034],[29.322,58.033],[29.344,58.049],[29.431,58.052],[29.47,58.066],[29.465,58.071],[29.471,58.076],[29.487,58.077],[29.51,58.096],[29.599,58.078],[29.623,58.09],[29.645,58.108],[29.65,58.123],[29.672,58.135],[29.666,58.143],[29.682,58.166],[29.705,58.167],[29.677,58.186],[29.69,58.19],[29.68,58.198],[29.69,58.203],[29.686,58.211],[29.637,58.215],[29.637,58.225],[29.651,58.225],[29.659,58.234],[29.638,58.235],[29.603,58.263],[29.6,58.25],[29.575,58.25],[29.579,58.246],[29.465,58.268],[29.56,58.318],[29.546,58.34],[29.526,58.34],[29.521,58.351],[29.514,58.347],[29.449,58.372],[29.413,58.357],[29.419,58.368],[29.386,58.369],[29.383,58.375],[29.33,58.373],[29.234,58.393],[29.233,58.399],[29.284,58.397],[29.299,58.404],[29.286,58.413],[29.269,58.405],[29.238,58.408],[29.238,58.417],[29.172,58.417],[29.147,58.412],[29.141,58.394],[29.134,58.392],[29.127,58.399],[29.082,58.394],[29.051,58.4],[29.043,58.413],[29.011,58.409],[28.995,58.432],[28.962,58.437],[28.964,58.447],[28.957,58.45],[28.901,58.461],[28.895,58.472],[28.851,58.454],[28.818,58.453],[28.798,58.462],[28.802,58.473],[28.813,58.473],[28.808,58.487],[28.772,58.479],[28.779,58.499],[28.763,58.491],[28.748,58.492],[28.744,58.499],[28.727,58.5],[28.73,58.49],[28.67,58.493],[28.67,58.503],[28.614,58.52],[28.625,58.528],[28.61,58.535],[28.617,58.553],[28.55,58.548],[28.542,58.537],[28.482,58.541],[28.469,58.535],[28.438,58.56],[28.475,58.586],[28.516,58.599],[28.498,58.609],[28.499,58.645],[28.535,58.645],[28.548,58.655],[28.569,58.656],[28.569,58.665],[28.578,58.662],[28.578,58.674],[28.586,58.674],[28.574,58.675],[28.576,58.688],[28.566,58.69],[28.548,58.715],[28.518,58.731],[28.551,58.741],[28.518,58.753],[28.505,58.774],[28.534,58.774],[28.536,58.801],[28.522,58.821],[28.507,58.827],[28.5,58.845],[28.48,58.848],[28.496,58.853],[28.486,58.869],[28.436,58.881],[28.411,58.855],[28.374,58.878],[28.359,58.87],[28.359,58.861],[28.349,58.862],[28.321,58.844],[28.349,58.827],[28.311,58.841],[28.311,58.831],[28.3,58.824],[28.261,58.875],[28.24,58.88],[28.266,58.885],[28.258,58.899],[28.226,58.896],[28.212,58.906],[28.222,58.913],[28.196,58.937],[28.204,58.941],[28.187,58.941],[28.146,58.964],[28.174,58.971],[28.172,58.976],[28.121,58.975],[28.121,58.993],[28.101,58.994],[28.097,59.001],[28.081,58.992],[28.034,58.987],[28.034,59.0],[27.997,59.004],[28.0,59.013],[27.991,59.016],[27.931,59.015],[27.918,59.021],[27.738,58.978],[27.747,58.989],[27.738,59.01],[27.745,59.027],[27.767,59.033],[27.775,59.044],[27.773,59.056],[27.792,59.07],[27.789,59.091],[27.81,59.107],[27.803,59.114],[27.809,59.13],[27.89,59.185],[27.904,59.241],[27.958,59.272],[28.026,59.287],[28.13,59.291],[28.21,59.37],[28.203,59.375],[28.209,59.384],[28.191,59.401],[28.139,59.419],[28.10244,59.44778],[28.10026,59.44453],[28.043,59.472],[28.09,59.549],[28.093,59.598],[27.997,59.692],[28.037,59.729],[28.026,59.75],[28.096,59.79],[28.187,59.777],[28.227,59.713],[28.213,59.704],[28.223,59.686],[28.364,59.664],[28.43,59.677],[28.441,59.794]]],[[[61.393,80.115],[61.354,80.089],[61.248,80.049],[61.017,80.0],[61.01,79.988],[61.077,79.949],[61.095,79.93],[61.103,79.902],[61.094,79.879],[61.029,79.829],[60.954,79.799],[60.853,79.772],[60.658,79.737],[60.37,79.707],[60.095,79.693],[59.698,79.692],[59.59,79.659],[59.357,79.616],[59.058,79.585],[58.755,79.572],[58.534,79.572],[58.233,79.585],[58.059,79.6],[57.83,79.632],[57.67,79.667],[57.593,79.694],[57.535,79.723],[57.503,79.756],[57.502,79.79],[57.325,79.826],[57.22,79.86],[57.015,79.832],[56.738,79.81],[56.323,79.801],[55.973,79.813],[55.664,79.842],[55.537,79.862],[55.35,79.906],[55.004,79.945],[54.87,79.971],[54.736,80.011],[54.54,79.997],[54.537,79.987],[54.501,79.955],[54.436,79.925],[54.231,79.872],[53.888,79.828],[53.489,79.809],[53.168,79.812],[52.797,79.833],[52.551,79.86],[52.464,79.826],[52.368,79.802],[52.068,79.756],[51.697,79.724],[51.432,79.714],[50.961,79.715],[50.093,79.736],[49.678,79.759],[49.367,79.791],[48.931,79.796],[48.646,79.811],[48.497,79.826],[48.259,79.863],[47.793,79.847],[47.39,79.856],[46.986,79.893],[46.404,80.001],[46.224,80.023],[46.041,80.056],[45.862,80.11],[45.8,80.142],[45.766,80.174],[45.619,80.22],[45.559,80.254],[45.55,80.267],[44.761,80.358],[44.563,80.392],[44.035,80.454],[43.81,80.507],[43.733,80.54],[43.694,80.57],[43.683,80.592],[43.689,80.618],[43.725,80.651],[43.785,80.679],[43.912,80.716],[44.159,80.76],[44.581,80.801],[45.504,80.842],[45.707,80.876],[45.934,80.899],[45.968,80.917],[46.07,80.95],[46.21,80.979],[46.579,81.022],[47.087,81.047],[47.6,81.055],[47.952,81.041],[48.246,81.014],[48.678,81.006],[48.797,81.035],[49.11,81.078],[49.126,81.092],[49.1,81.109],[49.082,81.143],[49.092,81.173],[49.13,81.203],[49.209,81.235],[49.401,81.284],[49.669,81.333],[49.899,81.357],[50.387,81.38],[50.753,81.38],[51.219,81.365],[51.76,81.316],[52.064,81.262],[52.235,81.202],[52.266,81.182],[52.295,81.145],[52.297,81.119],[52.275,81.087],[52.204,81.05],[52.078,81.013],[52.105,81.0],[52.146,80.955],[52.216,80.934],[52.427,80.893],[52.772,80.84],[52.812,80.876],[52.871,80.904],[53.134,80.973],[53.05,80.997],[52.961,81.036],[52.917,81.077],[52.908,81.104],[52.918,81.128],[52.959,81.159],[53.03,81.188],[53.127,81.214],[52.891,81.295],[52.849,81.328],[52.843,81.361],[52.875,81.394],[52.943,81.426],[53.171,81.48],[53.505,81.521],[53.997,81.546],[54.295,81.575],[54.517,81.588],[55.085,81.594],[55.444,81.577],[55.543,81.622],[55.766,81.671],[56.14,81.714],[56.549,81.735],[56.552,81.752],[56.497,81.791],[56.497,81.828],[56.545,81.864],[56.631,81.896],[56.833,81.939],[57.242,81.989],[57.573,82.012],[58.438,82.049],[59.132,82.059],[59.42,82.054],[59.94,82.029],[60.352,81.98],[60.494,81.95],[60.644,81.893],[60.703,81.859],[60.722,81.824],[60.712,81.789],[60.679,81.763],[60.657,81.732],[60.618,81.707],[60.722,81.739],[60.859,81.767],[61.332,81.834],[61.634,81.864],[62.125,81.891],[63.102,81.907],[63.681,81.901],[64.117,81.878],[64.594,81.827],[64.855,81.78],[65.004,81.737],[65.112,81.682],[65.134,81.656],[65.132,81.622],[65.052,81.569],[64.888,81.51],[64.585,81.453],[64.263,81.416],[63.695,81.382],[63.073,81.381],[62.885,81.36],[62.499,81.333],[62.195,81.324],[61.872,81.325],[61.893,81.302],[62.469,81.252],[62.652,81.224],[62.829,81.176],[62.88,81.21],[62.958,81.239],[63.065,81.265],[63.518,81.334],[63.838,81.367],[64.159,81.386],[64.48,81.393],[64.863,81.389],[65.24,81.375],[65.81,81.327],[66.104,81.28],[66.326,81.232],[66.465,81.185],[66.525,81.152],[66.571,81.115],[66.575,81.1],[66.621,81.068],[66.645,81.015],[66.625,80.98],[66.601,80.963],[66.622,80.931],[66.607,80.896],[66.555,80.851],[66.523,80.833],[66.306,80.756],[65.967,80.671],[65.795,80.636],[65.278,80.569],[64.894,80.53],[63.858,80.48],[63.495,80.449],[62.99,80.441],[62.673,80.4],[62.68,80.394],[62.678,80.359],[62.639,80.325],[62.561,80.29],[62.402,80.249],[62.149,80.21],[61.41,80.139],[61.393,80.115]]],[[[35.525,80.074],[35.454,80.111],[35.428,80.14],[35.42,80.16],[35.423,80.179],[35.462,80.217],[35.558,80.258],[35.694,80.294],[35.974,80.336],[36.337,80.362],[36.709,80.367],[37.168,80.352],[37.463,80.323],[37.737,80.272],[37.833,80.246],[37.914,80.214],[37.949,80.19],[37.977,80.154],[37.976,80.135],[37.943,80.099],[37.86,80.056],[37.75,80.023],[37.497,79.977],[37.203,79.948],[36.937,79.936],[36.709,79.933],[36.371,79.943],[36.065,79.97],[35.705,80.025],[35.525,80.074]]],[[[35.899,65.028],[35.88,65.043],[35.926,65.052],[36.024,65.04],[36.006,65.02],[35.859,65.018],[35.845,65.004],[35.878,64.99],[35.825,64.989],[35.751,64.955],[35.708,64.998],[35.722,65.01],[35.687,65.022],[35.703,65.027],[35.584,65.042],[35.502,65.105],[35.538,65.145],[35.605,65.154],[35.565,65.127],[35.606,65.127],[35.641,65.142],[35.658,65.13],[35.644,65.144],[35.668,65.167],[35.816,65.157],[35.853,65.102],[35.825,65.096],[35.857,65.057],[35.84,65.049],[35.85,65.041],[35.864,65.039],[35.856,65.037],[35.814,65.052],[35.812,65.088],[35.792,65.096],[35.767,65.087],[35.743,65.039],[35.812,65.047],[35.88,65.019],[35.899,65.028]]],[[[42.485,66.713],[42.431,66.75],[42.484,66.775],[42.581,66.763],[42.651,66.737],[42.673,66.674],[42.659,66.661],[42.485,66.713]]],[[[35.976,65.16],[35.969,65.18],[36.005,65.186],[36.063,65.156],[36.274,65.157],[36.073,65.125],[35.933,65.144],[35.934,65.18],[35.998,65.192],[35.957,65.181],[35.957,65.17],[35.976,65.16]]],[[[35.974,64.309],[35.87,64.382],[35.933,64.397],[36.006,64.352],[36.007,64.321],[35.974,64.309]]],[[[34.825,64.709],[34.846,64.747],[34.926,64.761],[35.022,64.744],[34.842,64.702],[34.825,64.709]]],[[[33.764,66.314],[33.78,66.301],[33.645,66.304],[33.666,66.311],[33.654,66.321],[33.788,66.339],[33.789,66.329],[33.808,66.316],[33.764,66.314]]],[[[27.027,60.036],[27.007,60.01],[26.983,60.015],[26.941,60.096],[26.979,60.092],[27.027,60.036]]],[[[34.994,65.765],[34.997,65.756],[35.02,65.751],[34.978,65.728],[34.901,65.741],[34.947,65.743],[34.91,65.761],[34.923,65.766],[34.912,65.778],[34.993,65.787],[34.957,65.768],[34.982,65.763],[34.97,65.766],[34.994,65.765]]],[[[29.694,59.992],[29.683,60.019],[29.634,60.032],[29.759,60.03],[29.745,60.021],[29.778,60.021],[29.749,60.01],[29.804,59.985],[29.792,59.973],[29.719,60.007],[29.694,59.992]]],[[[33.912,66.282],[33.971,66.261],[33.857,66.255],[33.786,66.276],[33.912,66.282]]],[[[36.696,64.214],[36.628,64.19],[36.62,64.216],[36.563,64.228],[36.627,64.243],[36.696,64.214]]],[[[27.824,60.038],[27.86,60.007],[27.9,60.004],[27.891,59.981],[27.884,60.001],[27.827,59.981],[27.793,59.995],[27.811,60.01],[27.795,60.023],[27.824,60.038]]],[[[35.266,64.355],[35.218,64.386],[35.285,64.403],[35.306,64.385],[35.266,64.355]]],[[[35.552,64.692],[35.599,64.67],[35.582,64.655],[35.504,64.679],[35.552,64.692]]],[[[33.844,66.362],[33.861,66.354],[33.837,66.348],[33.859,66.344],[33.829,66.33],[33.8,66.352],[33.844,66.362]]],[[[35.097,64.94],[35.13,64.949],[35.163,64.924],[35.102,64.927],[35.097,64.94]]],[[[35.655,64.635],[35.71,64.605],[35.641,64.618],[35.635,64.629],[35.655,64.635]]],[[[35.899,64.305],[35.855,64.317],[35.845,64.331],[35.886,64.331],[35.899,64.305]]],[[[28.356,60.033],[28.388,60.034],[28.401,60.007],[28.389,60.0],[28.356,60.033]]]]}}]}