{"type":"FeatureCollection","features":[{"type":"Feature","properties":{"mid":true,"src":"data/years/1489-08-16.geojson"},"geometry":{"type":"MultiPolygon","coordinates":[[[[28.266,59.562],[28.351,59.602],[28.312,59.66],[28.314,59.667],[28.442,59.733],[28.663,59.644],[28.796,59.672],[28.937,59.825],[29.077,59.908],[29.414,59.86],[29.765,59.736],[29.963,59.737],[30.127,59.806],[29.993,59.944],[30.121,59.92],[30.154,59.919],[30.162,59.922],[30.157,59.937],[30.158,59.954],[29.994,59.962],[29.968,59.97],[29.953,59.986],[29.902,60.013],[29.896,60.025],[29.875,60.039],[29.862,60.052],[29.842,60.089],[29.842,60.115],[29.695,60.151],[29.676,60.153],[29.155,61.217],[29.158,61.221],[29.206,61.242],[29.321,61.334],[29.467,61.41],[29.52,61.471],[29.637,61.507],[29.782,61.589],[29.845,61.656],[29.98,61.724],[30.342,61.987],[30.483,62.063],[30.61,62.147],[30.651,62.189],[30.928,62.298],[30.984,62.355],[31.126,62.431],[31.171,62.472],[31.247,62.499],[31.288,62.57],[31.367,62.649],[31.415,62.744],[31.445,62.786],[31.574,62.906],[31.54,62.923],[31.509,62.972],[31.483,62.991],[31.447,63.006],[31.383,63.052],[31.267,63.104],[31.245,63.138],[31.23,63.198],[31.206,63.217],[30.976,63.294],[30.823,63.38],[30.464,63.477],[30.383,63.537],[30.245,63.586],[30.005,63.719],[29.994,63.732],[29.993,63.738],[29.997,63.742],[30.052,63.759],[30.204,63.788],[30.269,63.827],[30.331,63.892],[30.512,63.987],[30.556,64.018],[30.585,64.049],[30.591,64.084],[30.538,64.163],[30.538,64.178],[30.555,64.196],[30.563,64.221],[30.537,64.24],[30.449,64.255],[30.373,64.305],[30.323,64.322],[30.165,64.347],[30.094,64.366],[30.056,64.382],[30.039,64.398],[30.045,64.42],[30.067,64.446],[30.075,64.474],[30.038,64.496],[29.999,64.507],[29.995,64.517],[29.985,64.52],[29.972,64.57],[29.976,64.574],[30.138,64.611],[30.185,64.639],[30.191,64.666],[30.174,64.686],[30.115,64.723],[30.125,64.761],[30.122,64.772],[30.063,64.789],[29.878,64.79],[29.782,64.8],[29.701,64.843],[29.637,64.911],[29.594,64.991],[29.604,65.033],[29.63,65.058],[29.668,65.073],[29.822,65.089],[29.849,65.104],[29.855,65.121],[29.819,65.137],[29.819,65.143],[29.844,65.166],[29.835,65.21],[29.767,65.222],[29.628,65.22],[29.594,65.236],[29.594,65.242],[29.619,65.266],[29.724,65.326],[29.736,65.365],[29.723,65.453],[29.731,65.489],[29.749,65.508],[29.829,65.548],[29.843,65.563],[29.809,65.589],[29.734,65.613],[29.723,65.621],[29.723,65.63],[29.765,65.643],[30.002,65.673],[30.1,65.652],[30.119,65.664],[30.117,65.713],[30.08,65.825],[30.002,65.935],[29.962,65.977],[29.904,66.112],[29.878,66.138],[29.795,66.185],[29.655,66.291],[29.574,66.38],[29.528,66.495],[29.414,66.571],[29.396,66.609],[29.367,66.629],[29.326,66.684],[29.094,66.84],[29.058,66.906],[29.104,66.988],[29.432,67.229],[29.494,67.259],[29.522,67.294],[29.548,67.308],[31.244,67.636],[32.555,67.084],[32.496,67.084],[32.525,67.076],[32.582,67.038],[32.22,66.994],[32.425,66.891],[32.753,66.649],[32.97,66.584],[33.47,66.313],[33.844,66.182],[34.259,66.11],[34.544,66.001],[34.726,65.797],[34.725,65.614],[34.6,65.483],[34.294,65.396],[34.332,65.346],[34.426,65.106],[34.773,64.682],[34.815,64.46],[34.885,64.367],[35.082,64.288],[35.624,64.254],[36.015,64.197],[36.24,63.919],[36.42,63.876],[36.987,63.842],[37.41,63.75],[37.591,63.807],[37.945,63.85],[38.054,63.986],[38.054,64.129],[37.88,64.308],[37.793,64.322],[37.765,64.338],[37.749,64.361],[37.747,64.39],[37.701,64.381],[37.692,64.357],[37.676,64.343],[37.597,64.328],[37.552,64.335],[37.482,64.333],[37.401,64.313],[37.386,64.306],[37.261,64.314],[37.044,64.39],[36.893,64.493],[36.571,64.765],[36.883,65.067],[37.103,65.068],[37.604,64.853],[38.253,64.703],[39.193,64.511],[39.622,64.476],[39.998,64.541],[40.322,64.463],[40.44,64.563],[40.462,64.75],[40.366,64.858],[40.346,64.873],[40.329,64.904],[40.321,64.912],[40.285,64.931],[40.264,64.946],[40.251,64.961],[40.241,64.982],[40.225,64.989],[40.18,65.0],[39.979,65.153],[39.824,65.434],[39.95,65.58],[40.681,65.794],[41.354,65.955],[41.623,66.065],[42.133,66.388],[42.21,66.41],[43.242,66.251],[43.876,66.011],[44.03,66.011],[44.053,66.04],[44.122,66.268],[44.223,66.401],[44.337,66.404],[44.474,66.366],[44.577,66.303],[44.859,66.231],[44.936,66.227],[45.741,66.063],[45.833,66.083],[46.347,66.023],[47.109,65.816],[47.154,65.811],[47.407,65.831],[47.66,65.803],[47.728,65.814],[47.753,65.828],[47.769,65.849],[47.768,65.863],[47.736,65.911],[47.737,65.917],[47.756,65.937],[47.921,66.031],[47.977,66.054],[48.074,66.071],[48.124,66.115],[48.156,66.125],[48.992,66.114],[48.996,66.109],[48.996,65.997],[49.011,65.856],[49.049,65.222],[49.633,65.283],[50.231,64.826],[50.367,64.812],[50.488,64.79],[50.492,64.786],[50.495,64.768],[50.526,64.769],[50.647,64.732],[50.727,64.72],[50.731,64.713],[50.721,64.706],[50.727,64.688],[50.774,64.659],[50.858,64.661],[50.888,64.653],[50.894,64.644],[50.917,64.643],[50.924,64.619],[50.938,64.617],[50.941,64.613],[50.94,64.608],[50.974,64.592],[50.977,64.589],[50.976,64.581],[50.986,64.571],[50.948,64.515],[50.977,64.506],[50.98,64.502],[50.964,64.473],[51.048,64.463],[51.051,64.459],[51.024,64.403],[51.026,64.397],[51.276,64.377],[51.308,64.451],[51.383,64.446],[51.42,64.51],[51.426,64.512],[51.937,64.469],[51.94,64.466],[51.94,64.459],[53.12,64.329],[53.184,64.34],[53.573,64.35],[53.672,64.334],[53.682,64.344],[53.687,64.345],[53.904,64.328],[54.243,64.285],[54.761,64.379],[54.76,64.387],[54.569,64.494],[54.566,64.501],[54.647,64.818],[54.764,65.171],[54.786,65.209],[55.296,65.544],[55.369,65.774],[55.444,65.794],[55.497,65.795],[55.507,65.806],[55.535,65.813],[55.535,65.833],[55.506,65.858],[55.064,65.858],[54.505,66.088],[53.797,66.362],[53.765,66.988],[53.768,66.994],[59.882,66.997],[59.887,66.993],[59.887,66.988],[59.868,66.975],[59.869,66.963],[59.919,66.949],[60.082,66.985],[61.339,66.994],[61.343,66.99],[62.661,61.103],[62.661,61.098],[61.882,59.852],[58.292,58.424],[55.465,58.136],[53.978,58.073],[53.941,58.107],[53.933,58.142],[53.908,58.163],[53.896,58.188],[53.821,58.227],[53.82,58.235],[53.848,58.277],[53.891,58.32],[53.879,58.337],[53.791,58.404],[53.787,58.444],[53.637,58.44],[53.498,58.455],[53.423,58.429],[53.388,58.406],[53.33,58.393],[53.317,58.396],[53.306,58.411],[53.225,58.43],[53.206,58.451],[53.171,58.459],[53.162,58.487],[53.141,58.504],[53.134,58.54],[53.12,58.548],[53.065,58.547],[53.025,58.531],[52.921,58.539],[52.896,58.514],[52.868,58.42],[52.864,58.416],[52.329,58.455],[52.274,58.48],[52.179,58.495],[52.116,58.479],[52.009,58.477],[51.969,58.469],[51.826,58.377],[51.793,58.365],[51.786,58.284],[51.739,58.257],[51.721,58.226],[51.669,58.179],[51.673,58.156],[51.711,58.132],[51.767,58.136],[51.789,58.122],[51.815,58.086],[51.814,58.08],[51.791,58.051],[51.79,58.033],[51.811,58.013],[51.853,57.995],[51.856,57.987],[51.852,57.983],[45.965,57.735],[45.43,57.467],[44.81,54.667],[44.807,54.663],[43.966,54.782],[43.962,54.79],[43.967,54.798],[43.95,54.812],[43.904,54.816],[43.858,54.809],[43.726,54.825],[43.677,54.845],[43.612,54.906],[43.463,54.929],[43.42,54.951],[43.389,54.955],[43.248,54.94],[43.145,54.9],[43.081,54.909],[42.531,54.834],[42.466,54.876],[42.393,54.815],[41.995,54.761],[40.568,54.761],[40.565,54.768],[40.76,55.452],[39.378,55.847],[38.687,55.452],[38.39,55.057],[37.452,55.106],[37.256,54.221],[37.253,54.218],[36.598,54.255],[36.221,54.267],[36.218,54.27],[36.169,54.761],[34.489,54.712],[34.096,55.106],[34.441,56.242],[33.255,56.489],[32.417,57.278],[31.281,57.278],[30.738,56.982],[30.935,56.388],[30.689,55.9],[30.684,55.9],[29.948,56.538],[29.06,56.538],[28.813,56.882],[28.813,57.575],[28.418,57.92],[28.319,58.661],[27.662,58.939],[27.702,59.296],[27.894,59.346],[28.016,59.454],[27.979,59.508],[27.979,59.512],[28.011,59.552],[28.019,59.576],[28.01,59.596],[27.975,59.63],[27.961,59.65],[28.093,59.664],[28.163,59.591],[28.266,59.562]],[[55.482,62.537],[55.243,62.254],[55.535,62.071],[55.542,62.059],[55.54,62.051],[55.433,61.97],[55.539,61.874],[55.656,61.898],[55.729,61.93],[56.313,61.684],[56.316,61.676],[56.18,61.419],[56.317,61.31],[56.382,61.437],[56.568,61.414],[56.599,61.485],[56.605,61.487],[56.642,61.484],[56.657,61.518],[57.081,61.47],[57.098,61.497],[58.846,61.491],[58.853,61.515],[58.92,61.527],[58.975,61.517],[58.997,61.53],[59.05,61.532],[59.123,61.589],[59.129,61.606],[59.151,61.625],[59.192,61.623],[59.209,61.634],[59.241,61.622],[59.282,61.636],[59.297,61.65],[59.352,61.659],[59.365,61.67],[59.36,61.689],[59.375,61.698],[59.376,61.712],[59.404,61.725],[59.426,61.752],[59.425,61.759],[59.395,61.77],[59.363,61.774],[59.347,61.789],[59.33,61.79],[59.323,61.801],[59.338,61.829],[59.336,61.845],[59.367,61.87],[59.406,61.88],[59.407,61.905],[59.41,61.908],[59.494,61.945],[59.47,61.997],[59.45,62.002],[59.445,62.007],[59.447,62.018],[59.433,62.044],[59.433,62.049],[59.442,62.056],[59.435,62.073],[59.438,62.096],[59.407,62.108],[59.405,62.152],[59.407,62.156],[59.446,62.182],[59.445,62.194],[59.462,62.205],[59.456,62.216],[59.46,62.232],[59.463,62.235],[59.492,62.241],[59.506,62.256],[59.515,62.279],[59.503,62.297],[59.52,62.31],[59.521,62.318],[59.57,62.329],[59.591,62.36],[59.618,62.372],[59.624,62.409],[59.599,62.418],[59.596,62.426],[59.61,62.441],[59.614,62.477],[59.625,62.489],[59.625,62.51],[59.634,62.52],[59.64,62.547],[59.551,62.551],[59.51,62.568],[59.465,62.568],[59.461,62.571],[59.461,62.577],[59.473,62.59],[59.476,62.607],[59.434,62.633],[59.434,62.639],[59.447,62.662],[59.412,62.674],[59.415,62.707],[59.392,62.726],[59.391,62.731],[59.393,62.749],[59.396,62.752],[59.417,62.755],[59.438,62.776],[59.449,62.829],[59.449,62.872],[59.466,62.883],[59.467,62.9],[59.452,62.922],[59.436,62.923],[59.417,62.938],[59.327,62.947],[59.3,62.966],[59.296,62.979],[59.274,62.987],[59.228,62.988],[59.212,63.027],[59.238,63.053],[59.247,63.083],[59.14,63.117],[59.138,63.138],[59.122,63.153],[59.122,63.157],[59.136,63.176],[59.076,63.22],[59.069,63.271],[59.023,63.282],[58.979,63.277],[58.871,63.295],[58.833,63.292],[58.713,63.34],[58.371,63.308],[58.367,63.311],[58.354,63.344],[58.358,63.361],[58.257,63.575],[58.138,63.618],[58.119,63.608],[58.104,63.573],[58.07,63.551],[58.064,63.551],[58.026,63.574],[57.995,63.582],[57.989,63.597],[57.956,63.606],[57.953,63.636],[57.897,63.684],[57.847,63.638],[57.797,63.57],[57.788,63.567],[57.476,63.146],[56.796,63.249],[56.772,63.221],[56.721,63.226],[56.682,63.17],[56.325,63.226],[56.321,63.229],[56.321,63.235],[56.339,63.255],[56.325,63.301],[56.167,63.325],[56.154,63.318],[56.075,63.329],[56.071,63.336],[56.095,63.368],[56.092,63.375],[55.789,63.417],[55.778,63.411],[55.71,63.427],[55.578,63.248],[55.586,63.24],[55.585,63.234],[55.454,63.052],[55.451,63.049],[55.376,63.046],[55.277,62.849],[55.282,62.843],[55.334,62.851],[55.374,62.819],[55.461,62.834],[55.505,62.792],[55.505,62.784],[55.402,62.779],[55.32,62.786],[55.257,62.801],[55.185,62.676],[55.155,62.594],[55.152,62.591],[55.126,62.588],[55.131,62.568],[55.478,62.546],[55.482,62.543],[55.482,62.537]]],[[[35.537,65.145],[35.563,65.144],[35.566,65.127],[35.607,65.127],[35.631,65.138],[35.637,65.137],[35.639,65.132],[35.66,65.131],[35.651,65.138],[35.651,65.144],[35.673,65.169],[35.743,65.171],[35.775,65.167],[35.796,65.158],[35.814,65.155],[35.828,65.13],[35.826,65.124],[35.838,65.115],[35.841,65.108],[35.839,65.104],[35.825,65.096],[35.818,65.095],[35.807,65.108],[35.797,65.114],[35.785,65.091],[35.767,65.088],[35.761,65.072],[35.746,65.057],[35.747,65.048],[35.739,65.043],[35.75,65.041],[35.758,65.043],[35.762,65.037],[35.809,65.045],[35.842,65.037],[35.858,65.021],[35.858,65.017],[35.845,65.003],[35.846,64.998],[35.833,64.988],[35.825,64.989],[35.822,64.983],[35.806,64.982],[35.784,64.971],[35.772,64.97],[35.765,64.964],[35.744,64.962],[35.73,64.974],[35.73,64.986],[35.723,65.001],[35.723,65.026],[35.675,65.039],[35.592,65.042],[35.572,65.049],[35.522,65.079],[35.514,65.087],[35.515,65.094],[35.506,65.099],[35.507,65.123],[35.513,65.13],[35.537,65.145]]],[[[36.017,65.046],[36.022,65.034],[36.017,65.029],[36.006,65.027],[35.946,65.026],[35.92,65.021],[35.901,65.025],[35.894,65.038],[35.897,65.045],[35.983,65.056],[36.017,65.046]]]]}}]}