{"type":"FeatureCollection","features":[{"type":"Feature","properties":{"mid":true,"src":"data/years/1492.geojson"},"geometry":{"type":"MultiPolygon","coordinates":[[[[28.095,59.664],[28.1524,59.60238],[28.163,59.591],[28.266,59.562],[28.351,59.602],[28.34862,59.60554],[28.34899,59.60553],[28.314,59.667],[28.42988,59.6768],[28.42718,59.72464],[28.445,59.733],[28.49166,59.71395],[28.663,59.644],[28.796,59.672],[28.84175,59.72133],[28.92087,59.80664],[28.99197,59.82052],[29.05732,59.86016],[29.06583,59.88614],[29.05088,59.89304],[29.077,59.908],[29.12136,59.90168],[29.414,59.86],[29.765,59.736],[29.963,59.737],[30.11749,59.802],[30.127,59.806],[30.07224,59.86257],[30.17563,59.87035],[30.16898,59.88831],[30.19307,59.88919],[30.22802,59.91094],[30.23188,59.93326],[30.17782,59.94406],[30.21617,59.96418],[30.20803,59.97936],[29.96247,60.00955],[29.96447,60.05638],[29.93211,60.07],[29.95589,60.07427],[29.91923,60.08881],[29.94593,60.10295],[29.92073,60.1474],[29.65802,60.19057],[29.62727,60.25332],[29.155,61.217],[29.158,61.221],[29.206,61.242],[29.321,61.334],[29.466,61.41],[29.52,61.471],[29.637,61.507],[29.782,61.589],[29.845,61.656],[29.98,61.724],[30.342,61.987],[30.483,62.063],[30.61,62.147],[30.651,62.189],[30.928,62.298],[30.984,62.355],[31.126,62.431],[31.171,62.472],[31.247,62.499],[31.288,62.57],[31.367,62.649],[31.415,62.744],[31.445,62.786],[31.574,62.906],[31.54,62.923],[31.509,62.972],[31.483,62.991],[31.447,63.006],[31.383,63.052],[31.267,63.104],[31.245,63.138],[31.23,63.198],[31.206,63.217],[30.976,63.294],[30.823,63.38],[30.464,63.477],[30.383,63.537],[30.245,63.586],[30.005,63.719],[29.994,63.732],[29.993,63.738],[29.997,63.742],[30.052,63.759],[30.204,63.788],[30.269,63.827],[30.331,63.892],[30.512,63.987],[30.556,64.018],[30.585,64.049],[30.591,64.084],[30.538,64.163],[30.538,64.178],[30.555,64.196],[30.563,64.221],[30.537,64.24],[30.449,64.255],[30.373,64.305],[30.323,64.322],[30.165,64.347],[30.056,64.382],[30.039,64.398],[30.045,64.42],[30.067,64.446],[30.075,64.474],[30.038,64.496],[29.999,64.507],[29.995,64.517],[29.985,64.52],[29.972,64.57],[29.976,64.574],[30.138,64.611],[30.185,64.639],[30.191,64.666],[30.174,64.686],[30.114,64.724],[30.123,64.771],[30.063,64.789],[29.878,64.79],[29.782,64.8],[29.701,64.843],[29.637,64.911],[29.594,64.991],[29.603,65.032],[29.63,65.058],[29.668,65.073],[29.822,65.089],[29.849,65.104],[29.855,65.12],[29.82,65.135],[29.818,65.139],[29.819,65.143],[29.844,65.166],[29.835,65.21],[29.767,65.222],[29.628,65.22],[29.594,65.236],[29.594,65.242],[29.619,65.266],[29.724,65.326],[29.736,65.365],[29.723,65.453],[29.731,65.489],[29.749,65.508],[29.829,65.548],[29.843,65.563],[29.809,65.589],[29.734,65.613],[29.723,65.621],[29.723,65.63],[29.765,65.643],[30.002,65.673],[30.1,65.652],[30.119,65.664],[30.117,65.713],[30.08,65.825],[30.002,65.935],[29.962,65.977],[29.904,66.112],[29.878,66.138],[29.795,66.185],[29.655,66.291],[29.574,66.38],[29.528,66.495],[29.414,66.571],[29.396,66.609],[29.367,66.629],[29.326,66.684],[29.094,66.84],[29.058,66.906],[29.104,66.988],[29.432,67.229],[29.494,67.259],[29.522,67.294],[29.548,67.308],[31.244,67.636],[32.27722,67.20119],[32.47404,67.11836],[32.37604,67.15851],[32.32275,67.16747],[32.34036,67.15045],[32.26191,67.14256],[32.27908,67.13534],[32.27087,67.12127],[32.15694,67.14047],[32.13366,67.1323],[32.15013,67.12982],[32.13266,67.12056],[32.1469,67.11261],[32.13152,67.11375],[32.13588,67.10683],[31.91694,67.14517],[31.87002,67.13948],[31.96816,67.1168],[31.92948,67.10836],[32.04571,67.09679],[32.18696,67.10682],[32.14607,67.11599],[32.16936,67.12152],[32.25459,67.1217],[32.24051,67.11246],[32.35405,67.06971],[32.28241,67.07081],[32.32416,67.04717],[32.31095,67.03921],[32.46627,67.02452],[32.2664,66.99975],[32.22,66.994],[32.3598,66.92376],[32.425,66.891],[32.43658,66.88246],[32.38671,66.86942],[32.45178,66.87124],[32.53787,66.80772],[32.6283,66.741],[32.71094,66.68003],[32.753,66.649],[32.78412,66.63922],[32.93423,66.59204],[32.82086,66.59083],[32.88167,66.56631],[32.9852,66.56807],[33.19572,66.53812],[32.93141,66.51894],[33.05568,66.49805],[33.23703,66.51951],[33.25363,66.50095],[33.31104,66.49779],[33.27107,66.4892],[33.30312,66.47273],[33.52271,66.44236],[33.54947,66.44353],[33.51961,66.45648],[33.53642,66.45346],[33.54567,66.47523],[33.60763,66.47401],[33.6282,66.46639],[33.55086,66.45212],[33.59132,66.43036],[33.71751,66.4153],[33.46271,66.37798],[33.60512,66.36745],[33.57966,66.35798],[33.67691,66.33964],[33.666,66.33452],[33.41398,66.32476],[33.21538,66.27955],[33.07702,66.27579],[32.98192,66.24936],[33.25142,66.27283],[33.348,66.30561],[33.37732,66.29751],[33.4673,66.30197],[33.43455,66.29087],[33.57332,66.31478],[33.63184,66.30583],[33.58046,66.29536],[33.61065,66.29199],[33.56315,66.27565],[33.74953,66.27672],[33.83147,66.24978],[33.79478,66.24856],[33.78746,66.24252],[33.91069,66.23446],[33.8708,66.22135],[33.89767,66.21242],[33.87911,66.20048],[33.94918,66.2246],[34.10943,66.22671],[34.15236,66.20437],[34.13468,66.19488],[34.18188,66.18857],[34.14135,66.16681],[34.20194,66.17273],[34.21789,66.16805],[34.17116,66.16715],[34.3179,66.14406],[34.53868,66.0691],[34.55824,66.05196],[34.53637,66.04558],[34.58444,66.04781],[34.60828,66.03378],[34.58338,66.03161],[34.61965,66.0143],[34.60626,66.00979],[34.698,65.98346],[34.71228,65.95921],[34.66344,65.95636],[34.67578,65.94623],[34.6628,65.94032],[34.68401,65.94255],[34.63429,65.92036],[34.70336,65.91756],[34.66075,65.90201],[34.69874,65.89889],[34.68282,65.87611],[34.73793,65.90347],[34.85654,65.86581],[34.81381,65.84721],[34.8373,65.84748],[34.81572,65.83862],[34.83167,65.83706],[34.81895,65.8194],[34.77513,65.81043],[34.85019,65.8008],[34.8974,65.81739],[34.86279,65.81678],[34.87645,65.83067],[34.91955,65.81494],[34.88778,65.81257],[34.9049,65.79472],[34.88568,65.79471],[34.91559,65.76839],[34.86344,65.77564],[34.85265,65.76216],[34.87003,65.76286],[34.83728,65.75438],[34.97614,65.7163],[34.94668,65.7107],[34.97877,65.70881],[34.93068,65.67469],[34.79593,65.72769],[34.80711,65.73813],[34.74755,65.7655],[34.70296,65.7632],[34.74198,65.76811],[34.69809,65.766],[34.72981,65.77528],[34.67373,65.78946],[34.68776,65.79673],[34.66018,65.79383],[34.71072,65.77669],[34.65543,65.75631],[34.69453,65.74036],[34.68227,65.72769],[34.71318,65.73149],[34.68622,65.72251],[34.68313,65.71027],[34.71227,65.70838],[34.68037,65.70065],[34.68274,65.69358],[34.71979,65.70905],[34.77274,65.68612],[34.68602,65.66813],[34.72681,65.66442],[34.69775,65.65258],[34.75739,65.65326],[34.71945,65.64409],[34.73437,65.64217],[34.72459,65.62812],[34.75296,65.62718],[34.74873,65.6045],[34.79682,65.5808],[34.73657,65.58268],[34.71024,65.55758],[34.75312,65.5484],[34.7366,65.53294],[34.75355,65.52924],[34.63268,65.48686],[34.67623,65.46494],[34.66522,65.4583],[34.68868,65.43553],[34.45636,65.43024],[34.5313,65.40555],[34.47403,65.40664],[34.50899,65.39018],[34.50068,65.38775],[34.44141,65.4104],[34.42821,65.41073],[34.45223,65.3945],[34.35296,65.40624],[34.4431,65.36661],[34.36151,65.38068],[34.30699,65.37968],[34.27129,65.37096],[34.50041,65.32759],[34.44645,65.31698],[34.47826,65.30901],[34.46371,65.30814],[34.47829,65.29687],[34.47141,65.26983],[34.45666,65.26935],[34.47275,65.25624],[34.48199,65.25466],[34.50831,65.25539],[34.49719,65.24747],[34.50923,65.23941],[34.51316,65.25483],[34.53271,65.25515],[34.53939,65.22246],[34.52397,65.21994],[34.60593,65.22471],[34.60671,65.20731],[34.65952,65.19446],[34.59871,65.19589],[34.66551,65.18072],[34.65528,65.16535],[34.69121,65.15676],[34.63746,65.14107],[34.66269,65.12427],[34.64593,65.11316],[34.67966,65.12091],[34.66172,65.10158],[34.70243,65.08987],[34.68564,65.07855],[34.78329,65.07895],[34.78863,65.05919],[34.75628,65.03721],[34.79967,65.01634],[34.77404,64.99468],[34.83079,65.02162],[34.78154,64.98068],[34.60797,64.95135],[34.76861,64.953],[34.82763,64.92084],[34.8209,64.90173],[34.83767,64.91388],[34.84386,64.89878],[34.89573,64.89142],[34.87963,64.87159],[34.91812,64.8528],[34.92058,64.83412],[34.96142,64.83624],[34.92768,64.79989],[34.8771,64.78307],[34.88217,64.76673],[34.81853,64.76072],[34.77954,64.73167],[34.81837,64.72392],[34.80678,64.7119],[34.8407,64.67809],[34.91266,64.66198],[34.89962,64.65483],[34.92984,64.63801],[34.91268,64.63288],[34.96861,64.63053],[34.96862,64.61444],[34.99003,64.61147],[34.81551,64.54423],[34.85936,64.53806],[34.78103,64.52604],[34.75911,64.53407],[34.73132,64.53082],[34.69959,64.52407],[34.68293,64.50916],[34.77213,64.52517],[34.78652,64.5101],[34.82974,64.51409],[34.80945,64.5021],[34.86756,64.50267],[34.88934,64.48028],[34.91655,64.4986],[34.97873,64.48489],[34.95675,64.50479],[35.0114,64.50609],[35.00296,64.49481],[35.02994,64.48213],[34.98896,64.47388],[34.99776,64.45611],[34.9747,64.45091],[34.98312,64.42996],[34.96379,64.41826],[35.03989,64.404],[35.11827,64.41896],[35.14519,64.34978],[35.34186,64.34391],[35.32458,64.30033],[35.37741,64.30188],[35.40361,64.28366],[35.54523,64.33019],[35.61397,64.32412],[35.62674,64.34666],[35.5882,64.38002],[35.6983,64.36172],[35.75497,64.32128],[35.83164,64.32109],[35.89527,64.28657],[35.9243,64.26438],[35.89418,64.23748],[35.93757,64.22712],[35.92663,64.22119],[35.95958,64.20824],[35.95458,64.19119],[36.00789,64.18412],[36.04697,64.21274],[36.14,64.17607],[36.15528,64.14969],[36.24146,64.12762],[36.17854,64.10354],[36.17158,64.09035],[36.19123,64.07735],[36.17603,64.07389],[36.26197,64.05271],[36.24913,64.00513],[36.3004,63.97103],[36.31404,63.98932],[36.3488,63.98835],[36.46051,63.9788],[36.45596,63.96612],[36.51391,63.95367],[36.51689,63.89263],[36.5175,63.89257],[36.518,63.87],[36.62004,63.86391],[36.987,63.842],[37.07037,63.82387],[37.14562,63.8075],[37.41,63.75],[37.591,63.807],[37.692,63.81927],[37.76783,63.82848],[37.9356,63.84886],[37.945,63.85],[37.94703,63.85253],[37.94721,63.85259],[38.06652,63.99226],[38.07171,64.00015],[38.07499,64.00914],[38.04375,64.02753],[38.05988,64.07149],[38.00715,64.11452],[37.9995,64.14751],[37.93461,64.16057],[37.89133,64.21163],[38.01035,64.28824],[37.91587,64.31015],[37.9146,64.32535],[37.95277,64.33152],[37.93959,64.34253],[37.78819,64.36772],[37.79064,64.43825],[37.65405,64.42409],[37.61499,64.35514],[37.56618,64.36871],[37.56263,64.37574],[37.56839,64.37595],[37.57492,64.37911],[37.57433,64.38707],[37.45482,64.38032],[37.33265,64.34172],[37.15075,64.38487],[36.91841,64.52684],[36.78365,64.62888],[36.7378,64.68898],[36.62256,64.71935],[36.572,64.762],[36.62641,64.81607],[36.62647,64.82039],[36.65169,64.84463],[36.65648,64.84596],[36.75718,64.94603],[36.83027,64.96997],[36.80943,65.00212],[36.883,65.067],[36.91447,65.06714],[37.103,65.068],[37.604,64.853],[37.94737,64.77364],[38.01204,64.75869],[37.99573,64.74458],[38.00424,64.72738],[38.12468,64.673],[37.9945,64.61358],[38.01639,64.61004],[37.98216,64.59244],[38.01953,64.59452],[38.01286,64.58354],[38.04824,64.60261],[38.05677,64.6373],[38.15031,64.656],[38.1326,64.68607],[38.15153,64.70781],[38.20567,64.71394],[38.36056,64.6821],[39.193,64.511],[39.622,64.476],[39.70061,64.48959],[39.80114,64.50697],[39.998,64.541],[40.322,64.463],[40.44,64.563],[40.462,64.75],[40.46128,64.75081],[40.46125,64.75079],[40.32006,64.89901],[40.33563,64.89191],[40.329,64.904],[40.321,64.912],[40.285,64.931],[40.28283,64.93255],[40.27514,64.939],[40.2752,64.94263],[40.27365,64.94772],[40.241,64.982],[40.18,65.0],[40.1506,65.05271],[40.05061,65.10373],[40.01229,65.16695],[39.9619,65.18487],[39.88575,65.32244],[39.824,65.434],[39.95,65.58],[39.9647,65.5843],[40.26014,65.67079],[40.681,65.794],[41.354,65.955],[41.623,66.065],[42.133,66.388],[42.21,66.41],[42.59469,66.35073],[42.7181,66.33172],[43.242,66.251],[43.876,66.011],[43.96907,66.011],[44.0249,66.011],[44.03246,65.98554],[44.02634,65.98665],[44.02659,65.98814],[44.02503,65.9883],[44.0189,65.9827],[44.11811,65.93308],[44.12825,65.88522],[44.19352,65.81169],[44.21381,65.83198],[44.1803,65.86894],[44.23413,65.84586],[44.22207,65.86117],[44.19105,65.87032],[44.18901,65.87578],[44.18482,65.87959],[44.16682,65.88537],[44.15166,65.90907],[44.18652,65.89494],[44.1616,65.91117],[44.16604,65.92858],[44.10884,65.97665],[44.10484,65.97857],[44.10141,65.97943],[44.08874,65.97872],[44.08399,65.98558],[44.16225,66.04538],[44.16212,66.04116],[44.18223,66.04055],[44.16315,66.04193],[44.16259,66.06869],[44.14643,66.10287],[44.09114,66.16538],[44.122,66.268],[44.227,66.403],[44.30545,66.40371],[44.337,66.404],[44.474,66.366],[44.577,66.303],[44.859,66.231],[44.936,66.227],[45.741,66.063],[45.833,66.083],[46.347,66.023],[47.109,65.816],[47.154,65.811],[47.407,65.831],[47.66,65.803],[47.728,65.814],[47.753,65.828],[47.769,65.849],[47.768,65.863],[47.736,65.911],[47.737,65.917],[47.756,65.937],[47.921,66.031],[47.977,66.054],[48.074,66.071],[48.124,66.115],[48.156,66.125],[48.992,66.114],[48.996,66.109],[48.996,65.997],[49.011,65.856],[49.049,65.222],[49.633,65.283],[50.231,64.826],[50.367,64.812],[50.488,64.79],[50.492,64.786],[50.495,64.768],[50.526,64.769],[50.647,64.732],[50.727,64.72],[50.731,64.713],[50.721,64.706],[50.727,64.688],[50.774,64.659],[50.858,64.661],[50.888,64.653],[50.894,64.644],[50.917,64.643],[50.924,64.619],[50.938,64.617],[50.941,64.613],[50.94,64.608],[50.974,64.592],[50.977,64.589],[50.976,64.581],[50.986,64.571],[50.948,64.515],[50.977,64.506],[50.98,64.502],[50.964,64.473],[51.048,64.463],[51.051,64.459],[51.024,64.403],[51.026,64.397],[51.276,64.377],[51.308,64.451],[51.383,64.446],[51.42,64.51],[51.426,64.512],[51.937,64.469],[51.94,64.466],[51.94,64.459],[53.12,64.329],[53.184,64.34],[53.573,64.35],[53.672,64.334],[53.682,64.344],[53.687,64.345],[53.904,64.328],[54.243,64.285],[54.761,64.379],[54.76,64.387],[54.569,64.494],[54.566,64.501],[54.647,64.818],[54.764,65.171],[54.786,65.209],[55.296,65.544],[55.369,65.774],[55.444,65.794],[55.497,65.795],[55.507,65.806],[55.535,65.813],[55.535,65.833],[55.506,65.858],[55.064,65.858],[54.505,66.088],[53.797,66.362],[53.765,66.988],[53.768,66.994],[59.882,66.997],[59.887,66.993],[59.887,66.988],[59.868,66.975],[59.869,66.963],[59.919,66.949],[60.082,66.985],[61.339,66.994],[61.343,66.99],[62.661,61.103],[62.661,61.098],[61.882,59.852],[58.292,58.424],[55.465,58.136],[53.978,58.073],[53.941,58.107],[53.933,58.142],[53.908,58.163],[53.896,58.188],[53.821,58.227],[53.82,58.235],[53.848,58.277],[53.891,58.32],[53.879,58.337],[53.791,58.404],[53.787,58.444],[53.637,58.44],[53.498,58.455],[53.423,58.429],[53.388,58.406],[53.33,58.393],[53.317,58.396],[53.306,58.411],[53.225,58.43],[53.206,58.451],[53.171,58.459],[53.162,58.487],[53.141,58.504],[53.134,58.54],[53.12,58.548],[53.065,58.547],[53.025,58.531],[52.921,58.539],[52.896,58.514],[52.868,58.42],[52.864,58.416],[52.329,58.455],[52.274,58.48],[52.179,58.495],[52.116,58.479],[52.009,58.477],[51.969,58.469],[51.826,58.377],[51.793,58.365],[51.786,58.284],[51.739,58.257],[51.721,58.226],[51.669,58.179],[51.673,58.156],[51.711,58.132],[51.767,58.136],[51.789,58.122],[51.815,58.086],[51.814,58.08],[51.791,58.051],[51.79,58.033],[51.811,58.013],[51.853,57.995],[51.856,57.987],[51.852,57.983],[45.965,57.735],[45.43,57.467],[44.81,54.667],[44.807,54.663],[43.966,54.782],[43.962,54.79],[43.967,54.798],[43.95,54.812],[43.904,54.816],[43.858,54.809],[43.726,54.825],[43.677,54.845],[43.612,54.906],[43.463,54.929],[43.42,54.951],[43.389,54.955],[43.248,54.94],[43.145,54.9],[43.081,54.909],[42.531,54.834],[42.466,54.876],[42.393,54.815],[41.995,54.761],[40.568,54.761],[40.565,54.768],[40.76,55.452],[39.378,55.847],[38.687,55.452],[38.39,55.057],[37.452,55.106],[37.256,54.221],[37.253,54.218],[36.598,54.255],[36.221,54.267],[36.218,54.27],[36.169,54.761],[34.489,54.712],[34.096,55.106],[34.441,56.242],[33.255,56.489],[32.417,57.278],[31.281,57.278],[30.738,56.982],[30.935,56.388],[30.689,55.9],[30.684,55.9],[29.948,56.538],[29.06,56.538],[28.813,56.882],[28.813,57.575],[28.418,57.92],[28.319,58.661],[27.662,58.939],[27.702,59.296],[27.86965,59.33966],[27.894,59.346],[28.04356,59.46776],[28.0951,59.58624],[28.05048,59.64766],[28.02397,59.65664],[28.095,59.664]],[[55.542,62.059],[55.54,62.051],[55.433,61.97],[55.539,61.874],[55.656,61.898],[55.729,61.93],[56.313,61.684],[56.316,61.676],[56.18,61.419],[56.317,61.31],[56.382,61.437],[56.568,61.414],[56.599,61.485],[56.605,61.487],[56.642,61.484],[56.657,61.518],[57.081,61.47],[57.098,61.497],[58.846,61.491],[58.853,61.515],[58.92,61.527],[58.975,61.517],[58.997,61.53],[59.05,61.532],[59.123,61.589],[59.129,61.606],[59.151,61.625],[59.192,61.623],[59.209,61.634],[59.241,61.622],[59.282,61.636],[59.297,61.65],[59.352,61.659],[59.365,61.67],[59.36,61.689],[59.375,61.698],[59.376,61.712],[59.404,61.725],[59.426,61.752],[59.425,61.759],[59.395,61.77],[59.363,61.774],[59.347,61.789],[59.33,61.79],[59.323,61.801],[59.338,61.829],[59.336,61.845],[59.367,61.87],[59.406,61.88],[59.407,61.905],[59.41,61.908],[59.494,61.945],[59.47,61.997],[59.45,62.002],[59.445,62.007],[59.447,62.018],[59.433,62.044],[59.433,62.049],[59.442,62.056],[59.435,62.073],[59.438,62.096],[59.407,62.108],[59.405,62.152],[59.407,62.156],[59.446,62.182],[59.445,62.194],[59.462,62.205],[59.456,62.216],[59.46,62.232],[59.463,62.235],[59.492,62.241],[59.506,62.256],[59.515,62.279],[59.503,62.297],[59.52,62.31],[59.521,62.318],[59.57,62.329],[59.591,62.36],[59.618,62.372],[59.624,62.409],[59.599,62.418],[59.596,62.426],[59.61,62.441],[59.614,62.477],[59.625,62.489],[59.625,62.51],[59.634,62.52],[59.64,62.547],[59.551,62.551],[59.51,62.568],[59.465,62.568],[59.461,62.571],[59.461,62.577],[59.473,62.59],[59.476,62.607],[59.434,62.633],[59.434,62.639],[59.447,62.662],[59.412,62.674],[59.415,62.707],[59.392,62.726],[59.391,62.731],[59.393,62.749],[59.396,62.752],[59.417,62.755],[59.438,62.776],[59.449,62.829],[59.449,62.872],[59.466,62.883],[59.467,62.9],[59.452,62.922],[59.436,62.923],[59.417,62.938],[59.327,62.947],[59.3,62.966],[59.296,62.979],[59.274,62.987],[59.228,62.988],[59.212,63.027],[59.238,63.053],[59.247,63.083],[59.14,63.117],[59.138,63.138],[59.122,63.153],[59.122,63.157],[59.136,63.176],[59.076,63.22],[59.069,63.271],[59.023,63.282],[58.979,63.277],[58.871,63.295],[58.833,63.292],[58.713,63.34],[58.371,63.308],[58.367,63.311],[58.354,63.344],[58.358,63.361],[58.257,63.575],[58.138,63.618],[58.119,63.608],[58.104,63.573],[58.07,63.551],[58.064,63.551],[58.026,63.574],[57.995,63.582],[57.989,63.597],[57.956,63.606],[57.953,63.636],[57.897,63.684],[57.847,63.638],[57.797,63.57],[57.788,63.567],[57.476,63.146],[56.796,63.249],[56.772,63.221],[56.721,63.226],[56.682,63.17],[56.325,63.226],[56.321,63.229],[56.321,63.235],[56.339,63.255],[56.325,63.301],[56.167,63.325],[56.154,63.318],[56.075,63.329],[56.071,63.336],[56.095,63.368],[56.092,63.375],[55.789,63.417],[55.778,63.411],[55.71,63.427],[55.578,63.248],[55.586,63.24],[55.585,63.234],[55.454,63.052],[55.451,63.049],[55.376,63.046],[55.277,62.849],[55.282,62.843],[55.334,62.851],[55.374,62.819],[55.461,62.834],[55.505,62.792],[55.506,62.786],[55.501,62.782],[55.402,62.779],[55.32,62.786],[55.257,62.801],[55.185,62.676],[55.155,62.594],[55.152,62.591],[55.126,62.588],[55.131,62.568],[55.478,62.546],[55.482,62.542],[55.482,62.537],[55.243,62.254],[55.535,62.071],[55.542,62.059]]],[[[35.64841,65.1352],[35.63885,65.1324],[35.6579,65.13001],[35.66315,65.13279],[35.64363,65.1435],[35.66772,65.16713],[35.75859,65.17228],[35.83967,65.13758],[35.82609,65.12403],[35.85338,65.10234],[35.82457,65.09619],[35.85734,65.05663],[35.83972,65.04852],[35.85044,65.04081],[35.86371,65.03922],[35.85582,65.03684],[35.81375,65.05165],[35.81246,65.08829],[35.78667,65.09856],[35.79853,65.09273],[35.76686,65.0872],[35.75579,65.06863],[35.76937,65.06469],[35.75092,65.06233],[35.74304,65.03925],[35.8121,65.04666],[35.88022,65.0188],[35.89883,65.02782],[35.88021,65.04264],[35.97901,65.0569],[36.02358,65.03433],[36.00564,65.01976],[35.94637,65.0256],[35.91291,65.01549],[35.85935,65.01798],[35.84464,65.00446],[35.87827,64.98999],[35.82493,64.98899],[35.75141,64.95493],[35.70764,64.99754],[35.72212,65.0095],[35.68707,65.02246],[35.70382,65.02787],[35.56372,65.05315],[35.50476,65.09715],[35.51739,65.13586],[35.53775,65.14548],[35.60515,65.15408],[35.56608,65.14245],[35.58875,65.13667],[35.56535,65.12686],[35.60644,65.12736],[35.64119,65.14177],[35.63839,65.13723],[35.64317,65.13879],[35.65883,65.13115],[35.64841,65.1352]]],[[[35.95708,65.18065],[35.95681,65.17027],[35.97594,65.15983],[35.96907,65.18023],[36.00497,65.18626],[36.0625,65.15591],[36.274,65.15661],[36.07328,65.12466],[35.93049,65.15438],[35.93436,65.17989],[35.98977,65.19346],[35.95708,65.18065]]],[[[34.84625,64.74655],[34.8899,64.75942],[35.02167,64.7437],[34.82522,64.70873],[34.84625,64.74655]]],[[[34.91228,65.7784],[34.99004,65.78789],[34.98572,65.77086],[34.95665,65.76792],[35.02056,65.75268],[34.96588,65.72757],[34.90068,65.74103],[34.9469,65.74292],[34.91045,65.76083],[34.92327,65.76627],[34.91228,65.7784]]],[[[33.91181,66.28229],[33.97134,66.26618],[33.85699,66.25522],[33.78607,66.27612],[33.91181,66.28229]]],[[[33.7886,66.32911],[33.80788,66.31587],[33.76376,66.31364],[33.77959,66.30102],[33.64478,66.30445],[33.78807,66.33912],[33.7886,66.32911]]],[[[35.2846,64.40309],[35.30562,64.38517],[35.27268,64.35449],[35.21837,64.38642],[35.2846,64.40309]]],[[[33.83723,66.34774],[33.85116,66.33667],[33.8062,66.33517],[33.79591,66.36004],[33.85935,66.35932],[33.83723,66.34774]]],[[[32.37476,67.09839],[32.32385,67.1011],[32.3919,67.10234],[32.44426,67.08498],[32.38539,67.07815],[32.37476,67.09839]]],[[[34.69725,65.19429],[34.72687,65.19063],[34.71367,65.17492],[34.64754,65.18794],[34.69725,65.19429]]]]}}]}