{"type":"FeatureCollection","features":[{"type":"Feature","properties":{"mid":true,"src":"data/years/1500.geojson"},"geometry":{"type":"MultiPolygon","coordinates":[[[[32.83299,69.56715],[32.50537,69.60283],[32.42324,69.63482],[32.38701,69.61711],[32.17823,69.63362],[32.14965,69.65556],[32.1879,69.70003],[32.11645,69.74296],[32.09741,69.73973],[32.11181,69.72265],[32.08994,69.72684],[32.14758,69.71386],[32.14561,69.69992],[32.09445,69.65586],[32.05224,69.63343],[31.95314,69.62849],[32.05427,69.58965],[32.00078,69.5493],[32.09974,69.58172],[32.11496,69.57112],[32.12834,69.58878],[32.1784,69.58663],[32.43707,69.55479],[32.38788,69.51743],[32.50226,69.50161],[32.4887,69.47909],[32.42733,69.48083],[32.401,69.46595],[32.41042,69.45745],[32.35889,69.45801],[32.25989,69.42234],[32.32792,69.41826],[32.37186,69.42755],[32.36453,69.43903],[32.43059,69.42893],[32.40788,69.44267],[32.44144,69.44894],[32.44306,69.47102],[32.51512,69.46192],[32.53913,69.48696],[32.5526,69.48577],[32.54007,69.47211],[32.57761,69.48143],[32.56995,69.4573],[32.59771,69.46015],[32.60522,69.42453],[32.60776,69.44851],[32.65179,69.47192],[32.90081,69.46377],[32.8044,69.41528],[32.81646,69.40903],[32.7876,69.38157],[32.80454,69.37302],[32.8311,69.41728],[32.9104,69.44419],[33.07402,69.45234],[32.90371,69.38195],[32.93557,69.36904],[32.88354,69.32869],[32.82994,69.3309],[32.81504,69.32578],[32.84703,69.32253],[32.84072,69.3022],[32.88373,69.27588],[32.93645,69.3175],[32.95122,69.35618],[33.04905,69.38088],[33.07569,69.37862],[33.05173,69.36121],[33.06202,69.35089],[33.08369,69.38592],[33.29151,69.41084],[33.27942,69.41717],[33.30908,69.42853],[33.3825,69.41071],[33.43864,69.42479],[33.43669,69.41053],[33.50089,69.39961],[33.40405,69.34988],[33.47528,69.36147],[33.48757,69.33802],[33.42982,69.30424],[33.35788,69.29824],[33.39896,69.28637],[33.25511,69.28599],[33.30512,69.27398],[33.20977,69.25325],[33.24621,69.24204],[33.34418,69.25922],[33.35265,69.27419],[33.45368,69.26364],[33.45937,69.24602],[33.41877,69.23111],[33.26729,69.22158],[33.42045,69.22088],[33.36536,69.18925],[33.38276,69.18178],[33.4263,69.21804],[33.44913,69.20357],[33.49963,69.20208],[33.46973,69.1777],[33.47896,69.15503],[33.40714,69.14291],[33.41876,69.13826],[33.38952,69.11269],[33.27846,69.08458],[33.04761,69.06578],[33.0316,69.05206],[33.04309,69.04427],[32.99712,69.02912],[33.02309,69.02458],[33.00894,69.00677],[33.03056,68.9803],[33.00132,68.94702],[33.02835,68.90774],[33.00516,68.88582],[33.0626,68.89601],[33.02667,68.93859],[33.06791,68.98049],[33.04989,68.99303],[33.07325,69.0492],[33.26908,69.06297],[33.25619,69.04719],[33.29311,69.07415],[33.34865,69.08228],[33.37145,69.0635],[33.46896,69.08292],[33.4393,69.10582],[33.53989,69.15111],[33.58414,69.1317],[33.57319,69.19415],[33.64005,69.1762],[33.5753,69.19938],[33.55587,69.2305],[33.62946,69.26792],[33.54956,69.25785],[33.56147,69.29523],[33.5989,69.30175],[33.67372,69.30122],[33.65441,69.28933],[33.74217,69.30737],[33.68866,69.28067],[33.69262,69.26154],[33.80017,69.29806],[33.84594,69.25844],[33.88692,69.26614],[33.82242,69.29391],[33.8357,69.30046],[33.82474,69.30984],[33.90132,69.29517],[33.94767,69.31549],[34.07759,69.29765],[34.31215,69.30302],[34.40193,69.29146],[34.36551,69.26469],[34.45982,69.26875],[34.4778,69.25301],[34.57129,69.26039],[34.62631,69.25394],[34.64043,69.23352],[34.67352,69.24404],[34.80711,69.22575],[34.78239,69.21497],[34.87872,69.22505],[34.90994,69.2184],[34.90754,69.19713],[34.97847,69.21628],[34.91976,69.17356],[34.93724,69.16579],[35.00178,69.21247],[35.12742,69.2027],[35.11834,69.16502],[35.14832,69.12615],[35.18142,69.11756],[35.16599,69.11444],[35.18317,69.11699],[35.12929,69.16881],[35.17638,69.17208],[35.19227,69.18047],[35.16199,69.18453],[35.20384,69.19549],[35.2592,69.1822],[35.28924,69.20341],[35.15139,69.25017],[35.25062,69.25455],[35.34692,69.24128],[35.37562,69.22075],[35.44285,69.23195],[35.53413,69.22363],[35.58441,69.19852],[35.60079,69.20974],[35.66478,69.19068],[35.70982,69.2018],[35.7679,69.17884],[35.86383,69.18441],[36.04314,69.11302],[36.04222,69.08397],[36.06671,69.10019],[36.04566,69.13851],[36.07495,69.13313],[36.06122,69.11978],[36.09839,69.10882],[36.11199,69.12419],[36.20752,69.098],[36.21456,69.11159],[36.22478,69.09339],[36.2878,69.09669],[36.31358,69.07594],[36.24705,69.07824],[36.32441,69.0593],[36.34561,69.03662],[36.37065,69.03771],[36.36194,69.05449],[36.40125,69.02864],[36.53514,69.01099],[36.50283,68.98858],[36.56271,69.01369],[36.6205,69.00098],[36.6319,68.98044],[36.70268,68.97739],[36.74038,68.96551],[36.69749,68.95753],[36.71042,68.95135],[36.78216,68.95022],[36.77523,68.93279],[36.82851,68.91928],[36.78573,68.9048],[36.88328,68.91655],[36.87225,68.90815],[37.02893,68.87308],[37.0161,68.86358],[37.188,68.83507],[37.24348,68.79541],[37.38529,68.7737],[37.44432,68.73577],[37.55781,68.72559],[37.57689,68.7162],[37.55869,68.71243],[37.57365,68.70481],[37.56076,68.68477],[37.5879,68.71345],[37.63045,68.68656],[37.80497,68.64468],[37.74301,68.62606],[37.82499,68.62668],[37.80911,68.58742],[37.85637,68.60937],[37.87208,68.59124],[37.98109,68.56936],[38.00402,68.54902],[37.98465,68.54281],[38.06167,68.52302],[38.04108,68.51673],[38.07536,68.50838],[38.08525,68.48137],[38.18412,68.4685],[38.20923,68.44958],[38.20573,68.43145],[38.2506,68.44356],[38.27851,68.4326],[38.28055,68.41237],[38.3342,68.41611],[38.31331,68.4139],[38.35768,68.4012],[38.36462,68.3621],[38.28718,68.35176],[38.37002,68.35869],[38.37702,68.38209],[38.3868,68.3856],[38.42286,68.36055],[38.4018,68.35702],[38.42372,68.35879],[38.39806,68.32146],[38.41661,68.32375],[38.40757,68.3036],[38.42956,68.30631],[38.44041,68.28764],[38.43383,68.34063],[38.45639,68.35197],[38.44446,68.33878],[38.7052,68.28039],[38.75616,68.24233],[38.78534,68.24543],[38.7682,68.26797],[38.73672,68.26304],[38.75125,68.27262],[38.70838,68.29716],[38.62826,68.30001],[38.49389,68.34846],[38.55415,68.35623],[38.59968,68.32824],[38.6266,68.34242],[38.605,68.36341],[38.63093,68.36676],[38.64798,68.37524],[38.64715,68.356],[38.69329,68.35134],[38.77669,68.30467],[38.8913,68.30041],[38.9741,68.27219],[38.91786,68.27299],[38.98412,68.23279],[39.08856,68.20461],[39.10237,68.19125],[39.09018,68.17903],[39.1082,68.18499],[39.08426,68.1671],[39.16862,68.1958],[39.49762,68.05465],[39.70573,67.99996],[39.63494,68.03492],[39.66864,68.05203],[39.75239,68.02455],[39.87003,68.03342],[39.74111,68.15846],[39.89674,68.09979],[40.00564,67.98554],[40.07213,67.98518],[40.10789,67.94918],[40.16858,67.93741],[40.15858,67.92465],[40.22448,67.93164],[40.19261,67.91173],[40.22986,67.92785],[40.25582,67.9137],[40.23228,67.91294],[40.24033,67.90107],[40.28761,67.91417],[40.25457,67.88644],[40.30528,67.90059],[40.3186,67.89819],[40.29086,67.88294],[40.33218,67.89897],[40.37586,67.88732],[40.36525,67.86046],[40.40055,67.86542],[40.39406,67.8439],[40.27328,67.84047],[40.41888,67.75682],[40.45539,67.76388],[40.50176,67.73086],[40.5436,67.73278],[40.53231,67.74246],[40.57742,67.76392],[40.55694,67.79669],[40.5863,67.8049],[40.58549,67.79231],[40.6118,67.80132],[40.63762,67.78589],[40.62847,67.7998],[40.64303,67.80186],[40.79047,67.71478],[40.911,67.72719],[40.91777,67.70664],[40.98261,67.69576],[40.97453,67.68206],[41.0198,67.65638],[41.01075,67.64066],[41.02857,67.64494],[41.01217,67.63165],[41.03722,67.63396],[41.01772,67.57668],[40.95306,67.55663],[40.99852,67.53818],[40.99163,67.52237],[41.01401,67.50612],[40.9691,67.46396],[40.98563,67.4601],[40.94819,67.44032],[41.01232,67.4612],[41.08094,67.44673],[41.09633,67.42429],[41.08371,67.41587],[41.11891,67.40997],[41.10263,67.36728],[41.11394,67.32232],[41.08069,67.24981],[41.13295,67.2176],[41.24349,67.19906],[41.31464,67.21782],[41.35257,67.19299],[41.3044,67.14236],[41.27774,67.13804],[41.39269,67.11259],[41.34732,67.07458],[41.32164,67.07877],[41.3448,67.05965],[41.34384,66.99009],[41.3037,66.97336],[41.25076,66.97934],[41.28626,66.93562],[41.25606,66.92218],[41.24169,66.85426],[41.21094,66.82225],[41.08238,66.74079],[40.97319,66.71958],[40.99048,66.70813],[40.79912,66.60943],[40.6933,66.5838],[40.69231,66.53058],[40.60966,66.50281],[40.58175,66.51706],[40.58887,66.50252],[40.55742,66.47759],[40.57075,66.46022],[40.50179,66.42478],[40.49013,66.43374],[40.46968,66.40975],[40.3691,66.38053],[40.3046,66.39119],[40.31647,66.37755],[40.29263,66.38342],[40.00342,66.25587],[39.78257,66.21513],[39.51266,66.1947],[39.11297,66.10219],[38.86189,66.10839],[38.88238,66.10321],[38.76956,66.07319],[38.31974,66.05649],[37.72693,66.10512],[37.34439,66.20425],[36.94387,66.26727],[36.51706,66.27561],[35.55389,66.38373],[35.35153,66.42504],[35.33774,66.43206],[35.36042,66.43788],[35.32575,66.4712],[35.20404,66.46826],[35.16972,66.49868],[35.10579,66.50791],[34.89814,66.59419],[34.75111,66.60056],[34.69097,66.58659],[34.70232,66.57153],[34.65896,66.55643],[34.46157,66.54116],[34.3879,66.58581],[34.36714,66.61881],[34.50535,66.63152],[34.38117,66.64555],[34.35663,66.6634],[34.37429,66.67653],[34.35189,66.69937],[34.35942,66.67475],[34.33886,66.65511],[34.32543,66.66488],[34.34053,66.68523],[34.31803,66.6595],[34.29971,66.6653],[34.30938,66.67226],[34.30716,66.67756],[34.28862,66.66216],[34.22725,66.66656],[34.25392,66.71565],[34.20639,66.66301],[34.20381,66.68104],[34.17295,66.68059],[34.1834,66.69898],[34.17968,66.70335],[34.14326,66.68562],[34.15559,66.67354],[34.09287,66.67403],[34.14055,66.69495],[34.18379,66.74581],[34.17245,66.77701],[34.15065,66.78596],[34.14349,66.75229],[34.16377,66.74247],[34.14377,66.73746],[34.13028,66.70251],[34.0813,66.70686],[34.09761,66.69251],[34.06393,66.68054],[34.05245,66.71176],[34.06869,66.72112],[34.03264,66.74495],[34.05598,66.7528],[34.05362,66.76011],[34.0148,66.74856],[34.05019,66.72127],[34.02468,66.68519],[33.92491,66.68552],[33.89564,66.72099],[33.85227,66.71722],[33.87783,66.6955],[33.82049,66.72234],[33.81092,66.75591],[33.82983,66.76471],[33.73523,66.77092],[33.70206,66.78753],[33.69083,66.82114],[33.65772,66.79964],[33.60688,66.85198],[33.61794,66.82579],[33.5998,66.80942],[33.62524,66.78662],[33.57808,66.79694],[33.57604,66.81719],[33.5463,66.82764],[33.55524,66.79381],[33.54205,66.79846],[33.64311,66.73366],[33.53702,66.77691],[33.60782,66.73015],[33.56049,66.7396],[33.54908,66.75387],[33.51911,66.7665],[33.54283,66.74494],[33.63071,66.71398],[33.63192,66.70484],[33.54314,66.73368],[33.55819,66.71883],[33.50329,66.71702],[32.97789,66.89771],[32.86002,66.96363],[32.78903,67.03011],[32.79823,67.05709],[32.99828,67.08396],[32.76248,67.07508],[32.64181,67.11745],[32.49112,67.11233],[32.37604,67.15851],[32.32275,67.16747],[32.34036,67.15045],[32.26191,67.14256],[32.27908,67.13534],[32.27087,67.12127],[32.15694,67.14047],[32.13366,67.1323],[32.15013,67.12982],[32.13266,67.12056],[32.1469,67.11261],[32.13152,67.11375],[32.13588,67.10683],[31.91694,67.14517],[31.87002,67.13948],[31.96816,67.1168],[31.92948,67.10836],[32.04571,67.09679],[32.18696,67.10682],[32.14607,67.11599],[32.16936,67.12152],[32.25459,67.1217],[32.24051,67.11246],[32.35405,67.06971],[32.28241,67.07081],[32.32416,67.04717],[32.31095,67.03921],[32.48029,67.02594],[32.56599,66.97688],[32.57175,66.95681],[32.52148,66.95575],[32.53806,66.94419],[32.53852,66.93626],[32.52822,66.93251],[32.41651,66.9469],[32.41308,66.93406],[32.49006,66.92876],[32.44867,66.9168],[32.50399,66.89658],[32.46673,66.89115],[32.49359,66.88014],[32.38671,66.86942],[32.54064,66.8734],[32.70571,66.80705],[32.70911,66.79418],[32.67721,66.80725],[32.67129,66.79512],[32.76538,66.76828],[32.85146,66.77478],[32.95631,66.72875],[32.90475,66.72651],[32.87113,66.73063],[32.8472,66.73778],[32.83787,66.73767],[32.82567,66.74207],[32.81912,66.74165],[32.88673,66.71425],[32.8588,66.71232],[32.77594,66.7411],[32.8184,66.73864],[32.80512,66.75251],[32.6841,66.74931],[32.76633,66.73683],[32.86812,66.69604],[32.85386,66.695],[32.85493,66.6914],[33.18807,66.67308],[33.31925,66.63776],[33.28719,66.62967],[33.32409,66.60837],[33.26071,66.6337],[33.11763,66.64225],[33.13667,66.6337],[33.11228,66.62594],[33.11929,66.60194],[33.05939,66.58903],[33.09859,66.58182],[32.82108,66.59296],[32.88167,66.56631],[33.19572,66.53812],[32.93141,66.51894],[33.05568,66.49805],[33.23703,66.51951],[33.25363,66.50095],[33.31104,66.49779],[33.27107,66.4892],[33.30312,66.47273],[33.52271,66.44236],[33.54947,66.44353],[33.51961,66.45648],[33.53642,66.45346],[33.54567,66.47523],[33.60763,66.47401],[33.6282,66.46639],[33.55086,66.45212],[33.59132,66.43036],[33.71782,66.41333],[33.52957,66.39984],[33.46271,66.37798],[33.60512,66.36745],[33.57966,66.35798],[33.67691,66.33964],[33.666,66.33452],[33.41398,66.32476],[33.21538,66.27955],[33.07702,66.27579],[32.98192,66.24936],[33.25142,66.27283],[33.348,66.30561],[33.37732,66.29751],[33.4673,66.30197],[33.43455,66.29087],[33.57332,66.31478],[33.63184,66.30583],[33.58046,66.29536],[33.61065,66.29199],[33.56315,66.27565],[33.74953,66.27672],[33.83147,66.24978],[33.79478,66.24856],[33.78746,66.24252],[33.91069,66.23446],[33.8708,66.22135],[33.89767,66.21242],[33.87911,66.20048],[33.94918,66.2246],[34.10943,66.22671],[34.15236,66.20437],[34.13468,66.19488],[34.18188,66.18857],[34.14135,66.16681],[34.20194,66.17273],[34.21789,66.16805],[34.17116,66.16715],[34.3179,66.14406],[34.53868,66.0691],[34.55824,66.05196],[34.53637,66.04558],[34.58444,66.04781],[34.60828,66.03378],[34.58338,66.03161],[34.61965,66.0143],[34.60626,66.00979],[34.698,65.98346],[34.71228,65.95921],[34.66344,65.95636],[34.67578,65.94623],[34.6628,65.94032],[34.68401,65.94255],[34.63429,65.92036],[34.70336,65.91756],[34.66075,65.90201],[34.69874,65.89889],[34.68282,65.87611],[34.73793,65.90347],[34.85654,65.86581],[34.81381,65.84721],[34.8373,65.84748],[34.81572,65.83862],[34.83167,65.83706],[34.81895,65.8194],[34.77513,65.81043],[34.85019,65.8008],[34.8974,65.81739],[34.86279,65.81678],[34.87645,65.83067],[34.91955,65.81494],[34.88778,65.81257],[34.9049,65.79472],[34.88568,65.79471],[34.91559,65.76839],[34.86344,65.77564],[34.85265,65.76216],[34.87003,65.76286],[34.83728,65.75438],[34.97614,65.7163],[34.94668,65.7107],[34.97877,65.70881],[34.93068,65.67469],[34.79593,65.72769],[34.80711,65.73813],[34.74755,65.7655],[34.70296,65.7632],[34.74198,65.76811],[34.69809,65.766],[34.72981,65.77528],[34.67373,65.78946],[34.68776,65.79673],[34.66018,65.79383],[34.71072,65.77669],[34.65543,65.75631],[34.69453,65.74036],[34.68227,65.72769],[34.71318,65.73149],[34.68622,65.72251],[34.68313,65.71027],[34.71227,65.70838],[34.68037,65.70065],[34.68274,65.69358],[34.71979,65.70905],[34.77274,65.68612],[34.68602,65.66813],[34.72681,65.66442],[34.69775,65.65258],[34.75739,65.65326],[34.71945,65.64409],[34.73437,65.64217],[34.72459,65.62812],[34.75296,65.62718],[34.74873,65.6045],[34.79682,65.5808],[34.73657,65.58268],[34.71024,65.55758],[34.75312,65.5484],[34.7366,65.53294],[34.75355,65.52924],[34.63268,65.48686],[34.67623,65.46494],[34.66522,65.4583],[34.68868,65.43553],[34.45636,65.43024],[34.5313,65.40555],[34.47403,65.40664],[34.50899,65.39018],[34.50068,65.38775],[34.44141,65.4104],[34.42821,65.41073],[34.45223,65.3945],[34.35296,65.40624],[34.4431,65.36661],[34.36151,65.38068],[34.30699,65.37968],[34.27129,65.37096],[34.50041,65.32759],[34.44645,65.31698],[34.47826,65.30901],[34.46371,65.30814],[34.47829,65.29687],[34.47141,65.26983],[34.45666,65.26935],[34.47275,65.25624],[34.48199,65.25466],[34.50831,65.25539],[34.49719,65.24747],[34.50923,65.23941],[34.51316,65.25483],[34.53271,65.25515],[34.53939,65.22246],[34.52397,65.21994],[34.60593,65.22471],[34.60671,65.20731],[34.65952,65.19446],[34.59871,65.19589],[34.66551,65.18072],[34.65528,65.16535],[34.69121,65.15676],[34.63746,65.14107],[34.66269,65.12427],[34.64593,65.11316],[34.67966,65.12091],[34.66172,65.10158],[34.70243,65.08987],[34.68564,65.07855],[34.78329,65.07895],[34.78863,65.05919],[34.75628,65.03721],[34.79967,65.01634],[34.77404,64.99468],[34.83079,65.02162],[34.78154,64.98068],[34.60797,64.95135],[34.76861,64.953],[34.82763,64.92084],[34.8209,64.90173],[34.83767,64.91388],[34.84386,64.89878],[34.89573,64.89142],[34.87963,64.87159],[34.91812,64.8528],[34.92058,64.83412],[34.96142,64.83624],[34.92768,64.79989],[34.8771,64.78307],[34.88217,64.76673],[34.81853,64.76072],[34.77954,64.73167],[34.81837,64.72392],[34.80678,64.7119],[34.8407,64.67809],[34.91266,64.66198],[34.89962,64.65483],[34.92984,64.63801],[34.91268,64.63288],[34.96861,64.63053],[34.97554,64.6204],[34.97005,64.61762],[34.96767,64.61533],[34.96862,64.61444],[34.99003,64.61147],[34.81551,64.54423],[34.85936,64.53806],[34.78103,64.52604],[34.75911,64.53407],[34.73132,64.53082],[34.69959,64.52407],[34.68293,64.50916],[34.77213,64.52517],[34.78652,64.5101],[34.82974,64.51409],[34.80945,64.5021],[34.86756,64.50267],[34.88934,64.48028],[34.91655,64.4986],[34.97873,64.48489],[34.95675,64.50479],[35.0114,64.50609],[35.00296,64.49481],[35.02994,64.48213],[34.98896,64.47388],[34.99776,64.45611],[34.9747,64.45091],[34.98312,64.42996],[34.96379,64.41826],[35.03989,64.404],[35.11827,64.41896],[35.14519,64.34978],[35.34186,64.34391],[35.32458,64.30033],[35.37741,64.30188],[35.40361,64.28366],[35.54523,64.33019],[35.61397,64.32412],[35.62674,64.34666],[35.5882,64.38002],[35.6983,64.36172],[35.75497,64.32128],[35.83164,64.32109],[35.89527,64.28657],[35.9243,64.26438],[35.89418,64.23748],[35.93757,64.22712],[35.92663,64.22119],[35.95958,64.20824],[35.95458,64.19119],[36.00789,64.18412],[36.04697,64.21274],[36.14,64.17607],[36.15528,64.14969],[36.24146,64.12762],[36.17854,64.10354],[36.17158,64.09035],[36.19123,64.07735],[36.17603,64.07389],[36.26197,64.05271],[36.24913,64.00513],[36.3004,63.97103],[36.31404,63.98932],[36.3488,63.98835],[36.46051,63.9788],[36.45596,63.96612],[36.51391,63.95367],[36.5169,63.89263],[36.51744,63.89258],[36.51801,63.87001],[36.62004,63.86391],[36.98543,63.84207],[37.06949,63.82384],[37.14564,63.80733],[37.41,63.75001],[37.59071,63.80688],[37.69197,63.8192],[37.76794,63.82845],[37.93562,63.84886],[37.94499,63.85001],[37.94702,63.85253],[37.9472,63.85259],[38.06652,63.99226],[38.07171,64.00015],[38.07499,64.00914],[38.04375,64.02753],[38.05988,64.07149],[38.00715,64.11452],[37.9995,64.14751],[37.93461,64.16057],[37.89133,64.21163],[38.01035,64.28824],[37.91587,64.31015],[37.9146,64.32535],[37.95277,64.33152],[37.93959,64.34253],[37.78819,64.36772],[37.79064,64.43825],[37.65405,64.42409],[37.61499,64.35514],[37.56618,64.36871],[37.56263,64.37574],[37.56839,64.37595],[37.57492,64.37911],[37.57433,64.38707],[37.45482,64.38032],[37.33265,64.34172],[37.15075,64.38487],[36.91841,64.52684],[36.78365,64.62888],[36.7378,64.68898],[36.62256,64.71935],[36.57373,64.76027],[36.62638,64.81358],[36.62647,64.82039],[36.65169,64.84463],[36.65906,64.84667],[36.75718,64.94603],[36.83027,64.96997],[36.80943,65.00212],[36.88149,65.06533],[36.91376,65.06568],[36.91487,65.06797],[37.10356,65.06772],[37.604,64.85301],[37.94737,64.77364],[38.01204,64.75869],[37.99573,64.74458],[38.00424,64.72738],[38.12468,64.673],[37.9945,64.61358],[38.01639,64.61004],[37.98216,64.59244],[38.01953,64.59452],[38.01286,64.58354],[38.04824,64.60261],[38.05677,64.6373],[38.15031,64.656],[38.1326,64.68607],[38.15153,64.70781],[38.20567,64.71394],[38.36057,64.6821],[39.193,64.51101],[39.62187,64.476],[39.70054,64.48962],[39.80118,64.50704],[39.99729,64.541],[40.322,64.46301],[40.43999,64.563],[40.46199,64.75],[40.46127,64.75081],[40.46125,64.75078],[40.32004,64.89902],[40.33619,64.89165],[40.32892,64.90408],[40.321,64.91199],[40.28233,64.93297],[40.27514,64.939],[40.2752,64.94263],[40.27366,64.9477],[40.24099,64.98199],[40.179,65.001],[40.1506,65.05271],[40.05061,65.10373],[40.01229,65.16695],[39.9619,65.18487],[39.88664,65.32174],[39.82483,65.43414],[39.8273,65.44048],[39.94853,65.57832],[39.95396,65.58208],[39.97865,65.5872],[40.25692,65.66913],[40.26303,65.67228],[40.68018,65.79376],[41.35411,65.95504],[41.623,66.06501],[42.13428,66.38794],[42.21085,66.41],[42.59458,66.35078],[42.71813,66.33172],[43.2424,66.25081],[43.876,66.01101],[43.96907,66.011],[44.0249,66.011],[44.03246,65.98554],[44.02634,65.98665],[44.02659,65.98814],[44.02503,65.9883],[44.0189,65.9827],[44.11811,65.93308],[44.12825,65.88522],[44.19352,65.81169],[44.21381,65.83198],[44.1803,65.86894],[44.23413,65.84586],[44.22207,65.86117],[44.19105,65.87032],[44.18901,65.87578],[44.18482,65.87959],[44.16682,65.88537],[44.15166,65.90907],[44.18652,65.89494],[44.1616,65.91117],[44.16604,65.92858],[44.10884,65.97665],[44.10484,65.97857],[44.10141,65.97943],[44.08874,65.97872],[44.08399,65.98558],[44.16225,66.04538],[44.16212,66.04116],[44.18223,66.04055],[44.16315,66.04193],[44.16259,66.06869],[44.14643,66.10287],[44.09114,66.16538],[44.12265,66.26748],[44.22275,66.39967],[44.3018,66.40799],[44.30859,66.40633],[44.47163,66.36655],[44.577,66.30301],[44.859,66.23101],[44.93659,66.22688],[45.741,66.06301],[45.83335,66.08296],[46.34726,66.02291],[47.10889,65.81603],[47.15383,65.81102],[47.40724,65.831],[47.66,65.80301],[47.728,65.81401],[47.75299,65.82801],[47.76899,65.849],[47.76799,65.863],[47.73671,65.91212],[47.73799,65.91695],[47.75704,65.93698],[47.92158,66.0312],[47.97692,66.05387],[48.074,66.07101],[48.12315,66.1141],[48.1557,66.12487],[48.99063,66.11387],[48.99597,66.10733],[48.99602,65.99684],[49.01101,65.85586],[49.04901,65.22201],[49.63302,65.28248],[50.231,64.82601],[50.36676,64.81202],[50.48574,64.7902],[50.49202,64.78426],[50.49501,64.76801],[50.52628,64.76888],[50.64679,64.73206],[50.72625,64.71955],[50.72931,64.71211],[50.72101,64.706],[50.72701,64.688],[50.774,64.65901],[50.85773,64.66098],[50.888,64.65261],[50.894,64.64401],[50.91609,64.64295],[50.92401,64.61901],[50.93736,64.61652],[50.94001,64.608],[50.97254,64.59256],[50.97672,64.58764],[50.97601,64.581],[50.98484,64.57212],[50.98397,64.56695],[50.94801,64.515],[50.97884,64.50269],[50.97848,64.49718],[50.96401,64.47301],[51.04513,64.46311],[51.05012,64.4594],[51.05017,64.45433],[51.02401,64.403],[51.02601,64.39701],[51.276,64.37701],[51.30713,64.44933],[51.383,64.44601],[51.41992,64.5088],[51.42675,64.51194],[51.93427,64.46906],[51.93915,64.46577],[51.94001,64.45901],[53.11986,64.32902],[53.184,64.33998],[53.57252,64.35],[53.672,64.33401],[53.68677,64.345],[53.90386,64.32801],[54.244,64.28501],[54.76099,64.37901],[54.75987,64.38707],[54.57128,64.49272],[54.56605,64.50074],[54.64731,64.81892],[54.76477,65.17233],[54.78657,65.20872],[55.29599,65.544],[55.36807,65.77202],[55.44502,65.79388],[55.497,65.79501],[55.50847,65.80601],[55.53499,65.81301],[55.53499,65.833],[55.506,65.85799],[55.06146,65.85925],[54.50486,66.08805],[53.79907,66.36111],[53.79599,66.36618],[53.76504,66.98727],[53.76961,66.99371],[59.87868,66.997],[59.88487,66.99425],[59.88625,66.98876],[59.86801,66.97499],[59.86901,66.96301],[59.919,66.94901],[60.08265,66.985],[61.43185,66.995],[61.4943,67.01397],[61.62488,67.00701],[61.66086,67.01098],[61.69799,67.02601],[61.73632,67.075],[61.831,67.10701],[61.85406,67.12202],[62.823,67.38301],[62.83999,67.397],[62.85499,67.435],[62.87489,67.57324],[62.87763,67.57768],[62.89512,67.59075],[63.074,67.64801],[63.10652,67.66954],[63.29499,67.71201],[63.30898,67.73193],[63.32788,67.7405],[63.422,67.76296],[63.691,67.75701],[63.70999,67.767],[63.7032,67.79427],[63.71127,67.80464],[63.873,67.83101],[63.94699,67.88],[63.95199,67.895],[63.91939,67.926],[63.92499,67.946],[63.91899,67.96399],[63.84441,68.00685],[63.83625,68.01743],[63.83891,68.02481],[63.86003,68.03388],[63.931,68.039],[64.03187,68.06197],[64.0838,68.08433],[64.326,68.12901],[64.35099,68.156],[64.347,68.16642],[64.35071,68.17261],[64.41769,68.19585],[64.53199,68.19601],[64.53899,68.219],[64.5231,68.25131],[64.52899,68.279],[64.50537,68.29971],[64.50088,68.31432],[64.52606,68.3399],[64.55905,68.35421],[64.761,68.40096],[64.806,68.396],[64.907,68.39998],[65.006,68.38401],[65.03607,68.40006],[65.44512,68.42389],[65.44969,68.42059],[65.4495,68.41496],[65.41801,68.39],[65.39941,68.34741],[65.348,68.30899],[65.32645,68.2785],[65.29301,68.26599],[65.26901,68.232],[65.26801,68.215],[65.28584,68.18512],[65.29201,68.136],[65.32378,68.09023],[65.28601,68.025],[65.28601,68.01],[65.34257,67.98238],[65.389,67.943],[65.436,67.91501],[65.56632,67.929],[65.781,67.91901],[65.85,67.933],[65.91008,67.955],[65.998,67.92801],[66.06126,67.932],[66.08411,67.92536],[66.08711,67.92048],[66.08679,67.90646],[66.05501,67.882],[66.04602,67.84946],[66.01501,67.796],[66.074,67.77201],[66.13431,67.76386],[66.1935,67.73621],[66.20188,67.7239],[66.19994,67.695],[66.15148,67.66246],[66.106,67.65204],[66.0,67.68299],[65.94325,67.66809],[65.85,67.65899],[65.82801,67.64599],[65.81901,67.631],[65.82301,67.619],[65.83759,67.61241],[65.83919,67.60442],[65.80201,67.58899],[65.79101,67.568],[65.809,67.55301],[65.836,67.55001],[66.0334,67.56965],[66.10023,67.50645],[66.10359,67.49029],[66.08498,67.47103],[66.00421,67.41978],[65.93736,67.39814],[65.80537,67.38803],[65.7,67.39299],[65.67989,67.38289],[65.673,67.36815],[65.69952,67.34636],[65.70069,67.33921],[65.66182,67.31648],[65.587,67.30099],[65.5494,67.2708],[65.42204,67.22041],[65.325,67.20299],[65.2348,67.15446],[65.18801,67.14899],[65.18901,67.134],[65.20259,67.11949],[65.20001,67.101],[65.20833,67.08406],[65.20652,67.07801],[65.17167,67.06603],[65.089,67.05899],[65.07301,67.043],[65.07701,67.02301],[65.09883,67.00309],[65.10212,66.99662],[65.11092,66.91676],[65.10309,66.90121],[65.09765,66.8974],[64.99661,66.87014],[64.936,66.87399],[64.84708,66.84173],[64.575,66.80299],[64.55601,66.79],[64.53308,66.75412],[64.537,66.73946],[64.53291,66.73349],[64.411,66.72799],[64.32456,66.67697],[64.29528,66.66811],[64.1988,66.66897],[64.0856,66.654],[63.98,66.65599],[63.89903,66.59939],[63.848,66.58599],[63.80652,66.55217],[63.71752,66.528],[63.653,66.52399],[63.60307,66.49474],[63.54128,66.47611],[63.49728,66.47402],[63.44,66.48999],[63.41301,66.48499],[63.397,66.4526],[63.35995,66.42669],[63.294,66.39899],[63.27858,66.36462],[63.23701,66.33],[63.23701,66.309],[63.29741,66.27133],[63.30086,66.25603],[63.29244,66.24429],[63.26374,66.24109],[63.161,66.26899],[63.104,66.25499],[63.009,66.199],[62.97501,66.16499],[62.95729,66.11835],[62.85801,66.07799],[62.84733,66.04153],[62.81701,66.011],[62.86772,65.98412],[62.87019,65.97698],[62.79801,65.932],[62.84698,65.89269],[62.84975,65.88512],[62.84408,65.87744],[62.68088,65.86698],[62.522,65.84399],[62.1318,65.73323],[62.01401,65.71999],[62.01714,65.71195],[62.27346,65.61949],[62.322,65.53701],[62.40184,65.51109],[62.40247,65.50416],[62.36901,65.447],[62.433,65.37801],[62.479,65.34501],[62.51612,65.33398],[62.79525,65.2981],[62.80959,65.28895],[62.80201,65.245],[62.80896,65.20934],[62.79501,65.168],[62.805,65.12431],[62.79682,65.05358],[62.77558,65.00362],[62.72877,64.95131],[62.68301,64.921],[62.67301,64.891],[62.68201,64.86901],[62.78175,64.85021],[62.80593,64.83303],[62.81555,64.80614],[62.787,64.79699],[62.78101,64.785],[62.79891,64.73573],[62.74119,64.69675],[62.59001,64.64499],[62.58201,64.636],[62.57806,64.60325],[62.53301,64.57099],[62.52801,64.557],[62.54115,64.54594],[62.687,64.48901],[62.83268,64.49297],[62.899,64.47201],[62.96162,64.49797],[63.23424,64.51873],[63.33799,64.48198],[63.381,64.45901],[63.45505,64.45389],[63.49621,64.38338],[63.49665,64.37718],[63.421,64.34199],[63.41001,64.325],[63.477,64.28701],[63.53568,64.28184],[63.611,64.26301],[63.889,64.27901],[63.90299,64.289],[63.90582,64.30669],[63.91019,64.31295],[64.01654,64.35198],[64.478,64.35501],[64.6037,64.43197],[64.71183,64.42002],[64.76081,64.42199],[64.9955,64.461],[65.177,64.44101],[65.203,64.45001],[65.29406,64.51726],[65.38024,64.56058],[65.53722,64.56837],[66.03917,63.59954],[65.06201,62.969],[65.979,62.38801],[66.99082,62.21545],[67.84247,61.67807],[67.8392,61.66979],[67.77802,61.651],[68.22703,61.53192],[68.44301,61.09801],[69.38359,60.91379],[69.65929,60.67747],[69.66229,60.67012],[68.62017,59.80811],[66.81618,59.63102],[66.12295,59.60503],[65.406,60.00199],[62.97302,59.31801],[61.307,58.83599],[60.14379,58.14751],[58.58198,57.58009],[56.344,57.36099],[54.59646,57.06908],[54.39232,57.06711],[54.365,57.08099],[54.29861,57.08818],[54.28629,57.10057],[54.28906,57.10791],[54.315,57.119],[54.32799,57.137],[54.33199,57.211],[54.319,57.24397],[54.32999,57.276],[54.32299,57.28999],[54.282,57.30699],[54.16915,57.31898],[54.13572,57.3161],[54.13005,57.32109],[54.14578,57.37025],[54.16016,57.3871],[54.244,57.40701],[54.27399,57.424],[54.27799,57.44],[54.26799,57.46699],[54.25,57.47499],[54.20932,57.466],[54.18435,57.47161],[54.17527,57.5063],[54.20399,57.531],[54.17799,57.56099],[54.118,57.56299],[54.09374,57.52969],[54.088,57.52702],[54.04749,57.5347],[54.04403,57.54012],[54.04499,57.56299],[54.00913,57.5748],[54.01169,57.5825],[54.031,57.58501],[54.05206,57.59721],[54.12099,57.61301],[54.12199,57.626],[54.09426,57.63868],[54.08283,57.66579],[54.09899,57.68559],[54.145,57.69201],[54.16099,57.705],[54.13815,57.79345],[54.14099,57.831],[54.0953,57.90875],[54.104,57.97112],[54.09599,57.993],[53.99198,58.05898],[53.94762,58.09952],[53.93299,58.142],[53.90833,58.16365],[53.89,58.19399],[53.82069,58.22922],[53.82059,58.23582],[53.84802,58.27698],[53.89099,58.32],[53.879,58.33699],[53.79305,58.40233],[53.79005,58.40756],[53.78799,58.44299],[53.63732,58.44],[53.498,58.45499],[53.423,58.42899],[53.38734,58.40611],[53.33001,58.39304],[53.31545,58.39785],[53.306,58.41099],[53.22529,58.43034],[53.206,58.45099],[53.17108,58.45996],[53.16199,58.487],[53.14127,58.5043],[53.13399,58.54],[53.12,58.54799],[53.065,58.54699],[53.02384,58.531],[52.921,58.53899],[52.89601,58.514],[52.868,58.42101],[52.86164,58.41615],[52.33201,58.45493],[52.274,58.47999],[52.167,58.49499],[52.11435,58.479],[52.009,58.47699],[51.969,58.46899],[51.82748,58.37795],[51.79301,58.36499],[51.78613,58.28534],[51.739,58.257],[51.71258,58.21758],[51.67301,58.187],[51.66901,58.165],[51.681,58.14801],[51.711,58.13101],[51.76526,58.13597],[51.78717,58.1238],[51.81455,58.08379],[51.79101,58.051],[51.79001,58.033],[51.811,58.013],[51.8791,57.98171],[51.87646,57.95471],[51.83701,57.907],[51.84097,57.87457],[51.83201,57.851],[51.85,57.83801],[51.91548,57.82034],[51.91958,57.75718],[51.86701,57.727],[51.86787,57.67903],[51.84633,57.63153],[51.81944,57.60879],[51.75101,57.58],[51.74489,57.55366],[51.74049,57.54903],[51.68738,57.538],[51.639,57.54899],[51.62101,57.539],[51.59601,57.504],[51.5922,57.45766],[51.58775,57.45115],[51.58258,57.4512],[51.534,57.47499],[51.397,57.48299],[51.29075,57.4612],[51.214,57.46599],[51.179,57.45099],[51.16201,57.43299],[51.131,57.379],[51.11104,57.30713],[51.11601,57.264],[51.126,57.25101],[51.15532,57.23974],[51.16601,57.21401],[51.1861,57.20071],[51.18001,57.167],[51.186,57.15201],[51.23089,57.13829],[51.23105,57.13121],[51.21101,57.11],[51.22301,57.065],[51.31747,57.00053],[51.31858,56.99295],[51.31109,56.97431],[51.30694,56.97102],[50.1123,56.78716],[50.097,56.80099],[50.07243,56.80302],[50.06499,56.841],[50.018,56.86799],[49.97675,56.86709],[49.856,56.89899],[49.78061,56.896],[49.74854,56.9033],[49.74499,56.918],[49.73404,56.93593],[49.75999,56.957],[49.76399,56.971],[49.754,56.987],[49.72729,57.00223],[49.71522,57.03157],[49.71799,57.064],[49.71,57.07699],[49.528,57.07799],[49.49798,57.05908],[49.426,57.05599],[49.41301,57.046],[49.41056,57.03471],[49.40524,57.03108],[49.28568,57.04404],[49.26838,57.05185],[49.23737,57.08401],[49.23099,57.12899],[49.1616,57.15012],[49.14916,57.16291],[49.14923,57.18026],[49.18399,57.20701],[49.1884,57.24587],[49.21799,57.29],[49.185,57.33499],[49.00901,57.28099],[49.00301,57.232],[49.0317,57.21712],[49.03431,57.21016],[49.00601,57.18999],[48.99074,57.13297],[48.95001,57.09115],[48.86373,57.09063],[48.85645,57.09453],[48.85384,57.09991],[48.86599,57.122],[48.834,57.16399],[48.75919,57.17697],[48.693,57.17999],[48.65942,57.16119],[48.63976,57.159],[48.568,57.17699],[48.43501,57.132],[48.38303,57.13511],[48.365,57.15699],[48.3,57.16999],[48.26184,57.14753],[48.19201,57.124],[48.19301,57.11601],[48.22879,57.10491],[48.23271,57.1008],[48.23237,57.09579],[48.22168,57.08683],[48.16401,57.07799],[48.15901,57.067],[48.19352,57.04517],[48.19632,57.03259],[48.13098,57.0051],[48.04382,57.00209],[48.015,57.01599],[47.993,57.01699],[47.96902,56.98454],[47.96138,56.9866],[47.94999,57.00399],[47.933,57.01099],[47.91901,57.005],[47.91438,56.99167],[47.90834,56.98894],[47.83448,57.00871],[47.81799,57.04199],[47.784,57.06199],[47.733,57.05899],[47.72401,57.044],[47.74314,57.02572],[47.74246,57.01734],[47.73669,57.015],[47.69,57.01499],[47.613,56.97799],[47.58563,56.94883],[47.55801,56.93399],[47.55294,56.9221],[47.51001,56.904],[47.49925,56.86595],[47.49364,56.8611],[47.452,56.88099],[47.427,56.88199],[47.38123,56.86021],[47.254,56.83902],[47.203,56.83799],[47.17547,56.82043],[47.16367,56.82003],[47.14811,56.82796],[47.14582,56.83306],[47.14871,56.83783],[47.16999,56.848],[47.16599,56.903],[47.151,56.91499],[47.08615,56.93595],[47.02527,56.92702],[46.937,56.95099],[46.82015,56.93517],[46.74122,56.94098],[46.7358,56.94548],[46.73599,56.958],[46.71613,56.97092],[46.68789,56.973],[46.66401,56.96799],[46.65813,56.94349],[46.61046,56.92602],[46.55888,56.934],[46.53667,56.92603],[46.514,56.94499],[46.336,56.95699],[46.31401,56.94599],[46.30321,56.9108],[46.29792,56.9062],[46.25983,56.90897],[46.038,56.87502],[45.957,56.87699],[45.94101,56.86199],[45.93197,56.81951],[45.90401,56.781],[45.90775,56.73926],[45.89101,56.689],[45.91515,56.66571],[45.91474,56.65768],[45.85898,56.63411],[45.738,56.63099],[45.69992,56.60879],[45.656,56.59899],[45.63601,56.579],[45.63301,56.563],[45.64287,56.54127],[45.62501,56.526],[45.62501,56.513],[45.66,56.45701],[45.76528,56.4537],[45.779,56.42201],[45.8764,56.435],[45.912,56.42901],[45.94059,56.43142],[45.94589,56.41928],[45.94463,56.41291],[45.91701,56.38],[45.93757,56.32747],[45.93346,56.32386],[45.87001,56.30799],[45.87001,56.256],[45.99,56.188],[46.025,56.17501],[46.06259,56.17442],[46.074,56.13722],[46.06301,56.103],[46.09137,56.08622],[46.09151,56.08093],[46.08301,56.067],[46.089,56.05201],[46.1265,56.05491],[46.156,56.03601],[46.18902,56.04089],[46.19468,56.03402],[46.14904,55.97925],[46.09401,55.94299],[46.09701,55.928],[46.12294,55.902],[46.125,55.89649],[46.12266,55.89174],[46.08401,55.862],[46.09498,55.83244],[46.08997,55.81302],[46.01398,55.78303],[45.98601,55.78099],[45.99866,55.75464],[45.99806,55.74775],[45.99265,55.74507],[45.968,55.74799],[45.95301,55.74099],[45.94197,55.71698],[45.91601,55.69],[45.954,55.629],[45.974,55.61401],[45.98726,55.61485],[45.98908,55.60623],[45.71846,55.34866],[44.90401,55.09199],[44.88807,55.02232],[44.88291,55.0168],[43.97414,54.82303],[43.95392,54.80927],[43.90412,54.816],[43.85764,54.80904],[43.72556,54.82523],[43.67607,54.84598],[43.612,54.90599],[43.46326,54.9291],[43.42,54.95099],[43.388,54.95499],[43.248,54.93999],[43.153,54.90699],[43.12801,54.877],[43.10726,54.82141],[43.0755,54.791],[43.05575,54.79009],[42.97987,54.81],[42.81814,54.80401],[42.74905,54.79312],[42.719,54.82099],[42.69481,54.824],[42.67,54.81899],[42.64162,54.79433],[42.61601,54.79104],[42.5506,54.80761],[42.52299,54.83999],[42.467,54.87599],[42.38201,54.805],[42.38201,54.785],[42.4204,54.76317],[42.41814,54.73195],[42.483,54.70901],[42.5014,54.72269],[42.51411,54.72095],[42.56,54.68601],[42.61546,54.70875],[42.62281,54.70709],[42.63438,54.68896],[42.63494,54.68305],[42.60801,54.659],[42.60501,54.644],[42.63357,54.63044],[42.65101,54.60501],[42.68573,54.59772],[42.69197,54.58922],[42.69031,54.5843],[42.66234,54.56057],[42.61701,54.54599],[42.62401,54.529],[42.64377,54.51257],[42.6445,54.50626],[42.63954,54.50152],[42.61655,54.49302],[42.571,54.50999],[42.55201,54.494],[42.54001,54.436],[42.546,54.43001],[42.58747,54.43233],[42.62784,54.3931],[42.62997,54.38607],[42.62724,54.38162],[42.59673,54.37302],[42.525,54.37099],[42.505,54.357],[42.47355,54.31097],[42.423,54.29599],[42.37702,54.26776],[42.27978,54.24121],[42.187,54.26699],[42.17901,54.263],[42.20044,54.23022],[42.20201,54.209],[42.21831,54.19534],[42.22001,54.182],[42.257,54.16601],[42.371,54.20001],[42.38399,54.213],[42.39539,54.24387],[42.43801,54.25496],[42.46182,54.24842],[42.511,54.21601],[42.58557,54.18728],[42.58377,54.1789],[42.52501,54.145],[42.52901,54.128],[42.55207,54.10638],[42.54954,54.09994],[42.53234,54.08826],[42.46472,54.09516],[42.438,54.11699],[42.37459,54.09818],[42.32524,54.10301],[42.31991,54.11064],[42.32699,54.118],[42.33099,54.132],[42.314,54.13999],[42.279,54.12599],[42.25901,54.096],[42.283,54.07001],[42.42393,54.01489],[42.44242,53.99729],[42.45547,53.96746],[42.44469,53.95199],[42.382,53.92999],[42.30401,53.845],[42.338,53.82501],[42.43453,53.79902],[42.478,53.75501],[42.51,53.73301],[42.536,53.72601],[42.54499,53.74],[42.51853,53.78516],[42.51709,53.79948],[42.52162,53.80522],[42.55359,53.81797],[42.55985,53.8149],[42.55983,53.8084],[42.54001,53.783],[42.54901,53.76901],[42.571,53.75501],[42.591,53.75801],[42.6424,53.80569],[42.70769,53.806],[42.71306,53.80325],[42.71386,53.7972],[42.69901,53.77],[42.713,53.75601],[42.738,53.75101],[42.75299,53.762],[42.76881,53.81527],[42.77397,53.81934],[42.797,53.80701],[42.919,53.79201],[42.99024,53.82088],[43.06,53.82001],[43.06799,53.829],[43.06555,53.85204],[43.07442,53.859],[43.134,53.82601],[43.163,53.82601],[43.17499,53.839],[43.16399,53.901],[43.152,53.90999],[43.1223,53.90912],[43.11646,53.91567],[43.12699,53.936],[43.13363,53.96943],[43.16618,53.99145],[43.232,53.99301],[43.30837,54.01107],[43.35,53.99001],[43.45384,53.985],[43.52979,54.009],[43.54624,54.00736],[43.56005,53.9929],[43.55908,53.98288],[43.653,53.83701],[43.94427,53.77735],[43.987,53.75001],[44.078,53.72901],[44.15767,53.751],[44.2224,53.74382],[44.313,53.69601],[44.334,53.69901],[44.36279,53.71999],[44.41569,53.72091],[44.43259,53.71071],[44.33701,53.11475],[43.99198,52.62001],[43.26701,52.31113],[42.0701,52.292],[41.3,52.30499],[40.31606,51.99302],[39.64095,51.74909],[37.699,52.73599],[36.86711,52.10065],[36.86196,52.10112],[36.8589,52.10577],[36.82399,52.38999],[36.52501,52.36499],[36.341,51.966],[36.33617,51.96155],[35.7957,51.79903],[35.34986,51.924],[34.83401,51.84199],[34.87084,51.46567],[34.86811,51.45964],[34.86242,51.45811],[34.55399,51.51999],[34.19201,51.50499],[34.11843,51.26044],[34.11276,51.2551],[33.69368,51.34258],[33.527,51.57099],[33.0489,51.37503],[32.418,51.55499],[31.99481,51.38],[31.529,51.56499],[30.85536,51.54109],[30.51807,51.78921],[30.51657,51.79801],[30.78712,51.90306],[31.30277,52.15378],[31.88898,52.13801],[31.56097,52.40046],[31.3723,53.06095],[31.37529,53.06903],[31.63253,53.28278],[31.63877,53.28502],[31.87,53.09701],[32.15,53.03801],[32.55499,53.319],[32.50116,53.6597],[32.63499,53.97],[32.26556,54.31677],[32.20799,54.86399],[31.35641,54.82538],[31.35212,54.83207],[31.36499,54.944],[31.0474,55.31949],[31.05235,55.32745],[31.72299,55.549],[31.80399,56.02999],[30.90603,55.90015],[30.89957,55.90264],[30.78304,56.06357],[30.78368,56.07271],[31.22899,56.167],[31.10699,56.41],[30.58104,56.80422],[30.57814,56.81197],[30.64087,56.94773],[30.64636,56.95121],[30.991,56.81101],[31.16999,57.112],[31.007,57.25899],[30.48406,57.37667],[29.92352,57.76],[29.92005,57.76552],[29.87299,58.11399],[28.38866,58.17897],[28.3831,58.18351],[28.37899,58.21199],[27.97225,58.13302],[27.58599,58.23003],[27.58204,58.23635],[27.64977,58.838],[27.65516,58.84546],[28.26759,59.08699],[29.28212,59.116],[29.88561,59.10968],[30.228,58.83801],[30.66199,59.25262],[31.65399,59.52601],[31.60599,60.134],[30.929,61.09999],[30.17875,61.37355],[29.73442,61.83951],[29.73229,61.84582],[29.73731,61.85145],[31.06,62.30701],[31.39654,62.54282],[32.26699,62.66201],[32.22299,62.84799],[31.28562,62.9598],[31.18099,63.32999],[30.43758,63.41639],[30.43409,63.4234],[30.44665,63.71544],[30.86899,64.162],[30.07183,64.55659],[30.06801,64.56116],[30.39699,65.159],[30.4083,65.78646],[30.41356,65.78897],[30.997,65.76201],[31.15499,65.914],[30.79177,66.22733],[30.7891,66.23288],[30.86719,66.75049],[31.11599,67.067],[30.10911,67.71893],[28.9118,68.35058],[28.90797,68.35567],[28.90983,68.36155],[30.14381,69.26151],[31.04299,69.453],[31.029,69.47699],[30.862,69.49899],[30.75499,69.47304],[30.664,69.47499],[30.61377,69.4319],[30.55954,69.402],[30.45538,69.37495],[30.332,69.36904],[30.236,69.39199],[30.14476,69.38808],[30.06361,69.40931],[30.06168,69.41456],[30.06441,69.41883],[30.12341,69.44192],[30.13736,69.45298],[30.15671,69.50664],[30.211,69.52801],[30.22499,69.54101],[30.23199,69.558],[30.2288,69.58132],[30.23187,69.5867],[30.32619,69.60697],[30.48051,69.54421],[30.512,69.53601],[30.75513,69.52151],[30.853,69.52701],[30.89811,69.54411],[30.92699,69.578],[30.93099,69.595],[30.92799,69.672],[30.88585,69.70145],[30.88357,69.72403],[30.8923,69.72599],[30.89259,69.72578],[31.05376,69.75702],[31.04535,69.77107],[31.19347,69.74647],[31.22372,69.70515],[31.2203,69.73597],[31.20224,69.74031],[31.25582,69.74442],[31.44582,69.6892],[31.4086,69.64901],[31.35874,69.64504],[31.37175,69.62257],[31.2677,69.59265],[31.32862,69.58934],[31.38284,69.60998],[31.38695,69.63858],[31.43926,69.63687],[31.47715,69.67917],[31.53577,69.65688],[31.51141,69.67596],[31.51104,69.68633],[31.52711,69.67068],[31.62902,69.67819],[31.81921,69.64818],[31.75593,69.68985],[31.68647,69.70657],[31.68512,69.72444],[31.71777,69.73798],[31.72896,69.80899],[31.77612,69.83147],[31.96046,69.79292],[32.01816,69.75169],[32.05449,69.75013],[32.02154,69.77183],[32.0983,69.76222],[32.01845,69.82755],[31.9386,69.85236],[31.98574,69.86849],[31.95974,69.89411],[31.89165,69.90512],[31.90668,69.92075],[31.89632,69.93569],[31.92498,69.95031],[31.99449,69.94196],[31.97368,69.93258],[31.97216,69.9259],[31.98263,69.92173],[32.05513,69.94539],[32.19998,69.91364],[32.24191,69.88665],[32.40554,69.86014],[32.501,69.77801],[32.663,69.71901],[32.68299,69.71723],[32.9992,69.68922],[33.03457,69.68609],[33.08476,69.6779],[33.09854,69.6516],[32.95184,69.58352],[32.83299,69.56715]],[[56.59958,61.48458],[56.60476,61.487],[56.642,61.48401],[56.6532,61.51287],[56.65978,61.51798],[57.08085,61.47],[57.09386,61.49367],[57.10033,61.497],[58.84585,61.491],[58.85004,61.51049],[58.85556,61.5151],[58.92055,61.527],[58.975,61.51701],[58.99784,61.52982],[59.05,61.53201],[59.12299,61.589],[59.13095,61.60778],[59.15164,61.62436],[59.192,61.62301],[59.20831,61.63334],[59.241,61.62201],[59.282,61.63601],[59.29846,61.6498],[59.352,61.65901],[59.36499,61.67],[59.36023,61.68818],[59.37499,61.698],[59.37585,61.71068],[59.404,61.72501],[59.42599,61.752],[59.42486,61.75905],[59.395,61.76999],[59.36461,61.77418],[59.347,61.78899],[59.33178,61.78963],[59.32345,61.80221],[59.33799,61.829],[59.33508,61.8407],[59.33803,61.84668],[59.36847,61.87001],[59.40599,61.88001],[59.40909,61.90633],[59.49399,61.945],[59.46999,61.99699],[59.45102,62.00177],[59.44559,62.00673],[59.44699,62.018],[59.4333,62.04556],[59.44199,62.056],[59.43503,62.0736],[59.43799,62.096],[59.40682,62.10943],[59.40523,62.15127],[59.40836,62.15625],[59.44599,62.182],[59.44493,62.19269],[59.46199,62.205],[59.456,62.21831],[59.46087,62.23204],[59.492,62.24101],[59.50599,62.256],[59.51499,62.279],[59.50404,62.29693],[59.51999,62.31],[59.52236,62.31834],[59.57,62.32901],[59.5897,62.35815],[59.61799,62.37201],[59.62399,62.409],[59.60018,62.41805],[59.59648,62.42485],[59.60999,62.441],[59.61404,62.47523],[59.62499,62.489],[59.62514,62.50897],[59.63399,62.52],[59.63999,62.54699],[59.55161,62.55103],[59.51,62.56799],[59.46678,62.56802],[59.4624,62.57048],[59.46265,62.57853],[59.47299,62.59],[59.47599,62.607],[59.4349,62.63329],[59.43454,62.63984],[59.44699,62.662],[59.41223,62.67503],[59.41499,62.707],[59.39438,62.7239],[59.3911,62.73148],[59.39559,62.75062],[59.417,62.75501],[59.43799,62.776],[59.44899,62.829],[59.4491,62.87064],[59.46599,62.883],[59.46699,62.9],[59.452,62.92199],[59.43388,62.92437],[59.417,62.93799],[59.32767,62.94716],[59.3015,62.9655],[59.29599,62.97899],[59.274,62.98699],[59.22746,62.98953],[59.21283,63.02745],[59.23799,63.05301],[59.24699,63.083],[59.14063,63.11752],[59.13799,63.138],[59.12245,63.15421],[59.13599,63.176],[59.07701,63.22005],[59.06899,63.27099],[59.023,63.28199],[58.979,63.27702],[58.871,63.29499],[58.83302,63.29211],[58.713,63.33999],[58.37152,63.30837],[58.36678,63.31262],[58.35425,63.34346],[58.35794,63.36113],[58.25699,63.57499],[58.138,63.61799],[58.11901,63.60799],[58.10276,63.57234],[58.07066,63.55179],[58.06406,63.55122],[58.026,63.57399],[57.99463,63.58262],[57.98899,63.59699],[57.95689,63.60664],[57.95401,63.61155],[57.95299,63.636],[57.897,63.68399],[57.84701,63.638],[57.79694,63.56996],[57.78801,63.56699],[57.48042,63.14993],[57.47409,63.14603],[56.796,63.24899],[56.7702,63.22124],[56.721,63.22599],[56.68638,63.17406],[56.6801,63.17003],[56.32661,63.2259],[56.32185,63.22923],[56.32147,63.23496],[56.33899,63.255],[56.32499,63.30099],[56.16714,63.32498],[56.15443,63.318],[56.07653,63.32919],[56.07219,63.33749],[56.09499,63.368],[56.09199,63.37499],[55.7892,63.41697],[55.778,63.41104],[55.71,63.42699],[55.57809,63.24813],[55.58488,63.24039],[55.58421,63.23295],[55.45399,63.05201],[55.44786,63.04895],[55.376,63.04599],[55.27701,62.849],[55.282,62.84301],[55.33652,62.8497],[55.374,62.81901],[55.46027,62.83372],[55.50394,62.792],[55.50414,62.78436],[55.49954,62.78199],[55.40174,62.77902],[55.32,62.78604],[55.257,62.80099],[55.18501,62.676],[55.15548,62.59565],[55.14984,62.59101],[55.12601,62.58799],[55.13101,62.56801],[55.47486,62.54614],[55.48109,62.54251],[55.48122,62.53644],[55.24301,62.254],[55.53612,62.06869],[55.54166,62.05696],[55.53855,62.04993],[55.43301,61.97],[55.539,61.87401],[55.656,61.89801],[55.72918,61.92921],[56.31208,61.68381],[56.3147,61.67543],[56.18001,61.419],[56.317,61.31001],[56.38203,61.43603],[56.568,61.41401],[56.59958,61.48458]],[[41.22799,54.528],[41.36299,54.935],[41.16,54.99799],[41.00101,54.79599],[40.92343,54.53245],[40.91625,54.52706],[40.20595,54.58741],[39.69935,54.78779],[39.59799,55.02599],[39.3574,55.02631],[39.126,55.17099],[38.90755,55.138],[38.21501,55.14799],[38.31987,54.59612],[38.17601,53.97301],[38.79265,53.983],[39.57611,53.891],[40.514,53.85201],[40.98299,54.11601],[41.22799,54.528]],[[32.907,52.40099],[32.68901,52.206],[32.943,51.89701],[33.396,51.78001],[33.62099,52.07],[33.65499,52.36299],[33.25879,52.419],[32.907,52.40099]]],[[[35.63885,65.1324],[35.6579,65.13001],[35.66315,65.13279],[35.64363,65.1435],[35.66772,65.16713],[35.75859,65.17228],[35.83967,65.13758],[35.82609,65.12403],[35.85338,65.10234],[35.82457,65.09619],[35.85734,65.05663],[35.83972,65.04852],[35.85044,65.04081],[35.86365,65.03924],[35.85582,65.03684],[35.81375,65.05165],[35.81246,65.08829],[35.78667,65.09856],[35.79853,65.09273],[35.76686,65.0872],[35.75579,65.06863],[35.76937,65.06469],[35.75092,65.06233],[35.74304,65.03925],[35.8121,65.04666],[35.88022,65.0188],[35.89883,65.02782],[35.88021,65.04264],[35.97901,65.0569],[36.02358,65.03433],[36.00564,65.01976],[35.94637,65.0256],[35.91292,65.01549],[35.85935,65.01798],[35.84464,65.00446],[35.87827,64.98999],[35.82493,64.98899],[35.75141,64.95493],[35.70764,64.99754],[35.72212,65.0095],[35.68707,65.02246],[35.70382,65.02787],[35.5725,65.04868],[35.51211,65.08521],[35.51739,65.13586],[35.53775,65.14548],[35.60515,65.15408],[35.56608,65.14245],[35.58875,65.13667],[35.56535,65.12686],[35.60644,65.12736],[35.64119,65.14177],[35.63839,65.13723],[35.64317,65.13879],[35.65883,65.13115],[35.64841,65.1352],[35.63885,65.1324]]],[[[35.95708,65.18065],[35.95681,65.17028],[35.97594,65.15983],[35.96907,65.18023],[36.00497,65.18626],[36.0625,65.15591],[36.274,65.15661],[36.07328,65.12466],[35.93318,65.14357],[35.93436,65.17989],[35.98977,65.19346],[35.95708,65.18065]]],[[[34.82847,64.72971],[34.8899,64.75942],[35.02167,64.7437],[34.83613,64.70219],[34.82847,64.72971]]],[[[34.9469,65.74292],[34.91045,65.76083],[34.92327,65.76627],[34.91228,65.7784],[34.99004,65.78789],[34.98572,65.77086],[34.95665,65.76792],[34.99914,65.75272],[35.02023,65.75447],[34.9926,65.74401],[34.99906,65.73176],[34.90068,65.74103],[34.9469,65.74292]]],[[[33.78807,66.33912],[33.7886,66.32911],[33.80788,66.31587],[33.76376,66.31364],[33.77959,66.30102],[33.64478,66.30445],[33.66619,66.3106],[33.78807,66.33912]]],[[[33.97134,66.26618],[33.85699,66.25522],[33.79646,66.27935],[33.91181,66.28229],[33.97134,66.26618]]],[[[33.14338,69.40745],[32.9782,69.37733],[33.02112,69.40697],[33.10704,69.41448],[33.10011,69.42091],[33.15159,69.43878],[33.11994,69.41473],[33.14338,69.40745]]],[[[35.30562,64.38517],[35.27268,64.35449],[35.21837,64.38642],[35.2846,64.40309],[35.30562,64.38517]]],[[[32.32385,67.1011],[32.37377,67.11061],[32.44426,67.08498],[32.41518,67.07491],[32.32385,67.1011]]],[[[38.43197,68.37676],[38.47422,68.39161],[38.50635,68.36562],[38.46775,68.34886],[38.43197,68.37676]]],[[[33.83723,66.34774],[33.85227,66.33528],[33.8062,66.33517],[33.79591,66.36004],[33.85935,66.35932],[33.83723,66.34774]]],[[[40.4768,67.80933],[40.46628,67.82518],[40.51424,67.81908],[40.51177,67.83541],[40.54221,67.83239],[40.52963,67.81668],[40.54962,67.80954],[40.4768,67.80933]]],[[[34.72687,65.19063],[34.71367,65.17492],[34.64754,65.18794],[34.69725,65.19429],[34.72687,65.19063]]],[[[32.56513,67.00421],[32.52938,67.02126],[32.54559,67.03201],[32.58818,67.01042],[32.56513,67.00421]]]]}}]}