{"type":"FeatureCollection","features":[{"type":"Feature","properties":{"mid":true,"src":"data/years/1503-03-25.geojson"},"geometry":{"type":"MultiPolygon","coordinates":[[[[32.505,69.60303],[32.423,69.63499],[32.38587,69.61712],[32.17773,69.63414],[32.15055,69.65658],[32.18799,69.7],[32.116,69.74299],[32.09004,69.72699],[32.1462,69.70165],[32.09398,69.65603],[32.0517,69.63308],[31.95303,69.628],[32.05139,69.59078],[32.00101,69.54901],[32.17889,69.58688],[32.42356,69.55689],[32.38802,69.517],[32.49589,69.49921],[32.49196,69.48502],[32.42701,69.48099],[32.3995,69.45553],[32.26003,69.42201],[32.43097,69.42901],[32.41913,69.44239],[32.44099,69.449],[32.44844,69.47075],[32.515,69.46201],[32.53933,69.48637],[32.54002,69.47201],[32.57873,69.47856],[32.57002,69.45701],[32.59532,69.45461],[32.61099,69.42501],[32.62498,69.46425],[32.7127,69.47662],[32.84547,69.45592],[32.84246,69.42954],[32.80401,69.415],[32.78801,69.382],[32.805,69.37301],[32.83381,69.41767],[32.90944,69.44381],[33.06167,69.44836],[32.90403,69.382],[32.92539,69.36615],[32.87753,69.32916],[32.81506,69.326],[32.84667,69.32205],[32.84101,69.302],[32.884,69.27601],[32.93599,69.317],[32.95115,69.35575],[33.04805,69.38076],[33.06505,69.3767],[33.06201,69.35101],[33.08567,69.38624],[33.29197,69.41101],[33.30985,69.42891],[33.49505,69.39997],[33.40403,69.35],[33.47239,69.35946],[33.48581,69.3371],[33.41566,69.30292],[33.35803,69.298],[33.36049,69.27985],[33.25506,69.286],[33.29242,69.27438],[33.21002,69.253],[33.246,69.24201],[33.344,69.25901],[33.35614,69.27368],[33.4543,69.2633],[33.4194,69.23111],[33.26704,69.22199],[33.39129,69.21574],[33.36503,69.18901],[33.383,69.18201],[33.42547,69.21672],[33.449,69.20401],[33.48708,69.20225],[33.47309,69.15534],[33.27342,69.08489],[33.048,69.06599],[32.99703,69.029],[33.01643,69.02384],[33.02896,68.98031],[33.00101,68.947],[33.02578,68.90952],[33.00503,68.88601],[33.06299,68.89601],[33.02788,68.94184],[33.06798,68.98001],[33.055,68.99321],[33.07415,69.04891],[33.25578,69.06251],[33.25602,69.04701],[33.34701,69.08168],[33.371,69.06401],[33.46897,69.08301],[33.44715,69.09824],[33.4522,69.11509],[33.53916,69.1506],[33.58399,69.13201],[33.57351,69.1812],[33.63999,69.176],[33.57557,69.19932],[33.55753,69.22864],[33.62892,69.26798],[33.55184,69.25819],[33.56001,69.29377],[33.599,69.30197],[33.71307,69.2997],[33.68901,69.281],[33.693,69.26201],[33.78055,69.29569],[33.8202,69.28711],[33.81804,69.27],[33.84601,69.25801],[33.88699,69.266],[33.83107,69.28824],[33.84128,69.30448],[34.31233,69.30288],[34.3777,69.29001],[34.366,69.26501],[34.41364,69.27196],[34.47801,69.25301],[34.61935,69.25449],[34.64,69.23401],[34.67527,69.24383],[34.7783,69.22985],[34.782,69.21501],[34.8797,69.22484],[34.90517,69.21806],[34.908,69.19701],[34.92439,69.21174],[34.95112,69.1992],[34.92002,69.174],[34.937,69.16601],[35.00589,69.21222],[35.12483,69.20287],[35.11801,69.165],[35.148,69.12601],[35.18075,69.11807],[35.14641,69.16908],[35.20316,69.19477],[35.25899,69.18201],[35.28898,69.203],[35.18175,69.23317],[35.17626,69.24846],[35.29941,69.25069],[35.376,69.22101],[35.44156,69.23193],[35.53236,69.22391],[35.584,69.19901],[35.86426,69.18328],[36.03793,69.11519],[36.042,69.08401],[36.06699,69.1],[36.04633,69.13868],[36.07302,69.13167],[36.06075,69.11902],[36.098,69.10901],[36.11182,69.12066],[36.20798,69.09801],[36.21408,69.10872],[36.22502,69.09301],[36.28538,69.09729],[36.29108,69.07739],[36.2471,69.07799],[36.346,69.03701],[36.5256,69.01315],[36.50303,68.98901],[36.56494,69.01356],[36.632,68.98001],[36.71613,68.9731],[36.69703,68.958],[36.77081,68.9499],[36.77501,68.93301],[36.82576,68.92009],[36.7861,68.90501],[36.8701,68.91881],[37.01777,68.87645],[37.01603,68.86401],[37.18765,68.83502],[37.23414,68.79795],[37.37896,68.77317],[37.444,68.73601],[37.55884,68.72542],[37.56103,68.68504],[37.58853,68.71153],[37.63,68.68701],[37.66461,68.69093],[37.78033,68.64098],[37.74308,68.62601],[37.82552,68.62626],[37.80903,68.58704],[37.8487,68.60828],[37.98012,68.56918],[37.99789,68.55257],[37.98504,68.54301],[38.07486,68.50777],[38.08501,68.48101],[38.14452,68.48052],[38.20555,68.45245],[38.20603,68.43101],[38.25098,68.44387],[38.28101,68.41201],[38.30263,68.42275],[38.35739,68.40107],[38.35467,68.36135],[38.28703,68.352],[38.32014,68.34504],[38.39811,68.37885],[38.42141,68.35205],[38.39805,68.32101],[38.43999,68.28804],[38.43691,68.32777],[38.48409,68.33322],[38.78499,68.24501],[38.708,68.29699],[38.62771,68.30014],[38.50069,68.34524],[38.55424,68.35564],[38.6,68.32801],[38.62699,68.342],[38.61217,68.36391],[38.63826,68.37157],[38.77701,68.30501],[38.89328,68.29838],[38.92701,68.26001],[39.08378,68.20574],[39.09603,68.18747],[39.08404,68.16703],[39.17297,68.19438],[39.57901,68.03001],[39.70598,68.00002],[39.63953,68.04084],[39.67572,68.05029],[39.752,68.02501],[39.86999,68.033],[39.75348,68.15406],[39.89738,68.09948],[39.93698,68.06137],[39.92604,68.051],[39.9498,68.04892],[40.006,67.98601],[40.07041,67.98531],[40.10801,67.94901],[40.16124,67.93806],[40.15902,67.92501],[40.19018,67.93569],[40.20468,67.92335],[40.19305,67.91203],[40.22162,67.9236],[40.24,67.90101],[40.26725,67.90835],[40.25503,67.88601],[40.36644,67.88691],[40.36503,67.86001],[40.38848,67.86188],[40.38675,67.84686],[40.27303,67.83999],[40.419,67.75701],[40.54398,67.73301],[40.53937,67.74532],[40.57699,67.764],[40.56467,67.79886],[40.63798,67.78602],[40.64354,67.80184],[40.79,67.71501],[40.90807,67.72746],[41.01967,67.6557],[41.01202,67.63201],[41.03168,67.61551],[41.01773,67.57844],[40.95302,67.557],[40.99724,67.53624],[41.00689,67.50585],[40.94808,67.44004],[41.01125,67.46096],[41.08072,67.44658],[41.08404,67.41602],[41.10618,67.42108],[41.1199,67.38843],[41.08101,67.25001],[41.133,67.21801],[41.24285,67.19903],[41.317,67.21654],[41.3484,67.18964],[41.27806,67.138],[41.38593,67.11073],[41.34879,67.07596],[41.32204,67.07899],[41.34588,67.04611],[41.34337,66.9902],[41.25101,66.97899],[41.28512,66.93814],[41.25601,66.922],[41.24055,66.85384],[41.21168,66.82266],[41.08227,66.74122],[40.97302,66.71999],[40.98189,66.70565],[40.93447,66.6744],[40.86301,66.655],[40.79888,66.60895],[40.69302,66.58399],[40.68798,66.53084],[40.61056,66.50382],[40.58201,66.51699],[40.58634,66.50125],[40.55701,66.478],[40.56635,66.45815],[40.50533,66.42669],[40.36897,66.38125],[40.30502,66.39099],[40.30716,66.37635],[40.22002,66.355],[40.00384,66.25653],[39.78254,66.21495],[39.51301,66.19498],[39.11333,66.10214],[38.86203,66.10799],[38.77,66.07303],[38.65575,66.06421],[38.64101,66.07598],[38.31963,66.05602],[37.92385,66.0834],[37.656,66.11602],[37.1449,66.24201],[36.73016,66.28299],[36.517,66.27602],[35.55369,66.38406],[35.35175,66.42515],[35.34313,66.43696],[35.35997,66.43801],[35.32599,66.47099],[35.20315,66.46856],[35.16999,66.49899],[35.10574,66.50816],[34.898,66.59399],[34.751,66.60099],[34.69101,66.587],[34.65872,66.55599],[34.4636,66.54094],[34.38902,66.58575],[34.37273,66.62058],[34.50495,66.632],[34.39715,66.64583],[34.36537,66.66234],[34.37399,66.677],[34.352,66.69899],[34.33885,66.65686],[34.341,66.68499],[34.31684,66.66081],[34.30698,66.67797],[34.28765,66.66223],[34.23101,66.66741],[34.254,66.71599],[34.21038,66.67014],[34.17748,66.68458],[34.17999,66.70299],[34.1179,66.67534],[34.18399,66.746],[34.15102,66.78598],[34.12976,66.70293],[34.08103,66.70698],[34.09074,66.69147],[34.06399,66.68373],[34.05356,66.70988],[34.06899,66.721],[34.04041,66.74261],[34.05599,66.753],[34.054,66.75998],[34.01504,66.749],[34.04646,66.7232],[34.02604,66.68576],[33.92584,66.68602],[33.896,66.72099],[33.82109,66.72177],[33.82994,66.76498],[33.73478,66.77114],[33.69099,66.82099],[33.657,66.80077],[33.60702,66.85196],[33.61762,66.8246],[33.60053,66.79239],[33.576,66.81699],[33.53901,66.81899],[33.56496,66.76891],[33.53709,66.77694],[33.58325,66.73842],[33.51903,66.76598],[33.54979,66.72285],[33.50392,66.71714],[32.97772,66.8982],[32.86003,66.96403],[32.7901,67.03028],[32.80111,67.05739],[32.99795,67.084],[32.76202,67.07509],[32.64214,67.11698],[32.48681,67.11308],[32.32301,67.16699],[32.3114,67.13763],[32.26203,67.14299],[32.27493,67.13226],[32.25929,67.12465],[32.157,67.13999],[32.10364,67.10718],[31.917,67.14499],[31.87002,67.139],[31.94571,67.13067],[31.95276,67.11495],[31.92905,67.10801],[32.046,67.09701],[32.18697,67.107],[32.18781,67.11899],[32.26678,67.10971],[32.31875,67.07982],[32.28202,67.07099],[32.31661,67.05092],[32.31102,67.03901],[32.47951,67.02611],[32.56466,66.97812],[32.55961,66.96206],[32.52102,66.956],[32.52924,66.93753],[32.417,66.94699],[32.41301,66.93401],[32.47316,66.9294],[32.44905,66.917],[32.48721,66.90403],[32.46461,66.88142],[32.38704,66.86901],[32.54124,66.87276],[32.67653,66.81707],[32.67114,66.79496],[32.765,66.76801],[32.85159,66.77458],[32.94067,66.73729],[32.905,66.72703],[32.80485,66.75301],[32.68404,66.749],[32.85502,66.69101],[33.18684,66.67297],[33.2913,66.6375],[33.28198,66.62025],[33.26126,66.63398],[33.11801,66.64199],[33.12375,66.60828],[33.05414,66.57991],[32.82104,66.59299],[32.882,66.56601],[33.10154,66.5451],[33.06714,66.52629],[32.93106,66.519],[33.056,66.49801],[33.135,66.50101],[33.2269,66.51941],[33.303,66.47301],[33.65137,66.41815],[33.4631,66.37799],[33.57902,66.37111],[33.62519,66.33792],[33.414,66.32499],[33.21543,66.28008],[33.077,66.27599],[32.98204,66.24901],[33.251,66.27301],[33.34744,66.30571],[33.377,66.29801],[33.44176,66.30402],[33.43505,66.29101],[33.57249,66.31499],[33.61399,66.30208],[33.56305,66.27601],[33.75025,66.27689],[33.80082,66.25956],[33.78704,66.24301],[33.88711,66.23673],[33.87104,66.22101],[33.89112,66.21314],[33.87904,66.20002],[33.94997,66.22477],[34.10538,66.22766],[34.13695,66.21285],[34.13503,66.19501],[34.16756,66.19358],[34.14103,66.16701],[34.31888,66.14366],[34.53817,66.0692],[34.55172,66.05408],[34.53604,66.04601],[34.57216,66.04703],[34.62901,65.998],[34.69847,65.98264],[34.71323,65.96043],[34.66302,65.95599],[34.63407,65.92001],[34.67246,65.91562],[34.66103,65.902],[34.68585,65.89825],[34.68301,65.876],[34.7501,65.90214],[34.82584,65.88425],[34.84134,65.86206],[34.81401,65.847],[34.81822,65.82486],[34.7751,65.81002],[34.88727,65.81361],[34.89544,65.77379],[34.86302,65.77599],[34.83703,65.754],[34.94492,65.71881],[34.94979,65.67976],[34.89796,65.68353],[34.68797,65.79699],[34.66001,65.79399],[34.68885,65.77445],[34.65502,65.756],[34.68346,65.74277],[34.68301,65.69401],[34.71443,65.70623],[34.76414,65.69016],[34.68604,65.668],[34.78425,65.57776],[34.73701,65.583],[34.71004,65.55801],[34.73982,65.55123],[34.7387,65.5233],[34.63301,65.487],[34.67633,65.43801],[34.65785,65.42497],[34.56,65.43599],[34.45604,65.43],[34.48445,65.40798],[34.35304,65.40599],[34.37761,65.38115],[34.30678,65.37996],[34.27103,65.371],[34.46639,65.33877],[34.48707,65.32029],[34.44605,65.31699],[34.47512,65.29761],[34.45712,65.26891],[34.50898,65.23902],[34.52822,65.25398],[34.52409,65.22001],[34.59378,65.224],[34.59905,65.19599],[34.66235,65.18113],[34.63702,65.13301],[34.65776,65.12922],[34.64603,65.11301],[34.66503,65.11285],[34.68604,65.07902],[34.7867,65.07182],[34.75602,65.037],[34.78652,65.03069],[34.78581,64.98294],[34.60802,64.951],[34.76985,64.95036],[34.82433,64.92184],[34.82101,64.90201],[34.88909,64.89137],[34.88001,64.872],[34.94309,64.83141],[34.92761,64.80001],[34.78002,64.732],[34.81037,64.72485],[34.80701,64.712],[34.841,64.67801],[34.89911,64.66481],[34.91303,64.633],[34.96014,64.62927],[34.96762,64.6112],[34.77811,64.52854],[34.759,64.53399],[34.73083,64.53096],[34.7,64.52399],[34.68304,64.509],[34.77043,64.5248],[34.889,64.48001],[34.91771,64.49855],[34.97898,64.48501],[34.96746,64.50295],[34.99573,64.50548],[35.02765,64.48464],[34.98901,64.47399],[34.96402,64.41801],[35.11249,64.40762],[35.13401,64.36],[35.166,64.34501],[35.33528,64.34255],[35.32001,64.305],[35.40401,64.28401],[35.54418,64.32959],[35.614,64.32401],[35.62699,64.347],[35.60089,64.3803],[35.69682,64.36214],[35.755,64.32101],[35.80076,64.32678],[35.89279,64.28782],[35.91944,64.26279],[35.89401,64.237],[35.95643,64.20913],[35.95501,64.19101],[36.008,64.18401],[36.04978,64.21228],[36.15433,64.1658],[36.15501,64.15001],[36.23299,64.13198],[36.17201,64.09],[36.17603,64.074],[36.26106,64.05215],[36.24901,64.00501],[36.29999,63.97101],[36.31851,63.98971],[36.45277,63.97766],[36.50607,63.95359],[36.51475,63.89283],[36.51554,63.89276],[36.51801,63.87001],[36.62041,63.86368],[36.988,63.84098],[37.06721,63.82376],[37.14619,63.80659],[37.411,63.74901],[37.59101,63.80697],[37.69199,63.81925],[37.76786,63.82847],[37.93563,63.84887],[37.945,63.85001],[37.94707,63.85255],[38.07499,64.009],[38.04947,64.02663],[38.05999,64.071],[38.00783,64.11418],[37.99999,64.14799],[37.93493,64.16145],[37.8925,64.21357],[38.00999,64.288],[37.91564,64.31039],[37.91523,64.32462],[37.95299,64.332],[37.94,64.34299],[37.78995,64.36739],[37.791,64.43799],[37.65401,64.42399],[37.61459,64.35561],[37.56699,64.37599],[37.455,64.37999],[37.33267,64.34222],[37.15061,64.38515],[36.91802,64.52703],[36.78418,64.62919],[36.738,64.68899],[36.6231,64.71923],[36.57361,64.76111],[36.62639,64.81431],[36.62647,64.82032],[36.65175,64.84465],[36.65826,64.84645],[36.75606,64.94505],[36.82399,64.96401],[36.81197,65.00182],[36.88365,65.06731],[36.91458,65.06737],[37.10256,65.06773],[37.604,64.85301],[37.94742,64.77377],[38.0017,64.76125],[38.00401,64.727],[38.11754,64.67432],[37.99403,64.614],[38.00317,64.60437],[37.98203,64.59201],[38.01285,64.58403],[38.04799,64.603],[38.05649,64.6366],[38.14999,64.656],[38.13431,64.68559],[38.15172,64.70732],[38.20631,64.7139],[38.36081,64.68214],[39.19318,64.51099],[39.622,64.47601],[39.70058,64.4896],[39.80115,64.507],[39.997,64.54087],[40.322,64.46301],[40.43999,64.564],[40.46199,64.75],[40.46127,64.75081],[40.366,64.85799],[40.30045,64.90795],[40.29344,64.91329],[40.18069,64.99922],[40.15099,65.05299],[40.05157,65.10382],[40.012,65.16699],[39.96091,65.18697],[39.88672,65.32167],[39.8243,65.435],[39.94985,65.5797],[39.96765,65.58491],[40.25947,65.67045],[40.68086,65.79396],[41.35411,65.95504],[41.623,66.06501],[42.13226,66.38753],[42.21037,66.40979],[42.59522,66.35048],[42.71682,66.33174],[43.24099,66.25097],[43.876,66.01101],[43.96897,66.0107],[44.02278,66.01053],[44.02501,65.97501],[44.11702,65.93294],[44.12801,65.885],[44.194,65.81201],[44.21399,65.832],[44.19314,65.8642],[44.23395,65.84606],[44.222,65.86099],[44.16718,65.88521],[44.16411,65.90178],[44.18699,65.895],[44.16599,65.929],[44.08587,65.98385],[44.10476,66.01032],[44.1819,66.041],[44.16407,66.04427],[44.14599,66.103],[44.07487,66.19157],[44.07413,66.22765],[44.12046,66.3095],[44.21986,66.40205],[44.30518,66.40349],[44.33514,66.40399],[44.47373,66.36505],[44.577,66.30301],[44.85886,66.23104],[44.93544,66.22691],[45.73985,66.06303],[45.83299,66.08288],[46.347,66.02298],[47.11012,65.81599],[47.15514,65.81101],[47.407,65.83097],[47.661,65.80301],[47.728,65.81401],[47.76399,65.841],[47.76799,65.863],[47.73655,65.91199],[47.75649,65.93724],[47.96474,66.04982],[48.074,66.07101],[48.14138,66.12176],[49.00713,66.11403],[51.51089,66.77797],[51.55398,66.797],[51.49324,66.83074],[51.51799,66.867],[51.50298,66.90604],[51.52704,66.92291],[51.56231,66.93094],[51.67516,66.92202],[51.732,66.93001],[51.75871,66.94887],[51.812,66.94901],[51.82699,66.959],[51.83493,66.98628],[51.8481,66.99673],[51.916,67.00001],[52.02183,67.02296],[52.06902,67.05196],[52.1563,67.08098],[52.24528,67.08398],[53.77209,66.994],[59.88426,66.99699],[59.88955,66.99383],[59.88926,66.98767],[59.86701,66.969],[59.88,66.95501],[59.919,66.94901],[60.08363,66.985],[61.43186,66.995],[61.49635,67.01394],[61.625,67.00701],[61.692,67.02101],[61.73463,67.0741],[61.831,67.10701],[61.85398,67.12226],[62.824,67.38401],[62.83999,67.397],[62.85499,67.435],[62.86002,67.506],[62.87706,67.57762],[62.89687,67.59128],[63.074,67.64801],[63.10755,67.6701],[63.295,67.71301],[63.30989,67.73263],[63.32854,67.74081],[63.42175,67.76292],[63.691,67.75701],[63.70999,67.767],[63.70358,67.79467],[63.71198,67.80504],[63.873,67.83101],[63.94699,67.88],[63.95199,67.895],[63.91954,67.92617],[63.92499,67.946],[63.91999,67.964],[63.84606,68.00508],[63.83624,68.01727],[63.83882,68.02502],[63.86229,68.03399],[63.931,68.039],[64.03186,68.06197],[64.08171,68.08413],[64.326,68.12901],[64.35099,68.156],[64.34885,68.16804],[64.35139,68.17291],[64.41768,68.19585],[64.53199,68.19501],[64.53799,68.224],[64.52343,68.25275],[64.52899,68.279],[64.50631,68.29887],[64.50116,68.31376],[64.52606,68.33992],[64.55701,68.35397],[64.76166,68.40088],[64.805,68.396],[64.907,68.39997],[65.006,68.38401],[65.03541,68.40008],[65.44612,68.4237],[65.45035,68.41995],[65.4499,68.41485],[65.41801,68.39],[65.39863,68.34589],[65.34901,68.30899],[65.32686,68.27918],[65.29301,68.26499],[65.27201,68.237],[65.26801,68.216],[65.28588,68.18496],[65.29201,68.136],[65.32403,68.08962],[65.28601,68.01],[65.34099,67.98298],[65.436,67.91501],[65.567,67.92898],[65.781,67.91901],[65.84979,67.93296],[65.91128,67.95468],[65.999,67.92801],[66.08223,67.92791],[66.08789,67.92138],[66.08723,67.90704],[66.05501,67.882],[66.04496,67.84802],[66.01501,67.796],[66.074,67.77201],[66.13527,67.76384],[66.19384,67.73651],[66.20187,67.72339],[66.19971,67.69543],[66.14996,67.6621],[66.10587,67.65222],[65.991,67.68299],[65.942,67.66802],[65.84,67.65499],[65.81901,67.63],[65.82301,67.61901],[65.83739,67.61068],[65.83795,67.60399],[65.803,67.58899],[65.79301,67.577],[65.79801,67.55801],[65.836,67.55001],[66.03384,67.56949],[66.09268,67.51913],[66.10249,67.49477],[66.1002,67.48828],[66.00558,67.42042],[65.97272,67.40699],[65.8057,67.38808],[65.739,67.39599],[65.689,67.38899],[65.67301,67.368],[65.69816,67.34605],[65.69945,67.33993],[65.66044,67.31529],[65.587,67.30099],[65.55071,67.27191],[65.42157,67.22023],[65.326,67.20299],[65.2335,67.15429],[65.188,67.14899],[65.18601,67.143],[65.20155,67.12287],[65.20001,67.101],[65.20884,67.08307],[65.20692,67.07686],[65.19236,67.06897],[65.089,67.05899],[65.07301,67.043],[65.07701,67.023],[65.10114,66.99748],[65.11075,66.91192],[65.10076,66.89868],[64.99933,66.87013],[64.936,66.87399],[64.84837,66.84191],[64.575,66.80299],[64.55601,66.78999],[64.53308,66.75412],[64.53705,66.7395],[64.53214,66.73342],[64.412,66.72799],[64.32598,66.67803],[64.2943,66.66813],[64.19879,66.66897],[64.085,66.65402],[63.98,66.65599],[63.90042,66.60032],[63.848,66.58599],[63.80538,66.55186],[63.71899,66.52803],[63.654,66.52399],[63.60499,66.49603],[63.54024,66.4761],[63.49769,66.47412],[63.44,66.48999],[63.41201,66.48499],[63.39901,66.45433],[63.35898,66.42603],[63.294,66.39899],[63.27768,66.36288],[63.23701,66.33],[63.23701,66.309],[63.29756,66.27069],[63.30052,66.2561],[63.29292,66.24469],[63.26445,66.24118],[63.161,66.26999],[63.104,66.25499],[63.009,66.199],[62.97601,66.165],[62.95765,66.11859],[62.85901,66.07799],[62.84768,66.04285],[62.81601,66.012],[62.86561,65.98459],[62.8677,65.97723],[62.79801,65.932],[62.84836,65.89118],[62.84935,65.88255],[62.84562,65.87805],[62.68188,65.86698],[62.5232,65.84403],[62.13148,65.73313],[62.01501,65.71999],[62.01714,65.71195],[62.27451,65.61889],[62.322,65.53701],[62.39898,65.5122],[62.3999,65.50614],[62.36901,65.447],[62.433,65.37801],[62.479,65.34501],[62.51612,65.33398],[62.79566,65.29817],[62.80983,65.28851],[62.80201,65.245],[62.80877,65.2097],[62.79501,65.168],[62.80492,65.12366],[62.79686,65.05274],[62.77562,65.00262],[62.72997,64.95303],[62.68301,64.921],[62.67301,64.891],[62.68201,64.86901],[62.78315,64.84914],[62.80605,64.83169],[62.81521,64.81352],[62.81477,64.80834],[62.787,64.79699],[62.78101,64.785],[62.7991,64.73499],[62.74198,64.69704],[62.59001,64.64499],[62.58182,64.60848],[62.53301,64.571],[62.53101,64.552],[62.687,64.48901],[62.83166,64.49296],[62.9,64.47201],[62.96234,64.49799],[63.23659,64.51776],[63.33799,64.48198],[63.381,64.45901],[63.45454,64.45427],[63.49551,64.37776],[63.41101,64.33199],[63.40901,64.325],[63.477,64.28701],[63.535,64.28198],[63.611,64.26301],[63.889,64.28001],[63.90299,64.289],[63.91001,64.31261],[64.01753,64.35198],[64.478,64.35501],[64.60292,64.43179],[64.713,64.42],[64.76081,64.42199],[64.99528,64.46094],[65.176,64.44101],[65.20311,64.45008],[65.33602,64.54096],[65.40002,64.56562],[65.53719,64.56823],[66.03987,63.59926],[65.06201,62.969],[65.979,62.38801],[66.9895,62.21665],[67.84327,61.67828],[67.84011,61.67034],[67.77802,61.651],[68.2274,61.53271],[68.44301,61.09801],[69.38404,60.91415],[69.66269,60.67162],[69.66053,60.66648],[68.62134,59.80805],[66.81618,59.63102],[66.12513,59.60407],[65.406,60.00199],[62.97302,59.31801],[61.307,58.836],[60.14199,58.14702],[58.58074,57.58],[56.3441,57.36101],[54.59646,57.06908],[54.39033,57.06713],[54.381,57.07499],[54.29891,57.08781],[54.28802,57.10546],[54.29112,57.11251],[54.315,57.11901],[54.32799,57.138],[54.33199,57.21],[54.3195,57.2434],[54.32999,57.269],[54.32299,57.28899],[54.259,57.30999],[54.169,57.31899],[54.13514,57.3159],[54.12997,57.3203],[54.14685,57.37149],[54.15995,57.38756],[54.244,57.40801],[54.27399,57.424],[54.26799,57.465],[54.25,57.47499],[54.209,57.46611],[54.18534,57.47123],[54.1761,57.50566],[54.20399,57.53],[54.178,57.56099],[54.119,57.56299],[54.09283,57.5294],[54.08803,57.52755],[54.04775,57.535],[54.04503,57.53945],[54.04499,57.56199],[54.00339,57.57636],[54.00687,57.58444],[54.12099,57.61301],[54.12099,57.626],[54.0897,57.64387],[54.08271,57.66429],[54.09875,57.68586],[54.145,57.69301],[54.16099,57.705],[54.13813,57.79067],[54.14099,57.831],[54.09444,57.91078],[54.10399,57.971],[54.09599,57.993],[53.99301,58.05802],[53.94718,58.09992],[53.93299,58.142],[53.90807,58.16306],[53.88999,58.19399],[53.82055,58.22942],[53.82048,58.23517],[53.84902,58.27798],[53.89099,58.32],[53.79204,58.40426],[53.78699,58.44399],[53.6384,58.44001],[53.498,58.45499],[53.423,58.42899],[53.38696,58.4061],[53.32443,58.39454],[53.307,58.41099],[53.22718,58.42975],[53.206,58.45099],[53.17037,58.46014],[53.16199,58.487],[53.14093,58.50405],[53.13399,58.539],[53.117,58.54899],[53.066,58.54699],[53.02332,58.53109],[52.919,58.53899],[52.89501,58.514],[52.86737,58.42063],[52.86234,58.41638],[52.33105,58.45492],[52.274,58.47999],[52.179,58.49499],[52.118,58.48003],[52.009,58.47699],[51.97,58.46899],[51.82553,58.37733],[51.79301,58.365],[51.78632,58.28443],[51.73901,58.25699],[51.72093,58.22707],[51.67801,58.19299],[51.66801,58.173],[51.68101,58.148],[51.711,58.13101],[51.76434,58.13582],[51.78809,58.1227],[51.81454,58.08333],[51.79101,58.051],[51.79001,58.033],[51.811,58.01301],[51.8803,57.9792],[51.8809,57.97421],[51.8642,57.93552],[51.83701,57.907],[51.84178,57.87602],[51.83201,57.851],[51.91469,57.82074],[51.91958,57.76013],[51.90766,57.74497],[51.86701,57.727],[51.86786,57.67903],[51.84709,57.63316],[51.82049,57.60881],[51.75101,57.58],[51.73767,57.54767],[51.68669,57.53807],[51.63,57.54499],[51.59601,57.504],[51.59082,57.45504],[51.5873,57.45072],[51.534,57.47499],[51.398,57.48299],[51.29329,57.46109],[51.225,57.46699],[51.178,57.44999],[51.13096,57.37885],[51.11101,57.305],[51.11801,57.258],[51.15615,57.24008],[51.16501,57.215],[51.18607,57.20075],[51.18001,57.167],[51.187,57.15201],[51.23004,57.13834],[51.22999,57.13131],[51.21101,57.11],[51.22301,57.065],[51.3167,57.00126],[51.31798,56.99641],[51.31203,56.97474],[51.30772,56.97052],[50.10982,56.78655],[50.097,56.80099],[50.07367,56.80238],[50.06899,56.835],[50.018,56.86799],[49.97773,56.8671],[49.855,56.89899],[49.78128,56.89604],[49.74764,56.90432],[49.73366,56.93462],[49.75999,56.957],[49.76399,56.972],[49.75399,56.98799],[49.72643,57.00352],[49.71513,57.03231],[49.71799,57.065],[49.709,57.07699],[49.528,57.07799],[49.5,57.05998],[49.426,57.05599],[49.41301,57.047],[49.40988,57.03498],[49.40496,57.03154],[49.28688,57.04391],[49.26761,57.05178],[49.23641,57.08489],[49.23099,57.12899],[49.16189,57.14976],[49.14907,57.16305],[49.14965,57.18014],[49.18399,57.207],[49.18828,57.24621],[49.21799,57.291],[49.185,57.33499],[49.00901,57.28099],[49.00301,57.232],[49.03239,57.21572],[49.03466,57.20883],[49.00601,57.19],[48.98997,57.13137],[48.95025,57.09125],[48.86827,57.09002],[48.85885,57.09349],[48.85543,57.10062],[48.86599,57.122],[48.834,57.16399],[48.75919,57.17697],[48.693,57.17999],[48.66157,57.16138],[48.64035,57.15907],[48.569,57.17699],[48.43442,57.13206],[48.38268,57.13502],[48.365,57.15699],[48.3,57.16999],[48.25999,57.14703],[48.19201,57.124],[48.19301,57.11601],[48.22948,57.10372],[48.23169,57.09549],[48.2228,57.08783],[48.165,57.07799],[48.15901,57.067],[48.1936,57.04477],[48.1958,57.03236],[48.12965,57.00503],[48.04135,57.00205],[47.993,57.01699],[47.97112,56.98757],[47.933,57.01099],[47.92001,57.00499],[47.91353,56.99152],[47.90773,56.98918],[47.83508,57.00896],[47.81799,57.04199],[47.784,57.06199],[47.733,57.05899],[47.72601,57.04],[47.7415,57.02433],[47.74032,57.01636],[47.69,57.01499],[47.612,56.97799],[47.58394,56.94708],[47.55901,56.93399],[47.55451,56.92344],[47.51001,56.90299],[47.49792,56.866],[47.49332,56.86249],[47.453,56.88099],[47.427,56.88199],[47.37919,56.85986],[47.25443,56.83907],[47.203,56.83799],[47.17078,56.81934],[47.15947,56.82139],[47.14668,56.83227],[47.14923,56.83787],[47.16999,56.847],[47.16499,56.904],[47.151,56.91499],[47.08613,56.93596],[47.02601,56.92713],[46.937,56.95099],[46.823,56.93503],[46.74077,56.94106],[46.7354,56.94557],[46.73599,56.958],[46.71613,56.97092],[46.687,56.97299],[46.66501,56.96899],[46.65608,56.94244],[46.61028,56.92622],[46.558,56.93399],[46.53548,56.9269],[46.51386,56.94501],[46.336,56.95699],[46.31401,56.946],[46.30816,56.91167],[46.30094,56.90627],[46.25983,56.90897],[46.038,56.87502],[45.957,56.87699],[45.93501,56.847],[45.93043,56.81727],[45.90401,56.781],[45.90786,56.73702],[45.89101,56.689],[45.91767,56.6677],[45.91669,56.65671],[45.85767,56.63402],[45.738,56.62999],[45.70173,56.60996],[45.657,56.59899],[45.63401,56.572],[45.64306,56.54153],[45.62401,56.521],[45.66,56.45701],[45.76386,56.45382],[45.78,56.42201],[45.876,56.43498],[45.93939,56.4327],[45.94484,56.41402],[45.91701,56.38],[45.93824,56.32702],[45.93403,56.32333],[45.87001,56.30799],[45.87001,56.256],[45.99,56.188],[46.026,56.17501],[46.06339,56.17518],[46.07376,56.13601],[46.06301,56.103],[46.09026,56.08549],[46.09031,56.08041],[46.08201,56.066],[46.089,56.05201],[46.12803,56.05481],[46.156,56.03601],[46.1896,56.04079],[46.19527,56.03409],[46.15777,55.98787],[46.09401,55.943],[46.11301,55.90701],[46.12323,55.89573],[46.08301,55.862],[46.09462,55.8326],[46.08944,55.8125],[46.01628,55.78315],[45.98501,55.78099],[45.99845,55.75254],[45.99763,55.74696],[45.99254,55.74452],[45.968,55.74799],[45.95301,55.74099],[45.94292,55.71805],[45.91601,55.69],[45.954,55.629],[45.974,55.61401],[45.9882,55.61501],[45.98974,55.6066],[45.71768,55.348],[44.90401,55.09199],[44.88786,55.02173],[44.88381,55.01735],[43.97414,54.82303],[43.95501,54.80839],[43.904,54.81599],[43.85773,54.80906],[43.72676,54.82513],[43.67605,54.84608],[43.612,54.90599],[43.46426,54.92898],[43.409,54.95299],[43.249,54.93999],[43.153,54.90699],[43.12801,54.876],[43.10789,54.82207],[43.07619,54.79094],[43.05671,54.7901],[42.97886,54.80999],[42.81817,54.80401],[42.74872,54.79339],[42.718,54.82099],[42.694,54.82399],[42.671,54.81899],[42.64189,54.79425],[42.61648,54.79115],[42.55042,54.80714],[42.523,54.84],[42.464,54.87499],[42.38101,54.804],[42.38201,54.785],[42.4205,54.76168],[42.41514,54.73295],[42.483,54.70901],[42.50056,54.72232],[42.51463,54.72092],[42.56,54.68601],[42.61631,54.70723],[42.62198,54.70646],[42.63449,54.68289],[42.60401,54.644],[42.6336,54.63003],[42.651,54.60501],[42.68893,54.59444],[42.69307,54.58617],[42.6912,54.58187],[42.66295,54.56009],[42.61701,54.546],[42.64415,54.51306],[42.64098,54.50273],[42.61605,54.49349],[42.571,54.50999],[42.55201,54.494],[42.54001,54.43601],[42.58764,54.43218],[42.62853,54.39143],[42.62976,54.3864],[42.62686,54.38195],[42.59575,54.37301],[42.525,54.37099],[42.50501,54.357],[42.47495,54.31185],[42.432,54.29999],[42.37874,54.26895],[42.27947,54.24141],[42.17901,54.26399],[42.20071,54.22923],[42.20201,54.209],[42.21853,54.19476],[42.22001,54.18101],[42.257,54.16601],[42.37199,54.20001],[42.39416,54.24334],[42.43869,54.2548],[42.46126,54.24878],[42.51,54.21601],[42.58203,54.18942],[42.58562,54.18574],[42.58345,54.17892],[42.52501,54.145],[42.52901,54.128],[42.55079,54.10692],[42.54919,54.10192],[42.5323,54.08828],[42.47737,54.09111],[42.437,54.11699],[42.37629,54.09812],[42.34821,54.09822],[42.32033,54.10736],[42.32011,54.11398],[42.33099,54.124],[42.322,54.13899],[42.295,54.13699],[42.27891,54.12486],[42.25901,54.095],[42.27001,54.07801],[42.42494,54.01391],[42.4429,53.99693],[42.45632,53.96624],[42.45117,53.95536],[42.382,53.92999],[42.30401,53.851],[42.30501,53.843],[42.33784,53.82509],[42.4354,53.79906],[42.478,53.755],[42.525,53.72701],[42.538,53.72701],[42.54499,53.74],[42.51828,53.79951],[42.52114,53.80321],[42.55215,53.8165],[42.55738,53.81451],[42.55852,53.80851],[42.54001,53.783],[42.571,53.75501],[42.591,53.75801],[42.64217,53.80558],[42.70805,53.806],[42.71303,53.80335],[42.7138,53.79829],[42.69901,53.77],[42.712,53.75701],[42.739,53.75101],[42.75299,53.762],[42.76992,53.81532],[42.77446,53.81887],[42.797,53.80701],[42.919,53.79201],[42.98802,53.82087],[43.05999,53.82001],[43.06482,53.85291],[43.07535,53.85919],[43.125,53.82901],[43.164,53.82601],[43.17499,53.839],[43.16399,53.901],[43.152,53.90999],[43.12102,53.91012],[43.11623,53.91667],[43.12699,53.937],[43.13365,53.96989],[43.17452,53.99459],[43.231,53.99301],[43.30863,54.01161],[43.35,53.99001],[43.42483,53.98401],[43.45385,53.98499],[43.52867,54.00989],[43.5461,54.00755],[43.5611,53.99274],[43.55908,53.98388],[43.654,53.83701],[43.94348,53.77709],[43.988,53.75001],[44.078,53.72801],[44.15464,53.7519],[44.22497,53.74389],[44.313,53.69601],[44.334,53.69901],[44.36149,53.72],[44.41533,53.72087],[44.4324,53.70955],[44.33695,53.11331],[43.98992,52.61857],[43.2674,52.31102],[42.0701,52.292],[41.3,52.30499],[40.31606,51.99302],[39.64003,51.74854],[37.699,52.73599],[36.86676,52.1005],[36.86156,52.10101],[36.85873,52.1054],[36.82399,52.38999],[36.52514,52.36501],[36.33742,51.96222],[35.79557,51.79828],[35.349,51.92399],[34.83401,51.84199],[34.87023,51.46406],[34.86849,51.45923],[34.86307,51.4576],[34.554,51.51999],[34.29101,51.50899],[34.29733,51.49333],[34.29202,51.48196],[34.267,51.47499],[34.24501,51.457],[34.25046,51.44679],[34.24739,51.44074],[34.21701,51.43999],[34.21742,51.4351],[34.21366,51.43133],[34.18823,51.42561],[34.173,51.43899],[34.11664,51.25633],[34.11164,51.2551],[33.97601,51.28299],[33.97895,51.27535],[33.97675,51.27057],[33.93901,51.255],[33.94568,51.24206],[33.94415,51.23609],[33.91801,51.22999],[33.91401,51.21801],[33.93619,51.21955],[33.968,51.19801],[34.009,51.19701],[34.0196,51.21854],[34.035,51.22201],[34.04124,51.23143],[34.055,51.22701],[34.06646,51.23751],[34.10443,51.2398],[34.119,51.22701],[34.12996,51.22963],[34.13462,51.22777],[34.14033,51.20118],[34.11501,51.182],[34.11565,51.1491],[34.085,51.133],[34.06584,51.09566],[34.01401,51.08199],[34.01088,51.07077],[34.00675,51.06757],[33.96701,51.07099],[33.96821,51.05357],[33.96001,51.04899],[33.96634,51.03938],[33.96491,51.03336],[33.9235,51.00506],[33.91,51.00599],[33.88932,50.98685],[33.852,50.99399],[33.84322,50.98403],[33.73529,50.98449],[33.73203,50.98793],[33.72191,51.02712],[33.713,51.03899],[33.69911,51.03988],[33.6952,51.04303],[33.69357,51.05652],[33.69799,51.062],[33.628,51.09699],[33.5981,51.10043],[33.59553,51.10841],[33.60799,51.12],[33.585,51.13999],[33.56648,51.13929],[33.56171,51.14213],[33.56687,51.19396],[33.57899,51.20201],[33.59697,51.24147],[33.6013,51.24397],[33.624,51.24401],[33.63599,51.26999],[33.62896,51.27136],[33.62745,51.27777],[33.64699,51.3],[33.64805,51.31811],[33.66853,51.33152],[33.68399,51.33001],[33.68199,51.34299],[33.66737,51.34018],[33.662,51.34498],[33.65523,51.34114],[33.64382,51.34886],[33.64321,51.35398],[33.64699,51.359],[33.63928,51.36875],[33.64511,51.38274],[33.65032,51.38577],[33.66398,51.38201],[33.526,51.57099],[33.12101,51.404],[33.12264,51.38477],[33.11397,51.37499],[33.06073,51.36821],[33.009,51.38699],[33.00201,51.381],[33.023,51.34401],[33.04996,51.33723],[33.05355,51.33374],[33.04901,51.307],[33.07148,51.28706],[33.06401,51.269],[33.06856,51.25131],[33.06547,51.2472],[33.03301,51.234],[33.02124,51.19475],[32.96301,51.178],[32.96935,51.13953],[32.94001,51.097],[33.021,51.07601],[33.0579,51.07725],[33.06308,51.06978],[33.06273,51.06473],[33.04401,51.049],[33.084,51.03201],[33.142,51.02601],[33.17247,51.05875],[33.20132,51.0514],[33.20154,51.04536],[33.18415,51.01929],[33.15601,50.997],[33.15801,50.985],[33.18448,50.96702],[33.18388,50.91835],[33.17067,50.89592],[33.14701,50.881],[33.12301,50.813],[33.12501,50.777],[33.16283,50.75456],[33.16609,50.74357],[33.13101,50.71],[33.12336,50.67612],[33.10301,50.664],[33.1068,50.63773],[33.09498,50.60201],[33.06197,50.53802],[33.02441,50.49255],[32.973,50.46799],[32.95063,50.44401],[32.906,50.42899],[32.87257,50.39521],[32.812,50.38799],[32.72665,50.35804],[32.69165,50.35811],[32.676,50.36799],[32.628,50.36302],[32.50553,50.36989],[32.48299,50.40199],[32.472,50.40799],[32.443,50.40699],[32.40767,50.39277],[32.383,50.40799],[32.35015,50.408],[32.284,50.38699],[32.23157,50.34532],[32.13852,50.35023],[32.07232,50.37857],[32.07073,50.38674],[32.08899,50.406],[32.01982,50.42034],[32.01099,50.42903],[32.00799,50.451],[31.97744,50.47316],[31.97742,50.47945],[31.99326,50.49953],[32.03099,50.50401],[32.03499,50.525],[32.028,50.54499],[31.96211,50.55027],[31.909,50.59299],[31.847,50.62399],[31.79701,50.61399],[31.78275,50.5762],[31.74847,50.55345],[31.687,50.55299],[31.6122,50.51786],[31.56069,50.50908],[31.497,50.51799],[31.4617,50.50022],[31.364,50.51399],[31.32741,50.50817],[31.28154,50.5189],[31.26343,50.53128],[31.25799,50.55799],[31.21979,50.56226],[31.18253,50.58668],[31.1813,50.59182],[31.18642,50.60507],[31.208,50.61001],[31.21899,50.623],[31.21299,50.659],[31.19899,50.67599],[31.162,50.69867],[31.15799,50.71499],[31.11535,50.7243],[31.11399,50.745],[31.095,50.76499],[31.078,50.76899],[31.02968,50.75605],[30.963,50.75899],[30.93065,50.74619],[30.872,50.75499],[30.83601,50.73777],[30.794,50.75999],[30.74341,50.75781],[30.73993,50.76806],[30.77099,50.811],[30.77999,50.844],[30.735,50.86899],[30.65603,50.8925],[30.65219,50.91061],[30.66399,50.957],[30.64899,50.98599],[30.61487,51.00403],[30.556,51.01699],[30.53073,51.00839],[30.51716,51.01224],[30.51401,51.01625],[30.51104,51.10769],[30.53099,51.18],[30.51825,51.22233],[30.5223,51.22607],[30.55599,51.23201],[30.55726,51.26657],[30.57699,51.289],[30.58033,51.3034],[30.63799,51.336],[30.63336,51.36105],[30.63675,51.3649],[30.64599,51.367],[30.61799,51.41899],[30.59156,51.42608],[30.58804,51.42957],[30.58743,51.45308],[30.59496,51.45893],[30.61799,51.46001],[30.618,51.46685],[30.58995,51.48198],[30.58499,51.509],[30.56749,51.5205],[30.56799,51.52659],[30.58399,51.542],[30.53282,51.55408],[30.52651,51.56018],[30.52612,51.56544],[30.54299,51.583],[30.51797,51.59465],[30.51503,51.59926],[30.51788,51.60534],[30.55699,51.624],[30.55192,51.63625],[30.56999,51.651],[30.56473,51.66527],[30.57599,51.686],[30.57259,51.69459],[30.57453,51.69976],[30.62598,51.709],[30.51638,51.78986],[30.51628,51.79869],[30.73786,51.88394],[30.74447,51.89835],[30.799,51.90901],[30.81099,51.918],[30.80489,51.93437],[30.8068,51.93981],[30.858,51.95801],[30.89695,51.99729],[30.941,51.99401],[30.94999,52.007],[30.94108,52.01988],[30.92031,52.02219],[30.91609,52.02752],[30.92499,52.042],[30.92073,52.05939],[30.93468,52.06989],[31.14,52.07501],[31.30488,52.15395],[31.76399,52.14201],[31.749,52.16399],[31.69956,52.18479],[31.68271,52.20166],[31.68225,52.2296],[31.69899,52.251],[31.63105,52.26512],[31.57172,52.30814],[31.57253,52.31557],[31.60299,52.341],[31.60599,52.362],[31.56168,52.39923],[31.42699,52.869],[31.3883,52.88789],[31.36653,52.90849],[31.323,52.977],[31.25468,53.01029],[31.25309,53.01909],[31.31852,53.07554],[31.36399,53.08901],[31.36021,53.13425],[31.38015,53.18244],[31.41693,53.19993],[31.527,53.19501],[31.63741,53.28519],[31.853,53.11001],[31.931,53.08801],[32.00999,53.09988],[32.083,53.08201],[32.117,53.08101],[32.15202,53.0959],[32.201,53.09801],[32.21678,53.12525],[32.268,53.12501],[32.35706,53.18104],[32.46999,53.26001],[32.47899,53.27499],[32.45487,53.27942],[32.44858,53.28935],[32.45524,53.29962],[32.481,53.30489],[32.524,53.29701],[32.55499,53.319],[32.50125,53.66097],[32.63499,53.97],[32.26523,54.31746],[32.20799,54.86399],[31.35579,54.82466],[31.35182,54.83102],[31.36499,54.944],[31.04684,55.3187],[31.05046,55.32679],[31.72299,55.54901],[31.80399,56.02999],[30.9044,55.90046],[30.89987,55.90293],[30.78213,56.06499],[30.78172,56.07018],[30.78609,56.07389],[31.22899,56.166],[31.10699,56.41],[30.57987,56.8051],[30.5778,56.81186],[30.6406,56.94876],[30.64609,56.95226],[30.991,56.81101],[31.16999,57.112],[31.007,57.25899],[30.48553,57.37635],[29.92176,57.76183],[29.87299,58.11399],[28.38808,58.17878],[28.38249,58.18346],[28.37899,58.21199],[27.973,58.13315],[27.5861,58.22973],[27.58164,58.2345],[27.65098,58.84262],[28.26551,59.08678],[29.28188,59.116],[29.8845,59.10999],[30.228,58.83801],[30.66136,59.25298],[31.65399,59.52601],[31.60599,60.134],[30.929,61.09999],[30.17932,61.37299],[29.7318,61.845],[29.73583,61.85104],[31.06,62.30701],[31.39533,62.54294],[32.26699,62.66201],[32.22299,62.84799],[31.28577,62.95925],[31.18099,63.32999],[30.43628,63.41678],[30.4342,63.42155],[30.44581,63.71566],[30.86899,64.162],[30.06757,64.5608],[30.39699,65.159],[30.40838,65.78766],[30.41319,65.78971],[30.997,65.76201],[31.15499,65.914],[30.78943,66.23206],[30.86707,66.75063],[31.11599,67.067],[30.10888,67.71906],[28.9105,68.35151],[28.90732,68.35725],[28.90977,68.36167],[30.14349,69.26159],[31.04299,69.453],[31.029,69.47699],[30.862,69.49899],[30.75425,69.47308],[30.664,69.47499],[30.61498,69.43203],[30.56121,69.40214],[30.458,69.37503],[30.33328,69.36904],[30.235,69.39199],[30.14572,69.3881],[30.06331,69.40917],[30.06131,69.41384],[30.06409,69.41871],[30.12341,69.44192],[30.13736,69.45298],[30.15609,69.50616],[30.211,69.52801],[30.22499,69.54101],[30.23199,69.558],[30.22879,69.58137],[30.23188,69.58677],[30.32598,69.60675],[30.48051,69.54421],[30.512,69.53601],[30.75482,69.52101],[30.853,69.52701],[30.89811,69.54411],[30.92699,69.578],[30.93099,69.595],[30.92799,69.672],[30.88499,69.70195],[30.88206,69.71719],[30.88381,69.72421],[30.89246,69.72588],[31.05399,69.757],[31.05646,69.77009],[31.19178,69.74626],[31.224,69.70501],[31.2214,69.73962],[31.256,69.74395],[31.44106,69.6875],[31.40804,69.64939],[31.35901,69.64499],[31.36616,69.62143],[31.26803,69.593],[31.329,69.58901],[31.383,69.61001],[31.39248,69.63785],[31.439,69.63701],[31.48189,69.67352],[31.53598,69.65701],[31.53961,69.67993],[31.819,69.64801],[31.68998,69.70917],[31.71799,69.738],[31.72839,69.80786],[31.77463,69.83033],[31.95897,69.7928],[32.018,69.75201],[32.05397,69.75001],[32.03787,69.76965],[32.09797,69.76201],[32.01811,69.82793],[31.95739,69.84913],[31.98599,69.868],[31.95999,69.89399],[31.89959,69.90516],[31.90064,69.93774],[31.94173,69.95383],[31.9788,69.94502],[31.983,69.92201],[32.05594,69.94476],[32.19999,69.91398],[32.242,69.88701],[32.4038,69.86036],[32.501,69.779],[32.663,69.71901],[32.68284,69.7172],[33.0,69.68827],[33.058,69.68298],[33.09593,69.65345],[32.95197,69.58409],[32.83267,69.5671],[32.505,69.60303]],[[56.568,61.41401],[56.60016,61.48551],[56.60473,61.48761],[56.642,61.48401],[56.65455,61.51529],[56.65935,61.51849],[57.08,61.47001],[57.09456,61.49452],[57.09943,61.49699],[58.84585,61.491],[58.85053,61.51214],[58.85503,61.51569],[58.921,61.52691],[58.975,61.51701],[58.99931,61.52991],[59.05,61.53201],[59.12299,61.58901],[59.1303,61.60713],[59.14962,61.62432],[59.192,61.62301],[59.20923,61.63329],[59.241,61.62201],[59.282,61.63601],[59.29766,61.64999],[59.352,61.65901],[59.36499,61.67],[59.36048,61.68871],[59.37499,61.698],[59.37643,61.71118],[59.403,61.72501],[59.42599,61.752],[59.42399,61.75899],[59.36311,61.77376],[59.347,61.78899],[59.32997,61.78949],[59.32207,61.80169],[59.33799,61.829],[59.33774,61.84624],[59.36706,61.86988],[59.40599,61.88001],[59.40891,61.90753],[59.49399,61.945],[59.47,61.99699],[59.44553,62.006],[59.44699,62.018],[59.43279,62.04557],[59.44199,62.056],[59.43517,62.07433],[59.43799,62.096],[59.4067,62.10922],[59.4053,62.15252],[59.44599,62.182],[59.445,62.19282],[59.46199,62.205],[59.45645,62.21761],[59.4616,62.23237],[59.492,62.24101],[59.505,62.255],[59.51499,62.279],[59.50366,62.2928],[59.50474,62.29994],[59.51999,62.31],[59.52361,62.31868],[59.57,62.32901],[59.5919,62.35963],[59.61799,62.372],[59.62399,62.409],[59.59833,62.41846],[59.5955,62.42448],[59.60999,62.442],[59.61503,62.47799],[59.63999,62.54699],[59.55235,62.55102],[59.51,62.56799],[59.46731,62.56952],[59.4627,62.57195],[59.46244,62.57871],[59.47299,62.59],[59.47599,62.606],[59.43496,62.63361],[59.43444,62.63933],[59.44699,62.662],[59.41226,62.67497],[59.41499,62.707],[59.39134,62.72963],[59.3946,62.75036],[59.417,62.75501],[59.43799,62.776],[59.44899,62.829],[59.44911,62.8707],[59.46599,62.883],[59.46699,62.9],[59.452,62.92199],[59.43555,62.92351],[59.417,62.93799],[59.32738,62.9471],[59.30062,62.9667],[59.29599,62.97899],[59.274,62.98699],[59.22785,62.98943],[59.21143,63.02603],[59.23699,63.052],[59.24699,63.083],[59.14044,63.11734],[59.13799,63.138],[59.12206,63.15452],[59.13599,63.176],[59.10414,63.1935],[59.09799,63.209],[59.07677,63.22116],[59.06899,63.27099],[59.023,63.28199],[58.97872,63.27707],[58.871,63.29499],[58.83375,63.29221],[58.713,63.33999],[58.37107,63.30864],[58.35367,63.3445],[58.35794,63.36113],[58.25699,63.57499],[58.138,63.61799],[58.11901,63.60799],[58.10437,63.57374],[58.07107,63.55199],[58.06591,63.55133],[58.026,63.57399],[57.99484,63.58182],[57.98899,63.59699],[57.95614,63.60685],[57.95299,63.636],[57.897,63.68399],[57.84701,63.638],[57.79714,63.56962],[57.78791,63.56688],[57.47519,63.14554],[56.796,63.24899],[56.77015,63.22056],[56.721,63.22599],[56.68381,63.17169],[56.67824,63.16961],[56.3261,63.22665],[56.32265,63.23452],[56.33899,63.255],[56.32499,63.30099],[56.16715,63.32498],[56.1544,63.31826],[56.0751,63.32981],[56.07151,63.3376],[56.09499,63.368],[56.09199,63.37499],[55.78915,63.41698],[55.78642,63.41093],[55.78153,63.40922],[55.749,63.42299],[55.71,63.42699],[55.57808,63.24712],[55.5851,63.2407],[55.58502,63.23489],[55.45333,63.05091],[55.376,63.04599],[55.27701,62.849],[55.282,62.84301],[55.3361,62.85033],[55.374,62.81801],[55.46177,62.83326],[55.50452,62.79144],[55.50493,62.78437],[55.50005,62.78163],[55.40167,62.77903],[55.32,62.78602],[55.257,62.80099],[55.185,62.676],[55.15388,62.59367],[55.14961,62.59089],[55.12801,62.58999],[55.12801,62.57101],[55.47723,62.54585],[55.48277,62.54045],[55.24301,62.254],[55.53543,62.07012],[55.54207,62.05739],[55.54039,62.05131],[55.43301,61.97],[55.539,61.87401],[55.656,61.89801],[55.72922,61.92935],[56.313,61.68298],[56.31495,61.67522],[56.18001,61.419],[56.317,61.31001],[56.38139,61.43666],[56.568,61.41401]],[[39.57611,53.891],[40.514,53.85201],[40.98299,54.11601],[41.22792,54.52786],[41.36299,54.935],[41.16,54.99799],[41.00101,54.796],[40.92239,54.53069],[40.91613,54.52642],[40.20618,54.58732],[39.69929,54.78762],[39.598,55.02599],[39.35607,55.02624],[39.126,55.17099],[38.90651,55.13801],[38.21501,55.14799],[38.31987,54.594],[38.17601,53.97301],[38.7924,53.98295],[39.57611,53.891]]],[[[35.88,65.019],[35.899,65.028],[35.88,65.043],[35.979,65.057],[36.024,65.034],[36.006,65.02],[35.859,65.018],[35.845,65.004],[35.878,64.99],[35.825,64.989],[35.736,64.957],[35.708,64.998],[35.722,65.01],[35.687,65.022],[35.704,65.028],[35.584,65.042],[35.502,65.105],[35.538,65.145],[35.605,65.154],[35.565,65.127],[35.606,65.127],[35.641,65.142],[35.658,65.13],[35.644,65.144],[35.668,65.167],[35.762,65.172],[35.819,65.155],[35.853,65.102],[35.825,65.096],[35.857,65.057],[35.84,65.049],[35.85,65.041],[35.864,65.039],[35.856,65.037],[35.814,65.052],[35.812,65.088],[35.792,65.096],[35.767,65.087],[35.743,65.039],[35.812,65.047],[35.88,65.019]]],[[[36.274,65.157],[36.073,65.125],[35.933,65.144],[35.934,65.18],[35.998,65.192],[35.957,65.181],[35.957,65.17],[35.976,65.16],[35.965,65.17],[36.005,65.186],[36.063,65.156],[36.274,65.157]]],[[[72.894,72.684],[72.969,72.659],[72.925,72.649],[72.904,72.619],[72.982,72.546],[72.868,72.6],[72.879,72.612],[72.816,72.664],[72.894,72.684]]],[[[34.842,64.702],[34.825,64.709],[34.846,64.747],[34.89,64.759],[35.022,64.744],[34.982,64.732],[34.994,64.729],[34.842,64.702]]],[[[33.788,66.339],[33.789,66.329],[33.808,66.316],[33.764,66.314],[33.78,66.301],[33.645,66.304],[33.666,66.311],[33.654,66.321],[33.788,66.339]]],[[[33.107,69.414],[33.144,69.435],[33.146,69.421],[33.12,69.415],[33.146,69.411],[33.099,69.392],[32.978,69.377],[33.021,69.407],[33.107,69.414]]],[[[34.923,65.766],[34.912,65.778],[34.964,65.777],[34.99,65.788],[34.986,65.771],[34.957,65.768],[35.02,65.754],[34.981,65.737],[34.901,65.741],[34.947,65.743],[34.91,65.761],[34.923,65.766]]],[[[69.401,66.658],[69.34,66.664],[69.315,66.679],[69.324,66.703],[69.382,66.711],[69.391,66.669],[69.345,66.667],[69.401,66.658]]],[[[35.285,64.403],[35.306,64.385],[35.273,64.354],[35.218,64.386],[35.285,64.403]]],[[[33.914,66.254],[33.891,66.253],[33.786,66.276],[33.908,66.278],[33.971,66.261],[33.902,66.267],[33.914,66.254]]],[[[38.468,68.349],[38.434,68.381],[38.46,68.395],[38.506,68.366],[38.468,68.349]]],[[[32.324,67.101],[32.387,67.108],[32.444,67.085],[32.385,67.078],[32.375,67.098],[32.324,67.101]]],[[[34.71,69.261],[34.829,69.248],[34.702,69.247],[34.65,69.255],[34.71,69.261]]],[[[33.007,66.515],[33.091,66.525],[33.14,66.515],[33.099,66.509],[33.007,66.515]]],[[[33.859,66.344],[33.806,66.335],[33.796,66.36],[33.859,66.359],[33.837,66.348],[33.859,66.344]]],[[[69.305,66.655],[69.285,66.687],[69.315,66.695],[69.311,66.677],[69.336,66.654],[69.32,66.665],[69.327,66.654],[69.305,66.655]]],[[[36.334,69.071],[36.344,69.081],[36.426,69.059],[36.366,69.061],[36.334,69.071]]],[[[37.38,68.803],[37.306,68.808],[37.302,68.821],[37.357,68.815],[37.38,68.803]]],[[[40.53,67.817],[40.55,67.81],[40.466,67.825],[40.542,67.832],[40.53,67.817]]],[[[39.472,68.081],[39.486,68.091],[39.544,68.069],[39.524,68.067],[39.472,68.081]]]]}}]}