{"type":"FeatureCollection","features":[{"type":"Feature","properties":{"mid":true,"src":"data/years/1521-06-01.geojson"},"geometry":{"type":"MultiPolygon","coordinates":[[[[34.47977,65.33527],[34.47776,65.32972],[34.46201,65.316],[34.47101,65.289],[34.496,65.27501],[34.5254,65.27453],[34.5288,65.26867],[34.52401,65.26101],[34.61244,65.25508],[34.64,65.241],[34.60603,65.227],[34.64757,65.2237],[34.68038,65.20041],[34.68197,65.18767],[34.67866,65.18263],[34.62702,65.172],[34.67084,65.15209],[34.67179,65.14578],[34.66301,65.127],[34.681,65.11401],[34.76558,65.10722],[34.77081,65.10233],[34.77064,65.09704],[34.74701,65.066],[34.754,65.05501],[34.816,65.043],[34.79655,65.02097],[34.719,64.99799],[34.70202,64.98001],[34.77808,64.96657],[34.841,64.91901],[34.87046,64.9167],[34.87429,64.91045],[34.87701,64.889],[34.892,64.87501],[34.942,64.858],[34.91198,64.82603],[34.87158,64.80204],[34.75702,64.774],[34.812,64.75401],[34.97422,64.76997],[35.009,64.743],[34.97143,64.7282],[34.85516,64.71402],[34.835,64.70499],[34.83201,64.698],[34.91146,64.66321],[34.936,64.63701],[34.96979,64.62593],[34.9759,64.61536],[34.97065,64.60955],[34.887,64.58199],[34.84671,64.56035],[34.79701,64.55699],[34.79801,64.54701],[34.849,64.52801],[34.92598,64.52492],[35.009,64.494],[34.99586,64.47106],[34.95613,64.45193],[35.014,64.42301],[35.11878,64.40222],[35.161,64.38001],[35.30663,64.37171],[35.31635,64.36565],[35.3184,64.3606],[35.30601,64.343],[35.32767,64.3303],[35.32901,64.314],[35.34889,64.2961],[35.41022,64.287],[35.53806,64.32187],[35.589,64.32201],[35.61799,64.34],[35.566,64.406],[35.58229,64.41075],[35.638,64.38401],[35.81144,64.34179],[35.8584,64.3232],[35.89325,64.29642],[35.88801,64.268],[35.90101,64.25601],[35.94732,64.24058],[35.972,64.20301],[36.013,64.19701],[36.06157,64.21713],[36.12037,64.1952],[36.22525,64.13741],[36.23199,64.12896],[36.23213,64.12365],[36.21001,64.104],[36.22201,64.07501],[36.25754,64.06502],[36.27899,64.04997],[36.27937,64.04045],[36.26501,64.024],[36.29188,64.01006],[36.41878,63.99599],[36.48,63.97201],[36.51613,63.97047],[36.51873,63.96276],[36.50601,63.941],[36.51688,63.91498],[36.51801,63.87001],[36.98543,63.84207],[37.411,63.75001],[37.59071,63.80688],[37.94499,63.85001],[38.05399,63.986],[38.05399,64.129],[37.88,64.30799],[37.79502,64.32202],[37.76389,64.33914],[37.74845,64.36335],[37.74699,64.38999],[37.70101,64.381],[37.69533,64.36249],[37.67582,64.3434],[37.597,64.32803],[37.55179,64.33501],[37.48215,64.33301],[37.40114,64.31303],[37.38484,64.306],[37.26135,64.31404],[37.04378,64.39049],[36.89277,64.4932],[36.5742,64.75983],[36.57197,64.76434],[36.57455,64.77049],[36.88149,65.06533],[36.88831,65.068],[37.10297,65.06788],[37.60413,64.85297],[38.25304,64.70299],[39.19285,64.51103],[39.62187,64.476],[39.99729,64.541],[40.322,64.46301],[40.43999,64.563],[40.46199,64.75],[40.3661,64.85788],[40.34805,64.87137],[40.32892,64.90408],[40.321,64.91199],[40.27907,64.93474],[40.263,64.94706],[40.24968,64.9632],[40.24099,64.98199],[40.225,64.98899],[40.1795,65.00066],[39.97863,65.15466],[39.82483,65.43414],[39.8273,65.44048],[39.94853,65.57832],[39.95446,65.58243],[40.68018,65.79376],[41.35411,65.95504],[41.623,66.06501],[42.13428,66.38794],[42.20973,66.40989],[43.2424,66.25081],[43.87614,66.011],[44.03,66.01101],[44.05299,66.04],[44.12236,66.26696],[44.2229,66.39987],[44.22928,66.40301],[44.33672,66.40398],[44.47166,66.36662],[44.577,66.30301],[44.859,66.23101],[44.93659,66.22688],[45.73985,66.06303],[45.83235,66.08296],[46.34725,66.02291],[47.11012,65.81599],[47.15514,65.81101],[47.40767,65.831],[47.661,65.80301],[47.728,65.81401],[47.76399,65.84],[47.76799,65.863],[47.73666,65.91271],[47.75712,65.93702],[47.96419,66.04953],[48.074,66.07101],[48.1407,66.12177],[49.00713,66.11403],[51.512,66.77801],[51.55399,66.797],[51.49449,66.82579],[51.49101,66.83016],[51.49205,66.83601],[51.51799,66.867],[51.51699,66.881],[51.50376,66.89997],[51.50315,66.90624],[51.52515,66.92239],[51.56276,66.931],[51.67516,66.92202],[51.732,66.93001],[51.75903,66.94886],[51.812,66.94901],[51.82799,66.95901],[51.83542,66.98607],[51.84938,66.99671],[51.916,67.00001],[52.02184,67.02296],[52.06981,67.05223],[52.15862,67.08102],[52.24618,67.08399],[53.77209,66.994],[59.87868,66.997],[59.88487,66.99425],[59.88625,66.98876],[59.86801,66.97499],[59.86901,66.96301],[59.919,66.94901],[60.08265,66.985],[61.43185,66.995],[61.4943,67.01397],[61.626,67.00701],[61.692,67.02101],[61.73585,67.07471],[61.831,67.10701],[61.85406,67.12202],[62.823,67.38301],[62.83999,67.397],[62.85499,67.435],[62.87489,67.57324],[62.87763,67.57768],[62.89512,67.59075],[63.074,67.64801],[63.10652,67.66954],[63.29499,67.71201],[63.30898,67.73193],[63.32788,67.7405],[63.422,67.76296],[63.691,67.75701],[63.70999,67.767],[63.7032,67.79427],[63.71127,67.80464],[63.873,67.83101],[63.94699,67.88],[63.95199,67.895],[63.91939,67.926],[63.92499,67.946],[63.91899,67.96399],[63.84441,68.00685],[63.83625,68.01743],[63.83891,68.02481],[63.86003,68.03388],[63.931,68.039],[64.03187,68.06197],[64.0838,68.08433],[64.326,68.12901],[64.35099,68.156],[64.347,68.16642],[64.35071,68.17261],[64.41769,68.19585],[64.53199,68.19601],[64.53899,68.219],[64.5231,68.25131],[64.52899,68.279],[64.50537,68.29971],[64.50088,68.31432],[64.52606,68.3399],[64.55905,68.35421],[64.761,68.40096],[64.806,68.396],[64.907,68.39998],[65.006,68.38401],[65.03607,68.40006],[65.44512,68.42389],[65.44969,68.42059],[65.4495,68.41496],[65.41801,68.39],[65.39941,68.34741],[65.348,68.30899],[65.32645,68.2785],[65.29301,68.26599],[65.26901,68.232],[65.26801,68.215],[65.28584,68.18512],[65.29201,68.136],[65.32378,68.09023],[65.28601,68.025],[65.28601,68.01],[65.34257,67.98238],[65.389,67.943],[65.436,67.91501],[65.56632,67.929],[65.781,67.91901],[65.85,67.933],[65.91008,67.955],[65.998,67.92801],[66.06126,67.932],[66.08411,67.92536],[66.08711,67.92048],[66.08679,67.90646],[66.05501,67.882],[66.04602,67.84946],[66.01501,67.796],[66.074,67.77201],[66.13431,67.76386],[66.1935,67.73621],[66.20188,67.7239],[66.19994,67.695],[66.15148,67.66246],[66.106,67.65204],[66.0,67.68299],[65.94325,67.66809],[65.85,67.65899],[65.82801,67.64599],[65.81901,67.631],[65.82301,67.619],[65.83759,67.61241],[65.83919,67.60442],[65.80201,67.58899],[65.79101,67.568],[65.809,67.55301],[65.836,67.55001],[66.0334,67.56965],[66.10023,67.50645],[66.10359,67.49029],[66.08498,67.47103],[66.00421,67.41978],[65.93736,67.39814],[65.80537,67.38803],[65.7,67.39299],[65.67989,67.38289],[65.673,67.36815],[65.69952,67.34636],[65.70069,67.33921],[65.66182,67.31648],[65.587,67.30099],[65.5494,67.2708],[65.42204,67.22041],[65.325,67.20299],[65.2348,67.15446],[65.18801,67.14899],[65.18901,67.134],[65.20259,67.11949],[65.20001,67.101],[65.20833,67.08406],[65.20652,67.07801],[65.17167,67.06603],[65.089,67.05899],[65.07301,67.043],[65.07701,67.02301],[65.09883,67.00309],[65.10212,66.99662],[65.11092,66.91676],[65.10309,66.90121],[65.09765,66.8974],[64.99661,66.87014],[64.936,66.87399],[64.84708,66.84173],[64.575,66.80299],[64.55601,66.79],[64.53308,66.75412],[64.537,66.73946],[64.53291,66.73349],[64.411,66.72799],[64.32456,66.67697],[64.29528,66.66811],[64.1988,66.66897],[64.0856,66.654],[63.98,66.65599],[63.89903,66.59939],[63.848,66.58599],[63.80652,66.55217],[63.71752,66.528],[63.653,66.52399],[63.60307,66.49474],[63.54128,66.47611],[63.49728,66.47402],[63.44,66.48999],[63.41301,66.48499],[63.397,66.4526],[63.35995,66.42669],[63.294,66.39899],[63.27858,66.36462],[63.23701,66.33],[63.23701,66.309],[63.29741,66.27133],[63.30086,66.25603],[63.29244,66.24429],[63.26374,66.24109],[63.161,66.26899],[63.104,66.25499],[63.009,66.199],[62.97501,66.16499],[62.95729,66.11835],[62.85801,66.07799],[62.84733,66.04153],[62.81701,66.011],[62.86772,65.98412],[62.87019,65.97698],[62.79801,65.932],[62.84698,65.89269],[62.84975,65.88512],[62.84408,65.87744],[62.68088,65.86698],[62.522,65.84399],[62.1318,65.73323],[62.01401,65.71999],[62.01714,65.71195],[62.27346,65.61949],[62.322,65.53701],[62.40184,65.51109],[62.40247,65.50416],[62.36901,65.447],[62.433,65.37801],[62.479,65.34501],[62.51612,65.33398],[62.79525,65.2981],[62.80959,65.28895],[62.80201,65.245],[62.80896,65.20934],[62.79501,65.168],[62.805,65.12431],[62.79682,65.05358],[62.77558,65.00362],[62.72877,64.95131],[62.68301,64.921],[62.67301,64.891],[62.68201,64.86901],[62.78175,64.85021],[62.80593,64.83303],[62.81555,64.80614],[62.787,64.79699],[62.78101,64.785],[62.79891,64.73573],[62.74119,64.69675],[62.59001,64.64499],[62.58201,64.636],[62.57806,64.60325],[62.53301,64.57099],[62.52801,64.557],[62.54115,64.54594],[62.687,64.48901],[62.83268,64.49297],[62.899,64.47201],[62.96162,64.49797],[63.23424,64.51873],[63.33799,64.48198],[63.381,64.45901],[63.45505,64.45389],[63.49621,64.38338],[63.49665,64.37718],[63.421,64.34199],[63.41001,64.325],[63.477,64.28701],[63.53568,64.28184],[63.611,64.26301],[63.889,64.27901],[63.90299,64.289],[63.90582,64.30669],[63.91019,64.31295],[64.01654,64.35198],[64.478,64.35501],[64.6037,64.43197],[64.71183,64.42002],[64.76081,64.42199],[64.9955,64.461],[65.177,64.44101],[65.203,64.45001],[65.29406,64.51726],[65.38024,64.56058],[65.53722,64.56837],[66.03917,63.59954],[65.06201,62.969],[65.979,62.38801],[66.99082,62.21545],[67.84247,61.67807],[67.8392,61.66979],[67.77802,61.651],[68.22703,61.53192],[68.44301,61.09801],[69.38359,60.91379],[69.65929,60.67747],[69.66229,60.67012],[68.62017,59.80811],[66.81618,59.63102],[66.12295,59.60503],[65.406,60.00199],[62.97302,59.31801],[61.307,58.83599],[60.14379,58.14751],[58.58198,57.58009],[56.344,57.36099],[54.59646,57.06908],[54.39232,57.06711],[54.365,57.08099],[54.29873,57.08816],[54.28606,57.10271],[54.28908,57.11088],[54.32099,57.12301],[54.32999,57.147],[54.33199,57.211],[54.31967,57.24308],[54.32999,57.268],[54.32699,57.285],[54.282,57.30699],[54.16915,57.31898],[54.13572,57.3161],[54.13022,57.32053],[54.14578,57.37025],[54.16008,57.38705],[54.268,57.41701],[54.27799,57.432],[54.27499,57.455],[54.267,57.46799],[54.25,57.47499],[54.20801,57.46604],[54.18231,57.47364],[54.17548,57.50687],[54.20399,57.53],[54.179,57.55999],[54.118,57.56299],[54.09374,57.52969],[54.088,57.52702],[54.04749,57.5347],[54.04403,57.54012],[54.04499,57.56299],[54.00913,57.5748],[54.01169,57.5825],[54.031,57.58501],[54.05206,57.59721],[54.12099,57.61301],[54.12199,57.626],[54.09426,57.63868],[54.08283,57.66579],[54.09899,57.68559],[54.145,57.69201],[54.16099,57.705],[54.13815,57.79345],[54.14099,57.831],[54.0953,57.90875],[54.104,57.97112],[54.09599,57.993],[53.99198,58.05898],[53.94762,58.09952],[53.93299,58.142],[53.90833,58.16365],[53.89,58.19399],[53.82069,58.22922],[53.82059,58.23582],[53.84802,58.27698],[53.89099,58.32],[53.879,58.33699],[53.79305,58.40233],[53.78999,58.40751],[53.78699,58.44399],[53.63732,58.44],[53.498,58.45499],[53.423,58.42899],[53.38721,58.40608],[53.32537,58.39418],[53.306,58.41099],[53.22529,58.43034],[53.206,58.45099],[53.17108,58.45996],[53.16199,58.487],[53.14127,58.5043],[53.13399,58.54],[53.118,58.54899],[53.065,58.54699],[53.02441,58.53103],[52.919,58.53899],[52.89501,58.514],[52.86802,58.42107],[52.86164,58.41615],[52.33201,58.45493],[52.274,58.47999],[52.179,58.49499],[52.11435,58.479],[52.009,58.47699],[51.969,58.46899],[51.82748,58.37795],[51.79201,58.36499],[51.78615,58.28536],[51.73901,58.25699],[51.72162,58.22759],[51.67701,58.19199],[51.66801,58.172],[51.68101,58.148],[51.711,58.13101],[51.76792,58.13506],[51.78865,58.12235],[51.81329,58.08795],[51.81321,58.07906],[51.79101,58.051],[51.79001,58.033],[51.811,58.01301],[51.87658,57.98119],[51.88138,57.97454],[51.86492,57.93606],[51.83701,57.907],[51.84097,57.87457],[51.83201,57.851],[51.85,57.83801],[51.91547,57.82034],[51.91974,57.75863],[51.90756,57.74484],[51.86701,57.727],[51.86787,57.67903],[51.84633,57.63153],[51.81944,57.60879],[51.75101,57.58],[51.73753,57.54722],[51.68745,57.538],[51.641,57.54899],[51.63,57.54499],[51.59601,57.504],[51.59219,57.45766],[51.58775,57.45115],[51.58258,57.4512],[51.534,57.47499],[51.39715,57.483],[51.29075,57.46125],[51.225,57.46699],[51.178,57.44999],[51.13096,57.37885],[51.11101,57.306],[51.11801,57.258],[51.15532,57.24056],[51.16601,57.21401],[51.1861,57.20071],[51.18001,57.167],[51.186,57.15201],[51.23089,57.13829],[51.23105,57.13121],[51.21101,57.11],[51.22301,57.065],[51.31747,57.00053],[51.31858,56.99295],[51.31109,56.97431],[51.30694,56.97102],[50.1123,56.78716],[50.097,56.80099],[50.07243,56.80302],[50.06499,56.841],[50.018,56.86799],[49.97675,56.86709],[49.856,56.89899],[49.78061,56.896],[49.74854,56.9033],[49.74499,56.918],[49.73404,56.93593],[49.75999,56.957],[49.76399,56.971],[49.754,56.987],[49.72729,57.00223],[49.71522,57.03157],[49.71799,57.064],[49.71,57.07699],[49.528,57.07799],[49.49798,57.05908],[49.426,57.05599],[49.41301,57.046],[49.41056,57.03471],[49.40524,57.03108],[49.28568,57.04404],[49.26838,57.05185],[49.23737,57.08401],[49.23099,57.12899],[49.1616,57.15012],[49.14916,57.16291],[49.14923,57.18026],[49.18399,57.20701],[49.1884,57.24587],[49.21799,57.29],[49.185,57.33499],[49.00901,57.28099],[49.00301,57.232],[49.0317,57.21712],[49.03431,57.21016],[49.00601,57.18999],[48.99074,57.13297],[48.95001,57.09115],[48.86373,57.09063],[48.85645,57.09453],[48.85384,57.09991],[48.86599,57.122],[48.834,57.16399],[48.75919,57.17697],[48.693,57.17999],[48.65942,57.16119],[48.63976,57.159],[48.568,57.17699],[48.43501,57.132],[48.38303,57.13511],[48.365,57.15699],[48.3,57.16999],[48.26184,57.14753],[48.19201,57.124],[48.19301,57.11601],[48.22879,57.10491],[48.23271,57.1008],[48.23237,57.09579],[48.22168,57.08683],[48.16401,57.07799],[48.15901,57.067],[48.19352,57.04517],[48.19632,57.03259],[48.13098,57.0051],[48.04382,57.00209],[48.015,57.01599],[47.993,57.01699],[47.96902,56.98454],[47.96138,56.9866],[47.94999,57.00399],[47.933,57.01099],[47.91901,57.005],[47.91438,56.99167],[47.90834,56.98894],[47.83448,57.00871],[47.81799,57.04199],[47.784,57.06199],[47.733,57.05899],[47.72401,57.044],[47.74314,57.02572],[47.74246,57.01734],[47.73669,57.015],[47.69,57.01499],[47.613,56.97799],[47.58563,56.94883],[47.55801,56.93399],[47.55294,56.9221],[47.51001,56.904],[47.49925,56.86595],[47.49364,56.8611],[47.452,56.88099],[47.427,56.88199],[47.38123,56.86021],[47.254,56.83902],[47.203,56.83799],[47.17547,56.82043],[47.16367,56.82003],[47.14811,56.82796],[47.14582,56.83306],[47.14871,56.83783],[47.16999,56.848],[47.16599,56.903],[47.151,56.91499],[47.08615,56.93595],[47.02527,56.92702],[46.937,56.95099],[46.82015,56.93517],[46.74122,56.94098],[46.7358,56.94548],[46.73599,56.958],[46.71613,56.97092],[46.68789,56.973],[46.66401,56.96799],[46.65813,56.94349],[46.61046,56.92602],[46.55888,56.934],[46.53667,56.92603],[46.514,56.94499],[46.336,56.95699],[46.31401,56.94599],[46.30321,56.9108],[46.29792,56.9062],[46.25983,56.90897],[46.038,56.87502],[45.965,56.87899],[45.94201,56.862],[45.93199,56.81949],[45.90401,56.782],[45.90775,56.73926],[45.89101,56.689],[45.91863,56.66634],[45.91803,56.6575],[45.85898,56.6341],[45.738,56.63099],[45.69992,56.60879],[45.656,56.59899],[45.63601,56.579],[45.63301,56.563],[45.64287,56.54127],[45.62501,56.526],[45.62501,56.513],[45.66,56.45701],[45.76528,56.4537],[45.779,56.42201],[45.8764,56.435],[45.912,56.42901],[45.94059,56.43142],[45.94589,56.41928],[45.94463,56.41291],[45.91701,56.38],[45.93757,56.32747],[45.93346,56.32386],[45.87001,56.30799],[45.87001,56.256],[45.99,56.188],[46.025,56.17501],[46.06259,56.17442],[46.074,56.13722],[46.06301,56.103],[46.09137,56.08622],[46.09151,56.08093],[46.08301,56.067],[46.089,56.05201],[46.1265,56.05491],[46.156,56.03601],[46.18902,56.04089],[46.19468,56.03402],[46.14904,55.97925],[46.09401,55.94299],[46.09701,55.928],[46.12294,55.902],[46.125,55.89649],[46.12266,55.89174],[46.08401,55.862],[46.09498,55.83244],[46.08997,55.81302],[46.01398,55.78303],[45.98601,55.78099],[45.99866,55.75464],[45.99806,55.74775],[45.99265,55.74507],[45.968,55.74799],[45.95301,55.74099],[45.94197,55.71698],[45.91601,55.69],[45.954,55.629],[45.974,55.61401],[45.98726,55.61485],[45.98908,55.60623],[45.71846,55.34866],[44.90401,55.09199],[44.88807,55.02232],[44.88291,55.0168],[43.97414,54.82303],[43.95392,54.80927],[43.90412,54.816],[43.85764,54.80904],[43.72556,54.82523],[43.67607,54.84598],[43.612,54.90599],[43.46326,54.9291],[43.42,54.95099],[43.389,54.95499],[43.248,54.93999],[43.153,54.90699],[43.12801,54.877],[43.11257,54.83053],[43.09604,54.80466],[43.06733,54.79003],[42.97982,54.81],[42.81814,54.80401],[42.74905,54.79312],[42.719,54.82099],[42.69481,54.824],[42.67,54.81899],[42.64162,54.79433],[42.61601,54.79104],[42.5506,54.80761],[42.52299,54.83999],[42.464,54.87499],[42.37901,54.798],[42.38301,54.785],[42.42029,54.76334],[42.41614,54.73295],[42.483,54.70901],[42.5014,54.72269],[42.51411,54.72095],[42.56,54.68601],[42.61546,54.70875],[42.62281,54.70709],[42.63438,54.68896],[42.63494,54.68305],[42.60801,54.659],[42.60401,54.644],[42.63358,54.63043],[42.65101,54.60501],[42.68622,54.59702],[42.69216,54.58533],[42.66165,54.56001],[42.61701,54.546],[42.62401,54.529],[42.64377,54.51257],[42.6445,54.50626],[42.63954,54.50152],[42.61655,54.49302],[42.571,54.50999],[42.55201,54.494],[42.54001,54.436],[42.546,54.43001],[42.58747,54.43233],[42.62784,54.3931],[42.62997,54.38607],[42.62724,54.38162],[42.59673,54.37302],[42.525,54.37099],[42.505,54.357],[42.47355,54.31097],[42.423,54.29599],[42.37702,54.26776],[42.27978,54.24121],[42.17901,54.26399],[42.20046,54.23019],[42.20201,54.209],[42.21831,54.19534],[42.22001,54.182],[42.257,54.16601],[42.371,54.20001],[42.38399,54.213],[42.39539,54.24387],[42.43801,54.25496],[42.46182,54.24842],[42.511,54.21601],[42.58175,54.19045],[42.58607,54.18622],[42.58377,54.1789],[42.52501,54.145],[42.52901,54.128],[42.55207,54.10638],[42.54954,54.09994],[42.5318,54.08814],[42.46472,54.09516],[42.438,54.11699],[42.3746,54.09817],[42.32398,54.103],[42.31916,54.10609],[42.31816,54.11112],[42.33099,54.126],[42.322,54.13899],[42.295,54.13699],[42.27792,54.12488],[42.25901,54.096],[42.27001,54.07801],[42.42393,54.0149],[42.44242,53.99729],[42.45547,53.96746],[42.44469,53.95199],[42.382,53.92999],[42.30401,53.851],[42.30501,53.843],[42.33787,53.82507],[42.43453,53.79902],[42.478,53.755],[42.525,53.72701],[42.538,53.72701],[42.54499,53.741],[42.51863,53.79276],[42.518,53.79902],[42.52154,53.80321],[42.55253,53.81611],[42.55823,53.81375],[42.55883,53.80738],[42.54001,53.783],[42.54901,53.76901],[42.571,53.75501],[42.591,53.75801],[42.6424,53.80569],[42.70769,53.806],[42.71306,53.80325],[42.71386,53.7972],[42.69901,53.77],[42.713,53.75601],[42.739,53.75101],[42.75299,53.762],[42.76881,53.81527],[42.77397,53.81934],[42.797,53.80701],[42.919,53.79201],[42.99024,53.82088],[43.06,53.82001],[43.06799,53.829],[43.06555,53.85204],[43.07442,53.859],[43.134,53.82501],[43.16999,53.82901],[43.17499,53.84],[43.16399,53.901],[43.152,53.90999],[43.1223,53.90912],[43.11646,53.91567],[43.12699,53.936],[43.13396,53.96993],[43.17463,53.99476],[43.231,53.99301],[43.30836,54.01107],[43.35,53.99001],[43.42483,53.98401],[43.45484,53.985],[43.53021,54.00898],[43.54624,54.00736],[43.56005,53.9929],[43.55908,53.98288],[43.653,53.83701],[43.94427,53.77735],[43.987,53.75001],[44.078,53.72901],[44.15767,53.751],[44.2224,53.74382],[44.313,53.69601],[44.334,53.69901],[44.36279,53.71999],[44.41514,53.72098],[44.43178,53.71216],[44.33701,53.11475],[43.98989,52.61835],[43.26638,52.31102],[42.0701,52.292],[41.3,52.30499],[40.31606,51.99302],[39.64095,51.74909],[37.699,52.73599],[36.86654,52.10047],[36.86147,52.10145],[36.8589,52.10577],[36.82399,52.38999],[36.52515,52.36501],[36.34087,51.96573],[36.33517,51.96115],[35.7957,51.79903],[35.34986,51.924],[34.83401,51.84199],[34.87084,51.46567],[34.86857,51.46002],[34.86242,51.45811],[34.55399,51.51999],[34.29101,51.50899],[34.297,51.49468],[34.29174,51.48261],[34.267,51.47499],[34.24501,51.457],[34.24972,51.44684],[34.24677,51.44085],[34.21701,51.43999],[34.2139,51.43154],[34.18848,51.426],[34.17201,51.43799],[34.11546,51.2563],[34.1104,51.25513],[33.97501,51.28399],[33.97837,51.27517],[33.97529,51.26936],[33.93901,51.255],[33.94486,51.24281],[33.94327,51.23588],[33.91401,51.22799],[33.91401,51.218],[33.921,51.21401],[33.93597,51.21886],[33.967,51.19801],[33.999,51.19401],[34.01399,51.199],[34.01465,51.21166],[34.03499,51.22201],[34.04105,51.23059],[34.04691,51.23071],[34.054,51.22601],[34.06715,51.23783],[34.10157,51.23991],[34.119,51.22801],[34.1246,51.2315],[34.12998,51.22957],[34.13577,51.22218],[34.13401,51.214],[34.1391,51.19973],[34.11501,51.18],[34.1132,51.15187],[34.105,51.14899],[34.07501,51.123],[34.06457,51.09602],[34.01501,51.08399],[34.01053,51.07097],[34.00464,51.06744],[33.96701,51.07099],[33.96772,51.05384],[33.96001,51.04899],[33.96576,51.04086],[33.96477,51.03368],[33.92445,51.00544],[33.909,51.00599],[33.88918,50.98723],[33.85215,50.994],[33.84309,50.98403],[33.73571,50.9846],[33.73177,50.98901],[33.72191,51.02712],[33.713,51.03899],[33.69965,51.04014],[33.69541,51.04399],[33.69404,51.0564],[33.69799,51.062],[33.629,51.09699],[33.59801,51.10047],[33.59567,51.10817],[33.60799,51.12],[33.585,51.13999],[33.56634,51.14003],[33.56172,51.14298],[33.568,51.19584],[33.57899,51.20201],[33.59883,51.24231],[33.625,51.24401],[33.63599,51.26999],[33.62887,51.27184],[33.62753,51.27799],[33.64699,51.3],[33.64853,51.31824],[33.66841,51.33158],[33.68399,51.33001],[33.68399,51.34099],[33.66825,51.33915],[33.662,51.34499],[33.65462,51.34151],[33.64567,51.34687],[33.64336,51.35306],[33.64699,51.359],[33.64,51.36849],[33.64485,51.38159],[33.65098,51.38588],[33.66398,51.38201],[33.527,51.57099],[33.12001,51.404],[33.12174,51.38374],[33.10943,51.37218],[33.06633,51.36703],[33.006,51.38699],[33.00101,51.376],[33.023,51.34401],[33.04965,51.33706],[33.05345,51.3332],[33.04901,51.30701],[33.07083,51.28837],[33.06401,51.269],[33.06875,51.25171],[33.06531,51.24715],[33.03301,51.234],[33.02199,51.19559],[32.96301,51.17799],[32.96972,51.1395],[32.94001,51.097],[33.021,51.07601],[33.05711,51.0774],[33.06218,51.07064],[33.06212,51.06559],[33.04401,51.049],[33.084,51.03201],[33.142,51.02601],[33.17321,51.05856],[33.19748,51.05409],[33.20151,51.04874],[33.18398,51.01902],[33.15601,50.997],[33.15801,50.985],[33.18462,50.96577],[33.18398,50.9196],[33.17259,50.89827],[33.14701,50.88099],[33.12301,50.814],[33.12501,50.777],[33.16073,50.75562],[33.16523,50.74998],[33.16569,50.7434],[33.13101,50.71],[33.12304,50.67607],[33.10301,50.664],[33.10597,50.63629],[33.09643,50.60382],[33.06204,50.53916],[33.02574,50.49392],[32.973,50.46899],[32.94998,50.44436],[32.90601,50.42999],[32.87324,50.39556],[32.812,50.38799],[32.72765,50.35804],[32.69303,50.35814],[32.676,50.36799],[32.62717,50.363],[32.50649,50.37],[32.483,50.40199],[32.472,50.40799],[32.443,50.40699],[32.40732,50.393],[32.383,50.40799],[32.35015,50.408],[32.284,50.38699],[32.22925,50.34525],[32.1405,50.35],[32.07239,50.37885],[32.06999,50.38336],[32.07167,50.38847],[32.08899,50.406],[32.01953,50.42067],[32.01117,50.42962],[32.00799,50.45099],[31.9776,50.47361],[31.97778,50.48095],[31.99276,50.49947],[32.03099,50.50401],[32.03499,50.525],[32.028,50.54499],[31.96283,50.55051],[31.909,50.59299],[31.848,50.62399],[31.79701,50.61399],[31.78362,50.57771],[31.75082,50.55458],[31.686,50.55299],[31.61345,50.51805],[31.56147,50.509],[31.496,50.51799],[31.45975,50.50021],[31.364,50.51399],[31.327,50.50904],[31.2775,50.52002],[31.26124,50.53621],[31.25799,50.55799],[31.21752,50.56247],[31.18222,50.58684],[31.1812,50.59249],[31.18629,50.60446],[31.208,50.61001],[31.21899,50.623],[31.21299,50.659],[31.19899,50.67599],[31.16227,50.69874],[31.15899,50.71499],[31.11581,50.72423],[31.11309,50.72995],[31.11399,50.745],[31.09,50.76699],[31.03918,50.7561],[30.963,50.75899],[30.93143,50.74703],[30.872,50.75499],[30.83755,50.738],[30.794,50.75999],[30.74386,50.75861],[30.74041,50.76229],[30.74051,50.76809],[30.77199,50.811],[30.77999,50.844],[30.735,50.86899],[30.65624,50.89278],[30.65202,50.91173],[30.66399,50.958],[30.64899,50.986],[30.615,51.00399],[30.556,51.01699],[30.52267,51.00903],[30.5145,51.0145],[30.51199,51.02027],[30.51103,51.10872],[30.53099,51.18],[30.51841,51.22171],[30.52302,51.22598],[30.55599,51.23201],[30.55733,51.26665],[30.57699,51.289],[30.58086,51.3035],[30.63799,51.336],[30.63416,51.36114],[30.63822,51.36576],[30.64598,51.36701],[30.61799,51.41899],[30.59299,51.42576],[30.58834,51.4303],[30.58617,51.44782],[30.58868,51.4542],[30.5951,51.45885],[30.61799,51.46001],[30.618,51.46685],[30.59052,51.48147],[30.58499,51.509],[30.56807,51.52037],[30.56851,51.52635],[30.58399,51.542],[30.5339,51.55414],[30.52752,51.56175],[30.52711,51.5677],[30.53164,51.57236],[30.54299,51.57601],[30.54299,51.583],[30.5192,51.59493],[30.51644,51.59937],[30.51915,51.60504],[30.55699,51.62401],[30.55211,51.63662],[30.56999,51.651],[30.56503,51.66524],[30.57599,51.686],[30.57303,51.69386],[30.57509,51.69933],[30.62698,51.70901],[30.51762,51.78958],[30.51545,51.79418],[30.51733,51.79888],[30.73686,51.88395],[30.73982,51.89265],[30.7454,51.89769],[30.774,51.89801],[30.801,51.91001],[30.81099,51.91801],[30.80512,51.93303],[30.80707,51.93988],[30.858,51.95801],[30.89674,51.99735],[30.941,51.99401],[30.94999,52.007],[30.94108,52.01988],[30.92026,52.02235],[30.91627,52.02774],[30.92499,52.042],[30.92063,52.05922],[30.93591,52.06988],[31.09619,52.08],[31.14,52.07501],[31.30384,52.15398],[31.76399,52.14201],[31.749,52.16399],[31.70046,52.18484],[31.68467,52.19953],[31.68203,52.20567],[31.68231,52.2296],[31.69899,52.251],[31.6308,52.26555],[31.57258,52.30865],[31.57337,52.31627],[31.60299,52.341],[31.60799,52.361],[31.56075,52.40096],[31.42799,52.866],[31.36725,52.90799],[31.323,52.97699],[31.25742,53.00881],[31.25293,53.01378],[31.25475,53.02065],[31.31697,53.07506],[31.36399,53.08901],[31.36011,53.13498],[31.37886,53.18106],[31.41794,53.19997],[31.527,53.19501],[31.63253,53.28278],[31.63963,53.28493],[31.853,53.11101],[31.931,53.08801],[32.01026,53.1],[32.083,53.08201],[32.117,53.08101],[32.15103,53.09587],[32.201,53.09801],[32.21782,53.12477],[32.268,53.12501],[32.47199,53.262],[32.47899,53.27499],[32.46066,53.27677],[32.45363,53.2805],[32.44919,53.28921],[32.45432,53.29915],[32.48133,53.305],[32.522,53.29601],[32.55499,53.319],[32.52299,53.52399],[32.45478,53.54579],[32.43134,53.56077],[32.40099,53.61134],[32.39916,53.63041],[32.40307,53.63689],[32.48799,53.67],[32.48099,53.69199],[32.442,53.71399],[32.36975,53.7153],[32.291,53.76099],[32.16403,53.78212],[32.10587,53.80702],[32.08288,53.80998],[31.87353,53.777],[31.787,53.79399],[31.75063,53.7958],[31.74772,53.80191],[31.75297,53.8179],[31.80999,53.882],[31.83803,53.96212],[31.84599,53.992],[31.82299,54.05299],[31.77229,54.04941],[31.737,54.09399],[31.6657,54.10213],[31.58299,54.12999],[31.50537,54.14433],[31.32446,54.22972],[31.30911,54.24607],[31.29939,54.27098],[31.28499,54.347],[31.24798,54.3781],[31.209,54.44799],[31.17989,54.45347],[31.168,54.46699],[31.09529,54.47882],[31.06792,54.49318],[31.06824,54.49843],[31.09083,54.53763],[31.14,54.58301],[31.16799,54.622],[31.12856,54.6407],[31.105,54.66799],[31.0028,54.67154],[30.99816,54.67572],[30.99599,54.69],[30.981,54.70599],[30.827,54.771],[30.77347,54.78499],[30.76322,54.80171],[30.76915,54.83016],[30.82599,54.877],[30.82699,54.903],[30.81775,54.92384],[30.82055,54.93069],[30.83803,54.93887],[30.9,54.94601],[30.93599,54.973],[30.90947,55.00858],[30.9081,55.01541],[30.91227,55.02227],[30.91936,55.02495],[31.00599,55.02301],[31.00599,55.043],[30.97155,55.10059],[30.98399,55.131],[30.96021,55.14487],[30.95999,55.163],[30.88717,55.20461],[30.85699,55.254],[30.80673,55.27178],[30.79503,55.28667],[30.79743,55.30404],[30.81288,55.32472],[30.84442,55.3504],[30.91799,55.388],[30.91899,55.40799],[30.88987,55.43329],[30.88203,55.45367],[30.88809,55.46764],[30.913,55.48],[30.91899,55.492],[30.90617,55.49705],[30.9029,55.50174],[30.91999,55.534],[30.90813,55.57965],[30.95239,55.65841],[31.03299,55.702],[31.0458,55.76191],[31.05178,55.76698],[31.18392,55.7382],[31.206,55.71801],[31.28274,55.737],[31.318,55.72201],[31.40109,55.734],[31.444,55.72101],[31.58579,55.74602],[31.75099,55.71501],[31.80399,56.02999],[30.90486,55.90009],[30.8992,55.90311],[30.777,56.07199],[30.69241,55.90381],[30.68458,55.90028],[29.948,56.53799],[29.0614,56.53831],[28.813,56.88299],[28.09301,56.79199],[28.02045,56.57633],[28.01676,56.57216],[28.01123,56.57222],[27.82483,56.72554],[27.92899,56.94],[27.64191,57.09152],[27.63878,57.09569],[27.64177,57.10346],[27.77299,57.21101],[27.79499,57.46599],[27.53967,57.40715],[27.53205,57.41244],[27.51104,57.61234],[27.65977,58.928],[27.6639,58.93396],[27.772,58.89101],[28.26759,59.08699],[29.28188,59.116],[29.88374,59.11],[30.228,58.83801],[30.66199,59.25262],[31.65399,59.52601],[31.60599,60.134],[30.929,61.09999],[30.17875,61.37355],[29.73442,61.83951],[29.73229,61.84582],[29.73731,61.85145],[31.06,62.30701],[31.39654,62.54282],[32.26699,62.66201],[32.22299,62.84799],[31.28562,62.9598],[31.18099,63.32999],[30.43758,63.41639],[30.43409,63.4234],[30.44665,63.71544],[30.86899,64.162],[30.07183,64.55659],[30.06801,64.56116],[30.39699,65.159],[30.4083,65.78646],[30.41356,65.78897],[30.997,65.76201],[31.15499,65.914],[30.79177,66.22733],[30.7891,66.23288],[30.86719,66.75049],[31.11599,67.067],[30.10911,67.71893],[28.9118,68.35058],[28.90808,68.35509],[28.90949,68.36105],[30.14381,69.26151],[31.04299,69.453],[31.029,69.47699],[30.862,69.49899],[30.75499,69.47304],[30.664,69.47499],[30.61377,69.4319],[30.55954,69.402],[30.45538,69.37495],[30.332,69.36904],[30.236,69.39199],[30.14476,69.38808],[30.06361,69.40931],[30.06168,69.41456],[30.06441,69.41883],[30.12341,69.44192],[30.13736,69.45298],[30.15671,69.50664],[30.211,69.52801],[30.22499,69.54101],[30.23199,69.558],[30.2288,69.58132],[30.23187,69.5867],[30.32619,69.60697],[30.48051,69.54421],[30.512,69.53601],[30.75513,69.52151],[30.853,69.52701],[30.89811,69.54411],[30.92699,69.578],[30.93099,69.595],[30.92799,69.672],[30.88585,69.70145],[30.88222,69.71866],[30.8844,69.7249],[31.118,69.77597],[31.214,69.75601],[31.28532,69.75985],[31.40598,69.71557],[31.40786,69.70963],[31.40147,69.68954],[31.36801,69.67099],[31.35874,69.64842],[31.29704,69.61301],[31.354,69.62701],[31.45064,69.68814],[31.47635,69.69696],[31.521,69.68901],[31.55783,69.702],[31.80999,69.68801],[31.797,69.70499],[31.70101,69.73815],[31.7023,69.74722],[31.72799,69.77],[31.70924,69.8088],[31.71306,69.83],[31.72921,69.84594],[31.7527,69.85386],[31.84635,69.85298],[31.907,69.829],[31.96191,69.8172],[32.029,69.78201],[32.05713,69.77705],[32.10099,69.795],[32.09199,69.816],[31.98392,69.87262],[31.98103,69.87767],[31.98099,69.901],[31.92061,69.92578],[31.91466,69.93571],[31.92111,69.94584],[32.01737,69.96686],[32.05193,69.96418],[32.267,69.87601],[32.39319,69.87446],[32.415,69.847],[32.501,69.77801],[32.663,69.71901],[33.03393,69.68618],[33.11084,69.67399],[33.11672,69.66791],[33.11507,69.66061],[33.10455,69.64784],[33.03661,69.61829],[32.87236,69.583],[32.50236,69.63295],[32.437,69.64999],[32.37022,69.64],[32.18302,69.65399],[32.273,69.57601],[32.38524,69.585],[32.41267,69.58117],[32.42783,69.56911],[32.4287,69.56221],[32.39202,69.537],[32.502,69.517],[32.487,69.504],[32.42,69.50299],[32.40602,69.494],[32.43985,69.48106],[32.46886,69.49497],[32.528,69.48901],[32.53563,69.50529],[32.54065,69.508],[32.604,69.48401],[32.68762,69.503],[32.78979,69.49003],[32.87814,69.49097],[32.899,69.482],[32.79201,69.44299],[32.77002,69.41401],[32.89202,69.46189],[32.98659,69.47494],[33.085,69.476],[32.92102,69.395],[32.97687,69.39001],[33.316,69.45098],[33.362,69.43501],[33.44874,69.44698],[33.524,69.428],[33.50387,69.40333],[33.44,69.38799],[33.41403,69.37301],[33.496,69.38],[33.46574,69.35786],[33.37366,69.30655],[33.3448,69.29705],[33.28702,69.29285],[33.28901,69.27601],[33.30544,69.28401],[33.39841,69.29097],[33.44891,69.28771],[33.476,69.27],[33.316,69.24199],[33.29702,69.22901],[33.37124,69.235],[33.40079,69.23004],[33.40586,69.22497],[33.40615,69.209],[33.513,69.225],[33.544,69.209],[33.51003,69.18376],[33.39314,69.15104],[33.31001,69.117],[33.31301,69.09501],[33.373,69.09801],[33.45,69.133],[33.4747,69.15223],[33.564,69.18501],[33.57599,69.199],[33.56605,69.24241],[33.57799,69.256],[33.56535,69.27029],[33.56421,69.291],[33.59161,69.31839],[33.7216,69.33608],[33.72656,69.33451],[33.73703,69.32266],[33.72202,69.30401],[33.77869,69.317],[33.836,69.30801],[33.87299,69.31101],[33.852,69.339],[34.421,69.311],[34.41401,69.293],[34.44684,69.28404],[34.542,69.26901],[34.60698,69.26991],[34.662,69.24901],[34.982,69.229],[34.95615,69.19498],[34.973,69.19301],[35.03032,69.22189],[35.08861,69.22587],[35.13817,69.21522],[35.14401,69.191],[35.169,69.18101],[35.26399,69.216],[35.247,69.23599],[35.147,69.27],[35.18292,69.28],[35.273,69.27101],[35.33149,69.27592],[35.80888,69.19602],[35.87467,69.19484],[35.99432,69.1669],[36.055,69.12801],[36.09743,69.13294],[36.25009,69.11081],[36.27073,69.09871],[36.26501,69.078],[36.312,69.05801],[36.51759,69.03006],[36.68884,68.98204],[36.72706,68.97988],[36.764,68.95501],[36.84383,68.94475],[37.01055,68.89543],[37.044,68.87401],[37.20727,68.84601],[37.243,68.80901],[37.35659,68.78969],[37.454,68.74501],[37.56758,68.73601],[37.587,68.72401],[37.67823,68.71395],[37.73,68.68601],[37.81262,68.6607],[37.94783,68.60045],[38.04121,68.54231],[38.066,68.51001],[38.091,68.50101],[38.17697,68.49488],[38.20559,68.48241],[38.217,68.46101],[38.32656,68.44298],[38.348,68.41901],[38.38946,68.39918],[38.38901,68.34301],[38.424,68.33801],[38.43941,68.35515],[38.44711,68.35697],[38.47113,68.34497],[38.71586,68.29203],[38.76497,68.29101],[38.70381,68.31204],[38.60403,68.33234],[38.51627,68.36355],[38.51147,68.36906],[38.51544,68.37567],[38.53747,68.37798],[38.589,68.36001],[38.61499,68.365],[38.6064,68.37549],[38.60983,68.38249],[38.63998,68.38491],[38.793,68.32901],[38.92725,68.3107],[38.94454,68.30046],[38.94937,68.29035],[38.94707,68.28516],[38.93101,68.277],[38.954,68.26601],[39.036,68.25063],[39.253,68.17001],[39.35677,68.15021],[39.521,68.07601],[39.68824,68.06092],[39.739,68.04801],[39.79893,68.05289],[39.839,68.04301],[39.85999,68.04701],[39.86199,68.057],[39.79511,68.1179],[39.7224,68.16176],[39.7195,68.16713],[39.72563,68.1729],[39.79227,68.16487],[39.87,68.12901],[39.91245,68.1217],[39.945,68.067],[40.004,68.02001],[40.05984,68.00947],[40.148,67.95801],[40.29235,67.91388],[40.303,67.90201],[40.35196,67.90586],[40.40871,67.87612],[40.41495,67.86505],[40.40264,67.85333],[40.322,67.85086],[40.32212,67.84492],[40.405,67.79001],[40.525,67.75301],[40.538,67.75501],[40.56799,67.783],[40.56516,67.80168],[40.57095,67.80759],[40.65274,67.81476],[40.67081,67.80923],[40.68401,67.78101],[40.8,67.72801],[40.842,67.72501],[40.92464,67.73386],[40.96798,67.72434],[41.03688,67.68036],[41.0538,67.65214],[41.05154,67.61919],[40.98901,67.56399],[40.99001,67.555],[41.01297,67.53333],[40.99901,67.46701],[41.08617,67.45987],[41.14769,67.4238],[41.13601,67.38599],[41.13287,67.30803],[41.10901,67.254],[41.14,67.23501],[41.243,67.21301],[41.30633,67.23397],[41.33826,67.22422],[41.361,67.2023],[41.33601,67.16],[41.345,67.14901],[41.38053,67.13729],[41.38884,67.12611],[41.38321,67.10926],[41.34301,67.087],[41.34301,67.046],[41.35791,67.01711],[41.35692,67.00995],[41.34805,67.00143],[41.331,66.99803],[41.28,67.00199],[41.2671,66.9881],[41.3026,66.96343],[41.305,66.95769],[41.30319,66.94695],[41.27068,66.90268],[41.14502,66.78059],[40.91995,66.62071],[40.88401,66.60799],[40.83865,66.57786],[40.80898,66.56578],[40.77301,66.55599],[40.76901,66.55299],[40.76896,66.53501],[40.76447,66.52577],[40.39575,66.3434],[40.31986,66.33295],[40.179,66.28399],[40.10006,66.24117],[39.86314,66.19703],[39.82542,66.18221],[39.781,66.17599],[39.7096,66.15696],[39.478,66.13099],[39.40436,66.09915],[39.35564,66.08595],[39.07033,66.05404],[38.974,66.06099],[38.93785,66.05161],[38.56063,66.005],[37.92001,66.03904],[37.814,66.063],[37.65169,66.07305],[37.53056,66.09721],[37.424,66.14399],[37.35264,66.1551],[37.263,66.18099],[36.88513,66.23498],[36.82801,66.23304],[36.747,66.24499],[36.62734,66.238],[36.522,66.25],[36.402,66.24503],[36.26783,66.27101],[35.766,66.31102],[35.665,66.33699],[35.55301,66.33704],[35.36293,66.37117],[35.298,66.40899],[35.22037,66.41886],[35.16833,66.43291],[34.87385,66.55103],[34.805,66.56299],[34.737,66.54699],[34.66632,66.51916],[34.56,66.54199],[34.47839,66.53813],[34.43477,66.54752],[34.413,66.57399],[34.3225,66.59303],[34.31757,66.59675],[34.30699,66.61899],[34.28083,66.622],[34.212,66.62203],[34.18627,66.62697],[34.176,66.63199],[34.16365,66.62722],[34.05851,66.63888],[34.051,66.64399],[34.02918,66.64208],[33.79224,66.66601],[33.77394,66.68163],[33.75088,66.71508],[33.67601,66.74699],[33.67456,66.73436],[33.66712,66.71931],[33.65199,66.70502],[33.62826,66.698],[33.602,66.70299],[33.58572,66.68712],[33.43846,66.70205],[33.335,66.77999],[33.09885,66.85853],[32.8444,66.97585],[32.81933,66.99324],[32.802,67.01999],[32.75111,67.02901],[32.74866,67.03371],[32.74999,67.04599],[32.72808,67.05031],[32.627,67.08299],[32.49604,67.08399],[32.52584,67.0754],[32.582,67.038],[32.50602,67.029],[32.554,66.99002],[32.55278,66.98239],[32.52967,66.95535],[32.50714,66.949],[32.39209,66.95399],[32.47269,66.9449],[32.496,66.933],[32.47501,66.92699],[32.47669,66.91019],[32.46219,66.90048],[32.42202,66.892],[32.43187,66.88608],[32.54507,66.88284],[32.591,66.85801],[32.67063,66.83068],[32.67386,66.82431],[32.66701,66.81],[32.70487,66.79605],[32.889,66.78197],[32.91728,66.76715],[32.935,66.742],[32.813,66.736],[32.77014,66.74196],[32.974,66.69101],[33.1843,66.69187],[33.31621,66.64891],[33.32222,66.64207],[33.31936,66.63293],[33.31355,66.63009],[33.15617,66.65298],[33.12114,66.65001],[33.09315,66.61192],[33.06668,66.59811],[33.03422,66.592],[32.91204,66.60099],[32.985,66.57601],[33.046,66.57598],[33.12578,66.56278],[33.12933,66.55495],[33.12058,66.55012],[33.073,66.55699],[33.03702,66.548],[33.106,66.51001],[33.17774,66.5299],[33.229,66.53297],[33.29488,66.51867],[33.307,66.49801],[33.355,66.48001],[33.50816,66.464],[33.60226,66.50097],[33.62375,66.48986],[33.62954,66.47535],[33.62569,66.47191],[33.58503,66.46],[33.70426,66.44381],[33.735,66.426],[33.68532,66.414],[33.566,66.41999],[33.51601,66.40599],[33.644,66.378],[33.675,66.357],[33.6272,66.34403],[33.40902,66.34599],[33.46487,66.31507],[33.61536,66.32765],[33.62924,66.31826],[33.62787,66.31278],[33.62002,66.309],[33.8705,66.26681],[33.88736,66.25637],[33.88301,66.238],[33.9,66.22901],[33.97131,66.25097],[34.10454,66.24675],[34.167,66.221],[34.14901,66.197],[34.16101,66.18501],[34.277,66.16601],[34.32901,66.16487],[34.49848,66.11554],[34.53699,66.09002],[34.53,66.104],[34.55219,66.0935],[34.57,66.06801],[34.60991,66.05765],[34.635,66.03501],[34.66576,66.02398],[34.71978,65.98916],[34.72077,65.98277],[34.71483,65.97405],[34.66102,65.953],[34.716,65.933],[34.703,65.92799],[34.69501,65.909],[34.706,65.90501],[34.77817,65.91898],[34.802,65.90801],[34.85352,65.89848],[34.86336,65.88297],[34.86333,65.87672],[34.82501,65.843],[34.838,65.82801],[34.89091,65.82997],[34.8981,65.82468],[34.89396,65.79923],[34.88945,65.79379],[34.86901,65.785],[34.87101,65.774],[34.893,65.75501],[34.969,65.728],[34.92538,65.70224],[34.90022,65.70612],[34.771,65.775],[34.72601,65.78999],[34.72601,65.72101],[34.75016,65.71484],[34.754,65.70869],[34.74735,65.69955],[34.72601,65.692],[34.72601,65.67],[34.74512,65.65472],[34.77318,65.59944],[34.7678,65.5933],[34.73701,65.583],[34.73996,65.54813],[34.73701,65.54212],[34.63302,65.48701],[34.67094,65.4782],[34.68159,65.46771],[34.6801,65.45427],[34.63449,65.444],[34.548,65.45799],[34.51101,65.45599],[34.49201,65.441],[34.511,65.412],[34.46731,65.41003],[34.428,65.42199],[34.36902,65.41799],[34.393,65.398],[34.37,65.392],[34.318,65.39699],[34.30115,65.38698],[34.46342,65.36338],[34.47648,65.35114],[34.47977,65.33527]],[[55.53612,62.06869],[55.54166,62.05696],[55.53855,62.04993],[55.43301,61.97],[55.539,61.87401],[55.656,61.89801],[55.72918,61.92921],[56.31208,61.68381],[56.3147,61.67543],[56.18001,61.419],[56.317,61.31001],[56.38203,61.43603],[56.568,61.41401],[56.59958,61.48458],[56.60476,61.487],[56.642,61.48401],[56.6532,61.51287],[56.65978,61.51798],[57.08085,61.47],[57.09386,61.49367],[57.10033,61.497],[58.84585,61.491],[58.85004,61.51049],[58.85556,61.5151],[58.92055,61.527],[58.975,61.51701],[58.99784,61.52982],[59.05,61.53201],[59.12299,61.589],[59.13095,61.60778],[59.15164,61.62436],[59.192,61.62301],[59.20831,61.63334],[59.241,61.62201],[59.282,61.63601],[59.29846,61.6498],[59.352,61.65901],[59.36499,61.67],[59.36023,61.68818],[59.37499,61.698],[59.37585,61.71068],[59.404,61.72501],[59.42599,61.752],[59.42486,61.75905],[59.395,61.76999],[59.36461,61.77418],[59.347,61.78899],[59.33178,61.78963],[59.32345,61.80221],[59.33799,61.829],[59.33508,61.8407],[59.33803,61.84668],[59.36847,61.87001],[59.40599,61.88001],[59.40909,61.90633],[59.49399,61.945],[59.46999,61.99699],[59.45102,62.00177],[59.44559,62.00673],[59.44699,62.018],[59.4333,62.04556],[59.44199,62.056],[59.43503,62.0736],[59.43799,62.096],[59.40682,62.10943],[59.40523,62.15127],[59.40836,62.15625],[59.44599,62.182],[59.44493,62.19269],[59.46199,62.205],[59.456,62.21831],[59.46087,62.23204],[59.492,62.24101],[59.50599,62.256],[59.51499,62.279],[59.50404,62.29693],[59.51999,62.31],[59.52236,62.31834],[59.57,62.32901],[59.5897,62.35815],[59.61799,62.37201],[59.62399,62.409],[59.60018,62.41805],[59.59648,62.42485],[59.60999,62.441],[59.61404,62.47523],[59.62499,62.489],[59.62514,62.50897],[59.63399,62.52],[59.63999,62.54699],[59.55161,62.55103],[59.51,62.56799],[59.46678,62.56802],[59.4624,62.57048],[59.46265,62.57853],[59.47299,62.59],[59.47599,62.607],[59.4349,62.63329],[59.43454,62.63984],[59.44699,62.662],[59.41223,62.67503],[59.41499,62.707],[59.39438,62.7239],[59.3911,62.73148],[59.39559,62.75062],[59.417,62.75501],[59.43799,62.776],[59.44899,62.829],[59.4491,62.87064],[59.46599,62.883],[59.46699,62.9],[59.452,62.92199],[59.43388,62.92437],[59.417,62.93799],[59.32767,62.94716],[59.3015,62.9655],[59.29599,62.97899],[59.274,62.98699],[59.22746,62.98953],[59.21283,63.02745],[59.23799,63.05301],[59.24699,63.083],[59.14063,63.11752],[59.13799,63.138],[59.12245,63.15421],[59.13599,63.176],[59.07701,63.22005],[59.06899,63.27099],[59.023,63.28199],[58.979,63.27702],[58.871,63.29499],[58.83302,63.29211],[58.713,63.33999],[58.37152,63.30837],[58.36678,63.31262],[58.35425,63.34346],[58.35794,63.36113],[58.25699,63.57499],[58.138,63.61799],[58.11901,63.60799],[58.10276,63.57234],[58.07066,63.55179],[58.06406,63.55122],[58.026,63.57399],[57.99463,63.58262],[57.98899,63.59699],[57.95689,63.60664],[57.95401,63.61155],[57.95299,63.636],[57.897,63.68399],[57.84701,63.638],[57.79694,63.56996],[57.78801,63.56699],[57.48042,63.14993],[57.47409,63.14603],[56.796,63.24899],[56.7702,63.22124],[56.721,63.22599],[56.68638,63.17406],[56.6801,63.17003],[56.32661,63.2259],[56.32185,63.22923],[56.32147,63.23496],[56.33899,63.255],[56.32499,63.30099],[56.16714,63.32498],[56.15443,63.318],[56.07653,63.32919],[56.07219,63.33749],[56.09499,63.368],[56.09199,63.37499],[55.7892,63.41697],[55.778,63.41104],[55.71,63.42699],[55.57809,63.24813],[55.58488,63.24039],[55.58421,63.23295],[55.45399,63.05201],[55.44786,63.04895],[55.376,63.04599],[55.27701,62.849],[55.282,62.84301],[55.33652,62.8497],[55.374,62.81901],[55.46027,62.83372],[55.50394,62.792],[55.50414,62.78436],[55.49954,62.78199],[55.40174,62.77902],[55.32,62.78604],[55.257,62.80099],[55.18501,62.676],[55.15548,62.59565],[55.14984,62.59101],[55.12601,62.58799],[55.13101,62.56801],[55.47953,62.5442],[55.48057,62.53549],[55.24301,62.254],[55.53612,62.06869]]],[[[35.558,65.148],[35.601,65.154],[35.597,65.151],[35.65,65.15401],[35.66407,65.1676],[35.68565,65.17095],[35.762,65.172],[35.77,65.16701],[35.81502,65.15676],[35.812,65.15501],[35.816,65.15301],[35.81924,65.15382],[35.8317,65.14396],[35.833,65.139],[35.84,65.138],[35.837,65.136],[35.842,65.132],[35.83301,65.132],[35.82901,65.128],[35.83001,65.125],[35.8419,65.1101],[35.848,65.108],[35.851,65.104],[35.849,65.103],[35.853,65.103],[35.84801,65.101],[35.86289,65.07909],[35.85924,65.07106],[35.846,65.06698],[35.85231,65.065],[35.84402,65.064],[35.84001,65.06],[35.852,65.06],[35.857,65.057],[35.857,65.052],[35.84201,65.052],[35.8637,65.03963],[35.86124,65.039],[35.86501,65.023],[35.875,65.02],[35.872,65.016],[35.871,65.02],[35.868,65.014],[35.86501,65.01699],[35.86098,65.00802],[35.85202,65.00101],[35.855,65.002],[35.865,64.999],[35.856,64.998],[35.856,65.001],[35.853,64.996],[35.862,64.996],[35.857,64.992],[35.862,64.993],[35.865,64.992],[35.862,64.99],[35.864,64.989],[35.879,64.991],[35.864,64.986],[35.866,64.988],[35.856,64.988],[35.855,64.991],[35.84701,64.99299],[35.84775,64.98938],[35.843,64.986],[35.83086,64.98695],[35.82501,64.98299],[35.82578,64.98007],[35.79814,64.97704],[35.79986,64.97414],[35.78514,64.97203],[35.76501,64.964],[35.77,64.958],[35.751,64.955],[35.736,64.957],[35.73699,64.96299],[35.72835,64.96601],[35.73099,64.96899],[35.728,64.971],[35.723,64.971],[35.725,64.972],[35.723,64.975],[35.72999,64.983],[35.72616,64.98516],[35.72799,64.987],[35.71718,64.99009],[35.71999,64.992],[35.708,64.998],[35.71299,65.0],[35.712,65.004],[35.707,65.005],[35.72199,65.01],[35.715,65.01299],[35.712,65.012],[35.713,65.009],[35.699,65.019],[35.687,65.022],[35.698,65.02],[35.7,65.021],[35.698,65.023],[35.695,65.022],[35.693,65.023],[35.70898,65.025],[35.70214,65.02696],[35.704,65.02799],[35.69813,65.02702],[35.69998,65.028],[35.687,65.03399],[35.59937,65.03733],[35.58389,65.04211],[35.533,65.07199],[35.52819,65.07209],[35.53099,65.073],[35.52149,65.07723],[35.517,65.08499],[35.51251,65.08526],[35.51422,65.08673],[35.505,65.097],[35.50239,65.10505],[35.50499,65.107],[35.50498,65.11998],[35.52219,65.14219],[35.52801,65.14495],[35.562,65.14701],[35.558,65.148]]],[[[36.10056,65.12826],[36.069,65.136],[36.06954,65.13179],[36.07961,65.12676],[36.077,65.125],[36.05,65.131],[36.036,65.127],[36.03111,65.12803],[36.03327,65.13233],[36.015,65.13802],[35.99922,65.13942],[35.995,65.138],[35.99768,65.13484],[35.99559,65.13418],[35.98252,65.1404],[35.9665,65.13916],[35.9352,65.14298],[35.9303,65.1528],[35.943,65.174],[35.938,65.18],[35.93447,65.18001],[35.98197,65.19277],[35.99756,65.19182],[35.984,65.186],[35.977,65.187],[35.96633,65.18133],[35.957,65.181],[35.957,65.177],[35.96072,65.17607],[35.956,65.174],[35.957,65.17],[35.96774,65.16831],[35.97268,65.164],[35.972,65.16],[35.97909,65.16281],[35.977,65.167],[35.96544,65.17022],[35.96847,65.17981],[36.005,65.186],[36.01853,65.18369],[36.0316,65.17492],[36.029,65.172],[36.03634,65.16654],[36.061,65.165],[36.06182,65.16318],[36.051,65.161],[36.05414,65.15764],[36.06651,65.15565],[36.10619,65.16051],[36.12238,65.15682],[36.21644,65.15668],[36.238,65.163],[36.267,65.164],[36.27379,65.1569],[36.209,65.14],[36.11979,65.14013],[36.10056,65.12826]]],[[[35.92474,65.04644],[35.91945,65.04985],[35.92594,65.05176],[35.923,65.049],[35.92501,65.04725],[35.95484,65.05308],[35.96033,65.05008],[35.97901,65.0569],[35.9846,65.05396],[35.98172,65.05168],[36.0003,65.05159],[36.0182,65.04516],[36.02381,65.0391],[36.015,65.024],[36.006,65.02],[35.998,65.024],[35.961,65.022],[35.96546,65.02284],[35.94637,65.0256],[35.91291,65.01549],[35.88019,65.02019],[35.893,65.021],[35.899,65.028],[35.88821,65.03119],[35.889,65.034],[35.88,65.034],[35.878,65.037],[35.882,65.041],[35.88,65.04251],[35.894,65.041],[35.92474,65.04644]]],[[[35.983,65.011],[35.97435,65.01065],[35.98221,65.01277],[35.98,65.014],[35.98182,65.01738],[35.97641,65.0167],[35.979,65.018],[35.97647,65.01935],[36.01672,65.01777],[36.00236,65.01223],[35.979,65.00847],[35.983,65.011]]],[[[35.68286,64.96507],[35.67477,64.96415],[35.676,64.966],[35.65219,64.97028],[35.682,64.977],[35.69278,64.9692],[35.67952,64.96787],[35.68286,64.96507]]],[[[35.639,64.961],[35.63526,64.96473],[35.65494,64.96784],[35.654,64.964],[35.66612,64.95918],[35.643,64.958],[35.64565,64.95621],[35.63898,64.95303],[35.639,64.961]]]]}}]}