{"type": "FeatureCollection", "features": [{"type": "Feature", "properties": {"name": "Измаил и Килия: Измаильский и Болградский районы", "source": "OpenStreetMap через Nominatim (lookup/search, polygon_geojson), выгрузка 27.09.2026", "units": [{"name": "Ізмаїльський район", "region": "Одеська область", "osm_id": 11821462, "display_name": "Ізмаїльський район, Одеська область, Україна"}, {"name": "Болградський район", "region": "Одеська область", "osm_id": 11884966, "display_name": "Болградський район, Одеська область, Україна"}], "approximate": true, "note": "район 2020 года - ПРИБЛИЖЕНИЕ исторической земли (турецкой райи), а не её граница из документа"}, "geometry": {"type": "MultiPolygon", "coordinates": [[[[30.2000669, 45.2565985], [30.2051411, 45.256659], [30.2043806, 45.2572199], [30.2049528, 45.2574453], [30.2052749, 45.256625], [30.2065819, 45.2573905], [30.2075328, 45.2561557], [30.2057671, 45.2555086], [30.2062936, 45.2526295], [30.2052496, 45.2522595], [30.2019209, 45.2525998], [30.2000669, 45.2565985]]], [[[28.2144662, 45.4697082], [28.2554819, 45.5155428], [28.2743811, 45.5285638], [28.3048003, 45.5469078], [28.4207771, 45.5126647], [28.4194029, 45.5037018], [28.4205776, 45.4853455], [28.4332301, 45.4861745], [28.5151856, 45.4998842], [28.491297, 45.5711304], [28.5442136, 45.5800309], [28.5158379, 45.665324], [28.4864165, 45.6604153], [28.4817882, 45.6721386], [28.4808577, 45.6781565], [28.4837237, 45.684047], [28.4965143, 45.6921273], [28.5054394, 45.7009457], [28.5108189, 45.7122422], [28.5147041, 45.7254903], [28.5198391, 45.7369615], [28.523633, 45.7375996], [28.5307079, 45.7335928], [28.534313, 45.7330297], [28.5380873, 45.7342485], [28.5545455, 45.736318], [28.5600737, 45.7300751], [28.5627994, 45.7255193], [28.571931, 45.7273388], [28.5890917, 45.7291894], [28.5948176, 45.7358776], [28.5945283, 45.741227], [28.5908165, 45.7547147], [28.5857315, 45.7630795], [28.5808402, 45.7687806], [28.5815089, 45.7692434], [28.5811117, 45.7707461], [28.5857212, 45.7726627], [28.5923187, 45.7720211], [28.6183269, 45.7668571], [28.6247911, 45.7663878], [28.7093574, 45.779905], [28.6970129, 45.817872], [28.7859644, 45.8323044], [28.7543809, 45.928739], [28.761505, 45.9291888], [28.7613609, 45.931073], [28.7625598, 45.9315901], [28.7635263, 45.9345392], [28.7567233, 45.9571642], [28.7795635, 45.9604311], [28.7763564, 45.9705896], [28.9789995, 46.0034735], [29.0055542, 46.0493499], [28.9504641, 46.093734], [29.0671142, 46.1955029], [28.952275, 46.2594504], [28.9528834, 46.2641067], [28.9542048, 46.2671481], [28.9853443, 46.3183124], [28.9970603, 46.3158082], [29.002002, 46.3158006], [29.0035336, 46.3166654], [29.0033326, 46.3174704], [28.9971461, 46.3204685], [28.997975, 46.3226891], [28.9968923, 46.3250145], [28.9969495, 46.3276719], [28.9933828, 46.3365188], [28.9927752, 46.3414144], [28.9906021, 46.3456511], [28.9887634, 46.3454818], [28.9885434, 46.3435164], [28.9867201, 46.3430588], [28.9761544, 46.3613173], [28.9673043, 46.3747832], [28.9415012, 46.430917], [28.9372963, 46.4518455], [28.9308607, 46.4577381], [28.9666222, 46.4594785], [29.0016875, 46.4601776], [29.0254762, 46.462288], [29.0233177, 46.4801617], [28.9890771, 46.4792908], [28.9892087, 46.4780914], [28.9840608, 46.4778941], [28.9777629, 46.4812677], [28.981347, 46.489047], [29.03348, 46.4907461], [29.0333199, 46.4931896], [29.0390018, 46.4937955], [29.0387011, 46.5058814], [29.0632369, 46.5070067], [29.0629106, 46.5125886], [29.1634854, 46.5154171], [29.1618564, 46.544472], [29.2358278, 46.5582865], [29.2409242, 46.4990443], [29.2493964, 46.5002148], [29.2552119, 46.4854353], [29.2196698, 46.4636089], [29.2295402, 46.4582936], [29.2299385, 46.4362966], [29.2318026, 46.4334459], [29.2275784, 46.4318808], [29.2320402, 46.4269141], [29.2433471, 46.4204142], [29.2468043, 46.4166113], [29.2391596, 46.4116275], [29.2067719, 46.3863718], [29.2078592, 46.3846512], [29.2407054, 46.3761769], [29.2677792, 46.3936914], [29.2626282, 46.399352], [29.2677621, 46.4018951], [29.2639598, 46.4057895], [29.2650817, 46.4065279], [29.2962511, 46.4172393], [29.3027565, 46.408262], [29.324102, 46.4148169], [29.306011, 46.4442989], [29.3185762, 46.4476584], [29.3144954, 46.4544878], [29.3121539, 46.4568287], [29.3107568, 46.4624154], [29.3078009, 46.4648752], [29.325789, 46.47121], [29.327292, 46.4706645], [29.3365096, 46.4739927], [29.3324757, 46.4788633], [29.3360672, 46.4804401], [29.3357471, 46.481061], [29.3383046, 46.482461], [29.3315594, 46.4959063], [29.3512806, 46.5042009], [29.37835, 46.4600739], [29.378631, 46.4595676], [29.376277, 46.4580812], [29.3961789, 46.4252091], [29.3991887, 46.4260559], [29.4108724, 46.4068982], [29.430871, 46.406347], [29.4364272, 46.402954], [29.4436156, 46.394148], [29.4507226, 46.3834271], [29.4724139, 46.3736168], [29.4835373, 46.3603428], [29.4115333, 46.3379378], [29.4045718, 46.3351448], [29.3835667, 46.3242362], [29.4087886, 46.3163533], [29.4164619, 46.3146549], [29.4548675, 46.3091285], [29.4673657, 46.3045436], [29.5103901, 46.2938911], [29.5317158, 46.2872793], [29.5807426, 46.2924478], [29.5917839, 46.2929755], [29.6047719, 46.2948499], [29.6108245, 46.2743081], [29.6190213, 46.2348661], [29.6197378, 46.2348619], [29.6230007, 46.2246943], [29.6251719, 46.2219094], [29.6255426, 46.2199014], [29.6223629, 46.2195265], [29.6255944, 46.206714], [29.6208051, 46.2061764], [29.6196686, 46.2082434], [29.6108197, 46.2065403], [29.6084541, 46.2082093], [29.6025296, 46.2056685], [29.6059263, 46.2010053], [29.6105376, 46.1985399], [29.6066449, 46.1966437], [29.5526531, 46.1904504], [29.5425472, 46.1918616], [29.5152763, 46.1987494], [29.483862, 46.1952355], [29.4829709, 46.1608425], [29.473487, 46.1593337], [29.4735892, 46.1465257], [29.5258755, 46.1525944], [29.5300846, 46.147131], [29.5321326, 46.1375735], [29.5332811, 46.1231378], [29.5338745, 46.0960812], [29.5032149, 46.0378475], [29.551937, 46.0444245], [29.5563941, 45.9999531], [29.5574436, 45.9960446], [29.5581568, 45.9829197], [29.5604299, 45.9689737], [29.5611877, 45.9457232], [29.5907509, 45.9495505], [29.5953934, 45.9302252], [29.5961606, 45.9220465], [29.4957778, 45.9093598], [29.4653385, 45.9147683], [29.4378085, 45.8652582], [29.4669743, 45.7922508], [29.4820215, 45.792303], [29.4798637, 45.7788548], [29.4032975, 45.7920874], [29.4106396, 45.7526983], [29.3750584, 45.737185], [29.3154626, 45.7316843], [29.3267982, 45.6896314], [29.4180637, 45.6994049], [29.4240183, 45.6706982], [29.4614389, 45.675291], [29.468798, 45.6385365], [29.4903076, 45.6410104], [29.4936525, 45.6247316], [29.4875529, 45.6241775], [29.4871484, 45.6206233], [29.4886589, 45.6207011], [29.4915419, 45.6143452], [29.5035562, 45.6169773], [29.5123187, 45.6176224], [29.5129231, 45.6212218], [29.5553527, 45.6240589], [29.5523463, 45.6445171], [29.6043093, 45.6481492], [29.6079452, 45.6384991], [29.6092391, 45.6200315], [29.6075118, 45.6085398], [29.5968452, 45.5734579], [29.5961182, 45.5681423], [29.5969224, 45.5612821], [29.5990113, 45.5570312], [29.6017338, 45.5540475], [29.6113759, 45.5471434], [29.6248864, 45.5400868], [29.6504013, 45.5291955], [29.6508163, 45.5243703], [29.6402485, 45.5131699], [29.6276497, 45.5059282], [29.6246394, 45.5028979], [29.6222949, 45.4959997], [29.6241211, 45.4911713], [29.629021, 45.4830557], [29.6327515, 45.4794842], [29.6434468, 45.4757952], [29.6513032, 45.4720009], [29.6530585, 45.4747062], [29.6598163, 45.47646], [29.6697257, 45.4746234], [29.6727253, 45.4727473], [29.6726493, 45.4720739], [29.6774263, 45.4698073], [29.6766981, 45.4694029], [29.6766727, 45.4673751], [29.6700544, 45.4654696], [29.672062, 45.4653435], [29.6701844, 45.463721], [29.6717817, 45.4620063], [29.674142, 45.4626647], [29.6747294, 45.4621455], [29.6742466, 45.4613159], [29.6769798, 45.4611503], [29.6770763, 45.4596961], [29.678278, 45.4594083], [29.6791443, 45.4579878], [29.6806101, 45.4590131], [29.6797747, 45.4577912], [29.6821457, 45.4582644], [29.6831167, 45.4573274], [29.6819298, 45.4616648], [29.6825883, 45.464624], [29.6868838, 45.4657912], [29.6888479, 45.4672538], [29.6919007, 45.466582], [29.6925824, 45.4679011], [29.6946154, 45.4664157], [29.6991831, 45.4662954], [29.7012565, 45.4642826], [29.7059395, 45.4628265], [29.7079168, 45.4658281], [29.7103866, 45.4663339], [29.7107648, 45.4673042], [29.7093989, 45.4667986], [29.7092896, 45.4688752], [29.706413, 45.468943], [29.7061837, 45.4696004], [29.7110425, 45.4713045], [29.7173712, 45.4754312], [29.724648, 45.4787526], [29.7300701, 45.4840973], [29.7453788, 45.4898946], [29.7480154, 45.4875667], [29.7458683, 45.4857765], [29.7468955, 45.4854832], [29.7466354, 45.483739], [29.7473449, 45.4834221], [29.7447485, 45.4803549], [29.7456524, 45.4783764], [29.744204, 45.4768098], [29.7452554, 45.4748293], [29.745006, 45.4734619], [29.7463283, 45.4723061], [29.7462089, 45.4706198], [29.7478545, 45.4703678], [29.7482032, 45.469101], [29.7448101, 45.4672905], [29.7440323, 45.4658477], [29.7437588, 45.4688668], [29.7428548, 45.4689909], [29.7419294, 45.4651404], [29.7438419, 45.4627851], [29.7476104, 45.4628848], [29.7494343, 45.4617505], [29.7495389, 45.4624446], [29.7482756, 45.4627625], [29.7502148, 45.4644425], [29.7506386, 45.4660001], [29.7523176, 45.4659229], [29.7531787, 45.4643804], [29.7541309, 45.4651102], [29.7531062, 45.4659831], [29.7546056, 45.4656426], [29.7603469, 45.4683937], [29.7629821, 45.4682122], [29.7633322, 45.4699634], [29.7662678, 45.4710732], [29.7746256, 45.4677711], [29.7774178, 45.4699916], [29.779526, 45.4697358], [29.7858238, 45.4631106], [29.7860947, 45.4579935], [29.7843486, 45.4485368], [29.7846812, 45.4391801], [29.7762752, 45.4140779], [29.7653854, 45.3868246], [29.7633308, 45.3681761], [29.7666192, 45.3532385], [29.7717261, 45.3422863], [29.7749984, 45.3315809], [29.7839141, 45.3180482], [29.7821813, 45.3121709], [29.7622184, 45.2879341], [29.7553258, 45.270394], [29.753117, 45.2614913], [29.7539994, 45.2429412], [29.7563034, 45.237993], [29.7589883, 45.2264669], [29.7584773, 45.2230069], [29.7574286, 45.2221454], [29.7276695, 45.2187777], [29.7284098, 45.2170395], [29.7252126, 45.2142969], [29.7238702, 45.2124669], [29.7242886, 45.211849], [29.7233203, 45.2112557], [29.7237897, 45.2106142], [29.7223145, 45.208939], [29.7219256, 45.2094662], [29.7169873, 45.2087933], [29.7167838, 45.209675], [29.7176233, 45.2101531], [29.7162098, 45.2112907], [29.7174221, 45.2129979], [29.7166604, 45.213732], [29.6993212, 45.211353], [29.697551, 45.2121551], [29.695951, 45.2111008], [29.6948688, 45.2113549], [29.6941178, 45.2093354], [29.6956003, 45.2082932], [29.6958397, 45.2056272], [29.6941741, 45.2051132], [29.6939903, 45.2035664], [29.6923676, 45.2034247], [29.6896118, 45.2002643], [29.6890841, 45.2036402], [29.6844815, 45.2089633], [29.677797, 45.2129039], [29.6709555, 45.2204479], [29.6685063, 45.2288275], [29.6621923, 45.2389352], [29.6597212, 45.2501187], [29.6635128, 45.2596607], [29.6706084, 45.264771], [29.678552, 45.268243], [29.675858, 45.280479], [29.672524, 45.287101], [29.670813, 45.293138], [29.6707895, 45.3013915], [29.669551, 45.307508], [29.6650597, 45.3145513], [29.6566673, 45.3329606], [29.65093, 45.3396186], [29.631329, 45.353443], [29.623815, 45.359707], [29.6129109, 45.3707671], [29.5928096, 45.3877893], [29.5507497, 45.4088678], [29.520389, 45.414493], [29.497798, 45.4197355], [29.4805195, 45.4216092], [29.4739902, 45.423179], [29.461953, 45.4282876], [29.4404148, 45.433792], [29.433768, 45.4401557], [29.4297317, 45.4425841], [29.4238765, 45.442753], [29.4147582, 45.4415419], [29.4015221, 45.4371135], [29.3943069, 45.4358542], [29.3913851, 45.4361068], [29.3818924, 45.4394703], [29.3635356, 45.4361998], [29.347871, 45.4389808], [29.335875, 45.446945], [29.331405, 45.448248], [29.326675, 45.448369], [29.3235202, 45.4480722], [29.317585, 45.445499], [29.3035198, 45.4331079], [29.2989949, 45.4303614], [29.2907355, 45.4274557], [29.2847439, 45.4265486], [29.27296, 45.427348], [29.2673085, 45.4286921], [29.258129, 45.4326109], [29.251091, 45.43353], [29.244742, 45.433709], [29.238151, 45.432705], [29.2243732, 45.422737], [29.210491, 45.4175255], [29.2032503, 45.4168107], [29.187265, 45.411769], [29.185636, 45.41034], [29.1813467, 45.4026939], [29.1789533, 45.4000213], [29.1674249, 45.39433], [29.139672, 45.385413], [29.120828, 45.382044], [29.110092, 45.376238], [29.104545, 45.374353], [29.0887514, 45.3745081], [29.0827499, 45.3733313], [29.0733841, 45.3665217], [29.065415, 45.363829], [29.058036, 45.359921], [29.0518275, 45.3593675], [29.044053, 45.360537], [29.0418022, 45.3597833], [29.030125, 45.352454], [29.008525, 45.344525], [29.002285, 45.341113], [28.9964158, 45.3367439], [28.9887254, 45.333347], [28.9814941, 45.3319796], [28.9699001, 45.3322401], [28.9658847, 45.3309818], [28.957182, 45.323093], [28.9541635, 45.3176323], [28.9490906, 45.3112235], [28.9487272, 45.3080314], [28.954666, 45.296793], [28.9544598, 45.2914386], [28.9521334, 45.2862785], [28.947317, 45.282216], [28.941882, 45.280499], [28.931621, 45.280976], [28.923934, 45.28327], [28.914686, 45.287404], [28.8889923, 45.3045756], [28.8742045, 45.3160694], [28.867371, 45.317375], [28.8538832, 45.3158209], [28.849637, 45.316076], [28.84592, 45.317275], [28.8349351, 45.3233634], [28.8228978, 45.3338933], [28.8164702, 45.3362534], [28.805592, 45.336499], [28.7961829, 45.3347304], [28.7877753, 45.3310157], [28.7815818, 45.3272982], [28.780516, 45.325249], [28.780537, 45.323045], [28.782252, 45.320902], [28.799839, 45.315011], [28.8052586, 45.3114933], [28.8053596, 45.3067247], [28.803259, 45.303102], [28.793389, 45.293129], [28.7831062, 45.2907931], [28.764916, 45.291342], [28.759444, 45.290271], [28.754646, 45.287927], [28.752028, 45.284082], [28.751927, 45.2812859], [28.7543418, 45.2757266], [28.763615, 45.264224], [28.7662049, 45.26259], [28.7737278, 45.2603124], [28.78015, 45.260545], [28.7853002, 45.2588535], [28.791566, 45.25396], [28.7925883, 45.2434782], [28.7884601, 45.2397449], [28.781235, 45.237605], [28.7731531, 45.2365055], [28.7631958, 45.2363621], [28.749835, 45.234478], [28.744269, 45.233172], [28.729982, 45.227447], [28.7184635, 45.224385], [28.7109378, 45.2236659], [28.7058956, 45.2238912], [28.6965162, 45.2261056], [28.6693032, 45.2366955], [28.642478, 45.24298], [28.6319126, 45.2443522], [28.5786695, 45.2472153], [28.5688506, 45.2482488], [28.5612283, 45.2500889], [28.5472279, 45.2554151], [28.5317432, 45.2626859], [28.511533, 45.268612], [28.495737, 45.275056], [28.459331, 45.286657], [28.4463518, 45.2893611], [28.349033, 45.320399], [28.341962, 45.325015], [28.335795, 45.330677], [28.319887, 45.351632], [28.314881, 45.361306], [28.3023158, 45.3790007], [28.29166, 45.390447], [28.285348, 45.399623], [28.2840258, 45.4074031], [28.2840785, 45.4123411], [28.28688, 45.425902], [28.286723, 45.433351], [28.280666, 45.444068], [28.267754, 45.453376], [28.260479, 45.456327], [28.222847, 45.4659098], [28.2139355, 45.4671885], [28.2144662, 45.4697082]]]]}}]}