{"type": "FeatureCollection", "features": [{"type": "Feature", "geometry": {"type": "Polygon", "coordinates": [[[31.6441177, 49.6536345], [31.6449595, 49.6541598], [31.6470945, 49.6554922], [31.6494949, 49.6570623], [31.6519484, 49.6586671], [31.6568493, 49.6620521], [31.6588008, 49.6635644], [31.6625545, 49.6662448], [31.6636938, 49.6682383], [31.6661504, 49.6700374], [31.6705341, 49.6737326], [31.6722294, 49.6754117], [31.674538, 49.6777016], [31.6755084, 49.6797584], [31.6776596, 49.6833276], [31.6800989, 49.6865357], [31.682259, 49.6886485], [31.6850842, 49.6912718], [31.6829605, 49.6929732], [31.68784, 49.6954047], [31.6898865, 49.6968361], [31.6897145, 49.6987132], [31.6891022, 49.6989374], [31.6824488, 49.6984609], [31.6811228, 49.7001116], [31.6797815, 49.7018592], [31.6785936, 49.7029722], [31.6774103, 49.7037745], [31.676428, 49.7041655], [31.6766475, 49.705023], [31.6769769, 49.7061352], [31.6770658, 49.706511], [31.6767238, 49.7082721], [31.6789214, 49.7089804], [31.6822976, 49.7101352], [31.6854968, 49.7112873], [31.6854982, 49.7112942], [31.6855483, 49.7113123], [31.6859512, 49.7132598], [31.6866268, 49.71564], [31.6876492, 49.7183886], [31.6882134, 49.7205311], [31.6886031, 49.7218881], [31.6897327, 49.7244549], [31.6904738, 49.7263327], [31.6916874, 49.7296743], [31.6928502, 49.7321235], [31.6931898, 49.7329889], [31.6940525, 49.7358097], [31.6954891, 49.7389587], [31.6963386, 49.741189], [31.6971718, 49.7434781], [31.6989736, 49.7476046], [31.7004072, 49.7507673], [31.6908377, 49.7474058], [31.6908664, 49.7475096], [31.6929416, 49.7550203], [31.6894037, 49.7572372], [31.687498, 49.7572372], [31.6867792, 49.7554444], [31.6829224, 49.7558226], [31.683868, 49.7583273], [31.6939131, 49.7575313], [31.6944625, 49.758137], [31.6946297, 49.7584717], [31.6948888, 49.7596866], [31.6937771, 49.7596812], [31.6937569, 49.76011], [31.6933641, 49.7608443], [31.6932929, 49.7625258], [31.6982273, 49.762398], [31.6980807, 49.7605318], [31.7040224, 49.7602956], [31.7076635, 49.7579668], [31.7145893, 49.7559207], [31.7152921, 49.7561664], [31.7183247, 49.7572264], [31.7199635, 49.7756555], [31.7157813, 49.7756959], [31.7095155, 49.7756832], [31.701834, 49.7757026], [31.6986273, 49.775708], [31.693417, 49.7757247], [31.6934212, 49.7758682], [31.6935588, 49.7799921], [31.6935699, 49.7809124], [31.6933366, 49.785352], [31.6927841, 49.7900193], [31.6929847, 49.7900504], [31.7034486, 49.7916123], [31.7049629, 49.8094188], [31.7066544, 49.826801], [31.7067349, 49.8280517], [31.7073893, 49.8366741], [31.707216, 49.8368694], [31.7078494, 49.8438247], [31.7080585, 49.8438758], [31.7223915, 49.8458964], [31.7231637, 49.8460081], [31.7282315, 49.8467084], [31.7284658, 49.8467614], [31.7265044, 49.847795], [31.725101, 49.848358], [31.7228743, 49.8489853], [31.7203846, 49.851116], [31.7191019, 49.8519176], [31.7178281, 49.8525294], [31.7171397, 49.8522301], [31.7156157, 49.8519646], [31.7118635, 49.8508901], [31.7114761, 49.8507097], [31.7042018, 49.8517851], [31.696762, 49.8525312], [31.6880818, 49.8539855], [31.6769019, 49.8561493], [31.6751318, 49.8565396], [31.6731478, 49.8568144], [31.6721899, 49.8569784], [31.6688039, 49.8575716], [31.6573964, 49.8573924], [31.6433902, 49.8573102], [31.6277097, 49.8571668], [31.6147053, 49.8569405], [31.6159157, 49.8668974], [31.6165461, 49.8742357], [31.6172277, 49.8803047], [31.6169958, 49.8812567], [31.615235, 49.8840296], [31.6137117, 49.8864284], [31.6087971, 49.8895796], [31.6142587, 49.8922236], [31.6137324, 49.8938471], [31.61321, 49.8949808], [31.6127102, 49.8960653], [31.6125896, 49.9010156], [31.6126244, 49.9061663], [31.6025133, 49.906386], [31.600829, 49.9064149], [31.5869815, 49.9066523], [31.580868, 49.9067395], [31.5809351, 49.9042041], [31.5814624, 49.9014115], [31.5814157, 49.8988628], [31.5788561, 49.8986135], [31.5787114, 49.89542], [31.5684147, 49.8954917], [31.5688661, 49.8935222], [31.5687714, 49.8914885], [31.5678373, 49.8887305], [31.5671594, 49.8869988], [31.5647149, 49.8870332], [31.5642068, 49.8852667], [31.5637648, 49.8836659], [31.5632317, 49.8825888], [31.5621732, 49.8819419], [31.5609286, 49.8812549], [31.5598659, 49.8808565], [31.5587464, 49.8781919], [31.5576227, 49.8759095], [31.5566061, 49.8747815], [31.5521775, 49.8745212], [31.5517272, 49.8738182], [31.5513641, 49.8727064], [31.5484851, 49.8741166], [31.5459884, 49.8728384], [31.5428251, 49.8779204], [31.5426304, 49.8782437], [31.539575, 49.8773794], [31.5404906, 49.875501], [31.5365429, 49.8739361], [31.5348214, 49.8752395], [31.5343004, 49.8751538], [31.5332795, 49.874675], [31.5333961, 49.8738626], [31.5333884, 49.8732907], [31.5324918, 49.8725714], [31.5304538, 49.8720333], [31.5249557, 49.8708013], [31.5225645, 49.8717462], [31.5208472, 49.8726673], [31.5200618, 49.872453], [31.5180413, 49.8713214], [31.5159386, 49.8698156], [31.5147904, 49.8688902], [31.5148657, 49.8682916], [31.5152269, 49.8672468], [31.5164188, 49.8664885], [31.5177511, 49.8658319], [31.5184717, 49.864945], [31.5185802, 49.8642288], [31.5186106, 49.8631572], [31.5183555, 49.8622644], [31.5175923, 49.8610747], [31.5167664, 49.8604061], [31.5154654, 49.8595902], [31.5140276, 49.8589585], [31.5131764, 49.8587121], [31.5121101, 49.8585618], [31.5113249, 49.8583475], [31.5115099, 49.8563646], [31.5113867, 49.8558033], [31.5106686, 49.8550866], [31.510207, 49.8541936], [31.5116519, 49.852706], [31.5119543, 49.8523347], [31.5119598, 49.851418], [31.5129907, 49.8503309], [31.5140634, 49.8488965], [31.5143332, 49.8481082], [31.5144709, 49.8472558], [31.5134231, 49.8459776], [31.5123701, 49.8453489], [31.510598, 49.8448052], [31.5089004, 49.8441974], [31.5065164, 49.8438242], [31.5043927, 49.8435608], [31.5023639, 49.8433268], [31.5012307, 49.8438124], [31.5003655, 49.8445788], [31.4993926, 49.8455268], [31.4990554, 49.8468174], [31.498029, 49.8483773], [31.4968807, 49.8524334], [31.4958395, 49.8542155], [31.4956762, 49.8553914], [31.4966245, 49.8598803], [31.4942022, 49.8610959], [31.4920485, 49.8609686], [31.4863212, 49.8570157], [31.4850134, 49.8569959], [31.4766956, 49.860025], [31.4749812, 49.8612314], [31.470182, 49.8736072], [31.4626663, 49.8732773], [31.4600957, 49.8769893], [31.445496, 49.8767706], [31.4340793, 49.891807], [31.432972, 49.8985074], [31.4244683, 49.9172704], [31.4249519, 49.9360291], [31.4260456, 49.9372467], [31.4296014, 49.9405308], [31.4306998, 49.9416334], [31.4326614, 49.9435736], [31.4332482, 49.945448], [31.4327561, 49.9465807], [31.4310918, 49.9491179], [31.4308865, 49.9499382], [31.4309606, 49.9514966], [31.4314587, 49.9554023], [31.4322893, 49.957579], [31.4336539, 49.9613868], [31.4349943, 49.9635934], [31.4379298, 49.967411], [31.4396768, 49.9695806], [31.4407854, 49.9703196], [31.443467, 49.9717552], [31.4445676, 49.9724566], [31.4450977, 49.9742026], [31.4447385, 49.975266], [31.4446255, 49.9756962], [31.4430796, 49.9772875], [31.4404775, 49.9801393], [31.438678, 49.9819254], [31.4367112, 49.9841657], [31.4334776, 49.9857577], [31.43174, 49.9868432], [31.4250619, 49.9864688], [31.4237226, 49.9888978], [31.4229401, 49.9893413], [31.4220717, 49.9896468], [31.4178377, 49.989734], [31.4167745, 49.9895492], [31.4151036, 49.9880981], [31.4137705, 49.9874183], [31.4126946, 49.9871897], [31.4113745, 49.9872026], [31.4090312, 49.9878236], [31.4009064, 49.9891282], [31.3961598, 49.990854], [31.3886964, 49.9921921], [31.3855465, 49.9923782], [31.3829725, 49.9928543], [31.3814319, 49.9927384], [31.3779355, 49.9921235], [31.3716312, 49.9912806], [31.3658958, 49.9905248], [31.3627891, 49.9901814], [31.3603311, 49.9898112], [31.3556079, 49.9885645], [31.3527013, 49.9880885], [31.3504489, 49.9879476], [31.3407807, 49.9882831], [31.332501, 49.9894735], [31.3306774, 49.9893223], [31.3292442, 49.9887946], [31.3210657, 49.9832368], [31.318509, 49.9824805], [31.3166143, 49.9822648], [31.3092211, 49.9825873], [31.3040782, 49.9823631], [31.2996622, 49.9819092], [31.2961905, 49.9811702], [31.2931044, 49.9799293], [31.2907657, 49.9786275], [31.2894858, 49.9773801], [31.2887137, 49.9755228], [31.2879024, 49.9722618], [31.2879856, 49.9712601], [31.288252, 49.9708417], [31.2887527, 49.9704988], [31.2902013, 49.9701631], [31.2909198, 49.9702137], [31.2915994, 49.970415], [31.2949229, 49.9752241], [31.3053076, 49.9725584], [31.3005516, 49.966554], [31.2929696, 49.9613848], [31.2903962, 49.9591726], [31.2880766, 49.9561562], [31.287877, 49.9546352], [31.2842238, 49.9527231], [31.2825394, 49.9512631], [31.2823237, 49.951014], [31.2803534, 49.9487346], [31.2745196, 49.9420134], [31.2729371, 49.9412625], [31.265561, 49.9391859], [31.256243, 49.936239], [31.2489071, 49.9365619], [31.2406111, 49.9391203], [31.2365636, 49.9397383], [31.2320951, 49.9404236], [31.2245581, 49.9415784], [31.1944932, 49.9489659], [31.1775926, 49.9513752], [31.1792019, 49.9540519], [31.1828095, 49.9600364], [31.1872244, 49.9673607], [31.1827397, 49.9684649], [31.1771339, 49.969845], [31.1707503, 49.9714287], [31.1626768, 49.9734229], [31.1538255, 49.9756102], [31.141085, 49.9787564], [31.1405971, 49.9789117], [31.1177283, 49.9863435], [31.114558, 49.9861589], [31.0806924, 49.9841963], [31.0739815, 49.9846344], [31.068204, 49.9850103], [31.0633868, 49.9853242], [31.0623407, 49.9864418], [31.0583494, 49.9907462], [31.057958, 49.99116], [31.0549861, 49.9933396], [31.0494393, 49.9973985], [31.043399, 50.0018087], [31.043061, 50.001988], [31.0406309, 50.0032328], [31.0386783, 50.0039327], [31.036613, 50.0048464], [31.0349715, 50.0057049], [31.0312593, 50.0076149], [31.0277563, 50.0096524], [31.0257232, 50.0105763], [31.0201281, 50.0127826], [31.0189748, 50.01361], [31.017918, 50.0145442], [31.0169791, 50.0152405], [31.01596, 50.0158368], [31.0110569, 50.0177947], [31.0092813, 50.0189459], [31.0075647, 50.0206004], [31.0065937, 50.0216826], [31.0051614, 50.0232922], [31.003772, 50.0250499], [31.0024899, 50.0261941], [31.0013151, 50.0275036], [30.99859, 50.0295334], [30.9974045, 50.0302433], [30.9964335, 50.0306637], [30.9931451, 50.0313667], [30.9907097, 50.0316837], [30.9884137, 50.0324763], [30.9869814, 50.0332378], [30.9850126, 50.0348435], [30.9839773, 50.0359633], [30.9834516, 50.0365181], [30.98203, 50.0378239], [30.9810215, 50.0385544], [30.9781569, 50.0401944], [30.9748846, 50.0424682], [30.971607, 50.0451036], [30.9696221, 50.0470603], [30.9682059, 50.048018], [30.9668702, 50.0487793], [30.9650731, 50.0504086], [30.9636408, 50.0529161], [30.9631526, 50.0557336], [30.9631097, 50.0582288], [30.9634155, 50.0604174], [30.9644347, 50.0641849], [30.9646546, 50.0660634], [30.9608728, 50.0740531], [30.95671, 50.0754509], [30.9460187, 50.0790519], [30.9411102, 50.0806079], [30.9381276, 50.0815511], [30.9308159, 50.0838609], [30.9256983, 50.0854821], [30.9250385, 50.0871652], [30.923, 50.0924276], [30.9224421, 50.0968636], [30.9215918, 50.1036767], [30.9237643, 50.1043505], [30.9214845, 50.1064224], [30.8935976, 50.1321369], [30.8876324, 50.134556], [30.8643132, 50.1440093], [30.8446439, 50.1520282], [30.841779, 50.1400126], [30.827794, 50.1474195], [30.8274829, 50.1476017], [30.8004703, 50.1637651], [30.7949799, 50.1627075], [30.7723769, 50.1583498], [30.7652288, 50.1659136], [30.7637429, 50.1810978], [30.7589605, 50.1839695], [30.7500886, 50.1916626], [30.743865, 50.1984973], [30.7390165, 50.2037749], [30.7364738, 50.2112646], [30.7318067, 50.2202651], [30.7209565, 50.2204861], [30.7152843, 50.2204676], [30.7107352, 50.2293634], [30.7182884, 50.2340577], [30.7213354, 50.2402887], [30.720992, 50.2450643], [30.7165288, 50.2474519], [30.7154989, 50.2501138], [30.6999206, 50.2554646], [30.6893634, 50.2615282], [30.6767463, 50.2563702], [30.668764, 50.2573579], [30.6603823, 50.2636288], [30.6603784, 50.2688799], [30.6683729, 50.2743571], [30.6703305, 50.2751889], [30.6718454, 50.2764469], [30.6723904, 50.2783704], [30.670824, 50.2804547], [30.6518983, 50.2902447], [30.649302, 50.2915876], [30.6469631, 50.2950078], [30.6468094, 50.2961], [30.6462336, 50.2983593], [30.6436267, 50.3013509], [30.641921, 50.3045345], [30.6370722, 50.3096257], [30.6311506, 50.3137439], [30.628581, 50.316145], [30.6274146, 50.317448], [30.6258109, 50.3197064], [30.6243699, 50.3231839], [30.6235914, 50.325757], [30.6224052, 50.3278233], [30.6180374, 50.3320121], [30.6155873, 50.3346982], [30.6128798, 50.3372747], [30.6071143, 50.3407898], [30.6021184, 50.3472072], [30.5985028, 50.3498978], [30.5926341, 50.3527252], [30.5900015, 50.3562035], [30.5869397, 50.3609002], [30.5842227, 50.3697541], [30.5832688, 50.3743635], [30.5838169, 50.3802592], [30.5867966, 50.3877003], [30.5913794, 50.3926409], [30.5934222, 50.3948847], [30.5957108, 50.4002099], [30.5960267, 50.4043454], [30.5960851, 50.4088912], [30.5943283, 50.4115685], [30.5910773, 50.415779], [30.5902419, 50.4172389], [30.5897321, 50.4184925], [30.5880256, 50.4232237], [30.5865881, 50.4252785], [30.5814169, 50.4289873], [30.5760155, 50.432785], [30.5697802, 50.4363098], [30.5653903, 50.4412286], [30.5614674, 50.444928], [30.5552334, 50.4478934], [30.5517097, 50.4498211], [30.5442452, 50.452941], [30.5382982, 50.4550409], [30.5349003, 50.4563027], [30.5326611, 50.4577011], [30.5314687, 50.4588799], [30.5305338, 50.4600586], [30.5296978, 50.4616128], [30.5291194, 50.4636042], [30.5289561, 50.4655451], [30.5291791, 50.4672675], [30.5301829, 50.4688547], [30.5364063, 50.4738265], [30.5391357, 50.4764249], [30.5414574, 50.4790506], [30.5424008, 50.4825969], [30.5422695, 50.483758], [30.5421318, 50.4848381], [30.5413503, 50.4861366], [30.5390757, 50.4881436], [30.5377898, 50.4896527], [30.5367007, 50.4909308], [30.5348271, 50.4928897], [30.5312561, 50.4969072], [30.5283762, 50.4987111], [30.5258397, 50.5010884], [30.5254902, 50.502551], [30.5253982, 50.5040136], [30.5260295, 50.506857], [30.5271667, 50.5097158], [30.5292052, 50.512602], [30.5313921, 50.5155731], [30.5341202, 50.5188431], [30.5375093, 50.5238578], [30.5379596, 50.5244931], [30.5409426, 50.5231983], [30.5429792, 50.5248493], [30.5443901, 50.5271172], [30.5445135, 50.529327], [30.5436766, 50.5320311], [30.5414611, 50.5344486], [30.5385268, 50.5363887], [30.5363327, 50.5375888], [30.5344176, 50.5383491], [30.5333072, 50.539447], [30.5321431, 50.5403368], [30.5313921, 50.5411482], [30.5306143, 50.5423278], [30.5304265, 50.5444175], [30.5307752, 50.5455152], [30.5317837, 50.5466742], [30.5330819, 50.5476866], [30.5338275, 50.5478945], [30.5340528, 50.5482729], [30.5346, 50.5487604], [30.5351472, 50.5489581], [30.5361074, 50.5488694], [30.5382478, 50.5490739], [30.5400449, 50.5492205], [30.5425125, 50.5490467], [30.5438966, 50.5491864], [30.5457151, 50.5489819], [30.5502534, 50.5482763], [30.5529731, 50.5471242], [30.5542338, 50.5466572], [30.5563259, 50.5460129], [30.5577367, 50.5457947], [30.5604565, 50.54528], [30.5606825, 50.5452359], [30.5630341, 50.5447959], [30.5662823, 50.5447601], [30.5665988, 50.5450908], [30.5675107, 50.5450448], [30.569104, 50.5452391], [30.5699247, 50.5453345], [30.5721724, 50.5449612], [30.5738515, 50.5470287], [30.5731863, 50.54784], [30.5719686, 50.5510646], [30.5701111, 50.5514966], [30.5682322, 50.5519525], [30.564964, 50.5530602], [30.5617332, 50.5541952], [30.5600622, 50.555279], [30.558866, 50.5566064], [30.5586889, 50.557622], [30.5588579, 50.5588915], [30.5602875, 50.5598986], [30.5612397, 50.5604694], [30.5635196, 50.5609891], [30.5655876, 50.5611288], [30.5670065, 50.5607812], [30.5691147, 50.560011], [30.571121, 50.5594453], [30.5732104, 50.5589171], [30.5754366, 50.5583718], [30.5767375, 50.5583462], [30.5775878, 50.5583769], [30.5817452, 50.5589239], [30.5825686, 50.558198], [30.5837971, 50.5567428], [30.5843872, 50.5561975], [30.5852669, 50.5555636], [30.5866134, 50.5549978], [30.5877131, 50.5547081], [30.5888289, 50.5546876], [30.590111, 50.5549825], [30.5888477, 50.5555124], [30.5880108, 50.5553335], [30.5868414, 50.5555482], [30.5854064, 50.5561685], [30.584811, 50.556649], [30.5838883, 50.5576238], [30.5831829, 50.5583684], [30.5824989, 50.5590994], [30.5813107, 50.5596992], [30.5814233, 50.5600621], [30.582751, 50.5611356], [30.5836362, 50.5620063], [30.5847064, 50.5630524], [30.5870165, 50.5648773], [30.5881744, 50.5656916], [30.5892017, 50.5661993], [30.5908379, 50.5666099], [30.5929234, 50.568197], [30.5939055, 50.5695477], [30.5943086, 50.5725094], [30.5933727, 50.5740431], [30.5920851, 50.5753047], [30.5899125, 50.5763488], [30.5875415, 50.5769075], [30.582574, 50.5772584], [30.5770057, 50.5782327], [30.5762494, 50.5785325], [30.5750531, 50.5789923], [30.5743747, 50.5800741], [30.5741948, 50.5803924], [30.5743664, 50.5817958], [30.5758578, 50.5832536], [30.5772418, 50.5840575], [30.5815387, 50.5855834], [30.5830836, 50.5859819], [30.5845937, 50.5865984], [30.5861253, 50.5874345], [30.5924821, 50.5907024], [30.5928902, 50.5881977], [30.5943396, 50.5884038], [30.5981254, 50.5887952], [30.6007218, 50.5886998], [30.6020846, 50.5870369], [30.6043177, 50.585675], [30.6061906, 50.5849349], [30.611307, 50.5840989], [30.6121475, 50.5840907], [30.6130146, 50.5840822], [30.6150244, 50.5840626], [30.6178772, 50.5841265], [30.6189823, 50.5841903], [30.6235742, 50.5859751], [30.6254657, 50.5859663], [30.6275207, 50.5866461], [30.6303334, 50.5881685], [30.6324324, 50.5908841], [30.637283, 50.5919578], [30.6411024, 50.5937663], [30.6421566, 50.5957833], [30.6410837, 50.5985755], [30.6392306, 50.6000041], [30.636233, 50.600603], [30.6342602, 50.6005777], [30.6314384, 50.6010102], [30.627684, 50.6028137], [30.6253338, 50.6049902], [30.6252265, 50.6071555], [30.6255269, 50.608953], [30.6269361, 50.6104234], [30.6285095, 50.6117445], [30.629767, 50.6119987], [30.6310168, 50.6122513], [30.6376163, 50.6121748], [30.6416391, 50.6120827], [30.6461662, 50.6121171], [30.6478039, 50.6119857], [30.6466329, 50.6128904], [30.6442874, 50.6154942], [30.6443077, 50.6174859], [30.6454228, 50.6194666], [30.6478429, 50.6201315], [30.6504822, 50.6219285], [30.6521129, 50.6237254], [30.6534862, 50.6244877], [30.6529069, 50.6268971], [30.6540012, 50.6280677], [30.6554832, 50.6299158], [30.6562971, 50.6305781], [30.6563401, 50.6306131], [30.6575454, 50.6334063], [30.6584691, 50.6360846], [30.6615607, 50.6433464], [30.6623167, 50.6451218], [30.6655126, 50.6448676], [30.6680895, 50.6440272], [30.6670678, 50.6453366], [30.6667267, 50.6469551], [30.6669616, 50.6486033], [30.6683132, 50.6510648], [30.6704387, 50.6527725], [30.6739719, 50.6548216], [30.6745487, 50.6550671], [30.6769022, 50.6552046], [30.6784905, 50.6549657], [30.681362, 50.6541418], [30.6825595, 50.6522534], [30.6834327, 50.6516984], [30.6839776, 50.6502496], [30.6870246, 50.6489571], [30.687203, 50.6491224], [30.6878614, 50.6497326], [30.689342, 50.6504809], [30.6918311, 50.651202], [30.6958244, 50.654412], [30.6960956, 50.6549938], [30.6987964, 50.6578172], [30.6997072, 50.6598662], [30.6979282, 50.6612035], [30.6977992, 50.6633696], [30.6967234, 50.6632681], [30.6959696, 50.6636219], [30.6972496, 50.6656231], [30.6959899, 50.6678173], [30.6949969, 50.6683205], [30.6954424, 50.6711046], [30.6928764, 50.6707622], [30.6911444, 50.6711155], [30.6899842, 50.6727117], [30.6882262, 50.6742976], [30.6832909, 50.6762829], [30.6794286, 50.6772348], [30.6775096, 50.6769424], [30.6774264, 50.6806844], [30.677433, 50.6834348], [30.6763128, 50.6849107], [30.6748795, 50.6855285], [30.6768322, 50.6866705], [30.6750512, 50.687894], [30.6746006, 50.6885737], [30.6753516, 50.6895117], [30.6776503, 50.6898205], [30.6782268, 50.6908315], [30.6783414, 50.6910326], [30.67841, 50.6911529], [30.6792472, 50.6914241], [30.6816425, 50.6921999], [30.6839758, 50.6920196], [30.6850169, 50.6930378], [30.6878829, 50.6934537], [30.689565, 50.6940511], [30.6906295, 50.6947858], [30.6912303, 50.6952072], [30.6930756, 50.6949489], [30.6939125, 50.6950169], [30.6951781, 50.6953547], [30.6975388, 50.6951256], [30.6998563, 50.6956557], [30.700264, 50.6956693], [30.7009077, 50.6965528], [30.7003498, 50.6975858], [30.6993671, 50.6988918], [30.7016042, 50.7001486], [30.7032264, 50.7007358], [30.6999206, 50.7013097], [30.6998171, 50.7015518], [30.6983888, 50.70178], [30.691686, 50.7027606], [30.6881034, 50.7047392], [30.6864111, 50.7062834], [30.6852221, 50.7081316], [30.683716, 50.7089293], [30.6825229, 50.7094194], [30.6798141, 50.7096509], [30.6767629, 50.709533], [30.6741902, 50.7103508], [30.6711438, 50.7121268], [30.6742545, 50.7139018], [30.6803098, 50.7154247], [30.6827446, 50.7160811], [30.6874172, 50.7178146], [30.6885481, 50.7177106], [30.6891711, 50.7183757], [30.6902162, 50.7193139], [30.6910531, 50.719763], [30.6934602, 50.7206467], [30.6957187, 50.7207919], [30.7006722, 50.7212962], [30.7059757, 50.7221893], [30.7091748, 50.722327], [30.7109403, 50.7230651], [30.7140796, 50.7246842], [30.7150268, 50.7253995], [30.7150268, 50.7255693], [30.7156708, 50.7286107], [30.7144996, 50.730539], [30.7114863, 50.7329106], [30.7083947, 50.7337054], [30.7105422, 50.7347576], [30.7114863, 50.735423], [30.7122159, 50.7367811], [30.7125377, 50.7380712], [30.7115481, 50.7394202], [30.7158337, 50.7386676], [30.7216152, 50.7433126], [30.7238385, 50.74509], [30.7279658, 50.7462048], [30.7277512, 50.7468972], [30.7308089, 50.748893], [30.7314312, 50.749952], [30.7326006, 50.7494022], [30.7340169, 50.749952], [30.7341456, 50.7524365], [30.736227, 50.7539162], [30.7384586, 50.7552737], [30.7401422, 50.7584136], [30.7377026, 50.7589795], [30.7367242, 50.7602363], [30.7380992, 50.7626355], [30.7394897, 50.7637464], [30.7407331, 50.7637911], [30.7408247, 50.7638243], [30.7446492, 50.7652094], [30.743251, 50.7657928], [30.744499, 50.7684937], [30.7458937, 50.7688466], [30.7477069, 50.7685005], [30.749048, 50.7689755], [30.748297, 50.7700204], [30.7473442, 50.7702217], [30.7469129, 50.7714792], [30.7472885, 50.7720594], [30.7493055, 50.7718829], [30.7496273, 50.7728294], [30.7504213, 50.7731246], [30.7508797, 50.7743837], [30.7556833, 50.7757453], [30.7643271, 50.7754499], [30.765346, 50.776722], [30.7657641, 50.7784349], [30.7652223, 50.7793505], [30.7676767, 50.7797781], [30.769671, 50.7794694], [30.7706379, 50.7781567], [30.7732102, 50.777637], [30.7746935, 50.7755451], [30.7794543, 50.7746114], [30.779961, 50.7745244], [30.7841081, 50.7737593], [30.7916465, 50.7723543], [30.8015644, 50.7682454], [30.8040654, 50.7663402], [30.8101382, 50.7661208], [30.8007479, 50.7695179], [30.8030358, 50.7692042], [30.8045807, 50.7693761], [30.8066421, 50.7695719], [30.8082287, 50.7698158], [30.8097017, 50.7696009], [30.8113797, 50.7693326], [30.8142616, 50.7683448], [30.8173796, 50.7666335], [30.8188688, 50.7660898], [30.8287037, 50.7650087], [30.8367936, 50.764028], [30.8383395, 50.767196], [30.8392402, 50.7670936], [30.8404202, 50.7668626], [30.8422014, 50.7671274], [30.8435818, 50.7676865], [30.844301, 50.7686532], [30.8443647, 50.7706387], [30.8435483, 50.7720402], [30.8420823, 50.7733622], [30.8427092, 50.7771395], [30.8433509, 50.7781017], [30.848247, 50.7824361], [30.850944, 50.7825483], [30.8519256, 50.7818441], [30.8533545, 50.7812394], [30.8590311, 50.782172], [30.8608601, 50.7836152], [30.8621679, 50.7837791], [30.8636921, 50.784678], [30.8670444, 50.7852035], [30.8683132, 50.7859688], [30.8692597, 50.7855831], [30.8705477, 50.7861293], [30.8736303, 50.7817447], [30.8719958, 50.7809675], [30.8622486, 50.7794541], [30.8533361, 50.7760839], [30.8459966, 50.7766864], [30.8447119, 50.7738525], [30.8452318, 50.7729214], [30.8453035, 50.770233], [30.8465994, 50.766634], [30.8449665, 50.7649922], [30.8415451, 50.7628185], [30.8407943, 50.7610652], [30.8386384, 50.7581255], [30.8410759, 50.7577758], [30.8434115, 50.7559863], [30.8448877, 50.7550403], [30.845122, 50.7540378], [30.8411165, 50.7540013], [30.83146, 50.7543015], [30.8322941, 50.7532635], [30.8326113, 50.7524124], [30.8319716, 50.7515168], [30.8333472, 50.7489544], [30.8340691, 50.7472492], [30.8362841, 50.7466257], [30.837357, 50.7457839], [30.8375287, 50.7439509], [30.8448189, 50.7440702], [30.864333, 50.7445464], [30.8753499, 50.7465891], [30.8747197, 50.7545794], [30.8756221, 50.7599902], [30.8762853, 50.7639164], [30.8771783, 50.7684085], [30.8893744, 50.7736991], [30.8916756, 50.7709101], [30.892143, 50.7696935], [30.89225, 50.7685655], [30.8916138, 50.7672814], [30.8916956, 50.7662957], [30.892164, 50.7658879], [30.8938055, 50.7656678], [30.9010128, 50.7653279], [30.9031673, 50.7652263], [30.9048204, 50.7651051], [30.9057197, 50.764705], [30.9289326, 50.7639422], [30.9342432, 50.7636543], [30.9333551, 50.7585446], [30.9507331, 50.7570055], [30.9530777, 50.7603389], [30.9561262, 50.763361], [30.9749005, 50.7621663], [30.9764419, 50.7619076], [30.9898941, 50.7628648], [30.9973678, 50.7637077], [31.0040481, 50.7644092], [31.0136643, 50.7654516], [31.0153475, 50.7630438], [31.0164815, 50.7635991], [31.0187071, 50.7636054], [31.0232018, 50.7637471], [31.0234519, 50.763092], [31.0249957, 50.7635981], [31.028217, 50.7629057], [31.0303244, 50.7618031], [31.0310093, 50.7613933], [31.0325907, 50.7619258], [31.0400263, 50.7635185], [31.0405275, 50.7635496], [31.0505356, 50.7639699], [31.0550319, 50.7641693], [31.0601054, 50.764381], [31.0695375, 50.7647947], [31.0743722, 50.7781216], [31.0752729, 50.7810384], [31.0786594, 50.7807993], [31.0849248, 50.7802554], [31.0906047, 50.7797111], [31.1008764, 50.7788037], [31.1029506, 50.7787233], [31.103882, 50.7779582], [31.1053143, 50.7779095], [31.1268068, 50.7744043], [31.1244692, 50.7675733], [31.1231505, 50.7615994], [31.1223631, 50.7602832], [31.1215943, 50.7499831], [31.1229016, 50.7491716], [31.1278663, 50.7473723], [31.1315323, 50.7474829], [31.135819, 50.7471662], [31.1406238, 50.746829], [31.1465449, 50.7425297], [31.1468479, 50.7406686], [31.1490123, 50.7377571], [31.1502558, 50.7378767], [31.1564228, 50.7377604], [31.1658902, 50.7331857], [31.1672482, 50.7324776], [31.1653698, 50.7302457], [31.1647196, 50.7251762], [31.1685416, 50.7249439], [31.1883965, 50.7245988], [31.1907635, 50.7245577], [31.190802, 50.7201534], [31.1908515, 50.7144928], [31.1908038, 50.7064737], [31.1907863, 50.7035385], [31.1907391, 50.7028024], [31.1925888, 50.7025668], [31.1936811, 50.7028312], [31.1938977, 50.7026551], [31.1957431, 50.7031716], [31.1957216, 50.7033754], [31.2059673, 50.7060585], [31.20615, 50.7022882], [31.2065612, 50.6965545], [31.2132329, 50.6969039], [31.2162995, 50.6968926], [31.2182611, 50.69702], [31.2164283, 50.6917546], [31.2167947, 50.6912698], [31.2182985, 50.6880276], [31.2204794, 50.6842831], [31.2212095, 50.6791136], [31.2216338, 50.6756199], [31.2217177, 50.6735189], [31.2218342, 50.6705986], [31.2218782, 50.6699687], [31.2236645, 50.6674334], [31.2206841, 50.66631], [31.2130812, 50.663495], [31.2070727, 50.6585889], [31.2035537, 50.6561675], [31.2020304, 50.6545593], [31.1989431, 50.6448016], [31.2061318, 50.6369155], [31.2121315, 50.6342162], [31.2271074, 50.6271843], [31.2175814, 50.6205615], [31.2277496, 50.6132696], [31.2225806, 50.6067836], [31.2052806, 50.6065087], [31.2045836, 50.6062567], [31.2033873, 50.6068839], [31.1981269, 50.6073755], [31.18716, 50.6072781], [31.16594, 50.6074628], [31.1653989, 50.5924221], [31.1658194, 50.5894873], [31.1729446, 50.5890987], [31.1874522, 50.5889294], [31.1877838, 50.5749065], [31.1879767, 50.5745527], [31.2138105, 50.5734868], [31.2135923, 50.5697584], [31.2373829, 50.5690722], [31.237217, 50.566908], [31.2464955, 50.5670413], [31.2458241, 50.5624652], [31.2459845, 50.5617683], [31.2504867, 50.5561604], [31.2508464, 50.5561157], [31.2563824, 50.5571654], [31.2573695, 50.5569336], [31.2595796, 50.5564565], [31.2589788, 50.5557885], [31.2592578, 50.5547115], [31.2587428, 50.5518212], [31.2590432, 50.5509896], [31.2588501, 50.550117], [31.2588501, 50.5489308], [31.2589144, 50.5484672], [31.2576914, 50.5471719], [31.2572622, 50.5466538], [31.2570262, 50.5462992], [31.2556744, 50.5454607], [31.2548053, 50.5443221], [31.2546551, 50.5441039], [31.2545586, 50.543838], [31.2544942, 50.543613], [31.2552023, 50.5423244], [31.2564468, 50.5422289], [31.2568974, 50.5419221], [31.2580883, 50.5415403], [31.2600195, 50.5403607], [31.262058, 50.5391401], [31.2639785, 50.5390583], [31.2664139, 50.5385878], [31.2677121, 50.5380355], [31.2702978, 50.5371899], [31.270802, 50.5371081], [31.2716603, 50.5371695], [31.2726688, 50.5372104], [31.2736881, 50.5369854], [31.275351, 50.5366171], [31.2765419, 50.5366717], [31.2776148, 50.5362694], [31.2794387, 50.5360648], [31.2817132, 50.5354101], [31.2823248, 50.5354374], [31.2868299, 50.5344434], [31.2882539, 50.534079], [31.2891466, 50.5341635], [31.2898164, 50.5342162], [31.2901293, 50.534235], [31.2910109, 50.5340053], [31.292591, 50.5336575], [31.2932471, 50.5336733], [31.29409, 50.5336937], [31.2945771, 50.5334257], [31.2951779, 50.5331393], [31.2963795, 50.5327301], [31.2980318, 50.5320618], [31.2991047, 50.5318572], [31.299963, 50.5315571], [31.3024306, 50.5311752], [31.3074088, 50.5306432], [31.3082027, 50.5304796], [31.3091254, 50.5302477], [31.3112926, 50.5292929], [31.3136959, 50.5290064], [31.3162923, 50.5288837], [31.319232, 50.5281334], [31.3203478, 50.527465], [31.3206482, 50.5253507], [31.3210344, 50.522977], [31.3212919, 50.5209579], [31.3220572, 50.5148042], [31.3224491, 50.5137466], [31.3232386, 50.5119977], [31.3247251, 50.5096058], [31.3281584, 50.5040652], [31.3304253, 50.5010433], [31.3353252, 50.5054709], [31.3460433, 50.5152413], [31.3480067, 50.5150775], [31.3509464, 50.5197301], [31.3541436, 50.5236864], [31.3569224, 50.5278879], [31.3580382, 50.5292451], [31.3608813, 50.5299408], [31.3623512, 50.5301181], [31.3642502, 50.5308615], [31.3650441, 50.5298794], [31.3701081, 50.5285972], [31.3712024, 50.5281743], [31.3754833, 50.5270694], [31.3800645, 50.5275264], [31.3810301, 50.5272263], [31.3832831, 50.5269194], [31.3842595, 50.5268921], [31.3845813, 50.5263737], [31.3869953, 50.5256303], [31.3878965, 50.5254666], [31.3881969, 50.525146], [31.3898277, 50.5245799], [31.3918984, 50.5241024], [31.3950312, 50.5235841], [31.39781, 50.5232771], [31.3993227, 50.5227996], [31.4004815, 50.5222676], [31.4040542, 50.520726], [31.4064574, 50.5196073], [31.4085388, 50.5186727], [31.4110064, 50.5179837], [31.4132069, 50.5173776], [31.4143538, 50.5170628], [31.4139998, 50.5153368], [31.4159085, 50.5133516], [31.4165962, 50.5126215], [31.4173472, 50.5128262], [31.417551, 50.512294], [31.4182484, 50.5109295], [31.4190316, 50.5105133], [31.4201045, 50.5101789], [31.4211559, 50.5083913], [31.4202976, 50.5056074], [31.4197281, 50.5040283], [31.4226794, 50.5034647], [31.4270353, 50.5026322], [31.4362707, 50.5015766], [31.437918, 50.5013846], [31.4416955, 50.5006644], [31.4424545, 50.5005808], [31.4433236, 50.5004989], [31.4441765, 50.5004187], [31.4450923, 50.5003676], [31.4452306, 50.5019695], [31.445295, 50.5028634], [31.4453004, 50.5043067], [31.4453027, 50.5060045], [31.4522929, 50.5057107], [31.4528057, 50.5063025], [31.453151, 50.5067585], [31.4533951, 50.507144], [31.4536097, 50.5075039], [31.4541247, 50.5085462], [31.4546435, 50.509663], [31.4549976, 50.5102685], [31.4553501, 50.5108382], [31.4612241, 50.5118878], [31.4673878, 50.5129419], [31.4753404, 50.5143854], [31.4785921, 50.5149436], [31.4792217, 50.515033], [31.4799083, 50.5151319], [31.4804394, 50.5152683], [31.4810241, 50.5154662], [31.4869626, 50.5178129], [31.4906586, 50.5193239], [31.4932672, 50.5204142], [31.4928997, 50.5230416], [31.4994322, 50.5217888], [31.5044066, 50.52246], [31.5107991, 50.5227397], [31.5109197, 50.5220622], [31.5111014, 50.5214021], [31.5113348, 50.5208779], [31.515869, 50.5214359], [31.5217936, 50.5220871], [31.5218584, 50.5241302], [31.5219773, 50.52624], [31.5221641, 50.5272438], [31.5222875, 50.5282464], [31.5223036, 50.5283794], [31.5223626, 50.5286317], [31.5224069, 50.5298143], [31.5226043, 50.5364646], [31.523034, 50.5364648], [31.5235347, 50.5351388], [31.5242478, 50.53375], [31.5247561, 50.5322793], [31.5249913, 50.5317778], [31.5251354, 50.5315945], [31.525894, 50.5311316], [31.5314616, 50.5298239], [31.5396363, 50.5230179], [31.542317, 50.5228033], [31.5425296, 50.5227863], [31.5431162, 50.5227394], [31.5441934, 50.5222891], [31.5463204, 50.5210669], [31.5471135, 50.5207557], [31.5478968, 50.521372], [31.5483403, 50.5215084], [31.5488091, 50.5214309], [31.5520015, 50.5207452], [31.5524004, 50.5205123], [31.5524756, 50.5198829], [31.552948, 50.5196866], [31.554136, 50.5198798], [31.5566067, 50.5202197], [31.5577977, 50.5203177], [31.5587176, 50.5201269], [31.5600224, 50.5195484], [31.5629656, 50.5190733], [31.5643543, 50.52003], [31.5655544, 50.5210558], [31.5664556, 50.5214831], [31.5674665, 50.5219832], [31.5686958, 50.5232828], [31.5694227, 50.5239221], [31.5703729, 50.5276682], [31.571144, 50.5280821], [31.573064, 50.5277944], [31.5737118, 50.5276973], [31.5881633, 50.5261014], [31.6003048, 50.5245161], [31.6005107, 50.5244892], [31.6010867, 50.524414], [31.6076321, 50.5238859], [31.6164651, 50.5229565], [31.6293874, 50.5218844], [31.6303502, 50.5208492], [31.6389144, 50.5246175], [31.6393842, 50.5248242], [31.6394311, 50.5248448], [31.6396808, 50.5249618], [31.6457383, 50.5314502], [31.6460864, 50.5334722], [31.6463586, 50.542046], [31.6466746, 50.5526703], [31.6515462, 50.5527376], [31.6628146, 50.553937], [31.6639608, 50.552521], [31.6672296, 50.5517245], [31.6692924, 50.5521962], [31.6704909, 50.5527891], [31.6767318, 50.555802], [31.6802871, 50.5618994], [31.6834815, 50.5630476], [31.6856421, 50.5635191], [31.6860786, 50.5628841], [31.7003269, 50.5620562], [31.7297169, 50.5601207], [31.7414321, 50.5599517], [31.7613456, 50.559706], [31.7818557, 50.5594459], [31.7794324, 50.5685328], [31.7771522, 50.5776059], [31.7880813, 50.5789199], [31.7878886, 50.5905517], [31.7857037, 50.5969519], [31.7822875, 50.6056462], [31.786003, 50.6060949], [31.7895885, 50.6064508], [31.7917492, 50.6065], [31.7935754, 50.6064514], [31.7953771, 50.6063667], [31.7999486, 50.6060776], [31.804268, 50.6057886], [31.8061462, 50.6056942], [31.8077649, 50.6056992], [31.809286, 50.6057404], [31.8108681, 50.6058228], [31.812125, 50.6059129], [31.8114764, 50.6119028], [31.8108232, 50.6236981], [31.8464254, 50.6285662], [31.8587741, 50.6320519], [31.8686204, 50.6184057], [31.8724329, 50.6195644], [31.8836089, 50.6071685], [31.8911833, 50.6094727], [31.8976232, 50.6040869], [31.8969969, 50.6010129], [31.9009328, 50.5991724], [31.9058718, 50.5984066], [31.9128049, 50.5962843], [31.9124085, 50.5919388], [31.9164368, 50.5898318], [31.9192158, 50.5859471], [31.9179905, 50.5848757], [31.9200062, 50.5811361], [31.9201018, 50.5797677], [31.920258, 50.5775334], [31.9219671, 50.5776245], [31.9245806, 50.5757029], [31.9303318, 50.5739557], [31.9325793, 50.5726587], [31.9343973, 50.570555], [31.9365431, 50.5693518], [31.9344486, 50.5662672], [31.9412, 50.5660385], [31.9441291, 50.5622575], [31.9440404, 50.5612102], [31.9447805, 50.5590048], [31.9477071, 50.5558559], [31.9534865, 50.547445], [31.9520024, 50.5442145], [31.9665682, 50.5419294], [31.9734479, 50.5407432], [31.9748534, 50.5402113], [31.9872559, 50.5405318], [31.9947232, 50.5407227], [31.9986822, 50.5408045], [32.0078768, 50.5411318], [32.0265879, 50.5416637], [32.0387758, 50.5419637], [32.050202, 50.5420728], [32.0526375, 50.5420387], [32.062508, 50.5409614], [32.0633663, 50.5408114], [32.0620681, 50.5303234], [32.0619178, 50.5293189], [32.0610028, 50.5291077], [32.0562673, 50.52787], [32.0544961, 50.5274071], [32.0517104, 50.526679], [32.0493811, 50.5260444], [32.0494249, 50.5260004], [32.0526279, 50.5227803], [32.0601488, 50.5155221], [32.063743, 50.511763], [32.0615525, 50.5096313], [32.0470794, 50.4961864], [32.0397568, 50.4944753], [32.0229635, 50.4906011], [32.0069613, 50.4868856], [32.0054023, 50.4898025], [32.0049265, 50.4911887], [32.0045825, 50.4920807], [32.0042745, 50.4936337], [32.0041812, 50.4941044], [32.0038181, 50.4945587], [32.0020454, 50.4961045], [32.0010927, 50.4960451], [32.0004202, 50.4961224], [31.9994209, 50.496265], [31.9983748, 50.4964432], [31.9964134, 50.4968591], [31.995386, 50.4965561], [31.9946203, 50.4960033], [31.9935165, 50.4953942], [31.9925591, 50.4948658], [31.992232, 50.4946853], [31.9881127, 50.4959731], [31.9867152, 50.4966515], [31.984894, 50.4950098], [31.9841526, 50.4948259], [31.9839461, 50.4946528], [31.9847433, 50.4936181], [31.9852819, 50.4933059], [31.9842288, 50.4925769], [31.9850852, 50.4905606], [31.9857511, 50.4876693], [31.9849606, 50.4859356], [31.9836536, 50.4842972], [31.9825945, 50.4836172], [31.9771856, 50.4854964], [31.9761346, 50.4885841], [31.9753457, 50.489487], [31.9750456, 50.4894714], [31.974847, 50.489461], [31.9746126, 50.4888784], [31.9741344, 50.4886305], [31.9735413, 50.4884989], [31.9728825, 50.4885351], [31.9718144, 50.4885141], [31.9703863, 50.4884861], [31.9691975, 50.4886537], [31.9688099, 50.4886062], [31.9685904, 50.4878664], [31.9679833, 50.4877535], [31.9674871, 50.4878671], [31.966574, 50.4877455], [31.9662112, 50.4877257], [31.9655222, 50.4876881], [31.9650038, 50.487388], [31.9644009, 50.4866046], [31.9634825, 50.4855274], [31.9641591, 50.4851757], [31.9649888, 50.4847444], [31.9671319, 50.4842338], [31.9667854, 50.4836189], [31.9670381, 50.4827067], [31.9674941, 50.4823695], [31.9686341, 50.4822833], [31.970643, 50.4822715], [31.9711175, 50.4823382], [31.9712889, 50.482514], [31.9715166, 50.4831969], [31.9717524, 50.4833522], [31.9724642, 50.4833541], [31.9729952, 50.4831377], [31.9731888, 50.4824582], [31.9735113, 50.4813262], [31.9741305, 50.4809312], [31.9747625, 50.4806656], [31.9750494, 50.4805409], [31.9770496, 50.4814825], [31.9778082, 50.4811522], [31.9778607, 50.4811638], [31.9790985, 50.4818454], [31.9793792, 50.481277], [31.9791467, 50.480647], [31.9789152, 50.4800504], [31.9781881, 50.4793485], [31.9770112, 50.4795132], [31.9760745, 50.4794544], [31.9755663, 50.479067], [31.9750562, 50.4775927], [31.9730663, 50.4758652], [31.9728003, 50.4752251], [31.9700055, 50.4741197], [31.9723891, 50.467584], [31.9727308, 50.466977], [31.9732876, 50.4665586], [31.9818093, 50.4655972], [31.9976875, 50.4629901], [31.9983478, 50.462409], [32.0121555, 50.4601865], [32.0206344, 50.458831], [32.0217126, 50.4585849], [32.0222295, 50.4583633], [32.0228297, 50.4577142], [32.0231112, 50.4571635], [32.0235718, 50.4546996], [32.0252695, 50.446962], [32.0264558, 50.4414345], [32.027178, 50.4381866], [32.0277536, 50.4359128], [32.0361359, 50.4302667], [32.0387442, 50.4287184], [32.0395827, 50.4277643], [32.0401797, 50.4262279], [32.0401582, 50.425086], [32.0399508, 50.4242946], [32.0403111, 50.4223091], [32.0422535, 50.4135052], [32.0425859, 50.4131226], [32.0427337, 50.4129525], [32.0431481, 50.411229], [32.043455, 50.4095042], [32.0435259, 50.4091057], [32.0439791, 50.4076679], [32.0444117, 50.4061444], [32.0444298, 50.4052455], [32.0449526, 50.4036799], [32.045447, 50.4024137], [32.0462914, 50.4018783], [32.0522207, 50.3992579], [32.0565637, 50.3973381], [32.0730259, 50.4049917], [32.079829, 50.4077002], [32.0967766, 50.4160536], [32.1018673, 50.4126107], [32.1019241, 50.4119689], [32.1012001, 50.4112783], [32.0999454, 50.4103124], [32.0980285, 50.4089417], [32.0938941, 50.40655], [32.0877131, 50.4013579], [32.0844333, 50.398063], [32.0821915, 50.3962186], [32.0778017, 50.3932867], [32.0768794, 50.3925868], [32.0774071, 50.3918663], [32.0785479, 50.3909765], [32.079173, 50.3899016], [32.079361, 50.3887403], [32.0801741, 50.387835], [32.0845892, 50.3865741], [32.0821525, 50.3841397], [32.0836473, 50.3811651], [32.0841451, 50.3808258], [32.0825041, 50.3790723], [32.0797159, 50.3768641], [32.0746793, 50.3748581], [32.0891258, 50.3726922], [32.09587, 50.37214], [32.10291, 50.37369], [32.10668, 50.37729], [32.12007, 50.37969], [32.12797, 50.37798], [32.13707, 50.37695], [32.15475, 50.37609], [32.1610264, 50.3685532], [32.156511, 50.36442], [32.1481502, 50.3587681], [32.1411382, 50.3541282], [32.14188, 50.35189], [32.1434038, 50.3484349], [32.1525195, 50.3374675], [32.142914, 50.3216932], [32.1290183, 50.31601], [32.1399305, 50.3046563], [32.1308368, 50.3009437], [32.0988576, 50.2872902], [32.0939246, 50.28734], [32.0917488, 50.2868644], [32.0909737, 50.286113], [32.0838638, 50.283214], [32.0938836, 50.2778653], [32.0997496, 50.2781231], [32.0970547, 50.276661], [32.1009103, 50.2766062], [32.0992993, 50.2725573], [32.0894508, 50.2469771], [32.0895919, 50.246911], [32.10016, 50.24202], [32.09656, 50.23825], [32.1181041, 50.2287131], [32.118106, 50.2284028], [32.1186991, 50.2281681], [32.1189114, 50.2280604], [32.1253421, 50.2248466], [32.1254432, 50.2247961], [32.117846, 50.2181511], [32.1117458, 50.2127146], [32.1116221, 50.2126044], [32.1161316, 50.2100863], [32.1230413, 50.2062277], [32.1297215, 50.202497], [32.1298461, 50.2024274], [32.1359847, 50.1989989], [32.1419937, 50.1956425], [32.1547694, 50.1884701], [32.1565471, 50.1882378], [32.1601569, 50.1877662], [32.1616304, 50.1874972], [32.1624112, 50.1873546], [32.1628629, 50.1869281], [32.1635852, 50.180372], [32.1637258, 50.1800875], [32.1685666, 50.1754034], [32.1722064, 50.1718812], [32.1729484, 50.1708134], [32.1767802, 50.1652947], [32.1770576, 50.164899], [32.180201, 50.1643546], [32.1802656, 50.16455], [32.1803927, 50.1648793], [32.1837353, 50.164331], [32.1835589, 50.1637551], [32.1923238, 50.1622278], [32.1962127, 50.1614366], [32.2134483, 50.1583086], [32.2136798, 50.1589026], [32.2140598, 50.1589753], [32.2184587, 50.1581711], [32.2190688, 50.1578635], [32.2194028, 50.1572294], [32.2204722, 50.1570027], [32.221173, 50.1570438], [32.221452, 50.1569201], [32.2316709, 50.1550348], [32.2314941, 50.1545554], [32.2370076, 50.15357], [32.2367943, 50.1528644], [32.2419011, 50.1519088], [32.242276, 50.1526267], [32.2449702, 50.1521311], [32.2493615, 50.1513232], [32.2512765, 50.1509709], [32.2521204, 50.1508157], [32.2519805, 50.1505248], [32.2518146, 50.1501798], [32.2595286, 50.1487876], [32.259321, 50.1474349], [32.2640525, 50.1468066], [32.2661501, 50.1461286], [32.2671091, 50.1472364], [32.2675571, 50.1471573], [32.2783041, 50.1452606], [32.2785025, 50.1456664], [32.278803, 50.1458932], [32.2825215, 50.1452385], [32.2935958, 50.1432886], [32.293605, 50.1431645], [32.2936542, 50.1425018], [32.2984596, 50.1417329], [32.2988289, 50.1416664], [32.3017838, 50.1291832], [32.3019463, 50.1291491], [32.3038995, 50.1201816], [32.3039186, 50.1199374], [32.2855715, 50.1207185], [32.2576244, 50.1159209], [32.2534459, 50.1151569], [32.2530699, 50.1155425], [32.2522764, 50.1154158], [32.250934, 50.115215], [32.2502872, 50.1147429], [32.249494, 50.1132652], [32.2496715, 50.1126122], [32.2504032, 50.1117583], [32.2511072, 50.1111161], [32.2553343, 50.1087216], [32.2560209, 50.1081367], [32.257008, 50.1069463], [32.2571797, 50.106272], [32.257523, 50.1058729], [32.2581238, 50.1053499], [32.2593254, 50.1049095], [32.2618575, 50.1045792], [32.2631235, 50.1043246], [32.264089, 50.1040425], [32.2646255, 50.1037672], [32.2658915, 50.1025561], [32.2661919, 50.1020743], [32.2664709, 50.1018817], [32.2673935, 50.1011384], [32.2677798, 50.1010558], [32.2683591, 50.1010559], [32.2688741, 50.1010007], [32.2728867, 50.099294], [32.2749681, 50.0982893], [32.2767172, 50.0969205], [32.2749104, 50.0963577], [32.2747305, 50.0962923], [32.2740987, 50.0958364], [32.2737564, 50.0952835], [32.2716858, 50.0932194], [32.2709838, 50.0926077], [32.2676225, 50.089805], [32.2665267, 50.0889742], [32.2648928, 50.0877065], [32.2645602, 50.0872789], [32.2618556, 50.0828143], [32.2616785, 50.0825023], [32.2676931, 50.0757752], [32.2678409, 50.0755982], [32.2728539, 50.069592], [32.2769952, 50.0649641], [32.2786124, 50.0636097], [32.2854145, 50.058697], [32.2857677, 50.0586762], [32.2996391, 50.0488192], [32.2995824, 50.0486739], [32.3059747, 50.0440241], [32.3096537, 50.0417216], [32.3099882, 50.0414755], [32.3135873, 50.0388273], [32.3139339, 50.0386887], [32.314193, 50.0387434], [32.3212542, 50.0395424], [32.3216225, 50.0398349], [32.3236954, 50.0464682], [32.3249079, 50.0493682], [32.3257277, 50.0512573], [32.3266975, 50.052986], [32.3337357, 50.0583815], [32.3338196, 50.0583059], [32.3356755, 50.0566328], [32.3367355, 50.0559064], [32.3378339, 50.0551537], [32.3383748, 50.054783], [32.3390347, 50.0546073], [32.3411107, 50.053543], [32.3431056, 50.0524193], [32.3442961, 50.0512926], [32.3443517, 50.0512386], [32.346179, 50.0494643], [32.3473104, 50.0480502], [32.3479881, 50.0476101], [32.3499856, 50.0477091], [32.3488575, 50.0467976], [32.3487373, 50.0466596], [32.347698, 50.0454663], [32.346819, 50.0441932], [32.3462112, 50.043141], [32.3445015, 50.0381573], [32.3452219, 50.0380618], [32.3450908, 50.0376455], [32.3450026, 50.0373652], [32.3446047, 50.0361014], [32.3457359, 50.0359436], [32.3645061, 50.0337261], [32.3646387, 50.0337198], [32.3655805, 50.0262892], [32.3660564, 50.0226579], [32.3674913, 50.0117062], [32.3677076, 50.0110671], [32.3688047, 50.001995], [32.3772145, 50.000583], [32.3788769, 49.9809869], [32.3819379, 49.9797452], [32.3823514, 49.9795774], [32.3908655, 49.9761234], [32.4050822, 49.9705837], [32.4282925, 49.9603795], [32.4265334, 49.9571009], [32.4265734, 49.9569889], [32.4266641, 49.956735], [32.4266071, 49.9564268], [32.4262068, 49.9556492], [32.4264641, 49.9552302], [32.4266142, 49.9540819], [32.425906, 49.9526023], [32.4255616, 49.9522285], [32.4248649, 49.9516778], [32.4244325, 49.9499894], [32.4244939, 49.9497865], [32.4238257, 49.9491142], [32.422704, 49.9462231], [32.4224498, 49.9455825], [32.4223088, 49.9455167], [32.4194213, 49.9376626], [32.4181057, 49.9346182], [32.4179754, 49.9343815], [32.4196088, 49.9346497], [32.4256165, 49.9334359], [32.4258868, 49.9333212], [32.4264338, 49.9330891], [32.4302329, 49.9314772], [32.4295152, 49.9299132], [32.428686, 49.9281063], [32.4283318, 49.9273345], [32.4193455, 49.9283116], [32.419491, 49.9262194], [32.4195169, 49.9259863], [32.4194705, 49.9247847], [32.4189686, 49.918344], [32.4143734, 49.9038752], [32.4142421, 49.9034617], [32.4152137, 49.9024028], [32.4174796, 49.8999333], [32.4214156, 49.8968089], [32.4252961, 49.8940731], [32.4255723, 49.8938783], [32.4258463, 49.8937099], [32.4345665, 49.8883512], [32.43475, 49.8882384], [32.4146474, 49.8798337], [32.4031279, 49.8753559], [32.3930354, 49.8849018], [32.3863083, 49.8813665], [32.38638, 49.881197], [32.3739945, 49.8744485], [32.379222, 49.8709575], [32.3793378, 49.8708663], [32.3832015, 49.8681298], [32.3848577, 49.8669533], [32.3864602, 49.8657646], [32.3936579, 49.8604253], [32.3937464, 49.8601218], [32.3936517, 49.8599459], [32.4052887, 49.8516669], [32.4052098, 49.8514124], [32.4100619, 49.8479322], [32.4115021, 49.8449306], [32.4120172, 49.843857], [32.4153254, 49.839804], [32.4158613, 49.8393161], [32.4183038, 49.8378218], [32.4198332, 49.8367781], [32.42242, 49.8350128], [32.4215319, 49.8338122], [32.4214164, 49.8336975], [32.4225452, 49.8329498], [32.4303688, 49.8270393], [32.4372474, 49.8217974], [32.4376877, 49.8212496], [32.4379991, 49.8206049], [32.4413142, 49.8137436], [32.4495754, 49.7963182], [32.4711197, 49.7995432], [32.4851856, 49.8017443], [32.4940588, 49.803059], [32.5039357, 49.8046272], [32.5039563, 49.8025257], [32.506319, 49.7960068], [32.5088344, 49.7890656], [32.5143536, 49.7742997], [32.5207048, 49.7741386], [32.5224163, 49.7741107], [32.5239926, 49.774257], [32.5356003, 49.7738655], [32.5359246, 49.7738546], [32.5431529, 49.7736108], [32.5439201, 49.7735849], [32.5455386, 49.7736387], [32.5470559, 49.7736891], [32.5480318, 49.7737215], [32.5558342, 49.7736363], [32.5559125, 49.7735409], [32.5628501, 49.7650837], [32.572487, 49.7533334], [32.5726313, 49.7529899], [32.572647, 49.7527018], [32.5723793, 49.7520054], [32.5723349, 49.7518899], [32.5721207, 49.7515322], [32.571269, 49.7501093], [32.5695273, 49.7478151], [32.5685011, 49.7463622], [32.5683152, 49.746099], [32.5702817, 49.7321069], [32.5730709, 49.7114789], [32.5730898, 49.7113388], [32.5731026, 49.7112443], [32.5741913, 49.7025437], [32.5818738, 49.7006438], [32.5881529, 49.6990946], [32.5884174, 49.6990302], [32.5964082, 49.6970835], [32.618837, 49.691619], [32.6441186, 49.685496], [32.6639933, 49.6805973], [32.6602784, 49.6770005], [32.6607447, 49.6769145], [32.6619153, 49.6767202], [32.6633424, 49.6762144], [32.665028, 49.6765888], [32.666064, 49.6765955], [32.6674432, 49.6764217], [32.6688192, 49.6765891], [32.6705599, 49.6765205], [32.6732104, 49.676009], [32.6742718, 49.6756146], [32.675064, 49.6751516], [32.6753091, 49.6748214], [32.6757675, 49.6742036], [32.67648, 49.6732432], [32.6759747, 49.6727329], [32.6752086, 49.6724749], [32.6725327, 49.6715736], [32.6731661, 49.6711317], [32.6734088, 49.6709624], [32.6739012, 49.6706189], [32.6746026, 49.6701296], [32.6777043, 49.6687928], [32.6808348, 49.6681713], [32.6804039, 49.6663206], [32.6834085, 49.6633722], [32.6845862, 49.6622166], [32.6852131, 49.6621211], [32.6857738, 49.6618243], [32.6867, 49.6615887], [32.6875634, 49.6612988], [32.688487, 49.6606336], [32.6892633, 49.6601431], [32.6896589, 49.6598959], [32.6897601, 49.6598326], [32.690491, 49.6593758], [32.6914865, 49.6586237], [32.6916894, 49.6584068], [32.6917839, 49.6583057], [32.692148, 49.6581568], [32.6923433, 49.6579771], [32.6925674, 49.6577709], [32.6929332, 49.6577894], [32.6933756, 49.6579144], [32.6939682, 49.657956], [32.6943205, 49.6581326], [32.6944544, 49.6581997], [32.6943939, 49.6583587], [32.6942593, 49.6585567], [32.6944992, 49.658705], [32.6949624, 49.6587514], [32.6957261, 49.6583671], [32.6962208, 49.6582595], [32.6966832, 49.6583603], [32.6968427, 49.6585664], [32.6962298, 49.6590225], [32.6962076, 49.6593157], [32.696627, 49.6594643], [32.6985914, 49.6592517], [32.7001009, 49.6589302], [32.7009075, 49.6587875], [32.7011617, 49.6585686], [32.7011555, 49.658001], [32.7012199, 49.6575426], [32.7012199, 49.6570148], [32.7010268, 49.6567925], [32.7007264, 49.6565703], [32.7004903, 49.6564452], [32.7005118, 49.6561674], [32.7011277, 49.6560168], [32.7014774, 49.6559313], [32.7025288, 49.6557924], [32.7031082, 49.6556951], [32.7036017, 49.6557229], [32.7039021, 49.6557507], [32.7040738, 49.6556534], [32.7042025, 49.6554173], [32.7043313, 49.6551672], [32.704696, 49.6551811], [32.7055973, 49.655834], [32.7072495, 49.6567231], [32.7078718, 49.6570425], [32.708258, 49.6570148], [32.7086013, 49.6568481], [32.7086872, 49.6565425], [32.7083009, 49.6562647], [32.7077859, 49.6560424], [32.7074212, 49.6557785], [32.707271, 49.6553895], [32.7073568, 49.6550283], [32.7076143, 49.6547783], [32.7086013, 49.6543615], [32.7090734, 49.6541809], [32.709288, 49.6539587], [32.7092022, 49.6537781], [32.7085584, 49.6535975], [32.7083063, 49.6534267], [32.7079845, 49.6528571], [32.7069545, 49.6521486], [32.7059675, 49.6516346], [32.7053452, 49.651454], [32.7050662, 49.6512734], [32.7049804, 49.6511067], [32.7050233, 49.6509122], [32.7052379, 49.6507177], [32.7054525, 49.650676], [32.7068258, 49.6507733], [32.707727, 49.650676], [32.7091217, 49.6503426], [32.7094221, 49.6501064], [32.709654, 49.6495616], [32.7095723, 49.6491895], [32.7088553, 49.6487766], [32.7079845, 49.6484531], [32.7072549, 49.6481475], [32.706697, 49.6480919], [32.7061177, 49.6482586], [32.7053452, 49.6485226], [32.7029848, 49.648731], [32.7022124, 49.6486337], [32.7016759, 49.6484392], [32.7015523, 49.6483307], [32.7013755, 49.6481753], [32.701356, 49.6480757], [32.7013214, 49.6478993], [32.7015145, 49.6476214], [32.7024157, 49.6470379], [32.7025659, 49.6468017], [32.7024801, 49.6465794], [32.7023514, 49.6463988], [32.7021582, 49.6453845], [32.7023428, 49.6448767], [32.7023728, 49.6444814], [32.7022362, 49.6441128], [32.7022791, 49.6438905], [32.7024936, 49.6436959], [32.7028155, 49.6435292], [32.7031588, 49.6435431], [32.7034807, 49.643557], [32.7038026, 49.6434597], [32.7041244, 49.6429873], [32.7045634, 49.642797], [32.7050945, 49.6425295], [32.7055505, 49.6422412], [32.7058757, 49.6419153], [32.7061781, 49.6416159], [32.706398, 49.6412998], [32.7065536, 49.6409732], [32.706708, 49.640635], [32.7068433, 49.6400387], [32.7068808, 49.6395211], [32.7068432, 49.6391126], [32.7066877, 49.6388194], [32.7065053, 49.6385241], [32.7061298, 49.6380273], [32.7056548, 49.6375072], [32.7052822, 49.6369781], [32.7051006, 49.6367354], [32.7049443, 49.6365265], [32.7043446, 49.636135], [32.7039626, 49.6358837], [32.7037958, 49.635601], [32.7037695, 49.6354495], [32.7038446, 49.6352792], [32.7040546, 49.6351405], [32.7046224, 49.6351368], [32.7054884, 49.6352169], [32.7061674, 49.6352897], [32.7066663, 49.6352445], [32.7070615, 49.635127], [32.7075836, 49.6347164], [32.7083079, 49.6342563], [32.7087959, 49.6338409], [32.7091948, 49.6334011], [32.7092948, 49.633146], [32.7093592, 49.6328541], [32.7094371, 49.6323281], [32.709386, 49.6317423], [32.7092655, 49.6312004], [32.7091661, 49.6309015], [32.709271, 49.6307241], [32.709606, 49.6305297], [32.7101673, 49.6305214], [32.7108076, 49.6308215], [32.7112498, 49.6311772], [32.7116186, 49.6316931], [32.7118644, 49.63185], [32.7122399, 49.6319369], [32.7127727, 49.6319318], [32.7131898, 49.6318832], [32.7137375, 49.6317499], [32.7140423, 49.6316068], [32.7143261, 49.6314496], [32.7144908, 49.6309976], [32.7146482, 49.6305142], [32.7145949, 49.6303177], [32.7145412, 49.6301162], [32.714274, 49.6298166], [32.7139136, 49.6296784], [32.7136132, 49.6296297], [32.7133128, 49.6296089], [32.7131111, 49.6295246], [32.7127817, 49.6293969], [32.7123364, 49.6290877], [32.7120199, 49.628834], [32.7118505, 49.6285764], [32.711859, 49.6283823], [32.7119448, 49.6280487], [32.7121487, 49.6275449], [32.7122721, 49.6270549], [32.7124813, 49.6265858], [32.7125403, 49.6260542], [32.7129744, 49.6252362], [32.7130092, 49.6249135], [32.7127763, 49.6246225], [32.712395, 49.6245185], [32.711446, 49.6245495], [32.7109299, 49.6244002], [32.7105716, 49.6242506], [32.710522, 49.624021], [32.7105984, 49.6237919], [32.7108335, 49.6235584], [32.7112904, 49.6231108], [32.7120149, 49.622859], [32.7128461, 49.6225305], [32.7138389, 49.622047], [32.7143052, 49.6218841], [32.7147381, 49.621595], [32.7149536, 49.6212289], [32.7150508, 49.6208206], [32.7151476, 49.620339], [32.7157244, 49.6196257], [32.7159252, 49.6195], [32.7161135, 49.6192095], [32.7161237, 49.6190169], [32.7157734, 49.6188218], [32.7149704, 49.6188883], [32.7140423, 49.6189092], [32.7126409, 49.6190218], [32.7120629, 49.6188849], [32.711545, 49.6184957], [32.7111831, 49.6181828], [32.7109471, 49.6179326], [32.7105588, 49.6175494], [32.7103355, 49.6174043], [32.7100147, 49.617257], [32.7093324, 49.6171714], [32.7086455, 49.6170695], [32.7078786, 49.6168969], [32.7073443, 49.6165133], [32.7071169, 49.6162052], [32.7071493, 49.6159007], [32.7071689, 49.6157806], [32.707192, 49.6156387], [32.7075605, 49.6153907], [32.7086272, 49.6151775], [32.7098903, 49.6150131], [32.7108595, 49.6148558], [32.7115693, 49.6148289], [32.7121014, 49.6150056], [32.7128777, 49.6152197], [32.713404, 49.6152807], [32.7138582, 49.6152536], [32.7142891, 49.615093], [32.7145052, 49.6149383], [32.7147022, 49.6145682], [32.7147846, 49.6139911], [32.7150752, 49.6132882], [32.7152279, 49.6129172], [32.7151879, 49.6125322], [32.7151903, 49.6123019], [32.7148738, 49.6121177], [32.7143427, 49.6119474], [32.7131741, 49.6115747], [32.7122184, 49.6113669], [32.7116479, 49.6111188], [32.7114513, 49.6108698], [32.7114307, 49.6106639], [32.711462, 49.6104388], [32.7117785, 49.6103067], [32.7122797, 49.6102437], [32.7134285, 49.6102781], [32.714332, 49.6102129], [32.7152122, 49.6100756], [32.7155551, 49.6099452], [32.7157375, 49.6097645], [32.7157616, 49.6095715], [32.7156843, 49.6093393], [32.7153647, 49.609064], [32.7148327, 49.6087923], [32.7134536, 49.6080551], [32.7127267, 49.6074882], [32.7121071, 49.6069218], [32.7116136, 49.6064595], [32.7111281, 49.6059073], [32.7111844, 49.6057816], [32.7113346, 49.6056807], [32.7117004, 49.6055091], [32.7120427, 49.6053088], [32.7122734, 49.6051245], [32.7123271, 49.6048256], [32.7124813, 49.6045746], [32.7127187, 49.6042137], [32.7128904, 49.603851], [32.7131961, 49.6036088], [32.7135448, 49.6034871], [32.713931, 49.6034419], [32.7143792, 49.6034199], [32.7147303, 49.6034454], [32.7149342, 49.6036401], [32.7151654, 49.6038446], [32.7153633, 49.6039669], [32.7155135, 49.6039564], [32.715868, 49.6038332], [32.7160553, 49.6036957], [32.716209, 49.6032139], [32.7165167, 49.6026214], [32.7168917, 49.6021965], [32.7174715, 49.6017419], [32.7179897, 49.6014476], [32.7181314, 49.6012447], [32.7180187, 49.6010674], [32.7177935, 49.6009897], [32.717096, 49.6007371], [32.7165148, 49.6006291], [32.715948, 49.6005876], [32.7155564, 49.6005076], [32.715265, 49.6003783], [32.7152292, 49.6001565], [32.7153423, 49.5998872], [32.715712, 49.5994402], [32.7160833, 49.5991403], [32.7169995, 49.5985397], [32.7173374, 49.5983485], [32.7175896, 49.5983137], [32.7177437, 49.5983829], [32.7178953, 49.5985015], [32.7180509, 49.5988005], [32.7181268, 49.599115], [32.7182467, 49.5996193], [32.7184403, 49.5999527], [32.7186222, 49.6000921], [32.7190586, 49.6000993], [32.7197165, 49.599967], [32.7203811, 49.5997591], [32.7213044, 49.5993551], [32.7221786, 49.5990022], [32.7240927, 49.5978649], [32.7243407, 49.5975471], [32.724462, 49.5972461], [32.7241261, 49.5970186], [32.7236862, 49.5968308], [32.7231311, 49.5967227], [32.7223988, 49.5965596], [32.7220622, 49.5963894], [32.7220447, 49.5961424], [32.7222346, 49.5959737], [32.7228923, 49.5957668], [32.7240108, 49.5956882], [32.725013, 49.5954736], [32.7259433, 49.5951975], [32.7270918, 49.5950455], [32.7275419, 49.5952253], [32.7279013, 49.5955417], [32.7290465, 49.5960045], [32.7298334, 49.596604], [32.7302019, 49.5967083], [32.7306157, 49.5965709], [32.7306616, 49.5962717], [32.7306747, 49.5955233], [32.730959, 49.5953053], [32.7314311, 49.5952357], [32.7320937, 49.5953147], [32.7347895, 49.5961983], [32.7351411, 49.5961714], [32.7353954, 49.5959346], [32.7353411, 49.5955665], [32.7341964, 49.5943566], [32.7337861, 49.593598], [32.7336745, 49.592801], [32.7333947, 49.5916854], [32.7331853, 49.5909274], [32.7330943, 49.5902788], [32.7333676, 49.589905], [32.7339173, 49.5897534], [32.7351569, 49.5896972], [32.7356249, 49.5897749], [32.7358589, 49.5901682], [32.7359603, 49.5908515], [32.736023, 49.5910978], [32.7362802, 49.5914072], [32.7366664, 49.5917289], [32.7374513, 49.5920684], [32.7379998, 49.5922366], [32.7382117, 49.5922731], [32.7391179, 49.5924395], [32.739821, 49.592447], [32.7402657, 49.5923212], [32.7409454, 49.5920646], [32.741484, 49.5915637], [32.7418357, 49.5911707], [32.741881, 49.5908543], [32.7418357, 49.5906176], [32.7412158, 49.5905066], [32.7405807, 49.5902516], [32.7395831, 49.5897325], [32.7392095, 49.5893521], [32.7387415, 49.5889019], [32.7386372, 49.5885694], [32.7386731, 49.5881001], [32.7389531, 49.5876868], [32.7396133, 49.5872475], [32.7398425, 49.5867925], [32.7402277, 49.5862297], [32.7403253, 49.5859439], [32.7407221, 49.5855475], [32.7411085, 49.5853179], [32.7415705, 49.5851789], [32.7424287, 49.5852022], [32.7434321, 49.5857808], [32.7442581, 49.5863896], [32.7450792, 49.5869731], [32.7457423, 49.5873063], [32.7466687, 49.5873167], [32.746783, 49.587239], [32.7472096, 49.5868241], [32.7471563, 49.5861672], [32.7464097, 49.5855794], [32.745973, 49.585239], [32.7454299, 49.5847776], [32.7449216, 49.5844043], [32.7444898, 49.583989], [32.7446498, 49.5834012], [32.7455551, 49.5831587], [32.7463217, 49.5830583], [32.7473165, 49.5830091], [32.7498105, 49.5825849], [32.7507177, 49.5822532], [32.7525622, 49.5799512], [32.7531294, 49.5792796], [32.7534007, 49.5789121], [32.7533869, 49.5786012], [32.7529636, 49.5782767], [32.7523353, 49.5780367], [32.750426, 49.5775489], [32.748928, 49.5769456], [32.7477266, 49.5762075], [32.7472924, 49.5756693], [32.7474235, 49.575046], [32.7479259, 49.5747769], [32.7489525, 49.574182], [32.7496999, 49.57361], [32.7503657, 49.5734786], [32.7512575, 49.5731836], [32.7514113, 49.5728482], [32.7513134, 49.5725218], [32.7500802, 49.5719071], [32.7489538, 49.5702249], [32.7490412, 49.5695676], [32.7492501, 49.5691773], [32.7499426, 49.5690922], [32.7506105, 49.5693098], [32.7512385, 49.56954], [32.7517698, 49.5696857], [32.7521635, 49.5696627], [32.7525188, 49.5694656], [32.7525013, 49.569103], [32.7511094, 49.5680651], [32.7507939, 49.5677364], [32.7508173, 49.5672543], [32.751852, 49.567254], [32.7526791, 49.5675096], [32.7532663, 49.5673373], [32.7531328, 49.5669289], [32.7528189, 49.5665213], [32.7535599, 49.5654695], [32.7534081, 49.565286], [32.7526249, 49.5650425], [32.7516393, 49.5644662], [32.751034, 49.5638063], [32.750649, 49.5633962], [32.7507663, 49.5629742], [32.7517022, 49.5626835], [32.7526185, 49.5624806], [32.7532759, 49.5622892], [32.7533816, 49.562158], [32.7533867, 49.5619841], [32.7532204, 49.5618414], [32.7529574, 49.5616327], [32.7523888, 49.5613891], [32.7517938, 49.5612484], [32.7500956, 49.5607799], [32.7493451, 49.5603752], [32.7495242, 49.5599694], [32.7501188, 49.5595079], [32.7501815, 49.5593205], [32.7500876, 49.5591239], [32.7499106, 49.5586872], [32.7499829, 49.5581669], [32.7500995, 49.5576552], [32.7509661, 49.5576725], [32.7521236, 49.5574296], [32.7522874, 49.5568628], [32.7515229, 49.5564554], [32.750731, 49.5554989], [32.7508403, 49.5548081], [32.7516048, 49.5543121], [32.7527427, 49.5543457], [32.7533442, 49.5551951], [32.7538342, 49.5554135], [32.7542895, 49.5552489], [32.7553124, 49.5529505], [32.7558184, 49.5516718], [32.7550154, 49.5513258], [32.7527658, 49.5512186], [32.7524292, 49.5509484], [32.7527003, 49.5506587], [32.7544012, 49.5504133], [32.7552709, 49.5498948], [32.7558946, 49.5490805], [32.7554682, 49.5487606], [32.7530705, 49.5479817], [32.7524593, 49.5478994], [32.7521596, 49.5481526], [32.7518177, 49.5497448], [32.7510052, 49.5500752], [32.7469339, 49.5493021], [32.7463016, 49.548619], [32.7463673, 49.5476427], [32.7467133, 49.5468597], [32.7483065, 49.5464352], [32.7493013, 49.5464422], [32.7507038, 49.5459063], [32.7526076, 49.5455306], [32.7529819, 49.5451691], [32.7530009, 49.5446411], [32.7498632, 49.5429865], [32.7500037, 49.5422669], [32.7513705, 49.5421683], [32.7539603, 49.5417773], [32.7549344, 49.5414131], [32.7555091, 49.5405175], [32.7555427, 49.5396175], [32.7546658, 49.5389592], [32.7533842, 49.5386174], [32.748883, 49.5385104], [32.7505219, 49.5238192], [32.7496093, 49.5241776], [32.7489814, 49.5244242], [32.7477176, 49.5236262], [32.7471072, 49.5222383], [32.7399522, 49.518956], [32.7377175, 49.5170655], [32.7348404, 49.5162395], [32.7209554, 49.507748], [32.7198809, 49.504546], [32.7192455, 49.5039925], [32.7182411, 49.5031026], [32.7166446, 49.5020166], [32.714061, 49.5007634], [32.7115687, 49.5001699], [32.6852359, 49.5000525], [32.6807635, 49.5000149], [32.6801106, 49.4998937], [32.6786257, 49.4993247], [32.6776129, 49.498672], [32.6764083, 49.497232], [32.6750886, 49.4956014], [32.6741713, 49.4942948], [32.6735437, 49.4933436], [32.6733291, 49.4929568], [32.6730716, 49.4924655], [32.6728195, 49.4919707], [32.6724279, 49.4913714], [32.6721704, 49.4910717], [32.6718861, 49.4908034], [32.6713282, 49.4904236], [32.6710439, 49.490218], [32.6708347, 49.4900263], [32.6706684, 49.4897719], [32.6705128, 49.4894514], [32.6702875, 49.4887509], [32.6701587, 49.488291], [32.6699924, 49.4876184], [32.6697457, 49.4861861], [32.6696598, 49.4853916], [32.6696706, 49.4847364], [32.6697296, 49.4841265], [32.6698101, 49.4837571], [32.6699871, 49.4832796], [32.6701319, 49.4828928], [32.6701448, 49.481068], [32.6700999, 49.4796453], [32.6700702, 49.4787066], [32.6701174, 49.4775709], [32.6709812, 49.4770696], [32.6709732, 49.4766155], [32.6711619, 49.4759604], [32.6707649, 49.4756885], [32.6704323, 49.4753748], [32.6701963, 49.475075], [32.669971, 49.4746742], [32.6698798, 49.4744755], [32.6698101, 49.4741896], [32.6696813, 49.473869], [32.669515, 49.4735622], [32.669161, 49.4732032], [32.6686621, 49.472764], [32.6677716, 49.4719971], [32.6675892, 49.4717426], [32.6674658, 49.4713975], [32.6674175, 49.4711291], [32.6674175, 49.4708502], [32.6674229, 49.4701007], [32.6674336, 49.4696301], [32.6673639, 49.4689468], [32.6673371, 49.4686121], [32.6672459, 49.468389], [32.6670903, 49.468145], [32.6669079, 49.467901], [32.6667738, 49.4676046], [32.6665914, 49.4670224], [32.6664734, 49.4666668], [32.6664573, 49.4663321], [32.6665109, 49.4660253], [32.6666826, 49.4657255], [32.6669025, 49.4653699], [32.6670039, 49.4637849], [32.6670919, 49.4623281], [32.666804, 49.4618408], [32.6660445, 49.4604986], [32.668313, 49.4567431], [32.6699378, 49.4555958], [32.6712682, 49.4533029], [32.6714184, 49.4520143], [32.6714205, 49.4515171], [32.672238, 49.4510338], [32.6725688, 49.4500375], [32.672921, 49.4498364], [32.6730386, 49.4479656], [32.6722816, 49.4473082], [32.6709239, 49.4459394], [32.6698225, 49.4449635], [32.6657599, 49.4437365], [32.664587, 49.4435148], [32.6637434, 49.4432665], [32.662807, 49.4431468], [32.6623133, 49.443216], [32.6613644, 49.443086], [32.6606299, 49.4424672], [32.6586241, 49.442195], [32.6558244, 49.4413508], [32.652201, 49.4389525], [32.6515543, 49.4377939], [32.651165, 49.436147], [32.6513874, 49.435368], [32.6515583, 49.4349256], [32.6532528, 49.4347343], [32.6538432, 49.4346193], [32.6568613, 49.4332513], [32.6589353, 49.4319391], [32.6591563, 49.430403], [32.6593387, 49.4299076], [32.6595586, 49.4295552], [32.6598859, 49.4291889], [32.6604277, 49.4288086], [32.6610124, 49.428519], [32.6618546, 49.4281666], [32.6632333, 49.4276468], [32.6641828, 49.4273502], [32.6648962, 49.4271548], [32.6658565, 49.4269001], [32.6670903, 49.4266593], [32.6686835, 49.4263837], [32.6703036, 49.4261848], [32.6712584, 49.4260767], [32.6723581, 49.4259964], [32.6730019, 49.4259755], [32.6737904, 49.4260034], [32.6744395, 49.4260801], [32.6752871, 49.4262127], [32.6760811, 49.4263349], [32.6766819, 49.4263453], [32.6773417, 49.4262895], [32.6778996, 49.4261848], [32.6783502, 49.4260139], [32.678656, 49.4258359], [32.678951, 49.4256161], [32.679171, 49.4253579], [32.6793265, 49.4250404], [32.6794821, 49.4245798], [32.6797718, 49.423854], [32.6800561, 49.4232818], [32.680217, 49.4229223], [32.6803672, 49.4224827], [32.6805496, 49.4217953], [32.6806515, 49.4210276], [32.680791, 49.4202215], [32.6809251, 49.4195864], [32.6811719, 49.4188431], [32.6812363, 49.4186232], [32.6812684, 49.4184418], [32.6812899, 49.4182184], [32.6813114, 49.4172832], [32.6813489, 49.4167039], [32.6814187, 49.4161664], [32.6814455, 49.4158802], [32.6814508, 49.4155522], [32.6814187, 49.4152486], [32.6813489, 49.4146448], [32.6812792, 49.4140864], [32.6812094, 49.4131127], [32.6812041, 49.4123099], [32.681188, 49.411207], [32.6810894, 49.4105466], [32.6809412, 49.4096958], [32.6807642, 49.4090221], [32.6805925, 49.4084846], [32.6803404, 49.4078877], [32.6800775, 49.4073851], [32.6795733, 49.406701], [32.6793212, 49.4063938], [32.6791763, 49.4061599], [32.679069, 49.4059191], [32.6789778, 49.405591], [32.6788062, 49.4048021], [32.6786882, 49.4043134], [32.6784038, 49.4034686], [32.6782, 49.4029415], [32.6780444, 49.4026029], [32.6777226, 49.4020513], [32.6776206, 49.4018454], [32.6775616, 49.401608], [32.6775348, 49.4013252], [32.6775992, 49.4008505], [32.6777762, 49.4003443], [32.6779532, 49.4000475], [32.6782966, 49.3996321], [32.6790208, 49.3987942], [32.6801687, 49.3974746], [32.6804262, 49.3971359], [32.6806462, 49.3968112], [32.6811182, 49.3959768], [32.681542, 49.3953798], [32.6817942, 49.395104], [32.6819873, 49.3949399], [32.682454, 49.3947933], [32.6826364, 49.394692], [32.6828456, 49.3945262], [32.6830897, 49.3942591], [32.6833069, 49.3940513], [32.6837736, 49.3935922], [32.684361, 49.3929707], [32.6847419, 49.3924033], [32.6854661, 49.3914204], [32.6859006, 49.3907623], [32.6864478, 49.390036], [32.6866731, 49.3897794], [32.6868448, 49.3895681], [32.6870272, 49.3893202], [32.6871881, 49.3891404], [32.6875877, 49.3887144], [32.6881564, 49.3880649], [32.6885882, 49.3875778], [32.6887062, 49.3874451], [32.6887545, 49.3873106], [32.6888376, 49.3870278], [32.688961, 49.3867275], [32.6893848, 49.3861024], [32.6895592, 49.3858283], [32.6897657, 49.3854948], [32.6901948, 49.3851316], [32.691257, 49.3844681], [32.6917586, 49.3842376], [32.6926464, 49.3837924], [32.6930809, 49.38363], [32.6934135, 49.3835182], [32.6940465, 49.3833471], [32.6961601, 49.3827988], [32.6971981, 49.382633], [32.6977614, 49.3825858], [32.6980001, 49.3825771], [32.6982361, 49.3825963], [32.6988262, 49.3826871], [32.6991802, 49.3827884], [32.6994377, 49.3828268], [32.6998293, 49.3828373], [32.7008271, 49.3828163], [32.701605, 49.3828163], [32.7024472, 49.3828687], [32.7033001, 49.3830538], [32.7039814, 49.3832144], [32.7049631, 49.3834624], [32.705934, 49.3838186], [32.7061996, 49.3839478], [32.707302, 49.3843703], [32.7074227, 49.3844384], [32.707487, 49.3845118], [32.7075917, 49.3845868], [32.7079564, 49.3846968], [32.7087289, 49.3848453], [32.7093083, 49.3849238], [32.709665, 49.3849675], [32.7100727, 49.3849849], [32.7108049, 49.3849727], [32.7110919, 49.3849605], [32.7115828, 49.3849186], [32.7119288, 49.3848715], [32.712425, 49.3847405], [32.7128434, 49.3846113], [32.7133906, 49.3843983], [32.7138251, 49.3841573], [32.7142328, 49.3839513], [32.7145252, 49.3837575], [32.7148926, 49.3835148], [32.7154344, 49.3832179], [32.7155578, 49.3831097], [32.7157295, 49.38286], [32.7158099, 49.3827342], [32.7159977, 49.3825264], [32.7162418, 49.3823326], [32.716687, 49.3820602], [32.7174112, 49.3816307], [32.7179289, 49.381243], [32.7184492, 49.3808292], [32.7186638, 49.3806668], [32.7195999, 49.3797622], [32.7197501, 49.3796522], [32.720198, 49.3793082], [32.7206004, 49.3789747], [32.7211744, 49.3786377], [32.7214426, 49.3784648], [32.7217993, 49.3783041], [32.7222553, 49.3781312], [32.7232558, 49.377789], [32.7241972, 49.3773838], [32.7248168, 49.3770834], [32.7252728, 49.3767953], [32.7259916, 49.3763413], [32.7270323, 49.3756707], [32.7282661, 49.3748149], [32.7286041, 49.3745739], [32.7288991, 49.3743434], [32.7292532, 49.374057], [32.7294704, 49.3739347], [32.7297789, 49.3738002], [32.730267, 49.3736343], [32.7309376, 49.3734702], [32.7316135, 49.3733549], [32.7322358, 49.3732676], [32.7329063, 49.3731977], [32.7344781, 49.373065], [32.7349985, 49.3730126], [32.7354383, 49.3729288], [32.735779, 49.372824], [32.7361411, 49.3726598], [32.736994, 49.3721778], [32.7371389, 49.372059], [32.7372462, 49.3719263], [32.7372515, 49.3717796], [32.7372032, 49.3716433], [32.7368277, 49.3712312], [32.7364629, 49.370784], [32.7361786, 49.370295], [32.7359533, 49.369799], [32.7357227, 49.3691353], [32.735551, 49.3683633], [32.7354169, 49.3671092], [32.7353793, 49.3666585], [32.7354062, 49.366407], [32.7354759, 49.3661764], [32.7356636, 49.3658411], [32.7358621, 49.3656], [32.7359587, 49.3654218], [32.7359909, 49.3652996], [32.7359372, 49.3652087], [32.7358139, 49.3651459], [32.7355456, 49.365069], [32.7353847, 49.3649817], [32.7353203, 49.3648664], [32.7352935, 49.3647266], [32.7355564, 49.3636821], [32.7356529, 49.3628785], [32.7356315, 49.3625326], [32.7355403, 49.3622182], [32.7355134, 49.3620191], [32.7355671, 49.3618269], [32.7358192, 49.361212], [32.7360874, 49.3607858], [32.7367285, 49.3599437], [32.7370101, 49.3594406], [32.737155, 49.3590703], [32.7372032, 49.3586091], [32.7371925, 49.3581828], [32.7372515, 49.3576867], [32.7373749, 49.3573058], [32.7376485, 49.3567398], [32.7378845, 49.3562681], [32.7381527, 49.3554889], [32.7382225, 49.3550835], [32.7381957, 49.3544406], [32.7381206, 49.3540667], [32.7379972, 49.3537872], [32.7377987, 49.3534412], [32.7374875, 49.3531128], [32.7370959, 49.3528122], [32.7364951, 49.3525467], [32.7361464, 49.3524523], [32.7357924, 49.3523999], [32.7352989, 49.3523859], [32.7339578, 49.3523754], [32.7329493, 49.352344], [32.7319622, 49.3523021], [32.7309859, 49.3522497], [32.7301437, 49.3522007], [32.7296019, 49.3521623], [32.7290976, 49.3521343], [32.7286845, 49.3521378], [32.72825, 49.3521658], [32.7278048, 49.3522357], [32.72744, 49.3523335], [32.7271074, 49.3524523], [32.7267963, 49.3525676], [32.7265012, 49.352634], [32.7261203, 49.3526795], [32.7254605, 49.3527249], [32.7252406, 49.3527563], [32.7250475, 49.3528018], [32.7247792, 49.3529171], [32.7245808, 49.352994], [32.7243125, 49.3530499], [32.7218825, 49.3533329], [32.7203482, 49.3534727], [32.718519, 49.3536404], [32.7179664, 49.3536823], [32.7175856, 49.3536649], [32.7172261, 49.3535985], [32.7163893, 49.3534168], [32.7161854, 49.3533993], [32.7159011, 49.3534412], [32.7152198, 49.3536579], [32.7147531, 49.3537627], [32.7143562, 49.3538186], [32.713455, 49.353871], [32.7130687, 49.353899], [32.7126557, 49.3539444], [32.7116847, 49.3541156], [32.7111965, 49.354168], [32.7107835, 49.354175], [32.7099252, 49.3541541], [32.709378, 49.3541646], [32.7083588, 49.354217], [32.7080262, 49.354217], [32.7077204, 49.3541925], [32.7073771, 49.3541261], [32.7069479, 49.3540178], [32.7065885, 49.3539898], [32.7057409, 49.3539514], [32.7053064, 49.3539374], [32.7050918, 49.353906], [32.70455, 49.3537942], [32.7042603, 49.3537662], [32.7040297, 49.3537802], [32.7038044, 49.3538361], [32.7033645, 49.3540423], [32.7030533, 49.3541226], [32.7027368, 49.3541366], [32.7023613, 49.3540877], [32.7019912, 49.3540003], [32.7006823, 49.353602], [32.7002263, 49.3534622], [32.6999259, 49.3534238], [32.6995933, 49.3534273], [32.6992714, 49.3534587], [32.6978338, 49.3537278], [32.697469, 49.3537732], [32.6970237, 49.3537837], [32.6944381, 49.3536369], [32.6940465, 49.3536055], [32.693671, 49.3535426], [32.6933867, 49.3534657], [32.6930755, 49.3533609], [32.6928663, 49.3533189], [32.6926544, 49.3533015], [32.6920992, 49.3532892], [32.6918659, 49.3532595], [32.6916003, 49.3532036], [32.6899373, 49.3527703], [32.689712, 49.3526847], [32.6895002, 49.3525921], [32.6893258, 49.3525379], [32.6891166, 49.3524978], [32.6888698, 49.3524611], [32.6887089, 49.3524244], [32.6885748, 49.3523685], [32.6882958, 49.3522042], [32.6881027, 49.3521413], [32.687872, 49.3521204], [32.6875824, 49.3521378], [32.6871961, 49.3521798], [32.6859569, 49.352351], [32.6854527, 49.3523894], [32.6847446, 49.3524244], [32.6843744, 49.3524314], [32.684235, 49.3524174], [32.68394, 49.3523789], [32.6836986, 49.3523545], [32.6835161, 49.352351], [32.6832533, 49.3523859], [32.6828027, 49.3524034], [32.6822501, 49.3524069], [32.68107, 49.3524034], [32.6791495, 49.3524733], [32.6774597, 49.3525222], [32.6767248, 49.3525572], [32.6756734, 49.352669], [32.6753354, 49.3526865], [32.6749814, 49.3526725], [32.6743054, 49.3526166], [32.6740158, 49.3526375], [32.6737422, 49.3527039], [32.6734203, 49.3528367], [32.6729777, 49.3530324], [32.6728195, 49.3530743], [32.6726693, 49.353104], [32.6722911, 49.3531442], [32.6721758, 49.3531617], [32.6720738, 49.3532071], [32.6719075, 49.3533521], [32.6718056, 49.3534185], [32.6716286, 49.3534709], [32.6713818, 49.3535391], [32.6712316, 49.353609], [32.6710921, 49.3537313], [32.6708722, 49.3539933], [32.6707327, 49.3541017], [32.6703143, 49.3543532], [32.66922, 49.3548634], [32.6690322, 49.3549473], [32.6687854, 49.3550032], [32.6684636, 49.3550591], [32.6682329, 49.3551325], [32.6679057, 49.355384], [32.6673531, 49.3558243], [32.66716, 49.3559187], [32.6668704, 49.3559885], [32.6663285, 49.3560375], [32.664113, 49.3561528], [32.6638609, 49.3561737], [32.6636839, 49.3562191], [32.6632333, 49.3563624], [32.6630294, 49.3564008], [32.6627827, 49.3564113], [32.6625305, 49.3563554], [32.6621497, 49.3561737], [32.6619565, 49.3560584], [32.6617634, 49.3560375], [32.6615918, 49.3560514], [32.6611948, 49.3561248], [32.6609212, 49.3561493], [32.6605242, 49.3561632], [32.6597625, 49.3561353], [32.6586521, 49.3560899], [32.658003, 49.3560969], [32.6573217, 49.3561388], [32.6558787, 49.3562925], [32.6549345, 49.3563589], [32.6542747, 49.3563799], [32.6530033, 49.3564218], [32.6524776, 49.3564533], [32.6518714, 49.3564952], [32.6515818, 49.3565196], [32.651335, 49.3565686], [32.65082, 49.3567677], [32.6502407, 49.3570333], [32.6500046, 49.3571241], [32.6496559, 49.3571835], [32.6490605, 49.3572604], [32.6486689, 49.3573827], [32.6479125, 49.3577006], [32.6462763, 49.3582702], [32.6451069, 49.3587069], [32.6443398, 49.3589725], [32.6439589, 49.3590843], [32.6434761, 49.3591821], [32.6433098, 49.35921], [32.6432025, 49.3592764], [32.6430148, 49.359542], [32.6428646, 49.3596433], [32.6426715, 49.3597062], [32.6421726, 49.3598494], [32.6420277, 49.3599193], [32.6418668, 49.3600136], [32.6406008, 49.360915], [32.6403701, 49.3611072], [32.6401448, 49.36124], [32.6398712, 49.3613622], [32.6391149, 49.3616872], [32.638793, 49.3618514], [32.6380366, 49.3623195], [32.636953, 49.3629624], [32.6365668, 49.3632488], [32.6361, 49.3634724], [32.6356226, 49.3636157], [32.6352364, 49.3636856], [32.634877, 49.3637275], [32.6345175, 49.3638253], [32.6342708, 49.3639406], [32.6339865, 49.3641188], [32.6337397, 49.3642585], [32.6333857, 49.3643668], [32.6327151, 49.3644437], [32.6319212, 49.3645555], [32.6309931, 49.3647476], [32.6302797, 49.3649467], [32.6292336, 49.3652961], [32.628606, 49.3654777], [32.6282841, 49.3656245], [32.628032, 49.3657677], [32.627753, 49.3659983], [32.6275814, 49.3661974], [32.6272058, 49.3665782], [32.6269537, 49.3667493], [32.6266533, 49.3668786], [32.6263583, 49.3669939], [32.6232147, 49.3676681], [32.6220185, 49.3679371], [32.6213264, 49.3681152], [32.6209241, 49.3682655], [32.6203233, 49.3685554], [32.6200819, 49.3686497], [32.6197708, 49.368737], [32.6189661, 49.3689187], [32.6187301, 49.3689746], [32.6185316, 49.3690689], [32.6181829, 49.3693344], [32.617963, 49.3694741], [32.6177001, 49.3695754], [32.6173192, 49.3696453], [32.6166326, 49.3697675], [32.6157153, 49.3699911], [32.6148677, 49.3702461], [32.6126146, 49.3710879], [32.6116705, 49.3715036], [32.6108015, 49.3719228], [32.6101041, 49.3722476], [32.609632, 49.3724712], [32.6091331, 49.3726843], [32.6083124, 49.3729078], [32.6078403, 49.373044], [32.6074111, 49.3731907], [32.6067835, 49.3735715], [32.6060432, 49.374029], [32.6054531, 49.3744063], [32.6048684, 49.3747101], [32.6044822, 49.3748708], [32.6036453, 49.3751328], [32.603007, 49.3753353], [32.6021004, 49.3755746], [32.6017678, 49.3756287], [32.6014727, 49.3757056], [32.601065, 49.3758593], [32.6003918, 49.3761509], [32.6001665, 49.3762242], [32.5999331, 49.3762627], [32.5994235, 49.3763116], [32.5991875, 49.3763552], [32.5990319, 49.3764146], [32.5986886, 49.3766277], [32.598533, 49.3767185], [32.5983614, 49.3767639], [32.5969452, 49.3770573], [32.5966394, 49.3771376], [32.5963443, 49.3772284], [32.5955772, 49.3774973], [32.5950247, 49.377665], [32.59444, 49.3778047], [32.5927019, 49.3781609], [32.5919509, 49.3782832], [32.5914091, 49.3783425], [32.5907385, 49.378367], [32.5899285, 49.3783495], [32.5887644, 49.3782867], [32.588405, 49.3783041], [32.5876325, 49.3783879], [32.5873214, 49.3784159], [32.5869888, 49.3784054], [32.5866562, 49.3783635], [32.5863665, 49.3783216], [32.586168, 49.3783286], [32.5858033, 49.3783321], [32.5855136, 49.3783076], [32.5850362, 49.3782587], [32.5843254, 49.3781958], [32.5838023, 49.3781941], [32.5834778, 49.3782168], [32.5829387, 49.3783024], [32.5821125, 49.3784229], [32.5811121, 49.3785923], [32.5798756, 49.3787791], [32.579256, 49.3789275], [32.5785372, 49.3790463], [32.5780168, 49.3791004], [32.5773919, 49.3791057], [32.5769895, 49.3791161], [32.5765577, 49.3791301], [32.5761795, 49.3791685], [32.5757879, 49.3791947], [32.5754473, 49.3792122], [32.5748867, 49.3794444], [32.5748304, 49.3794619], [32.5744897, 49.3794706], [32.5743985, 49.3794601], [32.5743502, 49.3794409], [32.5735472, 49.3794488], [32.5728938, 49.3794462], [32.57236, 49.379647], [32.5718665, 49.3798513], [32.5713676, 49.3800189], [32.5709975, 49.3801062], [32.5706702, 49.3801517], [32.5703698, 49.380225], [32.5701553, 49.3803123], [32.5698978, 49.3804555], [32.5692862, 49.380665], [32.5684869, 49.3808955], [32.5677091, 49.3811575], [32.5669098, 49.3814578], [32.5659817, 49.3817896], [32.5652951, 49.3820375], [32.5647157, 49.3822052], [32.5641042, 49.3823064], [32.5628275, 49.3824426], [32.5622106, 49.3825369], [32.5619477, 49.3826312], [32.5617975, 49.3826976], [32.561658, 49.3828128], [32.5615239, 49.3829071], [32.5612664, 49.3832179], [32.5617331, 49.3836055], [32.5619557, 49.3836544], [32.5620711, 49.3836911], [32.5621569, 49.3837417], [32.5622508, 49.3838325], [32.5624278, 49.3840595], [32.5625217, 49.3841311], [32.5624099, 49.384235], [32.5618357, 49.3849286], [32.5608168, 49.3847293], [32.5598568, 49.3849789], [32.5592267, 49.3850067], [32.5579955, 49.3850609], [32.5565853, 49.384547], [32.556575, 49.3843207], [32.5565669, 49.3841435], [32.5580934, 49.3834186], [32.5588766, 49.3822575], [32.5584233, 49.3820445], [32.5580424, 49.3818769], [32.5577742, 49.3817966], [32.5572807, 49.3815835], [32.5568569, 49.3814299], [32.556197, 49.3812587], [32.5544965, 49.3809479], [32.5526297, 49.3808257], [32.5519806, 49.3808082], [32.5513476, 49.3808187], [32.5505322, 49.3808536], [32.5485957, 49.3811051], [32.5477159, 49.3812308], [32.5465089, 49.3814788], [32.5455004, 49.3817267], [32.5439554, 49.3821423], [32.5425607, 49.3825893], [32.5416166, 49.3829211], [32.5406724, 49.3833227], [32.5397927, 49.3837487], [32.5390041, 49.3841783], [32.5375879, 49.3850024], [32.5365928, 49.3855786], [32.5356996, 49.3861303], [32.5355762, 49.3861635], [32.5354663, 49.3861722], [32.5353429, 49.3861426], [32.5351605, 49.3860029], [32.5350559, 49.3859732], [32.53497, 49.3859714], [32.5348386, 49.3860046], [32.5346482, 49.3861007], [32.5345463, 49.3862072], [32.534498, 49.3863032], [32.5345007, 49.3864114], [32.5345194, 49.3865302], [32.5345033, 49.3866646], [32.5344819, 49.3867222], [32.5344041, 49.3868008], [32.5335431, 49.3872967], [32.5332051, 49.3875446], [32.5326312, 49.3880823], [32.5323147, 49.3883093], [32.5320625, 49.388456], [32.5316495, 49.3886201], [32.5309199, 49.388882], [32.5302279, 49.3891753], [32.5300294, 49.3892975], [32.5298846, 49.3894826], [32.5296432, 49.3898527], [32.5295144, 49.3899784], [32.5293267, 49.3900377], [32.5291282, 49.3900412], [32.5286883, 49.3899749], [32.528463, 49.3899923], [32.5282431, 49.3900727], [32.528066, 49.3902333], [32.5279963, 49.3903625], [32.5279534, 49.3906488], [32.5279105, 49.3910957], [32.5278246, 49.3913401], [32.5276583, 49.3916649], [32.527433, 49.3920105], [32.5272024, 49.3922794], [32.5265479, 49.3929602], [32.526285, 49.3933164], [32.5261241, 49.3935992], [32.5259846, 49.3939902], [32.5258344, 49.3944197], [32.5255823, 49.3949818], [32.5253785, 49.3955579], [32.5251853, 49.3962073], [32.5250673, 49.3966262], [32.5250566, 49.3968392], [32.5251263, 49.3970207], [32.5251907, 49.3970975], [32.5252819, 49.3971848], [32.525475, 49.3972651], [32.5257164, 49.3973349], [32.5257808, 49.3974309], [32.5258157, 49.3975374], [32.5257942, 49.3976998], [32.5256842, 49.3978272], [32.5253946, 49.3979948], [32.5250673, 49.3981344], [32.5249922, 49.3982077], [32.5249332, 49.3983125], [32.5248045, 49.3989025], [32.5247347, 49.399091], [32.5245202, 49.3992865], [32.5244504, 49.3993772], [32.5243592, 49.3995658], [32.5242037, 49.400243], [32.5238979, 49.4009831], [32.523694, 49.4013217], [32.5234634, 49.4015382], [32.5226426, 49.4020583], [32.5219345, 49.402568], [32.5217146, 49.4027704], [32.5215483, 49.4029764], [32.5211996, 49.4034337], [32.5209314, 49.4036606], [32.520631, 49.4038212], [32.5201321, 49.4040551], [32.5195527, 49.4043134], [32.5190484, 49.4045961], [32.5183296, 49.4049731], [32.5180668, 49.4050918], [32.5177771, 49.4051372], [32.5174391, 49.4051546], [32.5170261, 49.4051441], [32.5162053, 49.4051232], [32.5159237, 49.4051485], [32.515756, 49.4051738], [32.5156702, 49.4051991], [32.5155978, 49.4052384], [32.5155495, 49.4052881], [32.5154637, 49.4054094], [32.5154087, 49.405467], [32.5153336, 49.4055115], [32.5152183, 49.4055726], [32.5151566, 49.4056101], [32.5151043, 49.4056564], [32.5149232, 49.4058458], [32.5147676, 49.4059679], [32.5146389, 49.4060168], [32.5145075, 49.4060255], [32.5142151, 49.4060343], [32.5140515, 49.4060831], [32.5139536, 49.406132], [32.5139083, 49.4061544], [32.5135285, 49.4064915], [32.5133085, 49.4066713], [32.51322, 49.4067236], [32.5130805, 49.4067795], [32.5123483, 49.4069802], [32.5121069, 49.407071], [32.5118655, 49.4072036], [32.5113103, 49.4075352], [32.5109991, 49.4076783], [32.5106558, 49.4077935], [32.5100121, 49.4080116], [32.508678, 49.4073015], [32.5063046, 49.4046171], [32.5050354, 49.3991306], [32.5035148, 49.3981983], [32.5016502, 49.3976816], [32.495932, 49.3968046], [32.4938753, 49.3951726], [32.4926326, 49.3937779], [32.4919263, 49.3924252], [32.4917665, 49.383406], [32.4857582, 49.3743212], [32.4850753, 49.3722403], [32.4779947, 49.3656715], [32.4775825, 49.3646986], [32.4774515, 49.3638113], [32.4781258, 49.3579853], [32.4773001, 49.3558805], [32.4643698, 49.3506931], [32.4625922, 49.3493503], [32.4617873, 49.3473028], [32.4621842, 49.3434989], [32.4630588, 49.3425519], [32.470748, 49.3410464], [32.4742682, 49.3410889], [32.478131, 49.3419166], [32.4792773, 49.3416832], [32.4794412, 49.3408833], [32.4747745, 49.3372002], [32.4730543, 49.336463], [32.471626, 49.3352508], [32.4713307, 49.3337589], [32.4679855, 49.3279285], [32.4401022, 49.3192262], [32.4386229, 49.3200921], [32.4135259, 49.3347805], [32.3994926, 49.3347525], [32.3918331, 49.3396464], [32.3689254, 49.3621428], [32.340477, 49.3834914], [32.2931411, 49.3981289], [32.2619854, 49.3968511], [32.2571341, 49.3965428], [32.198278, 49.3918236], [32.1871451, 49.3988905], [32.1758424, 49.4046646], [32.1547735, 49.4154891], [32.1530929, 49.4387207], [32.1502104, 49.4442985], [32.1295482, 49.4639727], [32.1124857, 49.4656301], [32.1046285, 49.4738691], [32.091728, 49.4768626], [32.0749466, 49.471126], [32.0449754, 49.471863], [32.0344377, 49.4754392], [32.0344746, 49.475465], [32.0446649, 49.4828671], [32.0421564, 49.4841902], [31.9879169, 49.5261546], [31.9848518, 49.5188323], [31.961979, 49.5221833], [31.9556068, 49.5307878], [31.9483726, 49.5350082], [31.9402667, 49.5501627], [31.9072565, 49.5541245], [31.8910278, 49.5498873], [31.8718742, 49.5514079], [31.8580079, 49.5573504], [31.8228284, 49.5727875], [31.8060851, 49.5858709], [31.781636, 49.6050956], [31.7870298, 49.6133378], [31.7788235, 49.6263204], [31.7651022, 49.6322171], [31.7617521, 49.6339212], [31.7472285, 49.6300218], [31.7390988, 49.631786], [31.7295339, 49.6315116], [31.7257267, 49.6313389], [31.7210038, 49.6314093], [31.7181162, 49.6314079], [31.7144786, 49.6312046], [31.7110698, 49.6312374], [31.7047525, 49.6316711], [31.7027568, 49.6319151], [31.6994689, 49.6323944], [31.6968289, 49.6329132], [31.6937136, 49.6333761], [31.6869314, 49.6348973], [31.6774424, 49.6362412], [31.6713433, 49.6369676], [31.6687491, 49.6376962], [31.6590619, 49.6395437], [31.6570502, 49.6398169], [31.6553287, 49.6403065], [31.6537338, 49.6409703], [31.6520743, 49.6419408], [31.6505289, 49.6429292], [31.6487894, 49.6444367], [31.6477964, 49.6455311], [31.6448028, 49.6482503], [31.6417408, 49.6506107], [31.6402963, 49.6514958], [31.6433015, 49.6531251], [31.6441177, 49.6536345]]]}, "properties": {"name": "Левобережье Киевщины и Черкасщины: Переяславский и Киевский полки Гетманщины", "source": "OpenStreetMap через Nominatim (polygon_geojson), выгрузка tools/fetch_ua_units.py", "units": [{"name": "Бориспільський район", "region": "Київська область", "osm_id": 11900985, "display_name": "Бориспільський район, Київська область, Україна"}, {"name": "Броварський район", "region": "Київська область", "osm_id": 11900969, "display_name": "Броварський район, Київська область, Україна"}, {"name": "Золотоніський район", "region": "Черкаська область", "osm_id": 1739132, "display_name": "Золотоніський район, Черкаська область, Україна"}, {"name": "Дарницький район", "region": "Київ", "osm_id": 1754757, "display_name": "Дарницький район, Київ, Україна"}, {"name": "Дніпровський район", "region": "Київ", "osm_id": 1754781, "display_name": "Дніпровський район, Київ, Україна"}, {"name": "Деснянський район", "region": "Київ", "osm_id": 1754820, "display_name": "Деснянський район, Київ, Україна"}], "approximate": true, "note": "районы 2020 года — ПРИБЛИЖЕНИЕ исторической земли, а не её граница из документа"}}]}