{"type": "FeatureCollection", "features": [{"type": "Feature", "properties": {"name": "Керчь и Еникале с уездом (1771-1783)", "source": "межевой ход Томилова 1774 г. (ЗООИД т. 7, 1868, с. 193-194, прим. 85-86); ст. 19 Кючук-Кайнарджийского мира (ПСЗ-1 т. XIX № 14164); берег OSM land-polygons", "method": "узлы Кадырылес (Войково) и Бугак (Бондаренково) - центры сёл OSM; юго-западные узлы - обратный ход по румбам и длинам Томилова с поправкой на склонение 10 1/4° W; от Бугака азимут 343,5° (прим. 86); розыск ~/tmp/WORKFILES/kb-steps/kerch_1774/REPORT.md, 29.09.2026"}, "geometry": {"type": "Polygon", "coordinates": [[[36.465292054592716, 45.456723009272245], [36.4658091, 45.4569506], [36.4669576, 45.4570194], [36.4674389, 45.4571929], [36.4679233, 45.4574917], [36.468285, 45.457479], [36.4696511, 45.4572756], [36.4703324, 45.4571816], [36.4706087, 45.4571955], [36.4710571, 45.4570593], [36.4713479, 45.4569039], [36.4716542, 45.4568798], [36.471961, 45.456791], [36.472148, 45.456667], [36.4723977, 45.4565693], [36.4725991, 45.456466], [36.4727157, 45.4563603], [36.4729384, 45.456287], [36.4732507, 45.4562153], [36.4735714, 45.45626], [36.4739201, 45.4563071], [36.474169, 45.456327], [36.474533, 45.456335], [36.4755642, 45.4564093], [36.4757708, 45.456413], [36.475989, 45.456367], [36.4766103, 45.4562381], [36.4774253, 45.4558661], [36.477656, 45.455763], [36.4783537, 45.4556304], [36.4789936, 45.4554549], [36.479688, 45.455166], [36.480428, 45.454926], [36.4812448, 45.4547519], [36.4816878, 45.4544953], [36.4821508, 45.4542145], [36.482658, 45.453949], [36.483207, 45.4537521], [36.4836705, 45.4534977], [36.4839602, 45.4533961], [36.4845023, 45.4532934], [36.4847198, 45.4532252], [36.4852702, 45.4530461], [36.4857246, 45.4528176], [36.486168, 45.4525732], [36.4866229, 45.4523033], [36.4868815, 45.4521182], [36.487495, 45.451746], [36.487682, 45.451623], [36.48787, 45.451498], [36.4880483, 45.4514258], [36.4884485, 45.4513012], [36.4891254, 45.4511149], [36.4897043, 45.4509873], [36.4904269, 45.4510419], [36.491467, 45.4509188], [36.4918399, 45.4507496], [36.4921429, 45.4506024], [36.4924975, 45.4505335], [36.4927014, 45.450468], [36.4928585, 45.4503664], [36.493079, 45.4502644], [36.4932673, 45.4501391], [36.4934755, 45.4500006], [36.493792, 45.4497669], [36.4942522, 45.4494595], [36.4946293, 45.4491287], [36.4948294, 45.4489578], [36.4950011, 45.4488381], [36.4951674, 45.4486917], [36.4952672, 45.4485837], [36.4955016, 45.4482943], [36.4957682, 45.448067], [36.4962542, 45.4474246], [36.4963706, 45.4470354], [36.496659, 45.446433], [36.4970959, 45.4461423], [36.4975073, 45.4457634], [36.497716, 45.4456181], [36.498172, 45.445183], [36.498548, 45.444938], [36.4992181, 45.4445816], [36.4996966, 45.4442342], [36.4998757, 45.4441322], [36.5003918, 45.4438684], [36.5008381, 45.4436866], [36.501028, 45.4435992], [36.501717, 45.443336], [36.5023992, 45.4430595], [36.502853, 45.4429], [36.5032939, 45.4427562], [36.503891, 45.4423776], [36.5047472, 45.4420975], [36.5051613, 45.4420512], [36.5055889, 45.4419203], [36.506004, 45.4416887], [36.506393, 45.44156], [36.5069413, 45.441172], [36.507114, 45.440761], [36.507302, 45.440636], [36.507489, 45.440513], [36.507677, 45.440388], [36.5082196, 45.4401512], [36.508615, 45.439768], [36.508803, 45.439643], [36.50899, 45.439519], [36.509179, 45.439395], [36.5092936, 45.4391713], [36.5094494, 45.4390914], [36.5096015, 45.4389477], [36.509752, 45.438766], [36.5099233, 45.4385311], [36.5103814, 45.4382097], [36.5106025, 45.4381074], [36.5107171, 45.4379834], [36.5108315, 45.4378875], [36.5109919, 45.4377362], [36.5111201, 45.4377012], [36.5113706, 45.4375461], [36.5118116, 45.4373613], [36.512562, 45.437032], [36.5127997, 45.4367214], [36.5130229, 45.4365986], [36.5135808, 45.4364707], [36.513903, 45.435522], [36.5142953, 45.435216], [36.5146182, 45.4349932], [36.5149133, 45.4348219], [36.5151134, 45.4346506], [36.5152598, 45.4345023], [36.5154181, 45.4343706], [36.5156772, 45.4342174], [36.5160543, 45.4340032], [36.5165827, 45.4336557], [36.5166182, 45.4336335], [36.5169491, 45.4334268], [36.5171338, 45.4332832], [36.5176164, 45.4329081], [36.5180643, 45.4327078], [36.5182778, 45.432622], [36.5185096, 45.4324959], [36.5187059, 45.4323453], [36.5195277, 45.4320178], [36.5199435, 45.4317543], [36.5202246, 45.4315996], [36.5208147, 45.4312427], [36.5210164, 45.4311621], [36.5212503, 45.4310831], [36.521953, 45.4307683], [36.522638, 45.4304363], [36.5230704, 45.4301589], [36.5231687, 45.4300263], [36.5234106, 45.429905], [36.5236059, 45.4298256], [36.523815, 45.429708], [36.524001, 45.429584], [36.52419, 45.42946], [36.5244229, 45.4292278], [36.5247002, 45.4290734], [36.5249711, 45.4289232], [36.5253992, 45.4287726], [36.5258428, 45.4285787], [36.5264034, 45.4283408], [36.5267446, 45.4281906], [36.5270427, 45.4281086], [36.5276757, 45.4277626], [36.5277666, 45.4277086], [36.5287046, 45.4272864], [36.52989, 45.426772], [36.5303631, 45.4265838], [36.5315908, 45.4262591], [36.5318488, 45.4262095], [36.5321178, 45.4261527], [36.5328372, 45.4259791], [36.5331927, 45.4258783], [36.5336545, 45.4258138], [36.5341381, 45.4257796], [36.5343739, 45.4257764], [36.534491, 45.4258116], [36.5345658, 45.4259087], [36.5346359, 45.4259998], [36.5347673, 45.4260092], [36.5348853, 45.4259829], [36.5349811, 45.4259352], [36.5351479, 45.4259846], [36.5353885, 45.4260573], [36.53563, 45.426116], [36.5359966, 45.4262195], [36.5362264, 45.4262972], [36.5364614, 45.4262601], [36.5370998, 45.4261139], [36.5377781, 45.4258993], [36.5384524, 45.42573646149267], [36.5389036, 45.4256275], [36.5393529, 45.4255028], [36.5400212, 45.4254261], [36.5404799, 45.4253986], [36.5407902, 45.4253993], [36.5412551, 45.4252536], [36.5418524, 45.4252101], [36.5422292, 45.4251504], [36.5429574, 45.4250238], [36.5435097, 45.424866], [36.5440895, 45.4247938], [36.5452046, 45.4245918], [36.5457156, 45.4244908], [36.5461176, 45.4244673], [36.5465221, 45.4244849], [36.5469217, 45.4245644], [36.5473413, 45.424684], [36.5477039, 45.4247165], [36.5480053, 45.4247188], [36.5486496, 45.4246531], [36.5492895, 45.4244768], [36.5497515, 45.4243292], [36.550289, 45.424122], [36.5509191, 45.4240147], [36.5514228, 45.4238835], [36.5516826, 45.4238551], [36.5521002, 45.4238299], [36.5523584, 45.4238286], [36.552606, 45.4238801], [36.552768, 45.4238821], [36.5529085, 45.4238528], [36.5531152, 45.4237449], [36.5533062, 45.4236659], [36.5536058, 45.4235984], [36.5539812, 45.4235498], [36.554533, 45.4235378], [36.5548306, 45.4235662], [36.5552721, 45.4236539], [36.5557673, 45.423804], [36.5559756, 45.4238575], [36.5561125, 45.4238745], [36.5564382, 45.4238778], [36.556659, 45.4238578], [36.5572338, 45.4238903], [36.5581405, 45.4240508], [36.5584427, 45.4241203], [36.558622, 45.424162], [36.5587988, 45.424228], [36.5591541, 45.4243235], [36.5595582, 45.424447], [36.5602609, 45.4246414], [36.5607159, 45.4247659], [36.5610149, 45.4248825], [36.5612644, 45.4249908], [36.5615769, 45.4251173], [36.5617796, 45.4251977], [36.5621558, 45.4253584], [36.56254, 45.4254474], [36.563214, 45.425676], [36.5634764, 45.4257847], [36.563708, 45.4258896], [36.5639215, 45.4259652], [36.5641456, 45.426043], [36.5644198, 45.4261604], [36.5647605, 45.4263243], [36.5649362, 45.4263963], [36.5652383, 45.4265009], [36.5656936, 45.4267421], [36.5659799, 45.4268793], [36.5661617, 45.4269984], [36.5663237, 45.4271011], [36.5665059, 45.427264], [36.5666694, 45.4273989], [36.5668877, 45.427562], [36.5671798, 45.4277503], [36.567363, 45.4279275], [36.5674895, 45.4280167], [36.5676911, 45.4282047], [36.5680172, 45.4285066], [36.5681776, 45.4286437], [36.568525, 45.4291097], [36.5687618, 45.4294569], [36.5687391, 45.4295534], [36.5686689, 45.4296095], [36.5686671, 45.4296702], [36.5685853, 45.4297516], [36.5684459, 45.4298966], [36.5682519, 45.4299778], [36.5681516, 45.430047], [36.5681232, 45.4301202], [36.5680288, 45.4302418], [36.5678775, 45.4303506], [36.5678197, 45.4304365], [36.5678153, 45.4306867], [36.5678169, 45.4308395], [36.5678333, 45.4309789], [36.5678257, 45.4310689], [36.5677997, 45.4311425], [36.5677376, 45.431212], [36.5676623, 45.4312795], [36.5675578, 45.4313454], [36.5674729, 45.4313542], [36.5673706, 45.4313494], [36.5672576, 45.4313279], [36.567137, 45.4313195], [36.5670153, 45.4313038], [36.566949, 45.4312945], [36.566885, 45.4312979], [36.5668428, 45.4313282], [36.5668206, 45.4313979], [36.5668366, 45.4314601], [36.5668315, 45.4316334], [36.5668687, 45.4317482], [36.5669285, 45.4319291], [36.5668674, 45.4319738], [36.5667586, 45.4319997], [36.5667141, 45.4321408], [36.5667466, 45.4322829], [36.5668281, 45.4326046], [36.5668865, 45.4330928], [36.5668713, 45.4332864], [36.5668156, 45.4334887], [36.5667057, 45.433532], [36.5667036, 45.4335582], [36.5668666, 45.4340044], [36.5669055, 45.4341446], [36.5669246, 45.4343513], [36.5668854, 45.4345211], [36.5668666, 45.4346123], [36.5667951, 45.4346579], [36.5667835, 45.4347526], [36.5666894, 45.4349274], [36.5667478, 45.4350302], [36.5670029, 45.4351134], [36.5671934, 45.4353246], [36.5671051, 45.4355828], [36.5670981, 45.4357337], [36.5672065, 45.4358892], [36.5672505, 45.4360821], [36.5671534, 45.4363212], [36.5672046, 45.436531], [36.5673586, 45.4366136], [36.5674796, 45.436701], [36.5677416, 45.4367794], [36.5680872, 45.4368067], [36.5682813, 45.4366959], [36.5684583, 45.4366253], [36.5686884, 45.436642], [36.5689883, 45.4367356], [36.5692922, 45.4368707], [36.5695014, 45.4370164], [36.5695776, 45.4371976], [36.5696221, 45.4374035], [36.5699984, 45.437645], [36.5702253, 45.437804], [36.5703187, 45.438009], [36.5702851, 45.4381665], [36.5702567, 45.4383397], [36.5705043, 45.4384573], [36.5709713, 45.4384208], [36.5714023, 45.438469], [36.5716539, 45.438669], [36.571814, 45.4387345], [36.572082, 45.4388179], [36.5722791, 45.4389259], [36.572502, 45.4390165], [36.5727002, 45.4390597], [36.5729775, 45.4391979], [36.5733032, 45.4395269], [36.5734805, 45.4396522], [36.5738578, 45.4399353], [36.5739528, 45.4401105], [36.5738686, 45.4402627], [36.5738522, 45.4403881], [36.5739863, 45.4404283], [36.5741346, 45.4403532], [36.5742385, 45.440399], [36.5743213, 45.4403143], [36.5743849, 45.4402164], [36.574533, 45.4401652], [36.5753159, 45.4401541], [36.5757424, 45.440156], [36.5764006, 45.4402151], [36.5767528, 45.4402962], [36.5769094, 45.4404991], [36.5769601, 45.4408448], [36.5771782, 45.4408486], [36.5776368, 45.4406653], [36.5780198, 45.4405604], [36.57842, 45.4405529], [36.5786231, 45.4405292], [36.578894, 45.44053], [36.5790887, 45.4405618], [36.5792759, 45.4406054], [36.579455, 45.44065], [36.5801873, 45.4408008], [36.5808858, 45.4408849], [36.5815137, 45.4408337], [36.5818578, 45.4407215], [36.5820764, 45.4406792], [36.5827193, 45.4405507], [36.5829385, 45.4406293], [36.5832415, 45.4406161], [36.5833703, 45.4405107], [36.583471, 45.440479], [36.5837061, 45.4404735], [36.5838955, 45.4406022], [36.5840993, 45.4405909], [36.5842544, 45.440538], [36.5844051, 45.4404391], [36.5847101, 45.440351], [36.5849574, 45.4402785], [36.5863183, 45.4399496], [36.5870599, 45.4397252], [36.5872976, 45.4397032], [36.5875323, 45.4397403], [36.5877203, 45.4397642], [36.5879287, 45.4399048], [36.5881851, 45.4400141], [36.5889404, 45.4397939], [36.589152, 45.439701], [36.5893101, 45.4395206], [36.5895032, 45.4394472], [36.5897679, 45.4392978], [36.5900839, 45.4390974], [36.5907783, 45.43881], [36.5912434, 45.4386348], [36.5915508, 45.4385855], [36.5917957, 45.4385512], [36.5919488, 45.4385254], [36.5921191, 45.4384876], [36.5923015, 45.4385399], [36.5924482, 45.4386124], [36.5925346, 45.4386677], [36.5926073, 45.4387357], [36.5927961, 45.4387451], [36.5929399, 45.4385998], [36.5929294, 45.438468], [36.5930745, 45.4383561], [36.5931998, 45.4382915], [36.5933012, 45.4381885], [36.5934728, 45.4381236], [36.5937938, 45.4381912], [36.593902, 45.4381506], [36.5942225, 45.4380303], [36.5946624, 45.438083], [36.5956548, 45.4379569], [36.5955931, 45.4378759], [36.5960544, 45.4377799], [36.5962207, 45.437859], [36.5965906, 45.4377645], [36.5968353, 45.4375389], [36.5969983, 45.4373505], [36.5971845, 45.4369677], [36.5971829, 45.4366857], [36.5974272, 45.4362797], [36.5976139, 45.4361034], [36.5978864, 45.4358892], [36.598333, 45.435596], [36.5985444, 45.4353458], [36.598638, 45.435155], [36.5987037, 45.4349892], [36.5989572, 45.4346965], [36.599209, 45.4342397], [36.5994421, 45.433573], [36.5994263, 45.433382], [36.5995454, 45.4330891], [36.5997953, 45.4328751], [36.6003988, 45.4325864], [36.6006287, 45.4324298], [36.6008824, 45.4323274], [36.6010828, 45.4322097], [36.6013446, 45.4318478], [36.6014336, 45.4315735], [36.6016632, 45.4313714], [36.602285, 45.4311069], [36.6026803, 45.430804], [36.6028375, 45.4305281], [36.603047, 45.429989], [36.6032339, 45.4296971], [36.6034096, 45.4294731], [36.6033729, 45.4293579], [36.603634, 45.4291223], [36.6038884, 45.4289833], [36.6041759, 45.4287269], [36.6043245, 45.4286379], [36.604579, 45.428225], [36.6046531, 45.428065], [36.6047856, 45.4279258], [36.6048896, 45.4278339], [36.605274, 45.4274943], [36.605902, 45.427098], [36.606157, 45.4270559], [36.6067012, 45.4267048], [36.6070647, 45.4265254], [36.6072859, 45.4265252], [36.6073844, 45.426477], [36.6073586, 45.4263379], [36.6076271, 45.4261299], [36.608004, 45.4258831], [36.608299, 45.4256958], [36.6085058, 45.4257052], [36.6086676, 45.4256936], [36.6087802, 45.4257546], [36.6090203, 45.4259146], [36.6091538, 45.425968], [36.6092871, 45.4258046], [36.6093775, 45.4256951], [36.6094215, 45.425524], [36.6092869, 45.4252154], [36.6091976, 45.4250179], [36.6090658, 45.4249803], [36.6090986, 45.4248654], [36.6092258, 45.424776], [36.6094199, 45.4247937], [36.6093631, 45.424644], [36.6094716, 45.4245135], [36.6096612, 45.4244123], [36.609837, 45.4244176], [36.609848, 45.424231], [36.6098453, 45.4241183], [36.6100065, 45.4239337], [36.6102804, 45.4237883], [36.6103523, 45.4236752], [36.6104378, 45.4235356], [36.6106736, 45.423349], [36.611171, 45.423104], [36.6113841, 45.4229916], [36.6115944, 45.42294], [36.6119264, 45.4227527], [36.612396, 45.4223583], [36.6127324, 45.4222026], [36.6129704, 45.4220388], [36.6131675, 45.4220113], [36.6133713, 45.4220501], [36.6135977, 45.4220676], [36.613768, 45.422004], [36.6137587, 45.4217517], [36.6135851, 45.421511], [36.613502, 45.4214006], [36.6134408, 45.4212766], [36.6134768, 45.4211822], [36.6135012, 45.4210469], [36.6135041, 45.4209112], [36.6134582, 45.4207611], [36.6133016, 45.4206128], [36.6130838, 45.42042], [36.6130394, 45.420266], [36.6129545, 45.4201573], [36.6129611, 45.4199703], [36.6130396, 45.4197942], [36.6131876, 45.419656], [36.6133713, 45.4195901], [36.6134486, 45.419421], [36.6133888, 45.4191651], [36.6132178, 45.4189051], [36.6128019, 45.4187495], [36.6124795, 45.4186505], [36.6123718, 45.418657], [36.6123304, 45.4186595], [36.6122295, 45.4185887], [36.6121606, 45.4184919], [36.6121169, 45.4183852], [36.6121393, 45.4182999], [36.6121789, 45.4182176], [36.6122454, 45.4181308], [36.6123416, 45.4180497], [36.6126512, 45.4179132], [36.6126378, 45.4177856], [36.6123734, 45.4175177], [36.612281, 45.417424], [36.6122376, 45.4173039], [36.6121759, 45.4171286], [36.6118771, 45.4171158], [36.6115753, 45.4170784], [36.6111414, 45.4169227], [36.6108294, 45.4167133], [36.6105548, 45.4163315], [36.6104201, 45.416012], [36.6103155, 45.4155198], [36.6103426, 45.4151478], [36.6102519, 45.415092], [36.610153, 45.4151073], [36.6100864, 45.4151492], [36.6100003, 45.4151627], [36.6097868, 45.4151154], [36.6096721, 45.4149866], [36.6095577, 45.4148078], [36.6093036, 45.4146882], [36.6090718, 45.4145122], [36.608726, 45.4144247], [36.6083137, 45.4143273], [36.6080525, 45.4141832], [36.6078977, 45.4140146], [36.6076717, 45.4138487], [36.607281, 45.4136625], [36.6068463, 45.4134904], [36.6064909, 45.413301], [36.6062863, 45.4130235], [36.6061791, 45.4128905], [36.6062013, 45.4127764], [36.6062355, 45.4123719], [36.60624, 45.4121509], [36.60628, 45.4118322], [36.6065412, 45.4111345], [36.6066323, 45.4109873], [36.6067278, 45.4108281], [36.606867, 45.4105494], [36.6072168, 45.4100571], [36.6076409, 45.4093942], [36.6078303, 45.4091711], [36.6079744, 45.4090753], [36.6081968, 45.4090543], [36.6084745, 45.4087517], [36.6083785, 45.4085958], [36.6084691, 45.4085277], [36.6091597, 45.4088716], [36.6092402, 45.4087869], [36.6090766, 45.4087097], [36.6091061, 45.408672], [36.6089693, 45.4086042], [36.60898, 45.408463], [36.6089317, 45.4084668], [36.6088271, 45.4084121], [36.6087547, 45.4084159], [36.608701, 45.4083952], [36.6086809, 45.4083641], [36.6086729, 45.4083227], [36.6086742, 45.408286], [36.6086918, 45.4082433], [36.6091338, 45.4077891], [36.6093084, 45.4076547], [36.6094425, 45.4075164], [36.6096323, 45.4073004], [36.6098938, 45.4070351], [36.6100818, 45.4069101], [36.6110288, 45.4060321], [36.6114775, 45.4057855], [36.6119024, 45.4055068], [36.612397, 45.4050036], [36.6127258, 45.4046561], [36.6129128, 45.4045331], [36.6134462, 45.4042428], [36.6138498, 45.4039101], [36.6140368, 45.4037861], [36.6142248, 45.4036621], [36.6144118, 45.4035381], [36.6145998, 45.4034131], [36.6147858, 45.4032891], [36.6149738, 45.4031641], [36.6151608, 45.4030401], [36.6153488, 45.4029161], [36.6155358, 45.4027921], [36.6157238, 45.4026671], [36.6159098, 45.4025431], [36.6160978, 45.4024181], [36.6168317, 45.4021197], [36.6170972, 45.4019143], [36.6173882, 45.401658], [36.6177373, 45.4011612], [36.6179824, 45.4009261], [36.6185281, 45.4005951], [36.618766, 45.4004281], [36.6193159, 45.4000485], [36.6197268, 45.399825], [36.6200203, 45.3995886], [36.6202581, 45.3994064], [36.6206412, 45.3990897], [36.6211757, 45.3987187], [36.6214877, 45.3984476], [36.6219696, 45.3980897], [36.6222662, 45.3978402], [36.6225473, 45.3976927], [36.6226833, 45.3975691], [36.6228841, 45.3974584], [36.6231528, 45.3972719], [36.6235501, 45.3970437], [36.6239893, 45.3967276], [36.6245468, 45.3963091], [36.6250017, 45.3959608], [36.625219, 45.3957894], [36.6256145, 45.3956017], [36.6258588, 45.3954381], [36.6260589, 45.3953289], [36.6265131, 45.3950312], [36.6268004, 45.394901], [36.6270383, 45.3947491], [36.6275295, 45.3944367], [36.6279532, 45.3941801], [36.628391, 45.3939605], [36.6287697, 45.3937706], [36.6292868, 45.3935393], [36.6299453, 45.3932002], [36.6302759, 45.3930093], [36.6305292, 45.3928509], [36.6307918, 45.3927251], [36.6312027, 45.3925494], [36.6317922, 45.3922387], [36.6323435, 45.3919813], [36.6329603, 45.3916632], [36.6336234, 45.3913544], [36.6341313, 45.3910958], [36.6347968, 45.3907552], [36.6352633, 45.3906456], [36.6356186, 45.3906304], [36.6364017, 45.3904981], [36.6366782, 45.3904113], [36.636949, 45.39029], [36.637135, 45.390166], [36.637323, 45.390042], [36.6375756, 45.389946], [36.6378645, 45.3898581], [36.6384233, 45.3896812], [36.6391589, 45.3895435], [36.6395142, 45.3895543], [36.6398046, 45.3896824], [36.6398803, 45.3897529], [36.6400965, 45.3898462], [36.6402463, 45.3898038], [36.6405074, 45.3898722], [36.6406727, 45.3899633], [36.6409785, 45.3899611], [36.6412148, 45.3898754], [36.6413801, 45.3897594], [36.6415226, 45.3896157], [36.6415454, 45.3894784], [36.6414666, 45.3892126], [36.6415608, 45.3889512], [36.6416865, 45.3887741], [36.6418466, 45.3886648], [36.6422436, 45.3883502], [36.6426777, 45.3880905], [36.6428971, 45.3879251], [36.6430669, 45.3877787], [36.6432488, 45.3876173], [36.6436004, 45.3874114], [36.6436652, 45.3872802], [36.6434366, 45.3869905], [36.6433718, 45.3868614], [36.6433563, 45.3867399], [36.6434114, 45.3865856], [36.6434715, 45.3864714], [36.6436036, 45.386397], [36.6436398, 45.3863698], [36.6436683, 45.3863177], [36.6436436, 45.3862835], [36.6435424, 45.3862211], [36.643559, 45.3861297], [36.6436481, 45.3859955], [36.6438087, 45.3858267], [36.6439299, 45.3857001], [36.6441527, 45.3855467], [36.644346, 45.3853457], [36.6445383, 45.385144], [36.6449866, 45.3848463], [36.6451253, 45.3847801], [36.6453547, 45.38466], [36.645588, 45.3845511], [36.6457192, 45.3844359], [36.6459797, 45.3842951], [36.6462122, 45.3842581], [36.6462404, 45.3841822], [36.6462378, 45.3840814], [36.6460957, 45.3839972], [36.6460193, 45.3838699], [36.6460184, 45.3837302], [36.6460339, 45.3836043], [36.6461976, 45.3833147], [36.6464973, 45.3829545], [36.6467154, 45.3828811], [36.6468549, 45.3828455], [36.646901, 45.3828033], [36.6469243, 45.3827265], [36.6470414, 45.3826377], [36.6470475, 45.3825828], [36.6469445, 45.3825079], [36.6468446, 45.3824649], [36.646708, 45.3824446], [36.6466144, 45.3823885], [36.6464957, 45.382288], [36.6463615, 45.3821551], [36.6462991, 45.3820015], [36.6462936, 45.3819228], [36.6461796, 45.3818815], [36.6461521, 45.3817847], [36.6461851, 45.3816737], [36.6462403, 45.3815588], [36.6463101, 45.3814652], [36.646299, 45.3813787], [36.6461343, 45.3813314], [36.6459481, 45.3812594], [36.6458002, 45.3811736], [36.6454814, 45.3811149], [36.6452942, 45.3810771], [36.6451433, 45.3810155], [36.6450607, 45.3808903], [36.644831, 45.3808142], [36.6446472, 45.38068], [36.6442908, 45.3806929], [36.6439288, 45.3807006], [36.6437317, 45.380735], [36.6434323, 45.3807764], [36.6431576, 45.3806745], [36.6428898, 45.3805057], [36.6427274, 45.3802853], [36.6426082, 45.3799873], [36.6425329, 45.3795523], [36.6425603, 45.3792459], [36.6426148, 45.3791888], [36.6426577, 45.3789917], [36.642597, 45.3788412], [36.6426216, 45.3786899], [36.642604, 45.3786085], [36.6423735, 45.3785289], [36.6422156, 45.3785413], [36.6420341, 45.3786467], [36.6417704, 45.3786993], [36.6416066, 45.3787964], [36.6413112, 45.3789201], [36.6410419, 45.379018], [36.6406775, 45.3790616], [36.6404633, 45.379061], [36.6402474, 45.3790079], [36.6400436, 45.378978], [36.6397802, 45.3789825], [36.6394979, 45.3789451], [36.6392888, 45.3788885], [36.6391679, 45.3788895], [36.6389938, 45.3788128], [36.6388987, 45.3787402], [36.6387015, 45.3786814], [36.6384962, 45.3786157], [36.6383893, 45.3785843], [36.6381927, 45.3785458], [36.6379401, 45.3784541], [36.637614, 45.3783346], [36.6374204, 45.3783081], [36.637245, 45.3782096], [36.6370748, 45.3782205], [36.6368893, 45.3781987], [36.6367516, 45.3781026], [36.6366362, 45.3779977], [36.6365538, 45.3779349], [36.6364824, 45.3779522], [36.6364291, 45.3780042], [36.6363213, 45.3780115], [36.6361719, 45.3778874], [36.6358107, 45.3776875], [36.6356626, 45.377599], [36.6355859, 45.3775223], [36.6355024, 45.377551], [36.6354326, 45.3775506], [36.6351286, 45.3774074], [36.6350558, 45.3773353], [36.6349324, 45.3773429], [36.634791, 45.3772874], [36.6346401, 45.3771719], [36.63444, 45.3771089], [36.6343971, 45.3770952], [36.6342126, 45.3770688], [36.6340066, 45.3769683], [36.6337085, 45.3769812], [36.6334279, 45.3769666], [36.6329259, 45.3768971], [36.632534, 45.3767211], [36.6323586, 45.3766745], [36.632217, 45.3766124], [36.6320909, 45.3765285], [36.6318984, 45.3765227], [36.6317299, 45.3764822], [36.6315348, 45.3763883], [36.6314308, 45.3763171], [36.6313503, 45.3762359], [36.6312957, 45.3761866], [36.6312087, 45.3761483], [36.6311476, 45.3761291], [36.6310112, 45.3761291], [36.6307929, 45.3759959], [36.6306201, 45.3758453], [36.6304109, 45.3757431], [36.630268, 45.37566], [36.63009, 45.3755049], [36.6297301, 45.3753251], [36.6295053, 45.3751507], [36.6292899, 45.374931], [36.6291078, 45.3747994], [36.6290162, 45.3745717], [36.6289002, 45.3743223], [36.6288121, 45.3741261], [36.6288003, 45.3739649], [36.6287198, 45.3738137], [36.628731, 45.3730621], [36.6287819, 45.3723764], [36.6289628, 45.3716136], [36.629081, 45.3713502], [36.6292027, 45.3707505], [36.6292469, 45.3705515], [36.629394, 45.3701592], [36.6300338, 45.3693574], [36.6301309, 45.36883], [36.6300898, 45.3683815], [36.6299648, 45.3683312], [36.6298399, 45.368316], [36.629709, 45.3683008], [36.6295754, 45.3682093], [36.6293774, 45.3677215], [36.6293581, 45.3676609], [36.6293216, 45.3672612], [36.6292963, 45.3672085], [36.6292111, 45.3668484], [36.6299007, 45.3664973], [36.6299775, 45.3664872], [36.6308617, 45.3660075], [36.6310365, 45.3659025], [36.6312345, 45.3657421], [36.6314921, 45.3654732], [36.631954, 45.3645958], [36.6321449, 45.3642766], [36.6322443, 45.3639921], [36.6322357, 45.3638384], [36.6321824, 45.3636908], [36.6320203, 45.3634644], [36.6319083, 45.3633442], [36.6318094, 45.3632768], [36.6316931, 45.3632475], [36.6316343, 45.3631923], [36.6315718, 45.363187], [36.631514, 45.363218], [36.6315138, 45.3632491], [36.6316221, 45.3633613], [36.6316799, 45.3633346], [36.6318565, 45.3635254], [36.6319631, 45.3636844], [36.6320149, 45.3638021], [36.6320289, 45.3639131], [36.6320179, 45.3640203], [36.631984, 45.3641509], [36.6318489, 45.3644107], [36.6315947, 45.3648686], [36.6313024, 45.3653739], [36.6312628, 45.3654098], [36.6311273, 45.3655671], [36.6309385, 45.3657468], [36.6306888, 45.3659286], [36.6304681, 45.3660648], [36.6298208, 45.3664009], [36.629725, 45.366395], [36.6288999, 45.3668095], [36.6285457, 45.3667282], [36.628032, 45.3662175], [36.6278569, 45.3660559], [36.6277549, 45.3659821], [36.6277625, 45.365919], [36.6273575, 45.3655222], [36.6274823, 45.3654516], [36.6274032, 45.365382], [36.6272205, 45.3654526], [36.6272022, 45.365443], [36.627152, 45.3654687], [36.6270599, 45.3653802], [36.6269859, 45.3652543], [36.6265736, 45.3654397], [36.6265299, 45.3653971], [36.6265142, 45.3653817], [36.6264993, 45.3653672], [36.626458, 45.3653269], [36.6268223, 45.3650965], [36.6268723, 45.3650457], [36.6268258, 45.3650031], [36.6264318, 45.3646259], [36.6263593, 45.3645607], [36.625163, 45.363369], [36.6251113, 45.3628569], [36.6252892, 45.3625667], [36.6254104, 45.3624495], [36.6291018, 45.3615084], [36.6293051, 45.3614819], [36.6294838, 45.3614864], [36.6296582, 45.3615257], [36.6298242, 45.3615996], [36.6299489, 45.3616604], [36.6301319, 45.3618389], [36.6300867, 45.3618661], [36.6301925, 45.3619801], [36.6302595, 45.361994], [36.6303283, 45.3619626], [36.6303311, 45.3619144], [36.6302793, 45.3618603], [36.6302869, 45.3618121], [36.6301803, 45.3617052], [36.630057, 45.3616035], [36.6299808, 45.3615528], [36.6298743, 45.3614971], [36.6297266, 45.3614404], [36.629578, 45.3613934], [36.6293795, 45.3613735], [36.6291695, 45.3613992], [36.6273302, 45.3618453], [36.6253511, 45.3623584], [36.6251386, 45.3622846], [36.6249083, 45.362338], [36.6245517, 45.3623765], [36.6242486, 45.3623327], [36.6240033, 45.362217], [36.6234992, 45.3617297], [36.6231676, 45.3615106], [36.6227483, 45.3613237], [36.6226693, 45.3612972], [36.6224906, 45.3612374], [36.6217288, 45.3608872], [36.6210465, 45.3606038], [36.6206915, 45.3605235], [36.6206246, 45.3604727], [36.6205573, 45.3604216], [36.6202161, 45.3601624], [36.6201163, 45.3601229], [36.6191582, 45.359744], [36.6181218, 45.359522], [36.6170452, 45.3592815], [36.6164491, 45.3590836], [36.6158821, 45.3588955], [36.6156871, 45.358791], [36.614805, 45.3585552], [36.6146396, 45.3585093], [36.6141858, 45.3583832], [36.6138262, 45.3582513], [36.6133195, 45.3582636], [36.612142, 45.3579511], [36.611113, 45.3576014], [36.6104673, 45.3573599], [36.6104089, 45.3573326], [36.6100316, 45.3571352], [36.6096551, 45.3569318], [36.6093627, 45.3566849], [36.6091246, 45.3564745], [36.6089541, 45.3563013], [36.608644, 45.3561012], [36.6083679, 45.3557783], [36.6084129, 45.3556844], [36.6083332, 45.3556123], [36.6082307, 45.3554817], [36.6082436, 45.3552768], [36.6083919, 45.3550304], [36.6085517, 45.3549856], [36.6086792, 45.3539818], [36.6087073, 45.3535954], [36.6087261, 45.3534564], [36.6085018, 45.3533583], [36.608565, 45.3530152], [36.6079047, 45.3528532], [36.6080184, 45.3523864], [36.6080598, 45.3520681], [36.6080641, 45.3518943], [36.6079829, 45.3517017], [36.6078785, 45.3515867], [36.6075059, 45.3513094], [36.6069477, 45.3510348], [36.6067396, 45.3508993], [36.6065316, 45.3506176], [36.6065113, 45.3504999], [36.6060575, 45.3501162], [36.6057774, 45.3498651], [36.6054175, 45.3495277], [36.6050666, 45.3492105], [36.6050043, 45.3490527], [36.6049107, 45.3489029], [36.6046976, 45.3487202], [36.604493, 45.3484861], [36.6038527, 45.3478885], [36.6032728, 45.3477022], [36.6028195, 45.3474575], [36.6021738, 45.3471832], [36.6017636, 45.3470147], [36.6012522, 45.3469623], [36.6010338, 45.3470072], [36.6007888, 45.3470709], [36.6002789, 45.3470934], [36.60025, 45.3471632], [36.5996534, 45.347064], [36.5991375, 45.3469848], [36.5987806, 45.346996], [36.5986368, 45.3469249], [36.5985249, 45.346689], [36.5976992, 45.3466853], [36.5973743, 45.34609], [36.5960634, 45.346388], [36.5962467, 45.3467558], [36.5958647, 45.3468582], [36.5955732, 45.3469979], [36.593727, 45.347483], [36.5931649, 45.3474588], [36.5923716, 45.3478144], [36.5920283, 45.3475834], [36.5919545, 45.3475337], [36.5919313, 45.3475181], [36.5911127, 45.347602], [36.5895662, 45.3476125], [36.5887383, 45.3480426], [36.5876377, 45.3480382], [36.5869001, 45.347812], [36.5858931, 45.3477686], [36.5844445, 45.3474644], [36.5834905, 45.347452], [36.5821037, 45.3472471], [36.579791, 45.347533], [36.578326, 45.347759], [36.5768525, 45.347976], [36.5750114, 45.3477452], [36.5735486, 45.3480393], [36.5727755, 45.3480627], [36.572125, 45.34814], [36.570302, 45.34823], [36.5700316, 45.3485603], [36.5692645, 45.3487277], [36.568845, 45.3487126], [36.5684441, 45.3486698], [36.56801, 45.3483376], [36.5670829, 45.3484982], [36.5670531, 45.3486152], [36.5667461, 45.3486909], [36.5658825, 45.3488208], [36.5651844, 45.3487334], [36.5646275, 45.3486097], [36.5644272, 45.3485429], [36.5635289, 45.3482436], [36.563214, 45.348079], [36.5626802, 45.347919], [36.5619931, 45.3477328], [36.5606359, 45.3475767], [36.5590863, 45.3475515], [36.5577114, 45.3474407], [36.5571149, 45.3472443], [36.5562816, 45.3468555], [36.554711, 45.346999], [36.5520152, 45.3469908], [36.5493277, 45.3470798], [36.5485058, 45.3470413], [36.5480469, 45.3470114], [36.5475655, 45.3469075], [36.5473723, 45.3468352], [36.547367, 45.3468097], [36.5469386, 45.3465928], [36.5469271, 45.3463535], [36.5470867, 45.3462715], [36.5472355, 45.3460604], [36.5468558, 45.3459457], [36.5461774, 45.3462217], [36.5460218, 45.3461952], [36.5458623, 45.3461245], [36.545895, 45.3460954], [36.545122, 45.3455012], [36.5450589, 45.345476], [36.5447009, 45.3455401], [36.5446915, 45.3456391], [36.5445399, 45.3457286], [36.5440904, 45.3458609], [36.5436049, 45.3460739], [36.5432509, 45.3459938], [36.5427611, 45.3467546], [36.5427751, 45.34713], [36.5426321, 45.3473299], [36.5419242, 45.3475812], [36.5411153, 45.3477], [36.5403323, 45.3476578], [36.5395124, 45.3475567], [36.5384524, 45.347473], [36.5381101, 45.3473852], [36.5366929, 45.3460913], [36.5363163, 45.3462877], [36.5377566, 45.3475903], [36.5377883, 45.3479907], [36.5374358, 45.3482583], [36.5381606, 45.3496001], [36.5378651, 45.3501728], [36.5370982, 45.3507549], [36.535236, 45.351454], [36.5350424, 45.3515492], [36.5337466, 45.3517002], [36.5332317, 45.351854], [36.5326247, 45.351906], [36.5323669, 45.3520125], [36.5319348, 45.3521066], [36.5305969, 45.3522594], [36.5296171, 45.3523347], [36.5290026, 45.3523124], [36.5278418, 45.3524734], [36.5269597, 45.3524773], [36.5263582, 45.3524469], [36.5260849, 45.3523396], [36.5256861, 45.35219], [36.5256985, 45.3519936], [36.5253439, 45.3521467], [36.5246015, 45.3521388], [36.5243746, 45.3519303], [36.5239897, 45.3519005], [36.523942, 45.3520602], [36.5239974, 45.3521851], [36.5237961, 45.352323], [36.5233432, 45.3524248], [36.5220715, 45.3524961], [36.5218997, 45.3524278], [36.5217348, 45.3521553], [36.5213123, 45.3519953], [36.5205037, 45.3520311], [36.520512, 45.3521046], [36.5198847, 45.3522106], [36.5196448, 45.3523264], [36.5193197, 45.3523463], [36.5190477, 45.3522997], [36.5191686, 45.3524085], [36.5191364, 45.3525311], [36.5192222, 45.3526498], [36.5193081, 45.3528835], [36.5192351, 45.3529921], [36.5193304, 45.3540806], [36.5191203, 45.3545733], [36.5186792, 45.3546648], [36.5184586, 45.355576], [36.5181843, 45.3560143], [36.5179758, 45.3563358], [36.5181349, 45.3564153], [36.5178441, 45.356761], [36.5179893, 45.3570039], [36.5177349, 45.3571724], [36.517085, 45.3573921], [36.5158017, 45.35763], [36.5154557, 45.3578196], [36.5151948, 45.3580507], [36.514566, 45.358189], [36.5137552, 45.3583944], [36.5135308, 45.35845], [36.5133129, 45.3586539], [36.5131221, 45.3586998], [36.5129722, 45.3587236], [36.5128656, 45.3588581], [36.5125801, 45.3589526], [36.5124639, 45.3590609], [36.5120222, 45.3592617], [36.5115601, 45.3594098], [36.5111005, 45.3597422], [36.5109404, 45.3598023], [36.5107611, 45.3599077], [36.5104217, 45.3601073], [36.5098697, 45.3603707], [36.5088295, 45.3605976], [36.5080152, 45.3607002], [36.5067793, 45.3607951], [36.5060808, 45.3608072], [36.5053427, 45.3609077], [36.5048749, 45.3608517], [36.5043105, 45.3610119], [36.5041384, 45.3611621], [36.5041298, 45.3613975], [36.504489, 45.3618696], [36.5043672, 45.3620862], [36.5041765, 45.3622756], [36.5038342, 45.3624596], [36.503052, 45.3630782], [36.5027143, 45.3632561], [36.5024732, 45.3633955], [36.501957, 45.363558], [36.5005304, 45.3636742], [36.4998109, 45.3637505], [36.4992791, 45.3637698], [36.4989305, 45.3636982], [36.4987975, 45.3636038], [36.4986654, 45.363123], [36.4957285, 45.3633416], [36.495691, 45.3637719], [36.4938542, 45.363662], [36.4940595, 45.3628687], [36.4931093, 45.3627388], [36.4930744, 45.3629237], [36.493923, 45.3630306], [36.4936777, 45.3639163], [36.4918131, 45.3636945], [36.4919562, 45.3631493], [36.4916406, 45.3630984], [36.4924042, 45.3622011], [36.4922653, 45.3621581], [36.491542, 45.3630487], [36.49147, 45.3630362], [36.4909941, 45.3629661], [36.4907663, 45.3629268], [36.4902462, 45.3628341], [36.4913224, 45.3620879], [36.4911798, 45.361947], [36.4916047, 45.3616264], [36.4916919, 45.3614778], [36.4917303, 45.3613869], [36.4918511, 45.3612017], [36.4918607, 45.3608214], [36.4918435, 45.3605604], [36.4919041, 45.3603076], [36.4917369, 45.3600628], [36.490636, 45.3595954], [36.4875941, 45.36262], [36.4832499, 45.3612205], [36.4833222, 45.3611537], [36.483214, 45.3610969], [36.483136, 45.3610642], [36.4830531, 45.3611334], [36.4830003, 45.3611105], [36.4829409, 45.3610847], [36.4848618, 45.3592074], [36.4834881, 45.3584851], [36.4816187, 45.3603363], [36.4815856, 45.3603178], [36.4814444, 45.3604417], [36.4813445, 45.360395], [36.4813595, 45.3603294], [36.4813056, 45.3602482], [36.4807886, 45.3599595], [36.4814022, 45.3594014], [36.4813366, 45.3593639], [36.4808062, 45.3598809], [36.4802175, 45.3595676], [36.4820581, 45.3578139], [36.4818609, 45.3576997], [36.4799785, 45.3594734], [36.4797968, 45.3594527], [36.4797028, 45.3593892], [36.4795156, 45.3593542], [36.4794974, 45.3593479], [36.4788658, 45.3594804], [36.4787158, 45.3594303], [36.4787762, 45.3593341], [36.4792012, 45.3590996], [36.479074, 45.3586101], [36.4800054, 45.358251], [36.479842, 45.3580331], [36.4788344, 45.3584297], [36.4784583, 45.357893], [36.4785131, 45.3578526], [36.4783284, 45.3575626], [36.4785726, 45.3574914], [36.4783933, 45.3572011], [36.4781777, 45.3572614], [36.4781377, 45.3572013], [36.477511, 45.3570801], [36.4770593, 45.3563568], [36.4770523, 45.3562779], [36.4772367, 45.3555004], [36.4771895, 45.3554218], [36.4772999, 45.3553084], [36.4773638, 45.3551808], [36.4773921, 45.3550533], [36.4772981, 45.3547217], [36.4769489, 45.3547339], [36.4768774, 45.3547082], [36.4768471, 45.3546191], [36.4768916, 45.3540023], [36.4769137, 45.3539674], [36.477019, 45.3539293], [36.4771128, 45.3539476], [36.4771375, 45.3539233], [36.4771816, 45.3539301], [36.4772068, 45.3539435], [36.4772161, 45.3539748], [36.4773014, 45.3540028], [36.4775704, 45.3540548], [36.4776741, 45.3540597], [36.4777048, 45.3538918], [36.4777194, 45.3538611], [36.4777462, 45.3538048], [36.477922, 45.3534347], [36.4780838, 45.353182], [36.4782263, 45.3528882], [36.4782888, 45.3517207], [36.4787629, 45.351715], [36.4788576, 45.3517137], [36.4818474, 45.3516927], [36.4818442, 45.3517815], [36.4823323, 45.3517894], [36.4823956, 45.3518575], [36.482455, 45.3519679], [36.4825771, 45.3521371], [36.4826601, 45.3523144], [36.4827354, 45.3522972], [36.4823098, 45.3512462], [36.4784803, 45.3512283], [36.4780784, 45.3511792], [36.4771462, 45.3509343], [36.4765976, 45.3506861], [36.4761891, 45.3504729], [36.4761222, 45.3504322], [36.4760194, 45.3504933], [36.4749938, 45.3495121], [36.4749477, 45.3494559], [36.4748953, 45.3493997], [36.4748373, 45.3493311], [36.4739144, 45.3482637], [36.4732098, 45.3468595], [36.4720784, 45.3438268], [36.4718874, 45.3438665], [36.4712524, 45.3421738], [36.4703975, 45.3417501], [36.470311, 45.341543], [36.4688015, 45.3407075], [36.4683216, 45.3406021], [36.4680719, 45.340604], [36.4678642, 45.3405626], [36.46759, 45.3405483], [36.4672582, 45.3405133], [36.4671796, 45.3404561], [36.4670755, 45.3404315], [36.466999, 45.3404315], [36.4669251, 45.3404585], [36.4668836, 45.3404996], [36.4646304, 45.3406717], [36.4646063, 45.3405242], [36.4612811, 45.3407353], [36.4612689, 45.3406531], [36.4605478, 45.3357979], [36.4607037, 45.335782], [36.4607522, 45.3356839], [36.4608585, 45.3356344], [36.4610501, 45.3355416], [36.4612956, 45.3354621], [36.4615603, 45.3354245], [36.4616379, 45.3354792], [36.4624357, 45.3354194], [36.4624504, 45.3355567], [36.4625683, 45.3355463], [36.4625499, 45.3354168], [36.4641649, 45.3353134], [36.4643929, 45.3356058], [36.464493, 45.336409], [36.4646407, 45.3366184], [36.4650446, 45.3365896], [36.4650816, 45.336848], [36.465103, 45.3368464], [36.4654237, 45.3368228], [36.4652469, 45.335472], [36.4671695, 45.335328], [36.4676786, 45.3390983], [36.4677703, 45.3390954], [36.4679287, 45.3392408], [36.4681212, 45.3393156], [36.4689955, 45.3394387], [36.4692911, 45.3396185], [36.4697766, 45.33946], [36.470239, 45.3393507], [36.4704853, 45.3392717], [36.470602, 45.3390682], [36.4706063, 45.3388526], [36.4706365, 45.3386642], [36.4705847, 45.337911], [36.4705544, 45.3376437], [36.4706884, 45.3375791], [36.4706711, 45.3375115], [36.4705566, 45.3375115], [36.4705156, 45.3374743], [36.4704702, 45.3374075], [36.4704464, 45.3370916], [36.4704875, 45.3370263], [36.4704529, 45.336923], [36.4704572, 45.3363474], [36.4704853, 45.3362153], [36.4705955, 45.3361667], [36.4705091, 45.3361105], [36.4705131, 45.3357478], [36.4705844, 45.3349292], [36.4706017, 45.3347788], [36.470673, 45.3347454], [36.4707097, 45.3346087], [36.470714, 45.3345343], [36.4707529, 45.3345009], [36.4707896, 45.3344113], [36.4708523, 45.3343004], [36.4709236, 45.3341728], [36.4710748, 45.3340225], [36.4710878, 45.3339404], [36.4711829, 45.3338402], [36.471373, 45.3326783], [36.4714313, 45.3326039], [36.47144, 45.3324565], [36.4713147, 45.3323684], [36.4712585, 45.3323168], [36.4712887, 45.3322272], [36.4713535, 45.3321452], [36.4714421, 45.33213], [36.4715307, 45.3321558], [36.4715998, 45.3321284], [36.4716755, 45.3320449], [36.4717252, 45.3319021], [36.4716668, 45.3318323], [36.4715674, 45.3318125], [36.4715069, 45.331814], [36.471481, 45.3317396], [36.4715091, 45.331647], [36.4715718, 45.3314708], [36.4716387, 45.3313736], [36.4717273, 45.3313432], [36.4718116, 45.3313204], [36.4718332, 45.3312642], [36.4719283, 45.3311746], [36.4720078, 45.3310431], [36.4720622, 45.3308146], [36.4719801, 45.3306116], [36.4719754, 45.3305368], [36.4719694, 45.3305106], [36.471963, 45.3304906], [36.47196, 45.3304762], [36.4719616, 45.330454], [36.4719765, 45.3304375], [36.4720061, 45.3304252], [36.4720359, 45.3304227], [36.4720609, 45.330415], [36.4720808, 45.3303919], [36.4720927, 45.3303689], [36.4721434, 45.3302284], [36.4722136, 45.3300601], [36.4722508, 45.3299975], [36.4723021, 45.3299251], [36.4723299, 45.32984], [36.4723484, 45.3297613], [36.472383, 45.3297091], [36.4724207, 45.3296775], [36.4724544, 45.329632], [36.4724666, 45.3295898], [36.4725246, 45.3294445], [36.4725527, 45.3292865], [36.4725923, 45.3292115], [36.4727346, 45.3290121], [36.4730914, 45.3289636], [36.4742124, 45.3290135], [36.4743512, 45.3289802], [36.4751404, 45.328791], [36.4770676, 45.3282661], [36.4795393, 45.327603], [36.4796965, 45.3274943], [36.4797234, 45.3273928], [36.4796948, 45.3272881], [36.4796006, 45.327188], [36.4795125, 45.3269299], [36.4795164, 45.3267087], [36.479719, 45.3264942], [36.4800006, 45.3263791], [36.4868436, 45.3246018], [36.4871544, 45.3245874], [36.4875618, 45.3244674], [36.4876932, 45.324318], [36.4877159, 45.3240473], [36.4873284, 45.3234392], [36.4870173, 45.3233524], [36.4866042, 45.3234354], [36.4748722, 45.3265639], [36.4740997, 45.3267601], [36.4740044, 45.326779], [36.4738884, 45.3267714], [36.473751, 45.3267431], [36.4736277, 45.3266677], [36.4735674, 45.3265611], [36.4735526, 45.3264991], [36.4735821, 45.3264278], [36.4736934, 45.3262357], [36.473751, 45.3261642], [36.4738334, 45.3260633], [36.474087, 45.3257529], [36.4743177, 45.3255521], [36.4745988, 45.3252867], [36.4748479, 45.3250751], [36.4754727, 45.3244962], [36.475899, 45.3241288], [36.4761098, 45.3239483], [36.4766216, 45.3234295], [36.477083, 45.3229064], [36.4772006, 45.3227743], [36.477413, 45.3225261], [36.4776559, 45.3222973], [36.4780073, 45.3220277], [36.478487, 45.321742], [36.4792081, 45.3214369], [36.4797337, 45.3212586], [36.4800606, 45.3211705], [36.4809143, 45.3209925], [36.4819031, 45.3208654], [36.4822545, 45.3208031], [36.4825111, 45.3208396], [36.4827342, 45.3208181], [36.4830092, 45.3206334], [36.4838067, 45.3204744], [36.48421, 45.3204185], [36.4845339, 45.3204271], [36.4847844, 45.3204164], [36.4851603, 45.3203713], [36.4852611, 45.3204164], [36.4856522, 45.3203476], [36.4856919, 45.3202767], [36.4860433, 45.3202144], [36.4864711, 45.3201521], [36.4871189, 45.3201156], [36.4873939, 45.3201263], [36.4875136, 45.3200904], [36.4876801, 45.3200013], [36.4878558, 45.3198734], [36.488065, 45.319769], [36.4881949, 45.3196203], [36.4886121, 45.3196049], [36.4888672, 45.3196059], [36.4891254, 45.3196897], [36.4892228, 45.319871], [36.489387, 45.3207552], [36.4893567, 45.3209056], [36.4889979, 45.3216659], [36.4889756, 45.3217159], [36.4890997, 45.3217406], [36.489104, 45.3217499], [36.4891029, 45.3217692], [36.4891159, 45.3217715], [36.4891253, 45.3217633], [36.4891389, 45.3217711], [36.4889873, 45.3222847], [36.4889789, 45.3223287], [36.4890416, 45.3223799], [36.4890959, 45.3223792], [36.4891348, 45.3223375], [36.4892103, 45.322289], [36.4892697, 45.3221897], [36.4892572, 45.3221666], [36.4892855, 45.3221392], [36.4893111, 45.3221236], [36.4893161, 45.3220827], [36.4894315, 45.3218395], [36.4895338, 45.3215759], [36.4896717, 45.3213005], [36.4898127, 45.320978], [36.4899238, 45.3207468], [36.490237, 45.3201278], [36.4906116, 45.319655], [36.4909015, 45.3194227], [36.4911061, 45.3193156], [36.4914148, 45.3192588], [36.4919666, 45.319224], [36.4924606, 45.3190535], [36.493031, 45.3188514], [36.493381, 45.3187162], [36.4936208, 45.3186235], [36.4939212, 45.3185096], [36.4942193, 45.3183698], [36.4943598, 45.3182528], [36.4944138, 45.3181434], [36.4944872, 45.3180963], [36.4945953, 45.3178715], [36.4945931, 45.3176588], [36.4945821, 45.3176342], [36.494511, 45.3174749], [36.4944171, 45.3173803], [36.4943814, 45.3173443], [36.4942798, 45.3172926], [36.4939276, 45.3172045], [36.493444, 45.3170568], [36.4926393, 45.3167942], [36.4922575, 45.3166606], [36.4917627, 45.3163659], [36.4914754, 45.316261], [36.491255, 45.316144], [36.4911297, 45.316059], [36.4906025, 45.3158827], [36.4901985, 45.3157581], [36.4900191, 45.3155713], [36.4900299, 45.3153646], [36.4898333, 45.3151929], [36.4892154, 45.3149726], [36.4890463, 45.314744], [36.4888135, 45.3145867], [36.4886649, 45.3141692], [36.4885374, 45.3139474], [36.4882847, 45.3137893], [36.4876862, 45.3135599], [36.4870466, 45.3133548], [36.4866707, 45.3132955], [36.4859595, 45.3131985], [36.4857589, 45.3131725], [36.4855515, 45.3130752], [36.4844237, 45.3127562], [36.483998, 45.3126772], [36.4834104, 45.3124887], [36.4826779, 45.3122152], [36.4821615, 45.3120056], [36.4818612, 45.311802], [36.4815285, 45.3113963], [36.4814269, 45.3111608], [36.4812908, 45.3110468], [36.4810964, 45.3109511], [36.4809343, 45.3106882], [36.4808479, 45.3102901], [36.4808501, 45.3099801], [36.480879, 45.309606], [36.4810291, 45.3090611], [36.481287, 45.308589], [36.4814802, 45.308369], [36.4816329, 45.3082208], [36.4817629, 45.308064], [36.48184, 45.3080387], [36.4822189, 45.3078405], [36.482319, 45.3078265], [36.4828391, 45.3080126], [36.483126, 45.308116], [36.4836711, 45.3083363], [36.483923, 45.3082757], [36.4840084, 45.3082537], [36.4840376, 45.3081253], [36.484189, 45.3081373], [36.484219, 45.3083821], [36.4842385, 45.3086085], [36.4839962, 45.3090958], [36.4840704, 45.3090555], [36.4843515, 45.3086633], [36.4845042, 45.308443], [36.4845027, 45.3081175], [36.4844492, 45.3079036], [36.4843711, 45.3078365], [36.4830529, 45.3073191], [36.4822162, 45.3069755], [36.4814465, 45.3067295], [36.4810258, 45.3065458], [36.4804994, 45.3063237], [36.4802657, 45.3061511], [36.480144, 45.3058943], [36.4798721, 45.305645], [36.4794641, 45.3054269], [36.4789248, 45.3052453], [36.4785933, 45.3052647], [36.4782465, 45.3052066], [36.4780494, 45.3052088], [36.4777439, 45.3051132], [36.477339, 45.3050422], [36.4770014, 45.3050648], [36.4766286, 45.3051325], [36.4761993, 45.3051003], [36.4758082, 45.3050229], [36.475301, 45.304895], [36.4748793, 45.3048295], [36.4744928, 45.3047382], [36.4742499, 45.3046608], [36.4738939, 45.3045684], [36.4732293, 45.3044104], [36.4730521, 45.304375], [36.4726182, 45.3042654], [36.4723585, 45.3043062], [36.4720468, 45.3042686], [36.4714846, 45.3041837], [36.4711286, 45.3040924], [36.4709163, 45.3039935], [36.4705618, 45.3039688], [36.4702548, 45.3039376], [36.4690343, 45.3037179], [36.468606, 45.303562], [36.467891, 45.303289], [36.467158, 45.3030511], [36.4669135, 45.3029297], [36.4667776, 45.3029759], [36.4665362, 45.3029447], [36.4664078, 45.3028319], [36.4661099, 45.3028448], [36.465371, 45.30272], [36.4650069, 45.3026256], [36.4645837, 45.302487], [36.4641804, 45.3024698], [36.46393, 45.302432], [36.4628573, 45.3021281], [36.4626908, 45.3020324], [36.4624051, 45.3020604], [36.4621148, 45.3019948], [36.4617482, 45.3019679], [36.4614609, 45.3019121], [36.4612752, 45.3018718], [36.4610698, 45.3018229], [36.4609247, 45.3017272], [36.4608529, 45.3016896], [36.4607047, 45.301709], [36.4604566, 45.3016623], [36.4596444, 45.3014016], [36.4596317, 45.3013336], [36.4594764, 45.3014059], [36.4594677, 45.3014233], [36.4593824, 45.3014156], [36.4591823, 45.3014511], [36.4589562, 45.3014468], [36.4575078, 45.3012168], [36.4569884, 45.3011566], [36.4565973, 45.301075], [36.4562459, 45.3010255], [36.4560046, 45.3009247], [36.455554, 45.3008711], [36.4554087, 45.3008858], [36.4549259, 45.3008213], [36.4528273, 45.3003002], [36.4522382, 45.3000978], [36.4519437, 45.3000046], [36.4517877, 45.3000055], [36.4515477, 45.2999713], [36.451323, 45.299842], [36.450971, 45.299578], [36.4507582, 45.2995447], [36.450608, 45.299569], [36.4501038, 45.2993693], [36.4497712, 45.2992202], [36.4495582, 45.2991686], [36.4494932, 45.2992567], [36.4491785, 45.2992567], [36.4488893, 45.2991384], [36.448452, 45.299008], [36.4481671, 45.299016], [36.4480357, 45.2990719], [36.447818, 45.2990633], [36.447363, 45.298984], [36.4470335, 45.2989472], [36.4463888, 45.2988677], [36.4454708, 45.298613], [36.4454923, 45.2985121], [36.4449427, 45.2985019], [36.4438741, 45.2982164], [36.4434188, 45.2981047], [36.443051, 45.297861], [36.4428352, 45.2979263], [36.442716, 45.2979134], [36.4425999, 45.2979048], [36.442166, 45.2979392], [36.4412585, 45.2976963], [36.4405069, 45.2974491], [36.4405038, 45.2973503], [36.4403633, 45.2973245], [36.4402746, 45.297419], [36.4400546, 45.297361], [36.4396544, 45.2973094], [36.4393946, 45.2973803], [36.4390557, 45.2973468], [36.4389547, 45.2974061], [36.4386308, 45.2974083], [36.437928, 45.2973524], [36.437264, 45.297218], [36.4359551, 45.2968136], [36.4356975, 45.2967291], [36.4356394, 45.2966689], [36.4355355, 45.2966861], [36.4353428, 45.2966543], [36.4342583, 45.2962799], [36.4340536, 45.2961789], [36.4338815, 45.2961757], [36.4331999, 45.2959023], [36.4325844, 45.2956187], [36.4319398, 45.29531], [36.4312036, 45.2949536], [36.4307878, 45.2947721], [36.4305546, 45.2946389], [36.4302922, 45.2944378], [36.4299958, 45.2942702], [36.4297086, 45.2941304], [36.429537704454034, 45.29405002446925], [36.426182747137815, 45.29751826219261], [36.41288427650248, 45.314928574048075], [36.39024555345343, 45.3486855434465], [36.43525, 45.38476], [36.48928, 45.39994], [36.465292054592716, 45.456723009272245]]]}}]}