{"type": "FeatureCollection", "features": [{"type": "Feature", "geometry": {"type": "Polygon", "coordinates": [[[32.3557233, 49.1982795], [32.3749065, 49.2149761], [32.3774385, 49.2146116], [32.3785329, 49.2145556], [32.3788333, 49.2146116], [32.3835325, 49.2194892], [32.3743272, 49.2223903], [32.3852384, 49.2387846], [32.3931026, 49.2358074], [32.393682, 49.2356603], [32.3951089, 49.2378389], [32.5223207, 49.1900062], [32.5329852, 49.2018267], [32.5285435, 49.2035232], [32.5482845, 49.2206174], [32.5465035, 49.2227687], [32.5475764, 49.2248078], [32.5996666, 49.2712473], [32.600378, 49.2694707], [32.601959, 49.2641544], [32.6039729, 49.2595099], [32.6054693, 49.2566008], [32.6065337, 49.2550962], [32.6079814, 49.2540537], [32.6103095, 49.2534942], [32.6121964, 49.253839], [32.6141559, 49.2551787], [32.6171766, 49.2568399], [32.6192882, 49.2581283], [32.6236859, 49.2598278], [32.6261654, 49.2603625], [32.6292143, 49.260302], [32.6321681, 49.2600721], [32.6342307, 49.2600047], [32.6379123, 49.2586979], [32.6410849, 49.2564047], [32.6430126, 49.254167], [32.6465903, 49.25151], [32.6507881, 49.2489327], [32.6528885, 49.2481092], [32.6562551, 49.24755], [32.6582553, 49.2474528], [32.6614618, 49.2480555], [32.6652039, 49.2490687], [32.6685558, 49.2500501], [32.6709334, 49.2508448], [32.673111, 49.2519464], [32.6738988, 49.252725], [32.6766843, 49.2547667], [32.6775739, 49.2552842], [32.6791659, 49.2557654], [32.681093, 49.2558185], [32.6839675, 49.2554879], [32.6859094, 49.2551455], [32.6885389, 49.2551622], [32.691968, 49.255777], [32.6972939, 49.2560896], [32.700965, 49.2565718], [32.7058189, 49.2569683], [32.7098302, 49.2572721], [32.7123049, 49.2575547], [32.7139514, 49.2573496], [32.7153058, 49.2570672], [32.7183219, 49.2555038], [32.7210007, 49.2539035], [32.7225121, 49.2538196], [32.7234477, 49.2536159], [32.725046, 49.2536662], [32.727737, 49.2537114], [32.7299788, 49.2534806], [32.7328467, 49.2535791], [32.7347796, 49.2532009], [32.736623, 49.2522233], [32.739683, 49.2506191], [32.7425831, 49.2483509], [32.7451854, 49.2457553], [32.7456548, 49.2452057], [32.7469359, 49.2443933], [32.7485144, 49.2439082], [32.7506489, 49.2436881], [32.7529489, 49.2437014], [32.7551002, 49.243551], [32.7564316, 49.2429481], [32.7577069, 49.2418856], [32.7578787, 49.2403282], [32.7572337, 49.2381033], [32.7575377, 49.2359595], [32.7590546, 49.2340843], [32.7614836, 49.2330458], [32.7639544, 49.2328622], [32.7659394, 49.2331584], [32.7681292, 49.2340779], [32.7716865, 49.2356795], [32.775244, 49.237281], [32.7773808, 49.2375255], [32.7804077, 49.2376063], [32.7853467, 49.2374534], [32.7895614, 49.2376975], [32.7944192, 49.2383402], [32.7987831, 49.2394278], [32.8025719, 49.2410761], [32.8067544, 49.2432206], [32.808199, 49.2448969], [32.80995, 49.2469352], [32.8117735, 49.2481425], [32.8154952, 49.2488307], [32.8180536, 49.24878], [32.8191799, 49.2489138], [32.8234338, 49.2481858], [32.8262945, 49.2473517], [32.8290433, 49.2469587], [32.8318006, 49.2466007], [32.8370669, 49.2473424], [32.8412104, 49.2484155], [32.8441321, 49.2491859], [32.8474433, 49.2493069], [32.8495737, 49.2486198], [32.8560626, 49.24622], [32.8567651, 49.2458742], [32.8591216, 49.2447143], [32.852568, 49.2385192], [32.8474219, 49.2335752], [32.8406322, 49.2269997], [32.8382832, 49.2255554], [32.8353098, 49.2246677], [32.8322155, 49.2232755], [32.8260491, 49.2207875], [32.8215887, 49.2192105], [32.8178437, 49.2162868], [32.8156313, 49.2150963], [32.8134131, 49.2137355], [32.8124744, 49.2134466], [32.8110223, 49.2124705], [32.8093794, 49.2114925], [32.8068341, 49.2120443], [32.8002599, 49.2058603], [32.7952084, 49.2013233], [32.7899782, 49.1966539], [32.7838982, 49.1913937], [32.7762958, 49.187309], [32.7749537, 49.1861553], [32.7728233, 49.1812876], [32.7714502, 49.1782261], [32.7693074, 49.1753422], [32.7683574, 49.1710894], [32.7666273, 49.170658], [32.7661667, 49.1715636], [32.7606899, 49.1703069], [32.7578955, 49.1692705], [32.7575033, 49.1688137], [32.757271, 49.1668461], [32.7576927, 49.1632383], [32.7586386, 49.1611647], [32.7592919, 49.1603248], [32.7590705, 49.1590511], [32.7593546, 49.1575565], [32.7598527, 49.1565371], [32.7623081, 49.1538927], [32.7626428, 49.1530496], [32.7619474, 49.1514824], [32.7619643, 49.1509082], [32.762764, 49.1500685], [32.7638163, 49.14916], [32.7656263, 49.1484579], [32.7671416, 49.1474254], [32.7697445, 49.1452142], [32.7771948, 49.1420693], [32.7818737, 49.1409273], [32.7828208, 49.1409823], [32.7830944, 49.1412715], [32.7835661, 49.1419285], [32.7844623, 49.142249], [32.7850937, 49.141478], [32.7888399, 49.142607], [32.7943118, 49.1386554], [32.795322, 49.1382286], [32.8095724, 49.1366705], [32.8117707, 49.1365414], [32.817948, 49.1358376], [32.8216061, 49.1351618], [32.823734, 49.1351167], [32.8280484, 49.1336571], [32.833908, 49.1325968], [32.8420665, 49.1311582], [32.8446658, 49.1307355], [32.853514, 49.1297324], [32.8565806, 49.1292505], [32.8697859, 49.1284368], [32.870014, 49.1280247], [32.8754543, 49.1286823], [32.8904096, 49.1265557], [32.8930759, 49.1180694], [32.8956318, 49.1104373], [32.8958324, 49.1056922], [32.8960644, 49.0991687], [32.8961836, 49.0948475], [32.8903909, 49.0952598], [32.8829786, 49.0957638], [32.8809033, 49.0956857], [32.8737063, 49.0938302], [32.8693857, 49.0927841], [32.8624553, 49.0910707], [32.8570355, 49.0897445], [32.8438093, 49.0879449], [32.8425803, 49.0876244], [32.8349419, 49.0837891], [32.8311596, 49.0817947], [32.8278817, 49.0796452], [32.822062, 49.0774847], [32.8172802, 49.076236], [32.8151473, 49.0756917], [32.8144669, 49.0753207], [32.8146329, 49.0748164], [32.8152726, 49.074246], [32.819401, 49.074205], [32.8196581, 49.0734355], [32.8231139, 49.0732929], [32.8293519, 49.0747718], [32.8300452, 49.069843], [32.829997, 49.0659118], [32.8299906, 49.0653872], [32.829989, 49.0652532], [32.8301068, 49.064342], [32.8304905, 49.062626], [32.8306868, 49.0615976], [32.8307151, 49.0614491], [32.8307151, 49.0613074], [32.8307145, 49.0594819], [32.8310469, 49.0577977], [32.831823, 49.0567141], [32.8327342, 49.0515095], [32.8334242, 49.0471933], [32.8341633, 49.0427957], [32.8349542, 49.0389593], [32.8355376, 49.0366874], [32.8356866, 49.0361072], [32.8355518, 49.0358444], [32.8362305, 49.0320679], [32.8371686, 49.0279982], [32.8414076, 49.028133], [32.8427046, 49.0281641], [32.8429233, 49.0271042], [32.8427948, 49.0266316], [32.8429908, 49.0258946], [32.8429451, 49.0253789], [32.8424041, 49.0248349], [32.8424674, 49.0242126], [32.8419929, 49.0237977], [32.8406326, 49.023694], [32.8400259, 49.0231692], [32.8392881, 49.0231235], [32.8388346, 49.0232044], [32.8383839, 49.0232607], [32.8379439, 49.0231903], [32.8376648, 49.0229862], [32.8375897, 49.0228032], [32.8377185, 49.0224584], [32.8381907, 49.0221628], [32.8385663, 49.021832], [32.8389098, 49.0214097], [32.8389527, 49.021086], [32.8388883, 49.0208326], [32.8385878, 49.0206074], [32.8381263, 49.0203751], [32.8376863, 49.0201851], [32.8374502, 49.0199599], [32.837418, 49.0197135], [32.8374931, 49.0192138], [32.8376112, 49.0190731], [32.8378795, 49.0190027], [32.8388561, 49.0189534], [32.8388611, 49.0176052], [32.8386871, 49.0172214], [32.8379278, 49.0170658], [32.8381031, 49.0163003], [32.8381381, 49.0160251], [32.8378687, 49.0159057], [32.8372999, 49.0158987], [32.8364358, 49.0163921], [32.8360161, 49.016415], [32.8353574, 49.0160958], [32.8348422, 49.0155538], [32.8345632, 49.0149555], [32.8345936, 49.0144269], [32.8344421, 49.0144039], [32.8339944, 49.0145965], [32.8336724, 49.0147162], [32.8332753, 49.0148147], [32.8330607, 49.0148992], [32.8323202, 49.0150189], [32.8314079, 49.0153074], [32.831086, 49.0154412], [32.8309357, 49.0156453], [32.8309787, 49.0159902], [32.8309787, 49.016504], [32.8308499, 49.0167293], [32.8305279, 49.016856], [32.8301354, 49.016784], [32.8299269, 49.01649], [32.8295101, 49.0162545], [32.8280527, 49.0161474], [32.8265248, 49.0158354], [32.8270677, 49.0140123], [32.8274111, 49.013604], [32.8273789, 49.0130268], [32.8272249, 49.0125533], [32.8272366, 49.0120868], [32.8276563, 49.0112915], [32.8280061, 49.0107256], [32.8285424, 49.010412], [32.8286823, 49.009892], [32.8290554, 49.0093337], [32.8295101, 49.0091425], [32.8300115, 49.0090354], [32.8303963, 49.009043], [32.8312034, 49.0092317], [32.8313695, 49.0093078], [32.8324105, 49.0092937], [32.8330176, 49.009233], [32.833151, 49.0091318], [32.8332369, 49.008977], [32.8334193, 49.0086742], [32.8337091, 49.0084279], [32.8341491, 49.0081744], [32.8345462, 49.0080547], [32.8352867, 49.0080125], [32.8357375, 49.0080688], [32.8363492, 49.0081674], [32.8367678, 49.0083152], [32.8371204, 49.0085008], [32.8374385, 49.0089742], [32.8376773, 49.0090382], [32.8382996, 49.0089784], [32.8392558, 49.0089784], [32.8399453, 49.0091731], [32.8408198, 49.0097314], [32.8411462, 49.0099073], [32.841566, 49.0099531], [32.8419624, 49.0099302], [32.8438978, 49.0110926], [32.8443403, 49.0116465], [32.8448073, 49.0122856], [32.8450521, 49.0124615], [32.8453572, 49.0124229], [32.8453572, 49.012194], [32.8448715, 49.011308], [32.8444692, 49.0100067], [32.8451454, 49.0087677], [32.8459616, 49.0071081], [32.8475706, 49.0048595], [32.8488881, 49.0027026], [32.8501123, 49.002083], [32.8514648, 49.0012263], [32.8532496, 49.000157], [32.8545422, 48.9996422], [32.8558753, 48.9991114], [32.8579824, 48.9983425], [32.8594981, 48.9984114], [32.8613636, 48.9984955], [32.8628916, 48.9985767], [32.8647396, 48.9987219], [32.8660208, 48.9989294], [32.8669484, 48.9990344], [32.8683328, 48.9992456], [32.8695241, 48.9994498], [32.8702539, 48.9996117], [32.8711339, 48.9999215], [32.8716598, 49.0001046], [32.8719737, 49.0001478], [32.8722072, 49.0000624], [32.8723038, 48.9998371], [32.8723681, 48.9994568], [32.8724433, 48.9991189], [32.8725613, 48.9988091], [32.8726559, 48.9987031], [32.8733845, 48.994816], [32.8738388, 48.9928876], [32.8739558, 48.9923909], [32.864952, 48.9919736], [32.8599645, 48.9917559], [32.8576093, 48.9916717], [32.8557829, 48.9914782], [32.8539366, 48.9911821], [32.852794, 48.9911821], [32.851185, 48.9909755], [32.8499024, 48.9908914], [32.8480369, 48.9906771], [32.8441544, 48.9902946], [32.8435481, 48.9903099], [32.8434431, 48.9898432], [32.8438162, 48.988489], [32.8442943, 48.9861171], [32.8448659, 48.9833831], [32.8454602, 48.980692], [32.8370538, 48.9798885], [32.8289388, 48.979062], [32.8279245, 48.978733], [32.8248814, 48.978557], [32.8217217, 48.9782509], [32.8156238, 48.9776769], [32.8095376, 48.9770647], [32.8081618, 48.9766132], [32.8066149, 48.9762309], [32.8058212, 48.976227], [32.8047776, 48.9763827], [32.8035144, 48.976619], [32.7989008, 48.976238], [32.7949118, 48.975896], [32.795713, 48.9731004], [32.7959192, 48.9726464], [32.796131, 48.9724579], [32.7972131, 48.9714951], [32.7974636, 48.9710984], [32.7940354, 48.9707726], [32.7934409, 48.9707167], [32.7926731, 48.9706446], [32.790218, 48.970414], [32.7838753, 48.9696639], [32.7804229, 48.9692537], [32.7623316, 48.9675769], [32.7520377, 48.9666187], [32.7502516, 48.966417], [32.7470827, 48.9660387], [32.7381139, 48.9652444], [32.7333299, 48.9648233], [32.7329975, 48.9663312], [32.7323563, 48.9691097], [32.7321114, 48.9701736], [32.7313582, 48.9733401], [32.7310854, 48.9745054], [32.729045, 48.97511], [32.7278324, 48.9752401], [32.7275643, 48.9756228], [32.7271376, 48.9772128], [32.7237462, 48.9768973], [32.7226207, 48.9767937], [32.7187964, 48.9763957], [32.7129307, 48.9758679], [32.7091498, 48.9755005], [32.7086729, 48.9754542], [32.7068975, 48.9752885], [32.7035925, 48.9749799], [32.6980543, 48.9743141], [32.6975602, 48.9765588], [32.6963904, 48.9811923], [32.6962847, 48.9817319], [32.6959547, 48.9829742], [32.6939829, 48.982736], [32.6928249, 48.9826542], [32.689259, 48.982314], [32.6858926, 48.9819809], [32.6849889, 48.9818152], [32.6843839, 48.9824643], [32.6838366, 48.9829937], [32.6823866, 48.9833844], [32.681023, 48.9837941], [32.679525, 48.9843171], [32.6787856, 48.9845062], [32.6783727, 48.984733], [32.6781614, 48.9851048], [32.6778752, 48.9857109], [32.6761737, 48.9857841], [32.6758347, 48.9858251], [32.6752495, 48.9854826], [32.6751072, 48.9849428], [32.6746643, 48.9846937], [32.674253, 48.9842889], [32.6735887, 48.9838425], [32.6728295, 48.9835103], [32.6724182, 48.9832923], [32.6719311, 48.9832945], [32.6714588, 48.9829937], [32.6708443, 48.9822059], [32.6702393, 48.9812921], [32.6702729, 48.9804895], [32.6704986, 48.9797166], [32.6705466, 48.9788972], [32.6705941, 48.9785133], [32.672621, 48.9765376], [32.6722294, 48.9757208], [32.6723717, 48.9748672], [32.6727927, 48.9733228], [32.6738334, 48.9721115], [32.6739464, 48.9718203], [32.6742347, 48.9707795], [32.6748644, 48.9697635], [32.6753575, 48.9693701], [32.6787598, 48.9678806], [32.6780896, 48.9671454], [32.6734669, 48.9669087], [32.6736923, 48.966464], [32.6742626, 48.9656341], [32.675666, 48.9635704], [32.6769611, 48.9618586], [32.6785986, 48.9596398], [32.6793442, 48.9585469], [32.6798321, 48.957586], [32.6798419, 48.9573442], [32.6786766, 48.9571247], [32.6775035, 48.9569842], [32.677377, 48.9570985], [32.6773674, 48.9575913], [32.6772521, 48.9580895], [32.6771849, 48.9585434], [32.676855, 48.9589887], [32.6764551, 48.9593189], [32.6762836, 48.9596012], [32.67608, 48.9597053], [32.6758282, 48.9596722], [32.6754468, 48.9596972], [32.6753028, 48.9598423], [32.6749861, 48.9600228], [32.6747942, 48.9600438], [32.6746027, 48.9600315], [32.6743552, 48.959976], [32.6738677, 48.95988], [32.673029, 48.9598123], [32.6726976, 48.9596879], [32.67221, 48.9593998], [32.671235, 48.9592558], [32.6699674, 48.9590157], [32.6695773, 48.9589837], [32.668846, 48.9589997], [32.6682853, 48.9590317], [32.667554, 48.9589997], [32.6670665, 48.9588076], [32.666774, 48.9584555], [32.6666521, 48.9581514], [32.6664492, 48.9580579], [32.666238, 48.9580327], [32.6655274, 48.9581651], [32.6651469, 48.9581326], [32.6650088, 48.9581462], [32.664836, 48.9580958], [32.6647365, 48.9579828], [32.6647274, 48.9578473], [32.6647784, 48.9576796], [32.6649224, 48.9575283], [32.6652201, 48.9572256], [32.6656234, 48.9568662], [32.6659979, 48.9565447], [32.666334, 48.9561916], [32.6667786, 48.9559458], [32.6668764, 48.9558403], [32.6617026, 48.9554526], [32.6597341, 48.9552256], [32.6577272, 48.9546644], [32.6554033, 48.9535988], [32.653406, 48.953315], [32.6514567, 48.9538069], [32.6494017, 48.9535294], [32.648307, 48.9536114], [32.6478653, 48.9539708], [32.6475772, 48.9543618], [32.6417965, 48.9538636], [32.6407402, 48.9569029], [32.6403849, 48.9578266], [32.6400423, 48.9578659], [32.6398177, 48.9578136], [32.6398358, 48.9575077], [32.6398376, 48.9565119], [32.6398213, 48.9564032], [32.6397703, 48.9560643], [32.6395303, 48.955812], [32.6390213, 48.9557111], [32.6386084, 48.955358], [32.6375521, 48.9553454], [32.6362778, 48.9552446], [32.6360465, 48.95535], [32.6359211, 48.9555711], [32.6355317, 48.9557661], [32.6350697, 48.9558398], [32.6346473, 48.9557141], [32.6343305, 48.9554844], [32.6317464, 48.9553571], [32.6298931, 48.9554174], [32.6258307, 48.9557103], [32.6252224, 48.9557553], [32.6246847, 48.9558625], [32.6240358, 48.9558328], [32.6235804, 48.955812], [32.6229946, 48.9559003], [32.6222583, 48.9557957], [32.6217847, 48.9556292], [32.6215974, 48.9555097], [32.6215732, 48.9553408], [32.6214745, 48.9551478], [32.6212473, 48.9549889], [32.6209059, 48.9549565], [32.6205533, 48.9549573], [32.6203255, 48.9548295], [32.6200984, 48.9547365], [32.6194683, 48.9546564], [32.6183251, 48.9546442], [32.6171354, 48.9545393], [32.6152293, 48.9542965], [32.6116197, 48.9536051], [32.6107388, 48.9545417], [32.610057, 48.9551029], [32.6095552, 48.955179], [32.6094244, 48.9551808], [32.609198, 48.9553521], [32.6087103, 48.9555713], [32.6083127, 48.9556437], [32.607796, 48.9556456], [32.6070936, 48.9558629], [32.6067922, 48.9560235], [32.606635, 48.9561317], [32.6080427, 48.9573438], [32.6096043, 48.9586951], [32.6100984, 48.959061], [32.6100559, 48.9593399], [32.6091659, 48.9603177], [32.6085461, 48.9612252], [32.6086263, 48.9619566], [32.6084679, 48.9626937], [32.6085286, 48.9633013], [32.6084959, 48.9638049], [32.6081152, 48.9641954], [32.60781, 48.9646045], [32.603912, 48.9625294], [32.6037311, 48.9624104], [32.6031697, 48.9620233], [32.6008482, 48.9623475], [32.5984283, 48.9608532], [32.5979866, 48.9606704], [32.5955572, 48.960456], [32.5939919, 48.9603678], [32.592177, 48.9604434], [32.5919451, 48.9581957], [32.5943856, 48.9570008], [32.593945, 48.9551634], [32.5936489, 48.9551387], [32.5910134, 48.9553979], [32.5886913, 48.954031], [32.5894499, 48.9538103], [32.589738, 48.9530851], [32.5884128, 48.9530473], [32.5878463, 48.9525933], [32.5870973, 48.9520762], [32.586809, 48.9520163], [32.5863587, 48.9521346], [32.5857447, 48.9520324], [32.5854909, 48.9518389], [32.585148, 48.9516474], [32.5839284, 48.9511681], [32.5825457, 48.9508087], [32.5821135, 48.9508087], [32.5806347, 48.9510861], [32.5791944, 48.9514582], [32.5770422, 48.9516669], [32.5768326, 48.9519539], [32.5771056, 48.9534574], [32.5772738, 48.9543414], [32.5774377, 48.9552659], [32.5776362, 48.956313], [32.5778605, 48.9577375], [32.5781205, 48.9589937], [32.5755943, 48.9584832], [32.5729569, 48.9579911], [32.5687973, 48.9572144], [32.5681081, 48.9572434], [32.5677713, 48.9573555], [32.5661729, 48.9580942], [32.5639927, 48.9590659], [32.5587515, 48.9611847], [32.5584, 48.9612885], [32.55795, 48.9612969], [32.5546458, 48.9625913], [32.5529922, 48.9628457], [32.5540917, 48.9638204], [32.5551392, 48.9656363], [32.5534323, 48.9657429], [32.5532965, 48.9657547], [32.5528647, 48.9657563], [32.5525622, 48.9657726], [32.5522042, 48.965783], [32.5514647, 48.9657554], [32.5488727, 48.9659272], [32.5484272, 48.9659817], [32.5480113, 48.9661294], [32.5480018, 48.9663302], [32.5480305, 48.9664194], [32.5456395, 48.9665959], [32.5425619, 48.966796], [32.5390454, 48.9670191], [32.5385587, 48.965992], [32.5386489, 48.9657519], [32.5393042, 48.9640441], [32.5396066, 48.9629398], [32.5398488, 48.9623484], [32.5403279, 48.9616218], [32.5404677, 48.9615091], [32.5421165, 48.9610437], [32.5432388, 48.9607517], [32.5444096, 48.960554], [32.5466602, 48.959681], [32.5472086, 48.9585514], [32.5459785, 48.9582155], [32.5435217, 48.9572312], [32.5430283, 48.9569074], [32.5424181, 48.9557124], [32.542079, 48.9549512], [32.5417505, 48.954398], [32.5407553, 48.9536073], [32.5403936, 48.9528982], [32.540426, 48.9525493], [32.5405952, 48.9521479], [32.5416035, 48.9517127], [32.5423621, 48.9513722], [32.5441962, 48.9508488], [32.5445611, 48.9504011], [32.5446103, 48.9499863], [32.5432953, 48.9495367], [32.5437099, 48.949028], [32.5440055, 48.9486653], [32.5445666, 48.9481109], [32.5454189, 48.9467785], [32.5459357, 48.9459706], [32.5468393, 48.945749], [32.5480653, 48.9456126], [32.5491429, 48.9454927], [32.5492952, 48.9454758], [32.5494488, 48.9447063], [32.5498521, 48.9445297], [32.5501594, 48.9439558], [32.5510044, 48.9432936], [32.5511005, 48.943035], [32.5511293, 48.9426439], [32.5513789, 48.942316], [32.5517534, 48.9418492], [32.5513386, 48.9412219], [32.54798, 48.9402699], [32.5467116, 48.9402699], [32.5451907, 48.9404167], [32.5447756, 48.9400754], [32.5424455, 48.9398532], [32.5407366, 48.9396895], [32.5377406, 48.939557], [32.5374237, 48.9395507], [32.532872, 48.9393678], [32.5291826, 48.9392369], [32.5233316, 48.9389121], [32.5215471, 48.9388939], [32.5210498, 48.9393057], [32.519656, 48.9396211], [32.5190533, 48.9402577], [32.5193653, 48.9405358], [32.5208671, 48.9415398], [32.5221174, 48.9427382], [32.52297, 48.9430661], [32.5242088, 48.943741], [32.5238535, 48.9440185], [32.5229124, 48.9445483], [32.5224357, 48.9448298], [32.5216935, 48.9462661], [32.5208004, 48.947622], [32.5209829, 48.9477923], [32.5212902, 48.948486], [32.5214108, 48.9489773], [32.5216469, 48.9494515], [32.5211269, 48.9499301], [32.5201859, 48.9504787], [32.5190503, 48.9508913], [32.5189693, 48.951212], [32.5184503, 48.9520693], [32.5180665, 48.9524525], [32.517533, 48.9531946], [32.5173716, 48.953637], [32.5172434, 48.95384], [32.5169724, 48.9540208], [32.5165525, 48.95421], [32.5160462, 48.9542828], [32.5151925, 48.954319], [32.5148372, 48.9544325], [32.5146068, 48.9546028], [32.514117, 48.9550379], [32.5139058, 48.9554477], [32.5139634, 48.9558639], [32.5138272, 48.955974], [32.5135793, 48.9560783], [32.5128397, 48.9562609], [32.5123905, 48.9564547], [32.5120444, 48.9568308], [32.5116396, 48.9572511], [32.5117164, 48.9578942], [32.5116837, 48.9581723], [32.5115707, 48.9583989], [32.5110489, 48.958811], [32.5105425, 48.9592504], [32.5106285, 48.9594927], [32.5105768, 48.959524], [32.5102088, 48.9597605], [32.5098438, 48.9599992], [32.509527, 48.9602144], [32.5102376, 48.9614943], [32.5106096, 48.9621464], [32.5112225, 48.9629975], [32.5127892, 48.9658008], [32.513904, 48.9682938], [32.5126762, 48.9692789], [32.5120898, 48.969796], [32.5115853, 48.9701735], [32.5109413, 48.9708216], [32.510609, 48.9710053], [32.5103525, 48.9712808], [32.5105682, 48.9714492], [32.5107198, 48.9714951], [32.5109705, 48.9716941], [32.511227, 48.9717668], [32.5112795, 48.9718434], [32.5116992, 48.971939], [32.5122705, 48.972314], [32.5126436, 48.9726278], [32.5127958, 48.9726313], [32.5134772, 48.9730603], [32.5141185, 48.973485], [32.514445, 48.9737911], [32.5145874, 48.9738298], [32.5149463, 48.9738715], [32.5155352, 48.974168], [32.5156051, 48.974281], [32.5155526, 48.9748894], [32.5156692, 48.9752185], [32.5134831, 48.975616], [32.514192, 48.9766393], [32.5143677, 48.9768507], [32.5147681, 48.9773326], [32.5147585, 48.9780196], [32.5144128, 48.9785616], [32.5139903, 48.9791982], [32.5136387, 48.9796814], [32.5132722, 48.9805484], [32.5128284, 48.9819145], [32.512675, 48.9824364], [32.5124347, 48.9829669], [32.5120917, 48.9834314], [32.5120143, 48.9836695], [32.5116574, 48.9838205], [32.510575, 48.9839834], [32.5101623, 48.983961], [32.5098036, 48.9839941], [32.5093235, 48.9842021], [32.5083824, 48.9844227], [32.5073486, 48.9846575], [32.5069324, 48.984681], [32.5061146, 48.9848385], [32.5047431, 48.9850112], [32.5046944, 48.9852955], [32.5048461, 48.9858157], [32.5047013, 48.9862184], [32.5046045, 48.9863392], [32.5039177, 48.9865865], [32.5035362, 48.9868632], [32.5028458, 48.9872306], [32.5019865, 48.9878172], [32.5018816, 48.9880444], [32.5021398, 48.9885603], [32.5023284, 48.9889373], [32.5025172, 48.9892838], [32.5027538, 48.9898296], [32.5033411, 48.9911841], [32.503619, 48.991448], [32.5037569, 48.9918868], [32.5039844, 48.9923573], [32.5040547, 48.9927049], [32.5039442, 48.9929417], [32.5034863, 48.9932203], [32.5028994, 48.9941265], [32.5026881, 48.9945046], [32.5019708, 48.9953585], [32.5014246, 48.9955973], [32.5008115, 48.9959762], [32.5003788, 48.9963793], [32.500057, 48.9968042], [32.4997301, 48.9974363], [32.4998361, 48.9978122], [32.4995796, 48.9984005], [32.49926, 48.999129], [32.49781, 48.9991605], [32.4962628, 49.000346], [32.4961722, 49.0006666], [32.4963576, 49.0008241], [32.4970285, 49.0014721], [32.4980182, 49.0022985], [32.4986454, 49.0030915], [32.499107, 49.0032604], [32.4992546, 49.0034197], [32.4992228, 49.0037285], [32.4990766, 49.0045425], [32.4989335, 49.0048868], [32.498651, 49.005486], [32.4984439, 49.005984], [32.498146, 49.0068181], [32.4979167, 49.0073582], [32.4978407, 49.0076723], [32.4973954, 49.0087188], [32.4968856, 49.0097543], [32.4969586, 49.0098457], [32.4974451, 49.0100437], [32.4975166, 49.010239], [32.4975424, 49.0104613], [32.4977553, 49.0106165], [32.4980121, 49.0107384], [32.4979355, 49.0112833], [32.4979469, 49.0114413], [32.4980038, 49.011598], [32.4979936, 49.0119337], [32.4979526, 49.012174], [32.497842, 49.0123932], [32.4977126, 49.0125507], [32.4966359, 49.0135071], [32.4955657, 49.01388], [32.494643, 49.0143251], [32.493251, 49.0149602], [32.4931486, 49.0149125], [32.4930659, 49.014874], [32.490914, 49.0141757], [32.4912651, 49.0134265], [32.4913543, 49.0132787], [32.4913461, 49.0131365], [32.4911986, 49.0130708], [32.4908626, 49.0130176], [32.4895477, 49.0127545], [32.4889494, 49.0126927], [32.4885258, 49.0125758], [32.4883235, 49.0124278], [32.4882549, 49.0122812], [32.4882536, 49.0121478], [32.4885277, 49.0117231], [32.4885701, 49.0115931], [32.4887494, 49.0113239], [32.4885996, 49.0112762], [32.4843586, 49.0102449], [32.4834555, 49.0097915], [32.4809239, 49.0083171], [32.4786007, 49.0070416], [32.4774235, 49.0063653], [32.4759411, 49.0055736], [32.4758298, 49.0056691], [32.475281, 49.0061387], [32.4732549, 49.0074615], [32.4728713, 49.0078069], [32.4727906, 49.0080203], [32.4726019, 49.0086016], [32.4723906, 49.0091055], [32.4722694, 49.0092531], [32.4721688, 49.0093341], [32.4719154, 49.0094544], [32.4715461, 49.0095168], [32.4713128, 49.0095678], [32.4712553, 49.0096287], [32.4711945, 49.0096828], [32.4714628, 49.0099412], [32.4721897, 49.0105659], [32.4729196, 49.0114016], [32.4732158, 49.0118105], [32.4735622, 49.0126828], [32.4739425, 49.013326], [32.4740615, 49.0141316], [32.4740231, 49.0143016], [32.4739351, 49.0145795], [32.473458, 49.0152563], [32.4728382, 49.0162638], [32.4721202, 49.0177615], [32.4713408, 49.0193875], [32.4708826, 49.0202963], [32.4707031, 49.0206992], [32.4705191, 49.0210007], [32.4704272, 49.021113], [32.4701327, 49.0214803], [32.4700499, 49.0217017], [32.4698753, 49.0221116], [32.4695093, 49.0227206], [32.4686623, 49.0248012], [32.4680861, 49.0259613], [32.4667303, 49.0287617], [32.4664056, 49.0296126], [32.4654874, 49.0317183], [32.4658202, 49.0317803], [32.4687218, 49.0323308], [32.4690297, 49.032336], [32.4693178, 49.0322667], [32.4694875, 49.0322528], [32.4696498, 49.0323126], [32.4715611, 49.0327581], [32.4737445, 49.03317], [32.4756561, 49.0333918], [32.4757196, 49.0335256], [32.4755764, 49.0335585], [32.4741653, 49.0335137], [32.4727041, 49.0336491], [32.4713877, 49.0340608], [32.470882, 49.0343205], [32.4708869, 49.0345682], [32.4708051, 49.0347451], [32.4706147, 49.0350375], [32.4703845, 49.0352582], [32.4701628, 49.0353893], [32.4697787, 49.0356285], [32.4693165, 49.0354094], [32.4687032, 49.0351186], [32.4668438, 49.0350143], [32.4664178, 49.035276], [32.4660491, 49.0355071], [32.4658544, 49.0357469], [32.4656915, 49.0362296], [32.4653271, 49.0362616], [32.4649796, 49.0361958], [32.4641592, 49.0367153], [32.4640844, 49.0372653], [32.4635082, 49.0374793], [32.4631479, 49.0374558], [32.4624616, 49.0372338], [32.4617606, 49.0373912], [32.4615103, 49.0375939], [32.4611211, 49.0382535], [32.4614525, 49.0386956], [32.4621071, 49.0393018], [32.4620536, 49.0396336], [32.4617035, 49.0399068], [32.4612792, 49.0401173], [32.4601665, 49.0408345], [32.4590622, 49.0408723], [32.4588195, 49.0406038], [32.4586013, 49.0403624], [32.4581226, 49.0402466], [32.4577947, 49.0401673], [32.4576222, 49.0398231], [32.457353, 49.0393396], [32.4560361, 49.0386772], [32.4556759, 49.0386029], [32.4542586, 49.0384375], [32.4531473, 49.0384459], [32.4524301, 49.0386296], [32.4518213, 49.0390138], [32.4514824, 49.0394756], [32.4513602, 49.0398548], [32.4513754, 49.040251], [32.4515219, 49.040602], [32.451624, 49.0408351], [32.4515853, 49.041034], [32.4513496, 49.0412618], [32.4510918, 49.0414525], [32.4509633, 49.0416694], [32.4509906, 49.0426628], [32.4512428, 49.0431044], [32.4514, 49.0433516], [32.4514544, 49.0435518], [32.4514151, 49.0437265], [32.451337, 49.0438386], [32.4511358, 49.0439842], [32.4508801, 49.0440344], [32.4503905, 49.0440349], [32.4498888, 49.0441363], [32.4493672, 49.0443835], [32.4489987, 49.0447622], [32.4485666, 49.0447811], [32.4482658, 49.0446678], [32.448096, 49.0445053], [32.4480504, 49.0443963], [32.4479083, 49.0443497], [32.4459259, 49.0453161], [32.4457812, 49.0454968], [32.4457192, 49.0461512], [32.445599, 49.0463695], [32.445006, 49.0471944], [32.4448234, 49.0475371], [32.4446858, 49.0477459], [32.4442072, 49.0484138], [32.4440179, 49.0486769], [32.4438178, 49.0489601], [32.4434494, 49.0505412], [32.4433872, 49.0507668], [32.4428274, 49.0525972], [32.4426027, 49.052279], [32.4425197, 49.0521395], [32.4418789, 49.0510629], [32.4409355, 49.0495337], [32.4403373, 49.0485581], [32.4399448, 49.0479953], [32.439783, 49.0477283], [32.4394858, 49.0472382], [32.4390269, 49.0465408], [32.4383997, 49.0455228], [32.4376299, 49.0442316], [32.4366477, 49.042668], [32.4356139, 49.040879], [32.4348459, 49.0395348], [32.4347425, 49.0392904], [32.432132, 49.0400252], [32.4286929, 49.0410499], [32.427319, 49.0412413], [32.4271734, 49.0409122], [32.4268262, 49.0405088], [32.4261296, 49.0395529], [32.4257024, 49.03908], [32.4251067, 49.0384903], [32.4245434, 49.037886], [32.4241595, 49.0373043], [32.4237296, 49.0365179], [32.4234511, 49.036099], [32.4229422, 49.035], [32.4224433, 49.0335528], [32.4221939, 49.033114], [32.42185, 49.0323519], [32.421223, 49.0315051], [32.420863, 49.0309546], [32.4203517, 49.0303666], [32.4190891, 49.0292612], [32.4186634, 49.0288453], [32.4177754, 49.0283506], [32.4172909, 49.0279222], [32.4169951, 49.0277626], [32.4159643, 49.0274022], [32.4153527, 49.0272193], [32.4145124, 49.0270416], [32.4139708, 49.0269329], [32.4131097, 49.0268384], [32.4116304, 49.0267688], [32.4114293, 49.0267265], [32.4082391, 49.0265958], [32.4054363, 49.0264922], [32.4038288, 49.0264145], [32.4015173, 49.0263397], [32.3999771, 49.0262527], [32.3987085, 49.0261665], [32.3977241, 49.0261648], [32.3970497, 49.0262164], [32.397036, 49.0263211], [32.3971061, 49.0265163], [32.3981465, 49.027913], [32.3979577, 49.0279589], [32.3977661, 49.0280783], [32.3969333, 49.0284053], [32.3961161, 49.0286379], [32.3948099, 49.0290165], [32.393954, 49.0293666], [32.3937094, 49.0295685], [32.393476, 49.0296899], [32.3927332, 49.0302094], [32.392426, 49.0305027], [32.3919054, 49.0307879], [32.391496, 49.0309372], [32.3910777, 49.031036], [32.3907544, 49.0310118], [32.3901145, 49.0311077], [32.3888459, 49.0313243], [32.388079, 49.0312465], [32.3877019, 49.0313236], [32.3871373, 49.0315189], [32.3867125, 49.0315971], [32.3861577, 49.0316257], [32.385429, 49.0316824], [32.384494, 49.0317125], [32.3840171, 49.0318003], [32.3834212, 49.031744], [32.3831224, 49.0317977], [32.3828773, 49.0318095], [32.3826298, 49.031912], [32.3824321, 49.0320265], [32.3822462, 49.0322259], [32.3821502, 49.0326192], [32.3819883, 49.0331066], [32.3816658, 49.0334237], [32.3808508, 49.0338102], [32.3806547, 49.0340012], [32.3802109, 49.0347166], [32.3799551, 49.0352719], [32.3798969, 49.0357832], [32.3798024, 49.0361815], [32.3796881, 49.0364937], [32.379268, 49.0367966], [32.3787617, 49.0372563], [32.3785307, 49.0376119], [32.3785442, 49.0378131], [32.3784425, 49.0378882], [32.3783277, 49.0379075], [32.3778817, 49.0370435], [32.3776133, 49.0366526], [32.3772779, 49.0366186], [32.3770059, 49.0366235], [32.3768378, 49.0365671], [32.3767286, 49.0363875], [32.3765204, 49.0361398], [32.3763232, 49.0360759], [32.3757312, 49.0360841], [32.3752305, 49.0361358], [32.3746989, 49.0362897], [32.3743461, 49.0362744], [32.374013, 49.036192], [32.3737131, 49.0361992], [32.3735004, 49.0363001], [32.3725807, 49.0370295], [32.3722451, 49.0372312], [32.3717265, 49.0375404], [32.3717004, 49.037788], [32.3715181, 49.0379332], [32.3708537, 49.0385481], [32.3703326, 49.0394618], [32.3698767, 49.0401621], [32.3699158, 49.0406488], [32.3702935, 49.0411185], [32.3703717, 49.041776], [32.3712715, 49.04263], [32.3712701, 49.0429415], [32.3711059, 49.0435888], [32.3709588, 49.0437887], [32.3706577, 49.0440371], [32.3703582, 49.0441796], [32.3698502, 49.044376], [32.3696939, 49.0446151], [32.3696564, 49.0449138], [32.3695742, 49.0453463], [32.369478, 49.0461192], [32.3694203, 49.0467497], [32.3696808, 49.046929], [32.3699283, 49.046801], [32.3701257, 49.0464595], [32.3703946, 49.0464318], [32.3709928, 49.0461962], [32.3712786, 49.0460222], [32.3715334, 49.0460918], [32.371205, 49.0464338], [32.3713743, 49.0468949], [32.3712765, 49.0474141], [32.3714696, 49.0476813], [32.3721777, 49.0479766], [32.3724782, 49.0482438], [32.3730575, 49.0485111], [32.3738691, 49.0487964], [32.3737713, 49.0496527], [32.3739686, 49.0499499], [32.3745607, 49.0500945], [32.3749567, 49.0501394], [32.3757518, 49.0500926], [32.3754115, 49.0518724], [32.3749161, 49.0522607], [32.3746168, 49.0525059], [32.3743429, 49.0527303], [32.3737838, 49.0539962], [32.373212, 49.0551755], [32.3724281, 49.0569634], [32.3707217, 49.0605239], [32.3700167, 49.0621384], [32.3685344, 49.0652806], [32.367851, 49.0670317], [32.3673309, 49.0682776], [32.3663127, 49.0703382], [32.3654377, 49.0719301], [32.3736838, 49.0736614], [32.3737696, 49.0737598], [32.3711894, 49.0828361], [32.3744627, 49.0866184], [32.3808292, 49.0938848], [32.386627, 49.1005062], [32.3906702, 49.1050986], [32.3878954, 49.1061808], [32.3864969, 49.1072667], [32.3862229, 49.1073879], [32.3868102, 49.1077203], [32.3877382, 49.108398], [32.3897552, 49.1094515], [32.386719, 49.1126049], [32.387293, 49.1126856], [32.3907101, 49.1128366], [32.3907745, 49.1128752], [32.3934996, 49.1130192], [32.3934567, 49.1133001], [32.4160302, 49.1143605], [32.4166202, 49.1144799], [32.4167812, 49.1153226], [32.417103, 49.1159687], [32.4187553, 49.1176962], [32.4186265, 49.1178717], [32.418133, 49.1182017], [32.4177039, 49.1186792], [32.4179444, 49.1189318], [32.4185729, 49.1195921], [32.4188733, 49.1201468], [32.4184012, 49.1204979], [32.4174356, 49.1209403], [32.4185729, 49.1218811], [32.4207418, 49.1221348], [32.4251175, 49.1226465], [32.4257612, 49.1227659], [32.426008, 49.1227659], [32.426523, 49.1226605], [32.4255681, 49.1245914], [32.4255037, 49.1264519], [32.4257076, 49.1265432], [32.4286365, 49.1266906], [32.4289048, 49.1267819], [32.4287331, 49.1269715], [32.4286258, 49.1270276], [32.4288404, 49.127828], [32.4285829, 49.1285371], [32.429055, 49.1286915], [32.4305892, 49.1290075], [32.4307072, 49.1294919], [32.4303853, 49.1300254], [32.4304819, 49.1305379], [32.431308, 49.1313242], [32.432102, 49.1317103], [32.4331856, 49.1331634], [32.4333465, 49.134069], [32.4333572, 49.1344551], [32.432102, 49.1360485], [32.4316299, 49.136217], [32.4309432, 49.1370032], [32.4312329, 49.1384562], [32.4319088, 49.1392142], [32.4298489, 49.1400916], [32.430203, 49.1415866], [32.4307394, 49.142857], [32.4300313, 49.1435237], [32.4310183, 49.1434746], [32.4309862, 49.1446747], [32.4313724, 49.145524], [32.4309111, 49.1456994], [32.4433136, 49.1579656], [32.4499225, 49.1544012], [32.4527549, 49.1574604], [32.4403524, 49.162484], [32.4343872, 49.1651499], [32.4264907, 49.1698359], [32.4161052, 49.1779723], [32.412157, 49.1826011], [32.4096679, 49.1843402], [32.4084234, 49.1848452], [32.3953342, 49.1885196], [32.3937034, 49.1887721], [32.384262, 49.1899781], [32.3678684, 49.1908756], [32.3621606, 49.1905671], [32.3601865, 49.1901183], [32.3581695, 49.1904269], [32.3591995, 49.1925865], [32.359929, 49.196681], [32.356925, 49.1974101], [32.3557233, 49.1982795]]]}, "properties": {"name": "Холодный Яр: Чигиринская громада", "source": "OpenStreetMap через Nominatim (polygon_geojson), выгрузка tools/fetch_ua_units.py", "units": [{"name": "Чигиринська міська громада", "region": "Черкаська область", "osm_id": 13639635, "display_name": "Чигиринська міська громада, Черкаський район, Черкаська область, Україна"}], "approximate": true, "note": "районы 2020 года — ПРИБЛИЖЕНИЕ исторической земли, а не её граница из документа"}}]}