{"type": "FeatureCollection", "features": [{"type": "Feature", "geometry": {"type": "Polygon", "coordinates": [[[20.9656906, 55.8972132], [21.0605764, 55.8935075], [21.0712623, 55.8920396], [21.0955953, 55.89293], [21.1007452, 55.8924487], [21.1062383, 55.8904272], [21.1069679, 55.8892961], [21.1122465, 55.8869616], [21.1166668, 55.883303], [21.1170101, 55.8810644], [21.1239194, 55.8793072], [21.1295843, 55.8765868], [21.1370086, 55.8745164], [21.1437034, 55.8725421], [21.1461067, 55.8741312], [21.1545181, 55.8744923], [21.1612558, 55.8758887], [21.1665344, 55.8758887], [21.1723708, 55.8749257], [21.1821985, 55.8721087], [21.1823272, 55.8701343], [21.1858462, 55.8698213], [21.1937856, 55.8681839], [21.2015962, 55.8691471], [21.2083339, 55.8713864], [21.2131834, 55.8756961], [21.2295341, 55.8718679], [21.2323236, 55.8707122], [21.2509917, 55.8598033], [21.2659263, 55.8539261], [21.290388, 55.8520472], [21.3098715, 55.8227912], [21.3290118, 55.805912], [21.3388824, 55.8017152], [21.344633, 55.7975179], [21.3493537, 55.7951538], [21.3645457, 55.7824137], [21.3703822, 55.7589494], [21.3671207, 55.7500139], [21.3575935, 55.7474536], [21.3479804, 55.7397717], [21.3768625, 55.7229531], [21.3788795, 55.7190858], [21.3811969, 55.7174662], [21.3842868, 55.70221], [21.4089201, 55.6891977], [21.4233398, 55.6617075], [21.4274596, 55.6591898], [21.4299487, 55.6551225], [21.4365577, 55.6513453], [21.4407634, 55.6446616], [21.4468574, 55.6308549], [21.449089, 55.6211145], [21.4580154, 55.6090933], [21.469345, 55.5977957], [21.496725, 55.5802854], [21.5089987, 55.5543694], [21.5016173, 55.5437846], [21.5079687, 55.5390253], [21.5043638, 55.5258129], [21.5091704, 55.5236752], [21.5138052, 55.5186219], [21.5156936, 55.5016596], [21.5206718, 55.4974787], [21.5324306, 55.4948046], [21.5556907, 55.4798263], [21.5611838, 55.468151], [21.5710544, 55.4664967], [21.5719127, 55.4594409], [21.5615272, 55.4515564], [21.5586089, 55.4492199], [21.5592956, 55.4471754], [21.5716552, 55.4427939], [21.5776633, 55.4435242], [21.5849589, 55.4368538], [21.5962028, 55.4314486], [21.6024684, 55.4270653], [21.5947436, 55.4160565], [21.5881347, 55.4021205], [21.6085624, 55.3826701], [21.606674, 55.3727707], [21.6382597, 55.3584291], [21.6686438, 55.3555016], [21.706066, 55.3217223], [21.7057226, 55.3162524], [21.7201422, 55.3016949], [21.7143058, 55.2928014], [21.7295836, 55.2862523], [21.7574786, 55.2877186], [21.76795, 55.2940721], [21.7662334, 55.3014017], [21.7595386, 55.3045775], [21.7568778, 55.3101467], [21.7591952, 55.312931], [21.7738723, 55.3133706], [21.7746448, 55.3158128], [21.7856311, 55.3148359], [21.7979049, 55.316985], [21.8130111, 55.3156174], [21.8217658, 55.3183525], [21.8273448, 55.3230896], [21.8335246, 55.3245057], [21.8421935, 55.3217222], [21.8478583, 55.3232849], [21.8506908, 55.3224548], [21.8518924, 55.3197688], [21.8565272, 55.3171315], [21.8622779, 55.3162524], [21.866226, 55.3141033], [21.8675994, 55.310049], [21.864252, 55.307411], [21.8669128, 55.3065317], [21.8719768, 55.2938277], [21.8730067, 55.2911398], [21.8669986, 55.287963], [21.8623636, 55.2820975], [21.911373, 55.2681631], [21.9381521, 55.2665004], [21.9905089, 55.2486958], [22.0048427, 55.2468855], [22.0306777, 55.2389585], [22.0347976, 55.2385181], [22.0401191, 55.2347497], [22.0507621, 55.2305894], [22.0562553, 55.2286805], [22.0759963, 55.2284357], [22.0851802, 55.2298552], [22.0898151, 55.2292189], [22.0886993, 55.2262329], [22.0989989, 55.2234915], [22.1144484, 55.2232468], [22.1359061, 55.2227082], [22.1601104, 55.2253028], [22.1715259, 55.2223165], [22.1845721, 55.2191342], [22.1907519, 55.2191831], [22.2136685, 55.2123771], [22.2116088, 55.2097815], [22.2128963, 55.2057655], [22.1993351, 55.2011858], [22.1910524, 55.2009654], [22.1870184, 55.1981487], [22.1848726, 55.1939846], [22.1916103, 55.1880807], [22.1971034, 55.1868067], [22.1992492, 55.1845035], [22.1978759, 55.1827394], [22.1960734, 55.1823963], [22.1937559, 55.1831805], [22.1924686, 55.1845526], [22.1904945, 55.1846506], [22.1891212, 55.1836705], [22.1893787, 55.1807301], [22.1879195, 55.1788677], [22.1855163, 55.1780835], [22.1757316, 55.1774954], [22.1700667, 55.1768092], [22.1641444, 55.1776914], [22.1614837, 55.1777895], [22.1568489, 55.1750447], [22.1604537, 55.1731821], [22.165861, 55.1735252], [22.1686076, 55.1719566], [22.1777057, 55.172986], [22.1837138, 55.1747016], [22.1865462, 55.1741134], [22.1871471, 55.172888], [22.1840571, 55.1701428], [22.1811389, 55.166319], [22.1808814, 55.1624457], [22.1920394, 55.1528345], [22.2163295, 55.1553847], [22.2245692, 55.1562183], [22.246971, 55.1556789], [22.2589873, 55.1528345], [22.2873114, 55.1496467], [22.3084252, 55.1419949], [22.4094485, 55.1333107], [22.4223231, 55.1338505], [22.4466132, 55.1371378], [22.4952792, 55.1345864], [22.5273799, 55.1379718], [22.5382804, 55.1356168], [22.5473785, 55.1267352], [22.5559615, 55.1256556], [22.5617122, 55.1223183], [22.5918388, 55.1127956], [22.5890063, 55.1072478], [22.5914096, 55.1024849], [22.5895643, 55.0978934], [22.6035118, 55.0955851], [22.6096487, 55.0928101], [22.6099062, 55.0914103], [22.6006364, 55.0805782], [22.5972461, 55.0775565], [22.5969028, 55.0735027], [22.5920105, 55.0735027], [22.5890922, 55.0728147], [22.5891351, 55.0704927], [22.5815939, 55.0704429], [22.577887, 55.0702056], [22.5679307, 55.0692227], [22.5583177, 55.0674534], [22.5517945, 55.0660773], [22.5442414, 55.0645044], [22.535315, 55.0619485], [22.5331854, 55.0610062], [22.526732, 55.0591958], [22.5157456, 55.0554596], [22.5047593, 55.0519197], [22.4972062, 55.0495596], [22.4851899, 55.0462161], [22.4765371, 55.0446709], [22.4559377, 55.045851], [22.437468, 55.0509364], [22.4303054, 55.0528585], [22.4237351, 55.0536897], [22.4130921, 55.0542796], [22.4017625, 55.053493], [22.3978666, 55.0533129], [22.3941397, 55.0531406], [22.3918061, 55.0532964], [22.3759436, 55.0564836], [22.37258, 55.0568362], [22.3550706, 55.0605721], [22.351911, 55.0610062], [22.3486865, 55.061477], [22.3454575, 55.0619485], [22.328565, 55.0617926], [22.3221116, 55.0613586], [22.3127721, 55.0619769], [22.2918992, 55.0648976], [22.2774796, 55.0639146], [22.2753929, 55.0642749], [22.2610001, 55.0623417], [22.254064, 55.0613994], [22.2507005, 55.0609654], [22.2400575, 55.061162], [22.2344946, 55.0610062], [22.2273545, 55.0607688], [22.2173982, 55.0601789], [22.2156119, 55.0600231], [22.2105317, 55.0586058], [22.1964555, 55.0550663], [22.1933604, 55.0545598], [22.1844392, 55.0530998], [22.1734528, 55.0542796], [22.1634268, 55.0555004], [22.1621232, 55.0556562], [22.1545701, 55.0544764], [22.1481804, 55.0523402], [22.1418672, 55.0497563], [22.136374, 55.0473961], [22.1354921, 55.0467314], [22.1335577, 55.0452733], [22.1322541, 55.0438556], [22.1298509, 55.0389376], [22.1294378, 55.0362241], [22.1281342, 55.0342158], [22.1240144, 55.0300838], [22.1229147, 55.0295343], [22.1171479, 55.0267385], [22.1047883, 55.0241801], [22.0931153, 55.0235897], [22.0852429, 55.0241304], [22.0828988, 55.0242062], [22.0805407, 55.0243428], [22.078216, 55.0246237], [22.0747167, 55.0252597], [22.0728276, 55.0256087], [22.0702152, 55.0259904], [22.0690609, 55.0263849], [22.0661875, 55.0270698], [22.062307, 55.0282602], [22.0603724, 55.028919], [22.0588803, 55.0294365], [22.0546632, 55.0308709], [22.051479, 55.0321247], [22.0493453, 55.0331388], [22.0474084, 55.0340943], [22.0448787, 55.0355469], [22.0428446, 55.0370754], [22.0409455, 55.0385997], [22.0392741, 55.0401484], [22.0377388, 55.0416918], [22.0356752, 55.0439057], [22.0350209, 55.0449163], [22.0344461, 55.0460631], [22.0335388, 55.0471977], [22.0320124, 55.0503804], [22.0315998, 55.0514398], [22.0312517, 55.0530613], [22.0312158, 55.0540309], [22.031262, 55.0549916], [22.0314398, 55.0568042], [22.0330338, 55.0615552], [22.038527, 55.066667], [22.0401739, 55.0692511], [22.039557, 55.0782645], [22.0378404, 55.0818019], [22.0326208, 55.0842008], [22.0313172, 55.0843566], [22.0220475, 55.0857321], [22.0100312, 55.0871076], [22.0064528, 55.0872713], [21.9984759, 55.0868255], [21.9879889, 55.0853799], [21.985312, 55.0849461], [21.9793939, 55.08161], [21.9712357, 55.0761025], [21.9667725, 55.0743334], [21.9623541, 55.0742285], [21.9590238, 55.0748587], [21.9523359, 55.0766111], [21.9433281, 55.0770662], [21.9348435, 55.0778714], [21.930685, 55.0786129], [21.9238186, 55.0797921], [21.9128322, 55.0818065], [21.909986, 55.0828533], [21.8942928, 55.088021], [21.886096, 55.0915331], [21.8805985, 55.0935915], [21.8689256, 55.0947701], [21.8672669, 55.0949036], [21.857161, 55.0958042], [21.855536, 55.095949], [21.8479829, 55.0977169], [21.8362402, 55.1062037], [21.8328767, 55.1087162], [21.8222337, 55.1161783], [21.8191317, 55.1175193], [21.8106816, 55.1197378], [21.8017624, 55.1199344], [21.7947678, 55.119516], [21.7834382, 55.1189271], [21.7772584, 55.119516], [21.7727255, 55.1205385], [21.7679194, 55.1217628], [21.7636617, 55.1225573], [21.7583756, 55.1238352], [21.7495816, 55.1274893], [21.7444632, 55.1293216], [21.7384224, 55.1307032], [21.7325567, 55.1317276], [21.7264466, 55.132472], [21.723308, 55.1330951], [21.7203456, 55.1342772], [21.7175202, 55.136201], [21.7170738, 55.1376652], [21.7167607, 55.1385218], [21.7167599, 55.1429089], [21.7166232, 55.1444473], [21.7161469, 55.1456201], [21.7127137, 55.1499364], [21.702414, 55.155233], [21.6881379, 55.1630025], [21.683397, 55.1645379], [21.6785989, 55.1654759], [21.6722016, 55.167197], [21.6683393, 55.1690856], [21.665109, 55.171109], [21.6583919, 55.1762868], [21.6537813, 55.1792829], [21.6498634, 55.180533], [21.648169, 55.1811176], [21.6320329, 55.1828189], [21.626331, 55.1845708], [21.6207032, 55.1858221], [21.6151043, 55.1868823], [21.6095356, 55.1875068], [21.6020307, 55.1874807], [21.5922074, 55.1887621], [21.5836244, 55.1932697], [21.5753149, 55.1970337], [21.5729813, 55.1977768], [21.5708915, 55.1981366], [21.5689969, 55.1982531], [21.557182, 55.1981318], [21.5492347, 55.1977873], [21.5438832, 55.197165], [21.5406652, 55.1964897], [21.5359249, 55.1950611], [21.5329411, 55.1939276], [21.5301605, 55.1923372], [21.5274699, 55.1902493], [21.5262662, 55.1893686], [21.525042, 55.188703], [21.5235846, 55.1880374], [21.5211396, 55.1871941], [21.5176968, 55.1861571], [21.5139298, 55.1854301], [21.5120421, 55.185325], [21.5086318, 55.1854082], [21.5053468, 55.1858221], [21.5018439, 55.1868428], [21.499167, 55.1879781], [21.4943604, 55.1915059], [21.4888673, 55.1989525], [21.4844041, 55.2038507], [21.4765077, 55.207965], [21.4706712, 55.2101197], [21.4562516, 55.2171712], [21.4476685, 55.2238296], [21.4390855, 55.2351856], [21.4353089, 55.2414497], [21.4335923, 55.2490826], [21.4287858, 55.2541703], [21.4181428, 55.2608227], [21.4145921, 55.2651292], [21.4121463, 55.2694487], [21.4081608, 55.2757934], [21.4030366, 55.280773], [21.3961701, 55.2870299], [21.3893037, 55.2905488], [21.3835652, 55.2945815], [21.3811711, 55.2944958], [21.3786607, 55.2938721], [21.3776893, 55.292759], [21.3762574, 55.2887893], [21.3748545, 55.2875831], [21.3724809, 55.2868343], [21.3666444, 55.2864433], [21.3623137, 55.2860565], [21.3580613, 55.2854657], [21.355173, 55.2844237], [21.3525681, 55.2827284], [21.3508134, 55.2807807], [21.345801, 55.278716], [21.3439753, 55.2778582], [21.3398652, 55.2774487], [21.3340287, 55.2758842], [21.3332724, 55.2757292], [21.3295655, 55.2733417], [21.3276177, 55.2712899], [21.325789, 55.2698212], [21.3221881, 55.2677271], [21.3206391, 55.2663002], [21.3144593, 55.2641485], [21.3072495, 55.2614096], [21.3062285, 55.260791], [21.3049642, 55.2585981], [21.3028997, 55.2559002], [21.2996964, 55.2539747], [21.2962895, 55.2524385], [21.2938599, 55.2516265], [21.2856202, 55.2502567], [21.2801073, 55.2482257], [21.2765161, 55.2465054], [21.2735186, 55.2459321], [21.2723894, 55.2455962], [21.2712049, 55.245173], [21.1643027, 55.2523161], [21.104049, 55.2564255], [21.0286902, 55.2687499], [20.9539866, 55.2808008], [20.8768556, 55.3073374], [20.8721973, 55.3090458], [20.8852742, 55.3195493], [20.8884403, 55.3250328], [20.8918385, 55.3291786], [20.8930269, 55.3319416], [20.8960194, 55.3367822], [20.8998331, 55.3414336], [20.9041436, 55.3455649], [20.908754, 55.3515914], [20.9152145, 55.3573969], [20.919667, 55.3631363], [20.9227828, 55.3683832], [20.9258428, 55.3721125], [20.9280293, 55.3775862], [20.9310384, 55.3824479], [20.9336727, 55.3856573], [20.9349122, 55.388535], [20.9379048, 55.3933687], [20.9417186, 55.3980136], [20.9459072, 55.4020214], [20.9488767, 55.4069978], [20.9527035, 55.4116569], [20.9552275, 55.4140773], [20.9571462, 55.4171745], [20.9614939, 55.4222602], [20.9646835, 55.4276801], [20.9692117, 55.4329073], [20.9723852, 55.4423173], [20.9726922, 55.4463063], [20.973967, 55.4513713], [20.976111, 55.4563403], [20.9791035, 55.4611657], [20.9812901, 55.4638242], [20.9816185, 55.4681092], [20.9828909, 55.4731617], [20.986997, 55.4829244], [20.9888877, 55.4933896], [20.9891647, 55.4992082], [20.9904465, 55.5042942], [20.9925998, 55.509278], [20.9957368, 55.5141254], [20.996035, 55.5190658], [20.9993793, 55.531521], [21.0005809, 55.5343003], [21.0008447, 55.5377211], [21.0021195, 55.5427743], [21.0042634, 55.5477318], [21.0060079, 55.5505383], [21.0063378, 55.5548135], [21.0076195, 55.5598919], [21.0101136, 55.565271], [21.0104568, 55.5699537], [21.0117325, 55.5750064], [21.0129431, 55.5778035], [21.0131967, 55.5835159], [21.0144309, 55.5883239], [21.0145639, 55.5955339], [21.015959, 55.6006811], [21.0155576, 55.6048336], [21.0159509, 55.6099245], [21.0169609, 55.6139211], [21.0162359, 55.6195879], [21.0170769, 55.6262155], [21.0162376, 55.6323526], [21.0167689, 55.6373864], [21.0145077, 55.640047], [21.0114221, 55.6448311], [21.0091823, 55.6497623], [21.0078098, 55.6547929], [21.0073178, 55.6598745], [21.0077094, 55.6649363], [21.0087115, 55.6693053], [21.0078098, 55.6726087], [21.0073662, 55.6771878], [21.0057491, 55.6807453], [21.0043766, 55.6857719], [21.0038846, 55.6908495], [21.0041146, 55.6938203], [21.0023159, 55.6977754], [21.0009434, 55.7027998], [21.0007033, 55.7052765], [20.9959934, 55.7104764], [20.9928827, 55.7152906], [20.9906429, 55.7202128], [20.9892706, 55.7252336], [20.9881907, 55.7362688], [20.986523, 55.7399318], [20.9851362, 55.745003], [20.9848511, 55.7519556], [20.9830936, 55.7576721], [20.9826426, 55.7623179], [20.9810296, 55.7677358], [20.9806069, 55.772658], [20.9789699, 55.7762503], [20.9775831, 55.7813167], [20.977298, 55.788263], [20.9755243, 55.7940266], [20.9752416, 55.801006], [20.9727966, 55.8082258], [20.9723473, 55.812848], [20.9707302, 55.8163931], [20.9693499, 55.8214304], [20.9683418, 55.8365114], [20.9666103, 55.8403047], [20.9652215, 55.8453701], [20.9649735, 55.8528302], [20.9638645, 55.8568742], [20.9633674, 55.8619813], [20.9642641, 55.8687123], [20.9631778, 55.8726719], [20.962694, 55.8776413], [20.9626169, 55.8839599], [20.9624755, 55.8881245], [20.9595856, 55.8975803], [20.9656906, 55.8972132]]]}, "properties": {"ohm_relation": 2691476, "name": "Memelland", "name_ru": "Клайпедский край", "start_date": "1920-01-10", "end_date": "1923-01-19", "area_deg2": 0.462, "source": "OpenHistoricalMap (CC0), relation 2691476"}}]}