{"type": "FeatureCollection", "features": [{"type": "Feature", "properties": {"name": "Крым и Севастополь", "source": "Natural Earth admin-1 (cache/ne_admin1.geojson), буфер 0,03°, упрощение 0,01°", "why": "подписи подложки внутри контура берутся из name:uk (куратор 05.09.2026)"}, "geometry": {"type": "Polygon", "coordinates": [[[32.79554034919387, 45.593102196768065], [32.855353776000356, 45.657194245761566], [33.131360648555614, 45.75738734339436], [33.133312081155566, 45.791138613290556], [33.15802751296004, 45.81225197430755], [33.257953327883925, 45.78330186332005], [33.4738658505281, 45.88330059232212], [33.525513328218985, 45.871561019731274], [33.616626148490504, 45.91164458210722], [33.66127932476525, 45.89922941107345], [33.6664949696371, 45.92743495780792], [33.62351601112563, 45.91563028480001], [33.58988667828493, 45.95115186147525], [33.6105533676939, 46.02144240464655], [33.59944972596155, 46.132357504966215], [33.63975561638317, 46.17549108364863], [33.63577430367929, 46.225396453904956], [33.672005120810724, 46.24805635823139], [33.723552801384045, 46.22532701660048], [33.85417600008666, 46.224629702221804], [34.11015907564503, 46.12505532069232], [34.237918116241865, 46.12762858500383], [34.34217218197879, 46.09853870445102], [34.3820291534355, 46.077968912162596], [34.43102740313715, 46.010576822912256], [34.473800217272704, 45.9844731928309], [34.49210687736266, 45.982319549548905], [34.52438106532109, 46.010493828940824], [34.643366689806754, 46.010983283294706], [34.74761974533572, 45.98037073289728], [34.81216402902494, 45.910493393613486], [34.823748568142726, 45.81289845755635], [34.88229883776638, 45.800976586378795], [34.964720996272405, 45.75010517359185], [35.02011880983389, 45.75283044108501], [35.35018887725444, 45.39581742167595], [35.488615411093136, 45.32736237414454], [35.70030912681395, 45.3662984086186], [35.763538159052054, 45.4251290599631], [35.79654174572, 45.48585931801986], [35.83229430456113, 45.500877356407074], [35.88196930839062, 45.48703151536072], [35.880406166912486, 45.43339764554314], [35.987347107766745, 45.39326210072648], [36.02689729701099, 45.413092996736985], [36.051761042120795, 45.45465045089598], [36.13507476323725, 45.491967867507455], [36.24711032297701, 45.49151984700921], [36.2870093927244, 45.506481487356965], [36.41186204475639, 45.466630732666765], [36.497654791215076, 45.47217167065575], [36.53774037852273, 45.44141088202224], [36.58847454253829, 45.456938862719205], [36.63696291696731, 45.427620785521896], [36.66819156380605, 45.34811776375606], [36.6365406580016, 45.311102814033156], [36.583817005317954, 45.303902157757044], [36.52092840787676, 45.31941020543499], [36.52689698291962, 45.296177208359836], [36.512137254598606, 45.271327823857355], [36.461572768281435, 45.25396702577776], [36.43897398266164, 45.15323391660264], [36.48531577564916, 45.09060355306466], [36.47818130472439, 45.05960415869], [36.450095133982515, 45.03915871290148], [36.27963471937891, 45.01547430975984], [36.262230519836294, 44.98690961614146], [36.22980822326785, 44.977966033245536], [36.05304657411359, 45.01570435847276], [36.001094052758546, 44.96899038685257], [35.84643320737645, 44.962458524611456], [35.80821036841185, 44.976500570768216], [35.764937887681754, 45.03365939069946], [35.69619377752028, 45.066366324633705], [35.588865818103535, 45.08985229425894], [35.513323637411446, 45.08424506207019], [35.43535660600326, 45.04694069877533], [35.46191275963258, 45.025000842577654], [35.46320008275675, 44.99356401434259], [35.43156335911293, 44.97195573221829], [35.39174952601888, 44.97156605106601], [35.386252319527735, 44.9201731872238], [35.275127798929624, 44.93357043066899], [35.231019963688105, 44.8889471851141], [35.172727867464594, 44.875728143498215], [35.09418320446517, 44.76690915093432], [35.02853298957597, 44.77017952176025], [34.990360582430306, 44.80816997196471], [34.95373261628461, 44.81147079526998], [34.893872785073654, 44.7883648131821], [34.759056831539326, 44.79001424450068], [34.62222844754247, 44.73664319848954], [34.51402549267317, 44.71555737424015], [34.43629084434155, 44.653225541220564], [34.34632371860692, 44.51950574123887], [34.2886022085685, 44.515428314045764], [34.26012622276644, 44.48288999135556], [34.19586696788953, 44.464495047566736], [34.16712859505024, 44.42723385213765], [34.112563903627226, 44.3968366482722], [33.93742814651257, 44.35105078060621], [33.84829232686214, 44.37140704500863], [33.73577334670387, 44.366399946166986], [33.635777386256656, 44.39668625925627], [33.57065270693983, 44.46669618216712], [33.50530189886758, 44.46317763969542], [33.34673977189766, 44.56081787622291], [33.341374977175754, 44.59246908363265], [33.35576755039945, 44.61422958612857], [33.48545484996923, 44.64122322339977], [33.517774215523794, 44.700286743630954], [33.48823814754759, 44.79574445630027], [33.52538885276632, 44.858630334109485], [33.58714279258937, 44.897549998219354], [33.57679904925195, 44.97821206905539], [33.52049959876748, 45.09215101076261], [33.3933858160543, 45.15931985255434], [33.248707960435006, 45.12812518949388], [33.22052902629449, 45.15480822262125], [33.15692450623666, 45.17165917493273], [33.05875342625205, 45.248230993213575], [32.89419736240553, 45.324487626212054], [32.737076923710276, 45.33180444219264], [32.663097, 45.290136], [32.588004774922275, 45.290338199648986], [32.491138046226006, 45.31987950382394], [32.45177945849684, 45.40578232885239], [32.47496867984653, 45.45775015127891], [32.63204754321144, 45.549375050325274], [32.696000212965764, 45.55984858729939], [32.75089020766086, 45.59383094940352], [32.79554034919387, 45.593102196768065]]]}}]}