{"type": "FeatureCollection", "features": [{"type": "Feature", "geometry": {"type": "Polygon", "coordinates": [[[22.78, 49.675], [23.228, 50.047], [23.378, 50.15], [23.591, 50.269], [23.684, 50.334], [23.697, 50.37], [23.718, 50.384], [23.814, 50.406], [23.983, 50.406], [24.002, 50.414], [24.111, 50.567], [24.108, 50.631], [24.072, 50.696], [23.954, 50.792], [23.958, 50.815], [23.981, 50.83], [24.077, 50.829], [24.131, 50.838], [24.143, 50.86], [24.034, 50.898], [23.965, 50.95], [23.932, 50.994], [23.905, 51.068], [23.811, 51.169], [23.732, 51.215], [23.684, 51.289], [23.681, 51.369], [23.693, 51.402], [23.644, 51.485], [23.614, 51.499], [23.605, 51.528], [23.567, 51.54], [23.539, 51.593], [23.535, 51.654], [23.555, 51.665], [23.548, 51.686], [23.558, 51.752], [23.627, 51.952], [23.661, 52.006], [23.639, 52.079], [23.595, 52.112], [23.348, 52.207], [23.215, 52.223], [23.193, 52.233], [23.165, 52.282], [23.248, 52.374], [23.397, 52.514], [23.504, 52.568], [23.597, 52.596], [23.688, 52.617], [23.747, 52.615], [23.912, 52.693], [23.935, 52.717], [23.941, 52.75], [23.929, 52.911], [23.933, 53.012], [23.859, 53.196], [23.674, 53.494], [23.64, 53.559], [23.54, 53.841], [23.51, 53.899], [23.506, 53.936], [23.627, 53.898], [23.787, 53.928], [23.828, 53.92], [23.92, 53.948], [23.981, 53.93], [24.045, 53.931], [24.17, 53.959], [24.201, 53.952], [24.229, 53.932], [24.257, 53.894], [24.378, 53.887], [24.414, 53.898], [24.529, 53.958], [24.667, 53.994], [24.678, 53.992], [24.706, 53.964], [24.806, 53.975], [24.819, 53.993], [24.821, 54.02], [24.782, 54.093], [24.818, 54.11], [24.822, 54.135], [24.856, 54.147], [24.902, 54.15], [25.027, 54.128], [25.072, 54.132], [25.116, 54.149], [25.157, 54.176], [25.206, 54.257], [25.288, 54.245], [25.37, 54.248], [25.394, 54.257], [25.434, 54.292], [25.459, 54.299], [25.479, 54.293], [25.554, 54.231], [25.502, 54.222], [25.499, 54.212], [25.529, 54.196], [25.486, 54.175], [25.493, 54.158], [25.516, 54.145], [25.654, 54.129], [25.691, 54.148], [25.74, 54.146], [25.763, 54.156], [25.771, 54.172], [25.772, 54.218], [25.789, 54.236], [25.739, 54.283], [25.719, 54.282], [25.696, 54.321], [25.682, 54.326], [25.607, 54.305], [25.564, 54.303], [25.542, 54.308], [25.529, 54.321], [25.53, 54.346], [25.613, 54.422], [25.62, 54.488], [25.631, 54.508], [25.707, 54.542], [25.74, 54.569], [25.746, 54.588], [25.74, 54.608], [25.708, 54.663], [25.725, 54.716], [25.721, 54.767], [25.735, 54.789], [25.778, 54.805], [25.782, 54.822], [25.772, 54.851], [25.783, 54.87], [25.847, 54.906], [25.858, 54.933], [25.87, 54.939], [25.908, 54.948], [25.981, 54.943], [26.103, 54.957], [26.139, 54.969], [26.188, 55.009], [26.225, 55.055], [26.233, 55.112], [26.264, 55.14], [26.309, 55.145], [26.429, 55.128], [26.473, 55.146], [26.579, 55.119], [26.601, 55.121], [26.616, 55.135], [26.634, 55.192], [26.657, 55.215], [26.701, 55.237], [26.79, 55.257], [26.801, 55.273], [26.792, 55.29], [26.769, 55.3], [26.603, 55.317], [26.525, 55.308], [26.466, 55.321], [26.45, 55.327], [26.445, 55.338], [26.486, 55.391], [26.508, 55.439], [26.543, 55.46], [26.546, 55.471], [26.528, 55.492], [26.532, 55.516], [26.596, 55.568], [26.608, 55.616], [26.595, 55.667], [26.616, 55.688], [26.64, 55.696], [26.743, 55.683], [26.823, 55.706], [26.9, 55.779], [26.981, 55.827], [27.111, 55.836], [27.151, 55.832], [27.263, 55.787], [27.35, 55.831], [27.375, 55.815], [27.439, 55.799], [27.593, 55.794], [27.61, 55.831], [27.617, 55.879], [27.645, 55.923], [27.667, 55.931], [27.646, 55.92], [27.632, 55.846], [27.597, 55.788], [27.656, 55.782], [27.935, 55.723], [28.139, 55.662], [28.175, 55.6], [28.227, 55.581], [28.276, 55.546], [28.292, 55.523], [28.286, 55.475], [28.31, 55.449], [28.31, 55.397], [28.4, 55.331], [28.403, 55.306], [28.364, 55.266], [28.336, 55.248], [28.334, 55.227], [28.371, 55.177], [28.364, 55.146], [28.327, 55.105], [28.258, 55.058], [28.031, 54.97], [27.948, 54.955], [27.879, 54.931], [27.844, 54.91], [27.748, 54.824], [27.741, 54.799], [27.692, 54.719], [27.684, 54.692], [27.645, 54.679], [27.63, 54.643], [27.515, 54.577], [27.528, 54.559], [27.528, 54.541], [27.518, 54.502], [27.525, 54.455], [27.522, 54.401], [27.507, 54.327], [27.472, 54.296], [27.382, 54.273], [27.3, 54.239], [27.273, 54.183], [27.198, 54.156], [27.181, 54.133], [27.209, 54.09], [27.217, 54.063], [27.142, 53.995], [27.1, 53.97], [26.971, 53.865], [26.92, 53.806], [26.9, 53.756], [26.895, 53.673], [26.926, 53.613], [26.928, 53.519], [26.944, 53.487], [26.943, 53.456], [26.887, 53.401], [26.874, 53.379], [26.879, 53.332], [26.908, 53.248], [26.908, 53.199], [26.856, 53.165], [26.829, 53.138], [26.787, 53.065], [26.905, 52.989], [26.918, 52.958], [26.9, 52.881], [26.916, 52.87], [27.103, 52.829], [27.198, 52.747], [27.24, 52.666], [27.244, 52.638], [27.273, 52.604], [27.349, 52.57], [27.405, 52.56], [27.527, 52.576], [27.609, 52.572], [27.629, 52.546], [27.638, 52.522], [27.632, 52.478], [27.619, 52.45], [27.586, 52.418], [27.583, 52.385], [27.569, 52.363], [27.512, 52.311], [27.466, 52.291], [27.466, 52.258], [27.546, 52.21], [27.543, 52.162], [27.516, 52.146], [27.54, 52.093], [27.587, 52.075], [27.606, 52.053], [27.612, 52.031], [27.534, 51.94], [27.479, 51.816], [27.421, 51.768], [27.407, 51.746], [27.453, 51.671], [27.476, 51.649], [27.535, 51.629], [27.687, 51.603], [27.717, 51.578], [27.705, 51.553], [27.683, 51.536], [27.551, 51.487], [27.527, 51.469], [27.537, 51.415], [27.459, 51.433], [27.433, 51.392], [27.45, 51.332], [27.425, 51.221], [27.379, 51.113], [27.32, 51.065], [27.328, 51.036], [27.278, 50.993], [27.265, 50.969], [27.26, 50.918], [27.243, 50.873], [27.275, 50.766], [27.25, 50.697], [27.272, 50.623], [27.229, 50.564], [27.217, 50.521], [27.185, 50.502], [27.139, 50.492], [26.849, 50.477], [26.69, 50.419], [26.528, 50.304], [26.306, 50.192], [26.231, 50.105], [26.213, 50.019], [26.19, 50.006], [26.139, 49.944], [26.142, 49.908], [26.173, 49.839], [26.173, 49.82], [26.206, 49.763], [26.243, 49.731], [26.203, 49.507], [26.203, 49.018], [26.17, 48.974], [26.173, 48.951], [26.209, 48.873], [26.213, 48.845], [26.236, 48.808], [26.2, 48.747], [26.209, 48.719], [26.239, 48.682], [26.312, 48.647], [26.325, 48.59], [26.364, 48.513], [26.327, 48.512], [26.257, 48.533], [26.181, 48.527], [26.149, 48.54], [26.146, 48.596], [26.133, 48.609], [26.102, 48.607], [26.106, 48.581], [26.13, 48.555], [26.117, 48.542], [26.08, 48.547], [26.053, 48.572], [26.062, 48.628], [26.049, 48.648], [26.033, 48.643], [26.02, 48.616], [25.986, 48.624], [25.96, 48.596], [25.928, 48.587], [25.863, 48.601], [25.86, 48.619], [25.794, 48.67], [25.767, 48.658], [25.753, 48.633], [25.742, 48.63], [25.731, 48.635], [25.715, 48.664], [25.636, 48.678], [25.599, 48.658], [25.572, 48.639], [25.565, 48.621], [25.606, 48.522], [25.6, 48.433], [25.585, 48.393], [25.569, 48.388], [25.493, 48.404], [25.37, 48.38], [25.293, 48.34], [25.196, 48.257], [25.141, 48.232], [25.133, 48.207], [25.14, 48.182], [25.106, 48.169], [25.051, 48.127], [25.017, 48.119], [24.989, 48.1], [24.985, 48.079], [24.935, 48.013], [24.928, 47.99], [24.935, 47.947], [24.967, 47.907], [24.985, 47.836], [24.933, 47.754], [24.929, 47.714], [24.896, 47.716], [24.821, 47.808], [24.694, 47.849], [24.672, 47.866], [24.67, 47.895], [24.615, 47.934], [24.572, 47.949], [24.588, 47.996], [24.639, 48.048], [24.64, 48.057], [24.528, 48.146], [24.522, 48.171], [24.543, 48.209], [24.499, 48.263], [24.385, 48.335], [24.348, 48.338], [24.336, 48.371], [24.31, 48.387], [24.299, 48.385], [24.278, 48.361], [24.234, 48.351], [24.178, 48.355], [24.145, 48.375], [24.131, 48.426], [24.141, 48.475], [24.134, 48.531], [24.119, 48.533], [24.046, 48.505], [24.001, 48.5], [23.952, 48.473], [23.917, 48.474], [23.907, 48.485], [23.916, 48.521], [23.902, 48.543], [23.847, 48.563], [23.791, 48.594], [23.782, 48.603], [23.78, 48.638], [23.771, 48.645], [23.693, 48.645], [23.612, 48.704], [23.574, 48.716], [23.509, 48.73], [23.446, 48.727], [23.386, 48.734], [23.375, 48.74], [23.369, 48.76], [23.357, 48.771], [23.308, 48.75], [23.298, 48.781], [23.258, 48.772], [23.202, 48.777], [23.18, 48.79], [23.138, 48.852], [23.119, 48.867], [23.105, 48.871], [23.02, 48.855], [22.988, 48.857], [22.961, 48.884], [22.901, 48.924], [22.889, 48.951], [22.901, 48.991], [22.886, 49.004], [22.863, 49.05], [22.877, 49.087], [22.778, 49.151], [22.704, 49.17], [22.759, 49.286], [22.733, 49.397], [22.694, 49.451], [22.657, 49.53], [22.682, 49.573], [22.78, 49.675]]]}, "properties": {"id": "WEST_UA_BY", "name": "Западная Украина и Западная Беларусь", "from": "1939-09-17", "until": null, "act": "пакт Молотова-Риббентропа 23.08.1939, секретный протокол; вторжение 17.09.1939", "act_full": "вторжение РККА в Польшу 17.09.1939 («Освободительный поход»), по разделу сфер интересов секретного протокола к пакту Молотова-Риббентропа 23.08.1939; линия закреплена германо-советским договором о дружбе и границе 28.09.1939; формальное включение - законы Верховного Совета СССР от 01.11.1939 (Западная Украина) и 02.11.1939 (Западная Беларусь)", "source": "CShapes 2.0 (разность контуров 18.03.1921 и 08.05.1945), нарезка - Natural Earth admin-1; договоры - data/sources/treaties/molotov-ribbentrop-1939/", "note": "западная кромка куска - послевоенный контур источника, поэтому сам по себе он не даёт ни Белостокской области БССР, ни правобережья Сана: в 1945 году эти земли вернулись Польше. Всё, что лежало западнее послевоенной границы, вынесено в отдельное приобретение «Западная граница по протоколу 04.10.1939» с окном 17.09.1939-21.06.1941. Закарпатье в 1939 венгерское и сюда не включено.", "approximate": true, "geometry_source": "разность послевоенного контура источника и линии Рижского мира, разбитая по современным областям (Natural Earth admin-1 (современная нарезка - приближение)); восточная кромка - линия Риги, западная - послевоенный контур", "pact": "Договор о ненападении между Германией и Советским Союзом от 23.08.1939 (пакт Молотова-Риббентропа) и секретный дополнительный протокол к нему: раздел сфер интересов по линии рек Нарев - Висла - Сан. Уточнён германо-советским договором о дружбе и границе от 28.09.1939 (линия Писса - Нарев - Западный Буг - Сан; Люблинское и часть Варшавского воеводства - Германии, Литва - в советскую сферу). Сама линия расписана 41 сегментом в ОТКРЫТОМ Дополнительном протоколе от 04.10.1939, разд. I - единственном документе пакета, официально опубликованном обеими сторонами («Ведомости Верховного Совета СССР» 1940 № 10 (73); RGBl. 1940 II Nr. 1, S. 4 ff.); по нему и построена наша западная граница 1939-1941 годов. Тексты: data/sources/treaties/molotov-ribbentrop-1939/"}}, {"type": "Feature", "geometry": {"type": "MultiPolygon", "coordinates": [[[[23.18, 52.283], [23.131, 52.285], [23.11, 52.3], [23.077, 52.282], [23.052, 52.285], [23.048, 52.291], [23.059, 52.304], [23.043, 52.327], [23.005, 52.337], [22.995, 52.332], [22.964, 52.365], [22.938, 52.372], [22.92, 52.375], [22.849, 52.359], [22.797, 52.373], [22.773, 52.371], [22.758, 52.383], [22.732, 52.382], [22.706, 52.392], [22.664, 52.386], [22.658, 52.393], [22.613, 52.388], [22.604, 52.399], [22.58, 52.393], [22.58, 52.402], [22.566, 52.404], [22.557, 52.418], [22.542, 52.423], [22.553, 52.465], [22.528, 52.462], [22.512, 52.481], [22.527, 52.522], [22.503, 52.537], [22.484, 52.561], [22.467, 52.567], [22.456, 52.586], [22.372, 52.624], [22.373, 52.636], [22.349, 52.656], [22.053, 52.759], [21.805, 52.911], [21.829, 52.949], [21.804, 52.957], [21.786, 52.947], [21.749, 52.978], [21.727, 53.031], [21.644, 53.079], [21.617, 53.108], [21.628, 53.118], [21.675, 53.126], [21.672, 53.131], [21.696, 53.142], [21.692, 53.15], [21.706, 53.172], [21.728, 53.169], [21.733, 53.181], [21.761, 53.175], [21.758, 53.186], [21.765, 53.193], [21.792, 53.198], [21.807, 53.213], [21.871, 53.228], [21.868, 53.244], [21.889, 53.257], [21.887, 53.265], [21.9, 53.267], [21.89, 53.277], [21.842, 53.294], [21.819, 53.314], [21.818, 53.328], [21.787, 53.345], [21.79, 53.358], [21.77, 53.372], [21.793, 53.394], [21.785, 53.4], [21.787, 53.416], [21.854, 53.442], [21.873, 53.472], [21.865, 53.493], [21.937, 53.499], [22.11, 53.57], [22.207, 53.635], [22.486, 53.738], [22.543, 53.774], [22.578, 53.832], [22.619, 53.878], [22.622, 53.919], [22.792, 53.906], [22.883, 53.918], [22.956, 53.895], [22.974, 53.904], [22.963, 53.918], [23.203, 53.878], [23.426, 53.799], [23.426, 53.793], [23.468, 53.808], [23.509, 53.805], [23.525, 53.812], [23.54, 53.764], [23.565, 53.742], [23.567, 53.681], [23.591, 53.611], [23.676, 53.456], [23.743, 53.365], [23.801, 53.242], [23.848, 53.184], [23.894, 53.152], [23.891, 53.128], [23.861, 53.087], [23.859, 53.068], [23.911, 53.005], [23.918, 52.951], [23.901, 52.923], [23.912, 52.894], [23.922, 52.743], [23.909, 52.7], [23.869, 52.67], [23.736, 52.615], [23.569, 52.586], [23.48, 52.554], [23.392, 52.51], [23.212, 52.348], [23.166, 52.289], [23.18, 52.283]]], [[[22.738, 49.275], [22.708, 49.208], [22.681, 49.197], [22.67, 49.212], [22.654, 49.204], [22.63, 49.223], [22.598, 49.218], [22.549, 49.239], [22.548, 49.251], [22.537, 49.247], [22.534, 49.255], [22.524, 49.252], [22.52, 49.259], [22.51, 49.257], [22.51, 49.264], [22.49, 49.265], [22.491, 49.273], [22.479, 49.276], [22.462, 49.271], [22.473, 49.282], [22.462, 49.285], [22.464, 49.291], [22.479, 49.297], [22.49, 49.315], [22.504, 49.308], [22.497, 49.322], [22.515, 49.324], [22.521, 49.344], [22.482, 49.37], [22.459, 49.367], [22.452, 49.393], [22.458, 49.402], [22.426, 49.417], [22.404, 49.443], [22.379, 49.44], [22.401, 49.433], [22.398, 49.428], [22.34, 49.421], [22.339, 49.431], [22.352, 49.447], [22.311, 49.48], [22.291, 49.477], [22.297, 49.488], [22.329, 49.505], [22.331, 49.525], [22.29, 49.52], [22.279, 49.523], [22.274, 49.536], [22.237, 49.537], [22.198, 49.577], [22.192, 49.607], [22.221, 49.594], [22.239, 49.61], [22.267, 49.612], [22.291, 49.628], [22.291, 49.65], [22.299, 49.655], [22.292, 49.664], [22.277, 49.658], [22.261, 49.664], [22.236, 49.694], [22.203, 49.702], [22.205, 49.712], [22.227, 49.727], [22.205, 49.738], [22.236, 49.751], [22.212, 49.779], [22.235, 49.785], [22.25, 49.813], [22.246, 49.824], [22.259, 49.828], [22.269, 49.822], [22.282, 49.829], [22.311, 49.821], [22.341, 49.803], [22.33, 49.789], [22.344, 49.784], [22.356, 49.786], [22.365, 49.799], [22.384, 49.801], [22.399, 49.819], [22.471, 49.778], [22.487, 49.791], [22.471, 49.808], [22.486, 49.815], [22.534, 49.803], [22.526, 49.792], [22.573, 49.775], [22.571, 49.763], [22.609, 49.766], [22.614, 49.751], [22.633, 49.758], [22.627, 49.769], [22.655, 49.78], [22.642, 49.794], [22.655, 49.803], [22.705, 49.806], [22.708, 49.797], [22.688, 49.791], [22.7, 49.778], [22.764, 49.783], [22.793, 49.801], [22.804, 49.791], [22.831, 49.792], [22.839, 49.803], [22.865, 49.806], [22.903, 49.797], [22.899, 49.814], [22.914, 49.824], [22.892, 49.837], [22.898, 49.846], [22.89, 49.859], [22.896, 49.865], [22.886, 49.875], [22.914, 49.887], [22.893, 49.895], [22.892, 49.906], [22.864, 49.927], [22.874, 49.935], [22.873, 49.948], [22.828, 49.966], [22.802, 49.989], [22.755, 50.0], [22.731, 50.017], [22.706, 50.013], [22.709, 50.033], [22.695, 50.059], [22.7, 50.069], [22.666, 50.082], [22.678, 50.096], [22.668, 50.113], [22.643, 50.116], [22.665, 50.121], [22.685, 50.137], [22.735, 50.143], [22.737, 50.233], [22.973, 50.194], [23.059, 50.192], [23.103, 50.207], [23.136, 50.245], [23.308, 50.296], [23.352, 50.335], [23.49, 50.383], [23.54, 50.397], [23.636, 50.403], [23.709, 50.381], [23.682, 50.368], [23.644, 50.313], [23.565, 50.258], [23.436, 50.193], [23.208, 50.034], [23.178, 50.004], [23.101, 49.957], [22.993, 49.854], [22.951, 49.827], [22.933, 49.791], [22.888, 49.77], [22.827, 49.697], [22.766, 49.674], [22.742, 49.634], [22.666, 49.567], [22.641, 49.529], [22.667, 49.478], [22.68, 49.419], [22.72, 49.383], [22.738, 49.275]]]]}, "properties": {"id": "WEST_1939_41", "name": "Белостокская область, Ломжа, Лубачувщина и правобережье Сана (западная граница по протоколу 04.10.1939)", "from": "1939-09-17", "until": "1941-06-22", "act": "пакт Молотова-Риббентропа 23.08.1939, секретный протокол; вторжение 17.09.1939; линия - Дополнительный протокол 04.10.1939", "act_full": "вторжение РККА в Польшу 17.09.1939; линия раздела описана посегментно в ОТКРЫТОМ Дополнительном протоколе от 04.10.1939 к германо-советскому договору о дружбе и границе 28.09.1939 - единственном документе пакета, официально опубликованном обеими сторонами («Ведомости Верховного Совета СССР» 1940 № 10 (73); RGBl. 1940 II Nr. 1, S. 4 ff.). Белостокская область БССР образована указом Президиума ВС СССР от 04.12.1939. Окно закрывается 22.06.1941: с этого дня территория под немцами, а по договору о советско-польской государственной границе от 16.08.1945 Белосток, Ломжа, Августов, Лубачув и левобережье Сана отошли Польше", "source": "линия - Дополнительный протокол 04.10.1939 (41 сегмент); русла рек - OpenStreetMap (ODbL), сегмент по бывшей русско-германской границе - Natural Earth admin-1; сборка - tools/build_border_1939.py, выписка из протокола - data/sources/treaties/molotov-ribbentrop-1939/border_description.md", "note": "семь точек протокола в OpenStreetMap не нашлись (оз. Едрыно, д. Жабиково, Пецки, Надбужнэ, Бжезина, фольварок Сиглы, ручей Пшикопа у Добчи) - они взяты на прямой между соседними названными пунктами; список печатает tools/build_border_1939.py. Демаркационная карта 1:25 000 комиссии, начавшей работу 09.10.1939, не оцифрована. Перемышль линия рассекает по Сану: правый берег с Рынком и замком - советский, Засанье - германское.", "approximate": true, "geometry_source": "линия собрана по 41 сегменту протокола 04.10.1939: 14 отрезков идут руслами рек (Волкушанка, Близна, Писса, Нарев, Ож, Брочиско, Западный Буг, Солокия, Гнойник, Любачувка, Сан) из OpenStreetMap, участок «по бывшей русско-германской государственной границе» - южная кромка Варминско-Мазурского воеводства (она же граница Восточной Пруссии 1914 г.) из Natural Earth admin-1, остальные - прямые между названными в протоколе деревнями, которые сам протокол (Примечание 2) объявляет подлежащими уточнению при демаркации. Полигон - всё восточнее линии внутри современной Польши", "pact": "Договор о ненападении между Германией и Советским Союзом от 23.08.1939 (пакт Молотова-Риббентропа) и секретный дополнительный протокол к нему: раздел сфер интересов по линии рек Нарев - Висла - Сан. Уточнён германо-советским договором о дружбе и границе от 28.09.1939 (линия Писса - Нарев - Западный Буг - Сан; Люблинское и часть Варшавского воеводства - Германии, Литва - в советскую сферу). Сама линия расписана 41 сегментом в ОТКРЫТОМ Дополнительном протоколе от 04.10.1939, разд. I - единственном документе пакета, официально опубликованном обеими сторонами («Ведомости Верховного Совета СССР» 1940 № 10 (73); RGBl. 1940 II Nr. 1, S. 4 ff.); по нему и построена наша западная граница 1939-1941 годов. Тексты: data/sources/treaties/molotov-ribbentrop-1939/"}}, {"type": "Feature", "geometry": {"type": "MultiPolygon", "coordinates": [[[[29.88, 60.145], [29.824, 60.168], [29.749, 60.187], [29.672, 60.196], [29.519, 60.194], [29.401, 60.159], [29.162, 60.169], [29.046, 60.182], [29.003, 60.197], [28.876, 60.289], [28.787, 60.335], [28.719, 60.346], [28.598, 60.387], [28.447, 60.549], [28.505, 60.551], [28.523, 60.524], [28.582, 60.49], [28.683, 60.454], [28.706, 60.461], [28.666, 60.578], [28.629, 60.593], [28.605, 60.576], [28.569, 60.585], [28.554, 60.608], [28.575, 60.638], [28.612, 60.634], [28.627, 60.619], [28.678, 60.612], [28.732, 60.677], [28.731, 60.716], [28.677, 60.736], [28.514, 60.68], [28.411, 60.665], [28.389, 60.649], [28.383, 60.624], [28.341, 60.594], [28.147, 60.529], [27.824, 60.526], [27.808, 60.547], [28.094, 60.712], [28.299, 60.821], [28.389, 60.887], [28.53, 60.955], [28.62, 60.96], [28.646, 60.971], [28.72, 61.045], [28.817, 61.105], [29.214, 61.253], [29.355, 61.36], [29.802, 61.604], [29.998, 61.734], [30.149, 61.852], [30.301, 61.956], [30.704, 62.211], [30.964, 62.339], [31.258, 62.508], [31.322, 62.615], [31.43, 62.759], [31.474, 62.813], [31.582, 62.908], [31.52, 62.983], [31.383, 63.069], [31.243, 63.205], [31.439, 63.192], [31.585, 63.129], [31.952, 63.098], [32.183, 63.035], [32.225, 62.993], [32.319, 62.982], [32.393, 62.867], [32.403, 62.804], [32.476, 62.794], [32.613, 62.752], [32.718, 62.657], [32.791, 62.605], [32.822, 62.5], [32.571, 62.301], [32.728, 62.259], [32.833, 62.165], [32.718, 62.028], [32.634, 61.997], [32.55, 62.06], [32.455, 62.165], [32.372, 62.196], [32.246, 62.133], [32.193, 61.808], [32.214, 61.703], [32.298, 61.525], [32.319, 61.441], [32.298, 61.389], [32.172, 61.294], [31.722, 61.127], [31.596, 60.99], [31.47, 60.896], [31.061, 60.781], [30.883, 60.707], [30.82, 60.665], [30.778, 60.602], [30.495, 60.55], [30.191, 60.634], [30.159, 60.571], [30.18, 60.445], [30.107, 60.361], [29.945, 60.361], [29.887, 60.309], [29.918, 60.256], [30.013, 60.183], [29.893, 60.093], [29.902, 60.121], [29.88, 60.145]]], [[[28.695, 68.195], [28.46, 68.535], [28.518, 68.584], [28.739, 68.734], [28.762, 68.755], [28.817, 68.847], [28.738, 68.876], [28.471, 68.874], [28.44, 68.882], [28.436, 68.903], [28.452, 68.917], [28.878, 69.036], [28.957, 69.052], [29.02, 69.031], [29.057, 69.029], [29.099, 69.036], [29.178, 69.071], [29.254, 69.12], [29.296, 69.188], [29.319, 69.243], [29.296, 69.295], [29.314, 69.316], [29.538, 69.347], [29.665, 69.374], [29.899, 69.433], [30.063, 69.488], [30.098, 69.503], [30.182, 69.578], [30.137, 69.628], [30.095, 69.628], [30.077, 69.647], [30.11, 69.664], [30.196, 69.665], [30.52, 69.548], [30.797, 69.53], [30.864, 69.537], [30.912, 69.55], [30.941, 69.574], [30.951, 69.609], [30.943, 69.691], [30.855, 69.792], [31.241, 69.758], [31.406, 69.716], [31.542, 69.697], [31.761, 69.559], [31.592, 69.446], [31.005, 69.09], [30.3, 68.679], [29.786, 68.429], [29.357, 68.082], [28.695, 68.195]]], [[[30.094, 65.838], [29.948, 66.05], [29.904, 66.134], [29.799, 66.192], [29.632, 66.329], [29.577, 66.403], [29.554, 66.47], [29.386, 66.628], [29.355, 66.678], [29.273, 66.738], [29.129, 66.82], [29.076, 66.877], [29.075, 66.904], [29.09, 66.973], [29.134, 67.014], [29.525, 67.294], [29.933, 67.514], [29.96, 67.539], [29.978, 67.572], [30.029, 67.695], [30.183, 67.512], [30.432, 67.306], [30.52, 67.218], [30.608, 67.086], [30.667, 66.954], [30.682, 66.866], [30.579, 66.763], [30.476, 66.646], [30.418, 66.602], [30.344, 66.587], [30.285, 66.514], [30.3, 66.455], [30.447, 66.396], [30.491, 66.323], [30.403, 66.176], [30.615, 65.909], [30.649, 65.881], [30.589, 65.841], [30.327, 65.773], [30.135, 65.709], [30.094, 65.838]]]]}, "properties": {"id": "KARELIA_1940", "name": "Карельский перешеек, Северное Приладожье и Петсамо (по контуру источника)", "from": "1940-03-12", "until": null, "act": "Московский мирный договор с Финляндией 12.03.1940 (конец Зимней войны, начатой 30.11.1939)", "act_full": "Московский мирный договор 12.03.1940, завершивший Зимнюю войну; Финляндия в советской сфере интересов по п. 1 секретного протокола 23.08.1939", "source": "CShapes 2.0: срез 12.03.1940 минус срез 18.03.1921", "note": "срез уже был в карте до этой правки - здесь он только пересобран вместе с приобретением 1939 года, иначе Западная Украина исчезала бы с карты 12.03.1940. ОШИБКА ИСТОЧНИКА, которую мы наследуем: CShapes отдаёт СССР Петсамо (Печенга, Никель) уже 12.03.1940, хотя по Московскому миру Петсамо возвращалось Финляндии и отошло СССР только по Московскому перемирию 19.09.1944. Финскую часть Рыбачьего и район Саллы, наоборот, контур источника не различает совсем.", "approximate": false, "geometry_source": "разность срезов источника, контур не приближался", "pact": "Договор о ненападении между Германией и Советским Союзом от 23.08.1939 (пакт Молотова-Риббентропа) и секретный дополнительный протокол к нему: раздел сфер интересов по линии рек Нарев - Висла - Сан. Уточнён германо-советским договором о дружбе и границе от 28.09.1939 (линия Писса - Нарев - Западный Буг - Сан; Люблинское и часть Варшавского воеводства - Германии, Литва - в советскую сферу). Сама линия расписана 41 сегментом в ОТКРЫТОМ Дополнительном протоколе от 04.10.1939, разд. I - единственном документе пакета, официально опубликованном обеими сторонами («Ведомости Верховного Совета СССР» 1940 № 10 (73); RGBl. 1940 II Nr. 1, S. 4 ff.); по нему и построена наша западная граница 1939-1941 годов. Тексты: data/sources/treaties/molotov-ribbentrop-1939/"}}, {"type": "Feature", "geometry": {"type": "MultiPolygon", "coordinates": [[[[27.221, 55.784], [26.855, 55.743], [26.569, 55.702], [26.506, 55.683], [26.345, 55.621], [26.284, 55.58], [26.243, 55.519], [26.08, 55.397], [26.091, 55.37], [26.019, 55.376], [25.986, 55.37], [25.924, 55.295], [25.919, 55.23], [25.891, 55.212], [25.751, 55.162], [25.763, 55.122], [25.736, 55.102], [25.575, 55.045], [25.513, 55.034], [25.322, 55.009], [25.2, 55.015], [25.141, 55.009], [25.039, 54.987], [24.954, 54.919], [24.904, 54.862], [24.875, 54.805], [24.861, 54.699], [24.809, 54.649], [24.812, 54.583], [24.822, 54.566], [24.812, 54.508], [24.753, 54.399], [24.625, 54.244], [24.598, 54.225], [24.421, 54.175], [24.315, 54.117], [24.143, 54.052], [24.063, 54.052], [23.947, 53.941], [23.78, 53.935], [23.709, 53.924], [23.594, 53.931], [23.509, 53.953], [23.517, 54.039], [23.484, 54.138], [23.458, 54.174], [23.356, 54.235], [23.204, 54.287], [23.116, 54.304], [22.995, 54.386], [22.863, 54.408], [22.812, 54.396], [22.781, 54.37], [22.716, 54.44], [22.698, 54.465], [22.691, 54.494], [22.72, 54.693], [22.814, 54.772], [22.84, 54.778], [22.867, 54.812], [22.865, 54.839], [22.839, 54.899], [22.72, 54.963], [22.682, 54.958], [22.645, 54.964], [22.607, 55.039], [22.534, 55.062], [22.25, 55.064], [22.139, 55.053], [22.103, 55.029], [22.06, 55.029], [21.958, 55.067], [21.759, 55.122], [21.646, 55.178], [21.546, 55.2], [21.378, 55.278], [21.271, 55.248], [21.289, 55.286], [21.246, 55.467], [21.144, 55.678], [21.11, 55.714], [21.077, 55.733], [21.058, 55.782], [21.044, 55.911], [21.067, 55.985], [21.059, 56.056], [21.026, 56.156], [20.996, 56.185], [20.974, 56.238], [20.969, 56.364], [20.998, 56.509], [21.025, 56.508], [21.044, 56.458], [21.069, 56.436], [21.058, 56.511], [21.027, 56.614], [21.056, 56.691], [21.065, 56.747], [21.052, 56.817], [21.062, 56.842], [21.261, 56.923], [21.358, 56.987], [21.396, 57.027], [21.416, 57.069], [21.417, 57.282], [21.434, 57.303], [21.482, 57.334], [21.706, 57.56], [21.755, 57.583], [21.856, 57.596], [21.992, 57.596], [22.098, 57.634], [22.48, 57.74], [22.583, 57.755], [22.607, 57.749], [22.584, 57.689], [22.595, 57.638], [22.643, 57.585], [22.751, 57.535], [22.941, 57.431], [23.049, 57.385], [23.136, 57.364], [23.241, 57.169], [23.256, 57.101], [23.347, 57.054], [23.586, 56.977], [23.655, 56.966], [23.786, 56.97], [23.985, 57.022], [24.223, 57.129], [24.373, 57.219], [24.404, 57.251], [24.413, 57.277], [24.409, 57.354], [24.331, 57.699], [24.304, 57.732], [24.29, 57.792], [24.289, 57.833], [24.317, 57.872], [24.358, 57.962], [24.457, 58.076], [24.471, 58.127], [24.47, 58.152], [24.453, 58.183], [24.469, 58.239], [24.558, 58.3], [24.555, 58.325], [24.518, 58.353], [24.459, 58.378], [24.391, 58.391], [24.331, 58.387], [24.297, 58.352], [24.288, 58.316], [24.242, 58.274], [24.104, 58.236], [24.011, 58.299], [23.973, 58.316], [23.826, 58.355], [23.776, 58.349], [23.729, 58.371], [23.679, 58.426], [23.624, 58.525], [23.525, 58.558], [23.507, 58.572], [23.496, 58.694], [23.535, 58.742], [23.592, 58.733], [23.726, 58.745], [23.864, 58.773], [23.798, 58.8], [23.592, 58.788], [23.483, 58.81], [23.422, 58.915], [23.438, 58.94], [23.508, 58.937], [23.583, 58.949], [23.637, 58.974], [23.624, 59.01], [23.591, 59.035], [23.567, 59.042], [23.607, 59.014], [23.557, 58.988], [23.466, 58.984], [23.41, 59.016], [23.433, 59.057], [23.482, 59.089], [23.466, 59.202], [23.505, 59.227], [23.614, 59.24], [23.719, 59.23], [23.742, 59.236], [23.73, 59.273], [23.831, 59.29], [23.898, 59.272], [24.027, 59.288], [24.024, 59.364], [24.044, 59.392], [24.105, 59.386], [24.182, 59.346], [24.206, 59.344], [24.322, 59.429], [24.329, 59.462], [24.357, 59.472], [24.403, 59.474], [24.537, 59.457], [24.723, 59.453], [24.785, 59.517], [24.774, 59.561], [24.796, 59.565], [24.865, 59.543], [24.918, 59.507], [25.051, 59.512], [25.109, 59.529], [25.154, 59.532], [25.399, 59.488], [25.489, 59.565], [25.477, 59.658], [25.598, 59.598], [25.637, 59.567], [25.665, 59.563], [25.705, 59.571], [25.713, 59.592], [25.691, 59.617], [25.68, 59.662], [25.715, 59.665], [25.873, 59.599], [25.98, 59.633], [26.037, 59.622], [26.078, 59.601], [26.263, 59.586], [26.39, 59.562], [26.488, 59.533], [26.575, 59.552], [26.651, 59.553], [26.855, 59.468], [26.973, 59.444], [27.436, 59.448], [27.553, 59.429], [27.848, 59.407], [27.933, 59.417], [27.996, 59.455], [28.066, 59.544], [28.064, 59.601], [28.211, 59.564], [28.293, 59.46], [28.468, 59.339], [28.53, 59.261], [28.499, 59.171], [28.365, 59.087], [28.263, 59.034], [28.129, 58.934], [28.026, 58.902], [27.811, 58.896], [27.597, 58.931], [27.457, 58.852], [27.422, 58.785], [27.489, 58.574], [27.519, 58.504], [27.543, 58.414], [27.54, 58.365], [27.466, 58.297], [27.476, 58.213], [27.552, 58.135], [27.644, 58.092], [27.811, 57.988], [27.995, 57.786], [28.119, 57.737], [28.088, 57.638], [28.016, 57.588], [27.78, 57.461], [27.841, 57.376], [27.949, 57.295], [28.042, 57.245], [28.083, 57.198], [28.031, 57.064], [28.019, 56.992], [28.088, 56.958], [28.103, 56.938], [28.103, 56.846], [28.144, 56.73], [28.15, 56.691], [28.134, 56.637], [28.072, 56.57], [28.148, 56.471], [28.183, 56.406], [28.236, 56.276], [28.197, 56.181], [28.15, 56.161], [28.122, 56.167], [27.922, 56.105], [27.898, 56.07], [27.796, 56.001], [27.646, 55.92], [27.632, 55.846], [27.597, 55.788], [27.221, 55.784]]], [[[23.209, 58.678], [23.343, 58.641], [23.397, 58.557], [23.371, 58.532], [23.221, 58.531], [23.068, 58.591], [23.062, 58.612], [23.145, 58.668], [23.209, 58.678]]], [[[23.346, 59.034], [23.366, 59.025], [23.39, 58.994], [23.376, 58.975], [23.285, 58.964], [23.173, 58.962], [23.143, 58.972], [23.117, 59.027], [23.144, 59.039], [23.187, 59.042], [23.346, 59.034]]], [[[23.142, 58.444], [23.077, 58.414], [23.064, 58.386], [23.029, 58.358], [22.757, 58.24], [22.649, 58.23], [22.582, 58.241], [22.481, 58.242], [22.373, 58.221], [22.277, 58.18], [22.263, 58.098], [22.203, 57.986], [22.073, 57.917], [22.043, 57.909], [21.997, 57.92], [21.983, 57.967], [22.086, 58.079], [22.151, 58.086], [22.194, 58.145], [22.074, 58.173], [21.877, 58.257], [21.845, 58.289], [21.883, 58.342], [21.956, 58.343], [22.007, 58.357], [21.996, 58.381], [21.911, 58.462], [21.86, 58.483], [21.837, 58.507], [21.925, 58.517], [21.993, 58.516], [22.113, 58.492], [22.194, 58.547], [22.327, 58.577], [22.502, 58.602], [22.624, 58.593], [22.772, 58.603], [22.816, 58.617], [22.911, 58.617], [23.091, 58.564], [23.263, 58.496], [23.328, 58.447], [23.259, 58.43], [23.202, 58.447], [23.142, 58.444]]], [[[23.046, 58.842], [23.022, 58.821], [22.961, 58.845], [22.884, 58.833], [22.867, 58.822], [22.885, 58.814], [22.886, 58.784], [22.848, 58.774], [22.807, 58.773], [22.781, 58.786], [22.826, 58.82], [22.812, 58.826], [22.776, 58.819], [22.743, 58.803], [22.721, 58.782], [22.672, 58.709], [22.624, 58.691], [22.525, 58.69], [22.474, 58.705], [22.472, 58.764], [22.448, 58.835], [22.386, 58.885], [22.336, 58.892], [22.277, 58.889], [22.237, 58.878], [22.171, 58.89], [22.056, 58.927], [22.057, 58.949], [22.376, 58.952], [22.468, 58.978], [22.576, 59.069], [22.697, 59.048], [22.701, 59.017], [22.72, 59.004], [22.801, 58.997], [22.852, 59.002], [22.93, 58.982], [22.953, 58.967], [23.046, 58.842]]], [[[20.943, 55.287], [21.043, 55.409], [21.086, 55.507], [21.096, 55.594], [21.092, 55.714], [21.125, 55.683], [21.135, 55.629], [21.103, 55.421], [21.047, 55.33], [20.985, 55.277], [20.943, 55.287]]]]}, "properties": {"id": "BALTIC_1940", "name": "Литва, Латвия и Эстония", "from": "1940-06-15", "until": null, "act": "ультиматумы 14-16.06.1940 и ввод войск 15-17.06.1940; аннексия 03-06.08.1940", "act_full": "ультиматум Литве 14.06.1940 и ввод войск 15.06.1940; ультиматумы Латвии и Эстонии 16.06.1940, ввод войск 17.06.1940; включение в СССР 03.08 (Литва), 05.08 (Латвия), 06.08.1940 (Эстония). Эстония и Латвия отнесены к советской сфере п. 1 секретного протокола 23.08.1939, Литва переведена в неё секретным протоколом к договору о дружбе и границе 28.09.1939", "source": "CShapes 2.0: срез 02.06.1940 минус срез 12.03.1940", "note": "до этой правки вся Прибалтика появлялась на карте одним скачком 28.06.1940 вместе с Бессарабией.", "approximate": false, "geometry_source": "разность срезов источника; дата у источника условная (02.06.1940), передатирована на день ввода войск", "pact": "Договор о ненападении между Германией и Советским Союзом от 23.08.1939 (пакт Молотова-Риббентропа) и секретный дополнительный протокол к нему: раздел сфер интересов по линии рек Нарев - Висла - Сан. Уточнён германо-советским договором о дружбе и границе от 28.09.1939 (линия Писса - Нарев - Западный Буг - Сан; Люблинское и часть Варшавского воеводства - Германии, Литва - в советскую сферу). Сама линия расписана 41 сегментом в ОТКРЫТОМ Дополнительном протоколе от 04.10.1939, разд. I - единственном документе пакета, официально опубликованном обеими сторонами («Ведомости Верховного Совета СССР» 1940 № 10 (73); RGBl. 1940 II Nr. 1, S. 4 ff.); по нему и построена наша западная граница 1939-1941 годов. Тексты: data/sources/treaties/molotov-ribbentrop-1939/"}}, {"type": "Feature", "geometry": {"type": "Polygon", "coordinates": [[[26.49, 55.677], [26.595, 55.667], [26.608, 55.616], [26.605, 55.59], [26.596, 55.568], [26.532, 55.516], [26.528, 55.492], [26.546, 55.471], [26.543, 55.46], [26.499, 55.428], [26.486, 55.391], [26.445, 55.338], [26.45, 55.327], [26.525, 55.308], [26.603, 55.317], [26.769, 55.3], [26.792, 55.29], [26.801, 55.273], [26.79, 55.257], [26.766, 55.247], [26.701, 55.237], [26.657, 55.215], [26.634, 55.192], [26.616, 55.135], [26.601, 55.121], [26.579, 55.119], [26.473, 55.146], [26.429, 55.128], [26.309, 55.145], [26.264, 55.14], [26.233, 55.112], [26.225, 55.055], [26.188, 55.009], [26.139, 54.969], [26.103, 54.957], [25.981, 54.943], [25.908, 54.948], [25.87, 54.939], [25.858, 54.933], [25.847, 54.906], [25.783, 54.87], [25.772, 54.851], [25.782, 54.822], [25.778, 54.805], [25.735, 54.789], [25.721, 54.767], [25.725, 54.716], [25.708, 54.663], [25.74, 54.608], [25.746, 54.588], [25.74, 54.569], [25.707, 54.542], [25.631, 54.508], [25.62, 54.488], [25.613, 54.422], [25.53, 54.346], [25.529, 54.321], [25.542, 54.308], [25.564, 54.303], [25.607, 54.305], [25.682, 54.326], [25.696, 54.321], [25.719, 54.282], [25.739, 54.283], [25.789, 54.236], [25.772, 54.218], [25.771, 54.172], [25.763, 54.156], [25.74, 54.146], [25.691, 54.148], [25.654, 54.129], [25.516, 54.145], [25.493, 54.158], [25.486, 54.175], [25.529, 54.196], [25.499, 54.212], [25.502, 54.222], [25.554, 54.231], [25.479, 54.293], [25.459, 54.299], [25.434, 54.292], [25.394, 54.257], [25.37, 54.248], [25.288, 54.245], [25.206, 54.257], [25.157, 54.176], [25.116, 54.149], [25.072, 54.132], [25.027, 54.128], [24.902, 54.15], [24.856, 54.147], [24.822, 54.135], [24.818, 54.11], [24.782, 54.093], [24.821, 54.02], [24.819, 53.993], [24.806, 53.975], [24.789, 53.97], [24.706, 53.964], [24.678, 53.992], [24.667, 53.994], [24.529, 53.958], [24.414, 53.898], [24.378, 53.887], [24.257, 53.894], [24.229, 53.932], [24.201, 53.952], [24.17, 53.959], [24.045, 53.931], [23.981, 53.93], [23.944, 53.941], [24.063, 54.052], [24.143, 54.052], [24.315, 54.117], [24.421, 54.175], [24.598, 54.225], [24.625, 54.244], [24.753, 54.399], [24.812, 54.508], [24.822, 54.566], [24.812, 54.583], [24.809, 54.649], [24.861, 54.699], [24.875, 54.805], [24.904, 54.862], [24.954, 54.919], [25.039, 54.987], [25.141, 55.009], [25.2, 55.015], [25.322, 55.009], [25.513, 55.034], [25.575, 55.045], [25.736, 55.102], [25.763, 55.122], [25.751, 55.162], [25.891, 55.212], [25.919, 55.23], [25.924, 55.295], [25.986, 55.37], [26.019, 55.376], [26.091, 55.37], [26.08, 55.397], [26.243, 55.519], [26.284, 55.58], [26.345, 55.621], [26.49, 55.677]]]}, "properties": {"id": "VILNIUS_1940", "name": "Виленский край", "from": "1940-06-15", "until": null, "act": "вместе с Литвой: ультиматум 14.06.1940, ввод войск 15.06.1940", "act_full": "17.09.1939 занят РККА, 10.10.1939 передан Литве по договору о взаимопомощи (город передан 28.10.1939) - то есть с 10.10.1939 край литовский, а не советский. Советским становится 15.06.1940 вместе с самой Литвой", "source": "CShapes 2.0 и Natural Earth admin-1: часть современной Литвы, которой нет в контуре источника на 02.06.1940", "note": "трёхнедельная советская оккупация Вильно 19.09-28.10.1939 в контур не входит (решение куратора: показ бинарный, на 01.10.1939 Вильнюс чёрный) - она записана фактом здесь и в попапе истории точки.", "approximate": true, "geometry_source": "послевоенный контур источника, пересечённый с современной Литвой (Natural Earth admin-1 (современная нарезка - приближение)), минус контур источника на 02.06.1940 - у источника Литва 1940 г. нарисована без Виленского края", "pact": "Договор о ненападении между Германией и Советским Союзом от 23.08.1939 (пакт Молотова-Риббентропа) и секретный дополнительный протокол к нему: раздел сфер интересов по линии рек Нарев - Висла - Сан. Уточнён германо-советским договором о дружбе и границе от 28.09.1939 (линия Писса - Нарев - Западный Буг - Сан; Люблинское и часть Варшавского воеводства - Германии, Литва - в советскую сферу). Сама линия расписана 41 сегментом в ОТКРЫТОМ Дополнительном протоколе от 04.10.1939, разд. I - единственном документе пакета, официально опубликованном обеими сторонами («Ведомости Верховного Совета СССР» 1940 № 10 (73); RGBl. 1940 II Nr. 1, S. 4 ff.); по нему и построена наша западная граница 1939-1941 годов. Тексты: data/sources/treaties/molotov-ribbentrop-1939/"}}, {"type": "Feature", "geometry": {"type": "Polygon", "coordinates": [[[30.246, 45.874], [30.144, 45.821], [30.063, 45.8], [30.03, 45.831], [29.984, 45.843], [29.93, 45.818], [29.802, 45.735], [29.797, 45.715], [29.826, 45.687], [29.86, 45.676], [29.78, 45.629], [29.743, 45.624], [29.68, 45.696], [29.677, 45.74], [29.69, 45.769], [29.681, 45.804], [29.636, 45.821], [29.596, 45.683], [29.593, 45.557], [29.619, 45.488], [29.674, 45.466], [29.733, 45.471], [29.753, 45.449], [29.76, 45.322], [29.732, 45.226], [29.709, 45.213], [29.666, 45.211], [29.669, 45.295], [29.641, 45.346], [29.603, 45.377], [29.511, 45.411], [29.411, 45.436], [29.322, 45.439], [29.222, 45.426], [28.968, 45.321], [28.849, 45.302], [28.798, 45.238], [28.701, 45.22], [28.566, 45.245], [28.376, 45.301], [28.343, 45.316], [28.299, 45.363], [28.279, 45.429], [28.174, 45.472], [28.069, 45.583], [28.155, 45.626], [28.167, 45.668], [28.165, 45.719], [28.12, 45.922], [28.093, 45.992], [28.091, 46.076], [28.108, 46.102], [28.194, 46.33], [28.248, 46.427], [28.247, 46.608], [28.229, 46.672], [28.174, 46.74], [28.118, 46.847], [28.114, 46.896], [28.08, 46.981], [28.034, 47.016], [27.945, 47.043], [27.798, 47.152], [27.785, 47.203], [27.742, 47.263], [27.719, 47.286], [27.636, 47.306], [27.473, 47.486], [27.433, 47.565], [27.299, 47.659], [27.211, 47.846], [27.201, 47.902], [27.159, 47.986], [27.001, 48.156], [26.955, 48.186], [26.817, 48.247], [26.704, 48.264], [26.636, 48.265], [26.584, 48.231], [26.531, 48.208], [26.469, 48.217], [26.326, 48.179], [26.272, 48.076], [26.198, 48.003], [26.159, 47.985], [25.922, 47.975], [25.838, 47.963], [25.78, 47.937], [25.525, 47.935], [25.334, 47.917], [25.224, 47.876], [25.154, 47.79], [25.117, 47.759], [25.049, 47.733], [24.929, 47.713], [24.896, 47.716], [24.821, 47.808], [24.694, 47.849], [24.672, 47.866], [24.67, 47.895], [24.919, 48.06], [25.021, 48.142], [25.082, 48.264], [25.326, 48.325], [25.367, 48.366], [25.367, 48.427], [25.408, 48.529], [25.489, 48.631], [25.571, 48.672], [25.652, 48.651], [25.815, 48.631], [25.917, 48.631], [26.08, 48.55], [26.284, 48.509], [26.366, 48.509], [26.424, 48.477], [26.507, 48.517], [26.592, 48.502], [26.623, 48.512], [26.716, 48.568], [26.778, 48.589], [26.909, 48.558], [27.04, 48.573], [27.118, 48.563], [27.203, 48.568], [27.233, 48.609], [27.357, 48.599], [27.396, 48.568], [27.427, 48.507], [27.45, 48.492], [27.589, 48.451], [27.774, 48.425], [27.91, 48.346], [28.018, 48.315], [28.053, 48.271], [28.082, 48.26], [28.277, 48.25], [28.299, 48.239], [28.253, 48.189], [28.261, 48.168], [28.308, 48.137], [28.338, 48.137], [28.393, 48.085], [28.47, 48.096], [28.578, 48.054], [28.593, 48.029], [28.702, 47.935], [28.825, 47.899], [28.864, 47.863], [28.918, 47.832], [28.903, 47.775], [28.895, 47.702], [28.895, 47.629], [28.91, 47.556], [28.934, 47.52], [29.003, 47.483], [28.964, 47.436], [28.972, 47.415], [29.073, 47.373], [29.057, 47.253], [29.104, 47.2], [29.088, 47.158], [29.127, 47.143], [29.25, 47.143], [29.343, 47.066], [29.343, 47.037], [29.297, 46.995], [29.289, 46.958], [29.351, 46.921], [29.405, 46.94], [29.521, 46.845], [29.542, 46.798], [29.625, 46.826], [29.652, 46.792], [29.643, 46.759], [29.575, 46.706], [29.583, 46.665], [29.617, 46.665], [29.668, 46.681], [29.737, 46.662], [29.741, 46.63], [29.726, 46.604], [29.745, 46.585], [29.803, 46.585], [29.859, 46.547], [29.892, 46.508], [29.933, 46.498], [29.977, 46.508], [30.011, 46.464], [30.019, 46.428], [30.042, 46.415], [30.077, 46.46], [30.13, 46.412], [30.158, 46.439], [30.236, 46.428], [30.239, 46.346], [30.255, 46.29], [30.29, 46.252], [30.382, 46.196], [30.509, 46.096], [30.246, 45.874]]]}, "properties": {"id": "BESSARABIA_1940", "name": "Бессарабия, Северная Буковина и область Герца", "from": "1940-06-28", "until": null, "act": "ультиматум Румынии 26.06.1940, ввод войск 28.06.1940", "act_full": "ультиматум Румынии 26.06.1940 и ввод войск 28.06.1940; п. 3 секретного протокола 23.08.1939 объявлял заинтересованность СССР в Бессарабии (Северная Буковина и Герца в протоколе не названы)", "source": "CShapes 2.0: срез 28.06.1940 минус срез 02.06.1940", "note": "срез уже был в карте до этой правки; теперь на нём остались только Бессарабия и Буковина - Прибалтика уехала на 15.06.1940.", "approximate": false, "geometry_source": "разность срезов источника, контур не приближался", "pact": "Договор о ненападении между Германией и Советским Союзом от 23.08.1939 (пакт Молотова-Риббентропа) и секретный дополнительный протокол к нему: раздел сфер интересов по линии рек Нарев - Висла - Сан. Уточнён германо-советским договором о дружбе и границе от 28.09.1939 (линия Писса - Нарев - Западный Буг - Сан; Люблинское и часть Варшавского воеводства - Германии, Литва - в советскую сферу). Сама линия расписана 41 сегментом в ОТКРЫТОМ Дополнительном протоколе от 04.10.1939, разд. I - единственном документе пакета, официально опубликованном обеими сторонами («Ведомости Верховного Совета СССР» 1940 № 10 (73); RGBl. 1940 II Nr. 1, S. 4 ff.); по нему и построена наша западная граница 1939-1941 годов. Тексты: data/sources/treaties/molotov-ribbentrop-1939/"}}, {"type": "Feature", "geometry": {"type": "MultiPolygon", "coordinates": [[[[26.569, 55.702], [26.855, 55.743], [26.867, 55.744], [26.823, 55.706], [26.743, 55.683], [26.64, 55.696], [26.616, 55.688], [26.595, 55.667], [26.49, 55.677], [26.345, 55.621], [26.506, 55.683], [26.569, 55.702]]], [[[24.572, 47.949], [24.422, 47.958], [24.247, 47.904], [24.128, 47.912], [24.096, 47.932], [24.032, 47.956], [23.824, 47.967], [23.566, 48.0], [23.509, 47.986], [23.41, 48.001], [23.299, 48.045], [23.261, 48.09], [23.174, 48.108], [23.152, 48.106], [23.126, 48.089], [23.088, 48.013], [23.044, 47.993], [22.895, 47.954], [22.859, 47.994], [22.883, 48.04], [22.847, 48.083], [22.79, 48.117], [22.738, 48.114], [22.68, 48.095], [22.626, 48.1], [22.605, 48.116], [22.575, 48.187], [22.495, 48.25], [22.381, 48.245], [22.27, 48.36], [22.27, 48.402], [22.214, 48.418], [22.151, 48.411], [22.16, 48.578], [22.329, 48.687], [22.389, 48.8], [22.425, 48.889], [22.461, 48.949], [22.535, 48.995], [22.563, 49.083], [22.594, 49.092], [22.863, 49.003], [22.886, 49.004], [22.902, 48.983], [22.889, 48.959], [22.895, 48.929], [22.961, 48.884], [22.982, 48.859], [23.02, 48.855], [23.112, 48.87], [23.138, 48.852], [23.18, 48.79], [23.202, 48.777], [23.258, 48.772], [23.298, 48.781], [23.308, 48.75], [23.357, 48.771], [23.369, 48.76], [23.375, 48.74], [23.386, 48.734], [23.446, 48.727], [23.509, 48.73], [23.574, 48.716], [23.612, 48.704], [23.693, 48.645], [23.771, 48.645], [23.78, 48.638], [23.782, 48.603], [23.791, 48.594], [23.847, 48.563], [23.902, 48.543], [23.916, 48.521], [23.907, 48.485], [23.917, 48.474], [23.952, 48.473], [24.001, 48.5], [24.046, 48.505], [24.119, 48.533], [24.134, 48.531], [24.141, 48.475], [24.131, 48.426], [24.139, 48.384], [24.151, 48.369], [24.178, 48.355], [24.234, 48.351], [24.278, 48.361], [24.302, 48.387], [24.332, 48.375], [24.348, 48.338], [24.385, 48.335], [24.499, 48.263], [24.543, 48.209], [24.522, 48.171], [24.528, 48.146], [24.64, 48.057], [24.639, 48.048], [24.588, 47.996], [24.572, 47.949]]], [[[22.664, 54.351], [22.165, 54.335], [21.442, 54.326], [21.284, 54.33], [20.898, 54.356], [20.739, 54.358], [20.091, 54.419], [20.004, 54.419], [19.797, 54.438], [19.822, 54.466], [20.036, 54.564], [20.246, 54.612], [20.397, 54.675], [20.01, 54.72], [19.961, 54.693], [19.944, 54.659], [19.954, 54.64], [19.901, 54.628], [19.873, 54.641], [19.899, 54.689], [19.959, 54.764], [19.96, 54.799], [19.924, 54.861], [19.927, 54.899], [19.941, 54.928], [19.99, 54.957], [20.03, 54.946], [20.362, 54.942], [20.423, 54.948], [20.549, 54.996], [20.697, 55.078], [20.943, 55.287], [20.985, 55.277], [20.908, 55.228], [20.843, 55.149], [20.532, 54.964], [20.561, 54.939], [20.793, 54.94], [20.865, 54.902], [20.984, 54.892], [21.093, 54.896], [21.223, 54.932], [21.245, 54.955], [21.217, 55.019], [21.191, 55.149], [21.228, 55.2], [21.262, 55.202], [21.274, 55.227], [21.271, 55.248], [21.378, 55.278], [21.546, 55.2], [21.646, 55.178], [21.759, 55.122], [21.958, 55.067], [22.06, 55.029], [22.103, 55.029], [22.139, 55.053], [22.25, 55.064], [22.534, 55.062], [22.607, 55.039], [22.645, 54.964], [22.682, 54.958], [22.72, 54.963], [22.839, 54.899], [22.851, 54.882], [22.867, 54.812], [22.84, 54.778], [22.814, 54.772], [22.72, 54.693], [22.695, 54.529], [22.691, 54.494], [22.698, 54.465], [22.781, 54.37], [22.767, 54.36], [22.664, 54.351]]]]}, "properties": {"id": "WEST_1945", "name": "Закарпатье и Кёнигсберг", "from": "1945-06-29", "until": null, "act": "договор СССР - Чехословакия о Закарпатной Украине 29.06.1945", "act_full": "Закарпатье - договор с Чехословакией 29.06.1945; Кёнигсберг - решение Потсдамской конференции 02.08.1945. У источника оба куска стоят одной датой 08.05.1945, поэтому в карте они появляются вместе. Петсамо сюда не попало: контур источника отдаёт его СССР уже 12.03.1940 - см. срез 1940-03-12", "source": "CShapes 2.0: срез 08.05.1945 минус срез 28.06.1940 и минус приобретения 1939-1940 годов", "note": "срез заведён датой договора о Закарпатье; Кёнигсберг краснеет вместе с ним, хотя Потсдам на месяц позже - у источника отдельного контура нет.", "approximate": false, "geometry_source": "разность срезов источника, контур не приближался", "pact": "Договор о ненападении между Германией и Советским Союзом от 23.08.1939 (пакт Молотова-Риббентропа) и секретный дополнительный протокол к нему: раздел сфер интересов по линии рек Нарев - Висла - Сан. Уточнён германо-советским договором о дружбе и границе от 28.09.1939 (линия Писса - Нарев - Западный Буг - Сан; Люблинское и часть Варшавского воеводства - Германии, Литва - в советскую сферу). Сама линия расписана 41 сегментом в ОТКРЫТОМ Дополнительном протоколе от 04.10.1939, разд. I - единственном документе пакета, официально опубликованном обеими сторонами («Ведомости Верховного Совета СССР» 1940 № 10 (73); RGBl. 1940 II Nr. 1, S. 4 ff.); по нему и построена наша западная граница 1939-1941 годов. Тексты: data/sources/treaties/molotov-ribbentrop-1939/"}}]}