{"type": "FeatureCollection", "features": [{"type": "Feature", "geometry": {"type": "Polygon", "coordinates": [[[88.6420060309982, 51.55486614750209], [88.6428074687329, 51.56947241297612], [88.64502782707864, 51.58393115781642], [88.64864598941178, 51.59810487274482], [88.65362754535325, 51.61185875924801], [88.65992511802702, 51.625062011573064], [88.6674788146359, 51.63758906075], [88.67621679606938, 51.64932076881015], [88.6860559601265, 51.66014556184271], [88.69690273185573, 51.6699604911137], [88.70865395349564, 51.678672212155504], [88.72119786555236, 51.68619787251549], [88.73441516968349, 51.69246589972072], [88.74818016327997, 51.69741668196491], [88.76120038958314, 51.70070938980029], [88.7780089327701, 51.708577219626825], [88.79126695587259, 51.71299331512303], [88.80792992632905, 51.71683903496093], [88.83980757377556, 51.72040372350816], [88.85539417265151, 51.720922709711786], [88.87039369135373, 51.720032340796344], [88.88502219750937, 51.71764285657869], [88.89286807136168, 51.71777118878894], [88.91036924513163, 51.720701389028854], [88.92484444138233, 51.72149968237789], [88.94632771185812, 51.71992291380424], [88.95560730335991, 51.72172564476392], [88.9676621435397, 51.72659472182961], [88.98011381115825, 51.73026816048566], [88.98757457934272, 51.737524485505546], [88.99952148357461, 51.746986794841305], [89.0147407113632, 51.75663467167598], [89.04400973429581, 51.77175951583419], [89.06017001789253, 51.77866795543441], [89.08621336787454, 51.78687320621442], [89.10084335050648, 51.78982702173364], [89.11569445552233, 51.79131231555667], [89.13586901364658, 51.79079084975608], [89.14983153703105, 51.79748602383377], [89.16409379263621, 51.80261097341977], [89.17880038764906, 51.80627063273921], [89.19380119908033, 51.80842764447069], [89.20894310061823, 51.80905999012191], [89.22407152572171, 51.80816121479156], [89.2448027851044, 51.80419611671404], [89.26666163172953, 51.80271341537026], [89.28413958041436, 51.799756827531795], [89.3048124018518, 51.7937424111963], [89.31861969221272, 51.788046945702824], [89.33179212786942, 51.78100659534448], [89.3441991087507, 51.77269116272135], [89.35571762400048, 51.76318309242614], [89.36325709115899, 51.75561321259232], [89.38363462087987, 51.75616350271272], [89.39628895172795, 51.757852827542145], [89.41288947720152, 51.75852779672761], [89.43765570380164, 51.75840419989528], [89.45008692600751, 51.75763177545928], [89.46241121042708, 51.75583068173967], [89.47703996882396, 51.75245180702473], [89.48982881130944, 51.74819265439043], [89.51194910130849, 51.73802405288354], [89.54288074383749, 51.73221659462483], [89.55721174344308, 51.72803626852227], [89.56963033269146, 51.723110640807526], [89.59691023254923, 51.709736181130985], [89.6062376865424, 51.70758139787302], [89.63120552247821, 51.698281897000015], [89.63959222730668, 51.70236422763187], [89.65299821219322, 51.70737548359712], [89.66411513006268, 51.71425572935102], [89.67951423255155, 51.72158354698684], [89.68341470137389, 51.72853064922007], [89.6922118705775, 51.741024028387294], [89.70223439422186, 51.75255761971051], [89.71337827204961, 51.763011743106226], [89.72606252883682, 51.772735703029554], [89.74571225589479, 51.78491962798555], [89.75239637092328, 51.79189969123308], [89.76401094565439, 51.80178852752902], [89.77770740383782, 51.81133405853193], [89.78852550361515, 51.826217664361714], [89.80053124306956, 51.83885788999064], [89.80655035769571, 51.84753669688954], [89.81584039951011, 51.858563202389554], [89.82614619198709, 51.86864681988905], [89.83737251477979, 51.87769438182635], [89.84941564230346, 51.88562229327286], [89.86514880254408, 51.89388148488558], [89.87471800446176, 51.89758939144103], [89.86963319333101, 51.91059972442097], [89.8649894979381, 51.92748530758709], [89.86217794245823, 51.94332134790471], [89.861078120195, 51.95936738816848], [89.861702675928, 51.975438945258375], [89.86474032907009, 51.994788542684546], [89.86845672913897, 52.00935084599463], [89.87361169357766, 52.02346816333196], [89.87896421596648, 52.03504038932003], [89.88514509072294, 52.04592533145512], [89.89264319102571, 52.057011484580244], [89.90109962073092, 52.06738515779202], [89.91044705752547, 52.076963765448454], [89.92191718571755, 52.08669255148802], [89.93396364193761, 52.0951941250359], [89.94955945615668, 52.10387024965473], [89.96698639188027, 52.11132326439695], [89.98154480782206, 52.12569264466601], [89.98898772305755, 52.13191538347976], [89.98857402566875, 52.14039105199279], [89.98939484350825, 52.1557084762847], [89.9917757212592, 52.17086197918004], [89.99569176052441, 52.18569309057929], [90.00110200871778, 52.20004671184189], [90.01617902153262, 52.228813903683935], [90.02427987645225, 52.24040974662517], [90.0334370010958, 52.251190956771026], [90.05321955108683, 52.269256296145215], [90.0661251418807, 52.27825259390669], [90.07990197342767, 52.285847760769826], [90.10451145911857, 52.29613804677144], [90.11819229799521, 52.30016707969891], [90.132193941459, 52.302878617825534], [90.14638981561217, 52.3042481490324], [90.16888929536483, 52.304027031563], [90.17893501273849, 52.3055437273459], [90.19887756579311, 52.31527173360385], [90.21294221392958, 52.32002872934428], [90.22689506351117, 52.32327982772724], [90.24109443251882, 52.325184971272094], [90.25660845467254, 52.32565757507784], [90.26705577287741, 52.32690894217438], [90.28003782784339, 52.334449723915306], [90.29403205079207, 52.34073267803963], [90.30932251402797, 52.34592274111219], [90.32857070102376, 52.350291276008996], [90.35213224288033, 52.353139482041534], [90.36382167910897, 52.353467651020416], [90.37781665698094, 52.35267780362797], [90.40336312478141, 52.34893460887117], [90.41986684301098, 52.344451559719914], [90.4381727704917, 52.337137289780394], [90.45621155576414, 52.34209395165979], [90.47147522347676, 52.344636886426045], [90.48691965356613, 52.345593781655765], [90.5023804856733, 52.34495445402443], [90.51769318488823, 52.342725707287094], [90.53269479273818, 52.33893125987244], [90.5472256613995, 52.333611492470176], [90.5630289526773, 52.32577201829782], [90.57353142964962, 52.31937977130405], [90.59185560849838, 52.305490097540016], [90.60251602459515, 52.298459828272804], [90.6148659428083, 52.288271312419404], [90.62888101929856, 52.27430048555596], [90.63738515960115, 52.26361586186839], [90.6538990207415, 52.25734240530839], [90.67291352923266, 52.246719068182145], [90.6838440668687, 52.245962397133745], [90.71778576750539, 52.240311494193406], [90.7357359545966, 52.23876514647596], [90.74923748522066, 52.23618993031982], [90.76244660588297, 52.23238964101876], [90.77525240513494, 52.227396188008896], [90.80171422401115, 52.214955163886614], [90.81729238177283, 52.2051928708065], [90.82949391852566, 52.19858556185548], [90.8415590842872, 52.190448393274636], [90.85277894457012, 52.18118035828342], [90.86304789219646, 52.17086869246194], [90.87226927047426, 52.15961045458808], [90.88035628298076, 52.147511613069724], [90.88488323460099, 52.13906829487166], [90.89448115134256, 52.125130535334655], [90.9011092520258, 52.112809514000666], [90.90656057550231, 52.099924547654794], [90.91097897682046, 52.085706016693514], [90.91772468736974, 52.080087155644975], [90.93321555354012, 52.083773262836836], [90.95736318804036, 52.08719260539077], [90.97514372199886, 52.08849325143439], [90.9841397478655, 52.09100601533288], [91.00590095254837, 52.09468807073002], [91.03427409417688, 52.09685326248966], [91.04664246825905, 52.099668656497606], [91.06196934772724, 52.101529817808114], [91.07740635163842, 52.10180561828345], [91.09278993203328, 52.1004931359444], [91.10795710695015, 52.09760627593791], [91.12274718714386, 52.09317562321854], [91.16928716560491, 52.07553560291063], [91.18192593980235, 52.06881893854344], [91.19702370701265, 52.05861864865968], [91.20811553791182, 52.0550200430396], [91.22438907624573, 52.04759736488076], [91.24984386659915, 52.043472171507204], [91.26440403623619, 52.04542697390758], [91.29120239875894, 52.04616293304342], [91.31902749869303, 52.0441404301726], [91.34012359412897, 52.04438129212879], [91.37150091451115, 52.04845825210158], [91.38661075089645, 52.04877585745427], [91.41233085861215, 52.04758622735009], [91.41952026129465, 52.048399598915424], [91.43525993528982, 52.04852037687397], [91.45545228583335, 52.04679335849991], [91.47223787649445, 52.0522861180318], [91.48687837139083, 52.05527233269708], [91.5231022486236, 52.05897143712848], [91.53699255387438, 52.059277259204435], [91.57096621179052, 52.057195025596734], [91.58594053999815, 52.054819964461565], [91.60142024194049, 52.05063658544036], [91.62302082385777, 52.04668942788561], [91.6362673850071, 52.04258353451477], [91.64907812452333, 52.03727178379558], [91.66602144435076, 52.02851292146292], [91.68760662679763, 52.02788430706343], [91.70989908630989, 52.02579013636633], [91.72568173437057, 52.02325252601979], [91.73479639782295, 52.02268862038534], [91.75541877917998, 52.02988902536332], [91.77059812699795, 52.033539535687204], [91.78607469073093, 52.03559253369569], [91.80667471055881, 52.03656194221343], [91.8208895165695, 52.03567003156091], [91.83495565046354, 52.03343394305452], [91.84874629434428, 52.02987383689202], [91.86213711408666, 52.02502181039162], [91.87742912319149, 52.01747783266811], [91.89171001984269, 52.016870128087334], [91.90657329053937, 52.01473499611182], [91.92114861695873, 52.011124530196625], [91.95488130114825, 51.99782205998601], [91.968934075783, 51.99107896888337], [91.98221123737343, 51.982913999033144], [92.0012792222252, 51.96767961387553], [92.01209209203242, 51.95746637165377], [92.02184032104499, 51.94623247200733], [92.04064445157907, 51.91888831668601], [92.0483245674211, 51.906344902305456], [92.05473933015645, 51.89310963718842], [92.0598270664248, 51.879309768952346], [92.06353886127712, 51.86507797347028], [92.06583902845803, 51.8505510792871], [92.06670545350353, 51.835868752110876], [92.06627518503197, 51.82488375256509], [92.06980026161087, 51.81566425180764], [92.07354190666106, 51.80227378508216], [92.07888856645424, 51.77233818282091], [92.0765655, 51.7723594], [92.0721979, 51.7760822], [92.0698085, 51.7761492], [92.0655557, 51.7788062], [92.0565146, 51.7818565], [92.0459989, 51.784267], [92.042549, 51.786987], [92.036864, 51.7882018], [92.0249766, 51.7962202], [92.0191504, 51.7948236], [92.0152774, 51.7961867], [92.0102593, 51.7944914], [92.0058714, 51.7940679], [92.0014981, 51.7959645], [91.9943556, 51.7941023], [91.9919758, 51.7945937], [91.9898271, 51.7970033], [91.9850651, 51.7998275], [91.9747648, 51.7997627], [91.9730587, 51.8015218], [91.966671, 51.8040159], [91.9552044, 51.8111046], [91.9518247, 51.8090604], [91.9438853, 51.8088039], [91.9388598, 51.8073556], [91.9350934, 51.8125816], [91.9300958, 51.813906], [91.9283296, 51.8153498], [91.9267638, 51.8214758], [91.9140643, 51.8245595], [91.9084595, 51.8146041], [91.9050366, 51.8031123], [91.9050209, 51.8009008], [91.9087662, 51.7935071], [91.9142083, 51.7889201], [91.916829, 51.7835769], [91.9154115, 51.782061], [91.9153122, 51.7804284], [91.9187544, 51.7754362], [91.9192281, 51.772993], [91.925731, 51.7702187], [91.9273602, 51.7686448], [91.9264495, 51.766189], [91.9273765, 51.7621182], [91.9272911, 51.7569647], [91.9298707, 51.7532096], [91.9292176, 51.7515719], [91.9307239, 51.7493099], [91.9302793, 51.7476312], [91.928119, 51.7453787], [91.9302862, 51.7444108], [91.9302779, 51.7418344], [91.9256173, 51.7400313], [91.9238959, 51.7367951], [91.9246622, 51.7350837], [91.9227437, 51.7344549], [91.9207907, 51.7307014], [91.9141463, 51.7279375], [91.9080638, 51.7286837], [91.9054576, 51.7280247], [91.9047376, 51.7261193], [91.9011313, 51.7265687], [91.9001134, 51.7271607], [91.8995748, 51.7308696], [91.8987067, 51.731731], [91.8924538, 51.7322197], [91.8902436, 51.7336493], [91.8902988, 51.7347972], [91.8912925, 51.7353949], [91.9001726, 51.7368652], [91.9037245, 51.7394104], [91.9031591, 51.7413374], [91.9001093, 51.7430664], [91.8954216, 51.7401283], [91.8923055, 51.7401523], [91.8913266, 51.7408399], [91.8897558, 51.744958], [91.8911339, 51.7459239], [91.8958576, 51.7457776], [91.8967326, 51.7467575], [91.8950498, 51.7518359], [91.8919941, 51.7562592], [91.8835165, 51.7567394], [91.8782872, 51.7557018], [91.8734038, 51.7537015], [91.8710443, 51.7539902], [91.8699869, 51.7558866], [91.8721718, 51.7580266], [91.8721629, 51.7590785], [91.8682099, 51.7615095], [91.86403, 51.7626286], [91.8603924, 51.766622], [91.8582275, 51.7667193], [91.8573487, 51.7661922], [91.8566901, 51.7635021], [91.8541871, 51.7612341], [91.8457497, 51.7592589], [91.8401894, 51.7592831], [91.8387389, 51.7538149], [91.8358687, 51.7519422], [91.82608, 51.7483968], [91.8246862, 51.745463], [91.8192526, 51.7422682], [91.816472, 51.7381774], [91.8133195, 51.7370721], [91.8055116, 51.7374546], [91.8022311, 51.7366268], [91.7993246, 51.7308217], [91.8011911, 51.7275773], [91.7974367, 51.7257462], [91.7987084, 51.7198064], [91.798373, 51.7184668], [91.7975397, 51.716485], [91.7906677, 51.7084032], [91.7895277, 51.7058555], [91.7818098, 51.7051114], [91.7510394, 51.6877053], [91.7478535, 51.6743259], [91.7275288, 51.6526224], [91.795415, 51.6033777], [91.8198738, 51.5882909], [91.8558372, 51.5790817], [91.9072563, 51.5818768], [91.9115848, 51.5627942], [91.9177523, 51.5475173], [91.9236213, 51.4905085], [91.9417258, 51.4610167], [91.9045221, 51.4463876], [91.8889456, 51.4486716], [91.8780666, 51.4484177], [91.8671062, 51.4408754], [91.8718152, 51.4387242], [91.887176, 51.425712], [91.8921163, 51.422695], [91.896089, 51.4180261], [91.895107, 51.3930637], [91.8932672, 51.3856531], [91.89377, 51.3749456], [91.9049749, 51.3462242], [91.9250933, 51.3458697], [91.9315568, 51.3465118], [91.9359458, 51.3479689], [91.944753, 51.3451714], [91.9590526, 51.3449104], [91.9617439, 51.3367479], [91.9625528, 51.3309354], [91.9652728, 51.3270904], [91.9722919, 51.3233226], [91.9762454, 51.3221931], [91.9746166, 51.3190172], [91.9795541, 51.3013339], [91.9898617, 51.2983688], [92.0094865, 51.2874058], [92.0094931, 51.2775775], [92.0129247, 51.2724534], [92.0111005, 51.266543], [92.0150776, 51.2625578], [92.0166672, 51.2528703], [92.0195502, 51.2495462], [92.0502679, 51.2457825], [92.0777487, 51.2391006], [92.0881893, 51.2349413], [92.0974024, 51.2344472], [92.0908237, 51.2259603], [92.0896711, 51.2213134], [92.0844592, 51.2122132], [92.0819462, 51.2100931], [92.0808517, 51.206692], [92.0820888, 51.2046405], [92.0858759, 51.202115], [92.0897431, 51.1912549], [92.0987384, 51.1765959], [92.1361857, 51.1703977], [92.1463589, 51.1669511], [92.1543054, 51.1656776], [92.1854914, 51.1579285], [92.1766581, 51.1493041], [92.1760063, 51.1456493], [92.1723777, 51.1443139], [92.1743154, 51.1409351], [92.178646, 51.1392479], [92.1797424, 51.137087], [92.1837065, 51.1348602], [92.1902712, 51.1263602], [92.1911028, 51.1178203], [92.1902636, 51.1150876], [92.1877348, 51.1133953], [92.1881255, 51.1125176], [92.1969248, 51.1106245], [92.2097344, 51.1015435], [92.2212558, 51.0998387], [92.2205893, 51.0928345], [92.2159981, 51.0901198], [92.2145534, 51.0868464], [92.2182014, 51.0827913], [92.220158, 51.0819884], [92.2315441, 51.0819565], [92.2338843, 51.0806191], [92.2357264, 51.0784626], [92.2363983, 51.0749241], [92.2398924, 51.0717691], [92.2403446, 51.0649655], [92.2434074, 51.0610346], [92.2506642, 51.0589771], [92.2580896, 51.0591104], [92.2625318, 51.0583011], [92.271837, 51.0558902], [92.2778744, 51.0532437], [92.2902762, 51.0529343], [92.2502384, 51.0225777], [92.2511051, 51.0198517], [92.2781065, 51.0088205], [92.269056, 50.987516], [92.2128864, 50.9921323], [92.2039692, 50.988198], [92.2045526, 50.9769178], [92.1703841, 50.9540868], [92.1685507, 50.9497818], [92.1352156, 50.939385], [92.1112143, 50.9353937], [92.0728138, 50.9640546], [92.0527189, 50.9449528], [92.0445988, 50.8934995], [92.007121, 50.8906101], [91.9948367, 50.8797077], [91.9588164, 50.873927], [91.9386201, 50.8643349], [91.923629, 50.8589466], [91.9159252, 50.8511917], [91.9009342, 50.83147], [91.8807378, 50.826867], [91.8376384, 50.8272616], [91.81536, 50.8329165], [91.7758002, 50.8321275], [91.7426949, 50.8337055], [91.7169002, 50.825958], [91.7066663, 50.8289881], [91.6284391, 50.8236619], [91.6216209, 50.8257077], [91.5963936, 50.8223697], [91.5849731, 50.824954], [91.5689503, 50.8128928], [91.5120184, 50.8089077], [91.4804842, 50.8019059], [91.4646319, 50.8019059], [91.4627569, 50.7964114], [91.4746887, 50.7787386], [91.4920751, 50.7701153], [91.4971888, 50.7471479], [91.494632, 50.73388], [91.5024729, 50.7184499], [91.502132, 50.6953492], [91.4937797, 50.6769901], [91.4862797, 50.6675918], [91.4515069, 50.645655], [91.4044613, 50.6442499], [91.3891203, 50.638845], [91.3850294, 50.6307365], [91.3856719, 50.6168876], [91.3786946, 50.6090067], [91.3537158, 50.6029844], [91.3244111, 50.6002387], [91.3073864, 50.5994415], [91.3002696, 50.6027187], [91.2854776, 50.6031616], [91.2632898, 50.5944811], [91.2471024, 50.5946582], [91.2362178, 50.5964299], [91.2123554, 50.5920006], [91.1896093, 50.5980243], [91.1799806, 50.59767], [91.1678401, 50.5877481], [91.1575137, 50.5814573], [91.145094, 50.5768494], [91.128488, 50.5773811], [91.1241028, 50.5794436], [91.1111117, 50.5759505], [91.1023339, 50.5701528], [91.0879384, 50.5644287], [91.0800969, 50.5629418], [91.0713192, 50.5658412], [91.0434644, 50.560191], [91.0277814, 50.5530528], [91.0220466, 50.5485166], [91.0175992, 50.5398147], [91.0131518, 50.5389221], [91.0065977, 50.5419718], [90.9774555, 50.536393], [90.9668051, 50.5370625], [90.9603681, 50.5415999], [90.9565059, 50.5401123], [90.9329815, 50.5418974], [90.9247889, 50.5417486], [90.9194052, 50.5452443], [90.9040733, 50.5529785], [90.8540986, 50.5634622], [90.8235519, 50.5618266], [90.801549, 50.5655438], [90.7866657, 50.5619423], [90.7629189, 50.5650773], [90.7398875, 50.5586708], [90.7271558, 50.5527178], [90.7096319, 50.5506727], [90.699189, 50.5533995], [90.6889608, 50.5481276], [90.6706501, 50.5458096], [90.6477377, 50.5392186], [90.6474937, 50.5448393], [90.6416021, 50.5493754], [90.6417416, 50.5504525], [90.639887, 50.5520392], [90.6392701, 50.5544592], [90.6402307, 50.5553332], [90.6421458, 50.5551765], [90.6441897, 50.5566965], [90.6467608, 50.5592146], [90.6466015, 50.5611183], [90.6419207, 50.5617014], [90.6425807, 50.5640339], [90.6399406, 50.5640628], [90.6393033, 50.5653543], [90.6373005, 50.5654073], [90.6364508, 50.5666505], [90.6381881, 50.5682841], [90.643749, 50.5677492], [90.6448414, 50.5703175], [90.6414427, 50.5740756], [90.6424778, 50.575762], [90.6422917, 50.5775276], [90.6458877, 50.5799267], [90.6470181, 50.5823209], [90.650212, 50.5852496], [90.6476705, 50.5890115], [90.6480498, 50.5907502], [90.6510237, 50.5938084], [90.6481636, 50.5971217], [90.6508948, 50.5980896], [90.6510465, 50.6013207], [90.6506444, 50.6023223], [90.6474353, 50.6035068], [90.6485278, 50.6087356], [90.6457805, 50.6156261], [90.6461369, 50.617828], [90.6452341, 50.6185981], [90.6451203, 50.6198496], [90.6461824, 50.6203935], [90.6464934, 50.6216786], [90.6446348, 50.6240563], [90.6455145, 50.626008], [90.6506623, 50.6288509], [90.6512903, 50.6352979], [90.6473639, 50.6382514], [90.6437224, 50.6431299], [90.6403692, 50.6454583], [90.6394209, 50.6476087], [90.6340042, 50.651202], [90.6330493, 50.6570964], [90.6267298, 50.6612468], [90.6247573, 50.6634349], [90.6252313, 50.6653322], [90.6206339, 50.6692079], [90.6183049, 50.6745736], [90.6101798, 50.6810491], [90.6034886, 50.6838419], [90.599005, 50.6834958], [90.5949235, 50.6844331], [90.5920255, 50.6866346], [90.5826796, 50.6890548], [90.5815947, 50.6885358], [90.5825885, 50.6851088], [90.5780442, 50.6851857], [90.5737048, 50.6863681], [90.5732041, 50.6876995], [90.5760945, 50.6900786], [90.576618, 50.6925152], [90.5739855, 50.694327], [90.57328, 50.6993823], [90.5713151, 50.6998244], [90.5721224, 50.7036343], [90.5679274, 50.7038654], [90.5684332, 50.70597], [90.5503333, 50.7003289], [90.5413688, 50.69968], [90.5335995, 50.7007615], [90.5205317, 50.696297], [90.5184826, 50.694826], [90.5237418, 50.6864751], [90.5260641, 50.6756123], [90.5258592, 50.6729286], [90.5195072, 50.6650067], [90.5227856, 50.6459107], [90.5227856, 50.6414928], [90.509262, 50.6155402], [90.4984021, 50.612463], [90.4919135, 50.6078253], [90.4726526, 50.6069584], [90.4504547, 50.6040974], [90.4441027, 50.6055713], [90.4376141, 50.6058747], [90.4300327, 50.6115529], [90.4210169, 50.6122897], [90.4073567, 50.6163636], [90.4055126, 50.6149768], [90.4021658, 50.6163636], [90.39677, 50.6160169], [90.388369, 50.6108594], [90.3740257, 50.6125497], [90.3730012, 50.6151935], [90.3708156, 50.616667], [90.3683568, 50.6171003], [90.3575652, 50.61411], [90.3490275, 50.6154102], [90.3477298, 50.6172304], [90.3296983, 50.6190938], [90.3176773, 50.6151068], [90.313306, 50.6114228], [90.3034024, 50.607912], [90.3011484, 50.6051811], [90.290835, 50.6021033], [90.287898, 50.5990687], [90.2698665, 50.5967275], [90.2637877, 50.5941694], [90.2620119, 50.5913944], [90.2626949, 50.5813337], [90.2599629, 50.5779507], [90.2589383, 50.5710972], [90.2490521, 50.5682526], [90.2431547, 50.5653391], [90.2404244, 50.5619398], [90.2263362, 50.5571527], [90.2232251, 50.5538133], [90.2190202, 50.5516248], [90.2129813, 50.5514259], [90.207345, 50.549152], [90.2006798, 50.5433816], [90.1820709, 50.5397996], [90.175853, 50.5360183], [90.1703061, 50.5364163], [90.160286, 50.5413916], [90.1522788, 50.5413348], [90.1453005, 50.5367291], [90.1366223, 50.5374114], [90.1328647, 50.5358193], [90.1304491, 50.5314121], [90.1246339, 50.5275733], [90.1222183, 50.5216011], [90.1160452, 50.5123855], [90.108709, 50.510252], [90.0913079, 50.514718], [90.088445, 50.5126699], [90.0827639, 50.5051596], [90.0731463, 50.5063545], [90.0641103, 50.5047328], [90.0580714, 50.4997252], [90.0514509, 50.4987293], [90.0423254, 50.4942333], [90.0369574, 50.4933227], [90.0310527, 50.4954001], [90.0253269, 50.4959123], [90.0242533, 50.4967944], [90.0167829, 50.4933512], [90.011907, 50.4942618], [90.0056892, 50.4928105], [89.9995608, 50.4929243], [89.9937902, 50.4940911], [89.989138, 50.4969651], [89.9836359, 50.4966237], [89.9799678, 50.4976196], [89.975405, 50.5011195], [89.9745103, 50.5029404], [89.978089, 50.5051596], [89.9723184, 50.5135802], [89.9694108, 50.5152584], [89.9661453, 50.520236], [89.9580934, 50.5238763], [89.9556331, 50.5260661], [89.9516966, 50.5265211], [89.9483863, 50.5254689], [89.9487442, 50.5212598], [89.9437341, 50.5171357], [89.941408, 50.5164815], [89.9355927, 50.5198378], [89.9308511, 50.5209754], [89.9253042, 50.5191552], [89.9138973, 50.5185579], [89.9056665, 50.5067244], [89.9011037, 50.5065821], [89.896362, 50.5075494], [89.8823606, 50.507464], [89.8757402, 50.5129828], [89.8749797, 50.5184157], [89.8737719, 50.5196102], [89.8608888, 50.5214874], [89.854, 50.5214589], [89.8515722, 50.5232595], [89.8513499, 50.5248894], [89.8449041, 50.5277048], [89.8279377, 50.5319463], [89.8238628, 50.5323908], [89.8169725, 50.5308349], [89.8142312, 50.5310757], [89.8012656, 50.5358173], [89.7978575, 50.5377621], [89.7962275, 50.5399107], [89.7956348, 50.5425038], [89.7967461, 50.5444301], [89.7945975, 50.5459859], [89.7923007, 50.5491717], [89.7895594, 50.5506535], [89.7868181, 50.5504312], [89.773334, 50.546134], [89.7644433, 50.5475417], [89.7559971, 50.5510238], [89.7485882, 50.552061], [89.7467359, 50.5536169], [89.7458468, 50.5591364], [89.7407346, 50.5618036], [89.7390306, 50.5642485], [89.7355484, 50.5664156], [89.7291026, 50.5686382], [89.7227309, 50.57012], [89.7196192, 50.5700459], [89.7162111, 50.5684159], [89.7095431, 50.569305], [89.70339600338586, 50.568427885350964], [89.69884690792168, 50.5545580353214], [89.67958626282021, 50.548237079356284], [89.67006663058321, 50.55490355614082], [89.65781507936227, 50.56186849124495], [89.6449639478315, 50.56765288807638], [89.63162667482997, 50.57220568690861], [89.62087949830808, 50.574778460410734], [89.60171701838817, 50.58436595829891], [89.58233086257523, 50.592263743406455], [89.5622691228034, 50.59775820067167], [89.55400659155607, 50.60118995132913], [89.53992118134056, 50.60547716685151], [89.52548331563122, 50.60836282650463], [89.51083209780849, 50.60981912804816], [89.49610868681982, 50.609832040567014], [89.48145493716649, 50.60840143965395], [89.46701203218919, 50.60554110860819], [89.4529191238198, 50.60127860563852], [89.43277477248657, 50.59216727666913], [89.4267342591781, 50.599776457992455], [89.41299788014959, 50.606499399698315], [89.39988586201018, 50.61468819891979], [89.3876862956401, 50.62418304134924], [89.36518398935448, 50.646523973939594], [89.35238883854245, 50.66371705212685], [89.34218396333046, 50.66681117600399], [89.32949006793768, 50.671966263643846], [89.3173194880158, 50.67825807524164], [89.30577375860689, 50.685634120335955], [89.29294880183605, 50.69573686307116], [89.2824370917384, 50.70560093678266], [89.26117883253583, 50.72813972612496], [89.24335663597832, 50.73138195565419], [89.22257888898432, 50.73741855470557], [89.20734201805911, 50.743156708771586], [89.19281682746812, 50.75051248785829], [89.17738974890607, 50.7607050282532], [89.16580324822786, 50.77010161375351], [89.15520740482982, 50.780602609883175], [89.14570701999367, 50.79210415347506], [89.1373960600485, 50.804492485155336], [89.12755405457523, 50.82442626284378], [89.11766563717985, 50.83430679638753], [89.10310894427974, 50.84700282749873], [89.09108235584534, 50.86088764775084], [89.0743002843525, 50.86561885384244], [89.060118893484, 50.87133320067246], [89.04659287443157, 50.878461483442685], [89.0338627568863, 50.886929642271056], [89.01763312450326, 50.901126705349135], [88.9946213742635, 50.90932913767486], [88.98271513915223, 50.915267898343785], [88.96829260096939, 50.924187804881456], [88.95611343035364, 50.93366862180938], [88.94497297391472, 50.94435077125791], [88.93498918090664, 50.956121156284766], [88.9262677544435, 50.968855158285564], [88.91808603237078, 50.98412205638963], [88.91123244274979, 51.00144956784813], [88.89800542829045, 51.018498905717315], [88.88956121152202, 51.03263500347205], [88.88356050876497, 51.045468142049266], [88.8787972457223, 51.05881015106241], [88.87531391025139, 51.072542021048605], [88.87317378583423, 51.08633367748681], [88.85334343307642, 51.104467762058135], [88.84404633675238, 51.11551130353445], [88.83585388884366, 51.12739741331266], [88.82884196809708, 51.14001600181696], [88.82307551917455, 51.15325019522725], [88.81860795113317, 51.16697741796868], [88.81548064274867, 51.18107052801101], [88.81141346077617, 51.21282117338162], [88.80976902043281, 51.246761450250034], [88.81093343153276, 51.26388032402762], [88.81337866173075, 51.279407479779415], [88.81743532373234, 51.294593499991], [88.82868646252729, 51.322576524221766], [88.80980564007412, 51.32832768661153], [88.79655705784221, 51.33421366902599], [88.78393855735236, 51.34135111713627], [88.76791900645864, 51.35289206092139], [88.75622024495208, 51.36297389214373], [88.74562010922772, 51.374205163853034], [88.72875847625508, 51.39747117109806], [88.7161418390223, 51.40716536257247], [88.70520277211835, 51.417688519465315], [88.69133393239953, 51.429165118591065], [88.68167213958934, 51.43921909113917], [88.67298569383254, 51.45012680695962], [88.66534965860784, 51.46179400758155], [88.65883002032481, 51.474119871484895], [88.6534831181057, 51.48699788534436], [88.64935515693377, 51.500316764458915], [88.64648180837527, 51.5139614144129], [88.64263113591407, 51.54025127366121], [88.6420060309982, 51.55486614750209]]]}, "properties": {"part": "all", "source": "Хемчик: кожууны OSM Бай-Тайгинский, Барун-Хемчикский, Дзун-Хемчикский, Сут-Хольский и Ак-Довурак; внешняя кромка расширена на 0.15° наружу (30.09.2026), чтобы маска and_file покрывала край Тувы NE целиком - внутренние границы по OSM", "made": "30.09.2026"}}]}