{"type": "FeatureCollection", "features": [{"type": "Feature", "properties": {"name": "Аяно-Майский район", "source": "OpenStreetMap relation 1650458, admin_level=6 (Overpass, 28.08.2026)", "license": "ODbL", "note": "Современный район как приближение земли, которую держало Временное центральное тунгусское национальное управление: Нелькан и Аян - его сёла."}, "geometry": {"type": "MultiPolygon", "coordinates": [[[[136.8465975, 59.3954578], [136.9190827, 59.4081793], [136.9593643, 59.4255838], [136.9960293, 59.4343568], [137.0054082, 59.4351637], [137.0260736, 59.4254894], [137.0406181, 59.4249657], [137.0716695, 59.4350531], [137.0833969, 59.4455617], [137.0919876, 59.448633], [137.1032761, 59.4518979], [137.1209945, 59.44971], [137.1570968, 59.4236881], [137.1531486, 59.413863], [137.1471404, 59.4096701], [137.1410464, 59.3904022], [137.144823, 59.3862938], [137.1739196, 59.381704], [137.1680831, 59.3652195], [137.1812152, 59.3568648], [137.1759795, 59.3459701], [137.1592425, 59.3375232], [137.139244, 59.3174259], [137.1403598, 59.310768], [137.150917, 59.3046784], [137.1532344, 59.2787743], [137.1467971, 59.2626346], [137.1486854, 59.2483744], [137.1356391, 59.2334496], [137.1170997, 59.2276535], [137.118473, 59.2240085], [137.1134948, 59.2132469], [137.1294593, 59.207733], [137.1562814, 59.2101056], [137.1759367, 59.2071837], [137.2003555, 59.2156191], [137.23001, 59.2148284], [137.2351169, 59.2114017], [137.2326707, 59.2088754], [137.2350311, 59.1950982], [137.2739982, 59.1870974], [137.2861862, 59.1949223], [137.2996187, 59.1885482], [137.3236942, 59.1892516], [137.3286724, 59.1848331], [137.3217201, 59.1806338], [137.3226642, 59.1777314], [137.330904, 59.1732234], [137.3365259, 59.1656574], [137.3523187, 59.1665593], [137.3621892, 59.1622038], [137.3717594, 59.167835], [137.4067783, 59.1705843], [137.4093532, 59.1660973], [137.4334287, 59.1575617], [137.4345445, 59.1452385], [137.4406814, 59.1424431], [137.4552726, 59.14044], [137.4742841, 59.1628637], [137.4735117, 59.1799082], [137.482953, 59.1827665], [137.4827814, 59.1876469], [137.4878883, 59.1908562], [137.5005483, 59.1891857], [137.5175428, 59.1945487], [137.5413608, 59.196241], [137.5426483, 59.203976], [137.5644922, 59.2170468], [137.5637626, 59.2204949], [137.5734186, 59.2252601], [137.5922155, 59.2273681], [137.6106691, 59.2172664], [137.6089954, 59.213137], [137.6146173, 59.2042616], [137.6253461, 59.2053602], [137.6328134, 59.1997351], [137.6455593, 59.1754445], [137.6429843, 59.1665813], [137.6510524, 59.1614118], [137.6642274, 59.1614998], [137.672038, 59.1566376], [137.6937961, 59.1547674], [137.6928949, 59.1463169], [137.7017784, 59.1419369], [137.7376985, 59.1516647], [137.7462816, 59.1507185], [137.7669239, 59.1383708], [137.7872657, 59.1407702], [137.8012991, 59.1510265], [137.8228855, 59.1601798], [137.8343439, 59.152721], [137.8491926, 59.1517307], [137.8724742, 59.1537552], [137.8797054, 59.1595638], [137.9085445, 59.1583427], [137.9310322, 59.1618958], [137.9395938, 59.1650195], [137.9454088, 59.17429], [137.9544425, 59.1798862], [137.9613304, 59.1916695], [137.9862642, 59.1877129], [138.0013275, 59.1903067], [137.9981088, 59.2014271], [138.0024004, 59.2095125], [138.0008983, 59.2139498], [137.9933023, 59.215663], [137.9948043, 59.2196384], [138.0363464, 59.2310566], [138.039565, 59.2348765], [138.0635118, 59.2387618], [138.0763435, 59.2367204], [138.0851841, 59.2403202], [138.1044101, 59.2376423], [138.1053972, 59.2328349], [138.1149244, 59.2275437], [138.1263399, 59.2142793], [138.1469392, 59.2048768], [138.1532478, 59.1967904], [138.1814003, 59.196175], [138.2121276, 59.1897132], [138.2197666, 59.1919772], [138.2283496, 59.2025038], [138.2405805, 59.198988], [138.2661151, 59.2040639], [138.2822084, 59.2005042], [138.2788181, 59.195208], [138.2850408, 59.1821509], [138.2771444, 59.1657674], [138.2891178, 59.1562196], [138.2868003, 59.1488919], [138.2916927, 59.1425972], [138.2907056, 59.1392513], [138.2694196, 59.1321622], [138.2635402, 59.1213056], [138.2690334, 59.1142568], [138.2628107, 59.109432], [138.2394647, 59.1040776], [138.2269764, 59.0956147], [138.2307529, 59.092198], [138.2288646, 59.0879433], [138.194189, 59.075992], [138.1944036, 59.0676986], [138.1903696, 59.0606168], [138.1641483, 59.0549458], [138.1704139, 59.0478613], [138.1705427, 59.0400027], [138.1630754, 59.0238383], [138.1461238, 59.0143172], [138.1510162, 58.9978533], [138.1417036, 58.9903149], [138.1508874, 58.9849861], [138.1520462, 58.9729326], [138.1432485, 58.9712736], [138.1271982, 58.9591267], [138.1280136, 58.9512921], [138.1168556, 58.9375218], [138.1077575, 58.9321406], [138.1028652, 58.9168339], [138.112607, 58.9095658], [138.1412744, 58.9030942], [138.1406307, 58.8944043], [138.1591701, 58.8863998], [138.1613588, 58.8694532], [138.1892108, 58.8555837], [138.1824302, 58.8514106], [138.1858635, 58.8435515], [138.1787824, 58.8367566], [138.1399869, 58.8176527], [138.1402015, 58.8095637], [138.1496429, 58.7999833], [138.1312751, 58.7916011], [138.1294727, 58.7865085], [138.1572818, 58.7711373], [138.1638908, 58.7599438], [138.1643629, 58.7456742], [138.1854343, 58.7333811], [138.1847477, 58.7138637], [138.1945753, 58.7042123], [138.1959056, 58.6906557], [138.2472753, 58.6740373], [138.3081293, 58.6668074], [138.3155965, 58.6630804], [138.3215618, 58.6510707], [138.3364534, 58.648637], [138.3359813, 58.6439031], [138.3451223, 58.6359299], [138.356409, 58.6327357], [138.3729314, 58.6220116], [138.3700132, 58.6153074], [138.3502292, 58.6021634], [138.3566236, 58.5920562], [138.3653354, 58.5861962], [138.3564519, 58.5812749], [138.3585119, 58.5769794], [138.3510017, 58.5645596], [138.3524179, 58.5599262], [138.3491134, 58.5535459], [138.3597993, 58.5372429], [138.3536195, 58.5314858], [138.3441782, 58.5318219], [138.3601856, 58.5252124], [138.3592414, 58.515845], [138.3619022, 58.5128639], [138.3769655, 58.514276], [138.3910417, 58.5029326], [138.4023714, 58.4994572], [138.414216, 58.5052644], [138.4263181, 58.5001523], [138.4657573, 58.4959589], [138.4795332, 58.4854621], [138.505454, 58.4804144], [138.5234355, 58.4694192], [138.5230493, 58.4616531], [138.5372543, 58.4533914], [138.5397863, 58.4474409], [138.5608577, 58.4391534], [138.5851907, 58.4384795], [138.5892677, 58.4363904], [138.5894823, 58.4302123], [138.607335, 58.4159649], [138.6315393, 58.403488], [138.637762, 58.3973042], [138.6562156, 58.3899271], [138.6726093, 58.3954825], [138.708229, 58.3926262], [138.7240219, 58.3956849], [138.7400722, 58.3908043], [138.7582683, 58.3897022], [138.769555, 58.3927387], [138.7844896, 58.403533], [138.8198089, 58.4053093], [138.8362455, 58.4004075], [138.8414383, 58.3862155], [138.86487, 58.3894547], [138.8786029, 58.3831109], [138.8962841, 58.3808386], [138.8988161, 58.373233], [138.9092445, 58.3653557], [138.9087295, 58.3610674], [138.9166688, 58.3643878], [138.9407873, 58.3507217], [138.9661502, 58.3509018], [138.9767503, 58.3479743], [138.9794969, 58.3340992], [138.9728879, 58.3304042], [138.9750766, 58.3241625], [138.9913415, 58.3258976], [139.0185499, 58.3192945], [139.0587616, 58.3266863], [139.1172552, 58.3175139], [139.1234779, 58.3243653], [139.1438627, 58.3284439], [139.1723156, 58.3275877], [139.1909837, 58.3217962], [139.1937303, 58.3127577], [139.2120552, 58.3040326], [139.2073345, 58.2981921], [139.2072486, 58.2915838], [139.2026567, 58.2887416], [139.2005109, 58.2773029], [139.213643, 58.2727895], [139.227848, 58.2764003], [139.2334699, 58.2645061], [139.2315816, 58.2604426], [139.2208957, 58.2566271], [139.2129564, 58.2495367], [139.2208099, 58.2426708], [139.21772, 58.2319854], [139.2295217, 58.2233534], [139.2159605, 58.2158496], [139.2126989, 58.2103563], [139.2314958, 58.2086154], [139.2357015, 58.2064449], [139.2373323, 58.1969473], [139.2584467, 58.1939618], [139.2885303, 58.2039124], [139.3122196, 58.1984851], [139.3383979, 58.2065353], [139.3499422, 58.2055631], [139.3704557, 58.1918808], [139.3786525, 58.195545], [139.3906688, 58.1952736], [139.4144868, 58.1780801], [139.4319105, 58.1788948], [139.4571876, 58.1722189], [139.4675731, 58.1659492], [139.5240068, 58.171472], [139.5322036, 58.165655], [139.5329761, 58.1595653], [139.5428896, 58.1490586], [139.5757198, 58.1378693], [139.5931434, 58.1268124], [139.5952034, 58.111853], [139.6037006, 58.1087243], [139.6259307, 58.1129638], [139.6325397, 58.10555], [139.6497488, 58.0977718], [139.6509504, 58.0864529], [139.6412515, 58.0787159], [139.66228, 58.0640768], [139.6524953, 58.050817], [139.6721506, 58.0449347], [139.6826648, 58.0378476], [139.6888876, 58.0309635], [139.6959042, 58.0111671], [139.6924495, 58.0065062], [139.6957326, 57.9988542], [139.6875572, 57.9916555], [139.6892309, 57.9823963], [139.6867847, 57.9749099], [139.7284984, 57.9529648], [139.7450637, 57.9565398], [139.7532606, 57.9523955], [139.7873783, 57.95424], [139.7964763, 57.9365655], [139.7886657, 57.926768], [139.7963047, 57.9233724], [139.8075056, 57.9053179], [139.8287057, 57.9029236], [139.8450565, 57.9115423], [139.8589181, 57.912135], [139.8647117, 57.9158964], [139.889903, 57.9154177], [139.9032926, 57.923851], [139.9209737, 57.9260843], [139.9236345, 57.9350391], [139.9327755, 57.9430806], [139.9303722, 57.9526688], [139.9403286, 57.9595452], [139.9366378, 57.9651455], [139.9400281, 57.9711774], [139.9372816, 57.9786874], [139.9687814, 57.9755243], [139.9994659, 57.976958], [140.0307941, 57.9700166], [140.0368452, 57.9731802], [140.0527668, 57.9734078], [140.0369739, 57.9847398], [140.0389909, 57.9921787], [140.032897, 57.996614], [140.0478744, 58.0021631], [140.0486898, 58.0101213], [140.054183, 58.016032], [140.0503635, 58.0260779], [140.0620365, 58.0361664], [140.0593328, 58.0401647], [140.0610923, 58.0427315], [140.0989866, 58.04046], [140.1267528, 58.0449575], [140.1338338, 58.0434129], [140.1586389, 58.0247144], [140.1846885, 58.0208053], [140.1865768, 58.0012989], [140.1825857, 57.9956133], [140.1914691, 57.9920422], [140.2029275, 57.9806443], [140.2310371, 57.9833975], [140.2740382, 58.0004576], [140.2894878, 58.0113263], [140.3094863, 58.0159638], [140.3289699, 58.0137361], [140.3388404, 58.0047327], [140.3661346, 57.9932706], [140.3645896, 57.9885846], [140.3698253, 57.9852176], [140.3625297, 57.9786192], [140.3651904, 57.9735672], [140.3922271, 57.9671942], [140.3896522, 57.9552191], [140.4024409, 57.9513025], [140.4129981, 57.9509837], [140.4398631, 57.9641439], [140.4422664, 57.9818958], [140.4488753, 57.9864916], [140.472393, 57.9894945], [140.4757403, 57.9954086], [140.4722213, 57.997592], [140.4729938, 58.0040505], [140.4901599, 57.997774], [140.4978847, 57.9981379], [140.5153083, 58.0133269], [140.5361652, 58.0182369], [140.5503702, 58.0172822], [140.55552, 58.0058241], [140.4943831, 57.8903338], [140.4899718, 57.8750994], [140.4952477, 57.8699579], [140.4930681, 57.8603168], [140.4952319, 57.8502508], [140.4885803, 57.8430468], [140.4799706, 57.8393941], [140.4623922, 57.8377868], [140.4415041, 57.8275992], [140.4274187, 57.8271146], [140.4077424, 57.8092252], [140.393527, 57.8012125], [140.3804818, 57.7961084], [140.3553448, 57.7922971], [140.3393524, 57.7843269], [140.3198495, 57.7652373], [140.3065009, 57.7470629], [140.2999566, 57.7484505], [140.2999133, 57.7569605], [140.2918453, 57.7636636], [140.2763548, 57.7670047], [140.254431, 57.7664177], [140.1977063, 57.7472409], [140.1579068, 57.7469516], [140.1117134, 57.741972], [140.0610399, 57.7276734], [140.0087607, 57.7057692], [139.9618986, 57.6775817], [139.9173121, 57.6407654], [139.8776055, 57.5991267], [139.8457226, 57.5585601], [139.821662, 57.5117365], [139.8115018, 57.5084026], [139.8011056, 57.4913047], [139.7933486, 57.4858554], [139.7877535, 57.483948], [139.7554694, 57.4907143], [139.7243153, 57.4922433], [139.6801233, 57.4829807], [139.645728, 57.4690197], [139.6098003, 57.4635711], [139.5900805, 57.4514234], [139.570232, 57.4334357], [139.5540133, 57.4093362], [139.5498097, 57.3936293], [139.5373542, 57.3759099], [139.516814, 57.3527706], [139.4935906, 57.33544], [139.4797471, 57.3351133], [139.4659896, 57.3305263], [139.4166106, 57.300841], [139.3978312, 57.3090278], [139.3802981, 57.3079324], [139.3545698, 57.3003525], [139.3087626, 57.277028], [139.28502, 57.2810745], [139.2197234, 57.2761244], [139.2007567, 57.2702335], [139.182971, 57.2708616], [139.1135507, 57.2358355], [139.0540236, 57.1936396], [139.0316358, 57.1603159], [139.0322292, 57.1501744], [139.0274441, 57.1372174], [139.0098381, 57.1443484], [139.0112671, 57.146417], [139.006201, 57.1493596], [139.0078533, 57.1515828], [139.0047435, 57.154309], [138.9955151, 57.1561682], [138.9741111, 57.153829], [138.953501, 57.1438944], [138.9385688, 57.1465443], [138.9270703, 57.1434126], [138.9232219, 57.1374029], [138.9260847, 57.1303989], [138.9327961, 57.1261449], [138.9327813, 57.1180747], [138.9199677, 57.1162306], [138.911215, 57.1108732], [138.908934, 57.1052269], [138.9111089, 57.1006171], [138.9254316, 57.0977933], [138.9303102, 57.0929572], [138.9220455, 57.0687026], [138.9285996, 57.0644332], [138.9141952, 57.0547623], [138.9060189, 57.0310192], [138.8929045, 57.0288381], [138.8728976, 57.0137696], [138.8254232, 57.0157567], [138.8227086, 57.0216676], [138.8280125, 57.0240544], [138.8222075, 57.0306003], [138.7955211, 57.030373], [138.7856651, 57.0271911], [138.7813218, 57.0190533], [138.7899667, 57.0132329], [138.7984445, 57.0123007], [138.7928066, 57.0088443], [138.7921801, 57.0039549], [138.7722176, 57.0110273], [138.7634056, 57.0108681], [138.7480366, 57.0003286], [138.7318748, 56.9951295], [138.7083533, 56.9774479], [138.6986858, 56.9790201], [138.6910524, 56.9863124], [138.6737198, 56.9849393], [138.6449667, 56.971213], [138.6267164, 56.9665463], [138.6101351, 56.9550357], [138.5832689, 56.9108721], [138.5760597, 56.8818895], [138.5708918, 56.8801775], [138.5672047, 56.8661165], [138.5650616, 56.8489989], [138.5708013, 56.8398268], [138.5669449, 56.8380117], [138.5677521, 56.8312167], [138.5555126, 56.8270354], [138.5572122, 56.8161022], [138.5656894, 56.8155859], [138.5733124, 56.8106524], [138.5742989, 56.797174], [138.5797247, 56.7932695], [138.5770342, 56.7879401], [138.5787382, 56.7846733], [138.5614715, 56.7792736], [138.5531338, 56.7854916], [138.5454268, 56.7999195], [138.5454914, 56.811407], [138.5528487, 56.818815], [138.5521728, 56.8260131], [138.5562092, 56.8299485], [138.5517812, 56.8414438], [138.5617299, 56.8463618], [138.5624309, 56.8658671], [138.5603335, 56.8603398], [138.5524566, 56.8576356], [138.5438233, 56.8630396], [138.5331181, 56.861435], [138.5333339, 56.8509799], [138.5060528, 56.8476043], [138.4914626, 56.8511687], [138.4645699, 56.8456449], [138.4554618, 56.8476515], [138.4457494, 56.8429064], [138.4532868, 56.8330467], [138.4532375, 56.828452], [138.459153, 56.8239878], [138.4465558, 56.8233743], [138.4569125, 56.8191011], [138.4658709, 56.825664], [138.469719, 56.8147737], [138.4532559, 56.8071575], [138.4192127, 56.7841929], [138.4222657, 56.7817], [138.4228569, 56.7726289], [138.4137231, 56.7723367], [138.4126564, 56.7659611], [138.4018226, 56.7577755], [138.3959223, 56.7470657], [138.3969223, 56.7395889], [138.3933888, 56.7330067], [138.3877886, 56.7309221], [138.3854885, 56.7261124], [138.3772214, 56.7256552], [138.3774547, 56.720607], [138.3614207, 56.7192534], [138.353987, 56.7126859], [138.3421567, 56.7194271], [138.3020629, 56.7044753], [138.2794066, 56.6871521], [138.2760015, 56.6794626], [138.2815418, 56.6760115], [138.2813155, 56.6702069], [138.2759051, 56.6663059], [138.2619332, 56.6671457], [138.2565517, 56.6642652], [138.2599064, 56.6604243], [138.2588319, 56.6570757], [138.2514122, 56.6545294], [138.2543958, 56.6515945], [138.2551417, 56.639572], [138.2609518, 56.6372188], [138.2576542, 56.6354053], [138.2615407, 56.6327928], [138.2622421, 56.6245116], [138.2721601, 56.6201297], [138.2607343, 56.6172611], [138.2592922, 56.6215538], [138.2513792, 56.6224286], [138.2438729, 56.6303614], [138.229489, 56.6283479], [138.2141067, 56.6163252], [138.2173607, 56.6117063], [138.2141807, 56.6076364], [138.2013128, 56.6104447], [138.1840077, 56.6075143], [138.1781284, 56.6100377], [138.1458477, 56.6047096], [138.1256261, 56.5937367], [138.1214333, 56.58356], [138.1126924, 56.5786871], [138.107912, 56.5506052], [138.1107948, 56.5252207], [138.1150634, 56.5191655], [138.1194917, 56.5185827], [138.1246294, 56.5069844], [138.130822, 56.5057331], [138.128702, 56.5044085], [138.134153, 56.4929443], [138.174716, 56.4716039], [138.1921532, 56.4713549], [138.2002079, 56.4666365], [138.2120848, 56.4672885], [138.2163173, 56.4630477], [138.2224408, 56.4624223], [138.2356014, 56.4641772], [138.2400576, 56.4696144], [138.2564485, 56.4675167], [138.2554644, 56.45914], [138.2307959, 56.4497946], [138.2281566, 56.4397914], [138.2308602, 56.4349651], [138.2266545, 56.4317736], [138.2297117, 56.4285199], [138.2263648, 56.4251839], [138.2301655, 56.4232302], [138.1990465, 56.4304018], [138.1863785, 56.4274517], [138.1861196, 56.4362715], [138.1791365, 56.4393366], [138.1800055, 56.445454], [138.1661734, 56.4509909], [138.1688878, 56.4575629], [138.1551361, 56.4591739], [138.1492567, 56.455362], [138.1574079, 56.444778], [138.1496859, 56.4429217], [138.1494565, 56.4398451], [138.1205141, 56.4370767], [138.104378, 56.4421715], [138.0862717, 56.4376995], [138.0739175, 56.4404034], [138.0648208, 56.4387138], [138.0543937, 56.4269778], [138.0613098, 56.4236366], [138.0583674, 56.4150231], [138.0689406, 56.397707], [138.0607223, 56.3963651], [138.0418852, 56.3786381], [138.027133, 56.3831259], [137.9954128, 56.3766338], [137.9868089, 56.3722378], [137.9669524, 56.3742368], [137.9544171, 56.370056], [137.9532903, 56.3669929], [137.9408395, 56.3644808], [137.9291211, 56.3671125], [137.9182665, 56.3648293], [137.9167641, 56.3571414], [137.9088674, 56.3548889], [137.8904916, 56.3323143], [137.8870922, 56.3192142], [137.8770131, 56.3170486], [137.8754594, 56.3130684], [137.8779902, 56.3112206], [137.8723967, 56.3027471], [137.8693619, 56.2821521], [137.8650786, 56.2756369], [137.8527492, 56.2699508], [137.8410189, 56.2581406], [137.8429675, 56.2443418], [137.8404982, 56.2363234], [137.8437525, 56.2338037], [137.8346872, 56.2282878], [137.7979029, 56.2264705], [137.7796801, 56.2173739], [137.7518914, 56.1765793], [137.7361293, 56.17468], [137.7273345, 56.162187], [137.7221927, 56.1603783], [137.7176705, 56.1446223], [137.7244303, 56.1356382], [137.6939692, 56.1315925], [137.6881266, 56.1230407], [137.6679155, 56.1289033], [137.6550758, 56.1269255], [137.6425633, 56.1185215], [137.6226318, 56.1208989], [137.5979032, 56.1144048], [137.5861967, 56.1160124], [137.5655141, 56.1061185], [137.5549382, 56.1077017], [137.5398011, 56.0910122], [137.5218236, 56.0848094], [137.5089303, 56.0724891], [137.4914735, 56.0667391], [137.4863683, 56.0612512], [137.481589, 56.0628582], [137.4639925, 56.0570969], [137.4540537, 56.0490599], [137.4361855, 56.0433875], [137.424682, 56.0324605], [137.4139609, 56.0068774], [137.4120728, 55.9797556], [137.4172594, 55.9734865], [137.4150243, 55.9701832], [137.4046511, 55.9711774], [137.3976878, 55.9669437], [137.3935901, 55.9573842], [137.3948706, 55.946723], [137.3902572, 55.9450763], [137.3702544, 55.9495709], [137.3622006, 55.9569342], [137.3515476, 55.9593012], [137.3549522, 55.965387], [137.3513691, 55.9692534], [137.3148663, 55.96929], [137.3027307, 55.9665242], [137.2803309, 55.9548402], [137.245352, 55.919676], [137.2229314, 55.909205], [137.1911914, 55.902063], [137.1824444, 55.892069], [137.1748711, 55.8953861], [137.1598567, 55.894137], [137.1269011, 55.8680254], [137.0930817, 55.8572799], [137.0850623, 55.8507945], [137.0792829, 55.8392636], [137.0641724, 55.8277693], [137.0549782, 55.8061184], [137.053289, 55.7874018], [137.0395618, 55.7893934], [137.025521, 55.7866836], [137.0043473, 55.7967269], [136.9806354, 55.7958238], [136.9474451, 55.7847143], [136.9369386, 55.778264], [136.9210986, 55.779565], [136.9001498, 55.7660107], [136.8928884, 55.7566284], [136.8916996, 55.7449471], [136.8789119, 55.7463577], [136.8688231, 55.7405521], [136.8622872, 55.7427967], [136.852289, 55.7400379], [136.8425869, 55.7251002], [136.8365794, 55.7241552], [136.8298974, 55.7156565], [136.8188326, 55.7096021], [136.8111296, 55.7083019], [136.8007066, 55.6978865], [136.7962762, 55.6829029], [136.7987304, 55.6777094], [136.793535, 55.670538], [136.7966797, 55.6624069], [136.7864359, 55.6590568], [136.7793215, 55.6621433], [136.770108, 55.6610547], [136.7588139, 55.649945], [136.7573508, 55.6440695], [136.7537097, 55.6522976], [136.7303156, 55.659173], [136.7228365, 55.6683292], [136.7156696, 55.6680977], [136.6990721, 55.660951], [136.6984981, 55.6563511], [136.6421986, 55.6335015], [136.6206121, 55.6183458], [136.6050218, 55.6182019], [136.6019225, 55.6138319], [136.5961772, 55.6138377], [136.5911293, 55.6196908], [136.5836203, 55.6218463], [136.552528, 55.6222143], [136.5552191, 55.6169461], [136.5516686, 55.6134926], [136.5516794, 55.6021751], [136.5480459, 55.5957386], [136.5502417, 55.5945464], [136.5440726, 55.593437], [136.5405394, 55.5876345], [136.541487, 55.5826322], [136.5281725, 55.5819834], [136.5198791, 55.578096], [136.4811985, 55.5851244], [136.4683078, 55.5794858], [136.4569715, 55.5821653], [136.4289766, 55.5690516], [136.4202657, 55.5681781], [136.4004487, 55.5464351], [136.3967486, 55.5370602], [136.3830568, 55.5410141], [136.3775367, 55.5394927], [136.3691604, 55.5308469], [136.349945, 55.5313995], [136.3284874, 55.5250355], [136.2913227, 55.522509], [136.2786626, 55.5127175], [136.2552738, 55.5047464], [136.2471199, 55.5031909], [136.220169, 55.5081489], [136.2037754, 55.5010033], [136.1902999, 55.500031], [136.1715889, 55.5088536], [136.1195755, 55.5198852], [136.1095762, 55.5264687], [136.1090612, 55.5224604], [136.0937404, 55.5166538], [136.0763168, 55.5140296], [136.0609531, 55.5156333], [136.0656309, 55.50392], [136.0477781, 55.4993261], [136.0274791, 55.4979648], [136.0082531, 55.5028749], [135.9883403, 55.5011005], [135.9728908, 55.4814314], [135.9620761, 55.4780995], [135.9557676, 55.4612901], [135.9452962, 55.4566912], [135.9124231, 55.4515077], [135.9019517, 55.4400431], [135.8910942, 55.4500231], [135.854702, 55.4557908], [135.856204, 55.4687105], [135.843544, 55.4720918], [135.8353471, 55.4784644], [135.817666, 55.473308], [135.8125162, 55.4653533], [135.7871532, 55.4620931], [135.7835912, 55.4641125], [135.7817459, 55.4737458], [135.761404, 55.4786346], [135.7597732, 55.4959228], [135.7401609, 55.505038], [135.7292175, 55.5031666], [135.7117704, 55.5120757], [135.6984472, 55.5124016], [135.6862163, 55.5082947], [135.6749296, 55.5111866], [135.6585359, 55.5063262], [135.6364774, 55.5094612], [135.6195259, 55.5068365], [135.6069088, 55.5104575], [135.6043767, 55.5192778], [135.61311, 55.5302701], [135.6102347, 55.5347025], [135.6116938, 55.5428982], [135.5966091, 55.5518326], [135.5776405, 55.5531678], [135.5497241, 55.5603888], [135.5435657, 55.5657643], [135.5443597, 55.5792786], [135.5502605, 55.5877682], [135.5383515, 55.5928853], [135.5426645, 55.598414], [135.5419349, 55.608463], [135.5670833, 55.6209085], [135.5793571, 55.6295829], [135.5750656, 55.6332774], [135.5890345, 55.639091], [135.5877471, 55.6451823], [135.582447, 55.6456182], [135.5777478, 55.6508246], [135.5856442, 55.6625305], [135.5838847, 55.6649874], [135.5769539, 55.6625063], [135.5591011, 55.6654111], [135.5391025, 55.6768101], [135.5330085, 55.67364], [135.5227088, 55.6752372], [135.4950499, 55.685339], [135.4859304, 55.6852786], [135.4773044, 55.677657], [135.4737854, 55.6793992], [135.4732489, 55.6874438], [135.4578852, 55.6879639], [135.4459977, 55.696829], [135.4350972, 55.6978448], [135.4111504, 55.6828592], [135.3872895, 55.6838874], [135.3745222, 55.6792298], [135.3734493, 55.6662098], [135.3638148, 55.6657741], [135.3593087, 55.6602792], [135.3464126, 55.6584151], [135.3149557, 55.6335924], [135.2942705, 55.6340284], [135.2774047, 55.6417553], [135.2544021, 55.6366204], [135.2361202, 55.6410045], [135.2226448, 55.6405685], [135.2064657, 55.6368626], [135.1955223, 55.6274387], [135.1884412, 55.6316059], [135.1885271, 55.6383402], [135.1746654, 55.6511273], [135.159645, 55.6524349], [135.1333808, 55.6649754], [135.1163864, 55.6602066], [135.113039, 55.6640797], [135.1020956, 55.6655079], [135.0969457, 55.6640555], [135.0871181, 55.6524349], [135.0492668, 55.649965], [135.0381088, 55.6437897], [135.0368428, 55.6404959], [135.0405764, 55.6368626], [135.0178098, 55.636802], [135.0087333, 55.6343554], [135.0079179, 55.6308669], [134.9972534, 55.6306368], [134.9775552, 55.6391153], [134.969058, 55.6357241], [134.962964, 55.639091], [134.9507331, 55.6393333], [134.9455404, 55.6442257], [134.9197483, 55.6372017], [134.9083328, 55.6410529], [134.8826265, 55.6298858], [134.8727989, 55.6300069], [134.8634433, 55.6251854], [134.8594522, 55.6191031], [134.878292, 55.5937705], [134.8753309, 55.5895508], [134.857521, 55.5884837], [134.8523712, 55.5833296], [134.8279953, 55.5902056], [134.8122668, 55.5881805], [134.8091984, 55.5917698], [134.7975683, 55.5923397], [134.7757888, 55.6010447], [134.7449541, 55.6066206], [134.7451686, 55.5926307], [134.7404909, 55.5896963], [134.7432375, 55.5808676], [134.7384739, 55.5779929], [134.7417998, 55.5681788], [134.7399115, 55.5645024], [134.748044, 55.5603524], [134.7516274, 55.5521725], [134.7402549, 55.5521604], [134.715836, 55.5368154], [134.6919751, 55.5368518], [134.6862674, 55.5309744], [134.6750021, 55.537811], [134.6757745, 55.5415506], [134.6680069, 55.5485189], [134.6680927, 55.5555102], [134.6732854, 55.5588112], [134.6412277, 55.5609713], [134.634962, 55.5646116], [134.6329021, 55.5720126], [134.6130323, 55.5795091], [134.6117019, 55.5844333], [134.6003723, 55.5862524], [134.5950937, 55.6042934], [134.5892572, 55.6089478], [134.5880127, 55.6270995], [134.5560836, 55.6226654], [134.5203781, 55.6299584], [134.5106792, 55.6380979], [134.4919252, 55.644153], [134.4793939, 55.6527981], [134.4595241, 55.6564056], [134.4239902, 55.6704454], [134.4039058, 55.6745838], [134.3945503, 55.6795202], [134.3861818, 55.689246], [134.3678999, 55.6955834], [134.3703031, 55.7011943], [134.3803024, 55.7066835], [134.370861, 55.7156532], [134.3283748, 55.7286084], [134.308505, 55.7273518], [134.3015956, 55.7358093], [134.2900085, 55.7424291], [134.2722845, 55.7452313], [134.2622423, 55.7521875], [134.2442178, 55.7456661], [134.2352056, 55.7387569], [134.2028904, 55.7336105], [134.1799736, 55.7351569], [134.1659832, 55.7430572], [134.1491174, 55.7441442], [134.1363716, 55.7367516], [134.139204, 55.7285601], [134.0914392, 55.7072397], [134.0628147, 55.7096092], [134.0598321, 55.7190979], [134.0392327, 55.7199076], [134.0320444, 55.7258776], [134.0349626, 55.7330306], [134.0050506, 55.7477192], [133.975439, 55.7411245], [133.9623069, 55.7416319], [133.9584016, 55.735012], [133.9418792, 55.7321849], [133.9329958, 55.725225], [133.9232969, 55.7065868], [133.9182758, 55.7039269], [133.9018821, 55.7069012], [133.9036417, 55.7124863], [133.8886213, 55.7235815], [133.8584947, 55.7236782], [133.8435602, 55.7299859], [133.8419294, 55.7343354], [133.8452768, 55.7389502], [133.8095283, 55.7376214], [133.7955379, 55.7172245], [133.8092279, 55.7116884], [133.8165664, 55.6974458], [133.8287973, 55.6908184], [133.8275098, 55.6767617], [133.8342905, 55.6731923], [133.829484, 55.6659315], [133.7700462, 55.6576041], [133.7517643, 55.658052], [133.7535667, 55.6511273], [133.7479448, 55.6478583], [133.7368297, 55.6456788], [133.7221956, 55.6492628], [133.7084198, 55.6452913], [133.6911249, 55.6450491], [133.6610412, 55.6340284], [133.6352062, 55.6388246], [133.6079979, 55.6371775], [133.5713052, 55.6448796], [133.5656833, 55.6542508], [133.5533237, 55.6606181], [133.5353422, 55.6607634], [133.4997224, 55.6728898], [133.4612273, 55.6648544], [133.4095573, 55.6772941], [133.3964252, 55.6748742], [133.396511, 55.6661614], [133.3758258, 55.6663067], [133.3622645, 55.6595287], [133.3505916, 55.6629179], [133.3467292, 55.6714377], [133.3299922, 55.6651932], [133.3055305, 55.6718734], [133.2896518, 55.6606908], [133.2437324, 55.6632083], [133.2354068, 55.6545898], [133.2103442, 55.6469865], [133.2089709, 55.6419975], [133.2168674, 55.6375408], [133.201847, 55.6325022], [133.1854534, 55.6382675], [133.1718921, 55.6340526], [133.1341481, 55.6395997], [133.1163597, 55.6246523], [133.1142139, 55.6169947], [133.1036996, 55.6128018], [133.1043863, 55.6069358], [133.1106948, 55.6030085], [133.1007385, 55.5974562], [133.101468, 55.5918062], [133.0790233, 55.5880957], [133.0697965, 55.5743417], [133.0485963, 55.5744388], [133.0346489, 55.5693921], [133.0130195, 55.5789754], [133.009243, 55.5833418], [132.991991, 55.5870285], [132.9797172, 55.5863736], [132.9586029, 55.5921215], [132.936716, 55.5919275], [132.9218673, 55.5990565], [132.9059887, 55.5971895], [132.8861618, 55.6044389], [132.8575372, 55.6044873], [132.8492975, 55.6078327], [132.8431177, 55.5949829], [132.8273677, 55.5905451], [132.8029489, 55.5894538], [132.7955675, 55.5843605], [132.7935504, 55.577908], [132.7870273, 55.5768649], [132.7774572, 55.5817166], [132.7661705, 55.5799215], [132.7485751, 55.5895508], [132.7322673, 55.5816923], [132.7112388, 55.5819834], [132.6782798, 55.5908362], [132.6753616, 55.5970683], [132.6581081, 55.6046187], [132.6660199, 55.6139584], [132.6650361, 55.6225529], [132.6615065, 55.6264057], [132.6418406, 55.6342483], [132.6268071, 55.6456383], [132.6269975, 55.6511047], [132.6093704, 55.6550153], [132.5914994, 55.666979], [132.5708976, 55.6695435], [132.56441, 55.6734199], [132.5657021, 55.6818281], [132.5598159, 55.6900285], [132.5618951, 55.7024582], [132.5581523, 55.709942], [132.5378339, 55.717072], [132.5014381, 55.7106818], [132.4919777, 55.7203485], [132.467173, 55.7222415], [132.4574699, 55.7328638], [132.4433978, 55.7418237], [132.4247426, 55.7406805], [132.4151135, 55.7463014], [132.3866143, 55.738646], [132.3205733, 55.7417589], [132.3062215, 55.7328689], [132.2718814, 55.7381305], [132.2636189, 55.7426918], [132.2580662, 55.7405795], [132.255619, 55.7339838], [132.2369395, 55.7311476], [132.2356021, 55.7188133], [132.224945, 55.7186181], [132.2209552, 55.713668], [132.2209822, 55.7076015], [132.2002903, 55.7070131], [132.1949107, 55.7107808], [132.1741185, 55.7050764], [132.1650973, 55.7120293], [132.1597168, 55.7106218], [132.1584011, 55.7034601], [132.1689888, 55.6976565], [132.1667943, 55.6926584], [132.1513923, 55.6857405], [132.1557174, 55.6793258], [132.1073122, 55.6887086], [132.1023006, 55.6945443], [132.0898086, 55.6963462], [132.0832941, 55.7018621], [132.0730606, 55.6975994], [132.044689, 55.7010422], [132.0385666, 55.6954259], [132.0304928, 55.6944957], [132.007675, 55.7017173], [132.0014002, 55.7073658], [131.9711239, 55.7136328], [131.9670462, 55.7098663], [131.9414868, 55.7047137], [131.9445158, 55.6973865], [131.9318598, 55.6858564], [131.9321548, 55.6757406], [131.941094, 55.6672611], [131.9400548, 55.6590206], [131.9261376, 55.6585804], [131.9102569, 55.6671048], [131.8971559, 55.6691989], [131.8774692, 55.6632999], [131.8661972, 55.6645152], [131.8384387, 55.6501764], [131.8274372, 55.6478143], [131.8011725, 55.655493], [131.7952645, 55.6655578], [131.7981096, 55.6670984], [131.7955906, 55.6701289], [131.7989813, 55.6763544], [131.7974752, 55.6803131], [131.7901141, 55.6848214], [131.7776225, 55.6867698], [131.7763914, 55.6916734], [131.7701694, 55.6959762], [131.7591196, 55.6975333], [131.7429195, 55.6917127], [131.72483, 55.6949698], [131.7177071, 55.6924522], [131.7167365, 55.6890845], [131.7094794, 55.6952503], [131.6908822, 55.6957785], [131.6661673, 55.7007774], [131.6526635, 55.7081455], [131.6376745, 55.7091821], [131.6159897, 55.7014411], [131.6053051, 55.6864473], [131.5943304, 55.6844205], [131.5915861, 55.6779382], [131.5941615, 55.6707489], [131.5798314, 55.6608245], [131.5781922, 55.6550917], [131.5665041, 55.6548611], [131.5563658, 55.6622671], [131.5464334, 55.6631872], [131.5247154, 55.6754679], [131.5264167, 55.6822704], [131.5224941, 55.6883561], [131.4932736, 55.6971939], [131.4619774, 55.6933667], [131.4434503, 55.6866024], [131.4558222, 55.6741077], [131.4285263, 55.6665653], [131.424769, 55.6619427], [131.3896897, 55.6575775], [131.3707565, 55.666209], [131.3707152, 55.662048], [131.3639082, 55.6573042], [131.348323, 55.6569496], [131.3352452, 55.6510162], [131.3299329, 55.6553978], [131.3153048, 55.6587664], [131.3154874, 55.663638], [131.2989406, 55.6738184], [131.2674236, 55.6745832], [131.2644141, 55.6807624], [131.2558115, 55.6866876], [131.2267976, 55.694649], [131.2157164, 55.6941361], [131.208651, 55.684573], [131.1931193, 55.6759339], [131.1872276, 55.6646245], [131.1567852, 55.6542246], [131.1425416, 55.6437137], [131.1312654, 55.647061], [131.1267903, 55.6517758], [131.0943598, 55.6548307], [131.0864083, 55.6615057], [131.073999, 55.6634996], [131.0687263, 55.6632319], [131.062517, 55.6571537], [131.0527836, 55.6580304], [131.0522571, 55.6640435], [131.0432794, 55.6693654], [131.0343863, 55.670286], [131.0148431, 55.6870757], [131.0024242, 55.6932238], [130.9717754, 55.6990703], [130.9748759, 55.7041924], [130.952768, 55.7121765], [130.9556716, 55.7207146], [130.9624957, 55.7240329], [130.9594857, 55.7307155], [130.9438336, 55.7362668], [130.946568, 55.7414137], [130.9432033, 55.7534978], [130.9492512, 55.7663687], [130.9582517, 55.7752318], [130.9533582, 55.7867898], [130.964553, 55.8000077], [130.9633973, 55.8101422], [130.9578153, 55.8160859], [130.9407897, 55.8192722], [130.9314671, 55.8316349], [130.8919434, 55.8425744], [130.8977234, 55.8519289], [130.8884691, 55.8614354], [130.8937196, 55.8688093], [130.8857706, 55.8819287], [130.8897561, 55.8902716], [130.8854107, 55.8963132], [130.8863412, 55.9015199], [130.8700735, 55.9081134], [130.8599307, 55.9168149], [130.8673826, 55.923431], [130.878364, 55.926774], [130.8803612, 55.9329089], [130.8968252, 55.9485695], [130.9167603, 55.9515527], [130.9359397, 55.960754], [130.9355354, 55.9635961], [130.9196272, 55.9726473], [130.9273847, 55.9826008], [130.9004514, 56.0004459], [130.895199, 56.0144222], [130.9023571, 56.0256102], [130.9306536, 56.0373558], [130.9452724, 56.0672565], [130.9530616, 56.0710294], [130.9641552, 56.0687538], [130.9782314, 56.0868238], [130.9754634, 56.1023004], [130.9800601, 56.1071479], [130.9781184, 56.1169354], [130.9713864, 56.1212757], [130.9706883, 56.1357298], [130.9780513, 56.1398379], [130.977223, 56.1436182], [130.9914422, 56.1588268], [130.9912868, 56.1675847], [131.002069, 56.1722251], [131.0062638, 56.1787668], [131.0151642, 56.1796588], [131.0205169, 56.1855121], [131.043097, 56.191435], [131.0527065, 56.1970605], [131.0551312, 56.2029999], [131.0784057, 56.2065209], [131.0737068, 56.210058], [131.081777, 56.2127919], [131.0836727, 56.2186534], [131.0912734, 56.2175042], [131.0938487, 56.2209698], [131.0884134, 56.223215], [131.1207949, 56.2462325], [131.1122913, 56.248745], [131.1151051, 56.2595296], [131.1238212, 56.2570839], [131.1220832, 56.2656708], [131.1317084, 56.2682082], [131.1247299, 56.2695609], [131.1228604, 56.2730072], [131.1343269, 56.2766898], [131.1344216, 56.2832796], [131.1389386, 56.2848105], [131.1332069, 56.2877738], [131.1404007, 56.2907782], [131.1359487, 56.2950505], [131.139749, 56.2983115], [131.1366169, 56.3002683], [131.1372926, 56.3043381], [131.1319649, 56.3043529], [131.1335789, 56.3088147], [131.1249734, 56.3143467], [131.1376691, 56.3285819], [131.1271, 56.3266199], [131.1243326, 56.3324553], [131.1295238, 56.3338264], [131.1297264, 56.3368198], [131.1152416, 56.3381504], [131.1269855, 56.341671], [131.1282005, 56.3508096], [131.1173671, 56.3509461], [131.114121, 56.3481081], [131.1174184, 56.3557062], [131.1070029, 56.3538326], [131.1116214, 56.3621267], [131.100859, 56.3636321], [131.1141353, 56.3700572], [131.1006533, 56.3792693], [131.113602, 56.3826504], [131.1130758, 56.3846563], [131.100469, 56.3821186], [131.0973772, 56.3840436], [131.1040529, 56.3890123], [131.0993016, 56.394573], [131.1110934, 56.3967282], [131.1011074, 56.3999831], [131.1115089, 56.4031652], [131.104096, 56.405371], [131.1036288, 56.4099364], [131.1238433, 56.413723], [131.1180013, 56.4173469], [131.1200725, 56.4191367], [131.1349376, 56.4185901], [131.1326537, 56.4241695], [131.1471277, 56.424323], [131.1484038, 56.420199], [131.1543297, 56.4199667], [131.1495576, 56.4257665], [131.1531851, 56.4312919], [131.1427231, 56.4349518], [131.1675709, 56.4355443], [131.1688185, 56.438081], [131.1637495, 56.4425636], [131.1666969, 56.4474131], [131.1591143, 56.4544349], [131.163736, 56.4554702], [131.1685986, 56.4509217], [131.1847962, 56.4543357], [131.1885562, 56.4575443], [131.1770902, 56.4626038], [131.1858134, 56.461326], [131.1912166, 56.4652988], [131.1854383, 56.4693441], [131.1765828, 56.4687145], [131.1921341, 56.4732971], [131.1880869, 56.4772173], [131.1894442, 56.4797571], [131.201195, 56.4783332], [131.2062844, 56.4897899], [131.2254761, 56.4957283], [131.2247437, 56.5020107], [131.2141044, 56.509478], [131.2221156, 56.5208445], [131.2408346, 56.5165358], [131.2660935, 56.5189638], [131.2732971, 56.5157307], [131.2843801, 56.5179068], [131.2888129, 56.5220837], [131.299437, 56.5212709], [131.3011903, 56.5176357], [131.3167909, 56.5209545], [131.3233776, 56.5196035], [131.3248948, 56.5139388], [131.3300914, 56.5124868], [131.3380286, 56.5171819], [131.3378862, 56.5264557], [131.3405101, 56.5282578], [131.3466992, 56.5243364], [131.3503841, 56.5162374], [131.3603945, 56.509454], [131.3693828, 56.5076952], [131.3725409, 56.5016618], [131.3882093, 56.4997399], [131.3897216, 56.495145], [131.3741859, 56.4788125], [131.3872557, 56.4769933], [131.3818424, 56.4650003], [131.383884, 56.4604804], [131.4056985, 56.4615309], [131.4095811, 56.4579561], [131.4208456, 56.4581033], [131.4222841, 56.4530896], [131.4279609, 56.4532533], [131.4333344, 56.4589389], [131.4508721, 56.4643782], [131.4499912, 56.4738091], [131.4404921, 56.4811492], [131.4376014, 56.4879055], [131.4175398, 56.4908962], [131.4082785, 56.5092434], [131.4179376, 56.5163024], [131.4414319, 56.523877], [131.4322891, 56.5295617], [131.435655, 56.5384008], [131.45285, 56.5467435], [131.4868786, 56.5524685], [131.4900768, 56.5586249], [131.4858247, 56.5626676], [131.4920974, 56.5658779], [131.5188993, 56.5589266], [131.5370191, 56.5488105], [131.5695823, 56.5510792], [131.570279, 56.5469444], [131.5625593, 56.539669], [131.5706055, 56.5302778], [131.5912615, 56.5274641], [131.6232499, 56.5311867], [131.6337508, 56.5266058], [131.634186, 56.5180724], [131.6246903, 56.5017327], [131.6275446, 56.4925529], [131.6166198, 56.4851344], [131.6171734, 56.4789185], [131.6259347, 56.4720359], [131.6368162, 56.4714413], [131.6397795, 56.4633917], [131.6484131, 56.4554361], [131.6585626, 56.4570155], [131.6671714, 56.4639527], [131.6657506, 56.478928], [131.674678, 56.4847457], [131.6824748, 56.4961699], [131.6896319, 56.4952929], [131.6958507, 56.4891685], [131.6982919, 56.4771279], [131.6953256, 56.4730138], [131.7118112, 56.4695947], [131.731299, 56.4736108], [131.7537024, 56.4899834], [131.7109135, 56.5010214], [131.7008624, 56.5179041], [131.6859506, 56.5300871], [131.6438532, 56.538629], [131.6433168, 56.5410476], [131.6501143, 56.5455631], [131.6685612, 56.5471274], [131.6796296, 56.5519931], [131.699617, 56.5655214], [131.7032474, 56.5719672], [131.6974138, 56.5784584], [131.702583, 56.590701], [131.6945237, 56.5918518], [131.6942172, 56.5965908], [131.6976115, 56.6008349], [131.7092222, 56.6033977], [131.7091921, 56.6099243], [131.6949405, 56.6178538], [131.6706339, 56.6164339], [131.6645119, 56.6199489], [131.6924372, 56.6292399], [131.6851457, 56.6387182], [131.6709451, 56.6434422], [131.6719662, 56.647742], [131.715352, 56.6566688], [131.7200851, 56.6604727], [131.720395, 56.665584], [131.6812888, 56.672586], [131.6796746, 56.6811059], [131.6962585, 56.690348], [131.7222741, 56.6869328], [131.7367862, 56.7002772], [131.7642904, 56.70599], [131.7648085, 56.7125444], [131.7457658, 56.7164484], [131.7438394, 56.7187171], [131.7478786, 56.7220336], [131.7642595, 56.7214495], [131.7844094, 56.7147171], [131.8016904, 56.720038], [131.8029341, 56.7232214], [131.7990236, 56.7297807], [131.7781505, 56.738578], [131.7713034, 56.7452389], [131.7843832, 56.7492044], [131.8049276, 56.7379596], [131.81604, 56.7370549], [131.8273464, 56.740257], [131.8326991, 56.7447933], [131.8281765, 56.7612084], [131.8371121, 56.7695222], [131.824388, 56.7740149], [131.8096841, 56.7724502], [131.8025129, 56.7765476], [131.8050981, 56.7869007], [131.7938629, 56.8106347], [131.798109, 56.8155007], [131.8091515, 56.8144161], [131.8116437, 56.819534], [131.7951682, 56.8308851], [131.7737848, 56.8348529], [131.769481, 56.8419959], [131.7770259, 56.8577104], [131.7730091, 56.8652772], [131.7594083, 56.8681357], [131.734877, 56.85935], [131.7235664, 56.8608374], [131.7206873, 56.862724], [131.7201738, 56.8747815], [131.7096862, 56.8841384], [131.7123668, 56.8931879], [131.7016402, 56.897781], [131.6927928, 56.8933845], [131.6797193, 56.8925618], [131.6660434, 56.9009385], [131.6608807, 56.9076389], [131.6618926, 56.9303812], [131.6549736, 56.9347748], [131.635258, 56.9387052], [131.6421359, 56.9481071], [131.6401925, 56.9515633], [131.6297671, 56.9525313], [131.6205847, 56.9481802], [131.6073813, 56.9497848], [131.605968, 56.9557524], [131.6155707, 56.9698681], [131.6115839, 56.9765985], [131.5799081, 56.9800174], [131.5766028, 56.9899171], [131.5603917, 57.0032905], [131.5469231, 57.0086875], [131.5443933, 57.0241978], [131.5342698, 57.0263559], [131.5104327, 57.0189139], [131.5004258, 57.0244621], [131.4989, 57.0302472], [131.5050839, 57.0375562], [131.5076576, 57.0496404], [131.5007202, 57.0537877], [131.4858766, 57.0526581], [131.4764253, 57.0556631], [131.4720226, 57.0641024], [131.4690621, 57.0837622], [131.4718637, 57.0899069], [131.4853951, 57.0958179], [131.4963071, 57.0878577], [131.5065168, 57.0896297], [131.5088303, 57.0929054], [131.5070903, 57.1009443], [131.4978815, 57.1093693], [131.4612636, 57.1128597], [131.4547664, 57.1220721], [131.4381708, 57.1304706], [131.4301944, 57.1382653], [131.4087581, 57.1345393], [131.3896475, 57.1489953], [131.3432647, 57.1522297], [131.3315571, 57.1588456], [131.3363265, 57.184736], [131.3126707, 57.1922853], [131.2551856, 57.1948546], [131.2420047, 57.1892596], [131.2375853, 57.1842503], [131.2345501, 57.1796392], [131.23628, 57.1690069], [131.2326511, 57.1638811], [131.2072787, 57.1636511], [131.192289, 57.1678357], [131.1887848, 57.1752825], [131.1897119, 57.1843508], [131.2010498, 57.1965898], [131.201063, 57.2071171], [131.1937692, 57.2130219], [131.1717133, 57.218536], [131.1557562, 57.2296458], [131.1441007, 57.2315632], [131.1229505, 57.2517131], [131.1217023, 57.2594065], [131.1419931, 57.2700237], [131.1689794, 57.2668561], [131.1791905, 57.2596232], [131.1943203, 57.2587149], [131.2076791, 57.2622119], [131.2385324, 57.2814578], [131.2553285, 57.2987904], [131.2495681, 57.3100373], [131.2651075, 57.3150201], [131.2812716, 57.3364408], [131.291943, 57.3356269], [131.2981205, 57.3266424], [131.3021935, 57.3090994], [131.319267, 57.3021075], [131.3164735, 57.2948892], [131.3235693, 57.2865333], [131.347382, 57.2767614], [131.3706067, 57.275056], [131.4204555, 57.2795197], [131.4659566, 57.2767646], [131.4879118, 57.2641196], [131.5088213, 57.2681517], [131.5155457, 57.2772267], [131.509974, 57.286187], [131.5104718, 57.2942241], [131.5366682, 57.3035312], [131.5363942, 57.3099459], [131.5402507, 57.3124325], [131.5623092, 57.3152368], [131.5882301, 57.3062669], [131.6118335, 57.3103929], [131.6142368, 57.3135449], [131.6117, 57.3298376], [131.6276264, 57.3410678], [131.6204166, 57.3519971], [131.605997, 57.3564188], [131.60186, 57.368916], [131.6033363, 57.3802546], [131.6116619, 57.3871478], [131.6015191, 57.3928107], [131.6054821, 57.4056931], [131.6028642, 57.4165338], [131.60604, 57.4273713], [131.6221332, 57.4359882], [131.6320896, 57.4520615], [131.630929, 57.4550847], [131.6558647, 57.47302], [131.6843175, 57.480288], [131.7032861, 57.4966185], [131.7283058, 57.5005386], [131.7350223, 57.513657], [131.7497435, 57.5294964], [131.7806196, 57.5379426], [131.7766285, 57.5448293], [131.7523856, 57.5507313], [131.7421953, 57.5595656], [131.7249004, 57.566134], [131.7240493, 57.578063], [131.7336702, 57.5809686], [131.7606222, 57.5800176], [131.7761952, 57.590405], [131.7829789, 57.6000911], [131.8186773, 57.6097949], [131.8491163, 57.622865], [131.8868514, 57.6208873], [131.8963126, 57.6177907], [131.9507068, 57.6178669], [131.955274, 57.6215442], [131.9581639, 57.63071], [131.9758119, 57.641062], [131.9826653, 57.6519865], [131.9789314, 57.6565836], [131.9867525, 57.664212], [132.0309699, 57.6674696], [132.0633162, 57.6790448], [132.0712133, 57.6870752], [132.0603959, 57.6986546], [132.0618569, 57.7039201], [132.0471516, 57.7113062], [132.0525397, 57.7215382], [132.0509713, 57.7312513], [132.037204, 57.736518], [132.024765, 57.7510073], [132.0096159, 57.7544879], [131.9582462, 57.7901673], [131.9412517, 57.7912882], [131.9166183, 57.7979896], [131.9024133, 57.812189], [131.880784, 57.8153208], [131.8782067, 57.8336474], [131.8818998, 57.8432664], [131.8784666, 57.8479257], [131.8454217, 57.8475831], [131.8368387, 57.8555985], [131.82096, 57.862562], [131.8165397, 57.8683829], [131.762681, 57.8714641], [131.7539691, 57.8749787], [131.7480897, 57.8820526], [131.748476, 57.8888513], [131.7964663, 57.9018239], [131.7912747, 57.9137025], [131.7984724, 57.9348796], [131.7770576, 57.9410761], [131.7568445, 57.9397093], [131.7404937, 57.9462238], [131.6983079, 57.9502777], [131.7036295, 57.9567447], [131.6954413, 57.97183], [131.656447, 57.992809], [131.6385269, 57.9944988], [131.6216182, 58.0036412], [131.6146596, 58.0135427], [131.5818786, 58.0205325], [131.5696048, 58.0297137], [131.5713214, 58.0343261], [131.585105, 58.0391521], [131.6153097, 58.0411869], [131.632905, 58.0462975], [131.6361665, 58.0502038], [131.6320467, 58.0559943], [131.6334629, 58.0640314], [131.6439342, 58.080032], [131.6201314, 58.0884862], [131.581707, 58.0882564], [131.5656995, 58.1107421], [131.5282856, 58.1105121], [131.5226554, 58.1178829], [131.5258741, 58.1236851], [131.5231275, 58.1332702], [131.5178489, 58.1358077], [131.5096565, 58.1470467], [131.5097808, 58.1530216], [131.4968633, 58.1694124], [131.4809846, 58.1721057], [131.4708566, 58.1671037], [131.4601535, 58.1664927], [131.4448422, 58.1778401], [131.4446353, 58.1823114], [131.4582395, 58.19032], [131.4543772, 58.1975353], [131.4692688, 58.2032454], [131.501069, 58.1986208], [131.558361, 58.2115545], [131.5940666, 58.1984173], [131.607112, 58.1994445], [131.616389, 58.203734], [131.6681542, 58.2090206], [131.6740614, 58.2012672], [131.7054896, 58.2011909], [131.7212096, 58.195591], [131.7400028, 58.1809715], [131.7396226, 58.1740651], [131.7451223, 58.1631472], [131.7697737, 58.1518241], [131.8092392, 58.1657193], [131.8305725, 58.1661919], [131.8385995, 58.156879], [131.8630005, 58.1492775], [131.8761581, 58.1351542], [131.8996667, 58.1295996], [131.8866634, 58.1191295], [131.9058532, 58.1090073], [131.9181676, 58.1081762], [131.9359122, 58.1003409], [131.9654957, 58.0825606], [131.9790252, 58.0805044], [131.9818631, 58.0708221], [131.9786739, 58.0605353], [131.9848232, 58.0516905], [132.0009735, 58.0516559], [132.0215435, 58.057305], [132.0662743, 58.049308], [132.0907963, 58.0690125], [132.1372393, 58.0802304], [132.1452968, 58.0903385], [132.1413437, 58.0962537], [132.1442359, 58.1022036], [132.1227992, 58.1020779], [132.1089824, 58.1132379], [132.1022995, 58.1236079], [132.0374492, 58.1414369], [132.0293995, 58.1463025], [131.9984737, 58.1503933], [131.9841241, 58.1577766], [131.9986295, 58.1634818], [132.0041227, 58.1782612], [132.0344143, 58.1860106], [132.0144571, 58.2011796], [132.1114361, 58.2784304], [132.1289167, 58.2799538], [132.1393009, 58.2729346], [132.1584892, 58.2702167], [132.1827793, 58.2575302], [132.1984008, 58.2546284], [132.1948126, 58.2657842], [132.1968212, 58.2746257], [132.2108876, 58.2880106], [132.20642, 58.2945705], [132.206254, 58.3075274], [132.2285801, 58.3316686], [132.2234639, 58.3374254], [132.229004, 58.344619], [132.2225189, 58.3484022], [132.2210168, 58.358107], [132.2126426, 58.3628686], [132.2136086, 58.3663966], [132.2235488, 58.3717477], [132.22548, 58.3854506], [132.1968281, 58.3968207], [132.1911907, 58.4027685], [132.1902465, 58.4106824], [132.1795206, 58.4150458], [132.1811914, 58.4247298], [132.1708488, 58.4298529], [132.1705576, 58.4335722], [132.1870279, 58.4445888], [132.1881381, 58.4575573], [132.1846209, 58.4632459], [132.1850001, 58.4698521], [132.1748399, 58.4812221], [132.1759833, 58.4874861], [132.1697759, 58.495488], [132.1399293, 58.5148625], [132.1632753, 58.5239997], [132.1870797, 58.5289817], [132.209773, 58.5194085], [132.2221109, 58.51857], [132.2377279, 58.5265748], [132.2799307, 58.5274761], [132.3035001, 58.5371533], [132.3184776, 58.5148139], [132.3717802, 58.5194638], [132.4049153, 58.5122926], [132.4309175, 58.5108544], [132.4310078, 58.5189394], [132.4260833, 58.5241305], [132.4309158, 58.5313066], [132.4267959, 58.5381837], [132.3891731, 58.5437715], [132.3852539, 58.5506352], [132.3850822, 58.5596576], [132.4093723, 58.573914], [132.4294996, 58.5784784], [132.4322373, 58.5829158], [132.4479138, 58.5911329], [132.4493078, 58.5954398], [132.4436721, 58.60246], [132.4638301, 58.6102885], [132.4704837, 58.6179893], [132.5051107, 58.6309005], [132.5115247, 58.6416632], [132.5463543, 58.658676], [132.5360834, 58.6684642], [132.5195088, 58.6705231], [132.5019966, 58.6792776], [132.5037617, 58.6881078], [132.5186777, 58.6934879], [132.5200559, 58.7077975], [132.5367994, 58.7197673], [132.5448619, 58.7302028], [132.5419155, 58.7428055], [132.5271175, 58.7531606], [132.5329279, 58.7599282], [132.5318227, 58.7690594], [132.5363909, 58.7821028], [132.4891948, 58.7964706], [132.5201343, 58.807822], [132.5331401, 58.8193858], [132.5263907, 58.8277326], [132.5254801, 58.8340742], [132.5587606, 58.8488133], [132.5629234, 58.8574037], [132.5630604, 58.8686046], [132.5587177, 58.871613], [132.5608092, 58.8745051], [132.5715396, 58.8802342], [132.5740936, 58.8847394], [132.5915607, 58.8927325], [132.6052272, 58.8943533], [132.6355214, 58.891286], [132.6569151, 58.9093851], [132.6643047, 58.9105291], [132.6831605, 58.9017166], [132.6929033, 58.8899461], [132.7031162, 58.8865624], [132.7206924, 58.8881215], [132.7463501, 58.8801925], [132.7635661, 58.8801945], [132.7738962, 58.8837601], [132.7772449, 58.8870267], [132.7831175, 58.9118484], [132.7888826, 58.9205043], [132.7890741, 58.9282923], [132.8017519, 58.9403933], [132.8015284, 58.9475204], [132.8102891, 58.9508184], [132.8102649, 58.9566416], [132.8201454, 58.9641176], [132.8438731, 58.976578], [132.8457838, 58.9902177], [132.8341568, 58.9993532], [132.8082696, 58.997135], [132.7981649, 59.0021697], [132.7650017, 59.0073658], [132.7488188, 59.0187922], [132.7562285, 59.0253386], [132.7793319, 59.0298964], [132.7952631, 59.0403299], [132.8219193, 59.0454751], [132.8193011, 59.0576722], [132.8387857, 59.070715], [132.8273561, 59.0799128], [132.8269019, 59.0870953], [132.8168814, 59.0921563], [132.829158, 59.1062078], [132.8274835, 59.1180643], [132.8647055, 59.1179095], [132.8878581, 59.1116331], [132.8880129, 59.1072384], [132.8964738, 59.1011366], [132.9338927, 59.1050654], [132.9599675, 59.1211649], [132.9633704, 59.1417182], [133.0047317, 59.1667734], [133.017638, 59.1657231], [133.0222805, 59.1714981], [133.0418518, 59.1794], [133.0482712, 59.1906672], [133.0577872, 59.1984747], [133.0866117, 59.1987832], [133.095464, 59.2041419], [133.1010683, 59.2137901], [133.1082249, 59.2163899], [133.1590376, 59.2046417], [133.1728574, 59.2256916], [133.166419, 59.2376624], [133.1709727, 59.2414102], [133.1987199, 59.2474418], [133.2139951, 59.2414731], [133.2184211, 59.2366618], [133.2184234, 59.2299479], [133.2350561, 59.2333831], [133.2719168, 59.2266888], [133.2835811, 59.2275562], [133.3125372, 59.2374411], [133.3217128, 59.2442141], [133.3239975, 59.2496502], [133.3323931, 59.253501], [133.3633033, 59.2451597], [133.3689003, 59.2493889], [133.3734633, 59.270478], [133.3839698, 59.2765501], [133.3994763, 59.2800686], [133.4130216, 59.2758974], [133.4473657, 59.2912247], [133.4659735, 59.2961375], [133.4641085, 59.3040172], [133.4680658, 59.3064402], [133.5134422, 59.3123815], [133.5300284, 59.3050246], [133.5706161, 59.2957331], [133.5733782, 59.2935652], [133.5699937, 59.2745764], [133.5724884, 59.2510181], [133.6264557, 59.241618], [133.6294719, 59.2329166], [133.6341313, 59.2294604], [133.6606284, 59.2336569], [133.6772384, 59.2298464], [133.7183456, 59.2341193], [133.7441978, 59.2278365], [133.7544531, 59.2326877], [133.7712014, 59.2343915], [133.786084, 59.2429671], [133.813366, 59.2454168], [133.8690442, 59.2590413], [133.8846813, 59.2527009], [133.9067312, 59.255977], [133.9258105, 59.2505517], [133.9385693, 59.2505375], [133.9577655, 59.2562174], [133.993286, 59.2554276], [134.0011749, 59.2633298], [134.0317234, 59.2618636], [134.0449841, 59.2564963], [134.077362, 59.2560169], [134.0823369, 59.2521907], [134.0830602, 59.2468494], [134.1022413, 59.2406862], [134.1029722, 59.234929], [134.126841, 59.2399625], [134.1468708, 59.2364716], [134.1535475, 59.2290302], [134.1799079, 59.2318128], [134.1849751, 59.2283398], [134.1815809, 59.224873], [134.1837026, 59.2185301], [134.2135634, 59.2200209], [134.2376362, 59.2109566], [134.2551973, 59.2131374], [134.2641238, 59.2074854], [134.2819179, 59.20408], [134.3037046, 59.2034856], [134.3060546, 59.2075376], [134.3173791, 59.2089044], [134.3263866, 59.2044367], [134.365691, 59.2022581], [134.3877301, 59.1938691], [134.3768719, 59.1860951], [134.3857605, 59.1810287], [134.388919, 59.1726677], [134.4361014, 59.1674157], [134.4485335, 59.1569547], [134.4861613, 59.1389909], [134.4994087, 59.142191], [134.4991858, 59.1574567], [134.5234981, 59.1767525], [134.5279895, 59.1867485], [134.5474769, 59.1925204], [134.5648126, 59.2041037], [134.5791532, 59.2058141], [134.6008547, 59.2021995], [134.6228919, 59.2097499], [134.6548592, 59.198671], [134.6709961, 59.2064945], [134.7212813, 59.2187298], [134.7217902, 59.2131472], [134.7164152, 59.2047005], [134.7363524, 59.1875752], [134.7220992, 59.1750711], [134.7331114, 59.1578082], [134.7486451, 59.1530275], [134.7612215, 59.1572094], [134.7815771, 59.1573045], [134.8006985, 59.1508604], [134.80816, 59.140001], [134.8471317, 59.1369043], [134.874966, 59.1432901], [134.8937787, 59.1537022], [134.9201424, 59.1554436], [134.9305232, 59.1693496], [134.9526228, 59.1688249], [134.9688246, 59.1643746], [134.9886064, 59.1649124], [135.022309, 59.1460684], [135.0395423, 59.1509352], [135.0605873, 59.1502142], [135.1007642, 59.1283292], [135.1022505, 59.1229818], [135.1259406, 59.1239114], [135.1494663, 59.1133722], [135.1632213, 59.1152564], [135.1821473, 59.1116671], [135.1945276, 59.1153915], [135.1971411, 59.1279214], [135.2089953, 59.1388923], [135.2281016, 59.1437905], [135.2480687, 59.1390611], [135.2505301, 59.1594908], [135.2381129, 59.1702659], [135.2382982, 59.1802451], [135.2612444, 59.1841809], [135.28806, 59.1933315], [135.3016047, 59.1931226], [135.3039462, 59.1960278], [135.3023845, 59.2027439], [135.2649223, 59.225636], [135.2612925, 59.2359198], [135.281192, 59.2451449], [135.2962936, 59.2482597], [135.3001534, 59.2519931], [135.2993162, 59.2623309], [135.3051264, 59.2763361], [135.3188906, 59.2836689], [135.3293405, 59.2958795], [135.3624865, 59.3113545], [135.3610316, 59.3165859], [135.351438, 59.3215424], [135.3491395, 59.335389], [135.3555818, 59.3399455], [135.3741085, 59.3433982], [135.4186693, 59.3639342], [135.4187483, 59.3703492], [135.4358696, 59.3803913], [135.4378295, 59.3969575], [135.4456535, 59.3984754], [135.4563807, 59.4079424], [135.4763906, 59.4140486], [135.4941151, 59.430793], [135.5080421, 59.439284], [135.5518489, 59.450927], [135.5763437, 59.4643645], [135.594593, 59.4667776], [135.613066, 59.4878388], [135.6237863, 59.4928372], [135.6623222, 59.4982313], [135.6875359, 59.5086745], [135.7046391, 59.4994357], [135.7373197, 59.5032947], [135.7434538, 59.505933], [135.747567, 59.5122655], [135.7659942, 59.5208314], [135.7844313, 59.5193559], [135.8264478, 59.5261066], [135.8905564, 59.514043], [135.8926528, 59.5093359], [135.8895169, 59.496764], [135.9091633, 59.480115], [135.9321421, 59.4707456], [135.9475674, 59.4588135], [135.9658087, 59.4560067], [135.9719255, 59.4617829], [135.9683599, 59.4676903], [135.971292, 59.4722426], [135.986857, 59.4735516], [136.0068647, 59.4657807], [136.0182017, 59.4546438], [136.0381861, 59.4556746], [136.0597427, 59.4472443], [136.0709775, 59.4299254], [136.0816241, 59.427402], [136.0853608, 59.4203018], [136.1115328, 59.4257251], [136.1238236, 59.4131448], [136.1538179, 59.4212593], [136.2104595, 59.4209246], [136.2398621, 59.4120941], [136.2473705, 59.4134483], [136.2513989, 59.4215484], [136.2619382, 59.4259619], [136.2787904, 59.4183721], [136.3173511, 59.4238105], [136.3378198, 59.4136813], [136.340242, 59.410092], [136.3377148, 59.4021573], [136.3468253, 59.3939248], [136.3752765, 59.3917863], [136.3899522, 59.3832542], [136.4406645, 59.3928629], [136.4565552, 59.3885873], [136.4937167, 59.3861471], [136.5203436, 59.3730943], [136.55692, 59.368504], [136.5700483, 59.3704854], [136.5863975, 59.3815757], [136.605137, 59.3814058], [136.6246679, 59.3734405], [136.6304268, 59.3648728], [136.6540636, 59.3507321], [136.667466, 59.3464619], [136.717411, 59.3518735], [136.7363334, 59.348771], [136.757848, 59.3373723], [136.7685738, 59.3378807], [136.7915719, 59.3527766], [136.8011039, 59.3723708], [136.8130442, 59.3845041], [136.8465975, 59.3954578]]], [[[139.8497756, 57.4522566], [139.8543047, 57.4464009], [139.8422058, 57.4517128], [139.8457198, 57.4523899], [139.8497756, 57.4522566]]], [[[138.3848231, 56.6995875], [138.3898572, 56.7012285], [138.3911382, 56.7005992], [138.3863665, 56.6976452], [138.3848231, 56.6995875]]], [[[138.3971479, 56.6996167], [138.3991368, 56.7005977], [138.4000919, 56.70061], [138.4000358, 56.6999005], [138.3971479, 56.6996167]]], [[[138.3869449, 56.6943231], [138.3876528, 56.6960199], [138.3885742, 56.6957545], [138.3869449, 56.6943231]]], [[[138.4795981, 56.8145755], [138.4789618, 56.8133353], [138.4788532, 56.8145585], [138.4795981, 56.8145755]]], [[[136.5654143, 55.6132724], [136.5659257, 55.614132], [136.566283, 55.6137753], [136.5654143, 55.6132724]]], [[[138.3991705, 56.6986975], [138.3999908, 56.6993515], [138.400238, 56.699154], [138.3991705, 56.6986975]]], [[[138.0618247, 56.4237954], [138.0627421, 56.4240193], [138.0627367, 56.4238369], [138.0618247, 56.4237954]]], [[[138.1764932, 56.439384], [138.1768231, 56.4391127], [138.1764503, 56.4392246], [138.1764932, 56.439384]]], [[[138.8165001, 57.0069873], [138.8163024, 57.0071295], [138.8166327, 57.0070768], [138.8165001, 57.0069873]]], [[[138.8166003, 57.0063615], [138.816424, 57.0064695], [138.8164901, 57.0065146], [138.8166003, 57.0063615]]]]}}]}