{"type": "FeatureCollection", "features": [{"type": "Feature", "properties": {"id": "CUT_WEST_VIENNA", "from": "1945-09-01", "source": "OpenStreetMap (ODbL): Wiener Gemeindebezirke 1,3,5-9,11-19 (admin_level 9) минус Lainzer Tiergarten (relation 14038483); сектора - de.wikipedia.org/wiki/Besetztes_Nachkriegsösterreich", "districts": ["1", "3", "5", "6", "7", "8", "9", "11", "12", "13", "14", "15", "16", "17", "18", "19"]}, "geometry": {"type": "MultiPolygon", "coordinates": [[[[16.3480404, 48.1788681], [16.3476112, 48.1787726], [16.3472221, 48.178668], [16.3471021, 48.178618], [16.347125, 48.1785866], [16.346378, 48.1782092], [16.3460575, 48.1780712], [16.3456865, 48.1779528], [16.3453086, 48.1778014], [16.344431, 48.1773566], [16.3438801, 48.1770811], [16.3438725, 48.1770686], [16.3435147, 48.1769296], [16.3434494, 48.1769265], [16.3428472, 48.1767167], [16.3424956, 48.1766119], [16.3424767, 48.176634], [16.3423956, 48.1766183], [16.3421806, 48.176566], [16.3416042, 48.1764188], [16.3421141, 48.1752854], [16.3423286, 48.1753024], [16.3433876, 48.1753702], [16.3435967, 48.1749434], [16.3442952, 48.1749835], [16.3443841, 48.1742483], [16.3453377, 48.1742916], [16.3453518, 48.1741394], [16.3454687, 48.1739951], [16.3460737, 48.1742019], [16.3461245, 48.1741468], [16.3462899, 48.1739672], [16.346388, 48.173857], [16.3465301, 48.1736974], [16.3465638, 48.1736532], [16.3466773, 48.1735042], [16.3467704, 48.1733819], [16.3468537, 48.1732567], [16.3469476, 48.1731156], [16.3469782, 48.1730696], [16.3470095, 48.1730168], [16.3471161, 48.172843], [16.3471453, 48.1727955], [16.3472474, 48.1725934], [16.3473425, 48.172402], [16.3474322, 48.1722047], [16.3474909, 48.1720558], [16.3475408, 48.1718841], [16.3472766, 48.1718423], [16.3468413, 48.1717961], [16.3464688, 48.1717571], [16.3460278, 48.17173], [16.3455778, 48.1717077], [16.34561, 48.1713761], [16.345612, 48.1711851], [16.3455921, 48.1709881], [16.3455569, 48.1708073], [16.3454974, 48.170606], [16.3454268, 48.1704193], [16.3453311, 48.1702188], [16.3451124, 48.1698965], [16.3450017, 48.1699221], [16.344642, 48.1700018], [16.3445536, 48.1700237], [16.3444004, 48.1700572], [16.344339, 48.1700706], [16.3439797, 48.1701452], [16.3434472, 48.1702372], [16.3433386, 48.1702559], [16.3432804, 48.170266], [16.3431117, 48.1702951], [16.3430171, 48.1703117], [16.3429625, 48.1703194], [16.3424389, 48.1703933], [16.342365, 48.1704032], [16.341853, 48.1704728], [16.3411292, 48.1705632], [16.3408126, 48.1706028], [16.3398604, 48.170727], [16.3397652, 48.1707386], [16.3394466, 48.1707781], [16.3391076, 48.170822], [16.3383478, 48.1709207], [16.3378783, 48.1709788], [16.3377729, 48.1709919], [16.3376761, 48.1710041], [16.3376647, 48.1710056], [16.3376488, 48.1710075], [16.3375917, 48.1710143], [16.3374508, 48.1710281], [16.3373518, 48.1710406], [16.3372646, 48.1709121], [16.3359383, 48.1687395], [16.3336798, 48.1656635], [16.3322753, 48.1638112], [16.3319178, 48.1633398], [16.3332497, 48.1624152], [16.3336346, 48.162088], [16.3343831, 48.1612717], [16.3349424, 48.1604443], [16.3355861, 48.1593356], [16.3356024, 48.1593364], [16.3356406, 48.1592699], [16.3351252, 48.1588494], [16.3347785, 48.1586694], [16.3332641, 48.1575334], [16.3330811, 48.1574391], [16.332831, 48.1572619], [16.3326494, 48.1571527], [16.3318084, 48.1564876], [16.3313141, 48.1560772], [16.3305842, 48.1554092], [16.3302751, 48.1555752], [16.3297532, 48.1557958], [16.3289438, 48.1560566], [16.3280956, 48.1563042], [16.3280107, 48.156329], [16.3271121, 48.1565467], [16.3252646, 48.1568968], [16.3243315, 48.157103], [16.3235408, 48.15722], [16.3228406, 48.1572929], [16.3218323, 48.1573272], [16.3215959, 48.1570363], [16.3214696, 48.1568949], [16.3203892, 48.1567603], [16.319302, 48.156615], [16.3192552, 48.1566882], [16.3191032, 48.1566705], [16.3189497, 48.1572136], [16.3187791, 48.157864], [16.31868, 48.1578447], [16.3184217, 48.1577918], [16.3181661, 48.1577511], [16.3179251, 48.1577147], [16.3176004, 48.1576777], [16.3171774, 48.1576106], [16.3166125, 48.1574719], [16.3164112, 48.1574921], [16.3163386, 48.1575148], [16.3163922, 48.1576589], [16.3164095, 48.1577529], [16.3165182, 48.1581298], [16.3151687, 48.1583338], [16.3133479, 48.1585794], [16.313332, 48.1585599], [16.3132959, 48.1585656], [16.3131349, 48.1585911], [16.3115558, 48.1588095], [16.3113902, 48.1588323], [16.3108188, 48.1589233], [16.3102152, 48.1590693], [16.3090659, 48.1593583], [16.3087402, 48.1594401], [16.3086992, 48.1594504], [16.3085225, 48.1594824], [16.3083645, 48.1595081], [16.3082388, 48.159525], [16.307964, 48.1595619], [16.3078792, 48.1595733], [16.3072782, 48.159654], [16.3067516, 48.1597273], [16.3062504, 48.1598226], [16.3061482, 48.1598397], [16.3060141, 48.1598686], [16.3056211, 48.1599645], [16.3053925, 48.1600203], [16.305002, 48.1601178], [16.3046255, 48.1602117], [16.3045039, 48.1602535], [16.3043978, 48.1602913], [16.3042061, 48.1603836], [16.304118, 48.1604101], [16.3040856, 48.1604092], [16.3031965, 48.1599476], [16.3028337, 48.1597514], [16.3019002, 48.1591828], [16.3003653, 48.1582434], [16.2992019, 48.157494], [16.2974648, 48.1563389], [16.2970764, 48.1564418], [16.2928267, 48.1576057], [16.2928876, 48.1577151], [16.2929727, 48.1578658], [16.2931968, 48.1582416], [16.2933432, 48.1585099], [16.2936305, 48.1590377], [16.2936928, 48.1591363], [16.2939785, 48.1595704], [16.2940482, 48.1596763], [16.2941095, 48.1597722], [16.2941598, 48.1598406], [16.2944154, 48.1602037], [16.2947572, 48.1606331], [16.2953619, 48.161242], [16.2955709, 48.1614038], [16.295728, 48.1615301], [16.2957618, 48.1615573], [16.295834, 48.161618], [16.2959157, 48.1617066], [16.2959283, 48.1617865], [16.2958285, 48.1618324], [16.2957151, 48.1618696], [16.2954843, 48.1618903], [16.2946352, 48.1619662], [16.2933638, 48.1620872], [16.2922743, 48.1622055], [16.2919806, 48.162276], [16.2919086, 48.1622907], [16.2918547, 48.1623018], [16.2918322, 48.1623064], [16.291793, 48.1623174], [16.2917691, 48.1623241], [16.2917536, 48.1623284], [16.2916366, 48.1623584], [16.2915557, 48.1622354], [16.2915457, 48.1622171], [16.291532, 48.1621908], [16.2915246, 48.1621765], [16.2914878, 48.1621056], [16.2913996, 48.1618474], [16.2913841, 48.1617435], [16.2913699, 48.1616514], [16.2913692, 48.161618], [16.2913638, 48.1614714], [16.2913585, 48.161328], [16.29133, 48.1608251], [16.2913217, 48.1606792], [16.291287, 48.1602222], [16.2912865, 48.1602164], [16.2912779, 48.1601169], [16.291249, 48.1597386], [16.2912275, 48.1595234], [16.2912166, 48.1592741], [16.2912024, 48.1589511], [16.2911911, 48.1586681], [16.291175, 48.1581402], [16.291069, 48.1581049], [16.2871813, 48.1567834], [16.2873793, 48.1565015], [16.2872734, 48.1564647], [16.2870293, 48.1563799], [16.2868892, 48.1563474], [16.2867333, 48.1563506], [16.2868464, 48.1565798], [16.2866785, 48.1566754], [16.2866518, 48.1567032], [16.2865401, 48.1568198], [16.2864083, 48.1569909], [16.286005, 48.1577145], [16.285954, 48.1578163], [16.2855858, 48.1585502], [16.2854777, 48.1587124], [16.285192, 48.1591412], [16.2851055, 48.159271], [16.2848573, 48.1592183], [16.2847495, 48.1592003], [16.2840402, 48.1591138], [16.2825773, 48.1589285], [16.2821901, 48.1588821], [16.2812227, 48.158768], [16.2808371, 48.1589253], [16.2808019, 48.1589397], [16.2806765, 48.1589908], [16.2796957, 48.1593909], [16.2793382, 48.1596439], [16.2793623, 48.1596705], [16.2798631, 48.1602236], [16.2802843, 48.1606888], [16.2809796, 48.1614566], [16.2803171, 48.1619074], [16.2792513, 48.1626325], [16.2791393, 48.1627061], [16.2787439, 48.1622687], [16.2786035, 48.1621126], [16.2783754, 48.1618497], [16.2782992, 48.1617715], [16.2782246, 48.1616906], [16.2778768, 48.1613032], [16.2778566, 48.1612807], [16.2769744, 48.1602986], [16.2767392, 48.1600352], [16.2765608, 48.1598357], [16.2765119, 48.1597832], [16.2763632, 48.1596162], [16.2759359, 48.1591394], [16.2754319, 48.1585753], [16.2752615, 48.1583843], [16.2745678, 48.1576076], [16.2740997, 48.1570845], [16.2738836, 48.1568429], [16.2734774, 48.156389], [16.2732819, 48.1561683], [16.2730722, 48.155936], [16.2730087, 48.1558765], [16.2729953, 48.1558813], [16.2728983, 48.155917], [16.27287, 48.1559291], [16.2728473, 48.1559388], [16.27268, 48.1560104], [16.2691851, 48.1575055], [16.2684327, 48.1578263], [16.2673634, 48.1582815], [16.2669602, 48.158452], [16.2669499, 48.1584564], [16.2667586, 48.158543], [16.2665717, 48.1586115], [16.2663866, 48.1586827], [16.2663253, 48.1587065], [16.2662705, 48.1587262], [16.2662129, 48.158747], [16.2660437, 48.1588114], [16.2659843, 48.158834], [16.2659156, 48.1588575], [16.2656236, 48.1589577], [16.2652659, 48.1590919], [16.2635938, 48.1597096], [16.2632009, 48.1598544], [16.263045, 48.1599124], [16.262997, 48.1599303], [16.2629699, 48.159937], [16.262935, 48.1599411], [16.2619232, 48.160037], [16.2610803, 48.1601144], [16.2609722, 48.1601249], [16.260349, 48.1601888], [16.2588554, 48.1603464], [16.258133, 48.1602284], [16.2578562, 48.1601753], [16.2578406, 48.1602106], [16.256445660924143, 48.160019286648264], [16.2578241, 48.1602254], [16.2576839, 48.1604581], [16.2575502, 48.1606765], [16.2558503, 48.163427], [16.2558272, 48.1636739], [16.2558935, 48.1638736], [16.2566146, 48.1660689], [16.2566736, 48.1662543], [16.25678, 48.1665915], [16.2568429, 48.166762], [16.2568443, 48.1668083], [16.2568469, 48.1668978], [16.2568525, 48.166942], [16.2568563, 48.1670674], [16.256828, 48.1671684], [16.2568034, 48.1672496], [16.256798, 48.1672674], [16.2567549, 48.1674092], [16.2566678, 48.167696], [16.256613, 48.1678766], [16.2565718, 48.1680123], [16.2565186, 48.1681873], [16.2564742, 48.1683334], [16.2564779, 48.1683731], [16.256494, 48.1685487], [16.2565069, 48.1686896], [16.2565333, 48.1689786], [16.2565583, 48.1692518], [16.2565817, 48.1695065], [16.2566026, 48.1697464], [16.2566086, 48.1698412], [16.2566093, 48.169852], [16.2573482, 48.1714564], [16.2573766, 48.1715182], [16.2577749, 48.1723554], [16.2578867, 48.1725903], [16.2547007, 48.173013], [16.2530261, 48.1747935], [16.2526259, 48.1764584], [16.2526325, 48.1764747], [16.2527812, 48.1768423], [16.2531678, 48.1777767], [16.254076, 48.1796203], [16.2548826, 48.1802275], [16.2546731, 48.1809477], [16.2545631, 48.181318], [16.2542497, 48.1823847], [16.2542288, 48.1823876], [16.2541637, 48.1823965], [16.253093, 48.1825436], [16.2530358, 48.1825836], [16.252819, 48.1827356], [16.2526451, 48.1834137], [16.2528535, 48.1847374], [16.2529696, 48.1853868], [16.2529079, 48.185477], [16.2527542, 48.1857257], [16.2533351, 48.1866662], [16.2529248, 48.1869762], [16.251322, 48.1873284], [16.2512176, 48.1874729], [16.2511702, 48.1875377], [16.2503164, 48.1887711], [16.2519206, 48.1890611], [16.2525341, 48.189605], [16.254217, 48.1910996], [16.2547048, 48.1914641], [16.2549851, 48.1916736], [16.2552654, 48.1918831], [16.2545758, 48.192669], [16.2543019, 48.1929894], [16.2553415, 48.1945067], [16.2553997, 48.1945923], [16.2540739, 48.1967188], [16.2535103, 48.1976006], [16.2534964, 48.1976222], [16.2534774, 48.1976516], [16.2530254, 48.1983761], [16.2524591, 48.199263], [16.2515555, 48.2001591], [16.2513712, 48.2003419], [16.2513616, 48.2003463], [16.2512469, 48.2003986], [16.2512094, 48.2004127], [16.2511242, 48.2004449], [16.2509937, 48.2004881], [16.2508594, 48.2005241], [16.250609, 48.2005841], [16.25035, 48.2006378], [16.2501841, 48.200665], [16.2500145, 48.2006891], [16.2498462, 48.2007081], [16.2496743, 48.2007229], [16.2494118, 48.2007359], [16.2491439, 48.2007386], [16.2488773, 48.2007336], [16.2486111, 48.2007202], [16.2482732, 48.2006854], [16.2479412, 48.2006369], [16.247605, 48.2005785], [16.2472703, 48.2005128], [16.2465118, 48.2003623], [16.2461329, 48.2002866], [16.2457779, 48.2002329], [16.245114, 48.2001214], [16.2444108, 48.2000658], [16.2431727, 48.2000995], [16.2407903, 48.2005491], [16.2406773, 48.2001852], [16.2403534, 48.2001994], [16.2403066, 48.2001996], [16.240184, 48.2001996], [16.2402341, 48.2001699], [16.2396595, 48.1997434], [16.2396269, 48.1997091], [16.2395424, 48.1996135], [16.2395129, 48.1995558], [16.2392719, 48.199148], [16.2393757, 48.1987627], [16.2393007, 48.1985932], [16.2388783, 48.1983263], [16.2387498, 48.1981523], [16.2378834, 48.1976079], [16.2374568, 48.1971679], [16.2372162, 48.1966213], [16.2367682, 48.1962798], [16.2361129, 48.1951993], [16.235835, 48.1950804], [16.2355431, 48.1950379], [16.2349688, 48.1948216], [16.2346779, 48.1948508], [16.2345418, 48.1948645], [16.234333, 48.1949753], [16.2343188, 48.1949857], [16.2342408, 48.1950429], [16.2338675, 48.1953168], [16.2347686, 48.195915], [16.2351568, 48.1965403], [16.236326, 48.1980124], [16.2366519, 48.1987993], [16.236683, 48.1988762], [16.2367643, 48.1990986], [16.235428, 48.199386], [16.2356773, 48.1999926], [16.2355125, 48.2000376], [16.2355232, 48.2003034], [16.235333, 48.2003521], [16.2351408, 48.2003578], [16.2350759, 48.2003623], [16.2352142, 48.2015698], [16.2347626, 48.2016713], [16.2346212, 48.2015833], [16.2339897, 48.2018072], [16.233936, 48.2018265], [16.233777, 48.2018795], [16.2337786, 48.2019025], [16.2336738, 48.2019331], [16.2334593, 48.2020097], [16.2333494, 48.2020123], [16.2328845, 48.2018701], [16.2324253, 48.2017281], [16.2323303, 48.2025863], [16.2323194, 48.2026844], [16.2323171, 48.2027083], [16.2323142, 48.2027303], [16.2323052, 48.2028211], [16.2322906, 48.2029712], [16.2321784, 48.2030379], [16.2312787, 48.2028725], [16.2291062, 48.2024666], [16.2281345, 48.2024581], [16.2272633, 48.2022489], [16.2263296, 48.2019706], [16.2259446, 48.2018558], [16.2246108, 48.2023986], [16.2240382, 48.2026316], [16.2210201, 48.2037469], [16.2209256, 48.2037284], [16.2198527, 48.203537], [16.2190492, 48.2033133], [16.2162175, 48.2025248], [16.2128942, 48.20114], [16.2100659, 48.1992985], [16.2086326, 48.1978093], [16.2068119, 48.1954853], [16.2052406, 48.1938792], [16.2040127, 48.1931149], [16.203395788537044, 48.192055331982864], [16.2039441, 48.1938923], [16.2039453, 48.1940319], [16.2039652, 48.1963829], [16.2052821, 48.1977429], [16.2057189, 48.1991109], [16.2058031, 48.199374], [16.2059202, 48.1997399], [16.2065601, 48.2008691], [16.2073862, 48.2023269], [16.2073935, 48.2023398], [16.2068724, 48.2024892], [16.2067903, 48.2025017], [16.2066445, 48.2025075], [16.2064842, 48.2024764], [16.2061385, 48.2024362], [16.2058957, 48.2024172], [16.205748, 48.2024275], [16.2056313, 48.2024721], [16.2054994, 48.2025088], [16.2053938, 48.2025644], [16.205199, 48.2026988], [16.2051075, 48.2027114], [16.2050537, 48.2027704], [16.2049935, 48.2027813], [16.2049825, 48.2028136], [16.2049503, 48.2028405], [16.2047931, 48.2029391], [16.2046983, 48.2029436], [16.2044753, 48.2030166], [16.2043295, 48.2030601], [16.2042566, 48.2030791], [16.2041812, 48.2030749], [16.2039545, 48.2031308], [16.203364, 48.2034057], [16.2030898, 48.2036125], [16.2029414, 48.2037114], [16.2028098, 48.2038198], [16.202743, 48.2038431], [16.2026819, 48.2038811], [16.2026329, 48.2039344], [16.2025857, 48.2039562], [16.2023537, 48.2040076], [16.2022651, 48.2040739], [16.2021521, 48.2042952], [16.2021344, 48.2043255], [16.202015, 48.2044957], [16.2019311, 48.2047958], [16.2020038, 48.2047926], [16.2023196, 48.2048174], [16.2033464, 48.2050084], [16.2032808, 48.2050974], [16.2032224, 48.2051732], [16.2030005, 48.2055109], [16.2029596, 48.2056387], [16.2029712, 48.2056721], [16.202649, 48.2060403], [16.2030918, 48.2059236], [16.2035449, 48.2059413], [16.2038234, 48.2059841], [16.2042389, 48.2060612], [16.2047165, 48.2061839], [16.205162, 48.2063381], [16.2054855, 48.2064923], [16.2058067, 48.2066921], [16.205976, 48.2068049], [16.2063015, 48.2070247], [16.2065243, 48.2072417], [16.2067792, 48.2075043], [16.2070405, 48.2078198], [16.2072582, 48.2081186], [16.2074906, 48.2083964], [16.2075105, 48.2084393], [16.2075353, 48.2085378], [16.2085857, 48.2091233], [16.2091202, 48.2094006], [16.2093377, 48.2094979], [16.2096215, 48.2096276], [16.2094216, 48.2098288], [16.2093034, 48.2099201], [16.2091701, 48.2100118], [16.2089879, 48.2101157], [16.2088212, 48.210377], [16.2087609, 48.2105231], [16.2086729, 48.2105756], [16.2086235, 48.2107824], [16.2085448, 48.2107917], [16.2084367, 48.2109872], [16.2083734, 48.2109968], [16.2083086, 48.2110067], [16.2081341, 48.2110016], [16.207989, 48.2110427], [16.2076678, 48.211197], [16.2075721, 48.2111898], [16.2074223, 48.2112464], [16.2071506, 48.211267], [16.2069406, 48.2114244], [16.2067275, 48.2114543], [16.2064755, 48.2115135], [16.2063462, 48.2113956], [16.2063045, 48.2113164], [16.2062335, 48.2112866], [16.2060858, 48.2113153], [16.2059571, 48.211373], [16.205699, 48.211429], [16.2056055, 48.2114854], [16.2055521, 48.2115848], [16.2053562, 48.2117346], [16.2053028, 48.2118058], [16.2053295, 48.2118933], [16.2052605, 48.2119749], [16.2050824, 48.2121069], [16.2049555, 48.2121188], [16.2048954, 48.2120995], [16.2047263, 48.2120906], [16.204331, 48.2121888], [16.2040501, 48.2122332], [16.2034464, 48.2123398], [16.2031926, 48.212365], [16.2030034, 48.2124317], [16.2024937, 48.2124451], [16.2022422, 48.2123932], [16.2021955, 48.2124243], [16.2020928, 48.2124384], [16.2019684, 48.2124658], [16.2018171, 48.2124377], [16.2013897, 48.2125519], [16.2012317, 48.2126068], [16.2010469, 48.212675], [16.2009245, 48.2127284], [16.2007976, 48.2127773], [16.2006707, 48.2128411], [16.2004326, 48.2128708], [16.2003836, 48.2128975], [16.2003791, 48.2129509], [16.2003992, 48.2129939], [16.2003435, 48.2130102], [16.2001543, 48.2129642], [16.199891, 48.2130634], [16.1998618, 48.2131303], [16.1996252, 48.2131189], [16.1994814, 48.2131704], [16.1994398, 48.2132994], [16.1991986, 48.2133594], [16.1991772, 48.2134804], [16.1990525, 48.2135219], [16.1989056, 48.2136183], [16.1986808, 48.2136539], [16.198505, 48.2137815], [16.1984608, 48.2138767], [16.1983391, 48.2140074], [16.1981911, 48.2140724], [16.1978813, 48.2141795], [16.1977753, 48.2142763], [16.1977361, 48.2143731], [16.1977218, 48.2144987], [16.197583, 48.2145735], [16.1976796, 48.2146193], [16.1976606, 48.2146845], [16.197634, 48.2147498], [16.1976044, 48.2147937], [16.1973393, 48.2153045], [16.197232, 48.2153402], [16.1971215, 48.2154521], [16.1970743, 48.2156376], [16.1970704, 48.2157512], [16.1969671, 48.2158027], [16.1967714, 48.215826], [16.1967184, 48.2158631], [16.1967382, 48.2158954], [16.1968217, 48.2159923], [16.1968585, 48.2160826], [16.1968234, 48.2161299], [16.1967337, 48.2161556], [16.1966699, 48.2162083], [16.1966259, 48.2162956], [16.1964688, 48.216375], [16.1963852, 48.2164664], [16.1963332, 48.2164916], [16.196185, 48.2167531], [16.1960857, 48.216855], [16.1961062, 48.2169075], [16.1961204, 48.2170462], [16.1963019, 48.2170526], [16.1963609, 48.2171645], [16.1962338, 48.2173323], [16.1963677, 48.2174653], [16.1962043, 48.217742], [16.1962157, 48.2179764], [16.195873, 48.2184935], [16.1957619, 48.2185464], [16.1956938, 48.2186688], [16.1954964, 48.2187807], [16.1954873, 48.2189501], [16.1954601, 48.2190347], [16.1950403, 48.2195563], [16.1952763, 48.2198617], [16.1960863, 48.2203863], [16.1961839, 48.2204725], [16.196547, 48.2206751], [16.1967353, 48.2209261], [16.19691, 48.2210516], [16.1970734, 48.2212148], [16.1972323, 48.2212965], [16.1974637, 48.2213645], [16.1975386, 48.221363], [16.1976589, 48.2214008], [16.1982307, 48.2218029], [16.1982829, 48.2223457], [16.1977769, 48.2228839], [16.1972368, 48.2230517], [16.19696, 48.2230986], [16.1960892, 48.2233409], [16.1960977, 48.2233722], [16.1952193, 48.2233981], [16.1951182, 48.2234011], [16.1950221, 48.2234039], [16.1944185, 48.2233903], [16.1939545, 48.2234303], [16.1934156, 48.2234327], [16.1924489, 48.2235007], [16.1919066, 48.223457], [16.1905934, 48.2232034], [16.1899751, 48.223084], [16.188631, 48.2232154], [16.1878229, 48.2232911], [16.1866413, 48.2232484], [16.1860885, 48.223286], [16.1854962, 48.2230124], [16.1851719, 48.2231969], [16.1854626, 48.2238096], [16.1856963, 48.2239926], [16.185866, 48.2240536], [16.1860181, 48.2242052], [16.186034, 48.2242702], [16.1864061, 48.2245695], [16.186624, 48.2246541], [16.186835, 48.224701], [16.1871164, 48.2248129], [16.1873978, 48.2249746], [16.1874892, 48.2250503], [16.1876769, 48.2251062], [16.1877699, 48.225088], [16.1878554, 48.2250841], [16.1880036, 48.2251198], [16.1882087, 48.2250741], [16.1885801, 48.22504], [16.1885757, 48.2250743], [16.1889268, 48.2251754], [16.1890166, 48.2251793], [16.1891405, 48.2250971], [16.1892494, 48.2251122], [16.1893881, 48.2252275], [16.1897236, 48.2253586], [16.1900413, 48.2253359], [16.1902251, 48.2254478], [16.1904067, 48.2254282], [16.1904407, 48.2255566], [16.1906971, 48.2256096], [16.190713, 48.2257139], [16.1907992, 48.2257532], [16.1909218, 48.2257622], [16.1909195, 48.2258469], [16.1909808, 48.2258953], [16.1911646, 48.2259089], [16.191337, 48.2259981], [16.1915231, 48.2260283], [16.1920654, 48.2263337], [16.1921653, 48.2264289], [16.1922152, 48.2265634], [16.1923105, 48.2266118], [16.192635, 48.2269912], [16.1930275, 48.2271772], [16.1932113, 48.2271243], [16.1932658, 48.2272286], [16.1934087, 48.2273661], [16.193495, 48.2273737], [16.1935245, 48.2274538], [16.1936402, 48.2275506], [16.1936425, 48.2277078], [16.1936992, 48.2278302], [16.1937695, 48.2279179], [16.1939193, 48.2280343], [16.1939125, 48.2280887], [16.1939624, 48.2282096], [16.1940736, 48.2283094], [16.1942029, 48.2283653], [16.1943232, 48.2284621], [16.1944775, 48.2284938], [16.1944866, 48.2286299], [16.1947498, 48.228719], [16.1949745, 48.2288823], [16.1952944, 48.2290471], [16.1954147, 48.2290289], [16.195485, 48.2290985], [16.1955826, 48.2291242], [16.195687, 48.2291725], [16.1957959, 48.229171], [16.1959933, 48.2293161], [16.1961748, 48.2293207], [16.1963836, 48.2294522], [16.1963972, 48.229493], [16.1963768, 48.229564], [16.1964539, 48.2296729], [16.1967223, 48.2298759], [16.196963, 48.229873], [16.1976692, 48.2297763], [16.1977779, 48.2297504], [16.1983231, 48.229109], [16.1991031, 48.2285858], [16.1990873, 48.2291784], [16.1988886, 48.2298109], [16.19876, 48.2299303], [16.1982718, 48.2303918], [16.1983077, 48.2304598], [16.1983562, 48.2304496], [16.1984369, 48.2305394], [16.1985487, 48.2306077], [16.1986914, 48.2306637], [16.1988236, 48.2307634], [16.198927, 48.2308053], [16.1990284, 48.2307997], [16.1992198, 48.2307443], [16.1993431, 48.2306961], [16.1995074, 48.2307051], [16.1995763, 48.2308081], [16.1995284, 48.2308363], [16.1995534, 48.230859], [16.1992004, 48.2309942], [16.1989108, 48.2311205], [16.1984658, 48.2312788], [16.1982611, 48.2313649], [16.1980562, 48.2313826], [16.1980636, 48.2314397], [16.1979318, 48.2314515], [16.1971906, 48.2318344], [16.1959457, 48.232442], [16.1935992, 48.233403], [16.1936479, 48.23374], [16.193629, 48.2341091], [16.1934917, 48.234232], [16.1936611, 48.2344094], [16.1936695, 48.234437], [16.1935596, 48.23444], [16.1934159, 48.2343186], [16.1931904, 48.2345945], [16.1931865, 48.2346682], [16.1932115, 48.2346967], [16.1931833, 48.2347123], [16.1931031, 48.2347217], [16.1930348, 48.2346982], [16.19299, 48.2347296], [16.1929947, 48.2348961], [16.1931174, 48.2351229], [16.1933437, 48.2352543], [16.1934073, 48.2354175], [16.1934486, 48.2356081], [16.1935735, 48.2358245], [16.1936229, 48.2359372], [16.1936378, 48.2359769], [16.1936172, 48.2360112], [16.1934097, 48.2360756], [16.1931982, 48.2361009], [16.192779, 48.2363021], [16.1929734, 48.2364667], [16.1929896, 48.2365257], [16.1929499, 48.236653], [16.1927935, 48.2367009], [16.1925511, 48.2366505], [16.192502, 48.236706], [16.1925157, 48.2367657], [16.19267, 48.2368243], [16.1928944, 48.2368635], [16.1930253, 48.2368437], [16.1934009, 48.2368657], [16.1934734, 48.2369018], [16.1935205, 48.2369646], [16.1934899, 48.2370494], [16.19352, 48.2371236], [16.1935619, 48.237186], [16.193724, 48.2373097], [16.1938471, 48.2374663], [16.194074, 48.2376468], [16.1941025, 48.2377137], [16.1941226, 48.2377798], [16.1941737, 48.237874], [16.1941828, 48.2379559], [16.1941336, 48.238042], [16.1940231, 48.2381095], [16.194195, 48.23833], [16.1942256, 48.2383923], [16.1943034, 48.2384299], [16.1942869, 48.2384747], [16.1942246, 48.2385346], [16.1940664, 48.2386017], [16.1939332, 48.238887], [16.1939709, 48.2391697], [16.1941407, 48.2395042], [16.1942845, 48.2396565], [16.1944095, 48.2399361], [16.1943883, 48.2400837], [16.1943882, 48.2402795], [16.1944873, 48.2404779], [16.1944708, 48.2406585], [16.1944379, 48.2406804], [16.1943385, 48.2406883], [16.1941061, 48.2406288], [16.1939096, 48.2406594], [16.1938483, 48.2407433], [16.1938336, 48.2408506], [16.1938365, 48.2409239], [16.1938931, 48.241059], [16.1941006, 48.241048], [16.1941454, 48.2410826], [16.1940959, 48.2411768], [16.1938837, 48.2413684], [16.1940935, 48.2415443], [16.1942631, 48.2416103], [16.194374, 48.2416678], [16.1944756, 48.2418647], [16.1941855, 48.2419872], [16.1938766, 48.2420782], [16.1936738, 48.2424237], [16.1937221, 48.2426785], [16.1938294, 48.2429577], [16.1937021, 48.2430189], [16.1935771, 48.2430912], [16.1935158, 48.2432482], [16.1937988, 48.2441481], [16.1939238, 48.2443993], [16.194044, 48.2445249], [16.194235, 48.244627], [16.1944661, 48.2447055], [16.1945793, 48.2447746], [16.1946406, 48.244916], [16.1947066, 48.2451311], [16.1948198, 48.2452866], [16.1950533, 48.2453996], [16.1952773, 48.2457043], [16.1953268, 48.2458236], [16.1953221, 48.2459524], [16.1954164, 48.2461895], [16.1955108, 48.2463042], [16.1957324, 48.2467014], [16.195914, 48.2470862], [16.1962771, 48.2476499], [16.1960756, 48.2477755], [16.1959753, 48.2479122], [16.1959306, 48.2480026], [16.1961026, 48.2481445], [16.1960979, 48.2482105], [16.1959554, 48.2483362], [16.195932, 48.2484262], [16.1959326, 48.248527], [16.1960012, 48.2487177], [16.1960979, 48.2491197], [16.1959777, 48.2493097], [16.196006, 48.2494321], [16.1962583, 48.249831], [16.1963078, 48.2499173], [16.1964658, 48.2500037], [16.1964964, 48.2500775], [16.1966002, 48.2501262], [16.197093, 48.250547], [16.19731, 48.2506349], [16.1974986, 48.2508029], [16.1978217, 48.2509505], [16.1979608, 48.2511107], [16.1980268, 48.2513965], [16.1982061, 48.2515472], [16.1983699, 48.2516209], [16.1984206, 48.2517074], [16.1985574, 48.2517702], [16.1986282, 48.2517843], [16.1987339, 48.2518535], [16.1987582, 48.2519899], [16.1989323, 48.252081], [16.1988781, 48.2523841], [16.1990237, 48.2526051], [16.1994087, 48.2529616], [16.1995078, 48.2529731], [16.1996091, 48.252998], [16.1997528, 48.2530604], [16.1998659, 48.2531589], [16.1998891, 48.2533364], [16.1998955, 48.2534578], [16.2000434, 48.2535308], [16.2001986, 48.2534926], [16.2003755, 48.2537736], [16.2005028, 48.2538616], [16.200965, 48.2539259], [16.2010947, 48.2539856], [16.2012293, 48.2541072], [16.2012546, 48.2541755], [16.2013761, 48.2542122], [16.2016491, 48.2541839], [16.2018811, 48.2542469], [16.2020238, 48.2544064], [16.2020658, 48.2546011], [16.2021999, 48.2546578], [16.2026837, 48.2546594], [16.2028328, 48.2546998], [16.2028596, 48.254889], [16.202918, 48.2549604], [16.2032052, 48.2550925], [16.203309, 48.2551804], [16.2033342, 48.2553107], [16.2035023, 48.2554034], [16.203849, 48.2553955], [16.2039763, 48.2554473], [16.2040612, 48.2556216], [16.2047841, 48.2557773], [16.2048512, 48.2559058], [16.2047663, 48.2560738], [16.2048111, 48.2561711], [16.204903, 48.2562057], [16.20512, 48.2562009], [16.2052167, 48.2561554], [16.2055891, 48.2561814], [16.2056759, 48.2562664], [16.2056521, 48.2564306], [16.2057109, 48.2565936], [16.2055334, 48.2568615], [16.2054242, 48.2569608], [16.2053935, 48.2570346], [16.2052591, 48.2572371], [16.2053393, 48.257369], [16.2052497, 48.2574444], [16.205061, 48.2574868], [16.2049832, 48.2575354], [16.2048441, 48.2575982], [16.2048535, 48.2579735], [16.204929, 48.2582325], [16.2048889, 48.2584868], [16.2047946, 48.2585889], [16.2048205, 48.2586831], [16.2047026, 48.2587663], [16.2049266, 48.258906], [16.2049313, 48.259019], [16.2048512, 48.2590457], [16.2047238, 48.2590442], [16.2046979, 48.2590991], [16.2047639, 48.2592247], [16.2049313, 48.259264], [16.2052341, 48.2595204], [16.2054006, 48.2597962], [16.205366, 48.2598745], [16.2053637, 48.2599891], [16.2054006, 48.2600238], [16.205538, 48.2600099], [16.205652, 48.2600694], [16.2056553, 48.2600929], [16.2054844, 48.2603476], [16.2054754, 48.2603952], [16.2056028, 48.2605172], [16.2056029, 48.2605493], [16.2056646, 48.2606258], [16.2056629, 48.260789], [16.2056246, 48.2608756], [16.2056696, 48.2611121], [16.2056379, 48.2612708], [16.2056796, 48.2613985], [16.2056262, 48.2614739], [16.2056196, 48.2615772], [16.2055312, 48.2616604], [16.2054945, 48.2617437], [16.2052427, 48.2619124], [16.205146, 48.2620345], [16.2052244, 48.2621999], [16.2053644, 48.2622676], [16.2054411, 48.2622765], [16.2055262, 48.2623142], [16.2055362, 48.262382], [16.2056462, 48.2623908], [16.2056846, 48.2625196], [16.205818, 48.2626861], [16.2057913, 48.2627805], [16.2058263, 48.2628415], [16.2058296, 48.2629159], [16.2059597, 48.2630014], [16.2060197, 48.2630779], [16.2062215, 48.2631967], [16.2063149, 48.2632111], [16.2063799, 48.2632777], [16.2064833, 48.2633177], [16.2065233, 48.2633732], [16.2065983, 48.2634054], [16.20669, 48.2635219], [16.2067617, 48.2635597], [16.2071791, 48.2636975], [16.2072281, 48.2637453], [16.2072984, 48.2637584], [16.2073376, 48.2637878], [16.2074063, 48.2637845], [16.2074471, 48.2638063], [16.2074406, 48.2638846], [16.20747, 48.2639184], [16.2076187, 48.2639717], [16.2076792, 48.2639749], [16.2077258, 48.2639988], [16.2080332, 48.2640671], [16.20805, 48.2640454], [16.2080718, 48.2640963], [16.2081916, 48.2641333], [16.2086346, 48.2642093], [16.2089609, 48.2641751], [16.2094137, 48.2640181], [16.2099513, 48.2637513], [16.2102437, 48.2634875], [16.2117529, 48.2624954], [16.2120264, 48.2622882], [16.2128942, 48.2616163], [16.2134366, 48.2612741], [16.2143138, 48.2609538], [16.2145355, 48.2608094], [16.2147383, 48.2604672], [16.2146503, 48.2602392], [16.2144364, 48.2600527], [16.2144223, 48.2598989], [16.2145496, 48.2598235], [16.2153136, 48.2599365], [16.2154976, 48.259935], [16.215717, 48.2598609], [16.2160118, 48.2597133], [16.2163301, 48.2596615], [16.2165777, 48.259649], [16.2168819, 48.2594025], [16.217877, 48.2592361], [16.2197352, 48.2586097], [16.2205346, 48.2585657], [16.2213387, 48.2581905], [16.2236379, 48.2562579], [16.2264715, 48.2550302], [16.226138, 48.2547765], [16.2260979, 48.2546792], [16.2261663, 48.2545771], [16.2263243, 48.2545253], [16.2269938, 48.2544897], [16.2277981, 48.2540135], [16.2295882, 48.2532093], [16.229951, 48.2530463], [16.2314319, 48.2516285], [16.232776, 48.2511898], [16.2335997, 48.2507035], [16.2338265, 48.2502705], [16.2340666, 48.2502549], [16.2344968, 48.2501794], [16.2351738, 48.2500395], [16.2362709, 48.249984], [16.2364243, 48.2498952], [16.2366845, 48.2498818], [16.2386654, 48.2493178], [16.2390855, 48.2492445], [16.239339, 48.2492157], [16.2392723, 48.249078], [16.2397392, 48.2488559], [16.240066, 48.2487671], [16.2407496, 48.2484784], [16.2410531, 48.248374], [16.24102, 48.248115], [16.2407863, 48.247861], [16.2405662, 48.247508], [16.2403561, 48.2471571], [16.2397458, 48.246402], [16.2397458, 48.2458513], [16.2390722, 48.245456], [16.2388294, 48.2448778], [16.2387003, 48.2440311], [16.2375274, 48.24337], [16.237303, 48.2427746], [16.2374832, 48.2415452], [16.2376184, 48.2411872], [16.2378064, 48.2407381], [16.238029, 48.2404934], [16.2382463, 48.2404076], [16.2382787, 48.2403516], [16.2383016, 48.2402335], [16.2387288, 48.2400002], [16.2390743, 48.2399831], [16.2391917, 48.2399396], [16.2392601, 48.2399592], [16.2393029, 48.2398716], [16.2395413, 48.2398242], [16.2399629, 48.2397163], [16.2399562, 48.2396725], [16.2398703, 48.2396627], [16.239814, 48.2395251], [16.2398288, 48.2394028], [16.2398938, 48.2393304], [16.2399153, 48.2392983], [16.2400145, 48.2393001], [16.2401949, 48.2392978], [16.2402311, 48.2392768], [16.2402767, 48.2391768], [16.2404698, 48.2390428], [16.240494, 48.2389624], [16.2405717, 48.2388945], [16.2407454, 48.2388108], [16.2411683, 48.2387721], [16.2413167, 48.2385873], [16.2414461, 48.2384846], [16.2414771, 48.2383974], [16.2415493, 48.2383172], [16.2423776, 48.2387827], [16.242857, 48.2387827], [16.243644, 48.238828], [16.2443682, 48.2389907], [16.2445211, 48.239025], [16.2450463, 48.2389344], [16.2458673, 48.2389434], [16.2466594, 48.2390657], [16.2475114, 48.2393453], [16.248038, 48.2394653], [16.2486771, 48.2397031], [16.2501151, 48.240294], [16.2506285, 48.2402216], [16.2510874, 48.2403642], [16.2525425, 48.240328], [16.2533414, 48.2402805], [16.2545414, 48.2402329], [16.2547828, 48.2400722], [16.2557653, 48.2399589], [16.2559285, 48.239882], [16.2566155, 48.2398821], [16.2566045, 48.2400896], [16.2565651, 48.240296], [16.2565458, 48.2404728], [16.2564835, 48.2409145], [16.2564795, 48.2411915], [16.2568016, 48.2410694], [16.2570151, 48.2414985], [16.2567925, 48.2429239], [16.2568061, 48.2429778], [16.2568708, 48.2430387], [16.2569433, 48.2430894], [16.2571549, 48.2431913], [16.2575165, 48.243383], [16.2576003, 48.2434614], [16.2578678, 48.2436581], [16.2579565, 48.2437336], [16.258166, 48.2439656], [16.2581883, 48.2440555], [16.2582021, 48.2441733], [16.2582394, 48.244679], [16.2583704, 48.2452826], [16.258462, 48.2457221], [16.2585694, 48.2458861], [16.2587135, 48.2460675], [16.2591011, 48.2459925], [16.2594997, 48.2457865], [16.2598084, 48.245778], [16.2598152, 48.2458682], [16.2598446, 48.2458818], [16.2599894, 48.2458652], [16.2599707, 48.2457762], [16.2603217, 48.245764], [16.2610132, 48.2454936], [16.2615161, 48.2461582], [16.2619865, 48.245989], [16.2621097, 48.2460863], [16.2622384, 48.2461578], [16.2623266, 48.2461697], [16.2624695, 48.2462614], [16.2625766, 48.2463407], [16.2627291, 48.2464734], [16.2629253, 48.2466553], [16.2629776, 48.2468506], [16.2630018, 48.2470609], [16.2631831, 48.2470632], [16.2632655, 48.2470075], [16.2633497, 48.2469734], [16.2633572, 48.2469277], [16.2633951, 48.2468671], [16.2634538, 48.2468114], [16.2634918, 48.2468964], [16.2636607, 48.2468242], [16.2638094, 48.2468566], [16.2637922, 48.247214], [16.2644942, 48.2474245], [16.2646966, 48.2475473], [16.2648688, 48.2476436], [16.2649805, 48.247717], [16.2650704, 48.2478542], [16.2651962, 48.2479216], [16.2652651, 48.2481612], [16.2653407, 48.2483019], [16.2650962, 48.2485921], [16.264964, 48.2488029], [16.26483, 48.2490369], [16.264782, 48.2491406], [16.2647177, 48.2491773], [16.2647218, 48.2492964], [16.2659505, 48.249814], [16.2664949, 48.2500468], [16.2665503, 48.2501215], [16.2676997, 48.2506875], [16.2679186, 48.2507936], [16.2689124, 48.2513181], [16.2694396, 48.2514753], [16.2700208, 48.2517273], [16.2703554, 48.2518765], [16.2704239, 48.2519363], [16.2704504, 48.2523761], [16.2706023, 48.2527161], [16.2706154, 48.252819], [16.2700863, 48.2534451], [16.2699004, 48.2536161], [16.269527, 48.2539226], [16.2693181, 48.2539997], [16.2687559, 48.2540455], [16.26746, 48.2539913], [16.2665654, 48.2542716], [16.2657502, 48.2544386], [16.2653544, 48.2544014], [16.264785, 48.2544678], [16.2642012, 48.2545355], [16.2640584, 48.254923], [16.2642105, 48.2549422], [16.2649618, 48.2550336], [16.266306, 48.2549911], [16.2687209, 48.2548835], [16.2699594, 48.255154], [16.2705157, 48.2553614], [16.2712063, 48.2557389], [16.2719058, 48.2560333], [16.2722734, 48.2561901], [16.2727021, 48.2563097], [16.2733735, 48.2564971], [16.2744395, 48.2567656], [16.2755134, 48.2570202], [16.2762599, 48.2569557], [16.2767995, 48.2568929], [16.2773181, 48.2569156], [16.2778027, 48.256865], [16.2787823, 48.2566575], [16.2794319, 48.2566505], [16.2800631, 48.2567656], [16.2807808, 48.2571371], [16.281247, 48.257233], [16.2819123, 48.2574771], [16.282203, 48.2576306], [16.2826976, 48.2576726], [16.2832534, 48.2577631], [16.2836593, 48.2577997], [16.2844923, 48.2578939], [16.2847306, 48.2580439], [16.2855585, 48.258323], [16.2857573, 48.258404], [16.2858049, 48.258548], [16.2857867, 48.2587981], [16.2858179, 48.258899], [16.2858526, 48.2590018], [16.2862667, 48.2596728], [16.2871096, 48.2602851], [16.2873661, 48.2604145], [16.2876959, 48.2605072], [16.2878901, 48.2605901], [16.2883556, 48.2609292], [16.2885645, 48.2611659], [16.289139, 48.2615268], [16.2894733, 48.2617368], [16.2896639, 48.2618027], [16.2903162, 48.2619198], [16.2908622, 48.2620491], [16.2921009, 48.2622296], [16.2927181, 48.2627615], [16.2932253, 48.2633524], [16.2936031, 48.2636408], [16.2939662, 48.2639221], [16.2940948, 48.2639959], [16.2940865, 48.2645289], [16.2925411, 48.2655927], [16.2924275, 48.2656842], [16.2913154, 48.2666918], [16.2908958, 48.2666561], [16.2906735, 48.2666372], [16.2901505, 48.2666355], [16.2891757, 48.2663999], [16.288687, 48.2663436], [16.2877096, 48.2664016], [16.2868009, 48.2664087], [16.2864866, 48.266479], [16.2861722, 48.266697], [16.2860714, 48.2669113], [16.285953, 48.2671121], [16.285931, 48.2671886], [16.2858776, 48.2673738], [16.2858776, 48.2674455], [16.285988, 48.2676212], [16.2862377, 48.2677344], [16.2863596, 48.2677897], [16.2869978, 48.2680371], [16.2873937, 48.2682558], [16.2877115, 48.2685354], [16.2878084, 48.2687129], [16.2878865, 48.2690284], [16.288137, 48.2694245], [16.2883013, 48.2698494], [16.2884736, 48.2700842], [16.2886756, 48.2703315], [16.2890122, 48.2705108], [16.2893434, 48.270604], [16.2899251, 48.2707044], [16.2906415, 48.2708926], [16.2908354, 48.2710127], [16.2910158, 48.2711453], [16.291172, 48.2712995], [16.2913147, 48.271364], [16.2915733, 48.271407], [16.2922088, 48.271425], [16.2933453, 48.2716705], [16.2938031, 48.2718068], [16.2939943, 48.2719591], [16.2942716, 48.2721007], [16.2944898, 48.2721724], [16.2951469, 48.2721007], [16.297322, 48.272001], [16.2983488, 48.2723051], [16.2989103, 48.2724062], [16.2992909, 48.272882], [16.2997382, 48.2731294], [16.3001098, 48.2731784], [16.3003219, 48.2732192], [16.3003463, 48.2733074], [16.3016612, 48.273126], [16.3012115, 48.2726797], [16.3020921, 48.2724843], [16.3024287, 48.2723427], [16.3035921, 48.2721366], [16.3040715, 48.2719251], [16.3045508, 48.2717673], [16.3054153, 48.2716795], [16.3058677, 48.2717422], [16.3065302, 48.2720685], [16.3072061, 48.2723373], [16.3083749, 48.2724413], [16.3091182, 48.2728016], [16.3098237, 48.273178], [16.3105697, 48.2736046], [16.311005, 48.2736973], [16.3115984, 48.2739164], [16.3123094, 48.2738645], [16.3145957, 48.2739881], [16.3151747, 48.2743323], [16.3157588, 48.2749939], [16.3162244, 48.2755309], [16.3162456, 48.2755569], [16.3167613, 48.2757625], [16.3169058, 48.2761006], [16.3175689, 48.2766727], [16.3178604, 48.2770546], [16.3179743, 48.2771329], [16.318089, 48.2772107], [16.3192965, 48.2776946], [16.3196649, 48.2777737], [16.3198019, 48.2778577], [16.3203526, 48.2780051], [16.3207243, 48.278188], [16.3213821, 48.2781393], [16.3216974, 48.278168], [16.3220023, 48.2781718], [16.3223125, 48.2781745], [16.3228064, 48.2780897], [16.3231082, 48.2780166], [16.3235096, 48.2778792], [16.3238354, 48.2777412], [16.324059, 48.2776552], [16.3247378, 48.2775196], [16.3251168, 48.2774457], [16.3260197, 48.2773468], [16.3263367, 48.2773141], [16.3267875, 48.2772817], [16.3271573, 48.2772375], [16.3274055, 48.2772079], [16.3277581, 48.2771449], [16.3281092, 48.2771229], [16.3286074, 48.2771534], [16.3287421, 48.2771552], [16.3289764, 48.2771946], [16.3291864, 48.2772932], [16.3295338, 48.2774545], [16.3298462, 48.277571], [16.3301398, 48.2777645], [16.3302017, 48.2777753], [16.3303202, 48.2780172], [16.3303606, 48.2784886], [16.3305356, 48.2789779], [16.3308373, 48.2793397], [16.331044, 48.2795445], [16.3311911, 48.2796952], [16.3312381, 48.2797665], [16.3313172, 48.2800144], [16.3315849, 48.2802174], [16.3316694, 48.2803246], [16.3317254, 48.2805269], [16.3319915, 48.2807724], [16.3322279, 48.2808973], [16.3331601, 48.2811363], [16.3335152, 48.2811583], [16.3338729, 48.2811352], [16.3342844, 48.281109], [16.3343904, 48.2811633], [16.3346918, 48.2812403], [16.336666, 48.281815], [16.3384964, 48.2826081], [16.3444747, 48.285127], [16.3444679, 48.2851365], [16.3445034, 48.2851504], [16.3444745, 48.2851804], [16.344527, 48.2852022], [16.3445085, 48.2852216], [16.3446327, 48.2852751], [16.3445793, 48.2853323], [16.3451761, 48.2855853], [16.3440787, 48.2867157], [16.3438373, 48.286937], [16.3437428, 48.2869801], [16.3434535, 48.2872907], [16.3434259, 48.287365], [16.3431554, 48.2876256], [16.3430258, 48.2876913], [16.3429992, 48.2877124], [16.3428279, 48.2878447], [16.3423096, 48.2882345], [16.3421727, 48.2883554], [16.3412011, 48.2889708], [16.3414565, 48.2890262], [16.3419388, 48.2891272], [16.3466601, 48.2901712], [16.3481253, 48.2904811], [16.3535115, 48.2837006], [16.3559554, 48.2833477], [16.3724028, 48.2627227], [16.3682297, 48.2613353], [16.3682714, 48.2610638], [16.3683642, 48.2610204], [16.3688083, 48.259402], [16.3689714, 48.2593134], [16.3691169, 48.2587255], [16.3689889, 48.2585769], [16.3690848, 48.2578993], [16.3689189, 48.2577794], [16.369041, 48.2571184], [16.3713538, 48.2530754], [16.371776, 48.2520052], [16.3717988, 48.2518826], [16.3718434, 48.2515824], [16.3718008, 48.2508311], [16.3716411, 48.2502169], [16.3713041, 48.2495034], [16.3708854, 48.2488112], [16.3703142, 48.2480575], [16.3695794, 48.2471183], [16.3690925, 48.2465613], [16.3685672, 48.246015], [16.3673617, 48.2448089], [16.366536, 48.2439766], [16.3662475, 48.2436678], [16.3660695, 48.2434331], [16.3659642, 48.2432866], [16.3657418, 48.2429786], [16.3648097, 48.2417342], [16.3633295, 48.239669], [16.3628482, 48.2388588], [16.3626014, 48.2383987], [16.3622401, 48.2377147], [16.3617679, 48.2367027], [16.3616214, 48.236309], [16.3614574, 48.235803], [16.3613202, 48.2352726], [16.3612733, 48.2350613], [16.3611323, 48.234203], [16.3611187, 48.2336236], [16.3611488, 48.233261], [16.3612793, 48.2328248], [16.3614847, 48.2322622], [16.362297, 48.2306827], [16.3630665, 48.2292533], [16.363503, 48.2286726], [16.3642205, 48.2279506], [16.3654448, 48.2270364], [16.3654962, 48.2270339], [16.3664359, 48.2263566], [16.3666708, 48.2261671], [16.3668281, 48.226012], [16.3669682, 48.2258354], [16.3671536, 48.2255885], [16.3673217, 48.2253386], [16.3674575, 48.2251075], [16.3675889, 48.2248433], [16.3677014, 48.2245416], [16.3678088, 48.224167], [16.3678892, 48.2236976], [16.3678804, 48.2225512], [16.3679638, 48.2215549], [16.3681553, 48.2206543], [16.3681785, 48.2205879], [16.368354, 48.2200858], [16.3685722, 48.2197903], [16.3691878, 48.2191461], [16.3696756, 48.2187986], [16.3697005, 48.2187537], [16.370149, 48.2184891], [16.3705928, 48.2181828], [16.3713591, 48.2175828], [16.371518, 48.2174714], [16.3717822, 48.217276], [16.3723992, 48.216802], [16.372672, 48.216591], [16.3730586, 48.2162786], [16.3732108, 48.2161498], [16.3733905, 48.2159703], [16.3735127, 48.2158294], [16.3748503, 48.2138968], [16.3750037, 48.2136848], [16.3751909, 48.213483], [16.375417, 48.2132734], [16.3756681, 48.2130823], [16.3759558, 48.2128966], [16.3762659, 48.2127214], [16.3765444, 48.2125783], [16.3767933, 48.2124669], [16.3770396, 48.2123689], [16.3773213, 48.2122674], [16.3776787, 48.2121566], [16.378046, 48.2120631], [16.3785496, 48.2119588], [16.3790386, 48.2118721], [16.3795538, 48.2117967], [16.3801144, 48.2117366], [16.3810646, 48.2116791], [16.3813019, 48.2116741], [16.3815788, 48.2116707], [16.3819552, 48.2116759], [16.3824376, 48.2116916], [16.3829286, 48.2117265], [16.383917, 48.2118198], [16.3840766, 48.2118151], [16.3842505, 48.2117642], [16.3844066, 48.2116567], [16.3844793, 48.211542], [16.3845071, 48.2113936], [16.3848946, 48.2113547], [16.3849036, 48.2114232], [16.3849157, 48.2114536], [16.3849313, 48.2114786], [16.3849694, 48.2115187], [16.3849941, 48.2115334], [16.3850638, 48.2117766], [16.3850918, 48.2118472], [16.3851492, 48.2119177], [16.3852455, 48.211994], [16.3854257, 48.2120648], [16.3860319, 48.2122929], [16.3864832, 48.2124664], [16.3865617, 48.2125735], [16.3866406, 48.2126356], [16.3866417, 48.2126365], [16.3868043, 48.2127026], [16.3871675, 48.2128421], [16.3874383, 48.212917], [16.3879236, 48.2130384], [16.3883691, 48.2131175], [16.3888027, 48.2131612], [16.3892349, 48.2131825], [16.389647, 48.213176], [16.3900579, 48.2131492], [16.3903953, 48.2131111], [16.3908259, 48.213035], [16.3915326, 48.2128909], [16.3923033, 48.2126943], [16.3931358, 48.2123726], [16.3937209, 48.2120635], [16.3942561, 48.2116641], [16.3946581, 48.2112488], [16.3956534, 48.2097274], [16.3961994, 48.2087094], [16.3965158, 48.2078611], [16.397082, 48.2050464], [16.3973936, 48.2044186], [16.3978408, 48.2038574], [16.3983736, 48.2034024], [16.398797, 48.2030885], [16.3994891, 48.2027366], [16.4003359, 48.202475], [16.4039157, 48.201825], [16.404979, 48.2015825], [16.4058995, 48.2012733], [16.4066582, 48.2008865], [16.4073552, 48.2003903], [16.4078547, 48.1998829], [16.4085445, 48.1989871], [16.4097751, 48.1972113], [16.4100661, 48.1968503], [16.4103604, 48.1965465], [16.410865, 48.1961194], [16.4118817, 48.195365], [16.4134445, 48.1943787], [16.4211488, 48.1898533], [16.4220931, 48.1893474], [16.4251003, 48.1881117], [16.4301686, 48.1866113], [16.4310992, 48.1863419], [16.4386107, 48.1842029], [16.451663, 48.1803481], [16.4605003, 48.1777857], [16.4672414, 48.1757468], [16.4677727, 48.1755726], [16.4683386, 48.175369], [16.4694852, 48.174939], [16.4758724, 48.1724605], [16.4784741, 48.1712739], [16.4790301, 48.1710463], [16.4797577, 48.1707483], [16.4797281, 48.1706977], [16.482739, 48.1696294], [16.4838791, 48.1691128], [16.4841719, 48.1689849], [16.4844916, 48.1688524], [16.4854739, 48.1684853], [16.4860142, 48.1683315], [16.4878399, 48.1677592], [16.4898926, 48.1671036], [16.4915066, 48.1665412], [16.4930469, 48.1659298], [16.4946226, 48.1652865], [16.4946641, 48.1653265], [16.4952282, 48.1650897], [16.497085, 48.1662737], [16.5137911, 48.1589276], [16.5100586, 48.158238], [16.5067957, 48.1576149], [16.5013278, 48.1566796], [16.4984294, 48.1562071], [16.4979719, 48.1566238], [16.4962327, 48.1573202], [16.493438, 48.158815], [16.4924903, 48.1583371], [16.4920146, 48.1580272], [16.4919632, 48.1579793], [16.4918835, 48.1579086], [16.4917326, 48.157784], [16.4908223, 48.1570819], [16.4903722, 48.1567343], [16.4902439, 48.1566148], [16.4900658, 48.1564636], [16.4898247, 48.1562653], [16.4895584, 48.1560699], [16.4890775, 48.1557439], [16.488601, 48.1554632], [16.4881413, 48.1551777], [16.4845908, 48.1558089], [16.4800599, 48.1565534], [16.4803115, 48.1561382], [16.4801816, 48.1561212], [16.4798546, 48.1561985], [16.4792568, 48.156489], [16.4784856, 48.1565609], [16.4779542, 48.1568137], [16.4776986, 48.157441], [16.4776252, 48.1574352], [16.4777037, 48.1572289], [16.477948, 48.1566243], [16.4779746, 48.1565594], [16.4781514, 48.1561282], [16.4781413, 48.1561156], [16.4780238, 48.1560964], [16.4779593, 48.1555731], [16.4778193, 48.1551574], [16.4775008, 48.1545805], [16.477122, 48.1541501], [16.4768667, 48.1539523], [16.4756725, 48.1531355], [16.4747474, 48.152597], [16.473081, 48.1514688], [16.4731579, 48.1514084], [16.4729259, 48.1512375], [16.4727864, 48.1511636], [16.4717714, 48.1504271], [16.4710912, 48.1500027], [16.4687125, 48.1484534], [16.4683722, 48.1482302], [16.468038, 48.1479851], [16.4681176, 48.1479302], [16.4679474, 48.1477763], [16.4675811, 48.1476195], [16.4666735, 48.1470019], [16.4667316, 48.1469791], [16.4664178, 48.1468052], [16.4662712, 48.1467205], [16.4661359, 48.1465883], [16.4660782, 48.146539], [16.4664426, 48.1463622], [16.4667009, 48.1462622], [16.4665929, 48.1461867], [16.4664282, 48.146062], [16.4649448, 48.1449877], [16.4641563, 48.1444238], [16.4635185, 48.1440793], [16.461918, 48.1429014], [16.4610166, 48.1427881], [16.4593077, 48.1417667], [16.4590722, 48.1416032], [16.4588259, 48.1414346], [16.458424, 48.141387], [16.4583038, 48.1412879], [16.4570241, 48.1404473], [16.4563597, 48.140004], [16.455355, 48.1395149], [16.4544937, 48.1392049], [16.4541737, 48.1391061], [16.4537566, 48.1389908], [16.4533756, 48.1389103], [16.4510163, 48.1386809], [16.4510269, 48.138706], [16.4509136, 48.138703], [16.447038, 48.1385237], [16.4461965, 48.1384851], [16.445653, 48.1384851], [16.4438826, 48.1383685], [16.4413621, 48.1382416], [16.4398178, 48.1381638], [16.4362198, 48.1379787], [16.4352864, 48.1393952], [16.4343191, 48.1408602], [16.4324254, 48.1437068], [16.4299548, 48.1473489], [16.4292109, 48.1479887], [16.4283377, 48.1487416], [16.4269768, 48.1499203], [16.4262474, 48.1505555], [16.4255358, 48.1511881], [16.4249305, 48.1517268], [16.4243548, 48.1522393], [16.4189853, 48.1568415], [16.4138396, 48.1612755], [16.4123274, 48.1626035], [16.4111584, 48.1636138], [16.410595, 48.1641026], [16.4084119, 48.1659963], [16.4074349, 48.1668459], [16.4073237, 48.1669364], [16.4070033, 48.167197], [16.4062943, 48.1677509], [16.405531, 48.1683331], [16.4052945, 48.1684957], [16.4043912, 48.1691032], [16.4033011, 48.1698403], [16.4024874, 48.1703905], [16.401173, 48.1713053], [16.3997996, 48.1722387], [16.3987499, 48.1729593], [16.3971554, 48.1740636], [16.3971845, 48.1743018], [16.3970787, 48.1743676], [16.3957599, 48.1751769], [16.3957891, 48.1753357], [16.3956834, 48.1753352], [16.3956497, 48.1753351], [16.3956146, 48.1753349], [16.3956033, 48.1753349], [16.3955029, 48.1753345], [16.3953028, 48.1754703], [16.3954056, 48.1754743], [16.3954614, 48.1754771], [16.3954617, 48.1755065], [16.3954544, 48.1755271], [16.3954219, 48.1755613], [16.3953607, 48.1756066], [16.3934026, 48.1768444], [16.3913189, 48.1783197], [16.3899587, 48.1793202], [16.3880557, 48.1808688], [16.3855063, 48.1829173], [16.3848759, 48.183591], [16.3847753, 48.1837312], [16.3844223, 48.1842948], [16.3842344, 48.1846103], [16.3841973, 48.1846595], [16.384154, 48.1847159], [16.3841035, 48.1847633], [16.3840408, 48.1848214], [16.3839317, 48.1849205], [16.3838108, 48.1850242], [16.3835128, 48.1852976], [16.3832612, 48.1854884], [16.3826864, 48.1860048], [16.3825203, 48.18612], [16.382301, 48.186286], [16.382111, 48.1864556], [16.3819114, 48.1866357], [16.3817647, 48.1867819], [16.3816719, 48.186878], [16.3816009, 48.1869675], [16.3815187, 48.1870835], [16.3814263, 48.1872441], [16.3811423, 48.1879111], [16.3811304, 48.1879395], [16.3810501, 48.1881307], [16.3810185, 48.188123], [16.3809988, 48.1881182], [16.3811296, 48.1884798], [16.3808301, 48.188986], [16.3807846, 48.1890639], [16.3807315, 48.1891543], [16.3806337, 48.1893299], [16.3804338, 48.1896858], [16.3800327, 48.1903916], [16.3799073, 48.1906138], [16.3796556, 48.1910598], [16.3795795, 48.1911946], [16.3795396, 48.191266], [16.3794413, 48.191442], [16.3793092, 48.1916787], [16.3792414, 48.1917966], [16.3792059, 48.1918582], [16.3791629, 48.1919263], [16.3791129, 48.1920036], [16.3791079, 48.1920125], [16.3790884, 48.1920414], [16.3788197, 48.1924381], [16.3785405, 48.1928504], [16.3785012, 48.1929084], [16.3784877, 48.1929243], [16.3782603, 48.1931918], [16.3777569, 48.1937874], [16.3775246, 48.1940572], [16.3771899, 48.194451], [16.3771671, 48.1944778], [16.3771324, 48.1945194], [16.3771154, 48.1945398], [16.3770534, 48.1946218], [16.3770379, 48.1946424], [16.3770307, 48.1946528], [16.3769692, 48.1947425], [16.3768589, 48.1949211], [16.375602, 48.1969573], [16.3755574, 48.1970311], [16.3752536, 48.1975347], [16.3752109, 48.1976055], [16.3752048, 48.197616], [16.3751511, 48.197703], [16.3751276, 48.1977397], [16.3751106, 48.1977745], [16.3750755, 48.1978458], [16.3750648, 48.1979042], [16.3750582, 48.1979498], [16.3750528, 48.1980487], [16.3750736, 48.1982751], [16.3754473, 48.1995294], [16.375215, 48.1999528], [16.3739662, 48.1996362], [16.3737189, 48.1996313], [16.3694796, 48.2006655], [16.3691008, 48.2007199], [16.3686066, 48.2007054], [16.3682878, 48.2006612], [16.3679344, 48.2005728], [16.3676074, 48.2004402], [16.367195, 48.2002259], [16.3665967, 48.1998655], [16.3665184, 48.199825], [16.3659742, 48.1995268], [16.3659409, 48.1996821], [16.3637805, 48.1985096], [16.3630762, 48.1981032], [16.3628598, 48.1979847], [16.3620099, 48.1975292], [16.3617618, 48.1974102], [16.3617661, 48.197403], [16.3617677, 48.197395], [16.3616936, 48.1973594], [16.3616777, 48.1973627], [16.3616708, 48.1973687], [16.3614612, 48.197281], [16.3612743, 48.1972143], [16.360883, 48.1970969], [16.359535, 48.1967707], [16.359538, 48.1967539], [16.359371, 48.1967114], [16.3593751, 48.1966702], [16.3594043, 48.1966565], [16.3594296, 48.1966382], [16.3594442, 48.1966217], [16.3594711, 48.1965889], [16.360279, 48.1956038], [16.3604816, 48.1953568], [16.3608641, 48.1949026], [16.3608835, 48.1948796], [16.3609367, 48.1948464], [16.3619469, 48.1942262], [16.3619917, 48.1941987], [16.3618606, 48.1940835], [16.3617554, 48.193977], [16.3617097, 48.1939332], [16.3617474, 48.1939171], [16.3617794, 48.1939016], [16.3618185, 48.1938793], [16.3620785, 48.1936835], [16.3622086, 48.1935529], [16.3626594, 48.193213], [16.3631186, 48.1928619], [16.3636803, 48.1924288], [16.3639811, 48.1921999], [16.3640142, 48.1921601], [16.3635613, 48.1915446], [16.3634541, 48.1914096], [16.3633552, 48.1912945], [16.3631831, 48.1911238], [16.3630282, 48.1909711], [16.3628152, 48.1907575], [16.3627861, 48.1907283], [16.3627221, 48.1906773], [16.3626737, 48.1906164], [16.3626488, 48.1905906], [16.3624628, 48.1903983], [16.362235, 48.1901696], [16.3621733, 48.190138], [16.3622324, 48.1901063], [16.3623501, 48.1900066], [16.3629464, 48.1894975], [16.3630602, 48.1894018], [16.3643074, 48.1883139], [16.364639, 48.1880866], [16.3646695, 48.188067], [16.3647038, 48.1880389], [16.3647486, 48.1880023], [16.3647876, 48.1879705], [16.365248, 48.1874938], [16.3653397, 48.1874032], [16.3653478, 48.1873952], [16.3653946, 48.1873423], [16.365439, 48.187296], [16.3654517, 48.1872828], [16.3655536, 48.1871772], [16.366116, 48.186605], [16.3667273, 48.1859845], [16.3667914, 48.1859194], [16.3668481, 48.18586], [16.3669104, 48.1857986], [16.3669594, 48.1857485], [16.3670202, 48.185687], [16.3676565, 48.18504], [16.3677082, 48.1849904], [16.3677688, 48.1849258], [16.3678222, 48.18487], [16.3679209, 48.1847671], [16.3681588, 48.1845189], [16.3682205, 48.1844544], [16.3682711, 48.1844018], [16.3688339, 48.1838352], [16.3681611, 48.183616], [16.3670207, 48.1832444], [16.3663642, 48.183014], [16.3656408, 48.1827561], [16.3649689, 48.1825102], [16.3646969, 48.1824156], [16.3641112, 48.182203], [16.3635248, 48.1819888], [16.3624774, 48.1816619], [16.3620166, 48.1815092], [16.3619353, 48.181479], [16.3616392, 48.181356], [16.3613252, 48.1812223], [16.3609965, 48.181122], [16.3609109, 48.1810937], [16.360653, 48.181012], [16.3602909, 48.1808998], [16.3599242, 48.1807989], [16.3596862, 48.1807316], [16.3595021, 48.1806885], [16.3586192, 48.1804545], [16.3585905, 48.1804469], [16.3585523, 48.180437], [16.3585061, 48.1804246], [16.3584341, 48.1804055], [16.3579704, 48.180283], [16.3563725, 48.1798991], [16.3562085, 48.1798671], [16.3561345, 48.1798526], [16.3557569, 48.1797866], [16.3549758, 48.1797014], [16.3539006, 48.179584], [16.3538078, 48.1796193], [16.3521327, 48.1794534], [16.350787, 48.1793202], [16.3505363, 48.1793667], [16.3503255, 48.1793288], [16.349725, 48.1792208], [16.3487406, 48.1790076], [16.3480404, 48.1788681]]], [[[16.2525053, 48.1576577], [16.2537231, 48.1583938], [16.2540599, 48.1585914], [16.2560025, 48.1597567], [16.2564404, 48.1600185], [16.256444262561278, 48.16001907755577], [16.2525053, 48.1576577]]], [[[16.227231, 48.1512544], [16.2270337, 48.1513931], [16.2247439, 48.1530031], [16.2272353, 48.1512619], [16.2277597, 48.1508954], [16.227231, 48.1512544]]], [[[16.2277597, 48.1508954], [16.2300337, 48.1494886], [16.2300682, 48.1494639], [16.2277597, 48.1508954]]], [[[16.2300682, 48.1494639], [16.2322492, 48.1508092], [16.233087347876893, 48.15113420393698], [16.232245, 48.1508052], [16.2300682, 48.1494639]]], [[[16.2034635, 48.1555065], [16.2149799, 48.1541609], [16.2165756, 48.1539745], [16.2214519, 48.1533909], [16.2215088, 48.1533841], [16.2034635, 48.1555065]]], [[[16.1999331, 48.1544852], [16.1982422, 48.1541378], [16.1979751, 48.1545442], [16.1967023, 48.1565665], [16.1977221, 48.1549664], [16.1981453, 48.1542981], [16.1982453, 48.1541401], [16.2014342, 48.1547935], [16.1999331, 48.1544852]]], [[[16.1998055, 48.1861581], [16.200165437527897, 48.18668549239318], [16.1998062, 48.1861565], [16.1994522, 48.1859431], [16.196189235521057, 48.18397745763561], [16.1998055, 48.1861581]]], [[[16.187237, 48.1736044], [16.18747477717395, 48.1737983358696], [16.1872386, 48.1736051], [16.187153984496938, 48.173566246037936], [16.187237, 48.1736044]]]]}}]}