{"type": "FeatureCollection", "features": [{"type": "Feature", "geometry": {"type": "Polygon", "coordinates": [[[26.255483, 53.752017], [26.253003, 53.738374], [26.253313, 53.734085], [26.258274, 53.72871], [26.262304, 53.725093], [26.270056, 53.719719], [26.28313, 53.713569], [26.293982, 53.710365], [26.328605, 53.707756], [26.333876, 53.706231], [26.337907, 53.704138], [26.340232, 53.699978], [26.341318, 53.694294], [26.339767, 53.683959], [26.339612, 53.676517], [26.340852, 53.669696], [26.346123, 53.662151], [26.351239, 53.658379], [26.356976, 53.655769], [26.420434, 53.644685], [26.462034, 53.631094], [26.465909, 53.628665], [26.469165, 53.626081], [26.474436, 53.620242], [26.476296, 53.616211], [26.477847, 53.611405], [26.481102, 53.594352], [26.482498, 53.590734], [26.486683, 53.584585], [26.502083, 53.570374], [26.506889, 53.564844], [26.514175, 53.553088], [26.513245, 53.546964], [26.509524, 53.538179], [26.495727, 53.520351], [26.492781, 53.509499], [26.493195, 53.503582], [26.497897, 53.501748], [26.501308, 53.501386], [26.506424, 53.501541], [26.529213, 53.50428], [26.535104, 53.504047], [26.539445, 53.502781], [26.543011, 53.501334], [26.544561, 53.500326], [26.545698, 53.499241], [26.546938, 53.496632], [26.547972, 53.492859], [26.548488, 53.48702], [26.547972, 53.481955], [26.542081, 53.450329], [26.542081, 53.442139], [26.543941, 53.434672], [26.547041, 53.427954], [26.550762, 53.421339], [26.55531, 53.415086], [26.561201, 53.40966], [26.567712, 53.404751], [26.559495, 53.401185], [26.376509, 53.364547], [26.299253, 53.351989], [26.273053, 53.350646], [26.266955, 53.351834], [26.245871, 53.358268], [26.221222, 53.362893], [26.135697, 53.365864], [26.08247, 53.37359], [26.060146, 53.372608], [26.039165, 53.369301], [25.89814, 53.376277], [25.892714, 53.377724], [25.887909, 53.379533], [25.884033, 53.381703], [25.880932, 53.384416], [25.877315, 53.386767], [25.872871, 53.388835], [25.864913, 53.389532], [25.854836, 53.389222], [25.838713, 53.386819], [25.829256, 53.386561], [25.822124, 53.387388], [25.80905, 53.393485], [25.803934, 53.395087], [25.797888, 53.396173], [25.788431, 53.395914], [25.757064, 53.391548], [25.746677, 53.391393], [25.73877, 53.392297], [25.732879, 53.393563], [25.720167, 53.394726], [25.71288, 53.392865], [25.704819, 53.389455], [25.692675, 53.38129], [25.687094, 53.376122], [25.683528, 53.371652], [25.681513, 53.368164], [25.676707, 53.361549], [25.647872, 53.331784], [25.643944, 53.325531], [25.642859, 53.323205], [25.640844, 53.316539], [25.635573, 53.286619], [25.634332, 53.282588], [25.632007, 53.279384], [25.627201, 53.276878], [25.62038, 53.274991], [25.590407, 53.272976], [25.583741, 53.270961], [25.57785, 53.26538], [25.574904, 53.260677], [25.568858, 53.244244], [25.569168, 53.240523], [25.571649, 53.237733], [25.575214, 53.235407], [25.594335, 53.227992], [25.598366, 53.225744], [25.601001, 53.22285], [25.602241, 53.21931], [25.602241, 53.21546], [25.601001, 53.211636], [25.595988, 53.20745], [25.587927, 53.203058], [25.571184, 53.195875], [25.549945, 53.184144], [25.546069, 53.180992], [25.543588, 53.177478], [25.543123, 53.173654], [25.544984, 53.170502], [25.54948, 53.168538], [25.569788, 53.166006], [25.574904, 53.1643], [25.579245, 53.162285], [25.589477, 53.154947], [25.592474, 53.152105], [25.597435, 53.14611], [25.599296, 53.142751], [25.600381, 53.13916], [25.600846, 53.135362], [25.600381, 53.131176], [25.599296, 53.127248], [25.590872, 53.112831], [25.559091, 53.076089], [25.53439, 53.032887], [25.5316, 53.029787], [25.524778, 53.024516], [25.473102, 53.005964], [25.469071, 53.003948], [25.462715, 52.999737], [25.452328, 52.990538], [25.441011, 52.978524], [25.434655, 52.972968], [25.423803, 52.965656], [25.420805, 52.962762], [25.41848, 52.959558], [25.41724, 52.955838], [25.41724, 52.951962], [25.413364, 52.947363], [25.405147, 52.942014], [25.379567, 52.935426], [25.364013, 52.932842], [25.343549, 52.933927], [25.335332, 52.936123], [25.326806, 52.937286], [25.318899, 52.936407], [25.30505, 52.930671], [25.299624, 52.925607], [25.296989, 52.920749], [25.297299, 52.916667], [25.298694, 52.913205], [25.301019, 52.910207], [25.303965, 52.907469], [25.31983, 52.89858], [25.322, 52.89579], [25.32231, 52.892741], [25.31983, 52.89026], [25.311561, 52.886281], [25.307841, 52.884007], [25.30567, 52.881114], [25.30536, 52.877548], [25.306445, 52.874137], [25.308151, 52.870778], [25.310631, 52.867781], [25.314559, 52.865456], [25.331147, 52.861244], [25.334247, 52.858531], [25.335643, 52.855017], [25.335488, 52.85109], [25.334402, 52.847524], [25.331302, 52.844888], [25.327581, 52.842718], [25.32324, 52.840754], [25.317142, 52.839204], [25.308926, 52.838687], [25.293423, 52.841013], [25.27792, 52.845147], [25.268773, 52.848971], [25.265518, 52.851451], [25.262727, 52.854397], [25.261022, 52.861942], [25.258955, 52.865146], [25.250738, 52.865921], [25.238646, 52.864732], [25.216322, 52.859513], [25.200044, 52.851761], [25.196581, 52.849178], [25.19193, 52.847576], [25.184799, 52.847007], [25.175652, 52.847395], [25.160925, 52.849849], [25.149452, 52.850366], [25.138084, 52.849591], [25.097931, 52.839927], [25.092763, 52.837654], [25.088629, 52.835225], [25.083151, 52.833416], [25.075865, 52.83277], [25.062843, 52.835122], [25.056176, 52.837654], [25.052766, 52.841116], [25.053231, 52.844785], [25.054161, 52.848661], [25.055866, 52.852562], [25.056331, 52.856361], [25.055556, 52.859823], [25.04982, 52.865042], [25.0492, 52.868298], [25.04982, 52.872019], [25.05106, 52.875894], [25.065323, 52.905582], [25.066098, 52.908735], [25.064238, 52.911138], [25.060207, 52.912946], [25.054471, 52.913515], [25.04827, 52.912946], [25.041604, 52.908916], [25.037728, 52.905453], [25.029925, 52.89517], [25.027134, 52.892069], [25.022483, 52.889692], [25.015972, 52.888477], [25.004035, 52.889563], [24.96197, 52.900234], [24.95856, 52.901862], [24.956389, 52.904265], [24.956854, 52.907469], [24.959955, 52.914652], [24.96104, 52.918476], [24.961195, 52.922093], [24.960885, 52.92584], [24.9598, 52.929431], [24.956544, 52.936252], [24.952513, 52.942764], [24.947397, 52.948681], [24.944607, 52.951394], [24.937631, 52.956354], [24.928949, 52.960489], [24.9182, 52.963434], [24.89262, 52.967232], [24.884869, 52.966586], [24.877118, 52.964597], [24.868384, 52.958732], [24.864043, 52.954287], [24.857222, 52.942789], [24.854587, 52.939663], [24.851486, 52.936872], [24.84451, 52.93465], [24.834278, 52.933152], [24.80136, 52.932738], [24.747823, 52.940619], [24.685915, 52.959765], [24.676148, 52.959145], [24.662505, 52.956199], [24.613774, 52.939353], [24.609899, 52.937079], [24.606798, 52.934444], [24.605558, 52.931343], [24.606953, 52.928346], [24.610984, 52.92633], [24.61641, 52.924884], [24.643282, 52.922455], [24.648863, 52.921163], [24.652583, 52.918812], [24.653669, 52.915323], [24.653359, 52.911344], [24.651653, 52.907727], [24.644987, 52.903593], [24.634703, 52.899149], [24.611604, 52.891656], [24.601527, 52.886953], [24.594706, 52.882974], [24.59176, 52.88008], [24.570935, 52.865352], [24.568609, 52.862872], [24.569229, 52.860004], [24.57202, 52.857497], [24.582717, 52.850263], [24.585197, 52.847395], [24.587058, 52.844062], [24.587678, 52.840496], [24.586748, 52.836724], [24.584164, 52.833933], [24.562718, 52.824089], [24.559307, 52.821531], [24.556517, 52.818482], [24.54861, 52.804271], [24.541014, 52.795331], [24.540704, 52.79223], [24.542254, 52.789336], [24.550471, 52.780861], [24.554812, 52.774557], [24.557137, 52.767219], [24.558067, 52.759209], [24.557447, 52.755385], [24.556362, 52.752388], [24.554967, 52.75014], [24.552641, 52.74784], [24.547835, 52.745618], [24.540859, 52.743163], [24.518638, 52.739313], [24.493988, 52.738487], [24.468512, 52.74107], [24.446188, 52.747788], [24.441227, 52.75014], [24.432855, 52.755488], [24.388155, 52.774893], [24.382884, 52.776469], [24.375443, 52.777347], [24.365831, 52.777089], [24.341285, 52.772257], [24.334928, 52.769958], [24.330898, 52.767761], [24.326247, 52.766082], [24.321286, 52.7651], [24.316015, 52.765617], [24.311519, 52.768847], [24.309504, 52.772541], [24.308883, 52.776262], [24.307592, 52.779001], [24.305421, 52.780655], [24.300305, 52.781326], [24.292089, 52.780861], [24.250541, 52.771611], [24.239947, 52.771405], [24.197779, 52.775823], [24.185325, 52.778691], [24.177109, 52.781688], [24.171683, 52.787476], [24.167187, 52.793625], [24.164396, 52.796364], [24.160365, 52.798535], [24.153699, 52.799258], [24.144397, 52.798173], [24.121556, 52.789698], [24.091481, 52.773937], [24.081972, 52.770629], [24.07143, 52.768201], [23.938622, 52.774893], [23.920426, 52.772625], [23.912059, 52.893853], [23.909476, 52.901501], [23.905445, 52.906539], [23.902034, 52.912534], [23.901104, 52.923257], [23.903894, 52.931137], [23.914953, 52.944625], [23.91795, 52.9508], [23.917537, 52.95881], [23.909062, 52.986664], [23.908959, 52.993046], [23.911336, 53.00506], [23.909682, 53.012734], [23.89821, 53.02754], [23.867928, 53.051027], [23.859349, 53.067976], [23.860693, 53.087484], [23.870305, 53.101256], [23.882397, 53.113297], [23.891389, 53.127714], [23.893663, 53.151951], [23.883121, 53.163991], [23.865964, 53.172001], [23.856769750889892, 53.17807290679486], [24.7137424, 53.7438397], [25.3317233, 53.4422652], [26.0513278, 53.8136274], [26.240842, 53.7633271], [26.2566309146444, 53.77133834623356], [26.255483, 53.767158], [26.255483, 53.752017]]]}, "properties": {"name": "Гродненская область без Трокского и Виленского воеводств (Новогрудок, Слоним, Лида)", "source": "Natural Earth admin-1 и OpenHistoricalMap (CC0): контуры Речи Посполитой 1773-1793 и 1793-1795 (data/poland/ohm_rp_*), воеводства - relations 2743088, 2743090, 2743089; нарезка 22.09.2026"}}]}