{"type": "FeatureCollection", "features": [{"type": "Feature", "geometry": {"type": "Polygon", "coordinates": [[[23.19448, 52.271462], [23.197684, 52.25831], [23.189726, 52.240533], [23.212257, 52.231671], [23.284191, 52.219734], [23.29959, 52.223428], [23.312716, 52.215289], [23.374831, 52.200949], [23.395812, 52.19958], [23.395812, 52.193379], [23.388474, 52.184154], [23.391368, 52.182501], [23.405734, 52.185911], [23.418239, 52.182501], [23.427231, 52.17679], [23.43674, 52.175679], [23.450485, 52.185911], [23.454413, 52.181467], [23.464335, 52.176351], [23.470949, 52.171623], [23.487693, 52.181622], [23.491517, 52.174103], [23.488726, 52.16214], [23.484695, 52.158626], [23.512497, 52.124442], [23.531928, 52.120644], [23.579366, 52.121548], [23.598177, 52.11452], [23.604791, 52.106769], [23.609856, 52.09863], [23.61585, 52.0923], [23.625255, 52.089716], [23.637451, 52.084471], [23.641482, 52.072921], [23.642515, 52.061397], [23.650783, 52.048943], [23.664943, 52.011168], [23.676415, 51.994088], [23.660705, 51.98688], [23.647579, 51.97409], [23.628666, 51.946339], [23.622155, 51.927943], [23.621431, 51.895567], [23.61492, 51.88425], [23.618847, 51.883268], [23.620604, 51.883217], [23.621328, 51.882028], [23.621845, 51.877429], [23.609856, 51.873269], [23.605721, 51.851591], [23.594559, 51.843297], [23.610269, 51.825184], [23.628666, 51.809759], [23.617504, 51.786504], [23.59828, 51.77467], [23.577299, 51.766686], [23.56035, 51.754542], [23.556319, 51.747359], [23.552288, 51.736636], [23.546604, 51.713589], [23.550221, 51.708421], [23.556939, 51.701393], [23.559213, 51.695166], [23.550014, 51.692427], [23.546087, 51.689637], [23.549291, 51.683203], [23.555389, 51.676304], [23.56035, 51.671963], [23.547534, 51.662067], [23.541436, 51.659742], [23.532444, 51.658967], [23.532444, 51.6515], [23.543813, 51.6438], [23.545157, 51.63411], [23.539886, 51.607109], [23.5434, 51.592743], [23.552081, 51.578817], [23.573992, 51.555304], [23.567171, 51.55489], [23.56035, 51.555304], [23.572752, 51.539672], [23.588668, 51.535899], [23.602311, 51.530783], [23.606238, 51.517399], [23.608099, 51.511224], [23.614817, 51.49722], [23.630526, 51.490424], [23.648613, 51.486212], [23.662772, 51.480192], [23.647166, 51.460193], [23.648716, 51.453966], [23.689437, 51.416423], [23.697602, 51.404435], [23.686027, 51.40105], [23.678895, 51.394073], [23.677655, 51.38379], [23.683856, 51.370276], [23.665563, 51.365806], [23.647786, 51.353998], [23.63404, 51.339296], [23.628666, 51.325964], [23.635177, 51.304699], [23.650887, 51.299609], [23.670214, 51.299376], [23.687267, 51.2924], [23.742664, 51.216255], [23.765195, 51.199021], [23.816045, 51.178789], [23.863587, 51.148274], [23.874749, 51.13613], [23.858213, 51.13073], [23.854492, 51.121532], [23.869271, 51.10174], [23.895523, 51.076108], [23.904205, 51.062724], [23.915947044189416, 51.02100795130873], [23.8954352, 51.0176425], [23.8764667, 51.0229336], [23.8675403, 51.0166706], [23.8714027, 50.9954994], [23.8670253, 50.9941219], [23.8707161, 50.9770749], [23.8817024, 50.9720487], [23.8877534, 50.9728594], [23.8875562, 50.966585], [23.8871097, 50.9523713], [23.882389, 50.9480995], [23.8851356, 50.9460987], [23.8873672, 50.9342001], [23.8673686, 50.9382568], [23.8471984, 50.9412855], [23.8329505, 50.9412314], [23.822565, 50.9402038], [23.8072013, 50.9369587], [23.7975024, 50.9356605], [23.788576, 50.9328478], [23.7854003, 50.9322527], [23.7737273, 50.942259], [23.7931251, 50.9453416], [23.7944125, 50.9486943], [23.7750142, 50.9559322], [23.774414, 50.9561561], [23.7653159, 50.9632382], [23.7813663, 50.9724271], [23.7812804, 50.9752374], [23.7828254, 50.9791284], [23.7866878, 50.9845321], [23.7938975, 50.9917719], [23.7954425, 50.9940409], [23.7926959, 50.9985245], [23.7893485, 50.9996588], [23.7843703, 50.9997669], [23.7866878, 51.0019814], [23.7985324, 51.0039259], [23.8312339, 51.0226097], [23.8577556, 51.0282242], [23.8641929, 51.0328124], [23.8612746, 51.0355112], [23.8664245, 51.044416], [23.8615321, 51.0461967], [23.8533782, 51.0536967], [23.8544082, 51.0623823], [23.8517745, 51.0685614], [23.8505458, 51.0714437], [23.8449668, 51.0726841], [23.838787, 51.0788318], [23.8233451, 51.0733064], [23.8196467, 51.071983], [23.8090037, 51.071983], [23.7879752, 51.0657266], [23.7823962, 51.0624902], [23.7785338, 51.0452254], [23.7809371, 51.0422574], [23.7610244, 51.037886], [23.7549304, 51.0265507], [23.7658309, 51.0234195], [23.7655734, 51.0127827], [23.7831687, 51.0128907], [23.7847995, 51.0021975], [23.7828254, 51.0010632], [23.707981, 50.9987406], [23.6975955, 50.9952294], [23.6758803, 50.9977683], [23.6780261, 50.9906374], [23.6735629, 50.9894488], [23.6696147, 50.9865312], [23.6702155, 50.9783719], [23.6725329, 50.9752915], [23.6806869, 50.9748051], [23.6954497, 50.9688058], [23.6920165, 50.965995], [23.7005138, 50.9506951], [23.6854934, 50.9483699], [23.654766, 50.9507491], [23.648157, 50.9360932], [23.6262702, 50.9368505], [23.5999202, 50.931279], [23.5977429, 50.9083843], [23.5956287, 50.8861419], [23.6063575, 50.8813767], [23.6118507, 50.8743363], [23.5927104, 50.8791022], [23.5714244, 50.8697324], [23.5679053, 50.8700574], [23.5613822, 50.8770443], [23.5578631, 50.8774234], [23.5381221, 50.8864127], [23.5190677, 50.8927475], [23.5017299, 50.8969702], [23.4927177, 50.8950213], [23.4776973, 50.8990814], [23.4607886, 50.9067676], [23.4608745, 50.9197013], [23.4436225, 50.9266266], [23.4334087, 50.9322527], [23.4275722, 50.9385813], [23.4272288, 50.9515061], [23.4177875, 50.9544259], [23.4156417, 50.9585349], [23.4113502, 50.9642112], [23.3928966, 50.9737242], [23.3898067, 50.9592918], [23.3960723, 50.9492351], [23.3959865, 50.9446386], [23.3937549, 50.943557], [23.3950423, 50.9417723], [23.3907508, 50.9407988], [23.3879184, 50.9373914], [23.3894633, 50.9280873], [23.3874034, 50.9247331], [23.3847427, 50.9132078], [23.3889484, 50.9125584], [23.3930189, 50.899724], [23.394184, 50.8960499], [23.380022, 50.8911232], [23.3756446, 50.8908525], [23.3613967, 50.8945882], [23.3469771, 50.8935596], [23.3406257, 50.8957251], [23.3188247, 50.8982694], [23.3000278, 50.9088242], [23.2973456, 50.9090812], [23.2894277, 50.9066322], [23.2768106, 50.8976739], [23.2728195, 50.8931806], [23.2717037, 50.8902028], [23.2679271, 50.8893636], [23.2628202, 50.8874414], [23.2594299, 50.888389], [23.2528209, 50.8884973], [23.2478427, 50.8871166], [23.2410621, 50.8827305], [23.2465982, 50.8782628], [23.2554888, 50.8761149], [23.2561254, 50.8759611], [23.2577562, 50.8739571], [23.2575416, 50.8718448], [23.2547521, 50.8699761], [23.2559108, 50.8658322], [23.2472848, 50.8607398], [23.2489156, 50.8559449], [23.2407617, 50.8538318], [23.2314062, 50.8526397], [23.226943, 50.8528564], [23.223381, 50.850987], [23.2158279, 50.8494426], [23.2036399, 50.8494155], [23.2035112, 50.8559449], [23.1996917, 50.8591145], [23.1988334, 50.8657239], [23.190937, 50.8770713], [23.1883621, 50.8777754], [23.1860447, 50.880781], [23.1811523, 50.8814309], [23.178749, 50.8832179], [23.1734275, 50.8848965], [23.170638, 50.8837323], [23.1616258, 50.8862773], [23.1550598, 50.8775046], [23.150897, 50.8760694], [23.149867, 50.8722239], [23.1430864, 50.8730093], [23.1374645, 50.875934], [23.1344604, 50.8762319], [23.1295681, 50.8776129], [23.1249761, 50.8800499], [23.1151485, 50.8812142], [23.1076383, 50.883624], [23.1011699, 50.8875339], [23.0984115, 50.8892011], [23.0938196, 50.8889575], [23.0880689, 50.8903652], [23.0843782, 50.8900945], [23.0807304, 50.8926121], [23.0754518, 50.8947506], [23.0706453, 50.8943445], [23.0680704, 50.8953731], [23.0638217, 50.8948588], [23.0600881, 50.8966453], [23.0546379, 50.8979716], [23.0470848, 50.8985942], [23.0409908, 50.9012466], [23.0368709, 50.9017338], [23.0324506, 50.90057], [23.0274725, 50.9022209], [23.0170869, 50.8890658], [23.0273437, 50.8886868], [23.0309915, 50.8792376], [23.027687, 50.8748237], [23.0301332, 50.8714656], [23.0341672, 50.8692719], [23.0280733, 50.865128], [23.0234384, 50.8569473], [23.0074309, 50.8498491], [23.0021094, 50.8369502], [22.9888914, 50.8236139], [22.9773901, 50.8248068], [22.9579924, 50.8224211], [22.9483793, 50.8240477], [22.9363632, 50.8062331], [22.9399681, 50.8019208], [22.9152488, 50.8089179], [22.9053354, 50.808023], [22.8777837, 50.808484], [22.8835344, 50.8037651], [22.8757667, 50.7970927], [22.8719043, 50.790772], [22.8625488, 50.7904465], [22.8595876, 50.788466], [22.8561973, 50.7878691], [22.8488588, 50.7875164], [22.8401899, 50.788249], [22.8322506, 50.7854002], [22.800579, 50.7706108], [22.7962016, 50.7694166], [22.7922534, 50.7696337], [22.7888202, 50.7707194], [22.7859878, 50.7722392], [22.778778, 50.7725106], [22.7702808, 50.7714793], [22.7633285, 50.7699594], [22.744789, 50.7672995], [22.756462, 50.7542692], [22.7595519, 50.7548122], [22.7639293, 50.7480242], [22.763071, 50.7424301], [22.7695083, 50.737433], [22.7665042, 50.7348255], [22.7626418, 50.7355317], [22.7580928, 50.7328155], [22.7673625, 50.7311314], [22.7739715, 50.7207537], [22.773714, 50.7113521], [22.7896785, 50.7030357], [22.8010081, 50.7033075], [22.8059005, 50.6972732], [22.8003215, 50.6923256], [22.7930259, 50.6883018], [22.7905368, 50.6811779], [22.7910518, 50.6749776], [22.7976607, 50.6714419], [22.8011798, 50.6658387], [22.7973174, 50.653542], [22.7916526, 50.6480455], [22.7842712, 50.6456508], [22.7765464, 50.6453787], [22.7746581, 50.643637], [22.7834128, 50.6412421], [22.79397, 50.6409155], [22.8048705, 50.636343], [22.8154277, 50.6264888], [22.8267573, 50.6233851], [22.8307914, 50.6160335], [22.8166293, 50.6041051], [22.8086471, 50.6017081], [22.7963733, 50.5806207], [22.8013515, 50.5748976], [22.7869319, 50.5098242], [22.76762, 50.5078591], [22.7650451, 50.5108613], [22.7609252, 50.51168], [22.7538871, 50.5164284], [22.7462482, 50.5198665], [22.743963, 50.5210057], [22.7386522, 50.5222471], [22.7356481, 50.5221721], [22.7288246, 50.5212035], [22.7308845, 50.5200302], [22.7274084, 50.5146682], [22.7276731, 50.513863], [22.7282023, 50.5122531], [22.7221513, 50.5131127], [22.7168083, 50.5115844], [22.7128172, 50.5059076], [22.7184391, 50.4919446], [22.7168941, 50.4862927], [22.7026891, 50.4865385], [22.7019167, 50.4930367], [22.6922607, 50.4908252], [22.6712751, 50.4767622], [22.6566839, 50.477363], [22.626729, 50.4670931], [22.614119510596932, 50.47015326256192], [22.630485, 50.468858], [22.657873, 50.478986], [22.646401, 50.503352], [22.622733, 50.53149], [22.620253, 50.545339], [22.621286, 50.55893], [22.612088, 50.568102], [22.454681, 50.621975], [22.22405874649958, 50.65923633336993], [22.2230472, 50.6600229], [22.22066918094709, 50.660582442297724], [22.203017, 50.680059], [22.248492, 50.734526], [22.262445, 50.759899], [22.230509, 50.777728], [22.195059, 50.79168], [22.156818, 50.80093], [22.117441, 50.799845], [22.051295, 50.770441], [21.98012078912936, 50.77269977505239], [21.9790161, 50.7738338], [21.97352716164688, 50.77404207176208], [21.844279, 50.829766], [21.839215, 50.851263], [21.81379, 50.912448], [21.81193, 50.921776], [21.80976, 50.925264], [21.805109, 50.927124], [21.800458, 50.929734], [21.798287, 50.935444], [21.799424, 50.941723], [21.802008, 50.944643], [21.804592, 50.946529], [21.805729, 50.949707], [21.813067, 50.992908], [21.809966, 51.012442], [21.791466, 51.021072], [21.791466, 51.027919], [21.798597, 51.028824], [21.807382, 51.031459], [21.815134, 51.035697], [21.819371, 51.041588], [21.815444, 51.055075], [21.790949, 51.093574], [21.783095, 51.125665], [21.773793, 51.143597], [21.771622, 51.151452], [21.773173, 51.162924], [21.776893, 51.171606], [21.785265, 51.186178], [21.803455, 51.248448], [21.815651, 51.264416], [21.825056, 51.269429], [21.836011, 51.270463], [21.834151, 51.291443], [21.846346, 51.321674], [21.852444, 51.350406], [21.812447, 51.380327], [21.814514, 51.404666], [21.837975, 51.4165], [21.862159, 51.437481], [21.863193, 51.478434], [21.832394, 51.480372], [21.832394, 51.487245], [21.847587, 51.498407], [21.844176, 51.510758], [21.826193, 51.528199], [21.824022, 51.542384], [21.824849, 51.553753], [21.821232, 51.562589], [21.805729, 51.569152], [21.79622, 51.569721], [21.771622, 51.562951], [21.754052, 51.561788], [21.702583, 51.568584], [21.674781, 51.576594], [21.660001, 51.587549], [21.647289, 51.600882], [21.645945, 51.611165], [21.656281, 51.636745], [21.692454, 51.64274], [21.728214, 51.633645], [21.801078, 51.626565], [21.871978, 51.642119], [21.896886, 51.656796], [21.903604, 51.679611], [21.853168, 51.727747], [21.891718, 51.761389], [21.946805, 51.782059], [21.911769, 51.815236], [21.887481, 51.852391], [21.88345, 51.878901], [21.86371, 51.905049], [21.847587, 51.933135], [21.841282, 51.958379], [21.912286, 51.991013], [21.988353, 52.004526], [22.133151, 52.003984], [22.270093, 52.020804], [22.320839, 52.014913], [22.355876, 52.02189], [22.451374, 52.06597], [22.489821, 52.068734], [22.599685, 52.062301], [22.655289, 52.090154], [22.660044, 52.105089], [22.666451, 52.117801], [22.682988, 52.128601], [22.701178, 52.136094], [22.742106, 52.130255], [22.859308, 52.093151], [22.898272, 52.102143], [22.931345, 52.128214], [22.959974, 52.169297], [23.054955, 52.255415], [23.086994, 52.292338], [23.100533, 52.295981], [23.118827, 52.293191], [23.150246, 52.281564], [23.168126, 52.281719], [23.176084, 52.285129], [23.183525, 52.281306], [23.19448, 52.271462]]]}, "properties": {"name": "Люблинское воеводство (нынешнее), остаток", "source": "Natural Earth admin-1 и OpenHistoricalMap (CC0): контуры Речи Посполитой 1773-1793 и 1793-1795 (data/poland/ohm_rp_*), воеводства - relations 2743088, 2743090, 2743089; нарезка 22.09.2026"}}]}