{"type": "FeatureCollection", "features": [{"type": "Feature", "geometry": {"type": "Polygon", "coordinates": [[[28.245128, 51.640622], [28.248901, 51.630596], [28.248384, 51.622096], [28.249366, 51.613078], [28.257789, 51.601761], [28.269726, 51.594268], [28.29851, 51.582977], [28.310912, 51.57445], [28.317424, 51.56396], [28.328172, 51.536364], [28.333857, 51.52838], [28.346879, 51.525151], [28.359643, 51.529362], [28.385533, 51.545046], [28.435349, 51.56613], [28.461239, 51.571659], [28.488369, 51.572021], [28.578079, 51.56011], [28.603918, 51.553547], [28.612703, 51.53993], [28.615183, 51.51957], [28.630893, 51.46363], [28.637301, 51.449626], [28.647016, 51.439006], [28.663552, 51.433993], [28.677918, 51.438076], [28.691148, 51.443424], [28.703963, 51.442623], [28.711095, 51.430247], [28.718226, 51.411618], [28.728768, 51.401256], [28.746751, 51.413995], [28.751609, 51.428748], [28.749439, 51.46686], [28.752229, 51.483706], [28.771866, 51.511276], [28.799875, 51.532618], [28.831914, 51.548276], [28.863643, 51.558921], [28.892892, 51.562874], [28.954594, 51.563262], [28.980846, 51.569463], [28.999966, 51.582408], [29.023634, 51.614034], [29.043581, 51.626178], [29.063218, 51.630596], [29.083682, 51.631217], [29.123886, 51.625041], [29.147967, 51.615636], [29.160421, 51.603311], [29.181453, 51.567009], [29.214836, 51.53546], [29.226515, 51.519053], [29.230443, 51.492879], [29.221038, 51.466963], [29.227756, 51.45562], [29.244395, 51.447894], [29.264859, 51.432908], [29.276125, 51.413581], [29.2846, 51.391748], [29.297002, 51.373713], [29.319946, 51.365574], [29.340565, 51.370096], [29.35326, 51.377055], [29.354002, 51.375366], [29.359583, 51.367769], [29.362063, 51.365392], [29.365784, 51.363015], [29.370435, 51.362421], [29.374776, 51.36348], [29.382682, 51.366968], [29.386093, 51.367511], [29.388573, 51.366581], [29.390124, 51.365082], [29.391364, 51.362111], [29.391829, 51.354333], [29.389194, 51.317462], [29.387178, 51.305964], [29.384698, 51.298161], [29.374776, 51.284803], [29.362218, 51.273822], [29.349454, 51.265967], [29.318138, 51.251239], [29.299328, 51.245193], [29.288631, 51.24341], [29.276384, 51.242816], [29.271733, 51.241059], [29.270493, 51.236873], [29.289251, 51.193568], [29.3, 51.141969], [29.304961, 51.12781], [29.308682, 51.121324], [29.310852, 51.118741], [29.313178, 51.117087], [29.316123, 51.11781], [29.319069, 51.120084], [29.339067, 51.141504], [29.342478, 51.143752], [29.346974, 51.144785], [29.352142, 51.144217], [29.362839, 51.141633], [29.381132, 51.134192], [29.412345, 51.116363], [29.418391, 51.111196], [29.420716, 51.108405], [29.422577, 51.105511], [29.424437, 51.102049], [29.427227, 51.095073], [29.429243, 51.091998], [29.432963, 51.089673], [29.438079, 51.088096], [29.462109, 51.083187], [29.472083, 51.079415], [29.476113, 51.077219], [29.482935, 51.072335], [29.485415, 51.069493], [29.487585, 51.066547], [29.489136, 51.063292], [29.489756, 51.059106], [29.488981, 51.054455], [29.48495, 51.047944], [29.471772, 51.03487], [29.46645, 51.028513], [29.464589, 51.024173], [29.463556, 51.019367], [29.462936, 51.013166], [29.463246, 51.006189], [29.466346, 50.983452], [29.466036, 50.975959], [29.462006, 50.969706], [29.457303, 50.969499], [29.452962, 50.970636], [29.449242, 50.973013], [29.44118, 50.977302], [29.436064, 50.978852], [29.429708, 50.979731], [29.398185, 50.979421], [29.393844, 50.97632], [29.393069, 50.970119], [29.397565, 50.95658], [29.403146, 50.951826], [29.409089, 50.949552], [29.41467, 50.949035], [29.419166, 50.947537], [29.422577, 50.945108], [29.478129, 50.890046], [29.502313, 50.87258], [29.505104, 50.870254], [29.506964, 50.865604], [29.507584, 50.858886], [29.488516, 50.788735], [29.488516, 50.784497], [29.489911, 50.780828], [29.494872, 50.778322], [29.499058, 50.777547], [29.536161, 50.780828], [29.549339, 50.779562], [29.560191, 50.776694], [29.567477, 50.772095], [29.570268, 50.769305], [29.572128, 50.766152], [29.575074, 50.759383], [29.578484, 50.745275], [29.592334, 50.711091], [29.592489, 50.706466], [29.590938, 50.700782], [29.584737, 50.691583], [29.579931, 50.686984], [29.575074, 50.683728], [29.543913, 50.672411], [29.540347, 50.670034], [29.537402, 50.66714], [29.527945, 50.653549], [29.499833, 50.626419], [29.490376, 50.615205], [29.480764, 50.601692], [29.479369, 50.597894], [29.479369, 50.59376], [29.48371, 50.588463], [29.487741, 50.58513], [29.492236, 50.582417], [29.5096, 50.574433], [29.51239, 50.571332], [29.513165, 50.567353], [29.508514, 50.555958], [29.498593, 50.537174], [29.496577, 50.534383], [29.493322, 50.531955], [29.488671, 50.530559], [29.477043, 50.529629], [29.473478, 50.527097], [29.473168, 50.522343], [29.477354, 50.515056], [29.48278, 50.511646], [29.493477, 50.507512], [29.496577, 50.505031], [29.498593, 50.502654], [29.499678, 50.500742], [29.500143, 50.499502], [29.499988, 50.496608], [29.498903, 50.491699], [29.489911, 50.472165], [29.487585, 50.468754], [29.48464, 50.465861], [29.481074, 50.463535], [29.476578, 50.462036], [29.470997, 50.461804], [29.453117, 50.464362], [29.448001, 50.464259], [29.444126, 50.462579], [29.442265, 50.459556], [29.442885, 50.456094], [29.447226, 50.45258], [29.462419, 50.446714], [29.466036, 50.444518], [29.46676, 50.441288], [29.463659, 50.437206], [29.460559, 50.433976], [29.456063, 50.431857], [29.450792, 50.430927], [29.428313, 50.429325], [29.425677, 50.42638], [29.426142, 50.421987], [29.432653, 50.414365], [29.438855, 50.411807], [29.444901, 50.411109], [29.450172, 50.412014], [29.488671, 50.422349], [29.494097, 50.423202], [29.536626, 50.424209], [29.542363, 50.423202], [29.547168, 50.421574], [29.555075, 50.417181], [29.567322, 50.406898], [29.569648, 50.404055], [29.572438, 50.401368], [29.57497, 50.3985], [29.577554, 50.395942], [29.581172, 50.391317], [29.587683, 50.363593], [29.600705, 50.342664], [29.603651, 50.326928], [29.608302, 50.321477], [29.613263, 50.318944], [29.6252, 50.319461], [29.631711, 50.318944], [29.637809, 50.317885], [29.64215, 50.315895], [29.645405, 50.313467], [29.647886, 50.310521], [29.659823, 50.292047], [29.668505, 50.281582], [29.67145, 50.27905], [29.675016, 50.276673], [29.679977, 50.275019], [29.691449, 50.272436], [29.694911, 50.266855], [29.696462, 50.25776], [29.691139, 50.218382], [29.692431, 50.20691], [29.692431, 50.202776], [29.691759, 50.198512], [29.691139, 50.185619], [29.691449, 50.182157], [29.692896, 50.178901], [29.694911, 50.175697], [29.697702, 50.173062], [29.701268, 50.170736], [29.705298, 50.168566], [29.719251, 50.163243], [29.723282, 50.161125], [29.725607, 50.156319], [29.727312, 50.149678], [29.727312, 50.136268], [29.731498, 50.130868], [29.734134, 50.12583], [29.734444, 50.121489], [29.725607, 50.11136], [29.719096, 50.107045], [29.712895, 50.104074], [29.679357, 50.098751], [29.676876, 50.098028], [29.673931, 50.096787], [29.67114, 50.093945], [29.66928, 50.089785], [29.669125, 50.082912], [29.67083, 50.073843], [29.684473, 50.036843], [29.683698, 50.034414], [29.681217, 50.031313], [29.675171, 50.026818], [29.671915, 50.022632], [29.671915, 50.016276], [29.673776, 50.012193], [29.676101, 50.008524], [29.733514, 49.947443], [29.735374, 49.944264], [29.736304, 49.940828], [29.733204, 49.935299], [29.727467, 49.928787], [29.705143, 49.912923], [29.698322, 49.909409], [29.67114, 49.900365], [29.666644, 49.897523], [29.661218, 49.892614], [29.654862, 49.882899], [29.638739, 49.868688], [29.633881, 49.865432], [29.630057, 49.863468], [29.625355, 49.86197], [29.610472, 49.858533], [29.606286, 49.85675], [29.594349, 49.849257], [29.587528, 49.84595], [29.555075, 49.836183], [29.518746, 49.818458], [29.51394, 49.817425], [29.508824, 49.817115], [29.500143, 49.818096], [29.495802, 49.817115], [29.490376, 49.814582], [29.483555, 49.807658], [29.478129, 49.80435], [29.472083, 49.802749], [29.459784, 49.803524], [29.454513, 49.80342], [29.449707, 49.802335], [29.441955, 49.798356], [29.43901, 49.795075], [29.437459, 49.790837], [29.440405, 49.782181], [29.44335, 49.777427], [29.448621, 49.770502], [29.449397, 49.765309], [29.449087, 49.758565], [29.445211, 49.745491], [29.44242, 49.73867], [29.43963, 49.73327], [29.432033, 49.723761], [29.426607, 49.71818], [29.419476, 49.712418], [29.418391, 49.710119], [29.419321, 49.708077], [29.432653, 49.70663], [29.445211, 49.706837], [29.467897, 49.709524], [29.473323, 49.709628], [29.478439, 49.708956], [29.481539, 49.706734], [29.48278, 49.702651], [29.48309, 49.697432], [29.482159, 49.689396], [29.480919, 49.68397], [29.477974, 49.679268], [29.473788, 49.675676], [29.458543, 49.670974], [29.453272, 49.667925], [29.450017, 49.665444], [29.447226, 49.650871], [29.422266, 49.651285], [29.411673, 49.647978], [29.408262, 49.645445], [29.405162, 49.642707], [29.37276, 49.622863], [29.362684, 49.61891], [29.353795, 49.617127], [29.337052, 49.617799], [29.293954, 49.614698], [29.28181, 49.611649], [29.274213, 49.608238], [29.272663, 49.604311], [29.271578, 49.600254], [29.270648, 49.591289], [29.268632, 49.586224], [29.264292, 49.584545], [29.258866, 49.584545], [29.238867, 49.586793], [29.132413, 49.582013], [29.060842, 49.589325], [29.023014, 49.587361], [29.002034, 49.590462], [28.992887, 49.593252], [28.986841, 49.595836], [28.982655, 49.598317], [28.98002, 49.600952], [28.978779, 49.60382], [28.98002, 49.606921], [28.98281, 49.609634], [28.992577, 49.61723], [28.995367, 49.620124], [28.997228, 49.623121], [28.997228, 49.62617], [28.995678, 49.629116], [28.98219, 49.642862], [28.980485, 49.646014], [28.979244, 49.649373], [28.978314, 49.652964], [28.976144, 49.657486], [28.971803, 49.662163], [28.952993, 49.67118], [28.948497, 49.673816], [28.947567, 49.675573], [28.947412, 49.678467], [28.948652, 49.681826], [28.950667, 49.68534], [28.956093, 49.691334], [29.004204, 49.730918], [29.004514, 49.7342], [29.002034, 49.738308], [28.973508, 49.752157], [28.970253, 49.754173], [28.967307, 49.756653], [28.959091, 49.764715], [28.942296, 49.787969], [28.941366, 49.789881], [28.940435, 49.792672], [28.940125, 49.796237], [28.940901, 49.804557], [28.940435, 49.808433], [28.939195, 49.811895], [28.937645, 49.815203], [28.936405, 49.818613], [28.936095, 49.822179], [28.937025, 49.825745], [28.93966, 49.831145], [28.93718, 49.835305], [28.932219, 49.840653], [28.915321, 49.850911], [28.91005, 49.856518], [28.908499, 49.861143], [28.910205, 49.86476], [28.91129, 49.868352], [28.909585, 49.872383], [28.905037, 49.874527], [28.899146, 49.875871], [28.835377, 49.8814], [28.828246, 49.880573], [28.82406, 49.877834], [28.820649, 49.870238], [28.816464, 49.863003], [28.813983, 49.859748], [28.811038, 49.856802], [28.803286, 49.852332], [28.794553, 49.848999], [28.770368, 49.842798], [28.757501, 49.837243], [28.753935, 49.834891], [28.75099, 49.832075], [28.739052, 49.816494], [28.730474, 49.802361], [28.728149, 49.799183], [28.725358, 49.796806], [28.722878, 49.795204], [28.720242, 49.793964], [28.710475, 49.79355], [28.634614, 49.801147], [28.629498, 49.801043], [28.624951, 49.80001], [28.607277, 49.793498], [28.59224, 49.789623], [28.571001, 49.786651], [28.56635, 49.787969], [28.562732, 49.790191], [28.559942, 49.792775], [28.554051, 49.796237], [28.528471, 49.805772], [28.519014, 49.807296], [28.430854, 49.807761], [28.420157, 49.806573], [28.416746, 49.804144], [28.397988, 49.782853], [28.39251, 49.778512], [28.390495, 49.777143], [28.374217, 49.773267], [28.353443, 49.771484], [28.342074, 49.771588], [28.333392, 49.772518], [28.285953, 49.786625], [28.27536, 49.788176], [28.267453, 49.788227], [28.24916, 49.782388], [28.239083, 49.780166], [28.142861, 49.778306], [28.058112, 49.762699], [28.025401, 49.760374], [27.956826, 49.767221], [27.868046, 49.760064], [27.66072, 49.79895], [27.654364, 49.803937], [27.651574, 49.806624], [27.649248, 49.809518], [27.647543, 49.812825], [27.645527, 49.819957], [27.642272, 49.826571], [27.63173, 49.837733], [27.604238, 49.860781], [27.599122, 49.866466], [27.597727, 49.869721], [27.597417, 49.873183], [27.598502, 49.876749], [27.600052, 49.880211], [27.600982, 49.884087], [27.600517, 49.887472], [27.597417, 49.892821], [27.593231, 49.895714], [27.588115, 49.897937], [27.551166, 49.90667], [27.5445, 49.91083], [27.540934, 49.915093], [27.544035, 49.937107], [27.545585, 49.940983], [27.548686, 49.943618], [27.553647, 49.94473], [27.571527, 49.945789], [27.576643, 49.946719], [27.580053, 49.948476], [27.580828, 49.951447], [27.580208, 49.954832], [27.578813, 49.958269], [27.575092, 49.964599], [27.54698, 49.997801], [27.5445, 50.003227], [27.54388, 50.007077], [27.547756, 50.007542], [27.597727, 50.002736], [27.603928, 50.002917], [27.609354, 50.003666], [27.614366, 50.004855], [27.618552, 50.006664], [27.622273, 50.008834], [27.628319, 50.014312], [27.63173, 50.016844], [27.63545, 50.018963], [27.640256, 50.020358], [27.657, 50.022477], [27.66041, 50.024802], [27.662426, 50.028264], [27.663666, 50.032554], [27.664751, 50.043974], [27.663201, 50.052914], [27.660565, 50.057694], [27.657, 50.061157], [27.652504, 50.062939], [27.633435, 50.067952], [27.625839, 50.072138], [27.622428, 50.075703], [27.621188, 50.079347], [27.621498, 50.081956], [27.622118, 50.085005], [27.623513, 50.088493], [27.627234, 50.094875], [27.633125, 50.101723], [27.646303, 50.112239], [27.647853, 50.116709], [27.646303, 50.119783], [27.642117, 50.122781], [27.629714, 50.130015], [27.627234, 50.133943], [27.627234, 50.13787], [27.629559, 50.14079], [27.63359, 50.142883], [27.642892, 50.145828], [27.646923, 50.148567], [27.649558, 50.15265], [27.649713, 50.160556], [27.648163, 50.165207], [27.645992, 50.169109], [27.63452, 50.17978], [27.618242, 50.191407], [27.611059, 50.197608], [27.607804, 50.202156], [27.605943, 50.206652], [27.605943, 50.210786], [27.609354, 50.234298], [27.609199, 50.240241], [27.607494, 50.249336], [27.604083, 50.253832], [27.598657, 50.256364], [27.592456, 50.256881], [27.58672, 50.256364], [27.582534, 50.254556], [27.579743, 50.251584], [27.574937, 50.244944], [27.571992, 50.242102], [27.568426, 50.23975], [27.565481, 50.236986], [27.559383, 50.226134], [27.557109, 50.22293], [27.554008, 50.220346], [27.549926, 50.218382], [27.544345, 50.217684], [27.499645, 50.220552], [27.494839, 50.221534], [27.488483, 50.223756], [27.486467, 50.227942], [27.485692, 50.2405], [27.483522, 50.244685], [27.480576, 50.247941], [27.476545, 50.249956], [27.471895, 50.251765], [27.452051, 50.255537], [27.442594, 50.259361], [27.437271, 50.264038], [27.43169, 50.271764], [27.426264, 50.274658], [27.420838, 50.275562], [27.410296, 50.273831], [27.40363, 50.274709], [27.400064, 50.276983], [27.398359, 50.279903], [27.399444, 50.283081], [27.405645, 50.28892], [27.408436, 50.292822], [27.407041, 50.295742], [27.403785, 50.29817], [27.394483, 50.301788], [27.361565, 50.318066], [27.319346, 50.334137], [27.308184, 50.340338], [27.302758, 50.344524], [27.299037, 50.349149], [27.295161, 50.360699], [27.292216, 50.36473], [27.28865, 50.367882], [27.279193, 50.371344], [27.251546, 50.374497], [27.243795, 50.376099], [27.234958, 50.379716], [27.230617, 50.383127], [27.228292, 50.386847], [27.228137, 50.390775], [27.228912, 50.394883], [27.248446, 50.441288], [27.250616, 50.444854], [27.253097, 50.448032], [27.256042, 50.450926], [27.259298, 50.45351], [27.266584, 50.458083], [27.274542, 50.462114], [27.297177, 50.469917], [27.301207, 50.472113], [27.303998, 50.474568], [27.304618, 50.477979], [27.300897, 50.479813], [27.295626, 50.481312], [27.275886, 50.484387], [27.26891, 50.486428], [27.260383, 50.490148], [27.255577, 50.494903], [27.251391, 50.500561], [27.24581, 50.509837], [27.239609, 50.513713], [27.225036, 50.520586], [27.211497, 50.532601], [27.206381, 50.536089], [27.192273, 50.541205], [27.225453274088434, 50.56606478656166], [27.2306441, 50.5667752], [27.22858430116888, 50.56965000731928], [27.235578, 50.583011], [27.233408, 50.586602], [27.230152, 50.589109], [27.226121, 50.591253], [27.21798451419199, 50.59407786967716], [27.2242926, 50.6057938], [27.2060965, 50.6126569], [27.1975134, 50.61941], [27.19296914066632, 50.620250939188566], [27.193514, 50.622027], [27.195219, 50.623784], [27.197113451098534, 50.62665442253384], [27.2001743, 50.6270605], [27.2017622, 50.6282175], [27.2053885, 50.6286122], [27.2060752, 50.6292247], [27.2043586, 50.6300142], [27.2004747, 50.6303272], [27.20100613229819, 50.632552510819785], [27.20143903448689, 50.63320843284298], [27.2133063, 50.6400991], [27.2076414, 50.6438004], [27.211933, 50.6472837], [27.212507065097338, 50.65412639811412], [27.215218, 50.657477], [27.235268, 50.672721], [27.235303438115515, 50.672760004784806], [27.2442053, 50.6736178], [27.2505568, 50.6884106], [27.254505, 50.6898244], [27.2510718, 50.6930868], [27.2615431, 50.6985237], [27.2577666, 50.7014593], [27.2624014, 50.7085258], [27.2725294, 50.7123304], [27.2737311, 50.7255897], [27.269443923690783, 50.72819925634506], [27.27015, 50.730082], [27.270535019777167, 50.73189184135255], [27.2733877, 50.7331959], [27.2714995, 50.7360207], [27.27140975463785, 50.73600365954283], [27.2717, 50.737368], [27.270615, 50.740831], [27.267514, 50.747549], [27.266269296754356, 50.749496049444296], [27.2697828, 50.7530746], [27.2719287, 50.7598075], [27.2709846, 50.7628479], [27.2654056, 50.7631193], [27.2617148, 50.7613277], [27.2591399, 50.7665395], [27.24892386778712, 50.76840463512102], [27.241004, 50.775997], [27.23998047922033, 50.777223506317725], [27.243862, 50.7924812], [27.2340773, 50.795194], [27.2333049, 50.8002392], [27.2359656, 50.8056636], [27.2349357, 50.8116297], [27.2384547, 50.8134194], [27.2385406, 50.8181373], [27.2393989, 50.8226921], [27.2417163, 50.8260537], [27.2379397, 50.8315293], [27.2377681, 50.8339146], [27.2321891, 50.8386846], [27.2354507, 50.8412863], [27.2384547, 50.8491446], [27.2489261, 50.8578142], [27.2437762, 50.8694615], [27.2530459, 50.882189], [27.2473811, 50.8839218], [27.2508144, 50.8893365], [27.2563933, 50.8939385], [27.2563933, 50.8960499], [27.2502135, 50.9005429], [27.241373, 50.9020586], [27.234249, 50.9057933], [27.2357082, 50.9097443], [27.2334766, 50.9123419], [27.2245502, 50.9108808], [27.2218894, 50.9128831], [27.218807592559326, 50.91919063355748], [27.228137, 50.922112], [27.232788, 50.924851], [27.236663, 50.93069], [27.236353, 50.934514], [27.23600707746374, 50.93496816281373], [27.2380256, 50.9354982], [27.2387122, 50.9370668], [27.2339915, 50.93777], [27.2387122, 50.9452875], [27.2321891, 50.9467476], [27.2343349, 50.9485862], [27.2229194, 50.9526416], [27.2258376, 50.9611839], [27.220087, 50.972319], [27.2157096, 50.9747511], [27.2107314, 50.9825868], [27.2042083, 50.9886924], [27.2030067, 50.9915018], [27.202501633177583, 50.99772795847684], [27.205761, 50.999859], [27.206536, 51.000505], [27.208461909312742, 51.00442689051239], [27.2254937, 51.010731], [27.227426305594175, 51.028966769539004], [27.227517, 51.029004], [27.232323, 51.0304], [27.271235, 51.036058], [27.273626683181735, 51.03683761113583], [27.3229974, 51.0439847], [27.3257439, 51.07894], [27.3648827, 51.1005042], [27.4047082, 51.1961278], [27.416317794392505, 51.203325533898926], [27.42983, 51.208373], [27.435256, 51.211861], [27.440837, 51.216977], [27.443035167628903, 51.21988981138634], [27.4719994, 51.2378471], [27.4431603, 51.3070091], [27.4912255, 51.3164518], [27.528991, 51.3653506], [27.4912255, 51.3760671], [27.500274877384136, 51.43568419689525], [27.502125, 51.44022], [27.505433, 51.44208], [27.509928, 51.443062], [27.515509, 51.442597], [27.520005, 51.441046], [27.523571, 51.438695], [27.526827, 51.436189], [27.532098, 51.430659], [27.536128, 51.424381], [27.537989, 51.420996], [27.540779, 51.418102], [27.54388, 51.415467], [27.583619, 51.393711], [27.58858, 51.39198], [27.593851, 51.391127], [27.600207, 51.39185], [27.602843, 51.394977], [27.604238, 51.398853], [27.603780658113866, 51.40165458787666], [27.6127618, 51.4017764], [27.587222441652273, 51.47299807359685], [27.58951, 51.474274], [27.598657, 51.477297], [27.609354, 51.479313], [27.633125, 51.486728], [27.666146, 51.490191], [27.670331, 51.484817], [27.683767, 51.475515], [27.700045, 51.467531], [27.714256, 51.463707], [27.730121, 51.465154], [27.74056, 51.471407], [27.787327, 51.510914], [27.792546, 51.517296], [27.797145, 51.530603], [27.796267, 51.541532], [27.793735, 51.552307], [27.793218, 51.565019], [27.799522, 51.585199], [27.812545, 51.602019], [27.831252, 51.612923], [27.854196, 51.615326], [27.87559, 51.60804], [27.936051, 51.567009], [27.954758, 51.560782], [27.973155, 51.55781], [28.070824, 51.557629], [28.090151, 51.562048], [28.114232, 51.575613], [28.146685, 51.614396], [28.166218, 51.633103], [28.187612, 51.645195], [28.21004, 51.651965], [28.2304, 51.651138], [28.245128, 51.640622]]]}, "properties": {"name": "Житомирская область", "source": "Natural Earth admin-1 и OpenHistoricalMap (CC0): контуры Речи Посполитой 1773-1793 и 1793-1795 (data/poland/ohm_rp_*), воеводства - relations 2743088, 2743090, 2743089; нарезка 22.09.2026"}}]}