{"type": "FeatureCollection", "features": [{"type": "Feature", "geometry": {"type": "Polygon", "coordinates": [[[25.767915, 51.928511], [25.981132, 51.903474], [26.050585, 51.904817], [26.080764, 51.900657], [26.14536, 51.864846], [26.175332, 51.856707], [26.407773, 51.850609], [26.419762, 51.846862], [26.419968, 51.839731], [26.416971, 51.830636], [26.419245, 51.820921], [26.431544, 51.810224], [26.4456, 51.805599], [26.665741, 51.801387], [26.854774, 51.749349], [26.920816, 51.742528], [27.021585, 51.764542], [27.109952, 51.762423], [27.151086, 51.756764], [27.177855, 51.747075], [27.184159, 51.731443], [27.181472, 51.710126], [27.181059, 51.68341], [27.189017, 51.663773], [27.20359, 51.655143], [27.22364, 51.653696], [27.247928, 51.655659], [27.277487, 51.651138], [27.27449, 51.6338], [27.25971, 51.612303], [27.254026, 51.595379], [27.267462, 51.587498], [27.289269, 51.588971], [27.32906, 51.596955], [27.388385, 51.590728], [27.409004, 51.59171], [27.430966, 51.598428], [27.458768, 51.617496], [27.477268, 51.623672], [27.512305, 51.623129], [27.512426, 51.623099], [27.620619, 51.595896], [27.676842, 51.59481], [27.692655, 51.589229], [27.705161, 51.568352], [27.699557395015386, 51.550399062629815], [27.6941299, 51.5464952], [27.6838302, 51.5414242], [27.6817702, 51.5298388], [27.6840018, 51.5275427], [27.68435162056157, 51.52353225089599], [27.682152287300852, 51.52019553034464], [27.6688956, 51.5177163], [27.5866692, 51.4745409], [27.587222441652273, 51.47299807359685], [27.585944, 51.472285], [27.582534, 51.466265], [27.579588, 51.45735], [27.575713, 51.437946], [27.576798, 51.429368], [27.579433, 51.423735], [27.594161, 51.414485], [27.599897, 51.409059], [27.602067, 51.405984], [27.603618, 51.402651], [27.603780658113866, 51.40165458787666], [27.5811761, 51.401348], [27.5200646, 51.4505842], [27.5022118, 51.4484446], [27.500274877384136, 51.43568419689525], [27.498921, 51.432365], [27.488638, 51.388181], [27.488328, 51.375314], [27.490343, 51.367123], [27.506208, 51.358235], [27.508998, 51.355625], [27.511324, 51.35268], [27.511324, 51.347822], [27.509463, 51.342086], [27.503572, 51.332888], [27.500265, 51.32896], [27.496854, 51.325601], [27.486777, 51.318677], [27.482747, 51.316765], [27.477941, 51.315292], [27.422078, 51.307308], [27.418358, 51.305241], [27.416652, 51.30214], [27.418203, 51.297722], [27.450345, 51.255631], [27.451896, 51.253073], [27.452671, 51.251084], [27.453756, 51.244366], [27.453756, 51.240309], [27.452361, 51.234651], [27.449105, 51.227933], [27.443035167628903, 51.21988981138634], [27.416317794392505, 51.203325533898926], [27.407351, 51.199976], [27.40363, 51.197754], [27.400374, 51.195144], [27.397584, 51.192173], [27.38482, 51.16742], [27.380479, 51.16127], [27.376138, 51.157059], [27.372262, 51.154862], [27.369007, 51.152382], [27.360635, 51.144915], [27.358155, 51.141969], [27.356139, 51.136569], [27.354589, 51.129283], [27.352109, 51.107243], [27.349628, 51.099827], [27.343427, 51.092282], [27.338931, 51.087941], [27.334694, 51.084582], [27.323687, 51.077864], [27.320276, 51.075332], [27.3164, 51.070733], [27.305083, 51.052491], [27.299657, 51.047195], [27.294541, 51.043655], [27.273626683181735, 51.03683761113583], [27.2275536, 51.0301679], [27.227426305594175, 51.028966769539004], [27.223176, 51.027222], [27.219765, 51.024793], [27.216458, 51.02071], [27.208461909312742, 51.00442689051239], [27.2021478, 51.0020898], [27.202501633177583, 50.99772795847684], [27.199715, 50.995906], [27.198785, 50.994045], [27.198165, 50.990893], [27.204366, 50.981746], [27.214908, 50.96968], [27.216923, 50.965313], [27.218318, 50.959784], [27.219765, 50.95043], [27.222659, 50.945676], [27.226276, 50.942266], [27.233873, 50.93777], [27.23600707746374, 50.93496816281373], [27.2287559, 50.9330641], [27.2156238, 50.9257069], [27.218807592559326, 50.91919063355748], [27.217905, 50.918908], [27.215993, 50.915911], [27.219145, 50.91064], [27.222349, 50.907074], [27.235268, 50.896325], [27.239919, 50.890382], [27.240229, 50.883251], [27.238679, 50.872812], [27.224106, 50.824521], [27.223176, 50.819069], [27.223279, 50.812299], [27.225346, 50.801447], [27.227207, 50.795453], [27.229222, 50.790776], [27.231237, 50.787701], [27.23998047922033, 50.777223506317725], [27.2399138, 50.7769614], [27.2424887, 50.7695795], [27.24892386778712, 50.76840463512102], [27.261003, 50.756825], [27.263484, 50.753853], [27.266269296754356, 50.749496049444296], [27.2627447, 50.7459062], [27.2680662, 50.7353688], [27.27140975463785, 50.73600365954283], [27.270535019777167, 50.73189184135255], [27.2702978, 50.7317834], [27.2692679, 50.7283064], [27.269443923690783, 50.72819925634506], [27.266429, 50.72016], [27.243485, 50.681765], [27.235303438115515, 50.672760004784806], [27.2148512, 50.6707892], [27.2047232, 50.6673076], [27.2021483, 50.6629553], [27.2045515, 50.6590379], [27.2127913, 50.6575144], [27.212507065097338, 50.65412639811412], [27.211497, 50.652878], [27.20204, 50.634119], [27.20143903448689, 50.63320843284298], [27.2011183, 50.6330222], [27.20100613229819, 50.632552510819785], [27.197113451098534, 50.62665442253384], [27.1945309, 50.6263118], [27.1928143, 50.6274416], [27.1895313, 50.6271558], [27.1877287, 50.6256177], [27.1892737, 50.6209348], [27.19296914066632, 50.620250939188566], [27.192428, 50.618487], [27.192583, 50.613758], [27.196924, 50.605232], [27.201575, 50.600917], [27.206846, 50.597945], [27.21798451419199, 50.59407786967716], [27.2150229, 50.5885773], [27.22858430116888, 50.56965000731928], [27.227517, 50.567611], [27.225453274088434, 50.56606478656166], [27.1964835, 50.5621], [27.1856688, 50.560996], [27.1537398, 50.5627407], [27.131934440146612, 50.56076187624807], [27.132225, 50.563555], [27.131915, 50.568722], [27.13052, 50.574226], [27.127820443568623, 50.57904614786907], [27.1300505, 50.5882503], [27.1190642, 50.5898851], [27.1183775, 50.5939173], [27.1113394, 50.5930455], [27.105527561919054, 50.586870637960175], [27.097602, 50.586602], [27.095302578753163, 50.58607145209405], [27.090225, 50.5873784], [27.088288395956408, 50.58325908322581], [27.087525, 50.582804], [27.085303181730698, 50.58085955065658], [27.0797537, 50.5837817], [27.0634459, 50.5618684], [27.07032623226781, 50.55787744016632], [27.067992, 50.556811], [27.063341, 50.555338], [27.04880355888299, 50.55246273981759], [27.0340918, 50.5559795], [27.0181271, 50.5581607], [27.0078274, 50.5393994], [26.9879147, 50.5339442], [26.9844815, 50.5230318], [26.9175335, 50.536781], [26.8986508, 50.5465994], [26.8804547, 50.5339442], [26.8735882, 50.5228135], [26.8601986, 50.5158282], [26.860012194902257, 50.51539850998495], [26.848237568638915, 50.512169698627346], [26.8378827, 50.5151733], [26.8368527, 50.5219404], [26.826553, 50.5228135], [26.8203732, 50.5173563], [26.819056441432167, 50.50416771598725], [26.816334776164446, 50.50342138709905], [26.7802044, 50.500981], [26.7774578, 50.4902794], [26.7671582, 50.4911531], [26.7702481, 50.4791384], [26.760635, 50.4769536], [26.7630383, 50.4703985], [26.7901608, 50.4749871], [26.7863842, 50.4671206], [26.762584473850254, 50.46431055293875], [26.757313, 50.465861], [26.745531, 50.466687], [26.744409990662284, 50.4663336553552], [26.7462155, 50.4791384], [26.7362591, 50.4765166], [26.7293927, 50.4572857], [26.73532394887576, 50.454348517044856], [26.734834, 50.44904], [26.73291625262169, 50.445449680078916], [26.717033, 50.4452624], [26.714469341240605, 50.430448169982576], [26.711838, 50.428343], [26.708737, 50.423796], [26.707962, 50.419972], [26.706510916237715, 50.4182412879215], [26.6923138, 50.4201129], [26.68638084271246, 50.403126082636156], [26.664072793830197, 50.391628090228195], [26.6591833, 50.3923235], [26.65756387766038, 50.38827327111785], [26.650084, 50.384418], [26.648224, 50.381163], [26.647759, 50.377442], [26.648534, 50.370647], [26.648379, 50.368347], [26.647449, 50.365143], [26.64739090443801, 50.365035662830365], [26.6202162, 50.371416], [26.6023634, 50.3680218], [26.5890597, 50.347487], [26.5870856, 50.3405306], [26.5721511, 50.3351619], [26.5524959, 50.3296283], [26.5627097, 50.3212992], [26.5607356, 50.3171889], [26.5441703, 50.3181754], [26.5467452, 50.309351], [26.5324115, 50.3068295], [26.5272616, 50.3110503], [26.520996, 50.3045819], [26.5277766, 50.2997574], [26.5251159, 50.2957001], [26.5153312, 50.2969064], [26.4564507, 50.2643269], [26.4458082, 50.2634487], [26.4387701, 50.2613637], [26.411476, 50.2621319], [26.3975714, 50.2647655], [26.3828085, 50.2601565], [26.3834952, 50.2548885], [26.377487, 50.251486], [26.3709639, 50.2524738], [26.3618658, 50.2508274], [26.3611792, 50.2467659], [26.345558, 50.2382027], [26.3239287, 50.230846], [26.3228987, 50.2249158], [26.3151739, 50.2167881], [26.3067625, 50.212504], [26.3026427, 50.2054729], [26.3060759, 50.1994296], [26.2883948, 50.1850328], [26.2657355, 50.1782174], [26.2585257, 50.1808557], [26.2441061, 50.1750293], [26.23127829014928, 50.17255465333939], [26.230368, 50.182364], [26.227268, 50.186343], [26.221067, 50.191407], [26.213728, 50.193991], [26.205047, 50.199417], [26.202411, 50.204326], [26.201791, 50.20908], [26.203031, 50.213163], [26.204582, 50.217038], [26.208974, 50.223808], [26.214039, 50.230061], [26.217191, 50.232903], [26.224632, 50.238536], [26.227888, 50.242386], [26.230988, 50.248561], [26.230058, 50.25316], [26.227268, 50.257346], [26.221842, 50.261687], [26.217191, 50.262462], [26.213315, 50.261274], [26.203186, 50.25391], [26.19528, 50.249956], [26.165824, 50.242102], [26.160553, 50.241456], [26.154197, 50.241585], [26.147169, 50.242618], [26.08309, 50.262462], [26.071308, 50.264684], [26.065262, 50.265253], [26.059061, 50.265149], [26.053635, 50.264348], [26.048674, 50.263134], [26.021957, 50.253367], [26.01219, 50.25378], [25.998548, 50.255692], [25.969971, 50.262669], [25.956638, 50.264374], [25.947181, 50.264529], [25.923255, 50.252824], [25.830496, 50.187815], [25.822745, 50.183759], [25.80905, 50.17916], [25.69283, 50.173114], [25.675777, 50.170581], [25.666785, 50.167326], [25.651592, 50.157456], [25.645804, 50.154458], [25.635883, 50.150789], [25.629216, 50.150583], [25.62472, 50.152133], [25.617899, 50.158334], [25.611543, 50.161202], [25.606892, 50.160892], [25.602396, 50.159626], [25.58064, 50.145828], [25.575059, 50.1434], [25.566688, 50.140764], [25.560332, 50.14079], [25.556301, 50.142521], [25.551185, 50.145363], [25.544364, 50.148309], [25.519042, 50.152469], [25.497493, 50.158851], [25.472637, 50.16345], [25.46101, 50.164122], [25.453413, 50.162727], [25.450778, 50.159781], [25.448762, 50.156267], [25.442871, 50.140506], [25.441476, 50.132263], [25.442406, 50.128672], [25.443956, 50.125416], [25.446902, 50.122755], [25.450313, 50.120404], [25.46225, 50.114099], [25.46535, 50.111515], [25.467056, 50.108595], [25.467056, 50.105211], [25.459924, 50.096141], [25.458374, 50.092395], [25.454498, 50.087873], [25.448452, 50.083145], [25.41941, 50.071879], [25.416309, 50.069192], [25.414759, 50.065575], [25.413829, 50.061647], [25.414139, 50.057823], [25.415534, 50.050175], [25.415534, 50.045989], [25.414449, 50.036869], [25.412899, 50.032528], [25.410728, 50.027954], [25.407473, 50.027696], [25.400341, 50.032347], [25.39414, 50.034931], [25.381273, 50.036714], [25.374762, 50.035499], [25.370989, 50.032399], [25.369956, 50.028213], [25.367579, 50.013123], [25.295903, 50.041339], [25.288237964626667, 50.04573231200634], [25.1971432, 50.1311434], [25.2084729, 50.1615049], [25.2005764, 50.1641441], [25.2036666, 50.1698068], [25.2105328, 50.1716212], [25.2150821, 50.1800312], [25.2066707, 50.1856372], [25.181887349858787, 50.19666033163539], [25.169141, 50.206626], [25.166068276921713, 50.211597188640496], [25.168424533905846, 50.22047606581098], [25.171982379623394, 50.222783520527], [25.1840969, 50.2234882], [25.182275727574154, 50.22945931148543], [25.196271, 50.238536], [25.202627, 50.243833], [25.205108, 50.246856], [25.205579375291823, 50.24750148867265], [25.2067562, 50.2474247], [25.20632628541658, 50.24852428735001], [25.207485, 50.250111], [25.20826, 50.255899], [25.207795, 50.263392], [25.20450279828379, 50.2745761752175], [25.2046963, 50.2790288], [25.202022364769434, 50.27998562086515], [25.199837, 50.283624], [25.195651, 50.28799], [25.191465, 50.289902], [25.186659, 50.291582], [25.175652, 50.293985], [25.169451, 50.294553], [25.163405, 50.294398], [25.152863, 50.292486], [25.126760665385824, 50.28242344967727], [25.1125143, 50.2849521], [25.1127289, 50.2871458], [25.0943182, 50.2914232], [25.0750921, 50.2933972], [25.06743739577189, 50.29725776132788], [25.122581, 50.331192], [25.14382, 50.347366], [25.155498, 50.357857], [25.163405, 50.361991], [25.172552, 50.36442], [25.181698, 50.365867], [25.195031, 50.369742], [25.200974, 50.375685], [25.203558, 50.380749], [25.203558, 50.385349], [25.202007, 50.388604], [25.199113, 50.391317], [25.194256, 50.39279], [25.176272, 50.395193], [25.171467, 50.396872], [25.167901, 50.399043], [25.142269, 50.427465], [25.132968, 50.43532], [25.11793, 50.444156], [25.101342, 50.452115], [25.097311, 50.454543], [25.094055, 50.457592], [25.091833, 50.461804], [25.093435, 50.464982], [25.097311, 50.46661], [25.103047, 50.466946], [25.12134, 50.465034], [25.127387, 50.46524], [25.132502, 50.466274], [25.136843, 50.468083], [25.140564, 50.470305], [25.144026, 50.472785], [25.151313, 50.479684], [25.166971, 50.498158], [25.168366, 50.500432], [25.166661, 50.503171], [25.164025, 50.505341], [25.156894, 50.50994], [25.127387, 50.524462], [25.123201, 50.527407], [25.11948, 50.532471], [25.11979, 50.536192], [25.122426, 50.540094], [25.126301, 50.54384], [25.132502, 50.548801], [25.137618, 50.551643], [25.143096, 50.552858], [25.148057, 50.552832], [25.194876, 50.54477], [25.270789, 50.539629], [25.27854, 50.540791], [25.286602, 50.543039], [25.297454, 50.549266], [25.30226, 50.554227], [25.30505, 50.559059], [25.305515, 50.563374], [25.305515, 50.567508], [25.305205, 50.571539], [25.304275, 50.575208], [25.302725, 50.57867], [25.299159, 50.585207], [25.286757, 50.600219], [25.285361, 50.604353], [25.286447, 50.610658], [25.289857, 50.613965], [25.294973, 50.615722], [25.366648, 50.609263], [25.37347, 50.609469], [25.381583, 50.611795], [25.383753, 50.614921], [25.382978, 50.617944], [25.379257, 50.620218], [25.356261, 50.629106], [25.352541, 50.632026], [25.351456, 50.636264], [25.353471, 50.64324], [25.360912, 50.649932], [25.363858, 50.655048], [25.364633, 50.658975], [25.359052, 50.669104], [25.358432, 50.673031], [25.359517, 50.677941], [25.363393, 50.678871], [25.366958, 50.677941], [25.381583, 50.668639], [25.39414, 50.663316], [25.415379, 50.658019], [25.440236, 50.654273], [25.448607, 50.654738], [25.458374, 50.656443], [25.488191, 50.668329], [25.522608, 50.676675], [25.561107, 50.689878], [25.582501, 50.700161], [25.602861, 50.706879], [25.655623, 50.707034], [25.66849, 50.70551], [25.673451, 50.703908], [25.688489, 50.694529], [25.70792, 50.679491], [25.710193, 50.676675], [25.710865, 50.673445], [25.710193, 50.670318], [25.709883, 50.667192], [25.71226, 50.664815], [25.716756, 50.663109], [25.756134, 50.658665], [25.761766, 50.657425], [25.766727, 50.655771], [25.774944, 50.651637], [25.795563, 50.637426], [25.803779, 50.633292], [25.809825, 50.631716], [25.816957, 50.630863], [25.82724, 50.631173], [25.832821, 50.633189], [25.836542, 50.636264], [25.845534, 50.669931], [25.847549, 50.673445], [25.85065, 50.677114], [25.854526, 50.680886], [25.860882, 50.685899], [25.867858, 50.693366], [25.869563, 50.696906], [25.870649, 50.700678], [25.870494, 50.708585], [25.869718, 50.712409], [25.869253, 50.716362], [25.865378, 50.735301], [25.867858, 50.77442], [25.867703, 50.777779], [25.868323, 50.781293], [25.870029, 50.785324], [25.875455, 50.792559], [25.880312, 50.796202], [25.885583, 50.798708], [25.890389, 50.800052], [25.935089, 50.82297], [25.942996, 50.82589], [25.948267, 50.82682], [25.954003, 50.827182], [25.959739, 50.826975], [25.979117, 50.824185], [25.988316, 50.82434], [25.993587, 50.826097], [25.997308, 50.828422], [26.003199, 50.834649], [26.004284, 50.837207], [26.003199, 50.839739], [26.000873, 50.841626], [25.995137, 50.844545], [25.971211, 50.851728], [25.967025, 50.853744], [25.965785, 50.857826], [25.969196, 50.864337], [25.981908, 50.876791], [26.006609, 50.891726], [26.01157, 50.895473], [26.013276, 50.899193], [26.014206, 50.903276], [26.014671, 50.907229], [26.014826, 50.911337], [26.013431, 50.914825], [26.011105, 50.917461], [26.006144, 50.920665], [26.002269, 50.924334], [25.997463, 50.927357], [25.981598, 50.935031], [25.977877, 50.93733], [25.975397, 50.940715], [25.974932, 50.945108], [25.978962, 50.952497], [25.983148, 50.956373], [25.988626, 50.95875], [26.059991, 50.96521], [26.067898, 50.96676], [26.076269, 50.969602], [26.089757, 50.97601], [26.094253, 50.980764], [26.095803, 50.985157], [26.093942, 50.992495], [26.092237, 51.004691], [26.091152, 51.007895], [26.089292, 51.011099], [26.086501, 51.013734], [26.083245, 51.016215], [26.080455, 51.019005], [26.07906, 51.022519], [26.077199, 51.030322], [26.075804, 51.033836], [26.073944, 51.037066], [26.058441, 51.054145], [26.041336, 51.066341], [26.033274, 51.070578], [26.028934, 51.072283], [26.023973, 51.073472], [26.012655, 51.07311], [26.002734, 51.07156], [25.999788, 51.070578], [25.989556, 51.065307], [25.985009, 51.064015], [25.979738, 51.063705], [25.954468, 51.070681], [25.949817, 51.072593], [25.946716, 51.075177], [25.946716, 51.08019], [25.950902, 51.108095], [25.952452, 51.114141], [25.957258, 51.116415], [26.028003, 51.12551], [26.035755, 51.129179], [26.047589, 51.136], [26.05658, 51.14631], [26.060611, 51.15326], [26.062006, 51.159255], [26.062937, 51.169849], [26.062782, 51.174241], [26.061386, 51.17791], [26.059371, 51.18114], [26.056425, 51.183853], [26.005369, 51.215841], [25.928888, 51.23956], [25.924961, 51.24186], [25.92186, 51.244366], [25.916744, 51.250102], [25.897365, 51.265192], [25.868478, 51.279868], [25.865068, 51.282141], [25.861812, 51.284725], [25.859642, 51.287748], [25.858556, 51.291392], [25.857471, 51.299246], [25.856386, 51.302605], [25.854526, 51.305241], [25.852355, 51.306894], [25.849255, 51.30829], [25.829411, 51.314052], [25.820057, 51.317617], [25.816543, 51.319943], [25.813391, 51.322604], [25.808895, 51.32865], [25.8075, 51.332061], [25.808585, 51.339606], [25.811841, 51.350354], [25.821298, 51.372524], [25.822124, 51.38105], [25.820264, 51.384254], [25.816233, 51.382704], [25.800834, 51.374074], [25.796493, 51.372239], [25.791687, 51.370844], [25.785796, 51.370146], [25.772618, 51.370379], [25.766211, 51.371232], [25.760836, 51.372627], [25.756444, 51.374539], [25.753188, 51.377071], [25.750708, 51.380068], [25.749157, 51.383376], [25.746987, 51.386476], [25.743421, 51.388285], [25.73877, 51.388698], [25.734119, 51.387639], [25.730089, 51.385288], [25.726678, 51.38198], [25.720477, 51.37304], [25.717376, 51.369888], [25.71009, 51.365263], [25.705852, 51.363351], [25.700737, 51.362188], [25.695155, 51.361775], [25.689574, 51.36224], [25.66849, 51.367614], [25.655778, 51.368519], [25.642859, 51.368209], [25.631232, 51.366658], [25.62131, 51.3641], [25.607822, 51.35901], [25.604412, 51.356504], [25.601621, 51.353584], [25.599141, 51.350354], [25.593508, 51.339347], [25.590872, 51.336298], [25.587307, 51.333973], [25.582966, 51.332707], [25.57785, 51.332939], [25.573509, 51.33387], [25.569478, 51.335652], [25.566068, 51.337952], [25.562812, 51.34051], [25.557696, 51.346246], [25.555681, 51.349347], [25.554596, 51.352964], [25.553975, 51.357537], [25.561417, 51.394538], [25.561727, 51.398878], [25.559712, 51.410532], [25.559401, 51.418774], [25.560642, 51.431848], [25.564828, 51.44885], [25.566068, 51.45766], [25.565913, 51.46182], [25.565138, 51.465593], [25.564207, 51.469184], [25.5532, 51.496599], [25.551185, 51.50497], [25.550565, 51.509724], [25.551495, 51.525434], [25.55351, 51.531015], [25.556146, 51.535149], [25.562037, 51.540885], [25.569168, 51.545795], [25.586532, 51.555355], [25.592164, 51.560367], [25.600226, 51.570754], [25.602706, 51.577007], [25.602861, 51.581916], [25.600846, 51.58512], [25.598055, 51.587963], [25.594128, 51.590236], [25.589787, 51.592045], [25.571959, 51.595404], [25.567153, 51.597161], [25.564362, 51.5999], [25.562812, 51.603362], [25.562037, 51.607186], [25.560487, 51.610442], [25.557851, 51.612457], [25.55351, 51.612354], [25.542813, 51.610597], [25.536457, 51.610442], [25.523693, 51.611837], [25.518732, 51.613413], [25.514546, 51.615429], [25.511601, 51.618116], [25.50943, 51.62119], [25.508035, 51.624704], [25.50726, 51.628529], [25.50695, 51.641396], [25.504469, 51.660775], [25.50602, 51.67819], [25.509895, 51.698653], [25.512686, 51.708265], [25.515321, 51.714983], [25.523693, 51.72475], [25.572734, 51.768365], [25.607977, 51.787718], [25.615109, 51.79255], [25.628131, 51.804487], [25.638363, 51.816786], [25.641309, 51.82216], [25.643014, 51.826966], [25.642704, 51.830893], [25.641464, 51.834407], [25.639758, 51.837715], [25.637588, 51.840764], [25.634022, 51.847275], [25.631542, 51.853011], [25.629836, 51.860194], [25.629681, 51.867325], [25.630922, 51.87208], [25.633557, 51.875929], [25.636658, 51.878487], [25.640533, 51.880761], [25.644719, 51.882751], [25.659034, 51.888073], [25.662599, 51.89058], [25.660274, 51.892233], [25.654848, 51.89306], [25.563897, 51.897039], [25.55165, 51.901845], [25.547396, 51.919442], [25.683476, 51.918021], [25.767915, 51.928511]]]}, "properties": {"name": "Ровенская область, остаток (Острог, Дубно, Ровно)", "source": "Natural Earth admin-1 и OpenHistoricalMap (CC0): контуры Речи Посполитой 1773-1793 и 1793-1795 (data/poland/ohm_rp_*), воеводства - relations 2743088, 2743090, 2743089; нарезка 22.09.2026"}}]}