{"type": "FeatureCollection", "features": [{"type": "Feature", "geometry": {"type": "MultiPolygon", "coordinates": [[[[23.8036288, 56.3421183], [23.8135882, 56.3422914], [23.828884, 56.3380719], [23.9126194, 56.3386869], [23.914002, 56.3381011], [23.9140413, 56.3373409], [23.914681, 56.3369846], [23.914791, 56.3365225], [23.9139307, 56.3362181], [23.9141767, 56.3355937], [23.9139468, 56.3352772], [23.9144274, 56.3349117], [23.9146478, 56.3346392], [23.9146699, 56.3343413], [23.9144747, 56.3335836], [23.914147, 56.3333951], [23.9139807, 56.3332061], [23.9142075, 56.3319909], [23.9150077, 56.3311146], [23.94652, 56.330715], [23.9468244, 56.3305912], [23.9508889, 56.3305522], [23.9517317, 56.3305981], [23.9616773, 56.330422], [23.9710694, 56.3303641], [23.9828736, 56.3301762], [23.9830511, 56.3295657], [23.9843542, 56.329589], [23.984524, 56.3301589], [23.9937473, 56.3300791], [24.0189929, 56.3297595], [24.0226519, 56.3106887], [24.0492231, 56.2993421], [24.04668240595279, 56.2836936675107], [23.981306, 56.312404], [23.871107, 56.332072], [23.858109, 56.334392], [23.825036, 56.334909], [23.787820475425026, 56.33008268588691], [23.7890247, 56.3313975], [23.7909984, 56.3332644], [23.7952326, 56.3391193], [23.8036288, 56.3421183]]], [[[23.2388278, 53.1714745], [23.1179782, 53.3029814], [23.1069919, 53.4520797], [23.0108615, 53.4978512], [23.0328342, 53.5843548], [22.9476901, 53.6088049], [22.9284641, 53.7681975], [23.0493137, 53.8768229], [22.9023729, 53.9011026], [22.7827906, 53.9154865], [22.7820396, 53.9168766], [22.781589, 53.9197832], [22.7804732, 53.9203898], [22.7800441, 53.9213248], [22.7783704, 53.9228412], [22.77704, 53.9230434], [22.7758169, 53.9234098], [22.7748513, 53.9240037], [22.7735853, 53.9256083], [22.7734136, 53.9262401], [22.7723837, 53.9271877], [22.769959, 53.9285775], [22.7666974, 53.9302199], [22.7650237, 53.931698], [22.7600455, 53.935172], [22.7587795, 53.9368394], [22.7569127, 53.9380646], [22.7525782, 53.9400351], [22.7525997, 53.9418286], [22.7510977, 53.9432431], [22.7466988, 53.9455164], [22.7457118, 53.9463373], [22.7447676, 53.9464509], [22.7422142, 53.9476254], [22.7406263, 53.9478906], [22.7368283, 53.9495954], [22.7346182, 53.9496711], [22.7330088, 53.9494944], [22.7308416, 53.9498984], [22.7291679, 53.9507571], [22.72861, 53.9528911], [22.728095, 53.9530426], [22.7272153, 53.9531436], [22.7262497, 53.9528911], [22.7237177, 53.9526007], [22.7221297, 53.9532574], [22.7203488, 53.9546209], [22.7183533, 53.9553027], [22.7179026, 53.9559845], [22.715671, 53.9564769], [22.714448, 53.9570198], [22.7137828, 53.9582066], [22.7124309, 53.9591156], [22.7103925, 53.9619435], [22.7091479, 53.9625368], [22.7093839, 53.9646828], [22.708869, 53.9657179], [22.7091265, 53.9665132], [22.7080536, 53.9679774], [22.7066588, 53.9684065], [22.7050066, 53.9685706], [22.7039552, 53.9692648], [22.7036333, 53.9714231], [22.7006078, 53.9718774], [22.6965737, 53.9735308], [22.6935052, 53.9785787], [22.6942777, 53.9803958], [22.6935482, 53.982667], [22.6959085, 53.9844082], [22.695651, 53.9859223], [22.6947498, 53.986755], [22.6937198, 53.9904893], [22.6943636, 53.9922554], [22.6930761, 53.9948035], [22.6906299, 53.9964686], [22.6902008, 53.9975785], [22.6908016, 54.0005047], [22.6895999, 54.0010849], [22.6861238, 54.0035316], [22.6846647, 54.0041117], [22.6820039, 54.0043891], [22.6797723, 54.0054737], [22.6780557, 54.0096098], [22.6751804, 54.012636], [22.67282, 54.0171245], [22.671833, 54.0192172], [22.6708889, 54.0207552], [22.6717901, 54.0214107], [22.6720047, 54.0232512], [22.6707601, 54.024789], [22.6714897, 54.0263268], [22.6706743, 54.0289484], [22.6699018, 54.0295786], [22.6678419, 54.0302088], [22.6659536, 54.0313935], [22.6643228, 54.0314691], [22.6608038, 54.0330319], [22.6594734, 54.0342165], [22.6559543, 54.0357035], [22.6511478, 54.036636], [22.648487, 54.0387782], [22.6451397, 54.0396602], [22.641406, 54.0413487], [22.6362991, 54.0447001], [22.6286172, 54.047497], [22.6257848, 54.0479253], [22.6230812, 54.0476734], [22.6213216, 54.0491851], [22.6169872, 54.050596], [22.6129531, 54.0506968], [22.609992, 54.0500669], [22.6051855, 54.0512007], [22.6008081, 54.0520069], [22.5997781, 54.0528131], [22.6000356, 54.055685], [22.5987911, 54.0562895], [22.598319, 54.0581284], [22.5989198, 54.0591612], [22.5978469, 54.0635187], [22.5970316, 54.064501], [22.5967311, 54.0666669], [22.600336, 54.0679261], [22.6016235, 54.0682283], [22.6019668, 54.0710991], [22.6035976, 54.0724086], [22.603383, 54.0727359], [22.6046705, 54.0737683], [22.6037263, 54.0818756], [22.6102924, 54.085249], [22.611494, 54.0855762], [22.6132965, 54.0856769], [22.6159143, 54.0855259], [22.61909, 54.0861804], [22.621665, 54.0864321], [22.6233816, 54.0870866], [22.6244545, 54.0880179], [22.6244974, 54.0887479], [22.6237249, 54.0901826], [22.6241111, 54.0912901], [22.624669, 54.0917432], [22.6281452, 54.0926493], [22.6303339, 54.0927499], [22.6323509, 54.0922214], [22.6342821, 54.0923221], [22.6354837, 54.0929765], [22.6356983, 54.0939077], [22.6350116, 54.0952919], [22.6351833, 54.0961727], [22.6361274, 54.0969277], [22.6372003, 54.0972046], [22.6373291, 54.0976324], [22.6364278, 54.1007528], [22.6369428, 54.1025646], [22.6362991, 54.1053324], [22.6366853, 54.1065653], [22.6361274, 54.1078485], [22.6319217, 54.1090813], [22.6283168, 54.1105908], [22.6263856, 54.1107669], [22.6225662, 54.1125027], [22.6205062, 54.1129807], [22.6197767, 54.1136851], [22.6200342, 54.1148422], [22.6175022, 54.1172822], [22.6128244, 54.1200239], [22.6111936, 54.1218348], [22.6101207, 54.1237714], [22.6080179, 54.1252301], [22.6069879, 54.1277952], [22.6029968, 54.1333776], [22.6019239, 54.1365205], [22.59377, 54.1411715], [22.5932979, 54.1447412], [22.5914096, 54.1507485], [22.5884055, 54.1722824], [22.5866889, 54.1792151], [22.5784492, 54.1937298], [22.5705527, 54.2037213], [22.5534724, 54.2093939], [22.5399112, 54.2148147], [22.5372504, 54.2180267], [22.530899, 54.221138], [22.5278091, 54.2296179], [22.5269508, 54.2329792], [22.5313711, 54.2476505], [22.5321006, 54.2490797], [22.5348472, 54.254746], [22.5358771, 54.2582557], [22.5377654, 54.2643218], [22.5422286, 54.2689334], [22.5672912, 54.270788], [22.5704669, 54.2696352], [22.5759601, 54.2670287], [22.5762207, 54.2668876], [22.5794791, 54.2651239], [22.5899505, 54.262868], [22.6107215, 54.2599102], [22.6122665, 54.260211], [22.615013, 54.2619657], [22.6148414, 54.2637203], [22.6183604, 54.2652241], [22.6249694, 54.2690337], [22.6311492, 54.2750481], [22.6313209, 54.2766517], [22.633295, 54.2783556], [22.63381, 54.2798589], [22.6371574, 54.2818132], [22.6393031, 54.2838675], [22.6401614, 54.2855711], [22.6425647, 54.2862725], [22.644453, 54.287976], [22.6518344, 54.2855711], [22.6616191, 54.2838675], [22.6641082, 54.2820136], [22.6721763, 54.2797587], [22.6789569, 54.2794079], [22.6942348, 54.2752485], [22.6982688, 54.2777542], [22.700157, 54.2769525], [22.7035045, 54.2793077], [22.7275371, 54.2843185], [22.7458189, 54.2912825], [22.7512908, 54.2982077], [22.7538442, 54.2977569], [22.7561187, 54.3030534], [22.7601957, 54.312668], [22.7641439, 54.3215796], [22.7743148, 54.3260096], [22.776407, 54.3280023], [22.7818679, 54.333492], [22.7974032, 54.3398473], [22.8029822, 54.3409481], [22.8044414, 54.3469019], [22.8055572, 54.3492032], [22.8009223, 54.3522046], [22.7920004, 54.3633232], [22.78899313969404, 54.368420009474185], [22.811344, 54.392633], [22.812695, 54.394097], [22.837603, 54.400918], [22.858894, 54.399213], [22.918838, 54.381126], [22.92969, 54.380299], [22.952428, 54.38309], [22.96266, 54.381695], [22.973305, 54.37539], [22.97899, 54.367587], [22.983434, 54.359784], [22.989738, 54.353376], [23.001004, 54.34888], [23.035317, 54.346503], [23.041622, 54.340974], [23.038004, 54.331465], [23.032216, 54.320148], [23.032113, 54.309554], [23.050096, 54.294827], [23.073041, 54.294878], [23.096915, 54.300821], [23.117069, 54.303457], [23.135259, 54.298289], [23.197271, 54.267851], [23.235408, 54.254157], [23.316023, 54.236277], [23.33599, 54.226294], [23.354471, 54.217054], [23.364082, 54.208269], [23.382273, 54.187856], [23.391471, 54.180105], [23.401806, 54.175971], [23.423304, 54.172508], [23.432502, 54.169305], [23.449039, 54.154938], [23.462991, 54.13494], [23.473947, 54.112564], [23.481595, 54.091221], [23.496167, 54.044558], [23.496477, 54.021975], [23.481595, 54.006627], [23.469502, 54.000684], [23.464128, 53.996757], [23.45927, 53.992313], [23.45865, 53.981616], [23.462888, 53.972521], [23.470949, 53.965286], [23.481595, 53.960118], [23.487486, 53.955622], [23.49038, 53.95061], [23.48976, 53.945132], [23.485625, 53.939293], [23.486866, 53.909992], [23.497201, 53.885549], [23.51043, 53.862502], [23.520662, 53.837335], [23.52986, 53.78416], [23.540402, 53.763593], [23.56469, 53.742405], [23.564794, 53.742405], [23.567068, 53.681014], [23.590942, 53.611251], [23.675795, 53.455705], [23.722924, 53.397104], [23.742974, 53.365478], [23.782972, 53.270936], [23.800645, 53.242462], [23.818628, 53.227967], [23.828447, 53.213833], [23.836198, 53.199286], [23.848084, 53.183809], [23.856769750889892, 53.17807290679486], [23.7469469, 53.1055687], [23.5203539, 53.1360623], [23.2388278, 53.1714745]]]]}, "properties": {"name": "воеводство Трокское (OHM 2743090), нынешняя Польша (Сувалки, Сейны, Августов)", "source": "Natural Earth admin-1 и OpenHistoricalMap (CC0): контуры Речи Посполитой 1773-1793 и 1793-1795 (data/poland/ohm_rp_*), воеводства - relations 2743088, 2743090, 2743089; нарезка 22.09.2026"}}]}