{"type": "FeatureCollection", "features": [{"type": "Feature", "geometry": {"type": "Polygon", "coordinates": [[[25.547396, 51.919442], [25.55165, 51.901845], [25.563897, 51.897039], [25.654848, 51.89306], [25.660274, 51.892233], [25.662599, 51.89058], [25.659034, 51.888073], [25.644719, 51.882751], [25.640533, 51.880761], [25.636658, 51.878487], [25.633557, 51.875929], [25.630922, 51.87208], [25.629681, 51.867325], [25.629836, 51.860194], [25.631542, 51.853011], [25.634022, 51.847275], [25.637588, 51.840764], [25.639758, 51.837715], [25.641464, 51.834407], [25.642704, 51.830893], [25.643014, 51.826966], [25.641309, 51.82216], [25.638363, 51.816786], [25.628131, 51.804487], [25.615109, 51.79255], [25.607977, 51.787718], [25.572734, 51.768365], [25.523693, 51.72475], [25.515321, 51.714983], [25.512686, 51.708265], [25.509895, 51.698653], [25.50602, 51.67819], [25.504469, 51.660775], [25.50695, 51.641396], [25.50726, 51.628529], [25.508035, 51.624704], [25.50943, 51.62119], [25.511601, 51.618116], [25.514546, 51.615429], [25.518732, 51.613413], [25.523693, 51.611837], [25.536457, 51.610442], [25.542813, 51.610597], [25.55351, 51.612354], [25.557851, 51.612457], [25.560487, 51.610442], [25.562037, 51.607186], [25.562812, 51.603362], [25.564362, 51.5999], [25.567153, 51.597161], [25.571959, 51.595404], [25.589787, 51.592045], [25.594128, 51.590236], [25.598055, 51.587963], [25.600846, 51.58512], [25.602861, 51.581916], [25.602706, 51.577007], [25.600226, 51.570754], [25.592164, 51.560367], [25.586532, 51.555355], [25.569168, 51.545795], [25.562037, 51.540885], [25.556146, 51.535149], [25.55351, 51.531015], [25.551495, 51.525434], [25.550565, 51.509724], [25.551185, 51.50497], [25.5532, 51.496599], [25.564207, 51.469184], [25.565138, 51.465593], [25.565913, 51.46182], [25.566068, 51.45766], [25.564828, 51.44885], [25.560642, 51.431848], [25.559401, 51.418774], [25.559712, 51.410532], [25.561727, 51.398878], [25.561417, 51.394538], [25.553975, 51.357537], [25.554596, 51.352964], [25.555681, 51.349347], [25.557696, 51.346246], [25.562812, 51.34051], [25.566068, 51.337952], [25.569478, 51.335652], [25.573509, 51.33387], [25.57785, 51.332939], [25.582966, 51.332707], [25.587307, 51.333973], [25.590872, 51.336298], [25.593508, 51.339347], [25.599141, 51.350354], [25.601621, 51.353584], [25.604412, 51.356504], [25.607822, 51.35901], [25.62131, 51.3641], [25.631232, 51.366658], [25.642859, 51.368209], [25.655778, 51.368519], [25.66849, 51.367614], [25.689574, 51.36224], [25.695155, 51.361775], [25.700737, 51.362188], [25.705852, 51.363351], [25.71009, 51.365263], [25.717376, 51.369888], [25.720477, 51.37304], [25.726678, 51.38198], [25.730089, 51.385288], [25.734119, 51.387639], [25.73877, 51.388698], [25.743421, 51.388285], [25.746987, 51.386476], [25.749157, 51.383376], [25.750708, 51.380068], [25.753188, 51.377071], [25.756444, 51.374539], [25.760836, 51.372627], [25.766211, 51.371232], [25.772618, 51.370379], [25.785796, 51.370146], [25.791687, 51.370844], [25.796493, 51.372239], [25.800834, 51.374074], [25.816233, 51.382704], [25.820264, 51.384254], [25.822124, 51.38105], [25.821298, 51.372524], [25.811841, 51.350354], [25.808585, 51.339606], [25.8075, 51.332061], [25.808895, 51.32865], [25.813391, 51.322604], [25.816543, 51.319943], [25.820057, 51.317617], [25.829411, 51.314052], [25.849255, 51.30829], [25.852355, 51.306894], [25.854526, 51.305241], [25.856386, 51.302605], [25.857471, 51.299246], [25.858556, 51.291392], [25.859642, 51.287748], [25.861812, 51.284725], [25.865068, 51.282141], [25.868478, 51.279868], [25.897365, 51.265192], [25.916744, 51.250102], [25.92186, 51.244366], [25.924961, 51.24186], [25.928888, 51.23956], [26.005369, 51.215841], [26.056425, 51.183853], [26.059371, 51.18114], [26.061386, 51.17791], [26.062782, 51.174241], [26.062937, 51.169849], [26.062006, 51.159255], [26.060611, 51.15326], [26.05658, 51.14631], [26.047589, 51.136], [26.035755, 51.129179], [26.028003, 51.12551], [25.957258, 51.116415], [25.952452, 51.114141], [25.950902, 51.108095], [25.946716, 51.08019], [25.946716, 51.075177], [25.949817, 51.072593], [25.954468, 51.070681], [25.979738, 51.063705], [25.985009, 51.064015], [25.989556, 51.065307], [25.999788, 51.070578], [26.002734, 51.07156], [26.012655, 51.07311], [26.023973, 51.073472], [26.028934, 51.072283], [26.033274, 51.070578], [26.041336, 51.066341], [26.058441, 51.054145], [26.073944, 51.037066], [26.075804, 51.033836], [26.077199, 51.030322], [26.07906, 51.022519], [26.080455, 51.019005], [26.083245, 51.016215], [26.086501, 51.013734], [26.089292, 51.011099], [26.091152, 51.007895], [26.092237, 51.004691], [26.093942, 50.992495], [26.095803, 50.985157], [26.094253, 50.980764], [26.089757, 50.97601], [26.076269, 50.969602], [26.067898, 50.96676], [26.059991, 50.96521], [25.988626, 50.95875], [25.983148, 50.956373], [25.978962, 50.952497], [25.974932, 50.945108], [25.975397, 50.940715], [25.977877, 50.93733], [25.981598, 50.935031], [25.997463, 50.927357], [26.002269, 50.924334], [26.006144, 50.920665], [26.011105, 50.917461], [26.013431, 50.914825], [26.014826, 50.911337], [26.014671, 50.907229], [26.014206, 50.903276], [26.013276, 50.899193], [26.01157, 50.895473], [26.006609, 50.891726], [25.981908, 50.876791], [25.969196, 50.864337], [25.965785, 50.857826], [25.967025, 50.853744], [25.971211, 50.851728], [25.995137, 50.844545], [26.000873, 50.841626], [26.003199, 50.839739], [26.004284, 50.837207], [26.003199, 50.834649], [25.997308, 50.828422], [25.993587, 50.826097], [25.988316, 50.82434], [25.979117, 50.824185], [25.959739, 50.826975], [25.954003, 50.827182], [25.948267, 50.82682], [25.942996, 50.82589], [25.935089, 50.82297], [25.890389, 50.800052], [25.885583, 50.798708], [25.880312, 50.796202], [25.875455, 50.792559], [25.870029, 50.785324], [25.868323, 50.781293], [25.867703, 50.777779], [25.867858, 50.77442], [25.865378, 50.735301], [25.869253, 50.716362], [25.869718, 50.712409], [25.870494, 50.708585], [25.870649, 50.700678], [25.869563, 50.696906], [25.867858, 50.693366], [25.860882, 50.685899], [25.854526, 50.680886], [25.85065, 50.677114], [25.847549, 50.673445], [25.845534, 50.669931], [25.836542, 50.636264], [25.832821, 50.633189], [25.82724, 50.631173], [25.816957, 50.630863], [25.809825, 50.631716], [25.803779, 50.633292], [25.795563, 50.637426], [25.774944, 50.651637], [25.766727, 50.655771], [25.761766, 50.657425], [25.756134, 50.658665], [25.716756, 50.663109], [25.71226, 50.664815], [25.709883, 50.667192], [25.710193, 50.670318], [25.710865, 50.673445], [25.710193, 50.676675], [25.70792, 50.679491], [25.688489, 50.694529], [25.673451, 50.703908], [25.66849, 50.70551], [25.655623, 50.707034], [25.602861, 50.706879], [25.582501, 50.700161], [25.561107, 50.689878], [25.522608, 50.676675], [25.488191, 50.668329], [25.458374, 50.656443], [25.448607, 50.654738], [25.440236, 50.654273], [25.415379, 50.658019], [25.39414, 50.663316], [25.381583, 50.668639], [25.366958, 50.677941], [25.363393, 50.678871], [25.359517, 50.677941], [25.358432, 50.673031], [25.359052, 50.669104], [25.364633, 50.658975], [25.363858, 50.655048], [25.360912, 50.649932], [25.353471, 50.64324], [25.351456, 50.636264], [25.352541, 50.632026], [25.356261, 50.629106], [25.379257, 50.620218], [25.382978, 50.617944], [25.383753, 50.614921], [25.381583, 50.611795], [25.37347, 50.609469], [25.366648, 50.609263], [25.294973, 50.615722], [25.289857, 50.613965], [25.286447, 50.610658], [25.285361, 50.604353], [25.286757, 50.600219], [25.299159, 50.585207], [25.302725, 50.57867], [25.304275, 50.575208], [25.305205, 50.571539], [25.305515, 50.567508], [25.305515, 50.563374], [25.30505, 50.559059], [25.30226, 50.554227], [25.297454, 50.549266], [25.286602, 50.543039], [25.27854, 50.540791], [25.270789, 50.539629], [25.194876, 50.54477], [25.148057, 50.552832], [25.143096, 50.552858], [25.137618, 50.551643], [25.132502, 50.548801], [25.126301, 50.54384], [25.122426, 50.540094], [25.11979, 50.536192], [25.11948, 50.532471], [25.123201, 50.527407], [25.127387, 50.524462], [25.156894, 50.50994], [25.164025, 50.505341], [25.166661, 50.503171], [25.168366, 50.500432], [25.166971, 50.498158], [25.151313, 50.479684], [25.144026, 50.472785], [25.140564, 50.470305], [25.136843, 50.468083], [25.132502, 50.466274], [25.127387, 50.46524], [25.12134, 50.465034], [25.103047, 50.466946], [25.097311, 50.46661], [25.093435, 50.464982], [25.091833, 50.461804], [25.094055, 50.457592], [25.097311, 50.454543], [25.101342, 50.452115], [25.11793, 50.444156], [25.132968, 50.43532], [25.142269, 50.427465], [25.167901, 50.399043], [25.171467, 50.396872], [25.176272, 50.395193], [25.194256, 50.39279], [25.199113, 50.391317], [25.202007, 50.388604], [25.203558, 50.385349], [25.203558, 50.380749], [25.200974, 50.375685], [25.195031, 50.369742], [25.181698, 50.365867], [25.172552, 50.36442], [25.163405, 50.361991], [25.155498, 50.357857], [25.14382, 50.347366], [25.122581, 50.331192], [25.06743739577189, 50.29725776132788], [25.0653074, 50.298332], [25.063757208938704, 50.298686474120444], [25.065633, 50.323389], [25.063773, 50.334499], [25.061602, 50.337935], [25.05913925538282, 50.34058364211408], [25.0592136, 50.3406469], [25.0592029, 50.3409003], [25.0590849, 50.3412701], [25.0591761, 50.3414652], [25.05831020973628, 50.341411266394125], [25.053696, 50.344834], [25.04889, 50.347289], [25.043774, 50.348865], [25.038503, 50.349433], [25.034162, 50.349433], [25.00968105380416, 50.34642563193156], [24.9494361, 50.3857019], [24.9406009, 50.389259], [24.9401021, 50.3885886], [24.9396837, 50.3875215], [24.9387502, 50.3846894], [24.938128, 50.3838274], [24.9368405, 50.3824729], [24.9350595, 50.3814877], [24.9333429, 50.380051], [24.9317121, 50.3790657], [24.9303818, 50.3786142], [24.9293947, 50.3779779], [24.9285793, 50.3776768], [24.9299526, 50.37715], [24.9311113, 50.376151], [24.9319696, 50.3757679], [24.9328494, 50.3753573], [24.9348664, 50.3736604], [24.9358105, 50.3728803], [24.9363684, 50.3720181], [24.9368191, 50.3708685], [24.9372268, 50.3702937], [24.937389726320692, 50.36929900335504], [24.931895, 50.370156], [24.929414, 50.367417], [24.928639, 50.363851], [24.930344, 50.352224], [24.923988, 50.349485], [24.913063485008223, 50.34832141655691], [24.9126255, 50.3484044], [24.912645485349568, 50.34827689490241], [24.911379, 50.348142], [24.887417024352168, 50.350716826382836], [24.8875522, 50.3513208], [24.8883033, 50.3529638], [24.8886895, 50.3545109], [24.8888826, 50.3550996], [24.8896551, 50.3584126], [24.8875308, 50.3587411], [24.8828316, 50.3591929], [24.8765659, 50.359891], [24.8719311, 50.3603975], [24.8674679, 50.3611915], [24.8662877, 50.3602059], [24.8645711, 50.3581525], [24.862833, 50.3563317], [24.860816, 50.3546478], [24.860560821757808, 50.353602650990915], [24.848385, 50.354911], [24.825441, 50.351966], [24.816004036713544, 50.349820732544536], [24.8139095, 50.3497873], [24.8125791, 50.3495135], [24.8112917, 50.3494176], [24.809618, 50.3487604], [24.8072576, 50.3473911], [24.8031378, 50.3473364], [24.8012709, 50.3471036], [24.7992539, 50.3467339], [24.7918725, 50.3464053], [24.790864, 50.3463779], [24.7899413, 50.3461314], [24.7891688, 50.345392], [24.7867226, 50.3436803], [24.7849202, 50.3427901], [24.7837186, 50.3417768], [24.78287678642148, 50.34110019605966], [24.77299, 50.340545], [24.723794, 50.343723], [24.713097, 50.345506], [24.712620220280847, 50.34571028709459], [24.712801, 50.3462409], [24.7129297, 50.346816], [24.7134232, 50.3495683], [24.7136807, 50.3503487], [24.7143888, 50.3537305], [24.714818, 50.3555514], [24.7147536, 50.3563728], [24.7159123, 50.3603154], [24.7164058, 50.3614516], [24.7192597, 50.3654485], [24.720912, 50.3683092], [24.7212338, 50.3696368], [24.7216844, 50.3717718], [24.7218346, 50.3725519], [24.7218132, 50.3737699], [24.7212982, 50.3742625], [24.7164273, 50.3780668], [24.7114491, 50.3810772], [24.7085523, 50.3821992], [24.7079944, 50.382596], [24.7076297, 50.3833349], [24.706943, 50.3841147], [24.7056341, 50.3847578], [24.7028875, 50.385565], [24.7007632, 50.3867006], [24.6984243, 50.3877404], [24.6976518, 50.3879319], [24.696579, 50.3885339], [24.6934676, 50.3895463], [24.6919226, 50.3903397], [24.6900558, 50.3910374], [24.6875238, 50.392255], [24.681623, 50.3943069], [24.6802711, 50.3951687], [24.6793163, 50.3959073], [24.6782434, 50.3965297], [24.6772241, 50.3972068], [24.6764409, 50.3975693], [24.6750677, 50.3982942], [24.6741021, 50.3986225], [24.6726859, 50.3988824], [24.6705401, 50.3991286], [24.6689951, 50.399238], [24.6664417, 50.3996278], [24.6657336, 50.4001818], [24.665122, 50.4003049], [24.6634161, 50.4003049], [24.6611094, 50.4006058], [24.6599507, 50.400934], [24.6578371, 50.4011187], [24.6570647, 50.4013307], [24.6552193, 50.4016726], [24.6537709, 50.402589], [24.6528375, 50.4028352], [24.6519792, 50.4030813], [24.6514106, 50.4034643], [24.6513033, 50.4039772], [24.6519792, 50.4054337], [24.6523976, 50.4058918], [24.6530199, 50.407444], [24.6537065, 50.4084765], [24.6544146, 50.409256], [24.6545005, 50.4098235], [24.653964, 50.4101107], [24.6514428, 50.4106371], [24.6501338, 50.4105141], [24.6486211, 50.4108081], [24.6463251, 50.4104525], [24.6451127, 50.4102132], [24.6442008, 50.4095637], [24.6430743, 50.4088116], [24.6418083, 50.4084833], [24.64095, 50.4083945], [24.6396518, 50.4085107], [24.6383214, 50.4087158], [24.637896802517087, 50.40872633655538], [24.637804, 50.409068], [24.634238, 50.413357], [24.629122, 50.415321], [24.622921, 50.41607], [24.596800502927383, 50.41683064824266], [24.5969617, 50.4183216], [24.5968544, 50.4198666], [24.5900952, 50.4193607], [24.5846235, 50.4205092], [24.5804715, 50.4208373], [24.579275129288895, 50.4207726802995], [24.578221, 50.421264], [24.574861136162344, 50.42617268088086], [24.5746779, 50.4286705], [24.57318059394831, 50.42850459015064], [24.57016, 50.431961], [24.564113, 50.436715], [24.558222, 50.438472], [24.552641, 50.438369], [24.548921, 50.436276], [24.546905, 50.433046], [24.546285, 50.429144], [24.54644, 50.421186], [24.54613, 50.417336], [24.544425, 50.413874], [24.541789, 50.410928], [24.536518, 50.408293], [24.536061415372963, 50.408183832030694], [24.5360541, 50.408203], [24.5344876, 50.409174], [24.5301532, 50.4091193], [24.5271062, 50.4105004], [24.5254111, 50.4101175], [24.5230937, 50.4102406], [24.5213341, 50.4099808], [24.5195102, 50.4101996], [24.517622, 50.4109927], [24.5126653, 50.4115123], [24.5113349, 50.4122781], [24.5102405, 50.4122644], [24.5085454, 50.4129207], [24.507215, 50.4129754], [24.5060992, 50.4135771], [24.5044899, 50.4135361], [24.503146972619767, 50.41393993453475], [24.503135, 50.413977], [24.5036, 50.41775], [24.505771, 50.425398], [24.506236, 50.429274], [24.505306, 50.432736], [24.505190694602646, 50.432966462109476], [24.5060347, 50.4356961], [24.50383988529021, 50.43566633887838], [24.503755, 50.435836], [24.501541490034214, 50.43754264697019], [24.5013141, 50.4384841], [24.499671504005214, 50.43898443220723], [24.498794, 50.439661], [24.491904253170308, 50.443215941641114], [24.4964216, 50.460127], [24.4832038, 50.4628589], [24.483633, 50.4655361], [24.4675825, 50.4734575], [24.46810479565193, 50.47957839937409], [24.49070944821523, 50.48316630261438], [24.5227716, 50.4797391], [24.524632515911414, 50.49165503246974], [24.529387, 50.494618], [24.532281, 50.49697], [24.53538740506008, 50.50007640506008], [24.5539282, 50.5062216], [24.5580481, 50.5087326], [24.5583914, 50.5106976], [24.5553874, 50.5134812], [24.5551299, 50.5169741], [24.5496367, 50.5219403], [24.548521, 50.5267421], [24.5487784, 50.5325256], [24.5415686, 50.5395084], [24.5297239, 50.551944], [24.5132445, 50.5564157], [24.4997692, 50.5544934], [24.4942544, 50.5547525], [24.4889973, 50.5564566], [24.488225, 50.5555363], [24.4879673, 50.5512556], [24.485730425100165, 50.55021740758861], [24.480191, 50.551101], [24.474713, 50.550765], [24.457505, 50.546631], [24.446498, 50.546217], [24.439832, 50.547303], [24.434251, 50.549008], [24.405363, 50.567353], [24.403193, 50.570299], [24.403126519500187, 50.57106352574788], [24.4033812, 50.5712455], [24.403094238357117, 50.57143475889317], [24.402883, 50.573864], [24.404123, 50.577327], [24.403924010935203, 50.57805676921541], [24.4092177, 50.5821467], [24.4129942, 50.5866155], [24.3996046, 50.5914108], [24.3947981, 50.5984939], [24.3856143, 50.6065019], [24.3807219, 50.6086263], [24.3747996, 50.6041595], [24.373819994215477, 50.603635022858036], [24.367536, 50.606627], [24.358545, 50.609676], [24.353687, 50.610193], [24.349966, 50.610038], [24.345935, 50.608875], [24.342525, 50.606834], [24.339269, 50.604302], [24.334430665037306, 50.59895629080329], [24.3232153, 50.5995835], [24.32589597090991, 50.59381683456158], [24.321441, 50.592571], [24.29736, 50.590607], [24.286198, 50.588747], [24.276121, 50.585233], [24.258912, 50.583011], [24.258912, 50.580317233674904], [24.2585464, 50.5802846], [24.256459, 50.5805051], [24.2543924, 50.5807656], [24.2513708, 50.5809549], [24.249167902403727, 50.58103420231457], [24.247854, 50.581771], [24.23691782839316, 50.58392778421982], [24.236618, 50.5845335], [24.2360984, 50.5849671], [24.2354007, 50.5851368], [24.2347063, 50.5850193], [24.233993074194977, 50.584504591527555], [24.229582924186992, 50.58537434213921], [24.2290023, 50.5861359], [24.2282155, 50.5867014], [24.2269936, 50.5874065], [24.2221289, 50.5890106], [24.2212347, 50.5896576], [24.2212679, 50.5903112], [24.2220992, 50.5906411], [24.2235244, 50.5906977], [24.2248456, 50.5910369], [24.2256989, 50.5918443], [24.2256978, 50.5923969], [24.2251519, 50.5927501], [24.2242281, 50.5927368], [24.2230314, 50.59289], [24.2220342, 50.5931833], [24.2212469, 50.5936231], [24.2203126, 50.5939096], [24.2195385, 50.59383], [24.219095, 50.5935631], [24.2190005, 50.5932432], [24.2188535, 50.5927301], [24.2182224, 50.5918841], [24.2173209, 50.5914639], [24.2161872, 50.5912373], [24.21545344852965, 50.591254801447754], [24.212013866024538, 50.59408853335658], [24.2130485, 50.595329], [24.2132585, 50.5959487], [24.2131955, 50.5966217], [24.2125194, 50.5970788], [24.2113165, 50.5972547], [24.2100358, 50.5975879], [24.2090798, 50.597971], [24.2096999, 50.5985074], [24.2105292, 50.598654], [24.211285, 50.598694], [24.2115579, 50.5990938], [24.211327, 50.5994536], [24.210775, 50.5996409], [24.2099623, 50.6000932], [24.2098153, 50.6007529], [24.2099098, 50.6014724], [24.2098537, 50.6019133], [24.2096159, 50.602172], [24.2091645, 50.6023053], [24.2087551, 50.6023053], [24.2084192, 50.6021187], [24.2081463, 50.6015257], [24.2079678, 50.6012859], [24.2075374, 50.601166], [24.2069286, 50.6013392], [24.2062043, 50.6018056], [24.2060701, 50.6020535], [24.2062673, 50.6023852], [24.207107, 50.6028983], [24.2077684, 50.603298], [24.2080938, 50.603771], [24.2078733, 50.6040175], [24.2075702, 50.6041147], [24.2069706, 50.6040309], [24.2060468, 50.6036245], [24.2052595, 50.6033513], [24.2045496, 50.6033934], [24.2037689, 50.6044106], [24.203412, 50.6051968], [24.2028949, 50.6064358], [24.2031601, 50.606849], [24.2036744, 50.6070022], [24.2044302, 50.606849], [24.2050391, 50.606809], [24.205396, 50.6070355], [24.2054176, 50.6074383], [24.2044932, 50.6076151], [24.2026247, 50.6076484], [24.20062100808746, 50.607706830869866], [24.20001212711713, 50.60829647224554], [24.2002733, 50.6084478], [24.2019004, 50.6088475], [24.2028136, 50.6095803], [24.2042413, 50.610393], [24.2044092, 50.6108527], [24.2040549, 50.6114937], [24.2021523, 50.613304], [24.2010816, 50.6141899], [24.2001788, 50.6145163], [24.1993508, 50.6145543], [24.1985517, 50.6143298], [24.1978274, 50.6138769], [24.1972396, 50.6134439], [24.1966419, 50.6131119], [24.1958224, 50.6130642], [24.1953396, 50.6132241], [24.1953501, 50.6139901], [24.1948777, 50.6145696], [24.1945103, 50.6149093], [24.1941954, 50.6154355], [24.1937342, 50.6159949], [24.1927887, 50.6164213], [24.1919594, 50.6167676], [24.1918964, 50.6173205], [24.1916612, 50.6177043], [24.1899777, 50.617648], [24.1880548, 50.6181934], [24.186515, 50.6188506], [24.1852178, 50.6192697], [24.1841866, 50.619411], [24.1836493, 50.6189778], [24.1833663, 50.6184541], [24.1834134, 50.6177807], [24.1832733, 50.6173191], [24.1830243, 50.6170773], [24.1824936, 50.6168902], [24.1819157, 50.6170923], [24.1814912, 50.6175038], [24.1809133, 50.618065], [24.1799109, 50.6184616], [24.1789293, 50.6185771], [24.1779533, 50.618903], [24.1774226, 50.6187758], [24.177068092458835, 50.618561319791695], [24.17639430225612, 50.618875506156066], [24.176492, 50.6190211], [24.1762079, 50.6197336], [24.1749107, 50.6212824], [24.1740498, 50.622038], [24.1736104, 50.6227074], [24.174038, 50.6229733], [24.1748635, 50.6228835], [24.1752881, 50.6226067], [24.175748, 50.6226366], [24.1760242, 50.6230209], [24.1757598, 50.6236765], [24.1750876, 50.6239534], [24.174321, 50.6240656], [24.1735422, 50.6240235], [24.1726464, 50.6238561], [24.170394, 50.6232351], [24.17025876285904, 50.62327971894753], [24.170097883523972, 50.62377044015834], [24.1704176, 50.6241254], [24.1709778, 50.6251848], [24.1719978, 50.6256741], [24.1729059, 50.6258013], [24.1729815, 50.6259629], [24.1715361, 50.6264858], [24.1702525, 50.6265793], [24.1693595, 50.6266196], [24.1692265, 50.6269534], [24.1696038, 50.6273573], [24.1702525, 50.6275294], [24.1710657, 50.6275357], [24.1716794, 50.627896], [24.1718327, 50.6284421], [24.1715969, 50.6289134], [24.1705001, 50.629624], [24.1695666, 50.6301731], [24.168684, 50.6302823], [24.168017338901738, 50.63011660870607], [24.16754948208039, 50.6315436861226], [24.1684599, 50.6314044], [24.1701935, 50.6310079], [24.171078, 50.6308434], [24.1722101, 50.6307611], [24.1729985, 50.6310135], [24.1733776, 50.6314717], [24.1733894, 50.6318757], [24.1731112, 50.6324224], [24.1726228, 50.6335288], [24.1722101, 50.6341122], [24.1715379, 50.6346583], [24.1709347, 50.6348509], [24.1704176, 50.6346807], [24.1699222, 50.6343142], [24.1687783, 50.6337532], [24.1677123, 50.6336691], [24.1675165, 50.6342169], [24.168, 50.6349575], [24.1680308, 50.6356706], [24.1670448, 50.6366628], [24.1656223, 50.6376651], [24.165527912409324, 50.637709966685115], [24.164706, 50.640217], [24.153226379774786, 50.64421288642281], [24.1533826, 50.6445101], [24.154917, 50.6456152], [24.1552088, 50.6461017], [24.1551838, 50.6463978], [24.1548753, 50.6466569], [24.1543999, 50.6466992], [24.1538329, 50.6464719], [24.1527238, 50.6453138], [24.1523319, 50.6446264], [24.15228064608609, 50.64447300699146], [24.15005137055288, 50.64438560020292], [24.1497817, 50.6446882], [24.1496301, 50.6450283], [24.1497051, 50.6454936], [24.1499219, 50.6459061], [24.150489, 50.646419], [24.1506391, 50.6467151], [24.1506199, 50.6471516], [24.1502805, 50.6473866], [24.1499636, 50.6475294], [24.1494967, 50.6474659], [24.1490185, 50.6472932], [24.1475954, 50.6465565], [24.146995, 50.6460065], [24.1464863, 50.6449437], [24.1463279, 50.6444202], [24.146365917497604, 50.64424109872202], [24.14101255333174, 50.64403120076967], [24.1404156, 50.6446211], [24.1400904, 50.6452768], [24.1401154, 50.6458056], [24.1402321, 50.6462339], [24.1400403, 50.6465195], [24.1395233, 50.6466516], [24.1388371, 50.6465352], [24.1384643, 50.6462075], [24.1382892, 50.6449913], [24.1382308, 50.6441452], [24.138234846861913, 50.64387449906816], [24.13648575653729, 50.643583098666404], [24.1361127, 50.6438279], [24.1357124, 50.6442192], [24.1354623, 50.6448591], [24.134984, 50.6453171], [24.1344699, 50.6455254], [24.133511, 50.6453879], [24.1321184, 50.6451869], [24.130609, 50.6454407], [24.1297987, 50.6459075], [24.12955, 50.6467627], [24.1297084, 50.6473443], [24.1302505, 50.6476669], [24.1307424, 50.6480053], [24.1305188, 50.6483376], [24.1302088, 50.6484759], [24.1297418, 50.648497], [24.1282741, 50.6485499], [24.1268065, 50.648883], [24.1260666, 50.6489605], [24.1257224, 50.648883], [24.1238128, 50.6477462], [24.1228205, 50.6471223], [24.1218245, 50.646265], [24.1215947, 50.6460806], [24.1210943, 50.6460964], [24.1206774, 50.6462815], [24.1203105, 50.6470006], [24.1198768, 50.6474712], [24.1189942, 50.6478664], [24.1184509, 50.6479313], [24.1177754, 50.6478519], [24.1173335, 50.6475506], [24.1171269, 50.6468309], [24.1172751, 50.6458902], [24.1175204, 50.6453651], [24.1180874, 50.6448627], [24.1187159, 50.6448766], [24.1194383, 50.6450901], [24.1201495, 50.6451086], [24.1208559, 50.6449579], [24.121523, 50.6445137], [24.1220594, 50.6439812], [24.122015, 50.6436782], [24.1216815, 50.6434931], [24.1210978, 50.6433926], [24.1201638, 50.6433133], [24.1184627, 50.6427951], [24.1168199, 50.6425677], [24.1158026, 50.6424408], [24.1151889, 50.6421331], [24.1151021, 50.6419278], [24.1152522, 50.6416423], [24.1158776, 50.6414254], [24.1167865, 50.6413461], [24.1168977, 50.6411298], [24.1160277, 50.640812], [24.1148769, 50.6405952], [24.1138846, 50.640188], [24.1130674, 50.6394846], [24.1116571, 50.6382472], [24.111558, 50.6375384], [24.1112495, 50.636946], [24.1105324, 50.6364595], [24.1092982, 50.6361474], [24.1087312, 50.6359094], [24.1074963, 50.6351366], [24.106513, 50.6347194], [24.105310594473572, 50.63466070948109], [24.089038143467427, 50.6595944382688], [24.0895423, 50.661303], [24.089743, 50.6620409], [24.0900909, 50.6626007], [24.0906261, 50.6631605], [24.0908402, 50.663415], [24.0909606, 50.6637033], [24.0906796, 50.6638857], [24.0902705, 50.6639976], [24.0897163, 50.6638306], [24.0894888, 50.6634489], [24.0893015, 50.6629739], [24.0889134, 50.6625838], [24.0877493, 50.661761], [24.087654956744107, 50.66171384871342], [24.085345159861653, 50.66525307270617], [24.0858119, 50.666233], [24.0860163, 50.6669902], [24.0859269, 50.6674194], [24.0854797, 50.667719], [24.0851603, 50.6678972], [24.0850453, 50.6681361], [24.085403, 50.6683223], [24.0859908, 50.6684033], [24.0864443, 50.6685733], [24.0866615, 50.6687515], [24.0867573, 50.6689904], [24.0867637, 50.6691847], [24.0866679, 50.6693791], [24.0863102, 50.6696544], [24.0858566, 50.6699216], [24.0854542, 50.6702293], [24.0851539, 50.6705775], [24.0846748, 50.6709621], [24.0840488, 50.6712374], [24.0833333, 50.6713953], [24.0826516, 50.671379], [24.0822601, 50.6713913], [24.081861528234054, 50.67166355068786], [24.081479857385734, 50.6726855345138], [24.0816149, 50.6729985], [24.0820617, 50.6734125], [24.0824134, 50.6736827], [24.082633, 50.6741365], [24.0823979, 50.6745721], [24.0821834, 50.6748041], [24.0816817, 50.6750483], [24.0813082, 50.6751401], [24.0808648, 50.6751795], [24.08056989127916, 50.67512211212291], [24.074943, 50.690189], [24.081041, 50.712978], [24.07515199277546, 50.71389539735186], [24.0751223, 50.7139397], [24.0744971, 50.7141894], [24.0731699, 50.7145122], [24.0721697, 50.7147984], [24.0715349, 50.7151516], [24.0711872, 50.7156337], [24.0712753, 50.7161868], [24.0716407, 50.7164608], [24.07191, 50.7167166], [24.0717273, 50.7172707], [24.0721889, 50.7175143], [24.0728333, 50.7174838], [24.073218, 50.7175752], [24.0731988, 50.7179344], [24.0730648, 50.7182801], [24.0723894, 50.7200058], [24.072149, 50.7205172], [24.0714565, 50.7207303], [24.0707929, 50.7206207], [24.0681962, 50.7202189], [24.0674556, 50.7201397], [24.0668497, 50.7201397], [24.0663015, 50.7204442], [24.0659457, 50.7205355], [24.0656956, 50.7204807], [24.0657437, 50.7199388], [24.0654456, 50.7193482], [24.0650994, 50.7188732], [24.0645992, 50.7184652], [24.0639837, 50.7183435], [24.0633156, 50.7184667], [24.062945, 50.7186114], [24.0626084, 50.7189706], [24.0623391, 50.7194395], [24.0614832, 50.7205903], [24.0609542, 50.7206999], [24.0598097, 50.7203285], [24.0592423, 50.719951], [24.0585979, 50.7196343], [24.0573477, 50.719403], [24.0560974, 50.7190193], [24.0546451, 50.7183191], [24.0535584, 50.7178989], [24.0527564, 50.7178202], [24.0521542, 50.7179903], [24.0517599, 50.7184226], [24.0515291, 50.7190072], [24.0511444, 50.7191898], [24.0501442, 50.7191107], [24.049601382905227, 50.71898099892665], [24.026884, 50.728016], [24.01975754756362, 50.73577113776799], [24.0198892, 50.7361019], [24.0204332, 50.7374405], [24.0204264, 50.7378106], [24.0203108, 50.7380904], [24.0199368, 50.7382324], [24.0194947, 50.7381807], [24.0191683, 50.7380258], [24.0188759, 50.737703], [24.0184882, 50.7374405], [24.01830794838224, 50.73734861849354], [24.017034427678755, 50.73873448735243], [24.0171526, 50.7390001], [24.0173546, 50.7393745], [24.0176864, 50.7397883], [24.018047, 50.7405309], [24.0181721, 50.7409569], [24.0181288, 50.7413403], [24.018023, 50.741739], [24.017999, 50.7420402], [24.0181673, 50.7424784], [24.0184201, 50.7428726], [24.0187003, 50.7431084], [24.0193216, 50.7433908], [24.0198203, 50.7438171], [24.019969, 50.7442712], [24.020004, 50.7449743], [24.0200915, 50.7453729], [24.020389, 50.7457328], [24.0208004, 50.7458802], [24.0210802, 50.7458601], [24.0213515, 50.745694], [24.0217715, 50.7454006], [24.0223752, 50.7451459], [24.0227864, 50.7451404], [24.0230752, 50.7452345], [24.0231208, 50.7454007], [24.0229439, 50.7457937], [24.0225852, 50.7461536], [24.0221564, 50.7463141], [24.021649, 50.7463806], [24.0209052, 50.746602], [24.0203715, 50.7469121], [24.0200397, 50.7472877], [24.0199078, 50.7476373], [24.0200303, 50.7480193], [24.0201003, 50.7484013], [24.0199515, 50.7486394], [24.0195819, 50.7487361], [24.0192078, 50.7487002], [24.0189191, 50.7485397], [24.0187791, 50.748202], [24.0188753, 50.747748], [24.0188753, 50.747366], [24.0185166, 50.7468844], [24.0176887, 50.7464186], [24.0168804, 50.7463972], [24.0160842, 50.7465411], [24.01545943506895, 50.74685169742286], [24.018780813896477, 50.751319478602355], [24.0188294, 50.7513122], [24.0190153, 50.7511693], [24.0191728, 50.7509534], [24.0193303, 50.7505327], [24.0196103, 50.7500178], [24.020138, 50.7496269], [24.0206149, 50.7494916], [24.0213149, 50.7494611], [24.0218836, 50.7494833], [24.0224436, 50.749558], [24.0231567, 50.7497767], [24.0236904, 50.7501227], [24.0239354, 50.7503856], [24.0240486, 50.7506707], [24.0239267, 50.7511385], [24.0237167, 50.7513101], [24.0234673, 50.7514042], [24.0230036, 50.751479], [24.0225964, 50.7516035], [24.0222292, 50.7517696], [24.0218749, 50.7518775], [24.021363, 50.7518997], [24.0208774, 50.7518249], [24.019231888594486, 50.75192624559612], [24.024107401290365, 50.75848458326074], [24.024321, 50.7585265], [24.024645, 50.7586413], [24.025082, 50.7589218], [24.0253357, 50.7593014], [24.0254254, 50.7597182], [24.025343715111543, 50.760147621387084], [24.025851, 50.76083], [24.025851, 50.767032], [24.020791727973005, 50.767425428428545], [24.0205364, 50.7677113], [24.0201075, 50.7683458], [24.0196887, 50.7689791], [24.0189216, 50.7695464], [24.0177213, 50.7699416], [24.0167932, 50.7703877], [24.0163849, 50.7706029], [24.0157415, 50.7711233], [24.0149619, 50.7714833], [24.0126164, 50.7721075], [24.0110456, 50.7722658], [24.0100759, 50.7722437], [24.0077974, 50.7719489], [24.004007, 50.7711842], [24.00239, 50.7708299], [24.0009794, 50.7703838], [23.9999524, 50.7698634], [23.998882, 50.7694017], [23.9981411, 50.7692868], [23.997724901084386, 50.76926716756952], [23.974278, 50.776178], [23.96606842030416, 50.78323946053269], [23.9662225, 50.7836251], [23.9666643, 50.784347], [23.9670503, 50.7846918], [23.9679104, 50.7851172], [23.9683592, 50.7854306], [23.968453, 50.7857356], [23.968319, 50.7859304], [23.9679104, 50.7861294], [23.9674214, 50.7863666], [23.9670864, 50.7867477], [23.9669726, 50.7871924], [23.9669793, 50.7875736], [23.9668051, 50.787959], [23.9662357, 50.7885857], [23.9657534, 50.7888652], [23.9653916, 50.7888652], [23.9651304, 50.7891701], [23.9654251, 50.7895767], [23.9652754, 50.7899555], [23.9648825, 50.7902204], [23.9643198, 50.7902585], [23.9637973, 50.7903516], [23.963114, 50.7906523], [23.9619336, 50.7909428], [23.9610606, 50.7909581], [23.9605111, 50.7911048], [23.9600564, 50.7914492], [23.9598195, 50.7918624], [23.9598101, 50.7923954], [23.9595122, 50.7929279], [23.95908622415809, 50.79312387854695], [23.958802288376322, 50.796042616260586], [23.9592122, 50.7962861], [23.9606242, 50.7969674], [23.9621075, 50.7975841], [23.9625836, 50.7979201], [23.9629861, 50.7983939], [23.9637995, 50.7996539], [23.9640641, 50.8002551], [23.964399, 50.8006731], [23.964821, 50.8011146], [23.9650969, 50.8015496], [23.9652175, 50.8023766], [23.9652766, 50.803297], [23.9654825, 50.8040356], [23.9657177, 50.8048235], [23.9654552, 50.8054495], [23.9656491, 50.8060035], [23.9658684, 50.8063363], [23.9662116, 50.8065442], [23.9666468, 50.8069015], [23.9668039, 50.8075008], [23.9670049, 50.807996], [23.9668809, 50.8086416], [23.9666296, 50.809272], [23.96673, 50.8098633], [23.9669279, 50.8102653], [23.9672479, 50.8105973], [23.9685226, 50.8112661], [23.9689506, 50.811647], [23.969014, 50.8118975], [23.9687946, 50.8121301], [23.968355, 50.8122191], [23.9677452, 50.8121866], [23.9672013, 50.8123663], [23.9665609, 50.8127729], [23.9659851, 50.8133198], [23.9654734, 50.813606], [23.9649158, 50.81372], [23.9644706, 50.8136771], [23.9639772, 50.8135269], [23.96349, 50.8136094], [23.9632337, 50.8138462], [23.9632984, 50.8141446], [23.9635009, 50.8143265], [23.9636822, 50.8144744], [23.9638736, 50.8145682], [23.9647155, 50.8148588], [23.9653705, 50.8152215], [23.9657488, 50.8155643], [23.9660916, 50.8157887], [23.9668213, 50.8161255], [23.9674517, 50.8163468], [23.9678523, 50.8164086], [23.9682649, 50.8164107], [23.9686997, 50.8163473], [23.9692559, 50.8160983], [23.9697313, 50.8159642], [23.9701057, 50.8159015], [23.9704681, 50.8159706], [23.9706427, 50.8161255], [23.9707696, 50.8163859], [23.970688, 50.8166479], [23.9704244, 50.8169097], [23.9690268, 50.8174415], [23.9686077, 50.8179255], [23.9680834, 50.8187475], [23.9680928, 50.8190677], [23.9682893, 50.8193183], [23.9686319, 50.819427], [23.9707784, 50.8192293], [23.9713725, 50.8190691], [23.9719118, 50.818837], [23.9726186, 50.8182218], [23.9731477, 50.8176429], [23.9736539, 50.817125], [23.9741535, 50.816965], [23.9745635, 50.817084], [23.9746817, 50.8173678], [23.9745807, 50.8176914], [23.973588, 50.8194149], [23.9731387, 50.8197778], [23.9727208, 50.8200067], [23.9724447, 50.8203871], [23.9725891, 50.8206766], [23.9746978, 50.8218071], [23.975102, 50.8222102], [23.975316, 50.8225934], [23.9754437, 50.822993], [23.975425, 50.8234091], [23.9750819, 50.8239833], [23.9748986, 50.8245722], [23.9750534, 50.8253329], [23.9752403, 50.8257339], [23.9754996, 50.8260841], [23.9760192, 50.8266064], [23.9765348, 50.8269647], [23.9767276, 50.8270714], [23.9770225, 50.8271555], [23.9773055, 50.8271612], [23.977542, 50.8270623], [23.9776939, 50.826838], [23.9777271, 50.8265209], [23.9778502, 50.8260212], [23.9781042, 50.8255495], [23.9786839, 50.8248123], [23.979129, 50.824446], [23.9795981, 50.8243336], [23.9798776, 50.8244293], [23.9801139, 50.8246542], [23.9802191, 50.8250008], [23.9802471, 50.8257938], [23.980465, 50.8266705], [23.9803844, 50.8273706], [23.9803702, 50.8278433], [23.9804602, 50.8280049], [23.9806386, 50.8280884], [23.9809813, 50.8280887], [23.9813176, 50.8279511], [23.9815828, 50.8276997], [23.9816823, 50.8274304], [23.9819144, 50.8269816], [23.982407, 50.8266675], [23.9828239, 50.8265957], [23.9832503, 50.8266213], [23.9835818, 50.826829], [23.9837618, 50.82723], [23.9836421, 50.8278012], [23.983487, 50.8280827], [23.9830702, 50.8283819], [23.9821086, 50.828714], [23.9813744, 50.82907], [23.9810618, 50.8294141], [23.9810211, 50.8298022], [23.9813697, 50.8302369], [23.9819997, 50.8307754], [23.982152994348944, 50.831055572590245], [23.992881, 50.836226], [24.020477, 50.838552], [24.046935, 50.829095], [24.067295, 50.834831], [24.068010874650017, 50.834834344502845], [24.068546, 50.8347234], [24.0697655, 50.8345614], [24.0718204, 50.834272], [24.0725713, 50.8341124], [24.0734803, 50.8340699], [24.0746904, 50.8340805], [24.0753763, 50.8341215], [24.0757781, 50.8342176], [24.0760766, 50.8344407], [24.0761922, 50.8347576], [24.076202015954873, 50.83487261278817], [24.07823614923038, 50.83488211607833], [24.0783554, 50.8347528], [24.0787156, 50.8345251], [24.0796001, 50.8342857], [24.0803468, 50.834264], [24.0815134, 50.8346619], [24.0818708, 50.8348648], [24.081878233752644, 50.83489913157403], [24.100472, 50.834986], [24.130857, 50.839069], [24.143156, 50.856432], [24.142125360833845, 50.85742961148485], [24.1424638, 50.8576901], [24.1430212, 50.8581193], [24.1433591, 50.858631], [24.1432807, 50.8592847], [24.1428279, 50.860491], [24.1448384, 50.8630009], [24.1454296, 50.8647223], [24.145542, 50.8652188], [24.1453922, 50.8662769], [24.1453337, 50.8669011], [24.1453919, 50.867285], [24.1455708, 50.867631], [24.1458511, 50.8685228], [24.1458756, 50.86882], [24.1457991, 50.8691737], [24.1453947, 50.8697319], [24.1445314, 50.8698556], [24.1434976, 50.8695656], [24.1416045, 50.8689428], [24.140883, 50.8690423], [24.1399425, 50.8693552], [24.1393311, 50.8694912], [24.1386932, 50.8693987], [24.1382318, 50.8690859], [24.1380701, 50.8679219], [24.1373721, 50.8668908], [24.13672, 50.8667229], [24.1354419, 50.8668352], [24.1347145, 50.8671459], [24.1342584, 50.8676651], [24.1337375, 50.86802], [24.1329854, 50.8682178], [24.1323117, 50.8682243], [24.1314253, 50.8680993], [24.13117126401245, 50.86803267524765], [24.130237, 50.868937], [24.12346370241274, 50.87130263731968], [24.1230905, 50.8716523], [24.1227103, 50.8719092], [24.1222012, 50.8719251], [24.1218304, 50.8718735], [24.121830027633894, 50.8718732134645], [24.113318993198366, 50.87484577157676], [24.1131197, 50.8752802], [24.1128118, 50.8756609], [24.112485, 50.8758473], [24.1119885, 50.8758711], [24.1112909, 50.8756609], [24.111169973437164, 50.87559633676045], [24.095811870063756, 50.880960297524254], [24.0957864, 50.8811095], [24.0956293, 50.881625], [24.0952145, 50.8821643], [24.0945424, 50.8826279], [24.0929771, 50.8828502], [24.0919904, 50.883219], [24.0913682, 50.8836115], [24.0900789, 50.884663], [24.089112, 50.8856059], [24.0885212, 50.8868588], [24.0877419, 50.8879134], [24.0871763, 50.8885675], [24.0865372, 50.8890942], [24.0861581, 50.8892177], [24.0857371, 50.889186], [24.085272, 50.8890433], [24.0847629, 50.8887142], [24.0846812, 50.8884367], [24.0846184, 50.887953], [24.0842853, 50.8876002], [24.0836945, 50.8872949], [24.0829529, 50.8871046], [24.0823119, 50.8871165], [24.0817134, 50.8873003], [24.0812875, 50.8875169], [24.0809732, 50.8878024], [24.0809167, 50.8882781], [24.0808978, 50.888631], [24.0806653, 50.8891464], [24.0803468, 50.8895231], [24.0717637, 50.8909308], [24.0626656, 50.8929882], [24.061969276513448, 50.892780138785604], [24.051323756624164, 50.8964981858392], [24.0521943, 50.8974274], [24.0437829, 50.9014332], [24.0377747, 50.9047891], [24.0312516, 50.911392], [24.0250718, 50.9147472], [24.0214669, 50.9166952], [24.0175187, 50.9178857], [24.0140914, 50.9189987], [24.0118539, 50.9197254], [24.009279, 50.9211322], [24.0065324, 50.9250277], [24.0020692, 50.9264344], [23.9977776, 50.9279491], [23.9958894, 50.931195], [23.9948594, 50.9362796], [23.9934813, 50.9385723], [23.9905679, 50.9434188], [23.9867742, 50.9448986], [23.9833581, 50.946231], [23.9799249, 50.9479614], [23.9787232, 50.9478533], [23.9776933, 50.9461228], [23.9759767, 50.9468799], [23.974775, 50.9491511], [23.9709985, 50.9502325], [23.9687669, 50.952828], [23.9685952, 50.9567208], [23.9687669, 50.9584509], [23.9713418, 50.9590996], [23.9689385, 50.9633163], [23.9672219, 50.9685056], [23.9668786, 50.97845], [23.9613854, 50.9838537], [23.9569222, 50.9913098], [23.9500558, 50.9950914], [23.9474809, 50.9943351], [23.9411294, 51.0007092], [23.9371812, 51.0034098], [23.9347779, 51.0031938], [23.9312848, 51.0053934], [23.930011, 51.0057927], [23.9290824, 51.0059723], [23.9283139, 51.0059457], [23.927203, 51.0056952], [23.9262144, 51.0054457], [23.9253922, 51.0053164], [23.9244681, 51.005289], [23.9227346, 51.0054765], [23.9211, 51.0055997], [23.9187547, 51.0057059], [23.9174293, 51.0058276], [23.9160785, 51.006191], [23.9154912, 51.0064928], [23.9150764, 51.0067894], [23.9149773, 51.0070841], [23.9150507, 51.0074043], [23.9154863, 51.0077585], [23.9163281, 51.0081804], [23.9171259, 51.0086053], [23.9183054, 51.009058], [23.9186088, 51.0093321], [23.9185936, 51.0095876], [23.9182855, 51.00976], [23.9178792, 51.0097877], [23.9166169, 51.0097047], [23.915672, 51.0097231], [23.9150677, 51.0098689], [23.9146686, 51.0102004], [23.9144925, 51.0106746], [23.9145854, 51.011158], [23.9149491, 51.0118415], [23.9153152, 51.0122051], [23.9156497, 51.0123659], [23.9160787, 51.0124106], [23.9167147, 51.0123811], [23.9178093, 51.0122046], [23.9186715, 51.011959], [23.9190454, 51.011764], [23.9195354, 51.0113472], [23.919904, 51.0108647], [23.9201238, 51.0105833], [23.9206368, 51.0102295], [23.921148, 51.0099352], [23.9217021, 51.0097081], [23.9226021, 51.0095075], [23.9229251, 51.0096215], [23.9231878, 51.0099248], [23.9229545, 51.0104929], [23.9227098, 51.0108255], [23.9223966, 51.0110965], [23.9220882, 51.0115183], [23.9219757, 51.0120572], [23.9220099, 51.0125991], [23.9221323, 51.0128762], [23.92232, 51.0130223], [23.9226951, 51.0130979], [23.9230671, 51.0130056], [23.9236789, 51.0126053], [23.9243506, 51.012381], [23.9250003, 51.0123128], [23.9255729, 51.0124359], [23.9259595, 51.0126853], [23.9259949, 51.0129491], [23.9258568, 51.0136491], [23.9256512, 51.0143819], [23.9256904, 51.0147299], [23.9260533, 51.0149848], [23.9265028, 51.0149577], [23.9269677, 51.0147607], [23.9274767, 51.0144127], [23.9280885, 51.0138677], [23.9284479, 51.0136767], [23.9289646, 51.0136861], [23.9300168, 51.0140124], [23.9312404, 51.0142742], [23.932552, 51.0144558], [23.933154, 51.0143542], [23.9335225, 51.0141338], [23.9337119, 51.0137168], [23.9338147, 51.0131349], [23.9339958, 51.0129132], [23.9344115, 51.0127431], [23.9347936, 51.0127931], [23.9352487, 51.0131595], [23.9354885, 51.013646], [23.9358311, 51.0143727], [23.9358507, 51.0147822], [23.9355989, 51.0151519], [23.9349061, 51.0155396], [23.9340888, 51.0158445], [23.9334826, 51.0161312], [23.932782, 51.0165465], [23.9319549, 51.0168543], [23.9310006, 51.0170976], [23.9300119, 51.0172177], [23.9291365, 51.0171671], [23.9257736, 51.0163956], [23.9247556, 51.0162786], [23.9237231, 51.0163333], [23.9231503, 51.0165218], [23.9229545, 51.0167527], [23.9230181, 51.0169221], [23.9235369, 51.0174424], [23.923674, 51.0178919], [23.9236397, 51.0181998], [23.9235663, 51.0186647], [23.9239049, 51.019104], [23.9243053, 51.0191758], [23.9247752, 51.0190372], [23.9257834, 51.0185939], [23.926493, 51.0186001], [23.9269896, 51.0188076], [23.9272761, 51.0192651], [23.9273886, 51.0197022], [23.9273038, 51.0202213], [23.9267573, 51.0206659], [23.9261308, 51.0209922], [23.9252939, 51.0211277], [23.9245255, 51.0213462], [23.9234834, 51.0218419], [23.9229119, 51.0221507], [23.915947044189416, 51.02100795130873], [23.904205, 51.062724], [23.895523, 51.076108], [23.869271, 51.10174], [23.854492, 51.121532], [23.858213, 51.13073], [23.874749, 51.13613], [23.863587, 51.148274], [23.816045, 51.178789], [23.765195, 51.199021], [23.742664, 51.216255], [23.687267, 51.2924], [23.670214, 51.299376], [23.650887, 51.299609], [23.635177, 51.304699], [23.628666, 51.325964], [23.63404, 51.339296], [23.647786, 51.353998], [23.665563, 51.365806], [23.683856, 51.370276], [23.677655, 51.38379], [23.678895, 51.394073], [23.686027, 51.40105], [23.697602, 51.404435], [23.689437, 51.416423], [23.648716, 51.453966], [23.647166, 51.460193], [23.662772, 51.480192], [23.648613, 51.486212], [23.630526, 51.490424], [23.614817, 51.49722], [23.608099, 51.511224], [23.606238, 51.517399], [23.615437, 51.51311], [23.624118, 51.515901], [23.628666, 51.531223], [23.626289, 51.540886], [23.599107, 51.588971], [23.593319, 51.596955], [23.594353, 51.604965], [23.606445, 51.618117], [23.616677, 51.624783], [23.628976, 51.629046], [23.726231, 51.644859], [23.749692, 51.644472], [23.820282, 51.631268], [23.845293, 51.629821], [23.884878, 51.619874], [23.912886, 51.598583], [23.941308, 51.581917], [23.981306, 51.586], [24.130754, 51.669793], [24.244132, 51.718214], [24.272347, 51.742889], [24.296119, 51.808131], [24.311518, 51.827561], [24.347898, 51.861151], [24.369602, 51.875103], [24.39079, 51.880013], [24.639767, 51.892131], [24.701055, 51.882907], [24.721829, 51.882338], [25.002742, 51.910476], [25.092659, 51.939751], [25.138031, 51.948949], [25.1833, 51.94975], [25.351971, 51.921483], [25.547396, 51.919442]]]}, "properties": {"name": "Волынская область, остаток (Луцк, Владимир, Ковель)", "source": "Natural Earth admin-1 и OpenHistoricalMap (CC0): контуры Речи Посполитой 1773-1793 и 1793-1795 (data/poland/ohm_rp_*), воеводства - relations 2743088, 2743090, 2743089; нарезка 22.09.2026"}}]}