{"type": "FeatureCollection", "features": [{"type": "Feature", "geometry": {"type": "Polygon", "coordinates": [[[45.323, 42.53], [45.283, 42.586], [45.184, 42.675], [45.123, 42.702], [45.076, 42.691], [45.069, 42.707], [45.179, 42.804], [45.171, 42.825], [45.137, 42.835], [45.161, 42.946], [45.134, 42.983], [45.134, 43.062], [45.169, 43.127], [45.118, 43.21], [45.07, 43.451], [45.036, 43.5], [46.41, 43.5], [46.338, 43.458], [46.326, 43.428], [46.369, 43.386], [46.361, 43.356], [46.428, 43.306], [46.409, 43.217], [46.443, 43.205], [46.448, 43.181], [46.403, 43.114], [46.44, 43.075], [46.51, 43.094], [46.54, 43.071], [46.536, 43.051], [46.489, 43.008], [46.497, 42.978], [46.534, 42.961], [46.531, 42.935], [46.393, 42.872], [46.336, 42.904], [46.289, 42.872], [46.248, 42.874], [46.221, 42.908], [46.196, 42.904], [46.121, 42.838], [46.171, 42.778], [46.17, 42.73], [46.047, 42.69], [46.022, 42.654], [46.013, 42.592], [45.962, 42.616], [45.948, 42.575], [45.805, 42.481], [45.74, 42.471], [45.699, 42.508], [45.537, 42.541], [45.356, 42.52], [45.323, 42.53]]]}, "properties": {"id": "CHECHNYA_WAR", "name": "Чечня южнее Терека", "from": "1807-01-01", "to": "1859-08-19", "event": "завоевание Чечни Евдокимовым: просеки, голод, взятие Ведено в апреле 1859 г.", "source": "кампания «Просеки и голод: завоевание Чечни Евдокимовым (1857-1859)» (C1168), последняя дата окна - 19.08.1859; падение Ведено датировано в кампании «Подавление восстаний 1860-1861 годов, казнь Байсангура и расстрел зикристов у Шали (1860-1864)» (C1169)", "painted": "контур источника 1783 г. (плюс Гюлистанский мир 12.10.1813 де-юре)", "note": "до правки 19.08.2026 карта красила Чечню имперской с 1783 года - за тридцать четыре года до основания крепости Грозной и за семьдесят шесть лет до конца войны", "domain": "nohchi", "campaigns": [{"id": "C1140", "name": "Карательный поход Булгакова: разорение чеченских селений и принуждение к подданству (1807)", "short": "Карательный поход Булгакова: разорение чеченских селений и принуждение к подданству (18…", "from": "1807-01-01", "to": "1807-12-31"}, {"id": "C1142", "name": "Карательное разорение присунженских селений нохчи и стравливание против них соседних народов при Ртищеве (1813-1816)", "short": "Карательное разорение присунженских селений нохчи и стравливание против них соседних на…", "from": "1813-01-01", "to": "1816-03-11"}, {"id": "C1021", "name": "Уничтожение присунженских селений нохчи и возведение крепости Грозной на их месте (1817–1818)", "short": "Уничтожение присунженских селений нохчи и возведение крепости Грозной на их месте (1817…", "from": "1817-01-01", "to": "1818-12-31"}, {"id": "C1136", "name": "Эксплуатация села Сольжа (Сунженская) как ресурсной базы и его карательное разорение за вооружённый отпор нохчи (1818)", "short": "Эксплуатация села Сольжа (Сунженская) как ресурсной базы и его карательное разорение за…", "from": "1818-09-01", "to": "1818-12-31"}, {"id": "C1143", "name": "Показательное уничтожение аула Дади-юрт и возведение крепости Внезапной для вытеснения нохчи с кумыкской плоскости (1819)", "short": "Показательное уничтожение аула Дади-юрт и возведение крепости Внезапной для вытеснения…", "from": "1819-07-18", "to": "1819-09-15"}, {"id": "C1144", "name": "Разорение качкалыкских селений нохчи и вытеснение жителей за горы после дади-юртского террора (1819)", "short": "Разорение качкалыкских селений нохчи и вытеснение жителей за горы после дади-юртского т…", "from": "1819-09-30", "to": "1819-10-05"}, {"id": "C1145", "name": "Ночное нападение на аул Топли, сожжение Герменчука и принуждение нохчи к рубке своих лесов (1820)", "short": "Ночное нападение на аул Топли, сожжение Герменчука и принуждение нохчи к рубке своих ле…", "from": "1820-03-06", "to": "1820-09-01"}, {"id": "C1146", "name": "Подавление восстания нохчи: разорение сёл и принудительная рубка лесов Грековым (1821-1822)", "short": "Подавление восстания нохчи: разорение сёл и принудительная рубка лесов Грековым (1821-1…", "from": "1821-03-01", "to": "1822-02-04"}, {"id": "C1147", "name": "Массовое убийство старшин, созванных на показательную экзекуцию в Герзель-ауле (1825)", "short": "Массовое убийство старшин, созванных на показательную экзекуцию в Герзель-ауле (1825)", "from": "1825-07-18", "to": "1825-07-18"}, {"id": "C1149", "name": "Уничтожение аула беженцев Узени-Юрт, вымогание заложников с Гельдигена и захват жителей Самашек на жатве (1826-1827)", "short": "Уничтожение аула беженцев Узени-Юрт, вымогание заложников с Гельдигена и захват жителей…", "from": "1826-01-01", "to": "1827-12-31"}, {"id": "C1148", "name": "Разорение равнинных сёл нохчи в карательном походе Ермолова (1826)", "short": "Разорение равнинных сёл нохчи в карательном походе Ермолова (1826)", "from": "1826-01-26", "to": "1826-05-18"}, {"id": "C1150", "name": "Обман и силовое удержание Бейбулата Таймиева Паскевичем, раскол Чечни на партии и принуждение к присяге (1828-1829)", "short": "Обман и силовое удержание Бейбулата Таймиева Паскевичем, раскол Чечни на партии и прину…", "from": "1828-01-01", "to": "1829-11-21"}, {"id": "C1152", "name": "Выжигание плоскостной Чечни экспедицией Вельяминова: снос сёл от Сунжи до Маиртупа, захват семьи Астемира, коллективные взыскания с чеченских сёл, рубка бегущих жителей Дзулгай-Юрта и истребление зимних запасов (1830-1831)", "short": "Выжигание плоскостной Чечни экспедицией Вельяминова: снос сёл от Сунжи до Маиртупа, зах…", "from": "1830-09-01", "to": "1831-01-26"}, {"id": "C1153", "name": "Убийство лидера чеченского сопротивления Бейбулата Таймиева, подготовленное имперским командованием (1831)", "short": "Убийство лидера чеченского сопротивления Бейбулата Таймиева, подготовленное имперским к…", "from": "1831-07-14", "to": "1831-07-14"}, {"id": "C1154", "name": "Зимние набеги Вельяминова на чеченские хутора и сёла по Сунже: пленение женщин и разорение дворов (1831-1832)", "short": "Зимние набеги Вельяминова на чеченские хутора и сёла по Сунже: пленение женщин и разоре…", "from": "1831-12-23", "to": "1832-02-29"}, {"id": "C1155", "name": "Истребление 61 селения равнинной Чечни и горной Ичкерии войсками Розена, сожжение заживо защитников Герменчука и вымогание заложников от 80 сёл (1832)", "short": "Истребление 61 селения равнинной Чечни и горной Ичкерии войсками Розена, сожжение зажив…", "from": "1832-08-22", "to": "1832-09-27"}, {"id": "C1156", "name": "Тайная разведка Чечни топографами Розена и разорение Зандака отрядом Пулло: пленение 31 жителя и угон скота (1835-1836)", "short": "Тайная разведка Чечни топографами Розена и разорение Зандака отрядом Пулло: пленение 31…", "from": "1835-01-01", "to": "1836-08-23"}, {"id": "C1157", "name": "Принуждение разорённого Зандака к подчинению и подати полковником Пулло (1836)", "short": "Принуждение разорённого Зандака к подчинению и подати полковником Пулло (1836)", "from": "1836-08-27", "to": "1836-08-27"}, {"id": "C1163", "name": "Аманатско-податная система полковника Пулло в захваченных аулах Чечни (1836-1840)", "short": "Аманатско-податная система полковника Пулло в захваченных аулах Чечни (1836-1840)", "from": "1836-09-01", "to": "1840-02-29"}, {"id": "C1158", "name": "Истребление жителей Кишкерой-Юрта отрядом Пулло: 76 убитых, 40 пленных, сожжение села с запасами (декабрь 1836)", "short": "Истребление жителей Кишкерой-Юрта отрядом Пулло: 76 убитых, 40 пленных, сожжение села с…", "from": "1836-12-27", "to": "1836-12-31"}, {"id": "C1160", "name": "Истребление Малой Чечни экспедицией Фезе: 92 пленных, более тысячи сожжённых саклей (январь 1837)", "short": "Истребление Малой Чечни экспедицией Фезе: 92 пленных, более тысячи сожжённых саклей (ян…", "from": "1837-01-23", "to": "1837-01-29"}, {"id": "C1161", "name": "Принуждение Чечни к присяге весенним туром Фезе: аманаты с принуждённых к присяге обществ, уничтожение аулов по Джалке, штраф скотом (февраль-апрель 1837)", "short": "Принуждение Чечни к присяге весенним туром Фезе: аманаты с принуждённых к присяге общес…", "from": "1837-02-04", "to": "1837-04-30"}, {"id": "C1164", "name": "Принуждение Чечни к подчинению после разгрома Ахульго и подавление всеобщего восстания 1840 года (1838-1840)", "short": "Принуждение Чечни к подчинению после разгрома Ахульго и подавление всеобщего восстания…", "from": "1838-11-17", "to": "1840-11-18"}, {"id": "C1165", "name": "«Стеснение Чечни со всех сторон»: блокада, тайная война, карательные экспедиции и Сунженская линия (1840-1846)", "short": "«Стеснение Чечни со всех сторон»: блокада, тайная война, карательные экспедиции и Сунже…", "from": "1840-06-01", "to": "1846-12-31"}, {"id": "C1166", "name": "«Смертный приговор» Малой Чечне: резня хутора Дубы, просеки, крепости, истребление населения и станицы на месте сожжённых аулов (1847-1851)", "short": "«Смертный приговор» Малой Чечне: резня хутора Дубы, просеки, крепости, истребление насе…", "from": "1847-01-05", "to": "1851-11-16"}, {"id": "C1167", "name": "«Ни пахать, ни сеять»: погром Чечни, организованный голод, перекупка элит и институты подчинения (1852-1857)", "short": "«Ни пахать, ни сеять»: погром Чечни, организованный голод, перекупка элит и институты п…", "from": "1852-01-04", "to": "1857-12-31"}, {"id": "C1168", "name": "Просеки и голод: завоевание Чечни Евдокимовым (1857-1859)", "short": "Просеки и голод: завоевание Чечни Евдокимовым (1857-1859)", "from": "1857-01-15", "to": "1859-08-19"}, {"id": "C1169", "name": "Подавление восстаний 1860-1861 годов, казнь Байсангура и расстрел зикристов у Шали (1860-1864)", "short": "Подавление восстаний 1860-1861 годов, казнь Байсангура и расстрел зикристов у Шали (186…", "from": "1860-06-01", "to": "1864-02-29"}], "approximate": true, "geometry_source": "Natural Earth admin-1 (современная нарезка - приближение) (рамки указаны в REG tools/build_expansion.py)"}}, {"type": "Feature", "geometry": {"type": "Polygon", "coordinates": [[[45.934, 42.028], [45.881, 42.102], [45.812, 42.115], [45.631, 42.201], [45.621, 42.224], [45.74, 42.471], [45.829, 42.491], [45.948, 42.575], [45.968, 42.619], [45.992, 42.593], [46.013, 42.592], [46.022, 42.654], [46.047, 42.69], [46.17, 42.73], [46.171, 42.778], [46.121, 42.838], [46.196, 42.904], [46.221, 42.908], [46.248, 42.874], [46.289, 42.872], [46.336, 42.904], [46.393, 42.872], [46.537, 42.941], [46.534, 42.961], [46.494, 42.981], [46.489, 43.008], [46.536, 43.051], [46.538, 43.076], [46.51, 43.094], [46.44, 43.075], [46.403, 43.114], [46.405, 43.135], [46.433, 43.15], [47.35, 43.15], [47.35, 41.267], [47.251, 41.316], [47.239, 41.416], [47.159, 41.504], [47.141, 41.552], [47.107, 41.57], [47.027, 41.557], [47.004, 41.605], [46.916, 41.681], [46.902, 41.713], [46.835, 41.73], [46.769, 41.776], [46.741, 41.851], [46.568, 41.787], [46.544, 41.815], [46.544, 41.874], [46.526, 41.882], [46.431, 41.89], [46.382, 41.925], [46.294, 41.939], [46.224, 41.993], [46.099, 41.985], [46.058, 42.02], [45.934, 42.028]]]}, "properties": {"id": "DAGESTAN_MTN", "name": "Горный Дагестан (ядро имамата)", "from": "1837-09-13", "to": "1859-08-25", "event": "сдача имама Шамиля у аула Гуниб 25.08.1859", "source": "кампания «Подавление восстаний 1860-1861 годов, казнь Байсангура и расстрел зикристов у Шали (1860-1864)» (C1169): «Двадцать пять лет чеченцы и дагестанцы держали против империи собственное государство - имамат... В 1859 году имамат пал: в апреле войска взяли его столицу Ведено, в августе у дагестанского аула Гуниб сдался сам Шамиль»", "painted": "контур источника 1783 г. (плюс Гюлистанский мир 12.10.1813, ПСЗРИ т. 32 № 25466)", "note": "приморский Дагестан (Дербент, Петровск) рамкой не затронут - там империя была с 1813 года; наш чеченский домен описывает имамат со стороны Чечни, отдельного дагестанского домена в базе пока нет", "domain": "nohchi", "campaigns": [{"id": "C1162", "name": "Попытка подкупа Шамиля обещанием власти над Дагестаном ради явки к Николаю I в Тифлис и вызов чеченского имама Ташу-Хаджи (1837)", "short": "Попытка подкупа Шамиля обещанием власти над Дагестаном ради явки к Николаю I в Тифлис и…", "from": "1837-09-13", "to": "1837-09-28"}, {"id": "C1164", "name": "Принуждение Чечни к подчинению после разгрома Ахульго и подавление всеобщего восстания 1840 года (1838-1840)", "short": "Принуждение Чечни к подчинению после разгрома Ахульго и подавление всеобщего восстания…", "from": "1838-11-17", "to": "1840-11-18"}, {"id": "C1168", "name": "Просеки и голод: завоевание Чечни Евдокимовым (1857-1859)", "short": "Просеки и голод: завоевание Чечни Евдокимовым (1857-1859)", "from": "1857-01-15", "to": "1859-08-19"}, {"id": "C1169", "name": "Подавление восстаний 1860-1861 годов, казнь Байсангура и расстрел зикристов у Шали (1860-1864)", "short": "Подавление восстаний 1860-1861 годов, казнь Байсангура и расстрел зикристов у Шали (186…", "from": "1860-06-01", "to": "1864-02-29"}], "approximate": true, "geometry_source": "Natural Earth admin-1 (современная нарезка - приближение) (рамки указаны в REG tools/build_expansion.py)"}}, {"type": "Feature", "geometry": {"type": "Polygon", "coordinates": [[[40.233, 43.576], [40.164, 43.576], [40.073, 43.551], [39.986, 43.389], [39.963, 43.393], [39.91, 43.426], [39.868, 43.496], [39.718, 43.568], [39.691, 43.614], [39.619, 43.645], [39.458, 43.771], [39.329, 43.896], [39.116, 44.024], [39.012, 44.1], [38.978, 44.148], [38.874, 44.173], [38.74, 44.281], [38.595, 44.332], [38.5, 44.343], [38.5, 44.95], [41.5, 44.95], [41.5, 44.721], [41.428, 44.714], [41.413, 44.694], [41.423, 44.666], [41.5, 44.603], [41.5, 44.037], [41.449, 43.994], [41.378, 44.006], [41.334, 43.982], [41.324, 43.996], [41.337, 44.025], [41.287, 44.002], [41.299, 44.049], [41.286, 44.073], [41.165, 44.082], [41.141, 44.101], [41.088, 44.093], [40.893, 44.14], [40.846, 44.109], [40.92, 44.055], [40.953, 43.981], [40.863, 43.961], [40.827, 43.926], [40.777, 43.923], [40.779, 43.876], [40.719, 43.799], [40.734, 43.742], [40.707, 43.709], [40.7, 43.657], [40.725, 43.626], [40.69, 43.523], [40.652, 43.539], [40.52, 43.505], [40.48, 43.509], [40.233, 43.576]]]}, "properties": {"id": "CIRCASSIA_LEFT", "name": "Черкесия: левобережье Кубани", "from": null, "to": "1864-05-21", "event": "окончание Кавказской войны, парад в Кбаадэ 21.05.1864", "source": "дата уже курируется в таблице приобретений выше (A CIRCASSIA 1864-05-21): АКАК т. 12; Берже А.П. Выселение горцев с Кавказа", "painted": "контур источника 1783 г.", "note": "приобретение 1864 г. в таблице было, но контур источника всё равно красил левобережье Кубани с 1783 года - Майкоп попадал в империю за семьдесят четыре года до основания. КАМПАНИЙ ПО ЧЕРКЕСАМ В НАШЕЙ БАЗЕ НЕТ: дату мы взяли из уже согласованного акта, а не из базы", "domain": null, "campaigns": [], "approximate": true, "geometry_source": "Natural Earth admin-1 (современная нарезка - приближение) (рамки указаны в REG tools/build_expansion.py)"}}], "source": "территории, где империя объявила себя хозяйкой актом, но контроля не имела: вычитаются из ядра до даты контроля (tools/build_expansion.py, список RESIST). Даты и кампании - из нашей базы (data/campaigns/*.json). Геометрия приближена современными административными единицами. Разбор - data/crosscheck/control_vs_act.csv"}