{"type": "FeatureCollection", "features": [{"type": "Feature", "properties": {"people": "башкиры", "kind": "current_stub", "region_ru": "Республика Башкортостан", "source": "контур Natural Earth admin-1, cache/ne_admin1.geojson, найден по admin='Russia' + name='Bashkortostan' (name_ru='Республика Башкортостан', adm1_code='RUS-2378', iso_3166_2='RU-BA')", "caveat": "современная административная нарезка РФ, а не контур народа: границы автономий кроила империя, нынешний субъект - результат этого кромсания; максимальную государственность см. kind=\"historical_max\" и data/peoples/RESEARCH.md", "hist_max_todo": "Башкирская АССР, до передач территорий 1922-1924 гг. (1919-1922) - собрано за 1926 из готовой векторной геометрии (heiDATA/OSM), см. RESEARCH.md", "absorbed": null, "status": "черновик, в показ не вклеен, список и даты утверждает куратор"}, "geometry": {"type": "Polygon", "coordinates": [[[57.408414, 56.32912], [57.420092, 56.319793], [57.422366, 56.314031], [57.424123, 56.303463], [57.421746, 56.295841], [57.412341, 56.275067], [57.407173, 56.253621], [57.40769, 56.242924], [57.410791, 56.235379], [57.456266, 56.205045], [57.469082, 56.192074], [57.47766, 56.178897], [57.478693, 56.170629], [57.475903, 56.164014], [57.464121, 56.155642], [57.458436, 56.15063], [57.454095, 56.144765], [57.452338, 56.13585], [57.455336, 56.130295], [57.459987, 56.125463], [57.474043, 56.118745], [57.537191, 56.100194], [57.63734, 56.098824], [57.672687, 56.130063], [57.682505, 56.133938], [57.696251, 56.137866], [57.728394, 56.138796], [57.802085, 56.15063], [57.817277, 56.150501], [57.872261, 56.141225], [57.880943, 56.138331], [57.887247, 56.134765], [57.895826, 56.121536], [57.907194, 56.11549], [58.015508, 56.113888], [58.048788, 56.118745], [58.064704, 56.128926], [58.07938, 56.141018], [58.21901, 56.10779], [58.258491, 56.104069], [58.271823, 56.112648], [58.283606, 56.11673], [58.292287, 56.116317], [58.299935, 56.114043], [58.30469, 56.109754], [58.307687, 56.104534], [58.310477, 56.092287], [58.311718, 56.072547], [58.315128, 56.06619], [58.323913, 56.060454], [58.339313, 56.058852], [58.351612, 56.058956], [58.362877, 56.060274], [58.371249, 56.062418], [58.37652, 56.066346], [58.379, 56.07203], [58.380447, 56.085104], [58.381998, 56.091202], [58.386338, 56.095646], [58.41135, 56.102442], [58.417861, 56.105697], [58.423132, 56.10965], [58.45052, 56.14293], [58.455068, 56.147219], [58.469331, 56.152335], [58.490931, 56.157451], [58.543021, 56.163084], [58.564725, 56.162412], [58.577334, 56.158743], [58.579195, 56.152955], [58.585603, 56.146392], [58.596558, 56.139726], [58.639449, 56.127608], [58.664254, 56.11735], [58.700841, 56.106963], [58.708799, 56.101951], [58.711693, 56.096809], [58.717171, 56.079316], [58.721305, 56.073425], [58.732054, 56.068103], [58.746523, 56.062754], [58.796753, 56.059886], [58.824348, 56.053995], [58.92522, 56.06123], [58.943514, 56.065674], [58.952712, 56.070118], [58.957053, 56.074743], [58.974623, 56.086603], [58.994157, 56.095698], [59.002631, 56.102571], [59.006972, 56.10965], [59.009763, 56.136031], [59.013484, 56.147994], [59.018858, 56.158743], [59.026299, 56.169388], [59.06361, 56.155642], [59.08149, 56.151663], [59.138024, 56.150526], [59.147739, 56.149235], [59.154457, 56.14616], [59.160348, 56.142542], [59.175644, 56.130605], [59.180674, 56.128019], [59.181122, 56.127789], [59.187943, 56.127272], [59.222566, 56.133938], [59.278687, 56.13616], [59.288816, 56.134662], [59.29605, 56.130889], [59.298944, 56.122621], [59.299564, 56.115128], [59.295947, 56.08867], [59.292226, 56.076732], [59.285095, 56.059783], [59.281374, 56.054822], [59.268972, 56.047897], [59.197475, 56.020492], [59.195901, 56.019888], [59.177194, 56.009812], [59.173474, 56.005497], [59.174301, 55.999063], [59.178435, 55.990019], [59.210093, 55.939736], [59.228457, 55.910567], [59.229801, 55.905787], [59.227527, 55.901188], [59.223186, 55.897157], [59.217301, 55.893602], [59.205306, 55.886357], [59.1897, 55.874058], [59.187323, 55.868425], [59.188253, 55.861707], [59.194041, 55.852198], [59.202516, 55.840416], [59.203756, 55.83623], [59.200242, 55.832975], [59.194144, 55.830107], [59.186703, 55.827549], [59.160761, 55.814578], [59.15611, 55.81034], [59.15363, 55.805199], [59.15394, 55.79954], [59.157867, 55.794217], [59.164999, 55.789877], [59.234286, 55.7849], [59.295947, 55.780472], [59.305455, 55.778146], [59.313, 55.774735], [59.316617, 55.767707], [59.315997, 55.761635], [59.31362, 55.755718], [59.304318, 55.739957], [59.292846, 55.725694], [59.282614, 55.710553], [59.278687, 55.699391], [59.279617, 55.693629], [59.283958, 55.687247], [59.341422, 55.647508], [59.344316, 55.643994], [59.342146, 55.64079], [59.336461, 55.638], [59.260708, 55.615801], [59.254812, 55.614073], [59.24241, 55.607407], [59.238793, 55.602446], [59.236932, 55.596607], [59.236932, 55.590457], [59.239723, 55.584359], [59.247061, 55.578417], [59.253779, 55.574386], [59.262461, 55.571983], [59.26754, 55.572072], [59.272796, 55.572164], [59.373255, 55.606632], [59.379249, 55.610146], [59.394339, 55.622445], [59.409222, 55.627768], [59.426585, 55.631902], [59.436713, 55.632625], [59.446635, 55.631953], [59.458418, 55.62614], [59.464722, 55.620946], [59.46927, 55.615365], [59.475988, 55.605392], [59.490974, 55.586607], [59.498002, 55.579889], [59.511644, 55.579915], [59.627813, 55.591594], [59.632774, 55.58069], [59.639078, 55.570458], [59.641352, 55.565343], [59.636081, 55.557798], [59.623782, 55.548935], [59.593293, 55.53351], [59.581511, 55.523795], [59.573966, 55.515785], [59.571796, 55.5101], [59.569315, 55.505191], [59.566111, 55.500437], [59.565595, 55.499972], [59.564871, 55.49961], [59.502963, 55.482454], [59.493661, 55.478139], [59.483532, 55.470413], [59.475057, 55.467545], [59.464412, 55.465814], [59.444568, 55.46801], [59.422864, 55.473772], [59.408395, 55.479405], [59.396613, 55.48049], [59.38142, 55.479715], [59.351757, 55.472428], [59.311346, 55.457778], [59.28601, 55.453868], [59.282718, 55.45336], [59.201276, 55.450104], [59.191354, 55.444988], [59.183912, 55.43548], [59.171613, 55.414602], [59.164999, 55.392433], [59.166342, 55.381426], [59.176781, 55.370729], [59.178125, 55.364114], [59.159211, 55.331558], [59.149289, 55.322928], [59.139367, 55.316779], [59.103194, 55.301793], [58.99736, 55.244173], [58.990849, 55.24221], [58.982994, 55.241383], [58.972246, 55.243863], [58.966355, 55.247946], [58.964081, 55.253604], [58.964701, 55.259418], [58.969662, 55.270528], [58.978654, 55.286238], [58.980514, 55.292181], [58.981237, 55.297917], [58.980514, 55.303291], [58.975863, 55.307296], [58.970282, 55.310836], [58.943824, 55.323548], [58.935452, 55.325564], [58.925427, 55.326442], [58.871993, 55.32329], [58.862072, 55.320086], [58.853287, 55.31528], [58.846569, 55.304325], [58.848429, 55.298382], [58.85525, 55.294765], [58.914885, 55.287013], [58.919639, 55.283293], [58.920776, 55.278538], [58.913128, 55.273345], [58.900415, 55.268255], [58.871683, 55.262002], [58.855147, 55.259986], [58.840988, 55.259728], [58.746213, 55.267893], [58.735258, 55.264586], [58.726783, 55.257454], [58.719961, 55.239368], [58.723165, 55.231513], [58.729883, 55.226345], [58.789725, 55.2188], [58.797889, 55.216682], [58.802954, 55.213633], [58.80037, 55.207793], [58.796753, 55.202781], [58.755515, 55.163352], [58.744766, 55.155703], [58.738565, 55.152396], [58.731434, 55.149451], [58.722442, 55.147952], [58.712313, 55.147435], [58.702701, 55.148365], [58.69402, 55.153688], [58.688129, 55.158391], [58.673556, 55.188466], [58.665288, 55.189913], [58.658776, 55.189345], [58.651542, 55.187433], [58.645754, 55.183815], [58.64069, 55.179423], [58.634902, 55.175754], [58.626737, 55.173377], [58.596145, 55.17131], [58.587463, 55.169553], [58.581675, 55.166142], [58.577644, 55.161543], [58.575061, 55.156065], [58.574441, 55.149967], [58.575474, 55.143818], [58.581882, 55.137565], [58.588807, 55.133586], [58.597178, 55.130795], [58.653092, 55.121029], [58.740012, 55.116378], [58.749004, 55.114621], [58.755825, 55.111727], [58.761199, 55.108626], [58.765127, 55.105577], [58.76771, 55.102942], [58.816493, 55.0423], [58.819077, 55.037029], [58.819697, 55.031525], [58.815666, 55.024859], [58.619502, 54.94967], [58.588186, 54.948274], [58.550979, 54.952667], [58.533306, 54.957783], [58.531756, 54.962795], [58.532066, 54.968583], [58.540437, 55.001811], [58.540748, 55.005222], [58.539507, 55.009614], [58.536097, 55.013025], [58.533099, 55.015505], [58.523488, 55.021551], [58.512636, 55.022637], [58.498166, 55.021655], [58.422512, 54.998814], [58.406182, 54.996798], [58.39502, 54.997729], [58.387372, 54.999796], [58.386958, 55.000209], [58.386442, 55.001036], [58.385512, 55.003077], [58.384891, 55.007108], [58.386648, 55.011423], [58.389542, 55.016022], [58.393573, 55.020518], [58.426336, 55.04323], [58.430987, 55.04739], [58.434087, 55.051834], [58.433467, 55.056898], [58.429643, 55.061084], [58.423752, 55.06465], [58.375796, 55.078551], [58.368975, 55.081289], [58.364014, 55.08439], [58.362877, 55.088472], [58.364634, 55.093175], [58.367528, 55.098239], [58.383031, 55.116946], [58.385201, 55.122372], [58.385512, 55.128496], [58.382618, 55.140304], [58.380137, 55.145782], [58.376727, 55.150742], [58.372386, 55.15498], [58.365978, 55.158287], [58.318022, 55.172395], [58.30872, 55.173739], [58.299005, 55.173687], [58.287946, 55.17069], [58.14749, 55.117411], [58.141495, 55.11369], [58.138188, 55.108781], [58.139428, 55.10165], [58.143769, 55.096766], [58.150797, 55.09333], [58.189554, 55.087904], [58.193482, 55.084028], [58.191622, 55.078292], [58.178702, 55.070153], [58.169194, 55.065425], [58.144699, 55.056743], [58.138705, 55.053487], [58.134054, 55.049431], [58.132814, 55.043204], [58.127646, 55.038269], [58.100051, 55.028373], [58.093643, 55.024859], [58.089302, 55.020104], [58.088992, 55.012973], [58.090129, 55.007237], [58.092713, 55.000157], [58.09292, 54.999537], [58.09323, 54.993698], [58.092403, 54.982019], [58.093023, 54.976024], [58.105735, 54.957111], [58.100361, 54.95091], [58.053749, 54.929025], [58.011891, 54.916597], [58.001762, 54.916597], [58.000832, 54.916726], [57.998352, 54.91763], [57.988016, 54.923883], [57.980678, 54.926984], [57.971893, 54.929567], [57.965175, 54.932616], [57.960731, 54.937913], [57.961765, 54.946311], [57.970343, 54.959643], [57.994631, 54.979642], [58.008997, 54.989977], [58.019952, 54.999796], [58.020883, 55.001036], [58.02233, 55.003465], [58.02419, 55.008064], [58.02512, 55.012663], [58.02543, 55.016461], [58.025223, 55.020337], [58.023053, 55.02982], [58.021089, 55.034677], [58.018609, 55.044909], [58.019849, 55.050749], [58.022433, 55.05695], [58.029151, 55.069145], [58.031321, 55.074675], [58.029874, 55.079636], [58.026154, 55.084442], [58.00538, 55.104906], [57.997938, 55.114827], [57.987086, 55.132501], [57.964865, 55.158597], [57.962592, 55.162835], [57.963832, 55.167124], [57.968483, 55.170535], [57.974787, 55.173739], [57.994941, 55.179785], [57.999489, 55.178803], [58.003519, 55.176917], [58.010341, 55.172033], [58.02512, 55.165057], [58.032975, 55.163352], [58.041863, 55.163067], [58.050028, 55.164153], [58.110283, 55.181955], [58.123822, 55.188105], [58.136018, 55.195417], [58.140669, 55.199577], [58.143666, 55.204073], [58.143976, 55.208956], [58.135398, 55.215493], [58.119895, 55.223193], [58.079277, 55.235104], [58.062017, 55.242158], [58.050648, 55.248101], [58.045274, 55.25748], [58.043207, 55.262312], [58.040416, 55.266859], [58.036075, 55.270994], [58.030184, 55.274766], [57.9166, 55.292956], [57.737386, 55.30218], [57.69036, 55.298951], [57.674857, 55.300087], [57.577602, 55.320525], [57.542359, 55.331558], [57.517968, 55.334039], [57.472079, 55.327734], [57.433735, 55.327062], [57.425363, 55.325512], [57.397251, 55.314557], [57.329142, 55.265154], [57.316223, 55.258333], [57.308988, 55.256214], [57.299996, 55.256524], [57.272505, 55.262105], [57.263616, 55.261873], [57.256692, 55.258023], [57.251421, 55.251615], [57.24863, 55.239833], [57.24832, 55.232133], [57.248733, 55.225415], [57.247803, 55.220402], [57.245633, 55.216682], [57.239328, 55.216268], [57.225169, 55.226242], [57.219588, 55.226759], [57.215247, 55.223245], [57.215247, 55.213839], [57.217831, 55.207535], [57.221758, 55.202161], [57.233851, 55.189448], [57.239742, 55.180146], [57.241912, 55.175289], [57.243049, 55.170018], [57.243049, 55.164437], [57.239638, 55.157564], [57.233851, 55.150303], [57.220208, 55.140795], [57.210596, 55.135911], [57.171012, 55.123871], [57.158093, 55.117411], [57.152098, 55.11276], [57.146001, 55.107231], [57.140316, 55.099066], [57.136906, 55.092141], [57.136285, 55.083718], [57.136389, 55.077517], [57.14383, 55.052557], [57.183001, 54.999486], [57.202225, 54.983724], [57.224135, 54.974164], [57.230026, 54.970443], [57.235297, 54.966361], [57.239638, 54.962149], [57.243049, 54.957059], [57.244289, 54.95122], [57.242222, 54.943003], [57.238191, 54.93706], [57.232817, 54.931944], [57.182381, 54.894892], [57.163261, 54.877426], [57.160883, 54.874532], [57.155922, 54.866987], [57.154269, 54.86337], [57.152822, 54.858306], [57.152512, 54.847402], [57.154579, 54.836886], [57.156543, 54.831434], [57.15985, 54.825543], [57.165121, 54.81898], [57.186722, 54.802288], [57.225376, 54.781514], [57.249043, 54.772781], [57.316843, 54.756038], [57.352706, 54.747098], [57.360354, 54.743946], [57.366039, 54.738675], [57.36976, 54.728753], [57.378338, 54.723533], [57.386089, 54.719761], [57.439316, 54.709529], [57.496987, 54.700589], [57.508976, 54.696998], [57.515487, 54.692786], [57.518588, 54.684363], [57.517244, 54.671986], [57.520448, 54.667878], [57.528199, 54.665863], [57.540292, 54.666018], [57.558379, 54.671211], [57.581323, 54.673252], [57.581013, 54.666328], [57.574295, 54.649326], [57.573571, 54.643745], [57.575845, 54.638991], [57.580083, 54.634857], [57.594139, 54.628656], [57.741727, 54.583077], [57.747204, 54.579356], [57.749788, 54.574705], [57.750305, 54.569176], [57.738936, 54.521169], [57.738523, 54.515381], [57.738626, 54.509903], [57.739866, 54.505201], [57.742863, 54.500601], [57.744104, 54.499852], [57.751958, 54.497036], [57.791233, 54.491041], [57.800431, 54.488819], [57.807666, 54.48577], [57.813763, 54.482153], [57.819034, 54.478329], [57.82813, 54.470164], [57.838878, 54.462542], [57.845079, 54.459053], [57.852521, 54.455901], [57.870194, 54.450553], [57.876085, 54.446858], [57.879703, 54.442414], [57.885904, 54.422389], [57.888694, 54.417661], [57.892828, 54.413527], [57.898616, 54.409857], [57.906678, 54.406964], [57.93603, 54.399729], [57.951843, 54.393889], [57.961145, 54.392365], [57.971377, 54.392804], [57.988016, 54.39854], [58.000212, 54.405413], [58.002692, 54.407274], [58.075246, 54.446212], [58.079897, 54.450372], [58.085168, 54.454248], [58.097674, 54.460836], [58.16723, 54.481636], [58.18294, 54.488767], [58.192242, 54.494736], [58.194515, 54.499826], [58.195446, 54.50303], [58.196996, 54.507319], [58.199993, 54.511841], [58.206298, 54.515071], [58.354196, 54.546593], [58.363704, 54.547498], [58.453518, 54.526698], [58.520284, 54.518223], [58.527725, 54.516414], [58.53434, 54.513572], [58.586223, 54.481584], [58.613818, 54.470267], [58.627771, 54.471507], [58.647511, 54.477192], [58.714794, 54.508973], [58.719651, 54.513081], [58.727196, 54.522615], [58.730193, 54.527861], [58.736911, 54.537757], [58.746626, 54.543699], [58.808121, 54.567781], [58.824658, 54.572199], [58.897625, 54.582612], [58.977103, 54.604936], [59.03033, 54.613411], [59.061439, 54.631859], [59.080456, 54.629844], [59.142365, 54.61739], [59.227837, 54.611189], [59.24334, 54.616098], [59.26091, 54.625865], [59.277676, 54.639852], [59.317961, 54.673459], [59.340595, 54.682967], [59.404054, 54.702553], [59.411599, 54.707204], [59.418213, 54.713715], [59.437334, 54.739553], [59.45263, 54.751904], [59.501826, 54.779706], [59.506993, 54.783866], [59.511748, 54.789731], [59.517225, 54.800221], [59.519706, 54.808024], [59.523427, 54.828385], [59.527974, 54.834844], [59.534899, 54.841356], [59.550608, 54.848875], [59.561874, 54.852828], [59.599288, 54.861174], [59.613757, 54.866729], [59.624402, 54.878666], [59.631534, 54.911067], [59.756797, 54.873498], [59.766926, 54.868512], [59.776951, 54.860424], [59.805993, 54.846368], [59.816432, 54.845128], [59.829868, 54.845541], [59.868212, 54.856239], [59.884541, 54.863809], [59.902938, 54.866729], [59.943969, 54.857427], [59.923919, 54.841356], [59.920095, 54.837015], [59.919165, 54.832209], [59.924436, 54.826525], [59.93043, 54.822416], [59.971151, 54.803761], [59.974562, 54.80141], [59.974252, 54.795622], [59.970634, 54.785545], [59.940972, 54.747046], [59.926709, 54.734437], [59.909656, 54.71573], [59.905625, 54.707617], [59.901595, 54.695628], [59.897874, 54.657181], [59.888366, 54.642711], [59.869969, 54.613308], [59.859737, 54.603024], [59.793901, 54.565404], [59.77106, 54.558065], [59.725585, 54.550159], [59.71928, 54.547213], [59.713699, 54.543389], [59.709048, 54.539152], [59.693649, 54.5206], [59.68352, 54.506027], [59.679489, 54.498147], [59.678766, 54.494116], [59.679076, 54.489129], [59.684037, 54.483548], [59.690445, 54.480034], [59.740984, 54.460242], [59.745325, 54.454894], [59.746255, 54.447142], [59.731062, 54.396861], [59.725895, 54.387327], [59.720624, 54.380505], [59.678146, 54.350171], [59.671945, 54.347122], [59.667604, 54.34366], [59.666674, 54.339681], [59.675665, 54.334255], [59.683727, 54.330896], [59.77137, 54.304489], [59.777468, 54.301079], [59.782532, 54.297151], [59.78615, 54.292449], [59.7908, 54.281545], [59.792351, 54.275628], [59.796795, 54.264647], [59.802893, 54.254466], [59.803099, 54.248369], [59.800516, 54.242012], [59.78863, 54.233227], [59.735817, 54.203824], [59.730752, 54.199483], [59.727032, 54.194057], [59.726412, 54.185892], [59.727032, 54.179071], [59.732406, 54.161397], [59.734887, 54.149408], [59.731993, 54.14331], [59.728995, 54.13866], [59.693855, 54.129099], [59.674528, 54.133854], [59.664503, 54.141657], [59.655615, 54.150287], [59.645693, 54.158297], [59.5442, 54.196072], [59.534899, 54.197545], [59.491284, 54.195917], [59.408085, 54.177882], [59.39899, 54.177288], [59.344006, 54.185065], [59.322199, 54.181551], [59.298634, 54.173334], [59.291916, 54.170156], [59.280237, 54.160157], [59.262564, 54.13959], [59.193254, 54.038492], [59.162002, 53.992906], [59.153837, 53.984199], [59.147015, 53.980065], [59.137817, 53.976551], [59.120454, 53.974225], [59.081076, 53.974484], [59.074978, 53.97376], [59.037461, 53.961513], [59.025369, 53.958774], [59.014104, 53.958205], [59.006352, 53.959187], [58.9955, 53.962236], [58.969352, 53.97314], [58.962324, 53.974845], [58.955813, 53.974794], [58.948681, 53.970246], [58.943824, 53.965492], [58.92336, 53.935158], [58.921499, 53.929577], [58.921396, 53.923737], [58.927391, 53.916348], [58.933488, 53.911593], [58.944754, 53.90534], [58.945581, 53.902498], [58.947544, 53.899708], [58.930491, 53.885652], [58.917675, 53.87604], [58.909407, 53.866531], [58.906203, 53.861571], [58.904653, 53.852734], [58.904653, 53.840848], [58.909304, 53.806199], [58.909304, 53.796717], [58.904446, 53.789895], [58.876231, 53.763437], [58.87282, 53.758476], [58.87189, 53.750518], [58.87282, 53.740854], [58.884913, 53.70773], [58.906823, 53.66582], [58.908064, 53.660187], [58.907133, 53.65409], [58.901346, 53.647785], [58.895455, 53.643238], [58.844088, 53.610733], [58.830549, 53.604945], [58.825175, 53.600863], [58.820937, 53.595644], [58.820007, 53.586807], [58.821557, 53.566136], [58.824658, 53.560788], [58.830239, 53.557145], [58.85525, 53.55947], [58.877161, 53.559057], [58.902276, 53.548825], [58.868479, 53.501799], [58.867343, 53.480043], [58.865379, 53.332688], [58.865069, 53.319924], [58.864449, 53.316643], [58.862278, 53.31101], [58.858248, 53.307082], [58.85215, 53.303672], [58.837577, 53.298788], [58.832409, 53.2953], [58.829515, 53.290236], [58.827965, 53.284319], [58.827448, 53.257783], [58.823004, 53.218044], [58.822797, 53.211378], [58.824348, 53.204944], [58.828999, 53.199699], [58.838921, 53.195823], [58.848739, 53.19435], [58.875714, 53.193498], [58.883982, 53.191741], [58.891424, 53.188382], [58.894834, 53.180372], [58.896798, 53.173447], [58.900726, 53.144095], [58.900415, 53.065909], [58.902689, 53.059785], [58.907443, 53.05516], [58.92584, 53.052628], [58.990849, 53.053454], [58.997257, 53.052524], [59.004974, 53.047064], [59.008213, 53.044773], [59.027643, 53.014956], [58.9993, 53.013966], [58.844088, 53.008548], [58.83799, 53.003122], [58.836027, 53.000822], [58.837577, 52.982606], [58.836647, 52.976069], [58.833339, 52.969687], [58.823728, 52.962401], [58.815873, 52.958163], [58.807915, 52.955063], [58.802334, 52.951445], [58.798199, 52.946174], [58.796132, 52.937234], [58.794582, 52.922403], [58.78559, 52.904885], [58.751897, 52.865507], [58.747453, 52.853518], [58.747453, 52.846077], [58.748797, 52.835406], [58.758305, 52.810033], [58.762336, 52.802927], [58.779493, 52.778898], [58.781973, 52.773472], [58.78404, 52.763808], [58.785074, 52.750837], [58.784144, 52.724767], [58.78156, 52.71239], [58.777632, 52.703708], [58.774222, 52.699419], [58.763886, 52.684175], [58.755618, 52.675441], [58.733707, 52.661024], [58.728953, 52.656941], [58.725026, 52.652497], [58.723682, 52.645056], [58.726163, 52.635289], [58.733294, 52.619011], [58.743733, 52.610407], [58.753448, 52.605627], [58.797063, 52.596687], [58.805434, 52.592862], [58.812255, 52.586661], [58.824865, 52.558601], [58.827965, 52.553692], [58.831686, 52.549067], [58.83582, 52.544726], [58.838507, 52.540566], [58.838817, 52.536768], [58.831686, 52.533796], [58.776599, 52.525476], [58.769261, 52.522376], [58.766057, 52.516691], [58.76709, 52.507235], [58.768227, 52.502532], [58.790655, 52.448272], [58.800473, 52.438893], [58.827965, 52.432717], [58.827758, 52.420883], [58.813806, 52.381402], [58.812566, 52.37515], [58.812462, 52.36869], [58.813496, 52.362644], [58.817216, 52.358045], [58.823934, 52.355254], [58.848952, 52.351075], [58.868479, 52.347813], [58.917055, 52.328899], [58.92274, 52.325592], [58.928011, 52.321561], [58.932352, 52.316781], [58.939173, 52.304973], [58.941033, 52.299237], [58.93969, 52.293398], [58.933592, 52.2873], [58.906927, 52.276913], [58.899175, 52.272675], [58.895248, 52.268489], [58.857007, 52.263218], [58.814022, 52.263752], [58.690506, 52.265286], [58.673969, 52.251023], [58.665288, 52.240998], [58.661154, 52.237406], [58.606067, 52.180536], [58.598935, 52.170924], [58.598315, 52.165653], [58.601209, 52.159969], [58.612991, 52.154388], [58.6225, 52.151029], [58.631698, 52.145861], [58.638209, 52.138213], [58.645444, 52.122969], [58.650715, 52.105166], [58.653712, 52.098732], [58.658983, 52.092738], [58.688956, 52.078579], [58.69495, 52.058011], [58.694227, 52.048761], [58.691126, 52.043852], [58.685235, 52.038116], [58.645961, 52.024732], [58.64038, 52.021579], [58.638933, 52.016438], [58.639243, 52.010831], [58.641103, 51.996258], [58.640483, 51.970833], [58.634592, 51.932722], [58.627977, 51.910268], [58.624567, 51.905824], [58.619399, 51.901122], [58.607307, 51.893009], [58.600485, 51.887272], [58.595318, 51.881536], [58.592734, 51.876214], [58.590564, 51.870503], [58.582502, 51.821075], [58.582812, 51.815881], [58.580952, 51.804177], [58.576404, 51.793066], [58.572373, 51.788028], [58.566896, 51.783351], [58.558834, 51.778235], [58.544778, 51.771233], [58.522454, 51.764334], [58.506538, 51.76157], [58.499716, 51.761234], [58.493722, 51.762112], [58.48504, 51.765678], [58.479149, 51.769554], [58.472018, 51.772654], [58.464266, 51.774721], [58.454758, 51.775548], [58.402151, 51.773869], [58.39316, 51.771414], [58.386648, 51.765264], [58.382308, 51.759735], [58.376416, 51.755498], [58.367218, 51.754257], [58.351095, 51.757616], [58.342207, 51.761647], [58.335385, 51.765988], [58.330941, 51.77007], [58.32536, 51.772473], [58.320089, 51.772938], [58.313578, 51.766918], [58.306757, 51.755187], [58.300866, 51.750692], [58.287223, 51.749916], [58.264175, 51.741958], [58.235857, 51.738393], [58.159789, 51.739219], [58.140875, 51.744284], [58.138395, 51.747953], [58.137465, 51.752552], [58.143149, 51.76188], [58.145216, 51.766866], [58.144079, 51.771982], [58.140255, 51.776168], [58.134364, 51.779424], [58.091679, 51.794565], [58.083101, 51.796064], [58.072456, 51.796115], [58.059847, 51.794255], [58.043207, 51.788054], [58.019539, 51.781517], [58.003519, 51.781904], [57.995148, 51.782834], [57.981298, 51.786245], [57.974477, 51.789036], [57.969206, 51.792756], [57.966622, 51.797407], [57.966106, 51.802885], [57.966622, 51.808724], [57.966622, 51.814331], [57.965382, 51.819421], [57.962385, 51.823969], [57.957114, 51.827793], [57.941921, 51.833736], [57.881873, 51.845983], [57.869264, 51.845311], [57.855311, 51.842366], [57.816864, 51.827638], [57.79702, 51.825364], [57.783998, 51.826191], [57.740486, 51.833736], [57.732425, 51.836449], [57.72643, 51.840014], [57.722916, 51.844381], [57.721056, 51.849316], [57.719712, 51.854406], [57.717645, 51.859315], [57.713925, 51.863605], [57.707723, 51.866628], [57.699352, 51.8681], [57.677958, 51.868462], [57.664315, 51.866757], [57.652636, 51.86332], [57.647882, 51.856473], [57.648296, 51.851073], [57.651913, 51.846293], [57.661525, 51.838128], [57.663385, 51.832495], [57.660595, 51.824486], [57.653877, 51.817199], [57.646435, 51.811825], [57.634653, 51.808414], [57.626488, 51.804745], [57.6207, 51.797407], [57.620287, 51.791671], [57.622561, 51.7864], [57.637754, 51.775083], [57.639821, 51.770484], [57.633309, 51.764748], [57.620907, 51.75896], [57.562513, 51.747229], [57.553521, 51.743457], [57.542669, 51.73524], [57.53192, 51.72196], [57.525409, 51.718291], [57.515797, 51.716275], [57.489546, 51.717386], [57.431565, 51.725809], [57.422366, 51.72506], [57.413891, 51.720874], [57.407483, 51.714518], [57.401282, 51.691858], [57.401592, 51.685218], [57.403143, 51.675683], [57.403143, 51.664495], [57.400869, 51.658553], [57.397458, 51.652972], [57.392807, 51.648114], [57.387123, 51.644393], [57.381232, 51.641163], [57.37441, 51.638605], [57.310228, 51.624343], [57.300616, 51.620441], [57.284287, 51.608581], [57.272298, 51.602174], [57.264753, 51.599693], [57.235711, 51.593595], [57.228166, 51.591115], [57.221758, 51.588247], [57.216281, 51.584345], [57.211216, 51.580004], [57.206669, 51.575147], [57.197677, 51.572098], [57.184655, 51.572201], [57.159643, 51.577317], [57.148171, 51.581994], [57.14073, 51.587084], [57.137526, 51.591477], [57.114581, 51.633955], [57.104866, 51.647339], [57.099595, 51.651059], [57.090914, 51.65385], [57.035516, 51.659689], [57.026835, 51.662118], [57.02022, 51.665374], [57.015673, 51.669482], [57.012882, 51.674055], [57.011228, 51.679094], [57.006061, 51.711107], [57.003477, 51.721133], [57.001617, 51.725474], [56.99924, 51.728445], [56.995519, 51.7309], [56.988077, 51.732812], [56.9487, 51.737282], [56.938261, 51.736791], [56.912526, 51.732295], [56.901158, 51.731468], [56.890306, 51.731778], [56.880487, 51.733483], [56.863951, 51.738703], [56.830464, 51.754567], [56.821989, 51.756066], [56.813928, 51.755808], [56.799355, 51.752087], [56.793671, 51.748728], [56.790673, 51.744232], [56.792741, 51.737798], [56.797701, 51.733328], [56.803696, 51.729349], [56.875836, 51.699015], [56.881004, 51.695114], [56.884311, 51.690592], [56.886482, 51.685683], [56.886895, 51.680205], [56.886275, 51.674366], [56.881934, 51.659896], [56.880074, 51.650956], [56.881624, 51.644962], [56.888135, 51.635531], [56.889685, 51.630389], [56.889685, 51.624756], [56.887825, 51.618348], [56.884001, 51.61176], [56.876456, 51.605067], [56.863434, 51.600778], [56.780131, 51.5922], [56.750056, 51.604706], [56.739514, 51.62858], [56.743028, 51.642094], [56.747369, 51.647029], [56.762458, 51.659638], [56.762561, 51.665942], [56.755637, 51.675812], [56.736413, 51.692452], [56.72091, 51.710694], [56.714606, 51.720978], [56.715743, 51.727851], [56.72122, 51.73121], [56.728352, 51.733432], [56.743648, 51.736636], [56.750366, 51.739013], [56.755327, 51.742837], [56.757911, 51.747694], [56.758737, 51.753198], [56.758427, 51.758598], [56.757187, 51.763869], [56.753776, 51.76883], [56.748195, 51.773403], [56.736827, 51.777667], [56.716053, 51.782938], [56.708095, 51.785702], [56.681326, 51.798441], [56.673575, 51.80118], [56.664583, 51.803247], [56.627169, 51.805624], [56.618488, 51.807897], [56.611976, 51.8126], [56.607946, 51.822005], [56.607636, 51.829498], [56.61332, 51.855336], [56.615697, 51.878746], [56.616627, 51.884017], [56.619521, 51.888461], [56.625412, 51.8912], [56.63337, 51.892543], [56.704684, 51.894611], [56.728145, 51.8989], [56.734243, 51.901303], [56.737137, 51.905178], [56.737137, 51.909855], [56.732176, 51.92479], [56.728765, 51.92882], [56.723494, 51.931637], [56.688871, 51.92665], [56.680189, 51.927425], [56.671404, 51.930836], [56.662826, 51.93851], [56.658692, 51.944737], [56.650734, 51.960343], [56.649287, 51.965407], [56.650217, 51.971092], [56.652904, 51.976802], [56.668407, 52.000599], [56.68484, 52.045299], [56.682876, 52.05181], [56.675125, 52.057856], [56.656108, 52.064781], [56.636471, 52.066538], [56.623862, 52.066125], [56.615077, 52.063902], [56.608359, 52.061215], [56.601021, 52.059252], [56.594096, 52.05858], [56.587895, 52.060595], [56.586655, 52.066486], [56.588825, 52.071912], [56.627479, 52.117775], [56.621692, 52.123795], [56.606085, 52.13072], [56.55999, 52.14028], [56.525987, 52.150926], [56.521129, 52.154801], [56.515445, 52.158496], [56.506556, 52.160847], [56.495394, 52.161519], [56.477411, 52.158315], [56.466869, 52.15506], [56.45612, 52.152786], [56.445578, 52.152683], [56.428525, 52.157385], [56.419843, 52.161313], [56.416433, 52.165602], [56.419533, 52.169374], [56.424804, 52.172836], [56.431005, 52.175963], [56.437723, 52.178521], [56.459531, 52.184257], [56.465112, 52.186686], [56.466972, 52.19051], [56.465319, 52.194644], [56.45643, 52.196866], [56.441444, 52.195574], [56.411782, 52.186531], [56.386357, 52.173405], [56.376022, 52.1694], [56.357315, 52.165757], [56.346463, 52.162553], [56.338401, 52.159039], [56.334991, 52.154233], [56.334164, 52.149039], [56.335094, 52.143691], [56.336954, 52.13873], [56.338091, 52.133614], [56.337781, 52.12886], [56.332924, 52.124907], [56.324552, 52.122762], [56.282074, 52.121341], [56.259026, 52.116819], [56.249001, 52.118318], [56.238769, 52.121573], [56.217168, 52.132322], [56.209417, 52.139247], [56.204869, 52.144363], [56.190917, 52.172681], [56.189263, 52.180329], [56.190503, 52.184154], [56.193914, 52.189011], [56.198875, 52.193223], [56.204456, 52.196918], [56.22647, 52.206271], [56.268121, 52.21919], [56.284244, 52.2272], [56.306879, 52.243271], [56.327239, 52.265441], [56.332304, 52.269626], [56.355455, 52.277946], [56.424494, 52.292028], [56.437103, 52.295516], [56.442168, 52.297997], [56.445268, 52.300322], [56.447129, 52.302079], [56.448989, 52.304611], [56.451366, 52.308823], [56.4524, 52.313991], [56.453226, 52.325463], [56.451056, 52.341818], [56.449506, 52.34758], [56.436276, 52.38241], [56.435346, 52.38781], [56.436173, 52.39365], [56.437723, 52.399851], [56.444648, 52.419591], [56.443408, 52.425715], [56.438033, 52.43065], [56.423357, 52.434474], [56.412505, 52.435766], [56.40155, 52.438247], [56.392662, 52.442975], [56.38336, 52.453078], [56.378399, 52.459899], [56.366617, 52.479898], [56.362379, 52.489768], [56.360105, 52.49814], [56.359795, 52.500155], [56.359589, 52.502119], [56.360209, 52.511601], [56.361966, 52.517467], [56.36517, 52.523099], [56.369511, 52.528086], [56.374678, 52.532298], [56.386357, 52.539274], [56.412092, 52.550074], [56.414882, 52.553898], [56.414366, 52.558601], [56.412815, 52.564647], [56.415503, 52.569505], [56.419843, 52.573897], [56.430695, 52.581442], [56.434106, 52.585369], [56.433486, 52.589659], [56.427905, 52.595136], [56.421394, 52.59927], [56.413952, 52.602138], [56.405271, 52.602991], [56.393282, 52.59927], [56.340262, 52.572915], [56.285175, 52.552968], [56.270602, 52.554208], [56.249415, 52.559066], [56.180995, 52.58816], [56.149679, 52.61715], [56.144821, 52.624385], [56.138207, 52.632472], [56.133659, 52.636426], [56.120637, 52.643092], [56.112885, 52.645831], [56.1041, 52.647743], [56.095005, 52.648311], [56.079089, 52.646296], [56.061726, 52.646038], [56.054284, 52.644746], [56.050357, 52.641335], [56.052527, 52.63534], [56.056868, 52.630741], [56.06741, 52.622525], [56.071751, 52.618442], [56.075472, 52.614101], [56.077642, 52.609192], [56.077642, 52.603611], [56.070511, 52.593689], [56.057695, 52.581339], [56.027516, 52.558084], [56.012323, 52.548886], [56.001368, 52.543873], [55.996717, 52.542866], [55.990206, 52.539274], [55.982661, 52.532608], [55.973049, 52.519895], [55.961577, 52.512066], [55.953515, 52.510955], [55.948141, 52.513849], [55.944213, 52.518087], [55.939873, 52.521859], [55.930571, 52.515038], [55.919202, 52.49876], [55.901425, 52.452406], [55.895638, 52.432149], [55.893777, 52.418351], [55.894914, 52.41308], [55.892434, 52.405458], [55.889126, 52.399076], [55.861324, 52.373496], [55.850783, 52.368535], [55.824117, 52.371119], [55.815229, 52.371016], [55.808718, 52.368535], [55.803137, 52.364608], [55.790011, 52.34957], [55.78443, 52.345797], [55.777609, 52.343627], [55.76872, 52.344015], [55.750427, 52.348045], [55.741539, 52.35112], [55.734407, 52.354789], [55.729963, 52.360629], [55.728103, 52.364453], [55.725932, 52.373393], [55.721075, 52.382953], [55.716734, 52.387397], [55.710223, 52.390911], [55.698854, 52.392823], [55.689862, 52.392358], [55.682937, 52.390394], [55.678907, 52.38719], [55.67777, 52.385227], [55.678287, 52.37949], [55.67808, 52.375098], [55.674979, 52.370602], [55.669398, 52.367295], [55.661027, 52.366416], [55.545581, 52.384942], [55.535763, 52.388689], [55.527391, 52.394218], [55.520157, 52.405303], [55.5184, 52.413287], [55.51871, 52.420857], [55.527391, 52.452664], [55.528218, 52.458659], [55.528012, 52.464343], [55.526461, 52.469562], [55.5215, 52.478864], [55.52119, 52.483748], [55.523877, 52.488631], [55.531009, 52.496951], [55.532559, 52.499431], [55.532972, 52.501499], [55.530079, 52.505581], [55.523981, 52.510542], [55.507754, 52.517001], [55.500726, 52.520826], [55.495042, 52.525321], [55.495352, 52.531109], [55.499176, 52.533745], [55.503414, 52.534571], [55.531112, 52.531316], [55.539277, 52.532504], [55.543411, 52.536587], [55.544858, 52.541651], [55.543308, 52.546715], [55.54031, 52.551392], [55.536176, 52.556276], [55.532559, 52.561133], [55.529872, 52.567128], [55.534213, 52.570073], [55.548372, 52.573174], [55.552713, 52.576016], [55.55385, 52.580098], [55.551989, 52.584698], [55.548682, 52.5894], [55.544961, 52.593844], [55.53969, 52.597643], [55.532352, 52.600252], [55.51871, 52.599994], [55.469824, 52.589219], [55.462279, 52.588728], [55.455148, 52.590434], [55.450807, 52.596376], [55.450807, 52.602888], [55.453597, 52.615858], [55.453701, 52.62175], [55.45153, 52.626555], [55.44812, 52.631], [55.435097, 52.643402], [55.424452, 52.650947], [55.411636, 52.657613], [55.400784, 52.659318], [55.387348, 52.658931], [55.363577, 52.65273], [55.354069, 52.646503], [55.348488, 52.639888], [55.346214, 52.634152], [55.341356, 52.629243], [55.332261, 52.626607], [55.318412, 52.62516], [55.302909, 52.625625], [55.280585, 52.629191], [55.263532, 52.635289], [55.249062, 52.647795], [55.258054, 52.663349], [55.270456, 52.670274], [55.277277, 52.672806], [55.283065, 52.676527], [55.285649, 52.682986], [55.285856, 52.690996], [55.279965, 52.702623], [55.275624, 52.709651], [55.273143, 52.716188], [55.273453, 52.721899], [55.278828, 52.728616], [55.285236, 52.732647], [55.293607, 52.734766], [55.302289, 52.735386], [55.311281, 52.73443], [55.319032, 52.732079], [55.324613, 52.728565], [55.328024, 52.724017], [55.329884, 52.718901], [55.331331, 52.707946], [55.332571, 52.702623], [55.334535, 52.697662], [55.338152, 52.69327], [55.343837, 52.689962], [55.351795, 52.688154], [55.36027, 52.688102], [55.369055, 52.688774], [55.384971, 52.691668], [55.39913, 52.696448], [55.410706, 52.703579], [55.415667, 52.707946], [55.420214, 52.712855], [55.423832, 52.718591], [55.426312, 52.724844], [55.425382, 52.731304], [55.419698, 52.738151], [55.407915, 52.742001], [55.376806, 52.744843], [55.366678, 52.748098], [55.35872, 52.75368], [55.353759, 52.765358], [55.354379, 52.773265], [55.357169, 52.780241], [55.36182, 52.784892], [55.368125, 52.788096], [55.375876, 52.789595], [55.384971, 52.789233], [55.410396, 52.783445], [55.417837, 52.7836], [55.421868, 52.786907], [55.423315, 52.791817], [55.423005, 52.802927], [55.412773, 52.820652], [55.411326, 52.826802], [55.409156, 52.832383], [55.406675, 52.837111], [55.401094, 52.84184], [55.393343, 52.846594], [55.354275, 52.856102], [55.263945, 52.862458], [55.252886, 52.84848], [55.250612, 52.843157], [55.246272, 52.836827], [55.241724, 52.832073], [55.231492, 52.828559], [55.217126, 52.825716], [55.172994, 52.822874], [55.161832, 52.823184], [55.148396, 52.834812], [55.15005, 52.846645], [55.149327, 52.850728], [55.135787, 52.867729], [55.13, 52.900182], [55.128656, 52.905298], [55.125245, 52.910362], [55.120595, 52.915323], [55.0807, 52.939146], [55.071192, 52.947156], [55.065507, 52.955166], [55.046284, 52.990151], [55.037706, 53.002708], [55.022513, 53.01971], [55.014244, 53.026686], [54.962465, 53.09725], [54.955023, 53.110454], [54.951613, 53.142493], [54.950682, 53.145904], [54.940864, 53.165024], [54.944481, 53.175256], [54.945515, 53.180423], [54.945101, 53.186211], [54.943551, 53.191379], [54.934353, 53.205228], [54.932079, 53.210086], [54.926601, 53.219543], [54.918746, 53.223987], [54.859112, 53.24042], [54.852601, 53.243701], [54.848053, 53.247758], [54.844952, 53.252409], [54.843092, 53.257525], [54.841748, 53.262796], [54.839681, 53.267808], [54.833687, 53.271787], [54.822318, 53.273028], [54.801648, 53.270754], [54.752038, 53.25029], [54.664085, 53.235511], [54.63959, 53.237423], [54.624294, 53.257421], [54.607137, 53.260496], [54.571377, 53.260625], [54.563626, 53.263829], [54.558975, 53.269695], [54.557942, 53.280392], [54.557942, 53.288169], [54.558975, 53.295404], [54.568173, 53.327882], [54.564453, 53.335324], [54.560732, 53.340982], [54.519598, 53.359792], [54.30235, 53.410487], [54.292841, 53.410435], [54.28354, 53.406405], [54.277545, 53.401754], [54.262972, 53.38731], [54.252741, 53.378861], [54.247159, 53.375347], [54.216877, 53.378758], [54.108357, 53.416559], [54.093784, 53.42444], [54.084172, 53.435524], [54.075594, 53.458288], [54.070323, 53.479423], [54.066912, 53.485004], [54.061641, 53.490482], [54.041694, 53.500042], [54.02061, 53.506088], [54.007071, 53.511773], [54.00211, 53.514718], [53.996012, 53.519524], [53.960769, 53.554871], [53.877983, 53.658017], [53.837882, 53.685612], [53.815144, 53.694656], [53.688641, 53.729537], [53.665696, 53.741733], [53.659908, 53.74628], [53.655774, 53.75243], [53.653294, 53.762817], [53.652674, 53.770362], [53.648023, 53.783746], [53.618774, 53.840176], [53.611643, 53.85816], [53.59831, 53.883275], [53.500125, 54.025798], [53.470463, 54.045745], [53.45713, 54.066158], [53.454753, 54.075847], [53.457234, 54.091944], [53.45806, 54.106362], [53.455993, 54.114475], [53.452583, 54.120573], [53.447208, 54.126567], [53.432946, 54.147703], [53.430465, 54.15654], [53.429948, 54.165635], [53.431499, 54.174006], [53.432325, 54.185633], [53.431085, 54.193023], [53.417443, 54.219482], [53.415892, 54.226406], [53.419716, 54.239274], [53.430258, 54.26568], [53.428295, 54.270796], [53.424677, 54.276997], [53.407521, 54.287927], [53.373621, 54.317822], [53.361115, 54.33255], [53.355638, 54.341283], [53.352847, 54.348828], [53.347783, 54.38159], [53.349333, 54.391254], [53.352434, 54.398902], [53.356878, 54.404018], [53.367627, 54.41239], [53.373621, 54.418281], [53.379099, 54.426291], [53.387574, 54.456935], [53.390881, 54.461586], [53.395532, 54.465668], [53.407004, 54.473109], [53.413205, 54.478225], [53.418683, 54.484427], [53.425918, 54.498793], [53.426538, 54.502048], [53.426124, 54.506105], [53.423644, 54.516104], [53.421473, 54.521039], [53.416306, 54.536594], [53.414135, 54.551503], [53.416823, 54.559487], [53.422507, 54.564577], [53.43801, 54.568556], [53.445141, 54.571088], [53.451239, 54.574499], [53.461781, 54.582793], [53.505396, 54.607365], [53.515008, 54.615504], [53.552835, 54.661883], [53.562447, 54.671237], [53.584874, 54.687722], [53.591075, 54.693587], [53.597587, 54.701003], [53.605648, 54.713715], [53.607509, 54.72157], [53.606888, 54.728133], [53.604201, 54.732784], [53.600997, 54.736866], [53.596967, 54.740225], [53.585908, 54.745858], [53.581464, 54.751439], [53.580844, 54.759397], [53.582497, 54.772316], [53.587458, 54.778724], [53.593039, 54.781928], [53.601101, 54.783168], [53.603168, 54.807094], [53.596967, 54.809187], [53.589835, 54.812727], [53.581774, 54.815052], [53.578673, 54.822184], [53.642752, 54.899931], [53.59583, 54.900629], [53.533508, 54.88864], [53.515008, 54.888381], [53.499298, 54.891327], [53.493304, 54.895719], [53.489273, 54.900525], [53.487206, 54.905486], [53.485966, 54.910912], [53.484105, 54.915976], [53.480074, 54.920317], [53.464262, 54.93166], [53.430258, 54.971632], [53.427468, 54.976283], [53.421887, 54.982174], [53.413515, 54.988737], [53.395945, 54.998762], [53.38313, 55.00331], [53.371657, 55.005842], [53.352744, 55.00548], [53.324735, 55.001656], [53.311713, 55.002431], [53.303961, 55.005635], [53.299, 55.010105], [53.29683, 55.015764], [53.29559, 55.017314], [53.293729, 55.017159], [53.290319, 55.015066], [53.283911, 55.013361], [53.27771, 55.01225], [53.269235, 55.011965], [53.263757, 55.01411], [53.260243, 55.018167], [53.258693, 55.02305], [53.257866, 55.027804], [53.259313, 55.032093], [53.260863, 55.034884], [53.263654, 55.03907], [53.264584, 55.04416], [53.261793, 55.050852], [53.251665, 55.054883], [53.2435, 55.059585], [53.218488, 55.077414], [53.212391, 55.080049], [53.147278, 55.094725], [53.141077, 55.098911], [53.140457, 55.104285], [53.143868, 55.117153], [53.144281, 55.122114], [53.143868, 55.131829], [53.146762, 55.146557], [53.160714, 55.151363], [53.266754, 55.164695], [53.326906, 55.166452], [53.338274, 55.170173], [53.341788, 55.174539], [53.339515, 55.179216], [53.343029, 55.186554], [53.353364, 55.195649], [53.38561, 55.212237], [53.403283, 55.218697], [53.418373, 55.222004], [53.457544, 55.221281], [53.465088, 55.219731], [53.488653, 55.206941], [53.494957, 55.204279], [53.500435, 55.202574], [53.512011, 55.201799], [53.563584, 55.205054], [53.580223, 55.208], [53.591386, 55.211927], [53.595416, 55.216578], [53.59738, 55.221746], [53.59769, 55.227275], [53.595106, 55.243398], [53.59521, 55.248979], [53.59769, 55.254664], [53.602961, 55.259831], [53.663216, 55.284584], [53.675928, 55.291199], [53.681303, 55.295385], [53.68585, 55.300268], [53.697942, 55.318174], [53.703833, 55.325099], [53.713962, 55.33347], [53.722747, 55.337656], [53.84584, 55.367008], [53.891005, 55.381168], [53.907129, 55.393157], [53.923768, 55.41269], [53.933794, 55.428658], [53.935551, 55.452636], [53.938651, 55.461111], [53.942992, 55.467157], [53.970794, 55.481833], [53.979476, 55.487621], [53.991051, 55.497801], [53.995599, 55.505346], [53.997252, 55.512064], [53.995599, 55.532166], [53.996942, 55.54431], [53.999733, 55.550331], [54.003143, 55.554361], [54.008724, 55.557074], [54.046655, 55.5679], [54.05358, 55.570665], [54.089753, 55.592938], [54.116728, 55.604927], [54.12913, 55.611955], [54.136055, 55.614952], [54.1436, 55.617174], [54.163134, 55.620275], [54.174502, 55.623582], [54.180807, 55.628129], [54.184734, 55.633581], [54.187008, 55.646578], [54.189695, 55.654898], [54.194346, 55.660479], [54.229589, 55.686059], [54.230933, 55.692467], [54.224939, 55.696394], [54.193106, 55.701407], [54.176776, 55.707039], [54.170472, 55.710553], [54.165821, 55.714584], [54.158173, 55.723317], [54.153522, 55.727451], [54.118278, 55.749311], [54.109597, 55.757475], [54.103706, 55.767139], [54.103292, 55.767449], [54.095231, 55.772875], [54.076937, 55.765589], [54.049239, 55.758044], [54.026294, 55.76378], [54.042934, 55.777371], [54.047585, 55.79153], [54.039937, 55.802072], [54.020093, 55.804734], [53.9833, 55.785381], [53.965523, 55.782358], [53.962009, 55.791013], [53.964696, 55.797473], [53.975238, 55.821709], [53.978959, 55.827239], [53.985057, 55.830804], [53.991568, 55.833336], [53.996529, 55.837006], [53.997252, 55.840675], [53.993842, 55.847754], [53.98578, 55.851062], [53.976375, 55.852663], [53.9309, 55.846979], [53.919738, 55.847651], [53.912296, 55.850338], [53.891729, 55.865143], [53.881187, 55.872766], [53.882324, 55.879845], [53.868681, 55.886667], [53.846977, 55.879432], [53.82424, 55.881809], [53.801502, 55.886667], [53.780521, 55.886667], [53.772873, 55.882377], [53.766982, 55.875659], [53.762745, 55.869329], [53.759437, 55.866203], [53.746001, 55.866513], [53.726054, 55.877081], [53.695048, 55.884109], [53.651847, 55.902893], [53.631693, 55.906691], [53.645542, 55.93656], [53.654844, 55.948575], [53.661355, 55.953381], [53.670657, 55.958445], [53.679132, 55.961546], [53.696702, 55.965111], [53.777421, 55.970227], [53.785896, 55.973948], [53.791683, 55.979271], [53.798195, 55.996376], [53.799435, 55.998934], [53.800365, 56.000251], [53.821759, 56.024488], [53.837779, 56.038647], [53.847391, 56.040352], [53.857209, 56.042936], [53.887905, 56.031722], [53.948883, 56.022214], [54.005831, 56.02888], [54.046758, 56.057974], [54.082932, 56.123035], [54.098641, 56.143653], [54.117245, 56.158226], [54.184528, 56.188302], [54.193313, 56.193418], [54.253051, 56.226026], [54.266693, 56.231452], [54.320333, 56.243492], [54.345758, 56.252587], [54.363948, 56.274757], [54.367566, 56.283593], [54.37139, 56.299251], [54.368599, 56.306848], [54.361364, 56.311602], [54.342554, 56.315736], [54.336456, 56.317751], [54.332632, 56.319973], [54.328602, 56.324469], [54.319713, 56.339042], [54.320643, 56.34483], [54.325501, 56.348706], [54.341934, 56.353408], [54.352476, 56.358524], [54.38958, 56.360565], [54.402706, 56.35408], [54.411284, 56.343435], [54.419655, 56.337647], [54.425443, 56.338939], [54.430197, 56.342685], [54.433195, 56.348861], [54.44477, 56.380797], [54.448698, 56.387308], [54.454279, 56.394181], [54.4642, 56.403017], [54.470402, 56.409839], [54.475363, 56.41635], [54.531587, 56.514897], [54.544402, 56.531847], [54.559182, 56.53841], [54.590394, 56.529883], [54.613029, 56.510866], [54.624914, 56.506345], [54.657264, 56.498309], [54.667185, 56.494278], [54.67318, 56.489782], [54.676797, 56.485209], [54.684239, 56.477716], [54.724133, 56.449216], [54.743357, 56.439863], [54.758549, 56.434178], [54.783974, 56.428391], [54.855701, 56.405059], [54.872961, 56.401726], [54.886087, 56.400382], [54.906137, 56.39617], [54.91823, 56.391959], [54.930219, 56.386533], [54.93735, 56.382244], [54.942724, 56.377851], [54.946652, 56.373459], [54.948925, 56.368446], [54.950166, 56.363278], [54.950166, 56.357439], [54.947375, 56.344055], [54.947065, 56.336355], [54.951303, 56.326898], [54.958847, 56.322299], [54.968356, 56.320439], [54.999878, 56.323591], [55.103335, 56.344003], [55.13372, 56.34359], [55.137131, 56.339921], [55.139198, 56.33682], [55.141058, 56.333487], [55.142712, 56.329585], [55.14788, 56.324986], [55.154701, 56.322144], [55.172374, 56.317751], [55.180953, 56.319767], [55.186017, 56.323487], [55.186844, 56.328293], [55.187567, 56.34545], [55.190978, 56.350566], [55.197489, 56.355372], [55.216196, 56.363692], [55.224361, 56.364157], [55.229218, 56.362658], [55.230149, 56.35948], [55.230769, 56.354803], [55.233352, 56.34576], [55.235213, 56.342556], [55.252266, 56.336407], [55.315931, 56.329921], [55.412153, 56.334598], [55.447706, 56.340747], [55.455251, 56.344106], [55.479642, 56.359041], [55.515919, 56.386946], [55.528218, 56.393974], [55.548062, 56.399503], [55.684178, 56.419657], [55.71663, 56.432215], [55.733167, 56.436349], [55.745259, 56.438312], [55.756318, 56.438778], [55.765516, 56.437641], [55.783603, 56.432938], [55.814609, 56.429372], [55.847682, 56.430768], [55.864115, 56.433222], [55.875794, 56.436659], [55.891504, 56.452989], [55.913621, 56.466347], [55.921889, 56.461102], [55.922819, 56.437486], [55.924473, 56.428597], [55.929021, 56.418004], [55.950311, 56.384827], [55.959406, 56.374492], [55.967468, 56.367206], [56.035267, 56.328913], [56.056248, 56.297443], [56.064516, 56.291345], [56.073301, 56.289484], [56.111645, 56.296719], [56.169213, 56.2992], [56.199288, 56.30814], [56.209417, 56.309121], [56.221096, 56.307494], [56.231431, 56.303075], [56.255822, 56.298993], [56.266984, 56.300827], [56.275253, 56.305142], [56.280627, 56.311524], [56.287758, 56.317596], [56.299747, 56.324934], [56.322588, 56.344985], [56.332614, 56.347879], [56.349563, 56.348602], [56.359485, 56.350773], [56.366927, 56.354132], [56.370027, 56.358989], [56.369821, 56.363692], [56.367857, 56.368188], [56.367857, 56.372787], [56.370647, 56.378264], [56.383567, 56.385654], [56.393282, 56.38829], [56.40248, 56.387411], [56.409715, 56.384517], [56.423047, 56.37767], [56.448886, 56.374079], [56.528467, 56.383303], [56.559783, 56.369118], [56.559163, 56.364906], [56.558233, 56.360229], [56.535702, 56.343538], [56.501595, 56.32571], [56.500975, 56.322402], [56.502216, 56.319612], [56.574046, 56.263233], [56.582934, 56.260701], [56.592029, 56.260391], [56.610116, 56.261941], [56.618488, 56.261786], [56.624792, 56.260236], [56.628203, 56.256411], [56.632234, 56.241012], [56.638331, 56.227473], [56.645566, 56.222305], [56.654558, 56.220135], [56.729695, 56.224062], [56.737653, 56.222977], [56.741788, 56.220031], [56.744888, 56.215794], [56.75667, 56.187113], [56.764112, 56.176055], [56.77114, 56.169853], [56.779201, 56.165254], [56.817855, 56.152697], [56.825917, 56.147839], [56.832428, 56.141121], [56.848551, 56.120399], [56.856303, 56.113268], [56.864054, 56.1081], [56.881417, 56.103087], [56.896507, 56.100685], [56.91542, 56.099573], [56.925239, 56.099884], [56.933404, 56.101641], [56.997276, 56.124792], [57.024251, 56.129597], [57.029315, 56.132776], [57.030245, 56.137246], [57.029832, 56.142077], [57.031072, 56.146909], [57.035516, 56.150733], [57.043475, 56.152438], [57.155819, 56.157632], [57.165638, 56.15957], [57.172769, 56.163265], [57.184965, 56.17099], [57.21349, 56.182049], [57.219381, 56.185408], [57.222068, 56.189258], [57.219691, 56.194296], [57.213387, 56.194916], [57.194473, 56.192229], [57.187755, 56.193831], [57.185275, 56.196984], [57.187755, 56.200549], [57.200364, 56.213313], [57.206255, 56.216931], [57.227029, 56.225871], [57.239742, 56.233002], [57.245633, 56.237136], [57.2508, 56.241942], [57.255245, 56.247213], [57.262376, 56.259874], [57.265166, 56.266282], [57.267234, 56.272483], [57.266717, 56.277935], [57.262066, 56.292947], [57.262996, 56.297856], [57.267027, 56.301913], [57.273538, 56.304884], [57.283667, 56.306951], [57.341234, 56.311343], [57.408414, 56.32912]]]}}, {"type": "Feature", "properties": {"people": "башкиры", "kind": "historical_max", "year": 1926, "name_hist": "Башкирская АССР", "source": "Transcultural Empire / heiDATA 10.11588/data/10064, CC-BY 4.0", "absorbed": null, "status": "черновик, в показ не вклеен, список и даты утверждает куратор", "note": "\"Большая Башкирия\" 1926 г., уже после передач 1922-1924 гг."}, "geometry": {"type": "MultiPolygon", "coordinates": [[[[55.7105, 56.4135], [55.7317, 56.3285], [55.8735, 56.3357], [55.9445, 56.3427], [56.0011, 56.1939], [56.0933, 56.1797], [56.1853, 56.2223], [56.3199, 56.2789], [56.4121, 56.2647], [56.4831, 56.3213], [56.6247, 56.3285], [56.7735, 56.3781], [56.8303, 56.3781], [56.7523, 56.3213], [56.7169, 56.2363], [56.8019, 56.1725], [56.9011, 56.1585], [57.0429, 56.1301], [57.1421, 56.1017], [57.2201, 56.1089], [57.2271, 56.1655], [57.2129, 56.2151], [57.3193, 56.2577], [57.4609, 56.2151], [57.5601, 56.1655], [57.6949, 56.0805], [57.7941, 56.0947], [57.9215, 56.1089], [58.0987, 56.1655], [58.2405, 56.1725], [58.4601, 56.2081], [58.6869, 56.2223], [58.8713, 56.2293], [59.0129, 56.2009], [59.1121, 56.1585], [59.0341, 56.0663], [59.1051, 56.0309], [59.2469, 56.0521], [59.3459, 56.0451], [59.3105, 55.9601], [59.3105, 55.8609], [59.3601, 55.7545], [59.4097, 55.7261], [59.4735, 55.7971], [59.6083, 55.7545], [59.6861, 55.7119], [59.5727, 55.6625], [59.4311, 55.5987], [59.3319, 55.5419], [59.2469, 55.4711], [59.2397, 55.4001], [59.1831, 55.3221], [58.9917, 55.3081], [58.8075, 55.3365], [58.6161, 55.4001], [58.5097, 55.4427], [58.4035, 55.3931], [58.2759, 55.3151], [58.2759, 55.2443], [58.3751, 55.2159], [58.5453, 55.1379], [58.5735, 55.0955], [58.4955, 55.0529], [58.3681, 55.1167], [58.2405, 55.1805], [58.0987, 55.1947], [58.0209, 55.1097], [58.0421, 55.0245], [58.1979, 54.9749], [58.2121, 54.8971], [58.1059, 54.9041], [57.8861, 54.9253], [57.9003, 55.0813], [57.8295, 55.2513], [57.7515, 55.3365], [57.6311, 55.3365], [57.4467, 55.3365], [57.3901, 55.2443], [57.2979, 55.1521], [57.1917, 55.1025], [57.2201, 54.9963], [57.2201, 54.9111], [57.1703, 54.8121], [57.1845, 54.7411], [57.3263, 54.7837], [57.4751, 54.8049], [57.6097, 54.7695], [57.5673, 54.6207], [57.5815, 54.5143], [57.7515, 54.5285], [57.9429, 54.5285], [58.1555, 54.5285], [58.2901, 54.5923], [58.4247, 54.5569], [58.6587, 54.5497], [58.8003, 54.5851], [58.9703, 54.6773], [59.0413, 54.6703], [59.2469, 54.7127], [59.3673, 54.7553], [59.5799, 54.7623], [59.7357, 54.8261], [59.8845, 54.8191], [59.7641, 54.6985], [59.5231, 54.6419], [59.6153, 54.5285], [59.6719, 54.4363], [59.5657, 54.3797], [59.4311, 54.3513], [59.3035, 54.3159], [59.2325, 54.2733], [59.1831, 54.1955], [59.1617, 54.1033], [59.1617, 54.0253], [59.1405, 53.9333], [59.1405, 53.8979], [59.0697, 53.8695], [59.0271, 53.9615], [58.9137, 53.8411], [58.8499, 53.6497], [58.8357, 53.4371], [58.7933, 53.2955], [58.8003, 53.1111], [58.7719, 52.9127], [58.7437, 52.8135], [58.8995, 52.7427], [58.9917, 52.7001], [58.9917, 52.6009], [59.0719, 52.6083], [59.1149, 52.5931], [59.0369, 52.5359], [58.9589, 52.4579], [58.8667, 52.3799], [58.8193, 52.3325], [58.7605, 52.2737], [58.6967, 52.1957], [58.6541, 52.1037], [58.5763, 51.9973], [58.4487, 51.9193], [58.3423, 51.8415], [58.3251, 51.8361], [58.2503, 51.8131], [58.1369, 51.8415], [58.0235, 51.8697], [57.9243, 51.8909], [57.8109, 51.8131], [57.7045, 51.7705], [57.7045, 51.7139], [57.8321, 51.7067], [57.8959, 51.7067], [57.9101, 51.6501], [57.8675, 51.5651], [57.8463, 51.4659], [57.8533, 51.3807], [57.8889, 51.2887], [57.8109, 51.2037], [57.7259, 51.1683], [57.6267, 51.2391], [57.5629, 51.3383], [57.4565, 51.3879], [57.3289, 51.4091], [57.1661, 51.4305], [56.9251, 51.4729], [56.6629, 51.5651], [56.5565, 51.6429], [56.5423, 51.7563], [56.5565, 51.8627], [56.6133, 51.9335], [56.5069, 52.0753], [56.4999, 52.1675], [56.5423, 52.2879], [56.5849, 52.3729], [56.4431, 52.4437], [56.2589, 52.4579], [56.2377, 52.4153], [56.2305, 52.3445], [56.0817, 52.3163], [56.0533, 52.3941], [55.9329, 52.4225], [55.8053, 52.4579], [55.5927, 52.5217], [55.5431, 52.6563], [55.4651, 52.7981], [55.2667, 52.9257], [55.1251, 52.9681], [54.9763, 53.0533], [54.8203, 53.1879], [54.6573, 53.2517], [54.6007, 53.3863], [54.4163, 53.4289], [54.2961, 53.4871], [54.2293, 53.5041], [54.1623, 53.5783], [54.1365, 53.5987], [54.0301, 53.6823], [53.8505, 53.7579], [53.8033, 53.8523], [53.6143, 53.8995], [53.5859, 54.0319], [53.5955, 54.1831], [53.5349, 54.3017], [53.4925, 54.3797], [53.5491, 54.4717], [53.6271, 54.5993], [53.7051, 54.7127], [53.6413, 54.8191], [53.5491, 54.9253], [53.4073, 54.9253], [53.2727, 54.9609], [53.2089, 55.0955], [53.2161, 55.1593], [53.3507, 55.1593], [53.3649, 55.2513], [53.4073, 55.2797], [53.4853, 55.1875], [53.6199, 55.2301], [53.6387, 55.2749], [53.6555, 55.3151], [53.7333, 55.3435], [53.8327, 55.2939], [53.9105, 55.3435], [54.0169, 55.3859], [54.1303, 55.4711], [54.2153, 55.5135], [54.2365, 55.5915], [54.1657, 55.6269], [54.1019, 55.6837], [54.0453, 55.6979], [53.9319, 55.7191], [53.9177, 55.7687], [53.7759, 55.8041], [53.6837, 55.7971], [53.5491, 55.8183], [53.4863, 55.8469], [53.4711, 55.8537], [53.6625, 55.8891], [53.7689, 55.9175], [53.9459, 55.9175], [54.0877, 55.9175], [54.1657, 55.9459], [54.2081, 56.0805], [54.2437, 56.2223], [54.3499, 56.3213], [54.4067, 56.3923], [54.5625, 56.4065], [54.6475, 56.3497], [54.7609, 56.3001], [54.8105, 56.1939], [54.9239, 56.2577], [55.1295, 56.2435], [55.3491, 56.2719], [55.4341, 56.3285], [55.4625, 56.4065], [55.6327, 56.4135], [55.7105, 56.4135]]], [[[62.2883, 55.9781], [62.2529, 55.9605], [62.0059, 55.9781], [62.0059, 55.9163], [61.9353, 55.6517], [61.8913, 55.5457], [61.7765, 55.4487], [61.6177, 55.4487], [61.4149, 55.5281], [61.3001, 55.4487], [61.1679, 55.3605], [61.0973, 55.2281], [61.0973, 55.0517], [60.9825, 55.0605], [60.8591, 55.0781], [60.8061, 55.2281], [60.6827, 55.2281], [60.5063, 55.1929], [60.3719, 55.1869], [60.2503, 55.2723], [60.2769, 55.3429], [60.4091, 55.4311], [60.5239, 55.4575], [60.6473, 55.5369], [60.7355, 55.5987], [60.5327, 55.6341], [60.6033, 55.7133], [60.8237, 55.8457], [60.8855, 55.9075], [60.9913, 55.8721], [61.1149, 55.8987], [61.2119, 55.9869], [61.2913, 55.9869], [61.4413, 55.9781], [61.6001, 55.9515], [61.6971, 56.1105], [61.8031, 56.2163], [61.8737, 56.2163], [61.9795, 56.1633], [62.0501, 56.1457], [62.1207, 56.0839], [62.2529, 56.0575], [62.2883, 55.9781]]]]}}]}