{"type": "FeatureCollection", "features": [{"type": "Feature", "properties": {"people": "калмыки", "kind": "current_stub", "region_ru": "Республика Калмыкия", "source": "контур Natural Earth admin-1, cache/ne_admin1.geojson, найден по admin='Russia' + name='Kalmyk' (name_ru='Калмыкия', adm1_code='RUS-2390', iso_3166_2='RU-KL')", "caveat": "современная административная нарезка РФ, а не контур народа: границы автономий кроила империя, нынешний субъект - результат этого кромсания; максимальную государственность см. kind=\"historical_max\" и data/peoples/RESEARCH.md", "hist_max_todo": "Калмыцкая АССР до депортации и ликвидации (1935-1943) - собрано за 1926 из готовой векторной геометрии (heiDATA/OSM), см. RESEARCH.md", "absorbed": null, "status": "черновик, в показ не вклеен, список и даты утверждает куратор"}, "geometry": {"type": "Polygon", "coordinates": [[[47.49643, 45.565253], [47.500173, 45.557685], [47.526134, 45.524848], [47.536469, 45.507717], [47.538259, 45.506496], [47.534434, 45.50609], [47.501475, 45.480455], [47.496755, 45.470893], [47.496267, 45.461575], [47.49879, 45.438137], [47.496755, 45.429999], [47.477387, 45.422431], [47.419119, 45.426663], [47.393565, 45.422553], [47.381358, 45.411038], [47.395356, 45.404934], [47.444835, 45.402045], [47.459158, 45.398749], [47.460134, 45.390815], [47.454275, 45.381781], [47.448253, 45.374742], [47.432465, 45.369696], [47.427745, 45.367336], [47.424978, 45.363918], [47.423188, 45.357856], [47.395193, 45.320014], [47.384044, 45.299465], [47.379405, 45.282213], [47.379405, 45.202826], [47.370128, 45.185614], [47.356456, 45.185248], [47.338145, 45.192206], [47.314464, 45.196601], [47.29713, 45.187445], [47.286469, 45.165961], [47.275645, 45.120836], [47.261241, 45.085028], [47.250499, 45.065253], [47.227875, 45.033393], [47.211681, 44.990302], [47.201182, 44.970038], [47.180675, 44.976711], [47.165782, 44.966986], [47.154959, 44.948635], [47.146007, 44.929104], [47.139659, 44.938218], [47.12672, 44.950263], [47.111501, 44.958482], [47.098806, 44.956366], [47.098155, 44.946519], [47.111664, 44.869574], [47.084483, 44.817532], [47.079112, 44.800116], [47.078298, 44.785102], [47.071462, 44.785102], [47.059093, 44.802924], [47.023611, 44.842963], [47.016287, 44.857978], [47.011485, 44.902289], [47.003184, 44.921576], [46.988943, 44.915432], [46.983897, 44.893378], [46.991954, 44.870063], [47.003917, 44.84809], [47.01002, 44.830064], [47.003184, 44.817613], [46.971446, 44.783759], [46.961599, 44.765204], [46.94337, 44.77497], [46.923839, 44.77204], [46.88814, 44.751868], [46.889469, 44.754633], [46.89257, 44.765123], [46.8935, 44.770833], [46.892776, 44.776259], [46.889882, 44.780729], [46.883991, 44.784554], [46.87562, 44.787344], [46.860427, 44.789049], [46.851125, 44.788119], [46.84327, 44.786362], [46.824253, 44.772229], [46.813608, 44.766338], [46.8072, 44.7644], [46.800276, 44.763392], [46.792937, 44.765072], [46.786736, 44.768896], [46.783016, 44.77706], [46.781362, 44.796853], [46.779295, 44.801865], [46.776298, 44.806361], [46.771957, 44.81065], [46.603492, 44.885323], [46.433683, 44.93656], [46.179848, 44.965886], [46.097269, 44.966403], [46.070294, 44.969814], [46.004252, 44.986324], [45.938416, 44.982423], [45.916505, 44.984386], [45.853667, 45.000509], [45.705975, 44.975782], [45.704528, 44.977152], [45.717344, 44.999941], [45.711866, 45.013687], [45.614922, 45.117453], [45.596111, 45.147322], [45.590634, 45.153937], [45.586189, 45.158303], [45.352509, 45.243389], [44.827063, 45.455675], [44.737662, 45.496603], [44.706346, 45.506008], [44.549664, 45.509264], [44.420989, 45.52673], [44.277122, 45.580216], [44.207152, 45.610007], [44.187618, 45.622022], [44.148241, 45.652511], [44.142453, 45.658557], [44.136562, 45.667755], [44.116098, 45.712921], [44.113101, 45.724083], [44.111137, 45.73819], [44.096978, 45.773899], [44.093774, 45.778963], [44.080028, 45.79581], [44.039307, 45.820614], [43.991455, 45.867976], [43.969854, 45.885365], [43.963343, 45.888517], [43.927583, 45.90185], [43.921175, 45.906552], [43.914664, 45.91327], [43.908462, 45.921383], [43.895233, 45.934871], [43.886138, 45.941175], [43.87756, 45.94549], [43.80914, 45.968151], [43.742271, 45.978899], [43.568328, 45.981018], [43.392525, 46.016003], [43.36679, 46.024116], [43.356661, 46.030576], [43.305502, 46.076671], [43.286692, 46.090107], [43.262507, 46.102949], [43.237289, 46.112431], [43.174347, 46.125195], [42.991412, 46.179559], [42.984591, 46.183228], [42.975289, 46.190359], [42.932708, 46.232372], [42.923406, 46.238883], [42.915551, 46.241416], [42.90904, 46.241416], [42.905423, 46.240279], [42.839587, 46.205862], [42.835866, 46.202245], [42.835763, 46.197387], [42.838037, 46.192995], [42.841447, 46.188654], [42.845685, 46.184726], [42.851886, 46.177233], [42.852403, 46.17465], [42.851266, 46.170774], [42.847959, 46.167053], [42.834626, 46.155788], [42.739128, 46.099202], [42.73179, 46.096566], [42.725382, 46.094965], [42.702644, 46.094086], [42.671225, 46.088402], [42.655309, 46.079203], [42.646317, 46.071038], [42.533456, 45.997658], [42.516609, 45.9897], [42.509271, 45.988821], [42.480436, 45.988821], [42.339979, 45.971871], [42.32551, 45.971949], [42.319515, 45.975514], [42.317448, 45.980811], [42.325096, 46.039206], [42.332021, 46.062718], [42.339669, 46.107108], [42.339669, 46.113878], [42.337912, 46.119898], [42.332538, 46.124782], [42.325407, 46.125841], [42.317655, 46.125505], [42.203554, 46.108659], [42.177405, 46.099099], [42.173891, 46.088324], [42.178439, 46.071038], [42.179679, 46.05582], [42.177509, 46.049903], [42.174201, 46.044942], [42.154978, 46.028457], [42.152394, 46.022643], [42.151567, 46.016416], [42.157768, 45.971871], [42.157148, 45.960399], [42.153944, 45.954095], [42.149707, 45.948979], [42.139475, 45.94239], [42.116634, 45.930788], [42.110949, 45.928721], [42.104852, 45.927895], [42.099787, 45.929316], [42.096067, 45.933191], [42.093689, 45.936757], [42.090485, 45.944328], [42.070642, 45.956523], [42.036329, 45.965102], [41.712627, 45.996004], [41.717692, 46.006494], [41.720172, 46.018018], [41.720069, 46.024168], [41.717898, 46.031816], [41.713868, 46.040291], [41.703739, 46.052797], [41.661571, 46.092639], [41.658264, 46.098065], [41.655783, 46.105274], [41.65816, 46.112147], [41.662295, 46.116927], [41.667255, 46.120803], [41.670046, 46.131293], [41.648032, 46.156149], [41.647102, 46.167079], [41.651132, 46.172427], [41.659194, 46.178319], [41.676661, 46.185579], [41.692887, 46.194855], [41.701879, 46.202451], [41.711801, 46.209118], [41.718312, 46.211882], [41.72596, 46.213562], [41.736812, 46.212838], [41.744253, 46.210616], [41.750455, 46.207412], [41.770815, 46.194312], [41.774846, 46.190256], [41.77836, 46.185967], [41.78115, 46.17452], [41.783527, 46.169559], [41.79624, 46.164418], [41.840061, 46.152945], [41.848123, 46.15279], [41.856908, 46.155013], [41.880679, 46.174029], [41.899799, 46.177595], [41.908274, 46.180231], [41.914992, 46.184649], [41.920367, 46.194545], [41.922434, 46.202348], [41.923364, 46.210048], [41.923364, 46.216404], [41.927395, 46.224181], [41.934629, 46.232527], [41.952096, 46.245446], [41.958711, 46.254438], [41.962431, 46.262499], [41.963051, 46.289113], [41.994987, 46.301308], [42.152187, 46.312367], [42.2019, 46.314486], [42.206344, 46.317018], [42.205931, 46.322651], [42.179369, 46.376989], [42.172651, 46.385541], [42.160145, 46.394016], [42.150327, 46.398098], [42.140405, 46.40014], [42.112913, 46.402543], [42.105368, 46.4043], [42.099581, 46.407142], [42.093689, 46.411844], [42.087695, 46.417891], [42.074466, 46.435357], [42.057413, 46.465846], [42.050074, 46.485122], [42.034262, 46.543258], [42.035192, 46.550957], [42.040049, 46.554316], [42.049764, 46.55752], [42.072812, 46.558347], [42.168517, 46.578708], [42.180919, 46.577881], [42.409329, 46.524938], [42.437854, 46.501865], [42.441265, 46.498299], [42.442815, 46.494733], [42.441575, 46.491039], [42.442712, 46.486724], [42.445813, 46.482899], [42.451394, 46.47998], [42.499143, 46.466776], [42.522294, 46.456157], [42.555987, 46.445692], [42.565702, 46.440473], [42.57304, 46.435771], [42.576347, 46.431223], [42.592264, 46.414764], [42.596811, 46.410863], [42.609937, 46.407555], [42.740058, 46.397943], [42.767447, 46.388952], [42.776645, 46.388435], [42.787187, 46.389417], [42.911831, 46.435047], [42.928367, 46.435616], [42.957719, 46.424247], [43.080192, 46.359755], [43.180341, 46.284979], [43.243077, 46.2471], [43.318834, 46.190049], [43.339918, 46.177182], [43.34674, 46.174236], [43.355628, 46.17235], [43.510554, 46.162402], [43.544557, 46.164159], [43.55944, 46.168862], [43.619384, 46.197284], [43.635817, 46.207671], [43.646049, 46.215732], [43.656281, 46.235989], [43.658142, 46.241674], [43.663103, 46.252474], [43.675815, 46.271905], [43.730179, 46.339136], [43.747025, 46.355207], [43.750849, 46.359703], [43.75736, 46.369263], [43.759634, 46.374741], [43.761391, 46.380787], [43.763562, 46.393758], [43.765422, 46.3997], [43.768523, 46.404661], [43.772967, 46.407917], [43.779375, 46.408899], [43.785886, 46.407452], [43.819889, 46.389572], [43.828261, 46.381924], [43.843247, 46.364044], [43.853169, 46.348954], [43.85937, 46.336397], [43.861954, 46.321927], [43.861747, 46.291826], [43.872186, 46.29056], [43.882107, 46.295417], [43.901124, 46.309783], [43.922415, 46.322496], [43.960759, 46.336138], [43.966443, 46.339756], [43.969854, 46.346112], [43.970164, 46.356602], [43.96572, 46.368798], [43.960139, 46.375309], [43.936574, 46.394869], [43.921175, 46.411379], [43.918384, 46.415979], [43.917351, 46.428458], [43.927686, 46.521037], [43.926446, 46.528323], [43.920761, 46.537108], [43.914974, 46.542327], [43.908876, 46.546255], [43.902675, 46.549045], [43.826814, 46.567701], [43.820509, 46.570284], [43.815858, 46.574263], [43.814308, 46.580051], [43.817098, 46.588733], [43.82299, 46.595916], [43.835392, 46.604546], [43.861954, 46.618938], [43.866915, 46.622374], [43.874356, 46.629454], [43.908256, 46.672785], [43.912596, 46.682396], [43.912596, 46.692189], [43.915697, 46.706968], [43.930373, 46.72273], [44.027318, 46.780349], [44.05295, 46.798953], [44.05636, 46.803552], [44.065455, 46.818538], [44.072587, 46.827736], [44.078788, 46.831612], [44.087263, 46.834919], [44.102869, 46.83678], [44.162194, 46.832878], [44.190202, 46.844479], [44.262446, 46.900135], [44.327558, 47.110768], [44.330969, 47.403257], [44.33438, 47.450076], [44.333966, 47.475242], [44.332726, 47.48072], [44.330245, 47.485009], [44.325078, 47.488213], [44.318877, 47.4909], [44.256658, 47.505938], [44.25056, 47.508883], [44.24684, 47.513121], [44.245496, 47.51865], [44.244566, 47.569319], [44.238778, 47.573376], [44.228443, 47.574642], [44.12633, 47.544643], [44.120852, 47.542215], [44.117649, 47.538132], [44.116822, 47.533481], [44.119509, 47.428837], [44.116408, 47.41845], [44.109587, 47.413695], [44.003444, 47.408838], [43.999103, 47.407753], [43.994245, 47.405944], [43.9836, 47.400466], [43.973678, 47.393387], [43.96479, 47.38548], [43.957762, 47.37623], [43.955281, 47.370778], [43.953317, 47.364861], [43.942259, 47.29949], [43.940295, 47.273394], [43.939158, 47.268898], [43.934714, 47.266883], [43.927273, 47.266831], [43.802319, 47.282541], [43.795911, 47.285228], [43.792707, 47.289724], [43.793327, 47.297785], [43.797978, 47.317474], [43.801492, 47.343725], [43.801182, 47.362949], [43.799218, 47.370649], [43.784026, 47.404084], [43.75674, 47.447983], [43.731522, 47.476611], [43.647496, 47.547382], [43.633647, 47.570378], [43.636334, 47.575727], [43.639745, 47.580843], [43.653491, 47.606759], [43.705167, 47.683136], [43.709715, 47.688149], [43.718706, 47.69652], [43.729042, 47.703497], [43.78909, 47.730937], [43.822059, 47.749747], [43.841593, 47.75693], [43.864227, 47.761788], [43.891512, 47.761969], [43.908876, 47.759359], [43.916834, 47.757447], [43.934817, 47.755432], [43.943396, 47.755328], [43.951457, 47.756052], [43.957658, 47.757912], [43.963549, 47.760444], [43.974298, 47.766826], [44.004064, 47.789383], [44.032279, 47.8161], [44.037447, 47.825867], [44.03848, 47.833515], [44.020807, 47.856252], [44.01812, 47.86173], [44.01874, 47.865037], [44.058841, 47.900487], [44.071553, 47.906559], [44.082509, 47.909014], [44.389053, 47.868267], [44.388123, 47.908187], [44.394117, 47.923277], [44.413341, 47.938883], [44.445484, 47.960432], [44.461917, 47.976193], [44.465328, 47.983531], [44.466878, 47.990249], [44.466464, 48.030195], [44.465224, 48.038774], [44.461917, 48.044458], [44.456233, 48.048179], [44.447654, 48.049677], [44.347092, 48.054897], [44.33717, 48.057842], [44.328075, 48.063837], [44.318773, 48.078487], [44.314122, 48.094119], [44.295726, 48.213233], [44.296036, 48.233284], [44.297172, 48.239588], [44.299033, 48.245428], [44.302133, 48.250544], [44.305854, 48.255065], [44.311125, 48.258192], [44.318773, 48.25907], [44.355463, 48.255298], [44.363525, 48.25367], [44.37045, 48.251345], [44.375824, 48.24796], [44.380165, 48.244136], [44.383782, 48.239898], [44.388123, 48.235816], [44.393394, 48.232844], [44.401145, 48.231165], [44.417682, 48.23225], [44.42564, 48.233594], [44.44228, 48.233904], [44.448791, 48.231682], [44.454062, 48.228452], [44.461814, 48.220209], [44.467085, 48.216592], [44.473699, 48.214163], [44.521965, 48.209512], [44.529613, 48.207859], [44.534781, 48.205482], [44.538191, 48.201709], [44.540155, 48.196903], [44.541085, 48.185225], [44.540052, 48.160058], [44.543772, 48.136339], [44.549353, 48.114247], [44.549664, 48.10802], [44.545013, 48.074792], [44.545013, 48.068487], [44.546666, 48.063061], [44.551834, 48.05947], [44.568991, 48.056524], [44.588834, 48.055052], [44.598963, 48.055413], [44.610435, 48.059909], [44.619633, 48.067428], [44.633896, 48.08213], [44.643611, 48.088073], [44.653947, 48.09045], [44.662318, 48.089261], [44.765981, 48.058824], [44.779004, 48.05885], [44.796367, 48.061253], [44.82975, 48.071691], [44.867267, 48.090295], [44.933206, 48.13546], [44.941474, 48.144193], [44.944265, 48.149309], [44.945918, 48.154632], [44.945608, 48.160213], [44.940647, 48.169799], [44.934033, 48.179023], [44.933413, 48.185328], [44.935273, 48.192692], [44.946228, 48.204396], [44.9546, 48.208479], [44.962558, 48.208686], [45.096193, 48.137837], [45.109836, 48.127347], [45.1149, 48.12404], [45.118828, 48.120526], [45.129163, 48.113911], [45.136915, 48.111844], [45.300625, 48.097685], [45.380931, 48.096961], [45.404908, 48.09169], [45.546915, 47.997071], [45.556114, 47.995159], [45.564485, 47.995236], [45.67683, 48.032314], [45.695433, 48.035053], [45.708869, 48.035311], [45.716517, 48.032934], [45.722098, 48.029136], [45.738842, 48.007303], [45.740599, 48.003427], [45.741012, 48.001205], [45.741012, 48.00012], [45.712693, 47.950458], [45.710006, 47.944671], [45.708146, 47.938521], [45.707009, 47.93201], [45.707009, 47.908394], [45.709386, 47.897128], [45.712693, 47.886328], [45.734087, 47.843488], [45.74742, 47.829975], [45.766644, 47.821009], [45.782043, 47.81119], [45.789174, 47.804318], [45.793929, 47.797935], [45.815323, 47.760548], [45.81987, 47.747939], [45.828862, 47.728198], [45.835063, 47.722204], [45.843331, 47.719258], [45.891907, 47.714866], [45.907203, 47.710163], [45.925394, 47.645051], [45.954849, 47.618205], [46.116286, 47.502424], [46.29705, 47.437001], [46.315034, 47.433177], [46.328056, 47.432118], [46.346246, 47.433281], [46.388001, 47.444805], [46.449393, 47.478136], [46.641939, 47.612701], [46.6654, 47.624122], [46.672531, 47.626292], [46.68452, 47.627998], [46.71563, 47.619781], [46.73568, 47.611978], [46.805857, 47.578181], [46.788183, 47.556632], [46.526494, 47.434754], [46.518742, 47.42956], [46.514712, 47.425581], [46.512851, 47.421602], [46.511818, 47.417881], [46.511198, 47.412869], [46.511301, 47.406435], [46.513161, 47.398658], [46.515642, 47.392611], [46.52577, 47.377884], [46.551298, 47.329385], [46.570936, 47.303573], [46.602975, 47.270862], [46.657132, 47.193115], [46.673978, 47.162264], [46.725758, 47.089452], [46.740331, 47.072476], [46.744672, 47.068704], [46.748392, 47.064518], [46.775367, 47.042323], [46.778985, 47.038757], [46.782292, 47.034339], [46.785496, 47.027362], [46.800896, 47.003643], [46.817329, 46.996822], [46.835932, 46.991706], [46.912, 46.979613], [46.924816, 46.973981], [46.934014, 46.962663], [46.987861, 46.86329], [47.000263, 46.855435], [47.014423, 46.852334], [47.091937, 46.856546], [47.111161, 46.855616], [47.12594, 46.850681], [47.140203, 46.83647], [47.146921, 46.818796], [47.175756, 46.786343], [47.19312, 46.771151], [47.206659, 46.756371], [47.21348, 46.742315], [47.201801, 46.730223], [47.184438, 46.716038], [47.168005, 46.705444], [47.149505, 46.668263], [47.021967, 46.63519], [46.98135, 46.610385], [46.950757, 46.584909], [46.938665, 46.571266], [46.930087, 46.555557], [46.942076, 46.540338], [46.951377, 46.513569], [46.958199, 46.455976], [46.957889, 46.443677], [46.954065, 46.434065], [46.939699, 46.431585], [46.734956, 46.440783], [46.703124, 46.437373], [46.663643, 46.429001], [46.615274, 46.406005], [46.598634, 46.395618], [46.531145, 46.337689], [46.493007, 46.285702], [46.500139, 46.280276], [46.504376, 46.273817], [46.856293, 46.244154], [46.869625, 46.239297], [46.87562, 46.233922], [46.863424, 46.162402], [46.836242, 46.093595], [46.834692, 46.086154], [46.835829, 46.07755], [46.84017, 46.075534], [46.845544, 46.075534], [47.089043, 46.118167], [47.144854, 46.118374], [47.161597, 46.11548], [47.165938, 46.112741], [47.173793, 46.104835], [47.175963, 46.09977], [47.176067, 46.094086], [47.175343, 46.08835], [47.173173, 46.083131], [47.169969, 46.078376], [47.108577, 46.007993], [47.10465, 46.004427], [47.100206, 45.999415], [47.098655, 45.998097], [47.094935, 45.995539], [47.090284, 45.993084], [47.081912, 45.99001], [47.061552, 45.985462], [47.05597, 45.983421], [47.051113, 45.980139], [47.047289, 45.976135], [47.040158, 45.965722], [46.906212, 45.63675], [46.888952, 45.578278], [46.922232, 45.577658], [47.153122, 45.615666], [47.254098, 45.647447], [47.296059, 45.646258], [47.30195, 45.647137], [47.306291, 45.649255], [47.310942, 45.652304], [47.315283, 45.656025], [47.328925, 45.671579], [47.3374, 45.677574], [47.35404, 45.684499], [47.364582, 45.685429], [47.373574, 45.68424], [47.379775, 45.681424], [47.385253, 45.677884], [47.398792, 45.666567], [47.404373, 45.663053], [47.416465, 45.65711], [47.460804, 45.642641], [47.466281, 45.639023], [47.470002, 45.634838], [47.471656, 45.629877], [47.472483, 45.613237], [47.475583, 45.597165], [47.475893, 45.591843], [47.478787, 45.581507], [47.480544, 45.577735], [47.485918, 45.571327], [47.49643, 45.565253]]]}}, {"type": "Feature", "properties": {"people": "калмыки", "kind": "historical_max", "year": 1926, "name_hist": "Калмыцкая АО", "source": "Transcultural Empire / heiDATA 10.11588/data/10064, CC-BY 4.0", "absorbed": null, "status": "черновик, в показ не вклеен, список и даты утверждает куратор"}, "geometry": {"type": "Polygon", "coordinates": [[[45.7147, 48.1323], [45.6865, 47.9717], [45.8755, 47.8489], [46.0171, 47.7637], [46.1117, 47.8771], [46.1777, 47.8299], [46.1401, 47.7449], [46.2061, 47.6409], [46.3479, 47.5369], [46.4801, 47.4519], [46.6407, 47.5275], [46.7163, 47.5559], [46.7163, 47.5181], [46.6503, 47.3953], [46.6881, 47.2913], [46.8297, 47.1591], [46.8581, 46.9795], [47.0187, 46.9229], [47.1037, 46.9795], [47.1889, 46.9323], [47.2361, 46.8379], [47.3873, 46.9133], [47.4629, 46.8661], [47.3495, 46.7621], [47.4723, 46.7055], [47.6613, 46.7055], [47.6045, 46.6015], [47.7463, 46.6205], [47.8029, 46.4977], [47.7747, 46.4315], [47.6613, 46.3843], [47.5195, 46.3749], [47.3589, 46.3749], [47.2549, 46.3181], [47.3305, 46.2141], [47.5005, 46.2425], [47.6423, 46.2709], [47.7369, 46.2519], [47.6517, 46.1197], [47.6613, 46.0063], [47.6613, 45.8173], [47.6613, 45.7701], [47.6747, 45.7056], [47.6716, 45.7058], [47.6652, 45.7075], [47.6574, 45.7136], [47.6527, 45.7204], [47.6484, 45.7341], [47.6437, 45.7409], [47.6328, 45.7507], [47.6227, 45.7569], [47.6195, 45.7589], [47.6034, 45.7651], [47.5804, 45.7709], [47.5601, 45.7716], [47.5513, 45.762], [47.5553, 45.7436], [47.5652, 45.7412], [47.5784, 45.7449], [47.5923, 45.7446], [47.5916, 45.7426], [47.5911, 45.741], [47.6047, 45.7188], [47.6066, 45.7174], [47.6126, 45.7142], [47.6209, 45.7131], [47.6261, 45.7091], [47.6229, 45.6972], [47.6227, 45.6882], [47.6257, 45.679], [47.6258, 45.6718], [47.6161, 45.6689], [47.6081, 45.6675], [47.6063, 45.664], [47.6087, 45.6595], [47.6126, 45.6553], [47.6087, 45.6388], [47.6237, 45.6307], [47.6611, 45.6218], [47.6455, 45.5922], [47.6443, 45.5791], [47.6537, 45.5591], [47.6281, 45.559], [47.615, 45.5702], [47.5991, 45.6081], [47.5859, 45.6258], [47.5407, 45.6658], [47.5291, 45.6705], [47.5241, 45.6703], [47.4824, 45.6689], [47.473, 45.6738], [47.4562, 45.6877], [47.4326, 45.6945], [47.436, 45.703], [47.4465, 45.7121], [47.4551, 45.7174], [47.4632, 45.7181], [47.5034, 45.7174], [47.4808, 45.7305], [47.4253, 45.7348], [47.4141, 45.7481], [47.4087, 45.7514], [47.3967, 45.7529], [47.3848, 45.7502], [47.3794, 45.7409], [47.3831, 45.734], [47.4107, 45.7136], [47.4131, 45.708], [47.4124, 45.6956], [47.4141, 45.6907], [47.4199, 45.6832], [47.4277, 45.6764], [47.4319, 45.6753], [47.4435, 45.6767], [47.4483, 45.6764], [47.4536, 45.6721], [47.4632, 45.6591], [47.4688, 45.6553], [47.5151, 45.6495], [47.5204, 45.648], [47.5348, 45.6439], [47.5513, 45.628], [47.5482, 45.6208], [47.5527, 45.6103], [47.5597, 45.5985], [47.5702, 45.5737], [47.5721, 45.567], [47.5718, 45.5591], [47.5677, 45.5536], [47.5542, 45.5456], [47.5513, 45.5423], [47.5423, 45.5371], [47.5238, 45.5494], [47.5088, 45.5711], [47.5096, 45.5939], [47.4943, 45.5852], [47.4932, 45.572], [47.4964, 45.5653], [47.5002, 45.5577], [47.5261, 45.5248], [47.5365, 45.5077], [47.5383, 45.5065], [47.5344, 45.5061], [47.5015, 45.4805], [47.4968, 45.4709], [47.4963, 45.4616], [47.4988, 45.4381], [47.4968, 45.43], [47.4774, 45.4224], [47.4191, 45.4267], [47.3936, 45.4226], [47.3814, 45.411], [47.3954, 45.4049], [47.4448, 45.402], [47.4592, 45.3987], [47.4601, 45.3908], [47.4543, 45.3818], [47.4483, 45.3747], [47.4325, 45.3697], [47.4277, 45.3673], [47.425, 45.3639], [47.4232, 45.3579], [47.3952, 45.32], [47.384, 45.2995], [47.3794, 45.2822], [47.3794, 45.2028], [47.3701, 45.1856], [47.3565, 45.1852], [47.3381, 45.1922], [47.3145, 45.1966], [47.2971, 45.1874], [47.2865, 45.166], [47.2756, 45.1208], [47.2612, 45.085], [47.2505, 45.0653], [47.2279, 45.0334], [47.2117, 44.9903], [47.2012, 44.97], [47.1807, 44.9767], [47.1658, 44.967], [47.155, 44.9486], [47.146, 44.9291], [47.1397, 44.9382], [47.1267, 44.9503], [47.1115, 44.9585], [47.0988, 44.9564], [47.0982, 44.9465], [47.1117, 44.8696], [47.0845, 44.8175], [47.0791, 44.8001], [47.0783, 44.7851], [47.0715, 44.7851], [47.0591, 44.8029], [47.0236, 44.843], [47.0163, 44.858], [47.0115, 44.9023], [47.0032, 44.9216], [46.9889, 44.9154], [46.9839, 44.8934], [46.992, 44.8701], [47.0039, 44.8481], [47.01, 44.8301], [47.0032, 44.8176], [46.9842, 44.7974], [46.8811, 44.8789], [46.8099, 44.8719], [46.6753, 44.8719], [46.5407, 44.9215], [46.3705, 44.9639], [46.2217, 44.9853], [46.0729, 45.0277], [45.9503, 45.0475], [45.8959, 45.0561], [45.8391, 45.0561], [45.7115, 45.0349], [45.5981, 45.0065], [45.6393, 45.1275], [45.4407, 45.2693], [45.0061, 45.3733], [44.5809, 45.5149], [44.2785, 45.6379], [44.1369, 45.8363], [44.0519, 45.9591], [43.6833, 46.0251], [43.4659, 46.0819], [43.2581, 46.2237], [43.0881, 46.2897], [42.8895, 46.1385], [42.6439, 46.0063], [42.4267, 45.9685], [42.3415, 46.0347], [42.2659, 46.0441], [42.2471, 45.9117], [42.0581, 45.8741], [41.9919, 45.9779], [41.9163, 46.0347], [41.7275, 45.9495], [41.6707, 46.0725], [41.6991, 46.1669], [41.8597, 46.1953], [41.9069, 46.2991], [42.0203, 46.3087], [42.1621, 46.3653], [42.1243, 46.4693], [42.1337, 46.6205], [42.3227, 46.6205], [42.5021, 46.5733], [42.7383, 46.5543], [42.9369, 46.4977], [43.0975, 46.4693], [43.1447, 46.5827], [43.3431, 46.4693], [43.5037, 46.3749], [43.6927, 46.3087], [43.9385, 46.2709], [44.0329, 46.3749], [44.0329, 46.5543], [44.0423, 46.7245], [44.0423, 46.8567], [44.0613, 46.9417], [44.1653, 46.9985], [44.1653, 47.1495], [44.2881, 47.1213], [44.2219, 47.2629], [44.1935, 47.4047], [44.2597, 47.5087], [44.2881, 47.6221], [44.1935, 47.6409], [44.0801, 47.5937], [43.9479, 47.5749], [43.9761, 47.4897], [43.8251, 47.4803], [43.7683, 47.5749], [43.7399, 47.7071], [43.7305, 47.7827], [43.8723, 47.7921], [44.0235, 47.8393], [44.1179, 47.8583], [44.1369, 47.8583], [44.2407, 47.7827], [44.3731, 47.8205], [44.4865, 47.7827], [44.6187, 47.8015], [44.5903, 47.9811], [44.6093, 48.1323], [44.7037, 48.1795], [44.8549, 48.1795], [45.0155, 48.1511], [45.1857, 48.1133], [45.3935, 48.1323], [45.5353, 48.1985], [45.7147, 48.1323]]]}}]}